<?xml version="1.0" encoding="UTF-8"?>
<gpx creator="StravaGPX" version="1.1" xmlns="http://www.topografix.com/GPX/1/1" xmlns:xsi="http://www.w3.org/2001/XMLSchema-instance" xsi:schemaLocation="http://www.topografix.com/GPX/1/1 http://www.topografix.com/GPX/1/1/gpx.xsd">
 <metadata>
  <time>2021-08-07T00:16:59Z</time>
 </metadata>
 <trk>
  <name>Mt. Amagi</name>
  <type>hiking</type>
  <trkseg>
   <trkpt lat="34.8727870" lon="139.0236220">
    <ele>1048.1</ele>
    <time>2021-08-07T00:16:59Z</time>
   </trkpt>
   <trkpt lat="34.8725220" lon="139.0235500">
    <ele>1049.1</ele>
    <time>2021-08-07T00:18:07Z</time>
   </trkpt>
   <trkpt lat="34.8724350" lon="139.0235410">
    <ele>1049.6</ele>
    <time>2021-08-07T00:18:23Z</time>
   </trkpt>
   <trkpt lat="34.8723470" lon="139.0235330">
    <ele>1047.9</ele>
    <time>2021-08-07T00:37:52Z</time>
   </trkpt>
   <trkpt lat="34.8722590" lon="139.0235240">
    <ele>1046.1</ele>
    <time>2021-08-07T00:37:52Z</time>
   </trkpt>
   <trkpt lat="34.8706790" lon="139.0210000">
    <ele>1064.7</ele>
    <time>2021-08-07T00:38:43Z</time>
   </trkpt>
   <trkpt lat="34.8706810" lon="139.0207800">
    <ele>1066.2</ele>
    <time>2021-08-07T00:39:15Z</time>
   </trkpt>
   <trkpt lat="34.8706680" lon="139.0205490">
    <ele>1068.5</ele>
    <time>2021-08-07T00:40:23Z</time>
   </trkpt>
   <trkpt lat="34.8705800" lon="139.0202940">
    <ele>1073.0</ele>
    <time>2021-08-07T00:41:25Z</time>
   </trkpt>
   <trkpt lat="34.8704730" lon="139.0200880">
    <ele>1078.2</ele>
    <time>2021-08-07T00:41:49Z</time>
   </trkpt>
   <trkpt lat="34.8704840" lon="139.0198570">
    <ele>1081.9</ele>
    <time>2021-08-07T00:42:35Z</time>
   </trkpt>
   <trkpt lat="34.8702880" lon="139.0197940">
    <ele>1084.9</ele>
    <time>2021-08-07T00:42:51Z</time>
   </trkpt>
   <trkpt lat="34.8702180" lon="139.0195810">
    <ele>1087.2</ele>
    <time>2021-08-07T00:46:47Z</time>
   </trkpt>
   <trkpt lat="34.8701170" lon="139.0193840">
    <ele>1089.2</ele>
    <time>2021-08-07T00:47:15Z</time>
   </trkpt>
   <trkpt lat="34.8700800" lon="139.0191160">
    <ele>1090.5</ele>
    <time>2021-08-07T00:47:43Z</time>
   </trkpt>
   <trkpt lat="34.8700630" lon="139.0188940">
    <ele>1090.0</ele>
    <time>2021-08-07T00:48:03Z</time>
   </trkpt>
   <trkpt lat="34.8700160" lon="139.0186820">
    <ele>1088.3</ele>
    <time>2021-08-07T00:48:47Z</time>
   </trkpt>
   <trkpt lat="34.8701420" lon="139.0184530">
    <ele>1085.5</ele>
    <time>2021-08-07T00:49:21Z</time>
   </trkpt>
   <trkpt lat="34.8699580" lon="139.0184790">
    <ele>1081.7</ele>
    <time>2021-08-07T00:50:45Z</time>
   </trkpt>
   <trkpt lat="34.8697780" lon="139.0184390">
    <ele>1078.1</ele>
    <time>2021-08-07T00:52:07Z</time>
   </trkpt>
   <trkpt lat="34.8696120" lon="139.0183430">
    <ele>1074.1</ele>
    <time>2021-08-07T00:52:25Z</time>
   </trkpt>
   <trkpt lat="34.8694510" lon="139.0182350">
    <ele>1071.6</ele>
    <time>2021-08-07T00:54:41Z</time>
   </trkpt>
   <trkpt lat="34.8692450" lon="139.0183190">
    <ele>1072.7</ele>
    <time>2021-08-07T00:56:01Z</time>
   </trkpt>
   <trkpt lat="34.8689210" lon="139.0184800">
    <ele>1075.4</ele>
    <time>2021-08-07T00:58:35Z</time>
   </trkpt>
   <trkpt lat="34.8687390" lon="139.0185620">
    <ele>1077.3</ele>
    <time>2021-08-07T00:59:35Z</time>
   </trkpt>
   <trkpt lat="34.8685440" lon="139.0185900">
    <ele>1078.9</ele>
    <time>2021-08-07T00:59:59Z</time>
   </trkpt>
   <trkpt lat="34.8681260" lon="139.0186660">
    <ele>1083.8</ele>
    <time>2021-08-07T01:01:23Z</time>
   </trkpt>
   <trkpt lat="34.8679080" lon="139.0187590">
    <ele>1086.0</ele>
    <time>2021-08-07T01:02:51Z</time>
   </trkpt>
   <trkpt lat="34.8676900" lon="139.0189360">
    <ele>1087.9</ele>
    <time>2021-08-07T01:03:17Z</time>
   </trkpt>
   <trkpt lat="34.8675390" lon="139.0190930">
    <ele>1089.7</ele>
    <time>2021-08-07T01:04:27Z</time>
   </trkpt>
   <trkpt lat="34.8674880" lon="139.0193140">
    <ele>1091.5</ele>
    <time>2021-08-07T01:05:27Z</time>
   </trkpt>
   <trkpt lat="34.8673400" lon="139.0194480">
    <ele>1094.0</ele>
    <time>2021-08-07T01:05:53Z</time>
   </trkpt>
   <trkpt lat="34.8672390" lon="139.0196480">
    <ele>1095.0</ele>
    <time>2021-08-07T01:06:53Z</time>
   </trkpt>
   <trkpt lat="34.8670890" lon="139.0198510">
    <ele>1096.6</ele>
    <time>2021-08-07T01:07:43Z</time>
   </trkpt>
   <trkpt lat="34.8669020" lon="139.0199540">
    <ele>1098.3</ele>
    <time>2021-08-07T01:08:23Z</time>
   </trkpt>
   <trkpt lat="34.8667240" lon="139.0199230">
    <ele>1100.0</ele>
    <time>2021-08-07T01:09:49Z</time>
   </trkpt>
   <trkpt lat="34.8665350" lon="139.0199280">
    <ele>1102.1</ele>
    <time>2021-08-07T01:10:21Z</time>
   </trkpt>
   <trkpt lat="34.8663300" lon="139.0199010">
    <ele>1105.5</ele>
    <time>2021-08-07T01:10:37Z</time>
   </trkpt>
   <trkpt lat="34.8661380" lon="139.0199330">
    <ele>1109.2</ele>
    <time>2021-08-07T01:12:01Z</time>
   </trkpt>
   <trkpt lat="34.8659630" lon="139.0199890">
    <ele>1111.7</ele>
    <time>2021-08-07T01:13:03Z</time>
   </trkpt>
   <trkpt lat="34.8657670" lon="139.0200400">
    <ele>1114.3</ele>
    <time>2021-08-07T01:14:05Z</time>
   </trkpt>
   <trkpt lat="34.8655840" lon="139.0200510">
    <ele>1116.6</ele>
    <time>2021-08-07T01:14:33Z</time>
   </trkpt>
   <trkpt lat="34.8653970" lon="139.0200220">
    <ele>1118.5</ele>
    <time>2021-08-07T01:16:31Z</time>
   </trkpt>
   <trkpt lat="34.8652060" lon="139.0199710">
    <ele>1121.4</ele>
    <time>2021-08-07T01:16:59Z</time>
   </trkpt>
   <trkpt lat="34.8649910" lon="139.0199490">
    <ele>1124.9</ele>
    <time>2021-08-07T01:18:29Z</time>
   </trkpt>
   <trkpt lat="34.8648050" lon="139.0199050">
    <ele>1128.2</ele>
    <time>2021-08-07T01:19:25Z</time>
   </trkpt>
   <trkpt lat="34.8646250" lon="139.0198530">
    <ele>1131.4</ele>
    <time>2021-08-07T01:19:49Z</time>
   </trkpt>
   <trkpt lat="34.8644430" lon="139.0198500">
    <ele>1135.4</ele>
    <time>2021-08-07T01:20:43Z</time>
   </trkpt>
   <trkpt lat="34.8642360" lon="139.0198640">
    <ele>1139.4</ele>
    <time>2021-08-07T01:21:43Z</time>
   </trkpt>
   <trkpt lat="34.8640650" lon="139.0199410">
    <ele>1142.7</ele>
    <time>2021-08-07T01:22:29Z</time>
   </trkpt>
   <trkpt lat="34.8638930" lon="139.0200380">
    <ele>1146.0</ele>
    <time>2021-08-07T01:23:41Z</time>
   </trkpt>
   <trkpt lat="34.8638010" lon="139.0202360">
    <ele>1146.8</ele>
    <time>2021-08-07T01:24:15Z</time>
   </trkpt>
   <trkpt lat="34.8637870" lon="139.0204550">
    <ele>1146.7</ele>
    <time>2021-08-07T01:25:07Z</time>
   </trkpt>
   <trkpt lat="34.8637230" lon="139.0207340">
    <ele>1146.3</ele>
    <time>2021-08-07T01:26:13Z</time>
   </trkpt>
   <trkpt lat="34.8636690" lon="139.0209800">
    <ele>1145.0</ele>
    <time>2021-08-07T01:27:45Z</time>
   </trkpt>
   <trkpt lat="34.8635900" lon="139.0212100">
    <ele>1145.8</ele>
    <time>2021-08-07T01:28:15Z</time>
   </trkpt>
   <trkpt lat="34.8634640" lon="139.0213680">
    <ele>1148.7</ele>
    <time>2021-08-07T01:29:27Z</time>
   </trkpt>
   <trkpt lat="34.8634920" lon="139.0215910">
    <ele>1152.8</ele>
    <time>2021-08-07T01:30:53Z</time>
   </trkpt>
   <trkpt lat="34.8633510" lon="139.0217350">
    <ele>1157.5</ele>
    <time>2021-08-07T01:34:03Z</time>
   </trkpt>
   <trkpt lat="34.8631700" lon="139.0216800">
    <ele>1163.0</ele>
    <time>2021-08-07T01:36:27Z</time>
   </trkpt>
   <trkpt lat="34.8630380" lon="139.0215250">
    <ele>1168.9</ele>
    <time>2021-08-07T01:38:25Z</time>
   </trkpt>
   <trkpt lat="34.8628980" lon="139.0216800">
    <ele>1172.5</ele>
    <time>2021-08-07T01:39:21Z</time>
   </trkpt>
   <trkpt lat="34.8627860" lon="139.0218540">
    <ele>1175.5</ele>
    <time>2021-08-07T01:41:45Z</time>
   </trkpt>
   <trkpt lat="34.8626150" lon="139.0220050">
    <ele>1179.7</ele>
    <time>2021-08-07T01:42:57Z</time>
   </trkpt>
   <trkpt lat="34.8624350" lon="139.0220450">
    <ele>1183.8</ele>
    <time>2021-08-07T01:43:39Z</time>
   </trkpt>
   <trkpt lat="34.8622710" lon="139.0219350">
    <ele>1188.9</ele>
    <time>2021-08-07T01:45:29Z</time>
   </trkpt>
   <trkpt lat="34.8623320" lon="139.0217290">
    <ele>1193.9</ele>
    <time>2021-08-07T01:46:19Z</time>
   </trkpt>
   <trkpt lat="34.8622450" lon="139.0215330">
    <ele>1198.7</ele>
    <time>2021-08-07T01:49:13Z</time>
   </trkpt>
   <trkpt lat="34.8621190" lon="139.0213730">
    <ele>1204.6</ele>
    <time>2021-08-07T01:52:45Z</time>
   </trkpt>
   <trkpt lat="34.8619400" lon="139.0214130">
    <ele>1212.5</ele>
    <time>2021-08-07T01:56:29Z</time>
   </trkpt>
   <trkpt lat="34.8617610" lon="139.0213660">
    <ele>1220.2</ele>
    <time>2021-08-07T01:57:51Z</time>
   </trkpt>
   <trkpt lat="34.8616260" lon="139.0212140">
    <ele>1227.3</ele>
    <time>2021-08-07T02:00:13Z</time>
   </trkpt>
   <trkpt lat="34.8614230" lon="139.0212160">
    <ele>1234.9</ele>
    <time>2021-08-07T02:01:49Z</time>
   </trkpt>
   <trkpt lat="34.8612350" lon="139.0212470">
    <ele>1244.0</ele>
    <time>2021-08-07T02:03:27Z</time>
   </trkpt>
   <trkpt lat="34.8610320" lon="139.0211510">
    <ele>1252.3</ele>
    <time>2021-08-07T02:05:57Z</time>
   </trkpt>
   <trkpt lat="34.8608440" lon="139.0211730">
    <ele>1262.5</ele>
    <time>2021-08-07T02:07:45Z</time>
   </trkpt>
   <trkpt lat="34.8606580" lon="139.0212350">
    <ele>1269.9</ele>
    <time>2021-08-07T02:08:07Z</time>
   </trkpt>
   <trkpt lat="34.8605070" lon="139.0211100">
    <ele>1276.6</ele>
    <time>2021-08-07T02:11:03Z</time>
   </trkpt>
   <trkpt lat="34.8603270" lon="139.0210700">
    <ele>1285.4</ele>
    <time>2021-08-07T02:12:01Z</time>
   </trkpt>
   <trkpt lat="34.8601490" lon="139.0209750">
    <ele>1289.2</ele>
    <time>2021-08-07T02:12:39Z</time>
   </trkpt>
   <trkpt lat="34.8600200" lon="139.0207870">
    <ele>1289.0</ele>
    <time>2021-08-07T02:15:37Z</time>
   </trkpt>
   <trkpt lat="34.8601580" lon="139.0206320">
    <ele>1288.9</ele>
    <time>2021-08-07T02:18:49Z</time>
   </trkpt>
   <trkpt lat="34.8603020" lon="139.0204690">
    <ele>1285.3</ele>
    <time>2021-08-07T02:21:25Z</time>
   </trkpt>
   <trkpt lat="34.8604070" lon="139.0202910">
    <ele>1278.3</ele>
    <time>2021-08-07T02:24:05Z</time>
   </trkpt>
   <trkpt lat="34.8604300" lon="139.0200700">
    <ele>1270.2</ele>
    <time>2021-08-07T02:25:27Z</time>
   </trkpt>
   <trkpt lat="34.8605490" lon="139.0198910">
    <ele>1260.7</ele>
    <time>2021-08-07T02:27:11Z</time>
   </trkpt>
   <trkpt lat="34.8607060" lon="139.0197790">
    <ele>1252.8</ele>
    <time>2021-08-07T02:28:35Z</time>
   </trkpt>
   <trkpt lat="34.8608450" lon="139.0196400">
    <ele>1246.0</ele>
    <time>2021-08-07T02:30:01Z</time>
   </trkpt>
   <trkpt lat="34.8608820" lon="139.0194250">
    <ele>1240.9</ele>
    <time>2021-08-07T02:30:45Z</time>
   </trkpt>
   <trkpt lat="34.8609700" lon="139.0192040">
    <ele>1239.0</ele>
    <time>2021-08-07T02:31:41Z</time>
   </trkpt>
   <trkpt lat="34.8611160" lon="139.0190730">
    <ele>1241.0</ele>
    <time>2021-08-07T02:32:27Z</time>
   </trkpt>
   <trkpt lat="34.8612560" lon="139.0189360">
    <ele>1244.5</ele>
    <time>2021-08-07T02:33:05Z</time>
   </trkpt>
   <trkpt lat="34.8613710" lon="139.0186840">
    <ele>1247.8</ele>
    <time>2021-08-07T02:33:39Z</time>
   </trkpt>
   <trkpt lat="34.8614660" lon="139.0184580">
    <ele>1248.7</ele>
    <time>2021-08-07T02:34:07Z</time>
   </trkpt>
   <trkpt lat="34.8616010" lon="139.0182860">
    <ele>1248.4</ele>
    <time>2021-08-07T02:34:41Z</time>
   </trkpt>
   <trkpt lat="34.8616620" lon="139.0180690">
    <ele>1248.2</ele>
    <time>2021-08-07T02:35:15Z</time>
   </trkpt>
   <trkpt lat="34.8617020" lon="139.0178370">
    <ele>1249.5</ele>
    <time>2021-08-07T02:35:47Z</time>
   </trkpt>
   <trkpt lat="34.8617790" lon="139.0176220">
    <ele>1253.0</ele>
    <time>2021-08-07T02:36:45Z</time>
   </trkpt>
   <trkpt lat="34.8619230" lon="139.0174210">
    <ele>1255.8</ele>
    <time>2021-08-07T02:37:17Z</time>
   </trkpt>
   <trkpt lat="34.8619990" lon="139.0172020">
    <ele>1258.5</ele>
    <time>2021-08-07T02:38:47Z</time>
   </trkpt>
   <trkpt lat="34.8619740" lon="139.0169810">
    <ele>1264.1</ele>
    <time>2021-08-07T02:39:51Z</time>
   </trkpt>
   <trkpt lat="34.8620610" lon="139.0167880">
    <ele>1271.8</ele>
    <time>2021-08-07T02:40:31Z</time>
   </trkpt>
   <trkpt lat="34.8620690" lon="139.0164690">
    <ele>1280.5</ele>
    <time>2021-08-07T02:42:41Z</time>
   </trkpt>
   <trkpt lat="34.8620620" lon="139.0163950">
    <ele>1281.7</ele>
    <time>2021-08-07T03:01:02Z</time>
   </trkpt>
   <trkpt lat="34.8620550" lon="139.0163200">
    <ele>1283.2</ele>
    <time>2021-08-07T03:01:02Z</time>
   </trkpt>
   <trkpt lat="34.8619000" lon="139.0117340">
    <ele>1300.7</ele>
    <time>2021-08-07T03:02:21Z</time>
   </trkpt>
   <trkpt lat="34.8618740" lon="139.0114870">
    <ele>1294.2</ele>
    <time>2021-08-07T03:04:11Z</time>
   </trkpt>
   <trkpt lat="34.8619100" lon="139.0112660">
    <ele>1287.0</ele>
    <time>2021-08-07T03:07:37Z</time>
   </trkpt>
   <trkpt lat="34.8619340" lon="139.0110360">
    <ele>1278.2</ele>
    <time>2021-08-07T03:11:07Z</time>
   </trkpt>
   <trkpt lat="34.8619540" lon="139.0108070">
    <ele>1267.6</ele>
    <time>2021-08-07T03:16:21Z</time>
   </trkpt>
   <trkpt lat="34.8619060" lon="139.0105830">
    <ele>1260.2</ele>
    <time>2021-08-07T03:19:01Z</time>
   </trkpt>
   <trkpt lat="34.8617960" lon="139.0104030">
    <ele>1258.3</ele>
    <time>2021-08-07T03:24:49Z</time>
   </trkpt>
   <trkpt lat="34.8617840" lon="139.0101760">
    <ele>1262.0</ele>
    <time>2021-08-07T03:26:17Z</time>
   </trkpt>
   <trkpt lat="34.8617720" lon="139.0099580">
    <ele>1268.4</ele>
    <time>2021-08-07T03:27:29Z</time>
   </trkpt>
   <trkpt lat="34.8616890" lon="139.0097560">
    <ele>1274.9</ele>
    <time>2021-08-07T03:28:47Z</time>
   </trkpt>
   <trkpt lat="34.8617790" lon="139.0095310">
    <ele>1276.8</ele>
    <time>2021-08-07T03:29:27Z</time>
   </trkpt>
   <trkpt lat="34.8618270" lon="139.0093190">
    <ele>1275.1</ele>
    <time>2021-08-07T03:30:09Z</time>
   </trkpt>
   <trkpt lat="34.8619180" lon="139.0091150">
    <ele>1275.6</ele>
    <time>2021-08-07T03:31:13Z</time>
   </trkpt>
   <trkpt lat="34.8620710" lon="139.0089640">
    <ele>1274.1</ele>
    <time>2021-08-07T03:32:25Z</time>
   </trkpt>
   <trkpt lat="34.8622150" lon="139.0088040">
    <ele>1271.8</ele>
    <time>2021-08-07T03:32:59Z</time>
   </trkpt>
   <trkpt lat="34.8622880" lon="139.0086030">
    <ele>1271.3</ele>
    <time>2021-08-07T03:34:13Z</time>
   </trkpt>
   <trkpt lat="34.8623950" lon="139.0084020">
    <ele>1272.1</ele>
    <time>2021-08-07T03:34:41Z</time>
   </trkpt>
   <trkpt lat="34.8625140" lon="139.0082110">
    <ele>1276.0</ele>
    <time>2021-08-07T03:35:39Z</time>
   </trkpt>
   <trkpt lat="34.8626470" lon="139.0080250">
    <ele>1282.6</ele>
    <time>2021-08-07T03:37:21Z</time>
   </trkpt>
   <trkpt lat="34.8627730" lon="139.0077900">
    <ele>1291.4</ele>
    <time>2021-08-07T03:38:19Z</time>
   </trkpt>
   <trkpt lat="34.8629300" lon="139.0076580">
    <ele>1297.2</ele>
    <time>2021-08-07T03:38:47Z</time>
   </trkpt>
   <trkpt lat="34.8630250" lon="139.0074430">
    <ele>1303.5</ele>
    <time>2021-08-07T03:39:33Z</time>
   </trkpt>
   <trkpt lat="34.8630950" lon="139.0072290">
    <ele>1308.4</ele>
    <time>2021-08-07T03:40:29Z</time>
   </trkpt>
   <trkpt lat="34.8631820" lon="139.0070310">
    <ele>1312.1</ele>
    <time>2021-08-07T03:41:09Z</time>
   </trkpt>
   <trkpt lat="34.8632780" lon="139.0067930">
    <ele>1314.7</ele>
    <time>2021-08-07T03:41:37Z</time>
   </trkpt>
   <trkpt lat="34.8633100" lon="139.0065540">
    <ele>1316.6</ele>
    <time>2021-08-07T03:42:07Z</time>
   </trkpt>
   <trkpt lat="34.8632760" lon="139.0063160">
    <ele>1317.4</ele>
    <time>2021-08-07T03:42:37Z</time>
   </trkpt>
   <trkpt lat="34.8632330" lon="139.0060840">
    <ele>1317.0</ele>
    <time>2021-08-07T03:42:55Z</time>
   </trkpt>
   <trkpt lat="34.8631560" lon="139.0058770">
    <ele>1316.9</ele>
    <time>2021-08-07T03:43:15Z</time>
   </trkpt>
   <trkpt lat="34.8630380" lon="139.0056720">
    <ele>1317.9</ele>
    <time>2021-08-07T03:43:49Z</time>
   </trkpt>
   <trkpt lat="34.8628470" lon="139.0056220">
    <ele>1319.5</ele>
    <time>2021-08-07T03:45:09Z</time>
   </trkpt>
   <trkpt lat="34.8627570" lon="139.0054250">
    <ele>1323.0</ele>
    <time>2021-08-07T03:46:11Z</time>
   </trkpt>
   <trkpt lat="34.8626590" lon="139.0052400">
    <ele>1327.0</ele>
    <time>2021-08-07T03:46:29Z</time>
   </trkpt>
   <trkpt lat="34.8626190" lon="139.0050230">
    <ele>1329.3</ele>
    <time>2021-08-07T03:46:41Z</time>
   </trkpt>
   <trkpt lat="34.8625710" lon="139.0047940">
    <ele>1330.3</ele>
    <time>2021-08-07T03:47:17Z</time>
   </trkpt>
   <trkpt lat="34.8626090" lon="139.0045460">
    <ele>1331.1</ele>
    <time>2021-08-07T03:48:35Z</time>
   </trkpt>
   <trkpt lat="34.8626750" lon="139.0043360">
    <ele>1330.6</ele>
    <time>2021-08-07T03:49:35Z</time>
   </trkpt>
   <trkpt lat="34.8627350" lon="139.0040550">
    <ele>1329.4</ele>
    <time>2021-08-07T03:50:11Z</time>
   </trkpt>
   <trkpt lat="34.8628220" lon="139.0038620">
    <ele>1328.3</ele>
    <time>2021-08-07T03:50:27Z</time>
   </trkpt>
   <trkpt lat="34.8629590" lon="139.0036590">
    <ele>1327.4</ele>
    <time>2021-08-07T03:51:14Z</time>
   </trkpt>
   <trkpt lat="34.8630840" lon="139.0034760">
    <ele>1327.6</ele>
    <time>2021-08-07T03:51:52Z</time>
   </trkpt>
   <trkpt lat="34.8631400" lon="139.0032530">
    <ele>1329.0</ele>
    <time>2021-08-07T03:52:40Z</time>
   </trkpt>
   <trkpt lat="34.8631390" lon="139.0030040">
    <ele>1332.2</ele>
    <time>2021-08-07T03:53:54Z</time>
   </trkpt>
   <trkpt lat="34.8631340" lon="139.0027540">
    <ele>1336.9</ele>
    <time>2021-08-07T03:55:10Z</time>
   </trkpt>
   <trkpt lat="34.8630880" lon="139.0025200">
    <ele>1343.7</ele>
    <time>2021-08-07T03:55:40Z</time>
   </trkpt>
   <trkpt lat="34.8630630" lon="139.0022980">
    <ele>1351.5</ele>
    <time>2021-08-07T03:57:28Z</time>
   </trkpt>
   <trkpt lat="34.8629430" lon="139.0020860">
    <ele>1363.6</ele>
    <time>2021-08-07T03:59:42Z</time>
   </trkpt>
   <trkpt lat="34.8628820" lon="139.0018780">
    <ele>1368.8</ele>
    <time>2021-08-07T04:12:02Z</time>
   </trkpt>
   <trkpt lat="34.8629290" lon="139.0016560">
    <ele>1371.1</ele>
    <time>2021-08-07T04:12:58Z</time>
   </trkpt>
   <trkpt lat="34.8629600" lon="139.0014330">
    <ele>1371.7</ele>
    <time>2021-08-07T04:13:20Z</time>
   </trkpt>
   <trkpt lat="34.8630350" lon="139.0012170">
    <ele>1373.7</ele>
    <time>2021-08-07T04:13:50Z</time>
   </trkpt>
   <trkpt lat="34.8630680" lon="139.0010020">
    <ele>1376.4</ele>
    <time>2021-08-07T04:14:22Z</time>
   </trkpt>
   <trkpt lat="34.8631380" lon="139.0007570">
    <ele>1378.1</ele>
    <time>2021-08-07T04:15:36Z</time>
   </trkpt>
   <trkpt lat="34.8632180" lon="139.0005600">
    <ele>1383.6</ele>
    <time>2021-08-07T04:16:08Z</time>
   </trkpt>
   <trkpt lat="34.8632710" lon="139.0003370">
    <ele>1387.5</ele>
    <time>2021-08-07T04:17:08Z</time>
   </trkpt>
   <trkpt lat="34.8633480" lon="139.0001360">
    <ele>1389.5</ele>
    <time>2021-08-07T04:17:52Z</time>
   </trkpt>
   <trkpt lat="34.8634590" lon="138.9999380">
    <ele>1390.2</ele>
    <time>2021-08-07T04:18:24Z</time>
   </trkpt>
   <trkpt lat="34.8635890" lon="138.9997410">
    <ele>1389.4</ele>
    <time>2021-08-07T04:19:00Z</time>
   </trkpt>
   <trkpt lat="34.8636880" lon="138.9995520">
    <ele>1386.7</ele>
    <time>2021-08-07T04:19:38Z</time>
   </trkpt>
   <trkpt lat="34.8638160" lon="138.9993770">
    <ele>1383.0</ele>
    <time>2021-08-07T04:20:04Z</time>
   </trkpt>
   <trkpt lat="34.8639760" lon="138.9992590">
    <ele>1379.6</ele>
    <time>2021-08-07T04:21:18Z</time>
   </trkpt>
   <trkpt lat="34.8641190" lon="138.9990930">
    <ele>1373.0</ele>
    <time>2021-08-07T04:21:40Z</time>
   </trkpt>
   <trkpt lat="34.8642870" lon="138.9991930">
    <ele>1364.1</ele>
    <time>2021-08-07T04:25:02Z</time>
   </trkpt>
   <trkpt lat="34.8644850" lon="138.9992780">
    <ele>1352.5</ele>
    <time>2021-08-07T04:26:16Z</time>
   </trkpt>
   <trkpt lat="34.8646650" lon="138.9993740">
    <ele>1343.0</ele>
    <time>2021-08-07T04:31:04Z</time>
   </trkpt>
   <trkpt lat="34.8648430" lon="138.9994910">
    <ele>1333.6</ele>
    <time>2021-08-07T04:31:30Z</time>
   </trkpt>
   <trkpt lat="34.8649790" lon="138.9996740">
    <ele>1326.6</ele>
    <time>2021-08-07T04:34:14Z</time>
   </trkpt>
   <trkpt lat="34.8651580" lon="138.9997070">
    <ele>1318.5</ele>
    <time>2021-08-07T04:34:46Z</time>
   </trkpt>
   <trkpt lat="34.8653190" lon="138.9998240">
    <ele>1310.3</ele>
    <time>2021-08-07T04:37:28Z</time>
   </trkpt>
   <trkpt lat="34.8655070" lon="138.9998650">
    <ele>1301.0</ele>
    <time>2021-08-07T04:38:58Z</time>
   </trkpt>
   <trkpt lat="34.8656690" lon="138.9997350">
    <ele>1291.2</ele>
    <time>2021-08-07T04:40:34Z</time>
   </trkpt>
   <trkpt lat="34.8658510" lon="138.9997610">
    <ele>1282.5</ele>
    <time>2021-08-07T04:41:34Z</time>
   </trkpt>
   <trkpt lat="34.8660020" lon="138.9999230">
    <ele>1272.4</ele>
    <time>2021-08-07T04:46:27Z</time>
   </trkpt>
   <trkpt lat="34.8661700" lon="139.0000140">
    <ele>1263.7</ele>
    <time>2021-08-07T04:47:21Z</time>
   </trkpt>
   <trkpt lat="34.8664070" lon="138.9999180">
    <ele>1252.0</ele>
    <time>2021-08-07T04:51:09Z</time>
   </trkpt>
   <trkpt lat="34.8666260" lon="138.9999580">
    <ele>1242.3</ele>
    <time>2021-08-07T04:51:49Z</time>
   </trkpt>
   <trkpt lat="34.8668150" lon="139.0000100">
    <ele>1233.3</ele>
    <time>2021-08-07T04:52:47Z</time>
   </trkpt>
   <trkpt lat="34.8670070" lon="139.0000930">
    <ele>1223.5</ele>
    <time>2021-08-07T04:53:47Z</time>
   </trkpt>
   <trkpt lat="34.8671250" lon="138.9998670">
    <ele>1212.9</ele>
    <time>2021-08-07T04:56:05Z</time>
   </trkpt>
   <trkpt lat="34.8672960" lon="138.9997840">
    <ele>1203.9</ele>
    <time>2021-08-07T04:58:11Z</time>
   </trkpt>
   <trkpt lat="34.8674820" lon="138.9997960">
    <ele>1195.7</ele>
    <time>2021-08-07T04:59:03Z</time>
   </trkpt>
   <trkpt lat="34.8676670" lon="138.9997290">
    <ele>1187.3</ele>
    <time>2021-08-07T04:59:55Z</time>
   </trkpt>
   <trkpt lat="34.8678470" lon="138.9997750">
    <ele>1180.6</ele>
    <time>2021-08-07T05:02:03Z</time>
   </trkpt>
   <trkpt lat="34.8679020" lon="138.9999990">
    <ele>1175.7</ele>
    <time>2021-08-07T05:04:43Z</time>
   </trkpt>
   <trkpt lat="34.8680450" lon="139.0001370">
    <ele>1172.3</ele>
    <time>2021-08-07T05:05:15Z</time>
   </trkpt>
   <trkpt lat="34.8681310" lon="139.0003540">
    <ele>1168.5</ele>
    <time>2021-08-07T05:05:25Z</time>
   </trkpt>
   <trkpt lat="34.8682710" lon="139.0005080">
    <ele>1163.1</ele>
    <time>2021-08-07T05:07:08Z</time>
   </trkpt>
   <trkpt lat="34.8682230" lon="139.0007260">
    <ele>1159.4</ele>
    <time>2021-08-07T05:10:14Z</time>
   </trkpt>
   <trkpt lat="34.8680610" lon="139.0008670">
    <ele>1158.2</ele>
    <time>2021-08-07T05:11:16Z</time>
   </trkpt>
   <trkpt lat="34.8679130" lon="139.0010210">
    <ele>1157.2</ele>
    <time>2021-08-07T05:11:44Z</time>
   </trkpt>
   <trkpt lat="34.8677670" lon="139.0011550">
    <ele>1156.5</ele>
    <time>2021-08-07T05:12:16Z</time>
   </trkpt>
   <trkpt lat="34.8676620" lon="139.0013500">
    <ele>1158.5</ele>
    <time>2021-08-07T05:13:06Z</time>
   </trkpt>
   <trkpt lat="34.8676810" lon="139.0015860">
    <ele>1161.5</ele>
    <time>2021-08-07T05:16:26Z</time>
   </trkpt>
   <trkpt lat="34.8678380" lon="139.0017100">
    <ele>1164.3</ele>
    <time>2021-08-07T05:17:10Z</time>
   </trkpt>
   <trkpt lat="34.8679400" lon="139.0019270">
    <ele>1166.2</ele>
    <time>2021-08-07T05:18:00Z</time>
   </trkpt>
   <trkpt lat="34.8680260" lon="139.0021350">
    <ele>1164.4</ele>
    <time>2021-08-07T05:18:08Z</time>
   </trkpt>
   <trkpt lat="34.8680390" lon="139.0023780">
    <ele>1164.1</ele>
    <time>2021-08-07T05:18:24Z</time>
   </trkpt>
   <trkpt lat="34.8681160" lon="139.0025950">
    <ele>1163.6</ele>
    <time>2021-08-07T05:18:58Z</time>
   </trkpt>
   <trkpt lat="34.8680110" lon="139.0027900">
    <ele>1161.0</ele>
    <time>2021-08-07T05:19:44Z</time>
   </trkpt>
   <trkpt lat="34.8679230" lon="139.0029860">
    <ele>1157.0</ele>
    <time>2021-08-07T05:20:42Z</time>
   </trkpt>
   <trkpt lat="34.8678450" lon="139.0031840">
    <ele>1154.7</ele>
    <time>2021-08-07T05:21:18Z</time>
   </trkpt>
   <trkpt lat="34.8677090" lon="139.0033680">
    <ele>1150.8</ele>
    <time>2021-08-07T05:22:02Z</time>
   </trkpt>
   <trkpt lat="34.8676560" lon="139.0035780">
    <ele>1143.5</ele>
    <time>2021-08-07T05:23:36Z</time>
   </trkpt>
   <trkpt lat="34.8676860" lon="139.0038340">
    <ele>1132.9</ele>
    <time>2021-08-07T05:26:28Z</time>
   </trkpt>
   <trkpt lat="34.8675890" lon="139.0040480">
    <ele>1126.0</ele>
    <time>2021-08-07T05:29:20Z</time>
   </trkpt>
   <trkpt lat="34.8674950" lon="139.0042650">
    <ele>1118.8</ele>
    <time>2021-08-07T05:30:44Z</time>
   </trkpt>
   <trkpt lat="34.8674230" lon="139.0044730">
    <ele>1111.5</ele>
    <time>2021-08-07T05:36:14Z</time>
   </trkpt>
   <trkpt lat="34.8672830" lon="139.0046390">
    <ele>1105.8</ele>
    <time>2021-08-07T05:36:52Z</time>
   </trkpt>
   <trkpt lat="34.8671010" lon="139.0046160">
    <ele>1098.3</ele>
    <time>2021-08-07T05:41:10Z</time>
   </trkpt>
   <trkpt lat="34.8669410" lon="139.0047330">
    <ele>1091.6</ele>
    <time>2021-08-07T05:42:02Z</time>
   </trkpt>
   <trkpt lat="34.8668450" lon="139.0050150">
    <ele>1087.9</ele>
    <time>2021-08-07T05:45:24Z</time>
   </trkpt>
   <trkpt lat="34.8668050" lon="139.0052290">
    <ele>1089.4</ele>
    <time>2021-08-07T05:46:18Z</time>
   </trkpt>
   <trkpt lat="34.8668820" lon="139.0054550">
    <ele>1094.3</ele>
    <time>2021-08-07T05:48:06Z</time>
   </trkpt>
   <trkpt lat="34.8669740" lon="139.0056460">
    <ele>1095.6</ele>
    <time>2021-08-07T05:48:18Z</time>
   </trkpt>
   <trkpt lat="34.8670390" lon="139.0058590">
    <ele>1094.2</ele>
    <time>2021-08-07T05:51:06Z</time>
   </trkpt>
   <trkpt lat="34.8671570" lon="139.0060870">
    <ele>1091.8</ele>
    <time>2021-08-07T05:52:52Z</time>
   </trkpt>
   <trkpt lat="34.8670580" lon="139.0062930">
    <ele>1090.6</ele>
    <time>2021-08-07T05:54:50Z</time>
   </trkpt>
   <trkpt lat="34.8670510" lon="139.0065200">
    <ele>1091.0</ele>
    <time>2021-08-07T05:55:28Z</time>
   </trkpt>
   <trkpt lat="34.8670200" lon="139.0067370">
    <ele>1091.2</ele>
    <time>2021-08-07T05:56:14Z</time>
   </trkpt>
   <trkpt lat="34.8669440" lon="139.0069530">
    <ele>1090.2</ele>
    <time>2021-08-07T05:58:10Z</time>
   </trkpt>
   <trkpt lat="34.8669880" lon="139.0071770">
    <ele>1090.6</ele>
    <time>2021-08-07T05:59:08Z</time>
   </trkpt>
   <trkpt lat="34.8668730" lon="139.0073590">
    <ele>1092.1</ele>
    <time>2021-08-07T05:59:42Z</time>
   </trkpt>
   <trkpt lat="34.8667240" lon="139.0075430">
    <ele>1093.5</ele>
    <time>2021-08-07T06:01:12Z</time>
   </trkpt>
   <trkpt lat="34.8667620" lon="139.0077590">
    <ele>1097.3</ele>
    <time>2021-08-07T06:02:24Z</time>
   </trkpt>
   <trkpt lat="34.8667930" lon="139.0079930">
    <ele>1097.1</ele>
    <time>2021-08-07T06:02:46Z</time>
   </trkpt>
   <trkpt lat="34.8667430" lon="139.0082150">
    <ele>1094.7</ele>
    <time>2021-08-07T06:03:26Z</time>
   </trkpt>
   <trkpt lat="34.8669260" lon="139.0082750">
    <ele>1095.6</ele>
    <time>2021-08-07T06:04:41Z</time>
   </trkpt>
   <trkpt lat="34.8671200" lon="139.0083330">
    <ele>1097.3</ele>
    <time>2021-08-07T06:05:15Z</time>
   </trkpt>
   <trkpt lat="34.8673080" lon="139.0084150">
    <ele>1100.1</ele>
    <time>2021-08-07T06:06:23Z</time>
   </trkpt>
   <trkpt lat="34.8676300" lon="139.0083340">
    <ele>1101.9</ele>
    <time>2021-08-07T06:08:09Z</time>
   </trkpt>
   <trkpt lat="34.8678370" lon="139.0082780">
    <ele>1100.5</ele>
    <time>2021-08-07T06:08:31Z</time>
   </trkpt>
   <trkpt lat="34.8680250" lon="139.0083000">
    <ele>1101.8</ele>
    <time>2021-08-07T06:08:55Z</time>
   </trkpt>
   <trkpt lat="34.8682780" lon="139.0082580">
    <ele>1105.3</ele>
    <time>2021-08-07T06:09:48Z</time>
   </trkpt>
   <trkpt lat="34.8684870" lon="139.0082690">
    <ele>1107.2</ele>
    <time>2021-08-07T06:10:00Z</time>
   </trkpt>
   <trkpt lat="34.8687370" lon="139.0083340">
    <ele>1110.0</ele>
    <time>2021-08-07T06:10:58Z</time>
   </trkpt>
   <trkpt lat="34.8689350" lon="139.0083620">
    <ele>1111.0</ele>
    <time>2021-08-07T06:11:30Z</time>
   </trkpt>
   <trkpt lat="34.8691270" lon="139.0084460">
    <ele>1112.1</ele>
    <time>2021-08-07T06:12:04Z</time>
   </trkpt>
   <trkpt lat="34.8692880" lon="139.0085720">
    <ele>1112.7</ele>
    <time>2021-08-07T06:13:56Z</time>
   </trkpt>
   <trkpt lat="34.8694970" lon="139.0087050">
    <ele>1113.0</ele>
    <time>2021-08-07T06:14:10Z</time>
   </trkpt>
   <trkpt lat="34.8696720" lon="139.0087610">
    <ele>1112.3</ele>
    <time>2021-08-07T06:14:50Z</time>
   </trkpt>
   <trkpt lat="34.8698800" lon="139.0087860">
    <ele>1109.9</ele>
    <time>2021-08-07T06:15:44Z</time>
   </trkpt>
   <trkpt lat="34.8700610" lon="139.0088710">
    <ele>1105.5</ele>
    <time>2021-08-07T06:15:50Z</time>
   </trkpt>
   <trkpt lat="34.8702400" lon="139.0089710">
    <ele>1102.1</ele>
    <time>2021-08-07T06:16:08Z</time>
   </trkpt>
   <trkpt lat="34.8704060" lon="139.0090770">
    <ele>1099.5</ele>
    <time>2021-08-07T06:16:14Z</time>
   </trkpt>
   <trkpt lat="34.8706070" lon="139.0090390">
    <ele>1098.0</ele>
    <time>2021-08-07T06:16:40Z</time>
   </trkpt>
   <trkpt lat="34.8708280" lon="139.0089730">
    <ele>1099.7</ele>
    <time>2021-08-07T06:17:22Z</time>
   </trkpt>
   <trkpt lat="34.8710120" lon="139.0088860">
    <ele>1101.7</ele>
    <time>2021-08-07T06:17:44Z</time>
   </trkpt>
   <trkpt lat="34.8711830" lon="139.0087960">
    <ele>1101.0</ele>
    <time>2021-08-07T06:18:13Z</time>
   </trkpt>
   <trkpt lat="34.8713740" lon="139.0087170">
    <ele>1096.8</ele>
    <time>2021-08-07T06:18:39Z</time>
   </trkpt>
   <trkpt lat="34.8715730" lon="139.0087680">
    <ele>1093.0</ele>
    <time>2021-08-07T06:19:25Z</time>
   </trkpt>
   <trkpt lat="34.8717330" lon="139.0089150">
    <ele>1090.1</ele>
    <time>2021-08-07T06:19:50Z</time>
   </trkpt>
   <trkpt lat="34.8718460" lon="139.0091010">
    <ele>1088.8</ele>
    <time>2021-08-07T06:20:16Z</time>
   </trkpt>
   <trkpt lat="34.8719790" lon="139.0092800">
    <ele>1088.1</ele>
    <time>2021-08-07T06:21:02Z</time>
   </trkpt>
   <trkpt lat="34.8720250" lon="139.0095000">
    <ele>1087.2</ele>
    <time>2021-08-07T06:21:21Z</time>
   </trkpt>
   <trkpt lat="34.8720950" lon="139.0097560">
    <ele>1089.4</ele>
    <time>2021-08-07T06:21:39Z</time>
   </trkpt>
   <trkpt lat="34.8720320" lon="139.0099660">
    <ele>1093.1</ele>
    <time>2021-08-07T06:22:01Z</time>
   </trkpt>
   <trkpt lat="34.8718630" lon="139.0100680">
    <ele>1096.9</ele>
    <time>2021-08-07T06:22:15Z</time>
   </trkpt>
   <trkpt lat="34.8717150" lon="139.0102290">
    <ele>1099.3</ele>
    <time>2021-08-07T06:23:03Z</time>
   </trkpt>
   <trkpt lat="34.8716150" lon="139.0104270">
    <ele>1100.9</ele>
    <time>2021-08-07T06:23:15Z</time>
   </trkpt>
   <trkpt lat="34.8714850" lon="139.0105960">
    <ele>1101.7</ele>
    <time>2021-08-07T06:23:39Z</time>
   </trkpt>
   <trkpt lat="34.8714490" lon="139.0108130">
    <ele>1102.9</ele>
    <time>2021-08-07T06:24:07Z</time>
   </trkpt>
   <trkpt lat="34.8714120" lon="139.0110300">
    <ele>1105.8</ele>
    <time>2021-08-07T06:24:23Z</time>
   </trkpt>
   <trkpt lat="34.8712750" lon="139.0111760">
    <ele>1107.2</ele>
    <time>2021-08-07T06:24:53Z</time>
   </trkpt>
   <trkpt lat="34.8711990" lon="139.0113970">
    <ele>1107.2</ele>
    <time>2021-08-07T06:25:11Z</time>
   </trkpt>
   <trkpt lat="34.8711090" lon="139.0116020">
    <ele>1106.6</ele>
    <time>2021-08-07T06:25:31Z</time>
   </trkpt>
   <trkpt lat="34.8709900" lon="139.0117690">
    <ele>1106.6</ele>
    <time>2021-08-07T06:26:08Z</time>
   </trkpt>
   <trkpt lat="34.8708460" lon="139.0119270">
    <ele>1104.2</ele>
    <time>2021-08-07T06:26:30Z</time>
   </trkpt>
   <trkpt lat="34.8706690" lon="139.0119970">
    <ele>1100.3</ele>
    <time>2021-08-07T06:27:56Z</time>
   </trkpt>
   <trkpt lat="34.8706520" lon="139.0122270">
    <ele>1097.4</ele>
    <time>2021-08-07T06:28:56Z</time>
   </trkpt>
   <trkpt lat="34.8705580" lon="139.0124220">
    <ele>1094.8</ele>
    <time>2021-08-07T06:29:24Z</time>
   </trkpt>
   <trkpt lat="34.8704020" lon="139.0125450">
    <ele>1090.8</ele>
    <time>2021-08-07T06:30:14Z</time>
   </trkpt>
   <trkpt lat="34.8702140" lon="139.0126610">
    <ele>1085.6</ele>
    <time>2021-08-07T06:31:08Z</time>
   </trkpt>
   <trkpt lat="34.8700300" lon="139.0127800">
    <ele>1081.0</ele>
    <time>2021-08-07T06:32:44Z</time>
   </trkpt>
   <trkpt lat="34.8698560" lon="139.0127230">
    <ele>1077.2</ele>
    <time>2021-08-07T06:33:44Z</time>
   </trkpt>
   <trkpt lat="34.8698890" lon="139.0129460">
    <ele>1072.2</ele>
    <time>2021-08-07T06:35:14Z</time>
   </trkpt>
   <trkpt lat="34.8699400" lon="139.0131830">
    <ele>1067.9</ele>
    <time>2021-08-07T06:36:12Z</time>
   </trkpt>
   <trkpt lat="34.8699680" lon="139.0134000">
    <ele>1066.3</ele>
    <time>2021-08-07T06:37:06Z</time>
   </trkpt>
   <trkpt lat="34.8700170" lon="139.0136440">
    <ele>1066.5</ele>
    <time>2021-08-07T06:37:37Z</time>
   </trkpt>
   <trkpt lat="34.8700520" lon="139.0138770">
    <ele>1068.8</ele>
    <time>2021-08-07T06:38:15Z</time>
   </trkpt>
   <trkpt lat="34.8700210" lon="139.0141030">
    <ele>1073.0</ele>
    <time>2021-08-07T06:38:49Z</time>
   </trkpt>
   <trkpt lat="34.8699540" lon="139.0143180">
    <ele>1075.4</ele>
    <time>2021-08-07T06:39:11Z</time>
   </trkpt>
   <trkpt lat="34.8699160" lon="139.0145610">
    <ele>1075.9</ele>
    <time>2021-08-07T06:39:27Z</time>
   </trkpt>
   <trkpt lat="34.8698240" lon="139.0147860">
    <ele>1072.9</ele>
    <time>2021-08-07T06:40:57Z</time>
   </trkpt>
   <trkpt lat="34.8697820" lon="139.0150200">
    <ele>1072.2</ele>
    <time>2021-08-07T06:41:31Z</time>
   </trkpt>
   <trkpt lat="34.8697960" lon="139.0152550">
    <ele>1074.1</ele>
    <time>2021-08-07T06:42:15Z</time>
   </trkpt>
   <trkpt lat="34.8699730" lon="139.0153850">
    <ele>1073.5</ele>
    <time>2021-08-07T06:42:53Z</time>
   </trkpt>
   <trkpt lat="34.8701240" lon="139.0155320">
    <ele>1072.5</ele>
    <time>2021-08-07T06:43:25Z</time>
   </trkpt>
   <trkpt lat="34.8702400" lon="139.0157330">
    <ele>1070.7</ele>
    <time>2021-08-07T06:43:55Z</time>
   </trkpt>
   <trkpt lat="34.8702620" lon="139.0159560">
    <ele>1069.9</ele>
    <time>2021-08-07T06:44:21Z</time>
   </trkpt>
   <trkpt lat="34.8702290" lon="139.0161770">
    <ele>1067.8</ele>
    <time>2021-08-07T06:45:25Z</time>
   </trkpt>
   <trkpt lat="34.8700940" lon="139.0163900">
    <ele>1064.9</ele>
    <time>2021-08-07T06:45:57Z</time>
   </trkpt>
   <trkpt lat="34.8700740" lon="139.0166100">
    <ele>1063.8</ele>
    <time>2021-08-07T06:46:33Z</time>
   </trkpt>
   <trkpt lat="34.8701040" lon="139.0168270">
    <ele>1064.8</ele>
    <time>2021-08-07T06:47:21Z</time>
   </trkpt>
   <trkpt lat="34.8701780" lon="139.0170590">
    <ele>1068.0</ele>
    <time>2021-08-07T06:48:07Z</time>
   </trkpt>
   <trkpt lat="34.8702580" lon="139.0172610">
    <ele>1070.5</ele>
    <time>2021-08-07T06:48:29Z</time>
   </trkpt>
   <trkpt lat="34.8703170" lon="139.0174920">
    <ele>1072.0</ele>
    <time>2021-08-07T06:48:57Z</time>
   </trkpt>
   <trkpt lat="34.8702220" lon="139.0176870">
    <ele>1069.9</ele>
    <time>2021-08-07T06:49:55Z</time>
   </trkpt>
   <trkpt lat="34.8701250" lon="139.0178740">
    <ele>1067.4</ele>
    <time>2021-08-07T06:50:11Z</time>
   </trkpt>
   <trkpt lat="34.8699960" lon="139.0180550">
    <ele>1067.2</ele>
    <time>2021-08-07T06:51:13Z</time>
   </trkpt>
   <trkpt lat="34.8697810" lon="139.0181850">
    <ele>1069.7</ele>
    <time>2021-08-07T06:52:13Z</time>
   </trkpt>
   <trkpt lat="34.8698780" lon="139.0183730">
    <ele>1079.6</ele>
    <time>2021-08-07T06:53:45Z</time>
   </trkpt>
   <trkpt lat="34.8700840" lon="139.0183420">
    <ele>1083.7</ele>
    <time>2021-08-07T06:54:13Z</time>
   </trkpt>
   <trkpt lat="34.8702110" lon="139.0185180">
    <ele>1086.9</ele>
    <time>2021-08-07T06:55:25Z</time>
   </trkpt>
   <trkpt lat="34.8702300" lon="139.0187650">
    <ele>1089.1</ele>
    <time>2021-08-07T06:56:05Z</time>
   </trkpt>
   <trkpt lat="34.8703470" lon="139.0189640">
    <ele>1090.5</ele>
    <time>2021-08-07T06:56:31Z</time>
   </trkpt>
   <trkpt lat="34.8703840" lon="139.0191980">
    <ele>1090.1</ele>
    <time>2021-08-07T06:56:57Z</time>
   </trkpt>
   <trkpt lat="34.8704210" lon="139.0194250">
    <ele>1088.6</ele>
    <time>2021-08-07T06:57:28Z</time>
   </trkpt>
   <trkpt lat="34.8704160" lon="139.0196600">
    <ele>1086.5</ele>
    <time>2021-08-07T06:57:44Z</time>
   </trkpt>
   <trkpt lat="34.8704640" lon="139.0198840">
    <ele>1084.0</ele>
    <time>2021-08-07T06:58:26Z</time>
   </trkpt>
   <trkpt lat="34.8706150" lon="139.0200280">
    <ele>1081.2</ele>
    <time>2021-08-07T06:59:14Z</time>
   </trkpt>
   <trkpt lat="34.8707080" lon="139.0202180">
    <ele>1077.4</ele>
    <time>2021-08-07T06:59:42Z</time>
   </trkpt>
   <trkpt lat="34.8708270" lon="139.0203970">
    <ele>1072.5</ele>
    <time>2021-08-07T07:00:18Z</time>
   </trkpt>
   <trkpt lat="34.8708500" lon="139.0206250">
    <ele>1068.9</ele>
    <time>2021-08-07T07:01:15Z</time>
   </trkpt>
   <trkpt lat="34.8708600" lon="139.0208600">
    <ele>1066.4</ele>
    <time>2021-08-07T07:01:57Z</time>
   </trkpt>
   <trkpt lat="34.8709340" lon="139.0210940">
    <ele>1064.7</ele>
    <time>2021-08-07T07:03:43Z</time>
   </trkpt>
   <trkpt lat="34.8711480" lon="139.0211770">
    <ele>1063.6</ele>
    <time>2021-08-07T07:04:47Z</time>
   </trkpt>
   <trkpt lat="34.8713250" lon="139.0212440">
    <ele>1064.1</ele>
    <time>2021-08-07T07:05:35Z</time>
   </trkpt>
   <trkpt lat="34.8715290" lon="139.0214340">
    <ele>1064.1</ele>
    <time>2021-08-07T07:05:51Z</time>
   </trkpt>
   <trkpt lat="34.8716560" lon="139.0216040">
    <ele>1064.0</ele>
    <time>2021-08-07T07:06:33Z</time>
   </trkpt>
   <trkpt lat="34.8718170" lon="139.0217120">
    <ele>1063.3</ele>
    <time>2021-08-07T07:07:19Z</time>
   </trkpt>
   <trkpt lat="34.8719160" lon="139.0219040">
    <ele>1061.1</ele>
    <time>2021-08-07T07:07:33Z</time>
   </trkpt>
   <trkpt lat="34.8719320" lon="139.0221350">
    <ele>1058.1</ele>
    <time>2021-08-07T07:08:57Z</time>
   </trkpt>
   <trkpt lat="34.8719850" lon="139.0223590">
    <ele>1055.0</ele>
    <time>2021-08-07T07:10:17Z</time>
   </trkpt>
   <trkpt lat="34.8719660" lon="139.0225930">
    <ele>1051.9</ele>
    <time>2021-08-07T07:11:35Z</time>
   </trkpt>
   <trkpt lat="34.8719010" lon="139.0228300">
    <ele>1047.9</ele>
    <time>2021-08-07T07:13:15Z</time>
   </trkpt>
   <trkpt lat="34.8719710" lon="139.0230590">
    <ele>1043.9</ele>
    <time>2021-08-07T07:14:47Z</time>
   </trkpt>
   <trkpt lat="34.8721040" lon="139.0232280">
    <ele>1042.9</ele>
    <time>2021-08-07T07:17:23Z</time>
   </trkpt>
   <trkpt lat="34.8722640" lon="139.0234500">
    <ele>1045.8</ele>
    <time>2021-08-07T07:18:15Z</time>
   </trkpt>
   <trkpt lat="34.8724200" lon="139.0236280">
    <ele>1050.0</ele>
    <time>2021-08-07T07:19:31Z</time>
   </trkpt>
   <trkpt lat="34.8726090" lon="139.0236190">
    <ele>1048.8</ele>
    <time>2021-08-07T07:19:53Z</time>
   </trkpt>
   <trkpt lat="34.8728040" lon="139.0236060">
    <ele>1047.5</ele>
    <time>2021-08-07T07:20:13Z</time>
   </trkpt>
  </trkseg>
 </trk>
</gpx>
