<?xml version="1.0" encoding="UTF-8"?>
<gpx creator="StravaGPX" version="1.1" xmlns="http://www.topografix.com/GPX/1/1" xmlns:xsi="http://www.w3.org/2001/XMLSchema-instance" xsi:schemaLocation="http://www.topografix.com/GPX/1/1 http://www.topografix.com/GPX/1/1/gpx.xsd">
 <metadata>
  <time>2024-02-17T01:17:36Z</time>
 </metadata>
 <trk>
  <name>Yellow waterfall</name>
  <type>BackcountrySki</type>
  <trkseg>
   <trkpt lat="37.6331500" lon="140.0699490">
    <ele>906.4</ele>
    <time>2024-02-17T01:17:36Z</time>
   </trkpt>
   <trkpt lat="37.6329860" lon="140.0698780">
    <ele>905.9</ele>
    <time>2024-02-17T01:29:09Z</time>
   </trkpt>
   <trkpt lat="37.6328780" lon="140.0696310">
    <ele>905.2</ele>
    <time>2024-02-17T01:33:01Z</time>
   </trkpt>
   <trkpt lat="37.6328320" lon="140.0693300">
    <ele>907.8</ele>
    <time>2024-02-17T01:33:35Z</time>
   </trkpt>
   <trkpt lat="37.6328750" lon="140.0690480">
    <ele>911.6</ele>
    <time>2024-02-17T01:34:07Z</time>
   </trkpt>
   <trkpt lat="37.6329280" lon="140.0688590">
    <ele>915.6</ele>
    <time>2024-02-17T01:35:01Z</time>
   </trkpt>
   <trkpt lat="37.6327810" lon="140.0688520">
    <ele>918.7</ele>
    <time>2024-02-17T01:36:31Z</time>
   </trkpt>
   <trkpt lat="37.6327070" lon="140.0687710">
    <ele>921.4</ele>
    <time>2024-02-17T01:38:13Z</time>
   </trkpt>
   <trkpt lat="37.6326200" lon="140.0685760">
    <ele>926.7</ele>
    <time>2024-02-17T01:38:52Z</time>
   </trkpt>
   <trkpt lat="37.6324640" lon="140.0685760">
    <ele>928.6</ele>
    <time>2024-02-17T01:39:38Z</time>
   </trkpt>
   <trkpt lat="37.6323640" lon="140.0685030">
    <ele>930.8</ele>
    <time>2024-02-17T01:40:46Z</time>
   </trkpt>
   <trkpt lat="37.6322700" lon="140.0685030">
    <ele>931.3</ele>
    <time>2024-02-17T01:46:25Z</time>
   </trkpt>
   <trkpt lat="37.6320050" lon="140.0683900">
    <ele>932.4</ele>
    <time>2024-02-17T01:47:04Z</time>
   </trkpt>
   <trkpt lat="37.6318840" lon="140.0683490">
    <ele>934.1</ele>
    <time>2024-02-17T01:47:47Z</time>
   </trkpt>
   <trkpt lat="37.6317570" lon="140.0681310">
    <ele>938.8</ele>
    <time>2024-02-17T01:49:57Z</time>
   </trkpt>
   <trkpt lat="37.6316130" lon="140.0686330">
    <ele>934.8</ele>
    <time>2024-02-17T01:59:04Z</time>
   </trkpt>
   <trkpt lat="37.6316910" lon="140.0690850">
    <ele>923.2</ele>
    <time>2024-02-17T01:59:27Z</time>
   </trkpt>
   <trkpt lat="37.6316620" lon="140.0698670">
    <ele>921.7</ele>
    <time>2024-02-17T01:59:48Z</time>
   </trkpt>
   <trkpt lat="37.6315300" lon="140.0698000">
    <ele>925.0</ele>
    <time>2024-02-17T02:11:14Z</time>
   </trkpt>
   <trkpt lat="37.6313500" lon="140.0697890">
    <ele>929.5</ele>
    <time>2024-02-17T02:12:00Z</time>
   </trkpt>
   <trkpt lat="37.6311570" lon="140.0697560">
    <ele>934.0</ele>
    <time>2024-02-17T02:12:36Z</time>
   </trkpt>
   <trkpt lat="37.6310170" lon="140.0697890">
    <ele>936.6</ele>
    <time>2024-02-17T02:13:16Z</time>
   </trkpt>
   <trkpt lat="37.6307880" lon="140.0696900">
    <ele>940.6</ele>
    <time>2024-02-17T02:13:46Z</time>
   </trkpt>
   <trkpt lat="37.6306000" lon="140.0696670">
    <ele>943.7</ele>
    <time>2024-02-17T02:14:20Z</time>
   </trkpt>
   <trkpt lat="37.6302600" lon="140.0696300">
    <ele>948.3</ele>
    <time>2024-02-17T02:14:54Z</time>
   </trkpt>
   <trkpt lat="37.6301040" lon="140.0695970">
    <ele>950.8</ele>
    <time>2024-02-17T02:15:29Z</time>
   </trkpt>
   <trkpt lat="37.6298500" lon="140.0695810">
    <ele>955.5</ele>
    <time>2024-02-17T02:16:03Z</time>
   </trkpt>
   <trkpt lat="37.6296860" lon="140.0695480">
    <ele>958.7</ele>
    <time>2024-02-17T02:16:36Z</time>
   </trkpt>
   <trkpt lat="37.6294800" lon="140.0695070">
    <ele>963.0</ele>
    <time>2024-02-17T02:17:11Z</time>
   </trkpt>
   <trkpt lat="37.6292780" lon="140.0695230">
    <ele>966.9</ele>
    <time>2024-02-17T02:17:42Z</time>
   </trkpt>
   <trkpt lat="37.6290700" lon="140.0695050">
    <ele>970.6</ele>
    <time>2024-02-17T02:18:18Z</time>
   </trkpt>
   <trkpt lat="37.6288320" lon="140.0694280">
    <ele>975.0</ele>
    <time>2024-02-17T02:23:52Z</time>
   </trkpt>
   <trkpt lat="37.6285770" lon="140.0693620">
    <ele>980.1</ele>
    <time>2024-02-17T02:24:25Z</time>
   </trkpt>
   <trkpt lat="37.6283320" lon="140.0693470">
    <ele>986.1</ele>
    <time>2024-02-17T02:24:53Z</time>
   </trkpt>
   <trkpt lat="37.6280810" lon="140.0693380">
    <ele>992.5</ele>
    <time>2024-02-17T02:25:23Z</time>
   </trkpt>
   <trkpt lat="37.6278330" lon="140.0692980">
    <ele>999.7</ele>
    <time>2024-02-17T02:26:31Z</time>
   </trkpt>
   <trkpt lat="37.6276130" lon="140.0692580">
    <ele>1005.4</ele>
    <time>2024-02-17T02:27:04Z</time>
   </trkpt>
   <trkpt lat="37.6273920" lon="140.0692110">
    <ele>1009.7</ele>
    <time>2024-02-17T02:27:37Z</time>
   </trkpt>
   <trkpt lat="37.6272130" lon="140.0691760">
    <ele>1012.0</ele>
    <time>2024-02-17T02:28:09Z</time>
   </trkpt>
   <trkpt lat="37.6270390" lon="140.0691820">
    <ele>1013.6</ele>
    <time>2024-02-17T02:28:39Z</time>
   </trkpt>
   <trkpt lat="37.6267930" lon="140.0690550">
    <ele>1017.9</ele>
    <time>2024-02-17T02:29:06Z</time>
   </trkpt>
   <trkpt lat="37.6265410" lon="140.0690220">
    <ele>1022.3</ele>
    <time>2024-02-17T02:29:41Z</time>
   </trkpt>
   <trkpt lat="37.6263200" lon="140.0690230">
    <ele>1027.3</ele>
    <time>2024-02-17T02:31:00Z</time>
   </trkpt>
   <trkpt lat="37.6263540" lon="140.0691930">
    <ele>1029.8</ele>
    <time>2024-02-17T02:31:50Z</time>
   </trkpt>
   <trkpt lat="37.6262840" lon="140.0692660">
    <ele>1032.1</ele>
    <time>2024-02-17T02:38:48Z</time>
   </trkpt>
   <trkpt lat="37.6260920" lon="140.0692250">
    <ele>1035.3</ele>
    <time>2024-02-17T02:39:26Z</time>
   </trkpt>
   <trkpt lat="37.6259230" lon="140.0691950">
    <ele>1038.5</ele>
    <time>2024-02-17T02:40:00Z</time>
   </trkpt>
   <trkpt lat="37.6256720" lon="140.0691540">
    <ele>1041.0</ele>
    <time>2024-02-17T02:40:44Z</time>
   </trkpt>
   <trkpt lat="37.6254420" lon="140.0692280">
    <ele>1046.5</ele>
    <time>2024-02-17T02:41:12Z</time>
   </trkpt>
   <trkpt lat="37.6252700" lon="140.0692460">
    <ele>1051.3</ele>
    <time>2024-02-17T02:41:41Z</time>
   </trkpt>
   <trkpt lat="37.6250290" lon="140.0693040">
    <ele>1057.8</ele>
    <time>2024-02-17T02:42:16Z</time>
   </trkpt>
   <trkpt lat="37.6248610" lon="140.0693940">
    <ele>1064.3</ele>
    <time>2024-02-17T02:43:18Z</time>
   </trkpt>
   <trkpt lat="37.6246820" lon="140.0694600">
    <ele>1071.0</ele>
    <time>2024-02-17T02:44:00Z</time>
   </trkpt>
   <trkpt lat="37.6244950" lon="140.0695770">
    <ele>1077.7</ele>
    <time>2024-02-17T02:44:39Z</time>
   </trkpt>
   <trkpt lat="37.6243200" lon="140.0696750">
    <ele>1082.7</ele>
    <time>2024-02-17T02:45:10Z</time>
   </trkpt>
   <trkpt lat="37.6241200" lon="140.0698290">
    <ele>1087.8</ele>
    <time>2024-02-17T02:45:44Z</time>
   </trkpt>
   <trkpt lat="37.6239520" lon="140.0699370">
    <ele>1090.7</ele>
    <time>2024-02-17T02:46:16Z</time>
   </trkpt>
   <trkpt lat="37.6237480" lon="140.0700490">
    <ele>1091.4</ele>
    <time>2024-02-17T02:46:46Z</time>
   </trkpt>
   <trkpt lat="37.6236580" lon="140.0701630">
    <ele>1090.8</ele>
    <time>2024-02-17T02:47:27Z</time>
   </trkpt>
   <trkpt lat="37.6234610" lon="140.0703960">
    <ele>1090.2</ele>
    <time>2024-02-17T02:48:36Z</time>
   </trkpt>
   <trkpt lat="37.6232840" lon="140.0706070">
    <ele>1091.9</ele>
    <time>2024-02-17T02:49:05Z</time>
   </trkpt>
   <trkpt lat="37.6231290" lon="140.0706580">
    <ele>1094.4</ele>
    <time>2024-02-17T02:49:34Z</time>
   </trkpt>
   <trkpt lat="37.6230370" lon="140.0706820">
    <ele>1095.8</ele>
    <time>2024-02-17T02:50:41Z</time>
   </trkpt>
   <trkpt lat="37.6229280" lon="140.0708910">
    <ele>1097.4</ele>
    <time>2024-02-17T02:51:26Z</time>
   </trkpt>
   <trkpt lat="37.6227430" lon="140.0709690">
    <ele>1098.2</ele>
    <time>2024-02-17T02:52:05Z</time>
   </trkpt>
   <trkpt lat="37.6225010" lon="140.0710740">
    <ele>1100.5</ele>
    <time>2024-02-17T02:52:40Z</time>
   </trkpt>
   <trkpt lat="37.6223230" lon="140.0709580">
    <ele>1102.6</ele>
    <time>2024-02-17T02:53:23Z</time>
   </trkpt>
   <trkpt lat="37.6221450" lon="140.0708530">
    <ele>1105.4</ele>
    <time>2024-02-17T02:54:04Z</time>
   </trkpt>
   <trkpt lat="37.6219770" lon="140.0709400">
    <ele>1108.2</ele>
    <time>2024-02-17T02:54:47Z</time>
   </trkpt>
   <trkpt lat="37.6217670" lon="140.0711000">
    <ele>1110.6</ele>
    <time>2024-02-17T02:55:17Z</time>
   </trkpt>
   <trkpt lat="37.6215330" lon="140.0713100">
    <ele>1112.0</ele>
    <time>2024-02-17T02:56:00Z</time>
   </trkpt>
   <trkpt lat="37.6213280" lon="140.0714820">
    <ele>1113.2</ele>
    <time>2024-02-17T02:56:29Z</time>
   </trkpt>
   <trkpt lat="37.6211360" lon="140.0717690">
    <ele>1113.1</ele>
    <time>2024-02-17T03:00:21Z</time>
   </trkpt>
   <trkpt lat="37.6209860" lon="140.0720020">
    <ele>1115.0</ele>
    <time>2024-02-17T03:00:50Z</time>
   </trkpt>
   <trkpt lat="37.6207490" lon="140.0721470">
    <ele>1114.2</ele>
    <time>2024-02-17T03:01:19Z</time>
   </trkpt>
   <trkpt lat="37.6206580" lon="140.0724470">
    <ele>1113.2</ele>
    <time>2024-02-17T03:02:11Z</time>
   </trkpt>
   <trkpt lat="37.6204340" lon="140.0724770">
    <ele>1112.8</ele>
    <time>2024-02-17T03:02:54Z</time>
   </trkpt>
   <trkpt lat="37.6202950" lon="140.0727310">
    <ele>1115.2</ele>
    <time>2024-02-17T03:03:28Z</time>
   </trkpt>
   <trkpt lat="37.6202220" lon="140.0728990">
    <ele>1117.5</ele>
    <time>2024-02-17T03:04:05Z</time>
   </trkpt>
   <trkpt lat="37.6201780" lon="140.0731620">
    <ele>1120.0</ele>
    <time>2024-02-17T03:05:42Z</time>
   </trkpt>
   <trkpt lat="37.6199810" lon="140.0734300">
    <ele>1121.4</ele>
    <time>2024-02-17T03:06:11Z</time>
   </trkpt>
   <trkpt lat="37.6197830" lon="140.0736660">
    <ele>1123.5</ele>
    <time>2024-02-17T03:06:44Z</time>
   </trkpt>
   <trkpt lat="37.6196460" lon="140.0739010">
    <ele>1125.4</ele>
    <time>2024-02-17T03:07:14Z</time>
   </trkpt>
   <trkpt lat="37.6194450" lon="140.0738760">
    <ele>1128.3</ele>
    <time>2024-02-17T03:07:58Z</time>
   </trkpt>
   <trkpt lat="37.6191870" lon="140.0739070">
    <ele>1131.2</ele>
    <time>2024-02-17T03:08:32Z</time>
   </trkpt>
   <trkpt lat="37.6190450" lon="140.0741440">
    <ele>1134.9</ele>
    <time>2024-02-17T03:09:11Z</time>
   </trkpt>
   <trkpt lat="37.6189910" lon="140.0743730">
    <ele>1139.7</ele>
    <time>2024-02-17T03:10:18Z</time>
   </trkpt>
   <trkpt lat="37.6188730" lon="140.0745470">
    <ele>1143.0</ele>
    <time>2024-02-17T03:11:01Z</time>
   </trkpt>
   <trkpt lat="37.6187260" lon="140.0746650">
    <ele>1147.0</ele>
    <time>2024-02-17T03:11:39Z</time>
   </trkpt>
   <trkpt lat="37.6185870" lon="140.0747480">
    <ele>1151.2</ele>
    <time>2024-02-17T03:12:17Z</time>
   </trkpt>
   <trkpt lat="37.6185280" lon="140.0750350">
    <ele>1153.0</ele>
    <time>2024-02-17T03:12:52Z</time>
   </trkpt>
   <trkpt lat="37.6184300" lon="140.0750240">
    <ele>1152.7</ele>
    <time>2024-02-17T03:14:17Z</time>
   </trkpt>
   <trkpt lat="37.6183400" lon="140.0751870">
    <ele>1153.1</ele>
    <time>2024-02-17T03:15:21Z</time>
   </trkpt>
   <trkpt lat="37.6182150" lon="140.0753710">
    <ele>1151.4</ele>
    <time>2024-02-17T03:16:12Z</time>
   </trkpt>
   <trkpt lat="37.6181030" lon="140.0754800">
    <ele>1151.0</ele>
    <time>2024-02-17T03:17:19Z</time>
   </trkpt>
   <trkpt lat="37.6179920" lon="140.0756340">
    <ele>1152.3</ele>
    <time>2024-02-17T03:17:48Z</time>
   </trkpt>
   <trkpt lat="37.6178050" lon="140.0757480">
    <ele>1152.7</ele>
    <time>2024-02-17T03:18:18Z</time>
   </trkpt>
   <trkpt lat="37.6178380" lon="140.0758540">
    <ele>1151.7</ele>
    <time>2024-02-17T03:20:09Z</time>
   </trkpt>
   <trkpt lat="37.6176270" lon="140.0759490">
    <ele>1147.9</ele>
    <time>2024-02-17T03:21:29Z</time>
   </trkpt>
   <trkpt lat="37.6173440" lon="140.0761840">
    <ele>1142.8</ele>
    <time>2024-02-17T03:22:05Z</time>
   </trkpt>
   <trkpt lat="37.6171250" lon="140.0762800">
    <ele>1139.7</ele>
    <time>2024-02-17T03:22:28Z</time>
   </trkpt>
   <trkpt lat="37.6170330" lon="140.0761870">
    <ele>1138.6</ele>
    <time>2024-02-17T03:23:35Z</time>
   </trkpt>
   <trkpt lat="37.6168820" lon="140.0765020">
    <ele>1138.7</ele>
    <time>2024-02-17T03:24:04Z</time>
   </trkpt>
   <trkpt lat="37.6166340" lon="140.0767050">
    <ele>1137.2</ele>
    <time>2024-02-17T03:25:19Z</time>
   </trkpt>
   <trkpt lat="37.6164610" lon="140.0769390">
    <ele>1136.4</ele>
    <time>2024-02-17T03:25:51Z</time>
   </trkpt>
   <trkpt lat="37.6163070" lon="140.0770750">
    <ele>1137.6</ele>
    <time>2024-02-17T03:29:20Z</time>
   </trkpt>
   <trkpt lat="37.6161290" lon="140.0771670">
    <ele>1139.3</ele>
    <time>2024-02-17T03:29:48Z</time>
   </trkpt>
   <trkpt lat="37.6159120" lon="140.0772350">
    <ele>1141.6</ele>
    <time>2024-02-17T03:30:20Z</time>
   </trkpt>
   <trkpt lat="37.6157160" lon="140.0773500">
    <ele>1143.3</ele>
    <time>2024-02-17T03:30:52Z</time>
   </trkpt>
   <trkpt lat="37.6155050" lon="140.0775060">
    <ele>1145.2</ele>
    <time>2024-02-17T03:31:31Z</time>
   </trkpt>
   <trkpt lat="37.6153070" lon="140.0775960">
    <ele>1147.3</ele>
    <time>2024-02-17T03:32:05Z</time>
   </trkpt>
   <trkpt lat="37.6151240" lon="140.0776560">
    <ele>1149.2</ele>
    <time>2024-02-17T03:32:37Z</time>
   </trkpt>
   <trkpt lat="37.6149550" lon="140.0777250">
    <ele>1151.2</ele>
    <time>2024-02-17T03:33:17Z</time>
   </trkpt>
   <trkpt lat="37.6147790" lon="140.0778030">
    <ele>1153.4</ele>
    <time>2024-02-17T03:33:51Z</time>
   </trkpt>
   <trkpt lat="37.6145740" lon="140.0778650">
    <ele>1155.9</ele>
    <time>2024-02-17T03:34:28Z</time>
   </trkpt>
   <trkpt lat="37.6144390" lon="140.0778870">
    <ele>1157.7</ele>
    <time>2024-02-17T03:35:35Z</time>
   </trkpt>
   <trkpt lat="37.6142510" lon="140.0781410">
    <ele>1160.0</ele>
    <time>2024-02-17T03:43:33Z</time>
   </trkpt>
   <trkpt lat="37.6140360" lon="140.0782690">
    <ele>1161.1</ele>
    <time>2024-02-17T03:44:05Z</time>
   </trkpt>
   <trkpt lat="37.6138180" lon="140.0782780">
    <ele>1162.6</ele>
    <time>2024-02-17T03:44:36Z</time>
   </trkpt>
   <trkpt lat="37.6138050" lon="140.0780120">
    <ele>1164.0</ele>
    <time>2024-02-17T03:45:35Z</time>
   </trkpt>
   <trkpt lat="37.6139480" lon="140.0777470">
    <ele>1164.7</ele>
    <time>2024-02-17T03:46:07Z</time>
   </trkpt>
   <trkpt lat="37.6138010" lon="140.0778200">
    <ele>1165.1</ele>
    <time>2024-02-17T03:47:20Z</time>
   </trkpt>
   <trkpt lat="37.6137080" lon="140.0778520">
    <ele>1165.4</ele>
    <time>2024-02-17T03:49:10Z</time>
   </trkpt>
   <trkpt lat="37.6134950" lon="140.0779710">
    <ele>1166.6</ele>
    <time>2024-02-17T03:50:24Z</time>
   </trkpt>
   <trkpt lat="37.6134870" lon="140.0777950">
    <ele>1167.3</ele>
    <time>2024-02-17T03:51:45Z</time>
   </trkpt>
   <trkpt lat="37.6136860" lon="140.0779240">
    <ele>1167.9</ele>
    <time>2024-02-17T03:53:54Z</time>
   </trkpt>
   <trkpt lat="37.6138380" lon="140.0778030">
    <ele>1168.3</ele>
    <time>2024-02-17T03:54:34Z</time>
   </trkpt>
   <trkpt lat="37.6138190" lon="140.0776570">
    <ele>1168.6</ele>
    <time>2024-02-17T03:55:32Z</time>
   </trkpt>
   <trkpt lat="37.6138880" lon="140.0775120">
    <ele>1169.4</ele>
    <time>2024-02-17T03:57:35Z</time>
   </trkpt>
   <trkpt lat="37.6136590" lon="140.0773870">
    <ele>1171.5</ele>
    <time>2024-02-17T03:58:07Z</time>
   </trkpt>
   <trkpt lat="37.6134840" lon="140.0771520">
    <ele>1174.3</ele>
    <time>2024-02-17T03:58:34Z</time>
   </trkpt>
   <trkpt lat="37.6132660" lon="140.0769460">
    <ele>1177.8</ele>
    <time>2024-02-17T03:59:12Z</time>
   </trkpt>
   <trkpt lat="37.6130390" lon="140.0768350">
    <ele>1180.9</ele>
    <time>2024-02-17T03:59:41Z</time>
   </trkpt>
   <trkpt lat="37.6127900" lon="140.0768570">
    <ele>1183.8</ele>
    <time>2024-02-17T04:00:12Z</time>
   </trkpt>
   <trkpt lat="37.6126020" lon="140.0767410">
    <ele>1185.7</ele>
    <time>2024-02-17T04:01:32Z</time>
   </trkpt>
   <trkpt lat="37.6123600" lon="140.0768580">
    <ele>1186.1</ele>
    <time>2024-02-17T04:02:05Z</time>
   </trkpt>
   <trkpt lat="37.6122580" lon="140.0770270">
    <ele>1185.8</ele>
    <time>2024-02-17T04:02:37Z</time>
   </trkpt>
   <trkpt lat="37.6123600" lon="140.0770780">
    <ele>1185.6</ele>
    <time>2024-02-17T04:10:29Z</time>
   </trkpt>
   <trkpt lat="37.6122600" lon="140.0769880">
    <ele>1185.3</ele>
    <time>2024-02-17T04:16:09Z</time>
   </trkpt>
   <trkpt lat="37.6123380" lon="140.0770690">
    <ele>1185.0</ele>
    <time>2024-02-17T04:17:00Z</time>
   </trkpt>
   <trkpt lat="37.6122470" lon="140.0769470">
    <ele>1184.6</ele>
    <time>2024-02-17T04:23:09Z</time>
   </trkpt>
   <trkpt lat="37.6124850" lon="140.0769920">
    <ele>1184.1</ele>
    <time>2024-02-17T04:24:13Z</time>
   </trkpt>
   <trkpt lat="37.6126410" lon="140.0769360">
    <ele>1184.5</ele>
    <time>2024-02-17T04:24:41Z</time>
   </trkpt>
   <trkpt lat="37.6124860" lon="140.0768300">
    <ele>1185.0</ele>
    <time>2024-02-17T04:27:11Z</time>
   </trkpt>
   <trkpt lat="37.6123290" lon="140.0769470">
    <ele>1185.0</ele>
    <time>2024-02-17T04:27:43Z</time>
   </trkpt>
   <trkpt lat="37.6127390" lon="140.0764760">
    <ele>1185.0</ele>
    <time>2024-02-17T04:30:42Z</time>
   </trkpt>
   <trkpt lat="37.6127880" lon="140.0762310">
    <ele>1186.9</ele>
    <time>2024-02-17T04:31:11Z</time>
   </trkpt>
   <trkpt lat="37.6129730" lon="140.0758460">
    <ele>1189.5</ele>
    <time>2024-02-17T04:32:01Z</time>
   </trkpt>
   <trkpt lat="37.6132050" lon="140.0754770">
    <ele>1188.1</ele>
    <time>2024-02-17T04:32:24Z</time>
   </trkpt>
   <trkpt lat="37.6132100" lon="140.0753080">
    <ele>1187.3</ele>
    <time>2024-02-17T04:33:38Z</time>
   </trkpt>
   <trkpt lat="37.6135220" lon="140.0749490">
    <ele>1182.7</ele>
    <time>2024-02-17T04:34:48Z</time>
   </trkpt>
   <trkpt lat="37.6136970" lon="140.0748580">
    <ele>1182.0</ele>
    <time>2024-02-17T04:35:15Z</time>
   </trkpt>
   <trkpt lat="37.6139490" lon="140.0746090">
    <ele>1180.8</ele>
    <time>2024-02-17T04:36:05Z</time>
   </trkpt>
   <trkpt lat="37.6142860" lon="140.0742580">
    <ele>1176.5</ele>
    <time>2024-02-17T04:36:33Z</time>
   </trkpt>
   <trkpt lat="37.6144960" lon="140.0741690">
    <ele>1174.9</ele>
    <time>2024-02-17T04:37:08Z</time>
   </trkpt>
   <trkpt lat="37.6145920" lon="140.0738900">
    <ele>1172.1</ele>
    <time>2024-02-17T04:37:45Z</time>
   </trkpt>
   <trkpt lat="37.6145740" lon="140.0735590">
    <ele>1167.8</ele>
    <time>2024-02-17T04:38:14Z</time>
   </trkpt>
   <trkpt lat="37.6147650" lon="140.0733230">
    <ele>1164.7</ele>
    <time>2024-02-17T04:38:42Z</time>
   </trkpt>
   <trkpt lat="37.6147740" lon="140.0730830">
    <ele>1163.9</ele>
    <time>2024-02-17T04:39:34Z</time>
   </trkpt>
   <trkpt lat="37.6148070" lon="140.0727880">
    <ele>1162.9</ele>
    <time>2024-02-17T04:40:02Z</time>
   </trkpt>
   <trkpt lat="37.6148490" lon="140.0726850">
    <ele>1162.7</ele>
    <time>2024-02-17T04:41:00Z</time>
   </trkpt>
   <trkpt lat="37.6149560" lon="140.0723460">
    <ele>1162.3</ele>
    <time>2024-02-17T04:41:23Z</time>
   </trkpt>
   <trkpt lat="37.6151230" lon="140.0721170">
    <ele>1162.5</ele>
    <time>2024-02-17T04:41:46Z</time>
   </trkpt>
   <trkpt lat="37.6157570" lon="140.0719760">
    <ele>1158.3</ele>
    <time>2024-02-17T04:44:38Z</time>
   </trkpt>
   <trkpt lat="37.6161400" lon="140.0716450">
    <ele>1151.1</ele>
    <time>2024-02-17T04:45:58Z</time>
   </trkpt>
   <trkpt lat="37.6164190" lon="140.0710360">
    <ele>1142.3</ele>
    <time>2024-02-17T04:46:21Z</time>
   </trkpt>
   <trkpt lat="37.6165600" lon="140.0706300">
    <ele>1137.8</ele>
    <time>2024-02-17T04:46:49Z</time>
   </trkpt>
   <trkpt lat="37.6166670" lon="140.0703290">
    <ele>1135.5</ele>
    <time>2024-02-17T04:47:16Z</time>
   </trkpt>
   <trkpt lat="37.6168640" lon="140.0700260">
    <ele>1132.8</ele>
    <time>2024-02-17T04:47:42Z</time>
   </trkpt>
   <trkpt lat="37.6170100" lon="140.0696610">
    <ele>1130.7</ele>
    <time>2024-02-17T04:48:13Z</time>
   </trkpt>
   <trkpt lat="37.6173070" lon="140.0694680">
    <ele>1128.5</ele>
    <time>2024-02-17T04:50:53Z</time>
   </trkpt>
   <trkpt lat="37.6175950" lon="140.0693310">
    <ele>1127.3</ele>
    <time>2024-02-17T04:51:21Z</time>
   </trkpt>
   <trkpt lat="37.6178330" lon="140.0692060">
    <ele>1126.7</ele>
    <time>2024-02-17T04:52:10Z</time>
   </trkpt>
   <trkpt lat="37.6179060" lon="140.0689720">
    <ele>1126.2</ele>
    <time>2024-02-17T04:52:46Z</time>
   </trkpt>
   <trkpt lat="37.6180080" lon="140.0691730">
    <ele>1124.3</ele>
    <time>2024-02-17T04:55:42Z</time>
   </trkpt>
   <trkpt lat="37.6182870" lon="140.0692670">
    <ele>1127.7</ele>
    <time>2024-02-17T04:56:12Z</time>
   </trkpt>
   <trkpt lat="37.6183820" lon="140.0693140">
    <ele>1128.2</ele>
    <time>2024-02-17T04:56:50Z</time>
   </trkpt>
   <trkpt lat="37.6187870" lon="140.0693820">
    <ele>1125.2</ele>
    <time>2024-02-17T04:57:18Z</time>
   </trkpt>
   <trkpt lat="37.6190530" lon="140.0693960">
    <ele>1124.1</ele>
    <time>2024-02-17T04:57:45Z</time>
   </trkpt>
   <trkpt lat="37.6193220" lon="140.0693150">
    <ele>1123.3</ele>
    <time>2024-02-17T04:58:10Z</time>
   </trkpt>
   <trkpt lat="37.6195480" lon="140.0694350">
    <ele>1122.4</ele>
    <time>2024-02-17T04:58:41Z</time>
   </trkpt>
   <trkpt lat="37.6197830" lon="140.0695490">
    <ele>1122.3</ele>
    <time>2024-02-17T04:59:08Z</time>
   </trkpt>
   <trkpt lat="37.6197650" lon="140.0696680">
    <ele>1121.8</ele>
    <time>2024-02-17T05:00:00Z</time>
   </trkpt>
   <trkpt lat="37.6197070" lon="140.0697700">
    <ele>1121.5</ele>
    <time>2024-02-17T05:10:48Z</time>
   </trkpt>
   <trkpt lat="37.6196710" lon="140.0696480">
    <ele>1121.1</ele>
    <time>2024-02-17T05:11:48Z</time>
   </trkpt>
   <trkpt lat="37.6197750" lon="140.0696610">
    <ele>1121.2</ele>
    <time>2024-02-17T05:12:46Z</time>
   </trkpt>
   <trkpt lat="37.6197570" lon="140.0697740">
    <ele>1120.8</ele>
    <time>2024-02-17T05:18:42Z</time>
   </trkpt>
   <trkpt lat="37.6197680" lon="140.0696580">
    <ele>1120.4</ele>
    <time>2024-02-17T05:22:45Z</time>
   </trkpt>
   <trkpt lat="37.6198470" lon="140.0697260">
    <ele>1120.9</ele>
    <time>2024-02-17T05:25:09Z</time>
   </trkpt>
   <trkpt lat="37.6200600" lon="140.0698110">
    <ele>1122.5</ele>
    <time>2024-02-17T05:27:09Z</time>
   </trkpt>
   <trkpt lat="37.6200870" lon="140.0696450">
    <ele>1121.9</ele>
    <time>2024-02-17T05:27:41Z</time>
   </trkpt>
   <trkpt lat="37.6204270" lon="140.0696190">
    <ele>1121.4</ele>
    <time>2024-02-17T05:28:16Z</time>
   </trkpt>
   <trkpt lat="37.6206420" lon="140.0694960">
    <ele>1121.7</ele>
    <time>2024-02-17T05:29:05Z</time>
   </trkpt>
   <trkpt lat="37.6208890" lon="140.0694260">
    <ele>1120.5</ele>
    <time>2024-02-17T05:29:32Z</time>
   </trkpt>
   <trkpt lat="37.6210190" lon="140.0692130">
    <ele>1119.2</ele>
    <time>2024-02-17T05:30:06Z</time>
   </trkpt>
   <trkpt lat="37.6212210" lon="140.0691000">
    <ele>1117.4</ele>
    <time>2024-02-17T05:31:06Z</time>
   </trkpt>
   <trkpt lat="37.6213710" lon="140.0688020">
    <ele>1115.2</ele>
    <time>2024-02-17T05:31:34Z</time>
   </trkpt>
   <trkpt lat="37.6217340" lon="140.0687520">
    <ele>1111.4</ele>
    <time>2024-02-17T05:32:28Z</time>
   </trkpt>
   <trkpt lat="37.6219640" lon="140.0686790">
    <ele>1109.3</ele>
    <time>2024-02-17T05:32:50Z</time>
   </trkpt>
   <trkpt lat="37.6221350" lon="140.0685610">
    <ele>1108.2</ele>
    <time>2024-02-17T05:33:17Z</time>
   </trkpt>
   <trkpt lat="37.6225160" lon="140.0684470">
    <ele>1107.2</ele>
    <time>2024-02-17T05:33:43Z</time>
   </trkpt>
   <trkpt lat="37.6227040" lon="140.0685140">
    <ele>1107.1</ele>
    <time>2024-02-17T05:34:08Z</time>
   </trkpt>
   <trkpt lat="37.6230290" lon="140.0685440">
    <ele>1107.5</ele>
    <time>2024-02-17T05:35:10Z</time>
   </trkpt>
   <trkpt lat="37.6233710" lon="140.0684170">
    <ele>1108.4</ele>
    <time>2024-02-17T05:35:35Z</time>
   </trkpt>
   <trkpt lat="37.6235440" lon="140.0682600">
    <ele>1108.2</ele>
    <time>2024-02-17T05:35:59Z</time>
   </trkpt>
   <trkpt lat="37.6236690" lon="140.0682850">
    <ele>1108.0</ele>
    <time>2024-02-17T05:46:58Z</time>
   </trkpt>
   <trkpt lat="37.6233900" lon="140.0688230">
    <ele>1109.1</ele>
    <time>2024-02-17T05:47:54Z</time>
   </trkpt>
   <trkpt lat="37.6230300" lon="140.0693690">
    <ele>1108.7</ele>
    <time>2024-02-17T05:48:19Z</time>
   </trkpt>
   <trkpt lat="37.6228110" lon="140.0699760">
    <ele>1106.4</ele>
    <time>2024-02-17T05:48:40Z</time>
   </trkpt>
   <trkpt lat="37.6231500" lon="140.0705240">
    <ele>1095.0</ele>
    <time>2024-02-17T05:49:05Z</time>
   </trkpt>
   <trkpt lat="37.6238240" lon="140.0699590">
    <ele>1091.4</ele>
    <time>2024-02-17T05:49:26Z</time>
   </trkpt>
   <trkpt lat="37.6244070" lon="140.0694630">
    <ele>1078.7</ele>
    <time>2024-02-17T05:49:55Z</time>
   </trkpt>
   <trkpt lat="37.6250910" lon="140.0692240">
    <ele>1055.2</ele>
    <time>2024-02-17T05:51:42Z</time>
   </trkpt>
   <trkpt lat="37.6260070" lon="140.0690390">
    <ele>1034.4</ele>
    <time>2024-02-17T05:52:04Z</time>
   </trkpt>
   <trkpt lat="37.6262830" lon="140.0690420">
    <ele>1035.8</ele>
    <time>2024-02-17T05:52:27Z</time>
   </trkpt>
   <trkpt lat="37.6272790" lon="140.0691740">
    <ele>1022.6</ele>
    <time>2024-02-17T05:53:08Z</time>
   </trkpt>
   <trkpt lat="37.6286610" lon="140.0688370">
    <ele>995.7</ele>
    <time>2024-02-17T05:54:00Z</time>
   </trkpt>
   <trkpt lat="37.6302240" lon="140.0687330">
    <ele>961.5</ele>
    <time>2024-02-17T05:54:21Z</time>
   </trkpt>
   <trkpt lat="37.6316480" lon="140.0694240">
    <ele>928.1</ele>
    <time>2024-02-17T05:54:42Z</time>
   </trkpt>
   <trkpt lat="37.6329400" lon="140.0698810">
    <ele>905.8</ele>
    <time>2024-02-17T05:55:03Z</time>
   </trkpt>
   <trkpt lat="37.6332870" lon="140.0699400">
    <ele>906.6</ele>
    <time>2024-02-17T05:55:26Z</time>
   </trkpt>
   <trkpt lat="37.6334920" lon="140.0698820">
    <ele>907.1</ele>
    <time>2024-02-17T05:56:50Z</time>
   </trkpt>
   <trkpt lat="37.6335750" lon="140.0696450">
    <ele>907.6</ele>
    <time>2024-02-17T05:57:19Z</time>
   </trkpt>
  </trkseg>
 </trk>
</gpx>
