<?xml version='1.0' encoding='UTF-8'?><gpx creator="YAMAP - https://yamap.com" xsi:schemaLocation="http://www.topografix.com/GPX/1/1 http://www.topografix.com/GPX/1/1/gpx.xsd" version="1.1" xmlns="http://www.topografix.com/GPX/1/1" xmlns:xsi="http://www.w3.org/2001/XMLSchema-instance"><metadata><bounds maxlat="36.22642756881131" maxlon="140.11976579495263" minlat="36.21912585278027" minlon="140.09854608165253"/></metadata><trk><name>筑波山(男体山)・筑波山(女体山)</name><number>1</number><trkseg><trkpt lat="36.22369423841196" lon="140.10254466366663"><ele>660.9605632694438</ele><time>2021-09-04T04:09:16Z</time></trkpt><trkpt lat="36.22375906613272" lon="140.1027646167594"><ele>671.0122179528698</ele><time>2021-09-04T04:10:15Z</time></trkpt><trkpt lat="36.22393345371075" lon="140.10282361614733"><ele>676.8263517953455</ele><time>2021-09-04T04:10:49Z</time></trkpt><trkpt lat="36.223983284070236" lon="140.10257385790206"><ele>683.386441655457</ele><time>2021-09-04T04:11:17Z</time></trkpt><trkpt lat="36.22414589052615" lon="140.10247232547783"><ele>686.8037266880274</ele><time>2021-09-04T04:12:07Z</time></trkpt><trkpt lat="36.22432814340252" lon="140.10243995583127"><ele>697.4708594912663</ele><time>2021-09-04T04:12:45Z</time></trkpt><trkpt lat="36.22446135895762" lon="140.1022628047728"><ele>712.4599279174581</ele><time>2021-09-04T04:13:13Z</time></trkpt><trkpt lat="36.224603519309895" lon="140.10212167418754"><ele>720.8947136253119</ele><time>2021-09-04T04:14:11Z</time></trkpt><trkpt lat="36.22465960357031" lon="140.10190536024226"><ele>727.9991257665679</ele><time>2021-09-04T04:15:01Z</time></trkpt><trkpt lat="36.22476503771326" lon="140.10171244526504"><ele>735.6019384404644</ele><time>2021-09-04T04:15:34Z</time></trkpt><trkpt lat="36.22485814789979" lon="140.10151381596214"><ele>743.369416821748</ele><time>2021-09-04T04:16:19Z</time></trkpt><trkpt lat="36.22493758995557" lon="140.10131044305336"><ele>746.7837505787611</ele><time>2021-09-04T04:17:26Z</time></trkpt><trkpt lat="36.225097308960294" lon="140.1012035837669"><ele>761.8709553284571</ele><time>2021-09-04T04:18:21Z</time></trkpt><trkpt lat="36.225278703235816" lon="140.10124391588394"><ele>769.109938387759</ele><time>2021-09-04T04:19:02Z</time></trkpt><trkpt lat="36.22531034331171" lon="140.10102265313986"><ele>776.7288200519979</ele><time>2021-09-04T04:19:44Z</time></trkpt><trkpt lat="36.22539397605823" lon="140.1008163616679"><ele>788.2979955114424</ele><time>2021-09-04T04:20:36Z</time></trkpt><trkpt lat="36.225558725046525" lon="140.10071678839665"><ele>793.9945074794814</ele><time>2021-09-04T04:21:19Z</time></trkpt><trkpt lat="36.225740056240376" lon="140.10065811309545"><ele>796.9950649812818</ele><time>2021-09-04T04:21:53Z</time></trkpt><trkpt lat="36.22590909340724" lon="140.1005564098569"><ele>797.9985276283696</ele><time>2021-09-04T04:30:49Z</time></trkpt><trkpt lat="36.22587122720831" lon="140.1003309410357"><ele>800.4691794533283</ele><time>2021-09-04T04:31:16Z</time></trkpt><trkpt lat="36.22571903115963" lon="140.1001811118615"><ele>807.912546238862</ele><time>2021-09-04T04:32:47Z</time></trkpt><trkpt lat="36.2256572533947" lon="140.09995531296934"><ele>819.0155336661264</ele><time>2021-09-04T04:33:16Z</time></trkpt><trkpt lat="36.22571548055104" lon="140.09972100894703"><ele>825.4034637836739</ele><time>2021-09-04T04:33:41Z</time></trkpt><trkpt lat="36.225631434897416" lon="140.0995235981764"><ele>832.05188766215</ele><time>2021-09-04T04:34:09Z</time></trkpt><trkpt lat="36.225569308172346" lon="140.0993127858255"><ele>846.100549928844</ele><time>2021-09-04T04:34:59Z</time></trkpt><trkpt lat="36.225391338957685" lon="140.09926284470518"><ele>847.9307070514187</ele><time>2021-09-04T04:35:16Z</time></trkpt><trkpt lat="36.22542200042912" lon="140.09904318317598"><ele>858.2507516723126</ele><time>2021-09-04T04:36:44Z</time></trkpt><trkpt lat="36.225496795984355" lon="140.09882597404587"><ele>862.6965258959681</ele><time>2021-09-04T04:37:22Z</time></trkpt><trkpt lat="36.22567366291929" lon="140.0987574006945"><ele>867.7042830511928</ele><time>2021-09-04T04:38:05Z</time></trkpt><trkpt lat="36.22575270964644" lon="140.09854608165253"><ele>875.7479211725295</ele><time>2021-09-04T04:39:25Z</time></trkpt><trkpt lat="36.22565819563658" lon="140.09874119201592"><ele>869.1187510509044</ele><time>2021-09-04T04:43:43Z</time></trkpt><trkpt lat="36.22549924633765" lon="140.09885028427075"><ele>866.7821647347882</ele><time>2021-09-04T04:44:59Z</time></trkpt><trkpt lat="36.225376637029996" lon="140.09901820091844"><ele>860.4107923656702</ele><time>2021-09-04T04:45:49Z</time></trkpt><trkpt lat="36.22539437379841" lon="140.09924413785697"><ele>846.1676976671442</ele><time>2021-09-04T04:46:36Z</time></trkpt><trkpt lat="36.225574439833146" lon="140.09928411464372"><ele>844.9699652474374</ele><time>2021-09-04T04:46:56Z</time></trkpt><trkpt lat="36.22565457950623" lon="140.0994899316528"><ele>838.2521704286337</ele><time>2021-09-04T04:47:38Z</time></trkpt><trkpt lat="36.22567936777244" lon="140.0997206038211"><ele>827.6829519923776</ele><time>2021-09-04T04:48:14Z</time></trkpt><trkpt lat="36.22563752654347" lon="140.0999405083798"><ele>822.2528851609677</ele><time>2021-09-04T04:48:41Z</time></trkpt><trkpt lat="36.22565639366285" lon="140.1001636003779"><ele>817.0588192390278</ele><time>2021-09-04T04:49:00Z</time></trkpt><trkpt lat="36.22580910668995" lon="140.1002861584784"><ele>805.3098381794989</ele><time>2021-09-04T04:49:34Z</time></trkpt><trkpt lat="36.22588709968055" lon="140.10048865154963"><ele>806.094365902245</ele><time>2021-09-04T04:50:00Z</time></trkpt><trkpt lat="36.2260414538867" lon="140.10060935776997"><ele>806.1583669576794</ele><time>2021-09-04T04:50:20Z</time></trkpt><trkpt lat="36.226048536304724" lon="140.10038492597727"><ele>800.0855321735144</ele><time>2021-09-04T04:51:39Z</time></trkpt><trkpt lat="36.22601985826907" lon="140.1004762362761"><ele>796.8089848300442</ele><time>2021-09-04T04:53:03Z</time></trkpt><trkpt lat="36.22605884665501" lon="140.10069656980437"><ele>805.1235022032633</ele><time>2021-09-04T04:53:21Z</time></trkpt><trkpt lat="36.22608538961819" lon="140.10092484348448"><ele>802.9160324595869</ele><time>2021-09-04T04:53:38Z</time></trkpt><trkpt lat="36.226154836755825" lon="140.10114238963857"><ele>802.9451101347804</ele><time>2021-09-04T04:53:56Z</time></trkpt><trkpt lat="36.226223845053795" lon="140.10135394739987"><ele>800.9825635654852</ele><time>2021-09-04T04:54:12Z</time></trkpt><trkpt lat="36.22627328755657" lon="140.10157539888687"><ele>800.1087342556566</ele><time>2021-09-04T04:54:27Z</time></trkpt><trkpt lat="36.22631383451901" lon="140.10179683971336"><ele>797.347198237665</ele><time>2021-09-04T04:54:59Z</time></trkpt><trkpt lat="36.226343837095314" lon="140.10201710235646"><ele>800.5419528819621</ele><time>2021-09-04T04:55:13Z</time></trkpt><trkpt lat="36.2263280060963" lon="140.10225032596236"><ele>803.6110013471916</ele><time>2021-09-04T04:55:32Z</time></trkpt><trkpt lat="36.22630420754664" lon="140.1024844968891"><ele>804.4307245025411</ele><time>2021-09-04T04:55:52Z</time></trkpt><trkpt lat="36.22633641194806" lon="140.1027212498592"><ele>808.9208946982399</ele><time>2021-09-04T04:56:09Z</time></trkpt><trkpt lat="36.22636283926118" lon="140.10294776157468"><ele>811.7602710695937</ele><time>2021-09-04T04:56:28Z</time></trkpt><trkpt lat="36.22635290967144" lon="140.1031730912024"><ele>816.5707226945087</ele><time>2021-09-04T04:56:44Z</time></trkpt><trkpt lat="36.22641502211501" lon="140.1033818920618"><ele>816.4613871825859</ele><time>2021-09-04T04:57:06Z</time></trkpt><trkpt lat="36.22642756881131" lon="140.10360512878376"><ele>821.5621962547302</ele><time>2021-09-04T04:57:28Z</time></trkpt><trkpt lat="36.22635797194164" lon="140.1038195104841"><ele>828.2085126461461</ele><time>2021-09-04T04:58:00Z</time></trkpt><trkpt lat="36.226296630785676" lon="140.10403841558872"><ele>834.3197399517521</ele><time>2021-09-04T04:58:31Z</time></trkpt><trkpt lat="36.22625450027381" lon="140.10426222268666"><ele>838.3799093617126</ele><time>2021-09-04T04:58:51Z</time></trkpt><trkpt lat="36.22616752010464" lon="140.10446951455683"><ele>838.6909929485992</ele><time>2021-09-04T04:59:09Z</time></trkpt><trkpt lat="36.226203999219706" lon="140.1046955752556"><ele>843.0452104294673</ele><time>2021-09-04T04:59:31Z</time></trkpt><trkpt lat="36.22610972847728" lon="140.1048941935607"><ele>842.944850306958</ele><time>2021-09-04T04:59:48Z</time></trkpt><trkpt lat="36.22605067293711" lon="140.1051092602384"><ele>849.6328387930989</ele><time>2021-09-04T05:00:44Z</time></trkpt><trkpt lat="36.22598436194313" lon="140.10531644391105"><ele>852.1508785653859</ele><time>2021-09-04T05:01:34Z</time></trkpt><trkpt lat="36.22601536892964" lon="140.10554300101174"><ele>857.150317565538</ele><time>2021-09-04T05:01:53Z</time></trkpt><trkpt lat="36.225892036598005" lon="140.10573051605408"><ele>857.6786541966721</ele><time>2021-09-04T05:02:15Z</time></trkpt><trkpt lat="36.22585210900452" lon="140.10595710629914"><ele>857.2881343346089</ele><time>2021-09-04T05:02:35Z</time></trkpt><trkpt lat="36.22580393699821" lon="140.10619878098524"><ele>854.9968127515167</ele><time>2021-09-04T05:02:57Z</time></trkpt><trkpt lat="36.22575703123429" lon="140.10642229955295"><ele>853.4226842559874</ele><time>2021-09-04T05:03:26Z</time></trkpt><trkpt lat="36.22559709177236" lon="140.1065254996908"><ele>857.4769757948816</ele><time>2021-09-04T05:04:39Z</time></trkpt><trkpt lat="36.22546362588607" lon="140.10667888058487"><ele>866.4469521800056</ele><time>2021-09-04T05:06:01Z</time></trkpt><trkpt lat="36.22563899042222" lon="140.10660586909165"><ele>858.3237213669345</ele><time>2021-09-04T05:12:20Z</time></trkpt><trkpt lat="36.22554140276802" lon="140.1067941926013"><ele>846.5867909966037</ele><time>2021-09-04T05:14:02Z</time></trkpt><trkpt lat="36.22544066583346" lon="140.1070078414466"><ele>840.889151298441</ele><time>2021-09-04T05:15:46Z</time></trkpt><trkpt lat="36.22531446372012" lon="140.1071670550882"><ele>830.4240854643285</ele><time>2021-09-04T05:17:04Z</time></trkpt><trkpt lat="36.22513428154523" lon="140.10723325011259"><ele>820.5284195225686</ele><time>2021-09-04T05:18:09Z</time></trkpt><trkpt lat="36.22496234317282" lon="140.10716516906535"><ele>819.6046978253871</ele><time>2021-09-04T05:18:24Z</time></trkpt><trkpt lat="36.22478320887723" lon="140.1072528102363"><ele>814.9844780229032</ele><time>2021-09-04T05:18:58Z</time></trkpt><trkpt lat="36.224832704973636" lon="140.10747206738174"><ele>807.753767346032</ele><time>2021-09-04T05:19:38Z</time></trkpt><trkpt lat="36.22492329769921" lon="140.1076751936465"><ele>797.224751163274</ele><time>2021-09-04T05:20:16Z</time></trkpt><trkpt lat="36.225059129079966" lon="140.1078352457272"><ele>793.4229045854881</ele><time>2021-09-04T05:20:45Z</time></trkpt><trkpt lat="36.22515694290777" lon="140.1080239190557"><ele>789.9903047997504</ele><time>2021-09-04T05:21:24Z</time></trkpt><trkpt lat="36.22519192865721" lon="140.1082575044104"><ele>787.1823695134372</ele><time>2021-09-04T05:21:39Z</time></trkpt><trkpt lat="36.22501942504122" lon="140.10833307166706"><ele>780.9231553673744</ele><time>2021-09-04T05:22:28Z</time></trkpt><trkpt lat="36.22501612658586" lon="140.10855673860712"><ele>776.3550930572674</ele><time>2021-09-04T05:23:10Z</time></trkpt><trkpt lat="36.22509270430625" lon="140.10877991015445"><ele>773.672404633835</ele><time>2021-09-04T05:23:33Z</time></trkpt><trkpt lat="36.22517645897333" lon="140.1089778844632"><ele>763.7728820294142</ele><time>2021-09-04T05:24:57Z</time></trkpt><trkpt lat="36.225161347950085" lon="140.10921439552052"><ele>761.0235834326595</ele><time>2021-09-04T05:27:32Z</time></trkpt><trkpt lat="36.22513878054007" lon="140.10943976044456"><ele>760.6236355481669</ele><time>2021-09-04T05:27:44Z</time></trkpt><trkpt lat="36.22508855799648" lon="140.10966959010923"><ele>764.0191710265353</ele><time>2021-09-04T05:27:59Z</time></trkpt><trkpt lat="36.22495256421463" lon="140.10981966877816"><ele>763.4191148867831</ele><time>2021-09-04T05:28:18Z</time></trkpt><trkpt lat="36.22493735302062" lon="140.1100460094969"><ele>767.2395167248324</ele><time>2021-09-04T05:28:45Z</time></trkpt><trkpt lat="36.224844693436516" lon="140.11024842054988"><ele>765.2506278064102</ele><time>2021-09-04T05:29:44Z</time></trkpt><trkpt lat="36.224755537680565" lon="140.11044798074835"><ele>766.6508135078475</ele><time>2021-09-04T05:30:02Z</time></trkpt><trkpt lat="36.22467726080866" lon="140.11064902803776"><ele>766.5628472175449</ele><time>2021-09-04T05:30:27Z</time></trkpt><trkpt lat="36.22455133199656" lon="140.110810465407"><ele>767.6979958368465</ele><time>2021-09-04T05:31:32Z</time></trkpt><trkpt lat="36.22439525684972" lon="140.11092798796548"><ele>758.329173357226</ele><time>2021-09-04T05:33:05Z</time></trkpt><trkpt lat="36.2243951053758" lon="140.11115047193724"><ele>758.08275741525</ele><time>2021-09-04T05:33:25Z</time></trkpt><trkpt lat="36.22435545118694" lon="140.11137152060306"><ele>753.9492791453376</ele><time>2021-09-04T05:33:53Z</time></trkpt><trkpt lat="36.22428644371329" lon="140.1115889693466"><ele>749.3607537075877</ele><time>2021-09-04T05:35:28Z</time></trkpt><trkpt lat="36.2243247187868" lon="140.11135016853962"><ele>749.4843802526593</ele><time>2021-09-04T05:37:06Z</time></trkpt><trkpt lat="36.2241358726159" lon="140.11136512454877"><ele>738.9386273333803</ele><time>2021-09-04T05:38:30Z</time></trkpt><trkpt lat="36.22425540344404" lon="140.11115750585358"><ele>743.8478172542527</ele><time>2021-09-04T05:40:08Z</time></trkpt><trkpt lat="36.22413479230705" lon="140.11097653645763"><ele>740.0461934767663</ele><time>2021-09-04T05:40:49Z</time></trkpt><trkpt lat="36.22401531496065" lon="140.11078186537475"><ele>735.8574256943539</ele><time>2021-09-04T05:41:07Z</time></trkpt><trkpt lat="36.224012497890946" lon="140.1105561908323"><ele>735.325557182543</ele><time>2021-09-04T05:41:26Z</time></trkpt><trkpt lat="36.223981409140244" lon="140.11032400303557"><ele>725.4946107706055</ele><time>2021-09-04T05:43:41Z</time></trkpt><trkpt lat="36.22395547726092" lon="140.11054459146482"><ele>730.4673862401396</ele><time>2021-09-04T05:44:23Z</time></trkpt><trkpt lat="36.22379702264584" lon="140.11065445137496"><ele>723.1109350258484</ele><time>2021-09-04T05:45:08Z</time></trkpt><trkpt lat="36.22373343586077" lon="140.11087992322163"><ele>719.7573286285624</ele><time>2021-09-04T05:45:30Z</time></trkpt><trkpt lat="36.22369052142894" lon="140.1111030208593"><ele>709.5346880843863</ele><time>2021-09-04T05:46:19Z</time></trkpt><trkpt lat="36.22367405886638" lon="140.1113309967317"><ele>710.0354127036408</ele><time>2021-09-04T05:46:49Z</time></trkpt><trkpt lat="36.223599666184725" lon="140.11154672212643"><ele>703.2171477787197</ele><time>2021-09-04T05:47:13Z</time></trkpt><trkpt lat="36.22351821261934" lon="140.11176477005696"><ele>703.4846499878913</ele><time>2021-09-04T05:47:38Z</time></trkpt><trkpt lat="36.22350956584441" lon="140.11199250971376"><ele>704.5791588397697</ele><time>2021-09-04T05:47:54Z</time></trkpt><trkpt lat="36.223499670404735" lon="140.11222428897923"><ele>706.9026214014739</ele><time>2021-09-04T05:48:07Z</time></trkpt><trkpt lat="36.22339333093426" lon="140.1124083256714"><ele>709.9243710217997</ele><time>2021-09-04T05:48:32Z</time></trkpt><trkpt lat="36.223220202147836" lon="140.11248707051726"><ele>706.0678257960826</ele><time>2021-09-04T05:48:50Z</time></trkpt><trkpt lat="36.22308519767509" lon="140.1126435341822"><ele>706.543129731901</ele><time>2021-09-04T05:49:07Z</time></trkpt><trkpt lat="36.22305211494314" lon="140.1128821230836"><ele>705.3668962717056</ele><time>2021-09-04T05:49:25Z</time></trkpt><trkpt lat="36.223022741403554" lon="140.11310533630333"><ele>705.0311231222004</ele><time>2021-09-04T05:49:37Z</time></trkpt><trkpt lat="36.22301825196134" lon="140.1133378027807"><ele>700.2878252770752</ele><time>2021-09-04T05:49:56Z</time></trkpt><trkpt lat="36.22303471985169" lon="140.1135632837602"><ele>695.699653104879</ele><time>2021-09-04T05:50:13Z</time></trkpt><trkpt lat="36.22299185320788" lon="140.113780519622"><ele>693.7589568644762</ele><time>2021-09-04T05:50:29Z</time></trkpt><trkpt lat="36.222974858860425" lon="140.11401755361933"><ele>691.6805959139019</ele><time>2021-09-04T05:50:45Z</time></trkpt><trkpt lat="36.22297936394991" lon="140.11424517582773"><ele>689.3217800036073</ele><time>2021-09-04T05:50:58Z</time></trkpt><trkpt lat="36.22293934655525" lon="140.11447112576343"><ele>682.7778104944155</ele><time>2021-09-04T05:51:31Z</time></trkpt><trkpt lat="36.22283615366703" lon="140.1146546489151"><ele>676.9060450401157</ele><time>2021-09-04T05:51:49Z</time></trkpt><trkpt lat="36.22272293154526" lon="140.114830670381"><ele>671.2078723730519</ele><time>2021-09-04T05:52:06Z</time></trkpt><trkpt lat="36.22258415856221" lon="140.1149848419558"><ele>667.2805493157357</ele><time>2021-09-04T05:52:23Z</time></trkpt><trkpt lat="36.22252956531671" lon="140.11520044495433"><ele>663.6118721151724</ele><time>2021-09-04T05:52:38Z</time></trkpt><trkpt lat="36.222444814703316" lon="140.11541440421857"><ele>658.3540266565979</ele><time>2021-09-04T05:53:04Z</time></trkpt><trkpt lat="36.22237096488299" lon="140.11562702660012"><ele>649.3077314337716</ele><time>2021-09-04T05:53:39Z</time></trkpt><trkpt lat="36.222313837157444" lon="140.11584713226827"><ele>645.5255057504401</ele><time>2021-09-04T05:54:06Z</time></trkpt><trkpt lat="36.2223093234244" lon="140.11607728234372"><ele>639.562830354087</ele><time>2021-09-04T05:54:23Z</time></trkpt><trkpt lat="36.222293387387225" lon="140.116302365077"><ele>636.4847470866516</ele><time>2021-09-04T05:54:42Z</time></trkpt><trkpt lat="36.22221225852607" lon="140.1165140742099"><ele>633.4923403989524</ele><time>2021-09-04T05:54:57Z</time></trkpt><trkpt lat="36.22212927876502" lon="140.11671643460053"><ele>632.0872737206519</ele><time>2021-09-04T05:55:10Z</time></trkpt><trkpt lat="36.22198691168633" lon="140.11686687705347"><ele>631.8535230848938</ele><time>2021-09-04T05:55:25Z</time></trkpt><trkpt lat="36.22182506461366" lon="140.1169648007139"><ele>628.2892985893413</ele><time>2021-09-04T05:56:08Z</time></trkpt><trkpt lat="36.221708466074496" lon="140.1171346429272"><ele>621.110299247317</ele><time>2021-09-04T05:56:45Z</time></trkpt><trkpt lat="36.22163625786321" lon="140.11734311199393"><ele>609.3712536450475</ele><time>2021-09-04T05:57:14Z</time></trkpt><trkpt lat="36.22152244685081" lon="140.11752914159172"><ele>604.9375122711062</ele><time>2021-09-04T05:57:47Z</time></trkpt><trkpt lat="36.221386744379544" lon="140.11768451625994"><ele>599.5327294794843</ele><time>2021-09-04T05:58:26Z</time></trkpt><trkpt lat="36.221296704133614" lon="140.11787976157527"><ele>589.6866486780345</ele><time>2021-09-04T05:58:54Z</time></trkpt><trkpt lat="36.221275491107406" lon="140.11810390604177"><ele>582.827156258747</ele><time>2021-09-04T05:59:25Z</time></trkpt><trkpt lat="36.22120057115962" lon="140.11830770119636"><ele>577.41177182924</ele><time>2021-09-04T05:59:45Z</time></trkpt><trkpt lat="36.22101908573031" lon="140.11827800168044"><ele>573.1408212529495</ele><time>2021-09-04T06:00:04Z</time></trkpt><trkpt lat="36.220842906223055" lon="140.1183340149657"><ele>561.741144226864</ele><time>2021-09-04T06:01:14Z</time></trkpt><trkpt lat="36.2206684987521" lon="140.11840107089844"><ele>554.6622652094811</ele><time>2021-09-04T06:01:45Z</time></trkpt><trkpt lat="36.22062911687391" lon="140.11862592460466"><ele>547.0512238787487</ele><time>2021-09-04T06:02:11Z</time></trkpt><trkpt lat="36.2205774282499" lon="140.1184069492619"><ele>550.0779127879068</ele><time>2021-09-04T06:03:14Z</time></trkpt><trkpt lat="36.2203988559385" lon="140.11846959078161"><ele>543.6765729272738</ele><time>2021-09-04T06:03:37Z</time></trkpt><trkpt lat="36.22024977811527" lon="140.1186199028319"><ele>535.3784341523424</ele><time>2021-09-04T06:03:56Z</time></trkpt><trkpt lat="36.22011137243991" lon="140.1187713481407"><ele>534.0098860757425</ele><time>2021-09-04T06:04:34Z</time></trkpt><trkpt lat="36.220042606285695" lon="140.118987335771"><ele>532.0749993603677</ele><time>2021-09-04T06:07:40Z</time></trkpt><trkpt lat="36.220225259672" lon="140.11902121866257"><ele>535.8222205648199</ele><time>2021-09-04T06:07:59Z</time></trkpt><trkpt lat="36.22041108602681" lon="140.11899740814536"><ele>533.4915002863854</ele><time>2021-09-04T06:08:21Z</time></trkpt><trkpt lat="36.22058613537816" lon="140.11906496051333"><ele>532.78862662334</ele><time>2021-09-04T06:08:48Z</time></trkpt><trkpt lat="36.22077235200867" lon="140.11907354256604"><ele>532.8881924375892</ele><time>2021-09-04T06:09:08Z</time></trkpt><trkpt lat="36.22084956106166" lon="140.11928722372483"><ele>535.4939085580409</ele><time>2021-09-04T06:09:32Z</time></trkpt><trkpt lat="36.220860050002884" lon="140.119423901476"><ele>536.5396585129201</ele><time>2021-09-04T06:10:51Z</time></trkpt><trkpt lat="36.2208580991427" lon="140.11919594171678"><ele>535.2075673546642</ele><time>2021-09-04T06:11:03Z</time></trkpt><trkpt lat="36.220707207966974" lon="140.1190679158216"><ele>539.3848264887929</ele><time>2021-09-04T06:11:20Z</time></trkpt><trkpt lat="36.220519250810675" lon="140.11904263281394"><ele>539.6552639957517</ele><time>2021-09-04T06:11:39Z</time></trkpt><trkpt lat="36.2203510125299" lon="140.11913739397758"><ele>533.9680764432997</ele><time>2021-09-04T06:11:58Z</time></trkpt><trkpt lat="36.22017246160725" lon="140.1192047108773"><ele>533.1089117350057</ele><time>2021-09-04T06:12:15Z</time></trkpt><trkpt lat="36.220064791265294" lon="140.1193883343121"><ele>531.6674514813349</ele><time>2021-09-04T06:12:35Z</time></trkpt><trkpt lat="36.21988485693471" lon="140.11936215786048"><ele>532.8445225637406</ele><time>2021-09-04T06:12:53Z</time></trkpt><trkpt lat="36.219720060133554" lon="140.11947000236927"><ele>533.299239792861</ele><time>2021-09-04T06:13:13Z</time></trkpt><trkpt lat="36.21953288553108" lon="140.1194803440141"><ele>535.3598252059892</ele><time>2021-09-04T06:13:33Z</time></trkpt><trkpt lat="36.21936322923948" lon="140.1193650034675"><ele>533.7757860394195</ele><time>2021-09-04T06:18:20Z</time></trkpt><trkpt lat="36.219242373245606" lon="140.1195706649611"><ele>530.9829921424389</ele><time>2021-09-04T06:18:54Z</time></trkpt><trkpt lat="36.21912585278027" lon="140.11976579495263"><ele>531.7035688655451</ele><time>2021-09-04T06:18:58Z</time></trkpt><trkpt lat="36.21924539690559" lon="140.1195845228581"><ele>530.579803400673</ele><time>2021-09-04T06:19:01Z</time></trkpt><trkpt lat="36.21951597542844" lon="140.1193357070298"><ele>532.3066544998437</ele><time>2021-09-04T06:19:08Z</time></trkpt><trkpt lat="36.21938314757901" lon="140.11913403881724"><ele>530.543445606716</ele><time>2021-09-04T06:19:49Z</time></trkpt><trkpt lat="36.21940365262684" lon="140.1193806386954"><ele>529.1921842964366</ele><time>2021-09-04T06:19:54Z</time></trkpt><trkpt lat="36.219514849289574" lon="140.1195641925898"><ele>529.8480691472068</ele><time>2021-09-04T06:20:10Z</time></trkpt><trkpt lat="36.21947791569799" lon="140.1195679198187"><ele>531.5397891523317</ele><time>2021-09-04T06:20:36Z</time></trkpt><trkpt lat="36.21945357550746" lon="140.11951158043286"><ele>528.6979536507279</ele><time>2021-09-04T06:21:16Z</time></trkpt><trkpt lat="36.219499792736535" lon="140.1194921756026"><ele>534.3030277574435</ele><time>2021-09-04T06:21:30Z</time></trkpt></trkseg></trk></gpx>