<?xml version='1.0' encoding='UTF-8'?><gpx creator="YAMAP - https://yamap.com" xsi:schemaLocation="http://www.topografix.com/GPX/1/1 http://www.topografix.com/GPX/1/1/gpx.xsd" version="1.1" xmlns="http://www.topografix.com/GPX/1/1" xmlns:xsi="http://www.w3.org/2001/XMLSchema-instance"><metadata><bounds maxlat="36.41440334590352" maxlon="138.51500716102257" minlat="36.40029359407208" minlon="138.4696921218503"/></metadata><trk><name>車坂山・槍ヶ鞘・トーミの頭・前掛山・鋸岳・仙人岳・蛇骨岳・黒斑山</name><number>1</number><trkseg><trkpt lat="36.40508035666905" lon="138.47008268361768"><ele>1973.059413909912</ele><time>2021-10-01T22:22:15Z</time></trkpt><trkpt lat="36.40489401999325" lon="138.4701003685072"><ele>1973.4549219207838</ele><time>2021-10-01T22:22:29Z</time></trkpt><trkpt lat="36.404761726093696" lon="138.46993368934477"><ele>1972.7762109255418</ele><time>2021-10-01T22:22:45Z</time></trkpt><trkpt lat="36.40468563038546" lon="138.46972028646482"><ele>1973.6753477081656</ele><time>2021-10-01T22:23:00Z</time></trkpt><trkpt lat="36.404554477078875" lon="138.46990018090113"><ele>1976.9828167082742</ele><time>2021-10-01T22:23:40Z</time></trkpt><trkpt lat="36.40452349853771" lon="138.47013046255304"><ele>1978.2731782412156</ele><time>2021-10-01T22:24:04Z</time></trkpt><trkpt lat="36.40445035134607" lon="138.47034734295244"><ele>1982.8594585098326</ele><time>2021-10-01T22:24:26Z</time></trkpt><trkpt lat="36.404368555576255" lon="138.47054996471786"><ele>1982.002039595507</ele><time>2021-10-01T22:24:47Z</time></trkpt><trkpt lat="36.4044429220777" lon="138.4707628007162"><ele>1987.0805789213628</ele><time>2021-10-01T22:25:06Z</time></trkpt><trkpt lat="36.40451386189862" lon="138.470976944362"><ele>1986.6107885465026</ele><time>2021-10-01T22:25:26Z</time></trkpt><trkpt lat="36.40458591765876" lon="138.47119988884108"><ele>1989.9693134548143</ele><time>2021-10-01T22:25:43Z</time></trkpt><trkpt lat="36.40461830654858" lon="138.47142870791527"><ele>1990.4330397099257</ele><time>2021-10-01T22:26:04Z</time></trkpt><trkpt lat="36.404662173843775" lon="138.47164948789865"><ele>1990.9347080755979</ele><time>2021-10-01T22:26:22Z</time></trkpt><trkpt lat="36.404673402467374" lon="138.4718802079374"><ele>1994.1329882303253</ele><time>2021-10-01T22:26:39Z</time></trkpt><trkpt lat="36.4046068667632" lon="138.4721052207198"><ele>1994.1361330971122</ele><time>2021-10-01T22:26:56Z</time></trkpt><trkpt lat="36.404602509655014" lon="138.47233692343033"><ele>1997.9102265080437</ele><time>2021-10-01T22:27:15Z</time></trkpt><trkpt lat="36.40466104736071" lon="138.4725537117717"><ele>2001.2998629063368</ele><time>2021-10-01T22:27:36Z</time></trkpt><trkpt lat="36.404718297113256" lon="138.47276574343527"><ele>2006.1540504666045</ele><time>2021-10-01T22:27:59Z</time></trkpt><trkpt lat="36.40472737221045" lon="138.4729936028266"><ele>2011.6455035386607</ele><time>2021-10-01T22:28:23Z</time></trkpt><trkpt lat="36.4046222679277" lon="138.47318347140185"><ele>2015.9107907852158</ele><time>2021-10-01T22:28:45Z</time></trkpt><trkpt lat="36.40454272147442" lon="138.47338603764453"><ele>2023.222146064043</ele><time>2021-10-01T22:29:14Z</time></trkpt><trkpt lat="36.40449669589793" lon="138.47360292492266"><ele>2027.182200372219</ele><time>2021-10-01T22:29:42Z</time></trkpt><trkpt lat="36.40438738546774" lon="138.4737828278275"><ele>2032.1823724992573</ele><time>2021-10-01T22:30:05Z</time></trkpt><trkpt lat="36.40427030404926" lon="138.47396553985865"><ele>2038.401364670135</ele><time>2021-10-01T22:30:31Z</time></trkpt><trkpt lat="36.404231970714484" lon="138.47419063145364"><ele>2039.1725042369217</ele><time>2021-10-01T22:30:57Z</time></trkpt><trkpt lat="36.404135759678475" lon="138.47438337513307"><ele>2044.8925832863897</ele><time>2021-10-01T22:31:18Z</time></trkpt><trkpt lat="36.40404175336711" lon="138.47457578545604"><ele>2049.0955156926066</ele><time>2021-10-01T22:31:40Z</time></trkpt><trkpt lat="36.40399851990042" lon="138.47480249082398"><ele>2050.818475822918</ele><time>2021-10-01T22:32:00Z</time></trkpt><trkpt lat="36.40386975293086" lon="138.47496394369236"><ele>2054.906669157557</ele><time>2021-10-01T22:32:17Z</time></trkpt><trkpt lat="36.40381068355927" lon="138.47517950875235"><ele>2056.9531287401915</ele><time>2021-10-01T22:32:35Z</time></trkpt><trkpt lat="36.403867369757975" lon="138.475395233575"><ele>2055.3715226668864</ele><time>2021-10-01T22:32:56Z</time></trkpt><trkpt lat="36.40388624932176" lon="138.47562725354123"><ele>2057.9479597155005</ele><time>2021-10-01T22:33:15Z</time></trkpt><trkpt lat="36.403941540329676" lon="138.47586413882482"><ele>2055.609169364907</ele><time>2021-10-01T22:33:36Z</time></trkpt><trkpt lat="36.40408253085163" lon="138.47600309809494"><ele>2050.51383555308</ele><time>2021-10-01T22:34:00Z</time></trkpt><trkpt lat="36.404050585781555" lon="138.4762272971302"><ele>2037.6217976110056</ele><time>2021-10-01T22:34:57Z</time></trkpt><trkpt lat="36.404187107936544" lon="138.47637740064584"><ele>2031.9520864523947</ele><time>2021-10-01T22:35:31Z</time></trkpt><trkpt lat="36.404283568311826" lon="138.4765666578236"><ele>2022.1747359968722</ele><time>2021-10-01T22:36:22Z</time></trkpt><trkpt lat="36.404167286569105" lon="138.47673798411728"><ele>2020.138924434781</ele><time>2021-10-01T22:36:44Z</time></trkpt><trkpt lat="36.404069166401726" lon="138.47693148117017"><ele>2021.2401821454987</ele><time>2021-10-01T22:37:14Z</time></trkpt><trkpt lat="36.40397444529012" lon="138.4771243360712"><ele>2024.9287549108267</ele><time>2021-10-01T22:37:46Z</time></trkpt><trkpt lat="36.40386226891748" lon="138.47731045132986"><ele>2030.975088590756</ele><time>2021-10-01T22:38:07Z</time></trkpt><trkpt lat="36.403801195577245" lon="138.47752111892353"><ele>2038.0238852184266</ele><time>2021-10-01T22:38:38Z</time></trkpt><trkpt lat="36.40373100111172" lon="138.47773664477052"><ele>2048.6918334774673</ele><time>2021-10-01T22:39:25Z</time></trkpt><trkpt lat="36.40379544177386" lon="138.47794783613773"><ele>2055.1002176618204</ele><time>2021-10-01T22:39:57Z</time></trkpt><trkpt lat="36.40363265658009" lon="138.47806694970797"><ele>2064.3238535001874</ele><time>2021-10-01T22:40:33Z</time></trkpt><trkpt lat="36.40349641730366" lon="138.4782205385774"><ele>2069.9720132360235</ele><time>2021-10-01T22:41:11Z</time></trkpt><trkpt lat="36.4034069901549" lon="138.47841477231262"><ele>2077.670057141222</ele><time>2021-10-01T22:41:54Z</time></trkpt><trkpt lat="36.4032519344218" lon="138.47853319731627"><ele>2087.834655214101</ele><time>2021-10-01T22:42:24Z</time></trkpt><trkpt lat="36.40318205791433" lon="138.4787397480076"><ele>2095.4378312071785</ele><time>2021-10-01T22:43:06Z</time></trkpt><trkpt lat="36.403062614771244" lon="138.4789145563406"><ele>2106.0354399112985</ele><time>2021-10-01T22:43:44Z</time></trkpt><trkpt lat="36.402892471516864" lon="138.47900340518692"><ele>2107.706055614166</ele><time>2021-10-01T22:44:16Z</time></trkpt><trkpt lat="36.402728393499785" lon="138.47909809396143"><ele>2113.420180313289</ele><time>2021-10-01T22:44:44Z</time></trkpt><trkpt lat="36.40266203424668" lon="138.47931144229696"><ele>2121.8698795475066</ele><time>2021-10-01T22:45:23Z</time></trkpt><trkpt lat="36.40280316208459" lon="138.4794596627795"><ele>2123.967476551421</ele><time>2021-10-01T22:45:47Z</time></trkpt><trkpt lat="36.402784402398495" lon="138.47968529146456"><ele>2128.9575148262084</ele><time>2021-10-01T22:46:20Z</time></trkpt><trkpt lat="36.402712408281175" lon="138.4798979808622"><ele>2137.591392984614</ele><time>2021-10-01T22:46:50Z</time></trkpt><trkpt lat="36.402700308783515" lon="138.48012942687376"><ele>2140.3794203326106</ele><time>2021-10-01T22:47:29Z</time></trkpt><trkpt lat="36.40282755108162" lon="138.48029010933308"><ele>2144.460931855254</ele><time>2021-10-01T22:48:01Z</time></trkpt><trkpt lat="36.4027573897031" lon="138.48050420990754"><ele>2148.785392551683</ele><time>2021-10-01T22:48:29Z</time></trkpt><trkpt lat="36.40272736501625" lon="138.48073127381159"><ele>2154.353051615879</ele><time>2021-10-01T22:48:58Z</time></trkpt><trkpt lat="36.40255400510244" lon="138.48083065595029"><ele>2154.743720913306</ele><time>2021-10-01T22:49:23Z</time></trkpt><trkpt lat="36.40244215741709" lon="138.4810212042513"><ele>2157.1047030789778</ele><time>2021-10-01T22:49:43Z</time></trkpt><trkpt lat="36.402501083717105" lon="138.48124010675338"><ele>2158.98813091591</ele><time>2021-10-01T22:50:09Z</time></trkpt><trkpt lat="36.40245058460726" lon="138.48145503416134"><ele>2161.2024597153068</ele><time>2021-10-01T22:50:32Z</time></trkpt><trkpt lat="36.40228927635451" lon="138.48156398879036"><ele>2159.1546326577663</ele><time>2021-10-01T22:51:07Z</time></trkpt><trkpt lat="36.40220951345584" lon="138.48176558037486"><ele>2161.9712463822216</ele><time>2021-10-01T22:51:31Z</time></trkpt><trkpt lat="36.402212941009836" lon="138.4819888854188"><ele>2165.7237446745858</ele><time>2021-10-01T22:51:53Z</time></trkpt><trkpt lat="36.40206541442713" lon="138.48214424708712"><ele>2171.3195954049006</ele><time>2021-10-01T22:53:45Z</time></trkpt><trkpt lat="36.40192093866933" lon="138.48229470986678"><ele>2172.4346400676295</ele><time>2021-10-01T22:54:11Z</time></trkpt><trkpt lat="36.401930985742034" lon="138.48252108657323"><ele>2182.9708090471104</ele><time>2021-10-01T22:54:59Z</time></trkpt><trkpt lat="36.40201786319499" lon="138.4827218008614"><ele>2186.9876693189144</ele><time>2021-10-01T22:55:30Z</time></trkpt><trkpt lat="36.40197542877123" lon="138.4829458889675"><ele>2189.474288268946</ele><time>2021-10-01T22:55:52Z</time></trkpt><trkpt lat="36.40196912854732" lon="138.483179613925"><ele>2191.051257777959</ele><time>2021-10-01T22:56:13Z</time></trkpt><trkpt lat="36.40192880966013" lon="138.48340237890045"><ele>2191.641395286657</ele><time>2021-10-01T22:56:31Z</time></trkpt><trkpt lat="36.40190577495916" lon="138.4836321213182"><ele>2192.0339037282392</ele><time>2021-10-01T22:56:51Z</time></trkpt><trkpt lat="36.40183304436901" lon="138.4838398999929"><ele>2192.4536149911582</ele><time>2021-10-01T22:57:11Z</time></trkpt><trkpt lat="36.401755771566314" lon="138.48405215899845"><ele>2192.7355465069413</ele><time>2021-10-01T22:57:27Z</time></trkpt><trkpt lat="36.40170236403751" lon="138.48426975157435"><ele>2200.184052229859</ele><time>2021-10-01T22:57:53Z</time></trkpt><trkpt lat="36.401679154973166" lon="138.48449368863828"><ele>2203.093005449511</ele><time>2021-10-01T22:58:28Z</time></trkpt><trkpt lat="36.40155949136881" lon="138.484662308846"><ele>2206.960840688087</ele><time>2021-10-01T22:58:57Z</time></trkpt><trkpt lat="36.40151307770601" lon="138.4848846421568"><ele>2211.287990178913</ele><time>2021-10-01T22:59:19Z</time></trkpt><trkpt lat="36.40148062461836" lon="138.48510784638592"><ele>2215.050268208608</ele><time>2021-10-01T22:59:41Z</time></trkpt><trkpt lat="36.40141406531528" lon="138.48531526410136"><ele>2214.7367695979774</ele><time>2021-10-01T23:00:01Z</time></trkpt><trkpt lat="36.4012688174949" lon="138.485448667191"><ele>2220.4534778743982</ele><time>2021-10-01T23:00:21Z</time></trkpt><trkpt lat="36.40111294061617" lon="138.48556091704938"><ele>2220.4347231881693</ele><time>2021-10-01T23:00:45Z</time></trkpt><trkpt lat="36.40107352836215" lon="138.48578010082298"><ele>2227.874445389025</ele><time>2021-10-01T23:01:23Z</time></trkpt><trkpt lat="36.40110693778418" lon="138.48600156572826"><ele>2234.403138415888</ele><time>2021-10-01T23:01:57Z</time></trkpt><trkpt lat="36.40111454870136" lon="138.48622614768212"><ele>2241.4896568451077</ele><time>2021-10-01T23:02:33Z</time></trkpt><trkpt lat="36.40103044789266" lon="138.48642590206651"><ele>2250.0108099132776</ele><time>2021-10-01T23:03:09Z</time></trkpt><trkpt lat="36.400997032861234" lon="138.48664910631948"><ele>2256.497684961185</ele><time>2021-10-01T23:03:49Z</time></trkpt><trkpt lat="36.40092058229161" lon="138.48685694705497"><ele>2264.6167260734364</ele><time>2021-10-01T23:04:28Z</time></trkpt><trkpt lat="36.40088204867203" lon="138.4870768143372"><ele>2270.8899060739204</ele><time>2021-10-01T23:04:59Z</time></trkpt><trkpt lat="36.40076215303156" lon="138.4872440515737"><ele>2276.9102428080514</ele><time>2021-10-01T23:05:33Z</time></trkpt><trkpt lat="36.40059453015682" lon="138.48732948872802"><ele>2282.9325134875253</ele><time>2021-10-01T23:06:12Z</time></trkpt><trkpt lat="36.40041270446961" lon="138.487280140808"><ele>2290.760945705697</ele><time>2021-10-01T23:07:07Z</time></trkpt><trkpt lat="36.40029359407208" lon="138.48745212261358"><ele>2292.551354754716</ele><time>2021-10-01T23:09:59Z</time></trkpt><trkpt lat="36.40039251943613" lon="138.4876516053908"><ele>2293.5356762055308</ele><time>2021-10-01T23:10:39Z</time></trkpt><trkpt lat="36.40038342852716" lon="138.48788483491685"><ele>2291.38408673089</ele><time>2021-10-01T23:11:04Z</time></trkpt><trkpt lat="36.400428157372886" lon="138.48810173794175"><ele>2289.053744019009</ele><time>2021-10-01T23:11:29Z</time></trkpt><trkpt lat="36.40054900880456" lon="138.48827039009612"><ele>2282.3238716144115</ele><time>2021-10-01T23:12:27Z</time></trkpt><trkpt lat="36.40069181910652" lon="138.48840747289705"><ele>2272.7278386494145</ele><time>2021-10-01T23:13:46Z</time></trkpt><trkpt lat="36.40083466259775" lon="138.48855457294403"><ele>2272.9140933472663</ele><time>2021-10-01T23:14:12Z</time></trkpt><trkpt lat="36.400995871473285" lon="138.48865540989175"><ele>2272.4204799374565</ele><time>2021-10-01T23:14:34Z</time></trkpt><trkpt lat="36.401125483510924" lon="138.48881536778495"><ele>2276.235046884045</ele><time>2021-10-01T23:15:40Z</time></trkpt><trkpt lat="36.40126599931526" lon="138.48896433756397"><ele>2282.888501610607</ele><time>2021-10-01T23:16:14Z</time></trkpt><trkpt lat="36.401313305941166" lon="138.4891829414288"><ele>2290.0850431825966</ele><time>2021-10-01T23:16:47Z</time></trkpt><trkpt lat="36.40137745881946" lon="138.4893950072928"><ele>2297.57959398441</ele><time>2021-10-01T23:17:23Z</time></trkpt><trkpt lat="36.40150490938747" lon="138.48955432084216"><ele>2303.287199209444</ele><time>2021-10-01T23:18:03Z</time></trkpt><trkpt lat="36.40163909470345" lon="138.48971269643653"><ele>2307.479820393026</ele><time>2021-10-01T23:18:45Z</time></trkpt><trkpt lat="36.401682203096364" lon="138.4899315329403"><ele>2319.603335472755</ele><time>2021-10-01T23:19:34Z</time></trkpt><trkpt lat="36.401800248626905" lon="138.48983935000552"><ele>2324.001637636684</ele><time>2021-10-01T23:22:06Z</time></trkpt><trkpt lat="36.401897477098615" lon="138.48964784075898"><ele>2317.969349440187</ele><time>2021-10-01T23:22:47Z</time></trkpt><trkpt lat="36.40201068868018" lon="138.48945746130693"><ele>2319.1518614906818</ele><time>2021-10-01T23:23:14Z</time></trkpt><trkpt lat="36.40219443417734" lon="138.48942307158316"><ele>2324.6721736164764</ele><time>2021-10-01T23:24:53Z</time></trkpt><trkpt lat="36.40232379874123" lon="138.4895815190458"><ele>2318.7569026183337</ele><time>2021-10-01T23:25:33Z</time></trkpt><trkpt lat="36.40247154577086" lon="138.48971023939598"><ele>2314.3315459610894</ele><time>2021-10-01T23:26:19Z</time></trkpt><trkpt lat="36.40240862973326" lon="138.4899247787295"><ele>2297.3950614258647</ele><time>2021-10-01T23:29:46Z</time></trkpt><trkpt lat="36.40222568543168" lon="138.48994895736234"><ele>2282.3875787369907</ele><time>2021-10-01T23:32:16Z</time></trkpt><trkpt lat="36.40222055638663" lon="138.4901739098941"><ele>2273.181169117801</ele><time>2021-10-01T23:33:35Z</time></trkpt><trkpt lat="36.40212337049854" lon="138.4903627920097"><ele>2250.1162809319794</ele><time>2021-10-01T23:38:12Z</time></trkpt><trkpt lat="36.40197923871313" lon="138.49050029780523"><ele>2231.088817161508</ele><time>2021-10-01T23:40:29Z</time></trkpt><trkpt lat="36.40192528837477" lon="138.49071611890565"><ele>2225.0746126081795</ele><time>2021-10-01T23:41:23Z</time></trkpt><trkpt lat="36.401996396168805" lon="138.49092476402404"><ele>2208.765879739076</ele><time>2021-10-01T23:43:43Z</time></trkpt><trkpt lat="36.4019365130144" lon="138.49113500419384"><ele>2188.983748161234</ele><time>2021-10-01T23:49:48Z</time></trkpt><trkpt lat="36.401842858386765" lon="138.49133793389055"><ele>2176.045609898865</ele><time>2021-10-01T23:53:16Z</time></trkpt><trkpt lat="36.40177975306119" lon="138.49154868726723"><ele>2162.397266469896</ele><time>2021-10-01T23:53:45Z</time></trkpt><trkpt lat="36.40160625204681" lon="138.4916387854896"><ele>2154.6623167954385</ele><time>2021-10-01T23:53:59Z</time></trkpt><trkpt lat="36.401773786269615" lon="138.49174896344232"><ele>2150.413124951534</ele><time>2021-10-01T23:54:16Z</time></trkpt><trkpt lat="36.401626578568525" lon="138.49189142945588"><ele>2140.2567239543423</ele><time>2021-10-01T23:54:39Z</time></trkpt><trkpt lat="36.40146785806757" lon="138.49201825471434"><ele>2134.080802915618</ele><time>2021-10-01T23:55:02Z</time></trkpt><trkpt lat="36.40137364514665" lon="138.4922092834177"><ele>2122.0060999747366</ele><time>2021-10-01T23:55:45Z</time></trkpt><trkpt lat="36.40152688465657" lon="138.49232795845865"><ele>2115.1840707147494</ele><time>2021-10-01T23:56:09Z</time></trkpt><trkpt lat="36.401676238609475" lon="138.49247946915654"><ele>2104.7859178390354</ele><time>2021-10-01T23:56:44Z</time></trkpt><trkpt lat="36.401834694998186" lon="138.49260832592284"><ele>2097.02827315405</ele><time>2021-10-01T23:57:08Z</time></trkpt><trkpt lat="36.401857229356104" lon="138.4928367672809"><ele>2087.7270132442936</ele><time>2021-10-01T23:57:29Z</time></trkpt><trkpt lat="36.40192188819532" lon="138.49305928450133"><ele>2077.7478321446106</ele><time>2021-10-01T23:58:08Z</time></trkpt><trkpt lat="36.40194265648599" lon="138.4932839181383"><ele>2066.339749206789</ele><time>2021-10-01T23:58:29Z</time></trkpt><trkpt lat="36.401893982796565" lon="138.49350055624487"><ele>2059.32719968725</ele><time>2021-10-01T23:59:07Z</time></trkpt><trkpt lat="36.40192415469622" lon="138.49373395652555"><ele>2050.2973284227774</ele><time>2021-10-01T23:59:39Z</time></trkpt><trkpt lat="36.4019922211937" lon="138.49394719332008"><ele>2046.7339233262464</ele><time>2021-10-02T00:00:01Z</time></trkpt><trkpt lat="36.40203655223028" lon="138.4941693523321"><ele>2042.3095105439425</ele><time>2021-10-02T00:00:21Z</time></trkpt><trkpt lat="36.40202870558183" lon="138.4943956473838"><ele>2033.693673771806</ele><time>2021-10-02T00:01:00Z</time></trkpt><trkpt lat="36.40196632132392" lon="138.4946147113097"><ele>2030.259377325885</ele><time>2021-10-02T00:01:52Z</time></trkpt><trkpt lat="36.40190882651246" lon="138.4948399946726"><ele>2028.3065061969683</ele><time>2021-10-02T00:02:19Z</time></trkpt><trkpt lat="36.401947442983705" lon="138.49506220153992"><ele>2020.3620663341135</ele><time>2021-10-02T00:02:48Z</time></trkpt><trkpt lat="36.401965974380744" lon="138.49530047458373"><ele>2018.4023833256215</ele><time>2021-10-02T00:03:06Z</time></trkpt><trkpt lat="36.402035428868686" lon="138.49551504409027"><ele>2017.2034648228437</ele><time>2021-10-02T00:03:19Z</time></trkpt><trkpt lat="36.40211610867387" lon="138.49572565927633"><ele>2016.9975177543238</ele><time>2021-10-02T00:03:33Z</time></trkpt><trkpt lat="36.40227352589939" lon="138.4958425554782"><ele>2014.9183173542842</ele><time>2021-10-02T00:03:48Z</time></trkpt><trkpt lat="36.402382570099945" lon="138.49603042902348"><ele>2012.0372277274728</ele><time>2021-10-02T00:04:05Z</time></trkpt><trkpt lat="36.402445675419365" lon="138.49624325390656"><ele>2008.6937290681526</ele><time>2021-10-02T00:04:30Z</time></trkpt><trkpt lat="36.40232594911419" lon="138.4964250259812"><ele>2009.9213879043236</ele><time>2021-10-02T00:05:06Z</time></trkpt><trkpt lat="36.40224130978967" lon="138.49663115560875"><ele>2012.3912016814575</ele><time>2021-10-02T00:05:23Z</time></trkpt><trkpt lat="36.40210479597004" lon="138.4967838948383"><ele>2015.373869852163</ele><time>2021-10-02T00:05:38Z</time></trkpt><trkpt lat="36.40203081539509" lon="138.49699989095544"><ele>2016.0930563649163</ele><time>2021-10-02T00:05:56Z</time></trkpt><trkpt lat="36.401970184559104" lon="138.49722008244808"><ele>2014.0631049387157</ele><time>2021-10-02T00:06:14Z</time></trkpt><trkpt lat="36.4020330616621" lon="138.49743265886286"><ele>2014.2190941683948</ele><time>2021-10-02T00:07:27Z</time></trkpt><trkpt lat="36.402221402553266" lon="138.4974210542318"><ele>2015.6409510830417</ele><time>2021-10-02T00:07:41Z</time></trkpt><trkpt lat="36.40241710126012" lon="138.4974539545566"><ele>2018.708594294265</ele><time>2021-10-02T00:07:57Z</time></trkpt><trkpt lat="36.40259674500068" lon="138.4974176630197"><ele>2018.1480899779126</ele><time>2021-10-02T00:08:16Z</time></trkpt><trkpt lat="36.4027923485727" lon="138.4974624256671"><ele>2019.185978608206</ele><time>2021-10-02T00:08:36Z</time></trkpt><trkpt lat="36.40297006440793" lon="138.49742002321887"><ele>2023.471816512756</ele><time>2021-10-02T00:08:54Z</time></trkpt><trkpt lat="36.403151121183626" lon="138.49739163117985"><ele>2023.5740072177723</ele><time>2021-10-02T00:09:12Z</time></trkpt><trkpt lat="36.40332840664649" lon="138.4974887445498"><ele>2027.5997539488599</ele><time>2021-10-02T00:09:27Z</time></trkpt><trkpt lat="36.40349188608871" lon="138.49760020225366"><ele>2027.346329455264</ele><time>2021-10-02T00:09:46Z</time></trkpt><trkpt lat="36.403671961123294" lon="138.49758251323965"><ele>2029.2081497544423</ele><time>2021-10-02T00:09:59Z</time></trkpt><trkpt lat="36.403837044709405" lon="138.49769597036573"><ele>2030.7354822689667</ele><time>2021-10-02T00:10:16Z</time></trkpt><trkpt lat="36.40398663921817" lon="138.49782942670458"><ele>2032.0835531549528</ele><time>2021-10-02T00:10:34Z</time></trkpt><trkpt lat="36.40404150515688" lon="138.49806192536371"><ele>2037.5493094781414</ele><time>2021-10-02T00:10:51Z</time></trkpt><trkpt lat="36.404185750128555" lon="138.4982104933332"><ele>2040.0879629720002</ele><time>2021-10-02T00:11:06Z</time></trkpt><trkpt lat="36.40432788704498" lon="138.49835180162225"><ele>2038.82305064518</ele><time>2021-10-02T00:11:24Z</time></trkpt><trkpt lat="36.40443560584772" lon="138.49853213193842"><ele>2036.6032322989777</ele><time>2021-10-02T00:19:10Z</time></trkpt><trkpt lat="36.4045284504527" lon="138.49873451657538"><ele>2037.469312417321</ele><time>2021-10-02T00:19:28Z</time></trkpt><trkpt lat="36.404653627099506" lon="138.49890057193488"><ele>2041.7201856989413</ele><time>2021-10-02T00:19:48Z</time></trkpt><trkpt lat="36.404728622160995" lon="138.49911676272237"><ele>2045.0101881967857</ele><time>2021-10-02T00:20:08Z</time></trkpt><trkpt lat="36.404850944623234" lon="138.49928382519653"><ele>2047.961100245826</ele><time>2021-10-02T00:20:32Z</time></trkpt><trkpt lat="36.40490119590465" lon="138.49950031628737"><ele>2049.9539909716696</ele><time>2021-10-02T00:20:52Z</time></trkpt><trkpt lat="36.40506129337548" lon="138.4996248896436"><ele>2050.4530799239874</ele><time>2021-10-02T00:21:16Z</time></trkpt><trkpt lat="36.405196365002574" lon="138.49978706082385"><ele>2051.3409838397056</ele><time>2021-10-02T00:21:38Z</time></trkpt><trkpt lat="36.40526091852645" lon="138.50000571523458"><ele>2052.1672971295193</ele><time>2021-10-02T00:22:00Z</time></trkpt><trkpt lat="36.40538158398404" lon="138.50018303016034"><ele>2055.948011665605</ele><time>2021-10-02T00:22:27Z</time></trkpt><trkpt lat="36.40539896884569" lon="138.50041039024936"><ele>2061.3731183335185</ele><time>2021-10-02T00:22:51Z</time></trkpt><trkpt lat="36.40548286641582" lon="138.50061985123187"><ele>2064.12866273243</ele><time>2021-10-02T00:23:21Z</time></trkpt><trkpt lat="36.40555347897865" lon="138.50083586365153"><ele>2065.5649527972564</ele><time>2021-10-02T00:23:42Z</time></trkpt><trkpt lat="36.40566501863915" lon="138.50101858399407"><ele>2068.8378460453823</ele><time>2021-10-02T00:24:03Z</time></trkpt><trkpt lat="36.40580328869092" lon="138.5011777638033"><ele>2071.3379080593586</ele><time>2021-10-02T00:24:27Z</time></trkpt><trkpt lat="36.40592385595791" lon="138.50136147021433"><ele>2074.2213998688385</ele><time>2021-10-02T00:24:46Z</time></trkpt><trkpt lat="36.40605118035888" lon="138.50152258296117"><ele>2077.7120218267664</ele><time>2021-10-02T00:25:11Z</time></trkpt><trkpt lat="36.406172461990685" lon="138.50169296761848"><ele>2083.7582256104797</ele><time>2021-10-02T00:25:38Z</time></trkpt><trkpt lat="36.40622028697179" lon="138.5019079160269"><ele>2086.145287202671</ele><time>2021-10-02T00:25:59Z</time></trkpt><trkpt lat="36.40639212649511" lon="138.50197830070232"><ele>2088.0529316645116</ele><time>2021-10-02T00:26:21Z</time></trkpt><trkpt lat="36.40649713524677" lon="138.50217142822476"><ele>2090.8680091137066</ele><time>2021-10-02T00:26:47Z</time></trkpt><trkpt lat="36.40657369331217" lon="138.50238951042232"><ele>2091.858114734292</ele><time>2021-10-02T00:27:10Z</time></trkpt><trkpt lat="36.40667608212184" lon="138.50257826840362"><ele>2097.96471754089</ele><time>2021-10-02T00:27:40Z</time></trkpt><trkpt lat="36.40678506430586" lon="138.50276855717024"><ele>2099.5136071434245</ele><time>2021-10-02T00:28:06Z</time></trkpt><trkpt lat="36.40679816427027" lon="138.50299358451161"><ele>2104.216369567439</ele><time>2021-10-02T00:28:33Z</time></trkpt><trkpt lat="36.40687772575983" lon="138.50319362690865"><ele>2108.944064597599</ele><time>2021-10-02T00:29:00Z</time></trkpt><trkpt lat="36.40695494079611" lon="138.50339737839738"><ele>2113.7654750104994</ele><time>2021-10-02T00:29:28Z</time></trkpt><trkpt lat="36.40700105857092" lon="138.50361655635507"><ele>2118.6893318230286</ele><time>2021-10-02T00:30:01Z</time></trkpt><trkpt lat="36.40698001632886" lon="138.50383918033413"><ele>2125.88847243879</ele><time>2021-10-02T00:30:34Z</time></trkpt><trkpt lat="36.40702751825785" lon="138.5040552116186"><ele>2129.972500848584</ele><time>2021-10-02T00:31:00Z</time></trkpt><trkpt lat="36.40718327464338" lon="138.50417234913516"><ele>2133.0754413055256</ele><time>2021-10-02T00:31:28Z</time></trkpt><trkpt lat="36.4072167913788" lon="138.5043959533939"><ele>2139.1266554435715</ele><time>2021-10-02T00:31:57Z</time></trkpt><trkpt lat="36.407264350987155" lon="138.5046124083364"><ele>2143.1978791467845</ele><time>2021-10-02T00:32:24Z</time></trkpt><trkpt lat="36.40728185563106" lon="138.50483515969273"><ele>2147.703136430122</ele><time>2021-10-02T00:32:56Z</time></trkpt><trkpt lat="36.40736833792648" lon="138.505031281417"><ele>2153.541755221784</ele><time>2021-10-02T00:33:20Z</time></trkpt><trkpt lat="36.407462897602414" lon="138.50522731091274"><ele>2157.4216265212744</ele><time>2021-10-02T00:33:46Z</time></trkpt><trkpt lat="36.40756746003987" lon="138.50542197254072"><ele>2160.772576109506</ele><time>2021-10-02T00:34:09Z</time></trkpt><trkpt lat="36.40767656434116" lon="138.50561030568434"><ele>2163.9427236793563</ele><time>2021-10-02T00:34:32Z</time></trkpt><trkpt lat="36.40777598040555" lon="138.50579737224035"><ele>2168.129658283666</ele><time>2021-10-02T00:34:59Z</time></trkpt><trkpt lat="36.40788441992545" lon="138.50598298367888"><ele>2175.978796912357</ele><time>2021-10-02T00:35:27Z</time></trkpt><trkpt lat="36.408014754885706" lon="138.50613927447122"><ele>2179.1950012780726</ele><time>2021-10-02T00:35:52Z</time></trkpt><trkpt lat="36.40807559134474" lon="138.50636346000138"><ele>2183.905064560473</ele><time>2021-10-02T00:36:19Z</time></trkpt><trkpt lat="36.40816048740555" lon="138.50656528236377"><ele>2187.2826436022297</ele><time>2021-10-02T00:36:46Z</time></trkpt><trkpt lat="36.40814611287046" lon="138.5067882816994"><ele>2193.7240018295124</ele><time>2021-10-02T00:37:17Z</time></trkpt><trkpt lat="36.40826268540858" lon="138.5069687324001"><ele>2198.5869490336627</ele><time>2021-10-02T00:37:47Z</time></trkpt><trkpt lat="36.40832298469818" lon="138.50718120794406"><ele>2205.399020574987</ele><time>2021-10-02T00:38:20Z</time></trkpt><trkpt lat="36.40840913147137" lon="138.50738108407418"><ele>2208.2067840881646</ele><time>2021-10-02T00:38:48Z</time></trkpt><trkpt lat="36.40848770981387" lon="138.50758372216737"><ele>2211.6125455638394</ele><time>2021-10-02T00:39:11Z</time></trkpt><trkpt lat="36.40858590645361" lon="138.5077813565795"><ele>2215.8360981112346</ele><time>2021-10-02T00:39:35Z</time></trkpt><trkpt lat="36.40867412911819" lon="138.5079820255515"><ele>2219.98299903702</ele><time>2021-10-02T00:40:01Z</time></trkpt><trkpt lat="36.408756652808705" lon="138.5081932283197"><ele>2225.461118957959</ele><time>2021-10-02T00:40:27Z</time></trkpt><trkpt lat="36.40884060683738" lon="138.50839151497084"><ele>2231.5227487599477</ele><time>2021-10-02T00:40:55Z</time></trkpt><trkpt lat="36.4089032342541" lon="138.5086045367218"><ele>2235.930931302719</ele><time>2021-10-02T00:41:25Z</time></trkpt><trkpt lat="36.40900542413154" lon="138.50879861048776"><ele>2240.508019082248</ele><time>2021-10-02T00:41:51Z</time></trkpt><trkpt lat="36.40911117389282" lon="138.50899247564845"><ele>2244.2741600759327</ele><time>2021-10-02T00:42:14Z</time></trkpt><trkpt lat="36.409222011861026" lon="138.5091723051471"><ele>2251.371634314768</ele><time>2021-10-02T00:42:50Z</time></trkpt><trkpt lat="36.40932540036979" lon="138.509370326291"><ele>2253.3334257984534</ele><time>2021-10-02T00:43:14Z</time></trkpt><trkpt lat="36.40943064877954" lon="138.50955224649155"><ele>2259.7983057424426</ele><time>2021-10-02T00:43:44Z</time></trkpt><trkpt lat="36.40954207910912" lon="138.50972950301016"><ele>2263.047201774083</ele><time>2021-10-02T00:44:06Z</time></trkpt><trkpt lat="36.409625658539184" lon="138.5099336407657"><ele>2268.207213861868</ele><time>2021-10-02T00:44:40Z</time></trkpt><trkpt lat="36.40966139541585" lon="138.51015520349895"><ele>2274.237995032221</ele><time>2021-10-02T00:45:15Z</time></trkpt><trkpt lat="36.40970065081538" lon="138.510374513412"><ele>2282.0499712293968</ele><time>2021-10-02T00:45:54Z</time></trkpt><trkpt lat="36.40968704461175" lon="138.51059745308527"><ele>2290.976261332631</ele><time>2021-10-02T00:47:05Z</time></trkpt><trkpt lat="36.40970124638765" lon="138.51082017099785"><ele>2296.5923812389374</ele><time>2021-10-02T00:47:42Z</time></trkpt><trkpt lat="36.40968363591778" lon="138.51105315453447"><ele>2305.572368396446</ele><time>2021-10-02T00:48:30Z</time></trkpt><trkpt lat="36.40969600275244" lon="138.51127925117126"><ele>2313.847898528911</ele><time>2021-10-02T00:49:12Z</time></trkpt><trkpt lat="36.409690963595374" lon="138.5115025437596"><ele>2322.3474897406995</ele><time>2021-10-02T00:49:55Z</time></trkpt><trkpt lat="36.40967484415093" lon="138.51172960451166"><ele>2329.2041255049407</ele><time>2021-10-02T00:50:37Z</time></trkpt><trkpt lat="36.40967418224481" lon="138.51195373152154"><ele>2336.2141938190907</ele><time>2021-10-02T00:51:16Z</time></trkpt><trkpt lat="36.409646851987944" lon="138.51217927922602"><ele>2345.984362258576</ele><time>2021-10-02T00:52:06Z</time></trkpt><trkpt lat="36.409621375744806" lon="138.51240481080558"><ele>2353.0876705329865</ele><time>2021-10-02T00:52:54Z</time></trkpt><trkpt lat="36.40959139693343" lon="138.51262534551202"><ele>2361.2795462450013</ele><time>2021-10-02T00:53:33Z</time></trkpt><trkpt lat="36.40958467797247" lon="138.5128494019887"><ele>2367.534885671921</ele><time>2021-10-02T00:54:12Z</time></trkpt><trkpt lat="36.40960467080449" lon="138.51307704899375"><ele>2373.2458668276668</ele><time>2021-10-02T00:54:49Z</time></trkpt><trkpt lat="36.4096529354717" lon="138.513299366884"><ele>2377.4690661253408</ele><time>2021-10-02T00:55:16Z</time></trkpt><trkpt lat="36.40967481626182" lon="138.5135218186141"><ele>2382.530121246353</ele><time>2021-10-02T00:55:47Z</time></trkpt><trkpt lat="36.409666455643546" lon="138.5137459710318"><ele>2388.7815058380365</ele><time>2021-10-02T00:56:23Z</time></trkpt><trkpt lat="36.40965349586734" lon="138.51397197810823"><ele>2395.443975927308</ele><time>2021-10-02T00:57:04Z</time></trkpt><trkpt lat="36.40961384446636" lon="138.51419467883773"><ele>2403.1334828753024</ele><time>2021-10-02T00:57:43Z</time></trkpt><trkpt lat="36.409551502977756" lon="138.51440785359668"><ele>2410.409945305437</ele><time>2021-10-02T00:58:22Z</time></trkpt><trkpt lat="36.40952395844317" lon="138.51463615522403"><ele>2416.923090315424</ele><time>2021-10-02T00:58:59Z</time></trkpt><trkpt lat="36.40941229022057" lon="138.51482002798122"><ele>2424.3211823254824</ele><time>2021-10-02T00:59:28Z</time></trkpt><trkpt lat="36.40931206207509" lon="138.51500716102257"><ele>2431.2835170011967</ele><time>2021-10-02T01:00:17Z</time></trkpt><trkpt lat="36.409173084625216" lon="138.51484560939107"><ele>2431.992088424042</ele><time>2021-10-02T01:00:36Z</time></trkpt><trkpt lat="36.40902422080251" lon="138.5147192045137"><ele>2432.849693061784</ele><time>2021-10-02T01:00:56Z</time></trkpt><trkpt lat="36.408863422544634" lon="138.51460827643243"><ele>2431.882969973609</ele><time>2021-10-02T01:01:17Z</time></trkpt><trkpt lat="36.40869773917838" lon="138.51451076151295"><ele>2432.7820932725444</ele><time>2021-10-02T01:01:44Z</time></trkpt><trkpt lat="36.4086382767838" lon="138.51429915130555"><ele>2430.29048632551</ele><time>2021-10-02T01:02:04Z</time></trkpt><trkpt lat="36.40861813586729" lon="138.5140724510763"><ele>2432.299884569831</ele><time>2021-10-02T01:02:36Z</time></trkpt><trkpt lat="36.408588155905576" lon="138.51384686014217"><ele>2435.579497937113</ele><time>2021-10-02T01:03:14Z</time></trkpt><trkpt lat="36.408498368583196" lon="138.513644344881"><ele>2442.054455958307</ele><time>2021-10-02T01:03:46Z</time></trkpt><trkpt lat="36.40833983676608" lon="138.5135200618279"><ele>2444.05692970939</ele><time>2021-10-02T01:03:57Z</time></trkpt><trkpt lat="36.40821043965427" lon="138.51335358396068"><ele>2446.7029985319823</ele><time>2021-10-02T01:04:06Z</time></trkpt><trkpt lat="36.408062660012206" lon="138.51321616446685"><ele>2453.3618007218465</ele><time>2021-10-02T01:04:15Z</time></trkpt><trkpt lat="36.40789429620438" lon="138.51311157718345"><ele>2458.6533727589995</ele><time>2021-10-02T01:04:27Z</time></trkpt><trkpt lat="36.40773132764837" lon="138.51301405732139"><ele>2464.49164474383</ele><time>2021-10-02T01:04:40Z</time></trkpt><trkpt lat="36.40756133263124" lon="138.51292520580947"><ele>2470.1031684577465</ele><time>2021-10-02T01:05:18Z</time></trkpt><trkpt lat="36.40736863888765" lon="138.512920931166"><ele>2474.234378681518</ele><time>2021-10-02T01:05:44Z</time></trkpt><trkpt lat="36.40720311316348" lon="138.512821523688"><ele>2477.3834889065474</ele><time>2021-10-02T01:06:07Z</time></trkpt><trkpt lat="36.40702971141737" lon="138.5127202872851"><ele>2477.845336941071</ele><time>2021-10-02T01:08:32Z</time></trkpt><trkpt lat="36.406850379385844" lon="138.51267305660238"><ele>2477.727402457036</ele><time>2021-10-02T01:08:37Z</time></trkpt><trkpt lat="36.406648096081554" lon="138.51259641016324"><ele>2481.5586657915264</ele><time>2021-10-02T01:09:02Z</time></trkpt><trkpt lat="36.40646397771971" lon="138.51255273967675"><ele>2480.1686185719445</ele><time>2021-10-02T01:10:00Z</time></trkpt><trkpt lat="36.40628864405782" lon="138.51249501181078"><ele>2481.4681960688904</ele><time>2021-10-02T01:10:17Z</time></trkpt><trkpt lat="36.40611569808779" lon="138.51243029288696"><ele>2480.213622659445</ele><time>2021-10-02T01:10:41Z</time></trkpt><trkpt lat="36.40593513288803" lon="138.5124088543568"><ele>2482.428139534779</ele><time>2021-10-02T01:11:04Z</time></trkpt><trkpt lat="36.40574570000994" lon="138.51237810348294"><ele>2484.809600564651</ele><time>2021-10-02T01:11:23Z</time></trkpt><trkpt lat="36.405558955324985" lon="138.512373716134"><ele>2488.2760676983744</ele><time>2021-10-02T01:11:42Z</time></trkpt><trkpt lat="36.405374327596284" lon="138.51235079528738"><ele>2490.588306438178</ele><time>2021-10-02T01:12:01Z</time></trkpt><trkpt lat="36.40519601114833" lon="138.512384209584"><ele>2493.242909084074</ele><time>2021-10-02T01:12:14Z</time></trkpt><trkpt lat="36.40501459634199" lon="138.5123863929713"><ele>2496.437110932544</ele><time>2021-10-02T01:12:23Z</time></trkpt><trkpt lat="36.40483363991641" lon="138.51242606326016"><ele>2499.17706776876</ele><time>2021-10-02T01:12:44Z</time></trkpt><trkpt lat="36.40465657460188" lon="138.51249467819278"><ele>2503.8103039246053</ele><time>2021-10-02T01:13:12Z</time></trkpt><trkpt lat="36.40448941997306" lon="138.51258194899717"><ele>2507.328460854478</ele><time>2021-10-02T01:13:34Z</time></trkpt><trkpt lat="36.40432056210013" lon="138.51268063602274"><ele>2509.1840407485142</ele><time>2021-10-02T01:13:54Z</time></trkpt><trkpt lat="36.40418009651426" lon="138.5128285839291"><ele>2514.387894243002</ele><time>2021-10-02T01:14:18Z</time></trkpt><trkpt lat="36.40402461880514" lon="138.51296916569575"><ele>2516.9614231009036</ele><time>2021-10-02T01:14:38Z</time></trkpt><trkpt lat="36.40390653683829" lon="138.5131530487272"><ele>2517.1586974700913</ele><time>2021-10-02T01:14:55Z</time></trkpt><trkpt lat="36.403783906991904" lon="138.5133221900754"><ele>2516.5749500384554</ele><time>2021-10-02T01:15:14Z</time></trkpt><trkpt lat="36.40368092389048" lon="138.51337010203645"><ele>2519.232726036571</ele><time>2021-10-02T01:16:15Z</time></trkpt><trkpt lat="36.40383467858217" lon="138.51325068282995"><ele>2520.8203260023147</ele><time>2021-10-02T01:33:59Z</time></trkpt><trkpt lat="36.403959124109505" lon="138.51308895511903"><ele>2515.1910620043054</ele><time>2021-10-02T01:36:56Z</time></trkpt><trkpt lat="36.40410455483615" lon="138.5129019551393"><ele>2514.342872163281</ele><time>2021-10-02T01:37:16Z</time></trkpt><trkpt lat="36.40425614061532" lon="138.51277261472094"><ele>2510.493067184463</ele><time>2021-10-02T01:37:57Z</time></trkpt><trkpt lat="36.404402678275574" lon="138.5126341220405"><ele>2507.566284897737</ele><time>2021-10-02T01:39:27Z</time></trkpt><trkpt lat="36.40457624829092" lon="138.51253294970138"><ele>2503.2731041423976</ele><time>2021-10-02T01:39:43Z</time></trkpt><trkpt lat="36.40474813483317" lon="138.5124442935538"><ele>2496.7135828994215</ele><time>2021-10-02T01:39:58Z</time></trkpt><trkpt lat="36.40492838014279" lon="138.51237364039247"><ele>2494.050746344961</ele><time>2021-10-02T01:40:13Z</time></trkpt><trkpt lat="36.40511577337542" lon="138.51236190944044"><ele>2492.285219986923</ele><time>2021-10-02T01:40:24Z</time></trkpt><trkpt lat="36.40530320449575" lon="138.51235468259873"><ele>2486.9228134220466</ele><time>2021-10-02T01:40:47Z</time></trkpt><trkpt lat="36.40549308584953" lon="138.51234523032522"><ele>2484.638846524991</ele><time>2021-10-02T01:41:04Z</time></trkpt><trkpt lat="36.405688385638264" lon="138.51237623863636"><ele>2483.6845364384353</ele><time>2021-10-02T01:41:51Z</time></trkpt><trkpt lat="36.405879154673485" lon="138.5123805193937"><ele>2481.2895072968677</ele><time>2021-10-02T01:42:08Z</time></trkpt><trkpt lat="36.406062399511676" lon="138.5123975268222"><ele>2476.4179169880226</ele><time>2021-10-02T01:42:25Z</time></trkpt><trkpt lat="36.40623929305506" lon="138.51246161737186"><ele>2476.601098554209</ele><time>2021-10-02T01:42:59Z</time></trkpt><trkpt lat="36.40642110735432" lon="138.5124908425309"><ele>2474.2066725511104</ele><time>2021-10-02T01:43:15Z</time></trkpt><trkpt lat="36.40658474915505" lon="138.51259566146118"><ele>2475.0619303938</ele><time>2021-10-02T01:43:30Z</time></trkpt><trkpt lat="36.4067663333571" lon="138.51265843933922"><ele>2475.0213477760553</ele><time>2021-10-02T01:43:45Z</time></trkpt><trkpt lat="36.40695255185528" lon="138.51269815205868"><ele>2473.428057880141</ele><time>2021-10-02T01:44:00Z</time></trkpt><trkpt lat="36.40712969920206" lon="138.51275406269502"><ele>2473.0820129001513</ele><time>2021-10-02T01:44:47Z</time></trkpt><trkpt lat="36.407294833640684" lon="138.5128604228633"><ele>2470.984816861339</ele><time>2021-10-02T01:44:54Z</time></trkpt><trkpt lat="36.40749456234666" lon="138.5129157911141"><ele>2467.219089427963</ele><time>2021-10-02T01:45:01Z</time></trkpt><trkpt lat="36.40767494607637" lon="138.51295295622216"><ele>2462.181151792407</ele><time>2021-10-02T01:45:09Z</time></trkpt><trkpt lat="36.40784121469299" lon="138.5130509619545"><ele>2458.3389654047787</ele><time>2021-10-02T01:45:17Z</time></trkpt><trkpt lat="36.40800293183493" lon="138.51315577373862"><ele>2453.7666131677106</ele><time>2021-10-02T01:45:26Z</time></trkpt><trkpt lat="36.4081851521242" lon="138.51326855907942"><ele>2447.268019622192</ele><time>2021-10-02T01:45:39Z</time></trkpt><trkpt lat="36.40832854891698" lon="138.5134488499541"><ele>2442.5705601004884</ele><time>2021-10-02T01:45:46Z</time></trkpt><trkpt lat="36.408459564210034" lon="138.51361218092353"><ele>2437.850431458093</ele><time>2021-10-02T01:45:56Z</time></trkpt><trkpt lat="36.40855837369336" lon="138.51380319305514"><ele>2434.608634817414</ele><time>2021-10-02T01:46:09Z</time></trkpt><trkpt lat="36.40860230653041" lon="138.5140293699539"><ele>2429.037425062619</ele><time>2021-10-02T01:46:41Z</time></trkpt><trkpt lat="36.40865497892335" lon="138.51424491771283"><ele>2429.0163800930604</ele><time>2021-10-02T01:46:54Z</time></trkpt><trkpt lat="36.40874556380001" lon="138.51443903603254"><ele>2428.076133036986</ele><time>2021-10-02T01:51:50Z</time></trkpt><trkpt lat="36.40886076122504" lon="138.51461288007536"><ele>2429.7696802346036</ele><time>2021-10-02T01:52:31Z</time></trkpt><trkpt lat="36.409033876121974" lon="138.51469448551072"><ele>2429.2785484278575</ele><time>2021-10-02T01:52:53Z</time></trkpt><trkpt lat="36.40916377644895" lon="138.51485454485203"><ele>2430.2227566549554</ele><time>2021-10-02T01:53:17Z</time></trkpt><trkpt lat="36.40930124527783" lon="138.51500023733882"><ele>2429.3482815101743</ele><time>2021-10-02T01:53:37Z</time></trkpt><trkpt lat="36.40943101262553" lon="138.51484130539436"><ele>2423.029904656112</ele><time>2021-10-02T01:54:43Z</time></trkpt><trkpt lat="36.40953460147197" lon="138.51465634435291"><ele>2417.5724525609985</ele><time>2021-10-02T01:55:04Z</time></trkpt><trkpt lat="36.40955699865093" lon="138.51442144846354"><ele>2409.737366509624</ele><time>2021-10-02T01:55:33Z</time></trkpt><trkpt lat="36.409610135080676" lon="138.51420312396053"><ele>2403.209425196983</ele><time>2021-10-02T01:56:20Z</time></trkpt><trkpt lat="36.40967543652816" lon="138.51399139002518"><ele>2397.781919138506</ele><time>2021-10-02T01:58:00Z</time></trkpt><trkpt lat="36.40968746487917" lon="138.51374406599277"><ele>2390.4634790401906</ele><time>2021-10-02T01:58:56Z</time></trkpt><trkpt lat="36.40968352780425" lon="138.5135198348756"><ele>2384.6901936065406</ele><time>2021-10-02T01:59:12Z</time></trkpt><trkpt lat="36.40967915195601" lon="138.51328955707973"><ele>2378.3062750874087</ele><time>2021-10-02T01:59:30Z</time></trkpt><trkpt lat="36.40963538756251" lon="138.51307249424167"><ele>2375.650846195407</ele><time>2021-10-02T01:59:37Z</time></trkpt><trkpt lat="36.4095976444942" lon="138.51284476348528"><ele>2369.9799668192863</ele><time>2021-10-02T01:59:51Z</time></trkpt><trkpt lat="36.409617729534425" lon="138.51261176345835"><ele>2361.7133785756305</ele><time>2021-10-02T02:00:04Z</time></trkpt><trkpt lat="36.40963243270537" lon="138.51238729186255"><ele>2355.210939639248</ele><time>2021-10-02T02:00:29Z</time></trkpt><trkpt lat="36.40967108968043" lon="138.51216957291123"><ele>2346.2140241321176</ele><time>2021-10-02T02:01:33Z</time></trkpt><trkpt lat="36.40968350128092" lon="138.5119398301137"><ele>2337.7693260014057</ele><time>2021-10-02T02:02:30Z</time></trkpt><trkpt lat="36.40969268295936" lon="138.5117108811235"><ele>2331.2494847606868</ele><time>2021-10-02T02:02:56Z</time></trkpt><trkpt lat="36.40970989618894" lon="138.51148846430237"><ele>2324.016357771121</ele><time>2021-10-02T02:03:31Z</time></trkpt><trkpt lat="36.40970658767866" lon="138.51126183378108"><ele>2315.3811285430565</ele><time>2021-10-02T02:04:05Z</time></trkpt><trkpt lat="36.40969298840792" lon="138.5110344872241"><ele>2306.938282046467</ele><time>2021-10-02T02:04:40Z</time></trkpt><trkpt lat="36.40969734023846" lon="138.51080658744038"><ele>2300.3778425436467</ele><time>2021-10-02T02:06:12Z</time></trkpt><trkpt lat="36.40970360921437" lon="138.51057875389543"><ele>2291.807893930003</ele><time>2021-10-02T02:06:59Z</time></trkpt><trkpt lat="36.40972194764701" lon="138.51035486447154"><ele>2284.192973553203</ele><time>2021-10-02T02:08:31Z</time></trkpt><trkpt lat="36.40967048709573" lon="138.51013562847257"><ele>2276.8931545671076</ele><time>2021-10-02T02:09:10Z</time></trkpt><trkpt lat="36.40962553784918" lon="138.50991742301127"><ele>2270.7314893109724</ele><time>2021-10-02T02:11:06Z</time></trkpt><trkpt lat="36.4095352999119" lon="138.50969952235815"><ele>2264.2344787539914</ele><time>2021-10-02T02:11:32Z</time></trkpt><trkpt lat="36.40942674467626" lon="138.50952150083515"><ele>2261.5886587025598</ele><time>2021-10-02T02:11:49Z</time></trkpt><trkpt lat="36.40933287681695" lon="138.50932964979276"><ele>2256.523779993877</ele><time>2021-10-02T02:12:10Z</time></trkpt><trkpt lat="36.40921964300195" lon="138.50913599002124"><ele>2251.5686291577294</ele><time>2021-10-02T02:12:39Z</time></trkpt><trkpt lat="36.40910981303384" lon="138.50894993347322"><ele>2247.897184810601</ele><time>2021-10-02T02:12:57Z</time></trkpt><trkpt lat="36.4090078422878" lon="138.50875127012975"><ele>2243.8435130240396</ele><time>2021-10-02T02:13:17Z</time></trkpt><trkpt lat="36.40891634674958" lon="138.5085527611254"><ele>2239.5731467828155</ele><time>2021-10-02T02:13:41Z</time></trkpt><trkpt lat="36.40883151919963" lon="138.50835250682636"><ele>2234.7212104517967</ele><time>2021-10-02T02:14:01Z</time></trkpt><trkpt lat="36.408751063256474" lon="138.5081410350445"><ele>2229.1379165472463</ele><time>2021-10-02T02:14:25Z</time></trkpt><trkpt lat="36.40868203869321" lon="138.50793458343676"><ele>2223.1625917125493</ele><time>2021-10-02T02:14:59Z</time></trkpt><trkpt lat="36.40858671126045" lon="138.5077235956552"><ele>2218.0621820911765</ele><time>2021-10-02T02:16:00Z</time></trkpt><trkpt lat="36.40848349394929" lon="138.50751564835912"><ele>2212.833529050462</ele><time>2021-10-02T02:16:18Z</time></trkpt><trkpt lat="36.40838648395323" lon="138.50732560509056"><ele>2208.826369584538</ele><time>2021-10-02T02:16:35Z</time></trkpt><trkpt lat="36.40828811403586" lon="138.50712354427458"><ele>2204.249247859232</ele><time>2021-10-02T02:16:55Z</time></trkpt><trkpt lat="36.40821121455138" lon="138.50691491217273"><ele>2200.268845975399</ele><time>2021-10-02T02:17:18Z</time></trkpt><trkpt lat="36.408120572639234" lon="138.50672007548067"><ele>2193.3868678417057</ele><time>2021-10-02T02:17:44Z</time></trkpt><trkpt lat="36.40816890358876" lon="138.50649740374772"><ele>2187.882750838995</ele><time>2021-10-02T02:18:08Z</time></trkpt><trkpt lat="36.40808739651124" lon="138.506281552249"><ele>2182.0324396304786</ele><time>2021-10-02T02:18:29Z</time></trkpt><trkpt lat="36.40799325034256" lon="138.5060873100368"><ele>2179.468367051333</ele><time>2021-10-02T02:18:45Z</time></trkpt><trkpt lat="36.40786820023495" lon="138.5059145417273"><ele>2174.830969262868</ele><time>2021-10-02T02:19:06Z</time></trkpt><trkpt lat="36.40775318276829" lon="138.5057381649946"><ele>2169.254279416986</ele><time>2021-10-02T02:19:28Z</time></trkpt><trkpt lat="36.40765854913516" lon="138.50554182570522"><ele>2163.759386663325</ele><time>2021-10-02T02:19:51Z</time></trkpt><trkpt lat="36.40752909293741" lon="138.50537518107114"><ele>2160.9024668531492</ele><time>2021-10-02T02:20:07Z</time></trkpt><trkpt lat="36.4075012707632" lon="138.5051345906334"><ele>2155.3426468400285</ele><time>2021-10-02T02:21:09Z</time></trkpt><trkpt lat="36.40738408291305" lon="138.50494116178848"><ele>2152.916365109384</ele><time>2021-10-02T02:21:19Z</time></trkpt><trkpt lat="36.40725587471229" lon="138.5047450325474"><ele>2147.946195478551</ele><time>2021-10-02T02:21:25Z</time></trkpt><trkpt lat="36.40724799536461" lon="138.50449158314282"><ele>2142.704552380368</ele><time>2021-10-02T02:21:32Z</time></trkpt><trkpt lat="36.4072640622772" lon="138.50426398479271"><ele>2138.973116409965</ele><time>2021-10-02T02:21:53Z</time></trkpt><trkpt lat="36.4071750713495" lon="138.50406250555946"><ele>2132.527747994289</ele><time>2021-10-02T02:22:16Z</time></trkpt><trkpt lat="36.40704455881302" lon="138.5038920956334"><ele>2129.42568724975</ele><time>2021-10-02T02:22:37Z</time></trkpt><trkpt lat="36.40701832415791" lon="138.50365796760858"><ele>2123.0052934512496</ele><time>2021-10-02T02:23:04Z</time></trkpt><trkpt lat="36.40695905768358" lon="138.5034390748981"><ele>2118.556648261845</ele><time>2021-10-02T02:23:27Z</time></trkpt><trkpt lat="36.40689503493589" lon="138.50321851301013"><ele>2112.02599846106</ele><time>2021-10-02T02:23:52Z</time></trkpt><trkpt lat="36.40682886878976" lon="138.50301001882778"><ele>2108.568099698052</ele><time>2021-10-02T02:24:11Z</time></trkpt><trkpt lat="36.406742247474064" lon="138.50280370623048"><ele>2103.585102365352</ele><time>2021-10-02T02:24:32Z</time></trkpt><trkpt lat="36.40667743195308" lon="138.50258501920675"><ele>2097.5029839649796</ele><time>2021-10-02T02:24:56Z</time></trkpt><trkpt lat="36.406578421000944" lon="138.50238231720712"><ele>2091.684654793702</ele><time>2021-10-02T02:25:15Z</time></trkpt><trkpt lat="36.406489261781616" lon="138.50218831203404"><ele>2092.888746268116</ele><time>2021-10-02T02:25:31Z</time></trkpt><trkpt lat="36.40667275531552" lon="138.50223803938124"><ele>2093.219214688055</ele><time>2021-10-02T02:26:18Z</time></trkpt><trkpt lat="36.4068476153028" lon="138.5023292981621"><ele>2095.3973464379087</ele><time>2021-10-02T02:26:36Z</time></trkpt><trkpt lat="36.407019137741784" lon="138.50240315049442"><ele>2099.36962367408</ele><time>2021-10-02T02:26:57Z</time></trkpt><trkpt lat="36.40721108038127" lon="138.50238293996006"><ele>2101.1111991312355</ele><time>2021-10-02T02:27:27Z</time></trkpt><trkpt lat="36.40737274216293" lon="138.5025049054821"><ele>2101.7934388983995</ele><time>2021-10-02T02:31:16Z</time></trkpt><trkpt lat="36.40754217738382" lon="138.5025917374668"><ele>2103.0361495213583</ele><time>2021-10-02T02:31:34Z</time></trkpt><trkpt lat="36.40772509164575" lon="138.50260310964168"><ele>2105.557081602514</ele><time>2021-10-02T02:31:49Z</time></trkpt><trkpt lat="36.40791887348398" lon="138.50262427064334"><ele>2103.0553939910606</ele><time>2021-10-02T02:32:06Z</time></trkpt><trkpt lat="36.40809646881108" lon="138.50266647499632"><ele>2104.468068137765</ele><time>2021-10-02T02:32:20Z</time></trkpt><trkpt lat="36.40827490023531" lon="138.5027375304029"><ele>2104.613639262505</ele><time>2021-10-02T02:32:35Z</time></trkpt><trkpt lat="36.408454517934125" lon="138.50278050460275"><ele>2103.200498246588</ele><time>2021-10-02T02:32:49Z</time></trkpt><trkpt lat="36.40863460700983" lon="138.50281788542665"><ele>2103.010297612287</ele><time>2021-10-02T02:33:03Z</time></trkpt><trkpt lat="36.408804599460474" lon="138.50289313148295"><ele>2104.227988604456</ele><time>2021-10-02T02:33:19Z</time></trkpt><trkpt lat="36.40895224710213" lon="138.50304863721112"><ele>2109.8576306486502</ele><time>2021-10-02T02:33:44Z</time></trkpt><trkpt lat="36.40913626358713" lon="138.50304923393492"><ele>2108.485836746171</ele><time>2021-10-02T02:33:58Z</time></trkpt><trkpt lat="36.40930241382136" lon="138.50316458753872"><ele>2109.4500867314637</ele><time>2021-10-02T02:34:14Z</time></trkpt><trkpt lat="36.4094925979452" lon="138.5032192179167"><ele>2111.7614611862227</ele><time>2021-10-02T02:34:31Z</time></trkpt><trkpt lat="36.40967921812448" lon="138.50327320461182"><ele>2111.136120693758</ele><time>2021-10-02T02:34:45Z</time></trkpt><trkpt lat="36.40984946725481" lon="138.5033566047394"><ele>2110.226122835651</ele><time>2021-10-02T02:35:00Z</time></trkpt><trkpt lat="36.41002711354442" lon="138.5034093318657"><ele>2110.6496067466214</ele><time>2021-10-02T02:35:15Z</time></trkpt><trkpt lat="36.41020423750993" lon="138.50347205977386"><ele>2113.7635059896857</ele><time>2021-10-02T02:35:31Z</time></trkpt><trkpt lat="36.41038866172045" lon="138.50354118466223"><ele>2110.012083149515</ele><time>2021-10-02T02:35:48Z</time></trkpt><trkpt lat="36.41055287120376" lon="138.5036400145659"><ele>2108.70118740201</ele><time>2021-10-02T02:36:10Z</time></trkpt><trkpt lat="36.410727236641954" lon="138.5037127819139"><ele>2106.534829580225</ele><time>2021-10-02T02:36:26Z</time></trkpt><trkpt lat="36.41090725318935" lon="138.5037933638433"><ele>2106.4575741058215</ele><time>2021-10-02T02:36:44Z</time></trkpt><trkpt lat="36.41108773235278" lon="138.50385249809747"><ele>2108.768673459068</ele><time>2021-10-02T02:37:01Z</time></trkpt><trkpt lat="36.41127120685052" lon="138.50385799815066"><ele>2109.433770507574</ele><time>2021-10-02T02:37:19Z</time></trkpt><trkpt lat="36.411453013764174" lon="138.50390775268636"><ele>2108.099840000272</ele><time>2021-10-02T02:37:36Z</time></trkpt><trkpt lat="36.411607561486974" lon="138.50403196532284"><ele>2109.0941575197503</ele><time>2021-10-02T02:37:52Z</time></trkpt><trkpt lat="36.411780555945754" lon="138.5041002528134"><ele>2110.1156128365546</ele><time>2021-10-02T02:38:10Z</time></trkpt><trkpt lat="36.41195935372097" lon="138.5041857716623"><ele>2111.030127445236</ele><time>2021-10-02T02:38:30Z</time></trkpt><trkpt lat="36.41212516865787" lon="138.50430832481578"><ele>2113.8365556150675</ele><time>2021-10-02T02:38:48Z</time></trkpt><trkpt lat="36.412307726375914" lon="138.5043188072697"><ele>2113.243979989551</ele><time>2021-10-02T02:39:34Z</time></trkpt><trkpt lat="36.412481919075226" lon="138.50437983448765"><ele>2113.174837425351</ele><time>2021-10-02T02:39:53Z</time></trkpt><trkpt lat="36.412663138931094" lon="138.50442061269703"><ele>2114.6305505950004</ele><time>2021-10-02T02:41:10Z</time></trkpt><trkpt lat="36.412841180111755" lon="138.5043832232424"><ele>2113.3075002077967</ele><time>2021-10-02T02:41:28Z</time></trkpt><trkpt lat="36.41302128507793" lon="138.50437278380795"><ele>2118.6599814342335</ele><time>2021-10-02T02:41:58Z</time></trkpt><trkpt lat="36.41320324115298" lon="138.5043948394224"><ele>2127.01422146149</ele><time>2021-10-02T02:42:40Z</time></trkpt><trkpt lat="36.41338376266993" lon="138.50438820843826"><ele>2135.965243308805</ele><time>2021-10-02T02:43:20Z</time></trkpt><trkpt lat="36.41356891817375" lon="138.50440800043395"><ele>2145.899408744648</ele><time>2021-10-02T02:44:12Z</time></trkpt><trkpt lat="36.41375117634726" lon="138.50438630256525"><ele>2156.992929197848</ele><time>2021-10-02T02:45:02Z</time></trkpt><trkpt lat="36.41391890234387" lon="138.5042911303823"><ele>2173.690232072957</ele><time>2021-10-02T02:46:05Z</time></trkpt><trkpt lat="36.414063586520854" lon="138.5041499922769"><ele>2186.819917897694</ele><time>2021-10-02T02:46:59Z</time></trkpt><trkpt lat="36.41422224748446" lon="138.50425825565944"><ele>2196.1126470938325</ele><time>2021-10-02T02:47:51Z</time></trkpt><trkpt lat="36.41440334590352" lon="138.5043129910831"><ele>2207.0738397641107</ele><time>2021-10-02T02:48:53Z</time></trkpt><trkpt lat="36.414397450150204" lon="138.50408903956105"><ele>2222.2400131830946</ele><time>2021-10-02T02:49:44Z</time></trkpt><trkpt lat="36.41435519586682" lon="138.50386770019566"><ele>2229.534757117741</ele><time>2021-10-02T02:50:29Z</time></trkpt><trkpt lat="36.41433907011162" lon="138.50364213442043"><ele>2237.483751118183</ele><time>2021-10-02T02:51:15Z</time></trkpt><trkpt lat="36.41427792013969" lon="138.5034288280543"><ele>2243.504677391611</ele><time>2021-10-02T03:05:10Z</time></trkpt><trkpt lat="36.41415631203928" lon="138.50326317853356"><ele>2249.3808711552992</ele><time>2021-10-02T03:06:18Z</time></trkpt><trkpt lat="36.414021691270804" lon="138.5031146560273"><ele>2254.8830476170406</ele><time>2021-10-02T03:06:50Z</time></trkpt><trkpt lat="36.41387106971172" lon="138.50297612385071"><ele>2267.740651658736</ele><time>2021-10-02T03:07:33Z</time></trkpt><trkpt lat="36.41379667971565" lon="138.50277103602733"><ele>2268.571442000568</ele><time>2021-10-02T03:08:19Z</time></trkpt><trkpt lat="36.413780330577445" lon="138.50254804927806"><ele>2269.2628986742347</ele><time>2021-10-02T03:08:40Z</time></trkpt><trkpt lat="36.41375251784049" lon="138.50232671224174"><ele>2267.839007410221</ele><time>2021-10-02T03:09:01Z</time></trkpt><trkpt lat="36.413734263065706" lon="138.50210093015363"><ele>2272.1266104420647</ele><time>2021-10-02T03:09:43Z</time></trkpt><trkpt lat="36.41363522127329" lon="138.50190941021071"><ele>2280.4161496069282</ele><time>2021-10-02T03:10:23Z</time></trkpt><trkpt lat="36.41362436854648" lon="138.50168520106334"><ele>2297.1444419864565</ele><time>2021-10-02T03:11:24Z</time></trkpt><trkpt lat="36.41377143840613" lon="138.50154404975655"><ele>2289.9474686682224</ele><time>2021-10-02T03:17:29Z</time></trkpt><trkpt lat="36.41382567207782" lon="138.50132583503898"><ele>2286.159989066422</ele><time>2021-10-02T03:17:54Z</time></trkpt><trkpt lat="36.413846021611036" lon="138.50109740689"><ele>2283.6982173155993</ele><time>2021-10-02T03:18:25Z</time></trkpt><trkpt lat="36.41388731477397" lon="138.5008796776258"><ele>2281.3822626927868</ele><time>2021-10-02T03:18:53Z</time></trkpt><trkpt lat="36.413906742430385" lon="138.50065357928767"><ele>2282.4088270813227</ele><time>2021-10-02T03:19:21Z</time></trkpt><trkpt lat="36.413860375280514" lon="138.5004282006137"><ele>2279.5221950784326</ele><time>2021-10-02T03:19:42Z</time></trkpt><trkpt lat="36.41383663327281" lon="138.50020641091615"><ele>2279.4207676099613</ele><time>2021-10-02T03:20:11Z</time></trkpt><trkpt lat="36.41385915216419" lon="138.49997099697134"><ele>2277.267279553227</ele><time>2021-10-02T03:20:42Z</time></trkpt><trkpt lat="36.41389655820268" lon="138.4997475944594"><ele>2274.069513962604</ele><time>2021-10-02T03:21:01Z</time></trkpt><trkpt lat="36.413884560206256" lon="138.4995169172106"><ele>2272.7937089167535</ele><time>2021-10-02T03:21:22Z</time></trkpt><trkpt lat="36.41389743404818" lon="138.49929439809668"><ele>2274.847593039274</ele><time>2021-10-02T03:21:51Z</time></trkpt><trkpt lat="36.41389672850749" lon="138.4990633120064"><ele>2274.4872919414192</ele><time>2021-10-02T03:22:14Z</time></trkpt><trkpt lat="36.4139140896126" lon="138.49883450613814"><ele>2275.10301452782</ele><time>2021-10-02T03:22:34Z</time></trkpt><trkpt lat="36.413899728504184" lon="138.49861208774155"><ele>2275.819045284763</ele><time>2021-10-02T03:22:54Z</time></trkpt><trkpt lat="36.41393954297804" lon="138.49839430825324"><ele>2273.9950054185465</ele><time>2021-10-02T03:23:09Z</time></trkpt><trkpt lat="36.4139862146637" lon="138.49817705895055"><ele>2278.702450335957</ele><time>2021-10-02T03:23:35Z</time></trkpt><trkpt lat="36.41398436066656" lon="138.4979538640738"><ele>2286.4244826594368</ele><time>2021-10-02T03:24:17Z</time></trkpt><trkpt lat="36.41404258718861" lon="138.49773724913152"><ele>2294.383408212103</ele><time>2021-10-02T03:24:52Z</time></trkpt><trkpt lat="36.41408801282666" lon="138.49752045277486"><ele>2304.5379480635747</ele><time>2021-10-02T03:25:25Z</time></trkpt><trkpt lat="36.414069052731136" lon="138.4972934793908"><ele>2306.6744968313724</ele><time>2021-10-02T03:26:02Z</time></trkpt><trkpt lat="36.41399488147055" lon="138.49708233962144"><ele>2314.5465269898996</ele><time>2021-10-02T03:47:54Z</time></trkpt><trkpt lat="36.41404111811978" lon="138.49686311034756"><ele>2309.561851833947</ele><time>2021-10-02T03:48:51Z</time></trkpt><trkpt lat="36.41409572937522" lon="138.4966402188613"><ele>2298.5966377351433</ele><time>2021-10-02T03:49:45Z</time></trkpt><trkpt lat="36.41412875609698" lon="138.49641361472192"><ele>2292.067773294635</ele><time>2021-10-02T03:50:42Z</time></trkpt><trkpt lat="36.41417491332264" lon="138.49619696136898"><ele>2296.5873562954366</ele><time>2021-10-02T03:51:04Z</time></trkpt><trkpt lat="36.41407551695799" lon="138.4960107549887"><ele>2300.32148678042</ele><time>2021-10-02T03:51:24Z</time></trkpt><trkpt lat="36.414041657853026" lon="138.4957909950203"><ele>2302.685307573527</ele><time>2021-10-02T03:51:43Z</time></trkpt><trkpt lat="36.413995447761486" lon="138.4955712702582"><ele>2305.413944224827</ele><time>2021-10-02T03:52:02Z</time></trkpt><trkpt lat="36.413953386813844" lon="138.49534303317057"><ele>2308.9127643825486</ele><time>2021-10-02T03:52:19Z</time></trkpt><trkpt lat="36.41390873791043" lon="138.49512584792933"><ele>2313.9570349352434</ele><time>2021-10-02T03:52:42Z</time></trkpt><trkpt lat="36.41381519431023" lon="138.49493043767148"><ele>2315.747699518688</ele><time>2021-10-02T03:53:10Z</time></trkpt><trkpt lat="36.413698282498984" lon="138.4947536422454"><ele>2320.045905715786</ele><time>2021-10-02T03:53:39Z</time></trkpt><trkpt lat="36.41371067618957" lon="138.4945305011414"><ele>2324.548073761165</ele><time>2021-10-02T03:54:04Z</time></trkpt><trkpt lat="36.41365414022848" lon="138.49431568756407"><ele>2326.155286727473</ele><time>2021-10-02T03:54:23Z</time></trkpt><trkpt lat="36.41363547880036" lon="138.49409219571183"><ele>2328.404050761834</ele><time>2021-10-02T03:54:44Z</time></trkpt><trkpt lat="36.41361410221657" lon="138.4938573508017"><ele>2328.7508523790166</ele><time>2021-10-02T03:55:00Z</time></trkpt><trkpt lat="36.41351175535768" lon="138.4936621574686"><ele>2328.6760214334354</ele><time>2021-10-02T03:55:15Z</time></trkpt><trkpt lat="36.41342167150487" lon="138.4934598165655"><ele>2328.802724543959</ele><time>2021-10-02T03:55:31Z</time></trkpt><trkpt lat="36.41340967850327" lon="138.49323302838735"><ele>2328.5785543667153</ele><time>2021-10-02T03:56:00Z</time></trkpt><trkpt lat="36.41337113017105" lon="138.49301206738602"><ele>2334.185067540966</ele><time>2021-10-02T03:56:39Z</time></trkpt><trkpt lat="36.41337660325741" lon="138.49278413398548"><ele>2338.000355879776</ele><time>2021-10-02T03:56:59Z</time></trkpt><trkpt lat="36.413254151086335" lon="138.4926191196349"><ele>2348.0634768493474</ele><time>2021-10-02T03:57:37Z</time></trkpt><trkpt lat="36.41331376586559" lon="138.49240638629684"><ele>2348.232944365591</ele><time>2021-10-02T03:58:01Z</time></trkpt><trkpt lat="36.41333764134975" lon="138.4921819438035"><ele>2347.3121578274295</ele><time>2021-10-02T03:58:25Z</time></trkpt><trkpt lat="36.413224930522006" lon="138.49200058106956"><ele>2346.572933432646</ele><time>2021-10-02T03:59:29Z</time></trkpt><trkpt lat="36.41306646230787" lon="138.49187572463944"><ele>2345.61958371941</ele><time>2021-10-02T04:00:01Z</time></trkpt><trkpt lat="36.4129157741109" lon="138.4917362132606"><ele>2345.131893388927</ele><time>2021-10-02T04:00:25Z</time></trkpt><trkpt lat="36.412739245994366" lon="138.49167368971553"><ele>2342.704666414298</ele><time>2021-10-02T04:00:53Z</time></trkpt><trkpt lat="36.41257798860994" lon="138.4915534567895"><ele>2346.966504319571</ele><time>2021-10-02T04:01:13Z</time></trkpt><trkpt lat="36.41239305571966" lon="138.49157806135588"><ele>2351.6123246774077</ele><time>2021-10-02T04:01:40Z</time></trkpt><trkpt lat="36.412204992206085" lon="138.49160042852046"><ele>2347.4710700511932</ele><time>2021-10-02T04:02:12Z</time></trkpt><trkpt lat="36.41202358251665" lon="138.49155911527527"><ele>2349.6929549407214</ele><time>2021-10-02T04:02:39Z</time></trkpt><trkpt lat="36.41188003142158" lon="138.49140914726337"><ele>2351.9863069411367</ele><time>2021-10-02T04:02:57Z</time></trkpt><trkpt lat="36.411750597398594" lon="138.49124415493625"><ele>2352.583424168639</ele><time>2021-10-02T04:03:13Z</time></trkpt><trkpt lat="36.41166757766509" lon="138.49103865790192"><ele>2354.940473072231</ele><time>2021-10-02T04:03:34Z</time></trkpt><trkpt lat="36.41148475649568" lon="138.4910198390383"><ele>2355.2993504842743</ele><time>2021-10-02T04:03:53Z</time></trkpt><trkpt lat="36.41130239996396" lon="138.49101066348808"><ele>2355.186320807785</ele><time>2021-10-02T04:04:11Z</time></trkpt><trkpt lat="36.4111185331051" lon="138.49103068530684"><ele>2353.8358642132953</ele><time>2021-10-02T04:04:34Z</time></trkpt><trkpt lat="36.410938454650754" lon="138.49099679992588"><ele>2353.0369817586616</ele><time>2021-10-02T04:04:54Z</time></trkpt><trkpt lat="36.41076863227042" lon="138.49089292718168"><ele>2348.257187027484</ele><time>2021-10-02T04:05:08Z</time></trkpt><trkpt lat="36.41058375984887" lon="138.49082590490733"><ele>2341.91086231824</ele><time>2021-10-02T04:05:27Z</time></trkpt><trkpt lat="36.410399969063356" lon="138.49078120326178"><ele>2340.718161999248</ele><time>2021-10-02T04:05:43Z</time></trkpt><trkpt lat="36.41022284757598" lon="138.4907136062067"><ele>2341.7137207267806</ele><time>2021-10-02T04:06:21Z</time></trkpt><trkpt lat="36.410113428458885" lon="138.49053461210252"><ele>2340.353711605072</ele><time>2021-10-02T04:06:37Z</time></trkpt><trkpt lat="36.41001227209888" lon="138.49033106916244"><ele>2341.2899910043925</ele><time>2021-10-02T04:06:55Z</time></trkpt><trkpt lat="36.409928248061966" lon="138.49012248617447"><ele>2343.538322363049</ele><time>2021-10-02T04:07:12Z</time></trkpt><trkpt lat="36.409854492790345" lon="138.48991517894154"><ele>2344.8673389265314</ele><time>2021-10-02T04:07:32Z</time></trkpt><trkpt lat="36.40973377998411" lon="138.4897342896392"><ele>2346.2538009081036</ele><time>2021-10-02T04:07:48Z</time></trkpt><trkpt lat="36.409572206770484" lon="138.48963138882988"><ele>2341.8628780553117</ele><time>2021-10-02T04:08:06Z</time></trkpt><trkpt lat="36.40943787524349" lon="138.48947507987285"><ele>2343.815182670951</ele><time>2021-10-02T04:08:25Z</time></trkpt><trkpt lat="36.409374904031765" lon="138.4892634709088"><ele>2346.1859886199236</ele><time>2021-10-02T04:08:43Z</time></trkpt><trkpt lat="36.409273878234295" lon="138.4890781760825"><ele>2346.3580627497286</ele><time>2021-10-02T04:09:03Z</time></trkpt><trkpt lat="36.409100572572754" lon="138.48899493215097"><ele>2347.999241686426</ele><time>2021-10-02T04:09:55Z</time></trkpt><trkpt lat="36.408934383647996" lon="138.4888847329308"><ele>2350.7701198318973</ele><time>2021-10-02T04:10:16Z</time></trkpt><trkpt lat="36.408773451822135" lon="138.4887717321777"><ele>2351.1589500615373</ele><time>2021-10-02T04:10:44Z</time></trkpt><trkpt lat="36.4085983699314" lon="138.48870551490637"><ele>2355.8078418402</ele><time>2021-10-02T04:11:05Z</time></trkpt><trkpt lat="36.40843193418155" lon="138.48861817671195"><ele>2357.5725959921256</ele><time>2021-10-02T04:11:25Z</time></trkpt><trkpt lat="36.40826531937719" lon="138.48871915742492"><ele>2358.262766662985</ele><time>2021-10-02T04:11:49Z</time></trkpt><trkpt lat="36.40811050755514" lon="138.48885397930908"><ele>2360.7274692347273</ele><time>2021-10-02T04:12:20Z</time></trkpt><trkpt lat="36.40796437491546" lon="138.4889913625925"><ele>2360.1600702945143</ele><time>2021-10-02T04:12:54Z</time></trkpt><trkpt lat="36.407790865249304" lon="138.4889248836099"><ele>2364.3882296970114</ele><time>2021-10-02T04:13:18Z</time></trkpt><trkpt lat="36.40769206104553" lon="138.48873702340245"><ele>2361.941097642295</ele><time>2021-10-02T04:14:10Z</time></trkpt><trkpt lat="36.40753261576209" lon="138.4885962170604"><ele>2364.04077820573</ele><time>2021-10-02T04:14:31Z</time></trkpt><trkpt lat="36.40735341287738" lon="138.4885287870768"><ele>2368.790074195713</ele><time>2021-10-02T04:14:59Z</time></trkpt><trkpt lat="36.40717453524791" lon="138.48855588594157"><ele>2370.5801545605063</ele><time>2021-10-02T04:15:23Z</time></trkpt><trkpt lat="36.406993102221435" lon="138.48852308142904"><ele>2369.933125113137</ele><time>2021-10-02T04:16:46Z</time></trkpt><trkpt lat="36.40682672072497" lon="138.4883988043942"><ele>2367.5968857714906</ele><time>2021-10-02T04:17:06Z</time></trkpt><trkpt lat="36.40666645774257" lon="138.48829264429008"><ele>2368.7591893794015</ele><time>2021-10-02T04:17:26Z</time></trkpt><trkpt lat="36.406480749156025" lon="138.4882755306898"><ele>2374.258558696136</ele><time>2021-10-02T04:17:44Z</time></trkpt><trkpt lat="36.40629805633179" lon="138.48832659836893"><ele>2377.546867617406</ele><time>2021-10-02T04:18:11Z</time></trkpt><trkpt lat="36.40612970797793" lon="138.48841373883246"><ele>2378.2548636291176</ele><time>2021-10-02T04:18:41Z</time></trkpt><trkpt lat="36.40596210032043" lon="138.48850591824208"><ele>2383.9247296340764</ele><time>2021-10-02T04:19:15Z</time></trkpt><trkpt lat="36.40579699555464" lon="138.48862178198445"><ele>2389.975250771269</ele><time>2021-10-02T04:19:47Z</time></trkpt><trkpt lat="36.40561333188837" lon="138.48865473494268"><ele>2392.3053660346195</ele><time>2021-10-02T04:20:09Z</time></trkpt><trkpt lat="36.405431613065936" lon="138.48861504406588"><ele>2391.0897842822596</ele><time>2021-10-02T04:20:31Z</time></trkpt><trkpt lat="36.40524839984562" lon="138.48858577794223"><ele>2390.7797779133543</ele><time>2021-10-02T04:21:32Z</time></trkpt><trkpt lat="36.405069868438936" lon="138.48854205872254"><ele>2388.592923860997</ele><time>2021-10-02T04:21:49Z</time></trkpt><trkpt lat="36.40489642155002" lon="138.48860483843487"><ele>2390.879489216022</ele><time>2021-10-02T04:22:08Z</time></trkpt><trkpt lat="36.40471253186514" lon="138.4886641484029"><ele>2387.074666848406</ele><time>2021-10-02T04:22:59Z</time></trkpt><trkpt lat="36.404531678559735" lon="138.4886385568173"><ele>2381.7763425521553</ele><time>2021-10-02T04:23:21Z</time></trkpt><trkpt lat="36.40434442029852" lon="138.48864179692515"><ele>2372.2580007733777</ele><time>2021-10-02T04:23:39Z</time></trkpt><trkpt lat="36.404165471648646" lon="138.48870620958652"><ele>2370.340286353603</ele><time>2021-10-02T04:23:57Z</time></trkpt><trkpt lat="36.403983119780676" lon="138.48880526707578"><ele>2357.437266434543</ele><time>2021-10-02T04:24:21Z</time></trkpt><trkpt lat="36.40379885504086" lon="138.48882535994537"><ele>2352.0287850731984</ele><time>2021-10-02T04:24:51Z</time></trkpt><trkpt lat="36.40361543385501" lon="138.4887456804732"><ele>2347.401646234095</ele><time>2021-10-02T04:25:11Z</time></trkpt><trkpt lat="36.40343394650283" lon="138.4886987000022"><ele>2342.0236985376105</ele><time>2021-10-02T04:25:52Z</time></trkpt><trkpt lat="36.403251868051946" lon="138.48867257011966"><ele>2335.5389537736773</ele><time>2021-10-02T04:26:10Z</time></trkpt><trkpt lat="36.40307075536113" lon="138.48865002259822"><ele>2339.0850343815982</ele><time>2021-10-02T04:26:22Z</time></trkpt><trkpt lat="36.402921396209386" lon="138.48878956151955"><ele>2331.897301898338</ele><time>2021-10-02T04:26:38Z</time></trkpt><trkpt lat="36.40280911693831" lon="138.4889668119631"><ele>2336.3438164284453</ele><time>2021-10-02T04:26:52Z</time></trkpt><trkpt lat="36.402639331924085" lon="138.48909295977273"><ele>2329.216719813645</ele><time>2021-10-02T04:29:21Z</time></trkpt><trkpt lat="36.402511103514406" lon="138.48925694417758"><ele>2328.466309451498</ele><time>2021-10-02T04:29:51Z</time></trkpt><trkpt lat="36.402334657189805" lon="138.48930762017648"><ele>2324.521100115031</ele><time>2021-10-02T04:30:15Z</time></trkpt><trkpt lat="36.402158387380325" lon="138.48938980994942"><ele>2317.028919292614</ele><time>2021-10-02T04:30:40Z</time></trkpt><trkpt lat="36.40199147030393" lon="138.4894886292142"><ele>2316.0292137842625</ele><time>2021-10-02T04:31:29Z</time></trkpt><trkpt lat="36.40187310674413" lon="138.48968178901893"><ele>2312.9108513249084</ele><time>2021-10-02T04:31:51Z</time></trkpt><trkpt lat="36.401721720875386" lon="138.4898117665347"><ele>2311.205874535255</ele><time>2021-10-02T04:32:36Z</time></trkpt><trkpt lat="36.40160439616435" lon="138.48964022893864"><ele>2302.653182776645</ele><time>2021-10-02T04:33:30Z</time></trkpt><trkpt lat="36.40145535099084" lon="138.48951185347244"><ele>2297.0452432828024</ele><time>2021-10-02T04:34:16Z</time></trkpt><trkpt lat="36.40131760518942" lon="138.48936095234052"><ele>2289.4337872797623</ele><time>2021-10-02T04:34:58Z</time></trkpt><trkpt lat="36.40131676710411" lon="138.48913176345246"><ele>2284.6000260161236</ele><time>2021-10-02T04:35:23Z</time></trkpt><trkpt lat="36.401233656173055" lon="138.48893343689477"><ele>2277.8300342885777</ele><time>2021-10-02T04:35:52Z</time></trkpt><trkpt lat="36.40107781356077" lon="138.4888041893795"><ele>2271.6030979231</ele><time>2021-10-02T04:36:15Z</time></trkpt><trkpt lat="36.4010982487487" lon="138.48856950886452"><ele>2269.362710505724</ele><time>2021-10-02T04:36:42Z</time></trkpt><trkpt lat="36.40116221918654" lon="138.48835072370852"><ele>2263.623590514995</ele><time>2021-10-02T04:37:08Z</time></trkpt><trkpt lat="36.40114880050421" lon="138.4881280329612"><ele>2257.9347442798316</ele><time>2021-10-02T04:37:29Z</time></trkpt><trkpt lat="36.40113286316707" lon="138.48786965817303"><ele>2255.746495626867</ele><time>2021-10-02T04:37:51Z</time></trkpt><trkpt lat="36.4012260029741" lon="138.4876696944491"><ele>2249.83423135709</ele><time>2021-10-02T04:38:07Z</time></trkpt><trkpt lat="36.40131444463859" lon="138.4874510475877"><ele>2246.453330432996</ele><time>2021-10-02T04:38:20Z</time></trkpt><trkpt lat="36.401439415742516" lon="138.48727928122022"><ele>2245.5907478295267</ele><time>2021-10-02T04:38:31Z</time></trkpt><trkpt lat="36.40153346975459" lon="138.48708317441088"><ele>2238.3116947794333</ele><time>2021-10-02T04:38:46Z</time></trkpt><trkpt lat="36.40161641440921" lon="138.48687346077855"><ele>2233.836585815996</ele><time>2021-10-02T04:39:00Z</time></trkpt><trkpt lat="36.40167292658173" lon="138.48664117681977"><ele>2227.771973164752</ele><time>2021-10-02T04:39:15Z</time></trkpt><trkpt lat="36.4016784625149" lon="138.4864099731227"><ele>2225.537076470442</ele><time>2021-10-02T04:39:25Z</time></trkpt><trkpt lat="36.401740343628184" lon="138.48618859441146"><ele>2225.7860734425485</ele><time>2021-10-02T04:39:42Z</time></trkpt><trkpt lat="36.40175913984321" lon="138.48596172516886"><ele>2222.401753970422</ele><time>2021-10-02T04:39:51Z</time></trkpt><trkpt lat="36.40185842798734" lon="138.48577483992344"><ele>2218.5883298264816</ele><time>2021-10-02T04:40:00Z</time></trkpt><trkpt lat="36.40196765221587" lon="138.48559343029044"><ele>2215.0567130018026</ele><time>2021-10-02T04:40:13Z</time></trkpt><trkpt lat="36.40205368139435" lon="138.48539441483422"><ele>2210.7425548750907</ele><time>2021-10-02T04:40:29Z</time></trkpt><trkpt lat="36.402044448056074" lon="138.48517065562274"><ele>2205.719514492899</ele><time>2021-10-02T04:40:40Z</time></trkpt><trkpt lat="36.40206366510232" lon="138.48494706860447"><ele>2197.5619106004015</ele><time>2021-10-02T04:41:03Z</time></trkpt><trkpt lat="36.40210008087559" lon="138.4847272023813"><ele>2195.286111883819</ele><time>2021-10-02T04:41:26Z</time></trkpt><trkpt lat="36.40207911532208" lon="138.48449622144506"><ele>2186.636688798666</ele><time>2021-10-02T04:42:06Z</time></trkpt><trkpt lat="36.402200605065296" lon="138.48431993330934"><ele>2186.5659271776676</ele><time>2021-10-02T04:42:27Z</time></trkpt><trkpt lat="36.40229431965282" lon="138.4841217564388"><ele>2178.968129063025</ele><time>2021-10-02T04:42:59Z</time></trkpt><trkpt lat="36.40246615039073" lon="138.4840296489345"><ele>2179.3064813399687</ele><time>2021-10-02T04:43:15Z</time></trkpt><trkpt lat="36.40262470940524" lon="138.4839023085933"><ele>2175.1408042619005</ele><time>2021-10-02T04:43:32Z</time></trkpt><trkpt lat="36.402761887851824" lon="138.48374082457943"><ele>2173.590286284685</ele><time>2021-10-02T04:43:42Z</time></trkpt><trkpt lat="36.40288993150013" lon="138.4835720972008"><ele>2174.584197248332</ele><time>2021-10-02T04:43:52Z</time></trkpt><trkpt lat="36.403028859009076" lon="138.48341920104866"><ele>2173.204217349179</ele><time>2021-10-02T04:44:02Z</time></trkpt><trkpt lat="36.40316491102153" lon="138.48323845138412"><ele>2170.151989158243</ele><time>2021-10-02T04:44:17Z</time></trkpt><trkpt lat="36.403290720302635" lon="138.48306568905184"><ele>2171.8188056675717</ele><time>2021-10-02T04:44:30Z</time></trkpt><trkpt lat="36.40346102217487" lon="138.4829678774352"><ele>2166.0590195339173</ele><time>2021-10-02T04:44:42Z</time></trkpt><trkpt lat="36.403625544610854" lon="138.48286792089115"><ele>2166.4155795508996</ele><time>2021-10-02T04:44:55Z</time></trkpt><trkpt lat="36.403782540650866" lon="138.4827498334288"><ele>2164.0782924676314</ele><time>2021-10-02T04:45:08Z</time></trkpt><trkpt lat="36.403935289181945" lon="138.48259020886005"><ele>2161.4868960781023</ele><time>2021-10-02T04:45:21Z</time></trkpt><trkpt lat="36.404065914200494" lon="138.48242432426554"><ele>2161.3147911103442</ele><time>2021-10-02T04:45:35Z</time></trkpt><trkpt lat="36.40408016497039" lon="138.48219319636345"><ele>2159.6462149219587</ele><time>2021-10-02T04:45:46Z</time></trkpt><trkpt lat="36.40410780329485" lon="138.48197075738503"><ele>2156.806674993597</ele><time>2021-10-02T04:46:01Z</time></trkpt><trkpt lat="36.40412444814496" lon="138.48174384541295"><ele>2152.103649380617</ele><time>2021-10-02T04:46:14Z</time></trkpt><trkpt lat="36.40423820308454" lon="138.48156625367835"><ele>2150.0935078496113</ele><time>2021-10-02T04:46:29Z</time></trkpt><trkpt lat="36.404373948850576" lon="138.48136346590857"><ele>2147.486831656657</ele><time>2021-10-02T04:46:45Z</time></trkpt><trkpt lat="36.40452481821844" lon="138.48122122030523"><ele>2140.6025055618957</ele><time>2021-10-02T04:47:02Z</time></trkpt><trkpt lat="36.40465990799125" lon="138.48106867850606"><ele>2136.6405417127535</ele><time>2021-10-02T04:47:24Z</time></trkpt><trkpt lat="36.40472407590484" lon="138.48085900267105"><ele>2128.659946992062</ele><time>2021-10-02T04:47:51Z</time></trkpt><trkpt lat="36.40475106155108" lon="138.48063269331655"><ele>2121.3441271828488</ele><time>2021-10-02T04:48:22Z</time></trkpt><trkpt lat="36.40479480943872" lon="138.48040884369513"><ele>2109.3830263679847</ele><time>2021-10-02T04:48:52Z</time></trkpt><trkpt lat="36.404923902317954" lon="138.4802337751541"><ele>2101.6772483466193</ele><time>2021-10-02T04:49:09Z</time></trkpt><trkpt lat="36.40505514384962" lon="138.48007599155687"><ele>2092.8446347061545</ele><time>2021-10-02T04:49:35Z</time></trkpt><trkpt lat="36.40520752553918" lon="138.47994096740288"><ele>2084.760618014261</ele><time>2021-10-02T04:50:01Z</time></trkpt><trkpt lat="36.40538076851792" lon="138.4798404436197"><ele>2078.994186767377</ele><time>2021-10-02T04:50:21Z</time></trkpt><trkpt lat="36.40550204245308" lon="138.4796723742078"><ele>2071.3895079009235</ele><time>2021-10-02T04:50:53Z</time></trkpt><trkpt lat="36.40559873660066" lon="138.47947672008945"><ele>2064.1610846817493</ele><time>2021-10-02T04:51:37Z</time></trkpt><trkpt lat="36.405708795531524" lon="138.47928726116172"><ele>2060.9875966953114</ele><time>2021-10-02T04:52:07Z</time></trkpt><trkpt lat="36.40572508539543" lon="138.47905464799763"><ele>2057.6411917647347</ele><time>2021-10-02T04:52:33Z</time></trkpt><trkpt lat="36.40568183338674" lon="138.4788239156487"><ele>2052.1445527169853</ele><time>2021-10-02T04:53:13Z</time></trkpt><trkpt lat="36.40574364954055" lon="138.47861402930684"><ele>2049.4639314292</ele><time>2021-10-02T04:53:33Z</time></trkpt><trkpt lat="36.40577680858132" lon="138.47838862509298"><ele>2042.6658998169005</ele><time>2021-10-02T04:54:07Z</time></trkpt><trkpt lat="36.4057378142662" lon="138.47816334971668"><ele>2042.5522208157927</ele><time>2021-10-02T04:54:32Z</time></trkpt><trkpt lat="36.405789034346746" lon="138.47793396757976"><ele>2041.0902740526944</ele><time>2021-10-02T04:54:51Z</time></trkpt><trkpt lat="36.405759908565436" lon="138.47770453063444"><ele>2037.7443175604567</ele><time>2021-10-02T04:55:14Z</time></trkpt><trkpt lat="36.40577707383089" lon="138.4774739636093"><ele>2037.804269656539</ele><time>2021-10-02T04:55:30Z</time></trkpt><trkpt lat="36.40567294486021" lon="138.47727825370464"><ele>2033.840429481119</ele><time>2021-10-02T04:55:46Z</time></trkpt><trkpt lat="36.405590707776746" lon="138.47707538063963"><ele>2030.6169189549983</ele><time>2021-10-02T04:56:07Z</time></trkpt><trkpt lat="36.4054953825689" lon="138.47687922655322"><ele>2025.941623575054</ele><time>2021-10-02T04:56:28Z</time></trkpt><trkpt lat="36.40550364131668" lon="138.47665587472352"><ele>2023.326873768121</ele><time>2021-10-02T04:56:44Z</time></trkpt><trkpt lat="36.40553607781619" lon="138.4764281903971"><ele>2019.4467688994482</ele><time>2021-10-02T04:57:07Z</time></trkpt><trkpt lat="36.40556217269903" lon="138.47619806808058"><ele>2017.5551074920222</ele><time>2021-10-02T04:57:24Z</time></trkpt><trkpt lat="36.405563352644165" lon="138.47596576607106"><ele>2013.6376365218312</ele><time>2021-10-02T04:57:45Z</time></trkpt><trkpt lat="36.40557252721558" lon="138.47573521896234"><ele>2007.4791660290211</ele><time>2021-10-02T04:58:08Z</time></trkpt><trkpt lat="36.405580126778815" lon="138.4755020027541"><ele>2001.987950780429</ele><time>2021-10-02T04:58:34Z</time></trkpt><trkpt lat="36.405612001668146" lon="138.47528156941996"><ele>1998.3326505422592</ele><time>2021-10-02T04:59:02Z</time></trkpt><trkpt lat="36.40558017371486" lon="138.47505903713395"><ele>1990.5670111998916</ele><time>2021-10-02T04:59:34Z</time></trkpt><trkpt lat="36.4055589426065" lon="138.4748362587911"><ele>1983.598320165649</ele><time>2021-10-02T05:00:19Z</time></trkpt><trkpt lat="36.40557017545187" lon="138.47460997425407"><ele>1980.5694756070152</ele><time>2021-10-02T05:00:40Z</time></trkpt><trkpt lat="36.4056255464182" lon="138.47437296506314"><ele>1980.5907196467742</ele><time>2021-10-02T05:00:54Z</time></trkpt><trkpt lat="36.40567802222078" lon="138.47415354309263"><ele>1978.5986584033817</ele><time>2021-10-02T05:01:05Z</time></trkpt><trkpt lat="36.405638856776925" lon="138.47392651364325"><ele>1979.0578314131126</ele><time>2021-10-02T05:01:17Z</time></trkpt><trkpt lat="36.4056973933094" lon="138.47370360189944"><ele>1979.089597163722</ele><time>2021-10-02T05:01:30Z</time></trkpt><trkpt lat="36.40571135323987" lon="138.47347902954036"><ele>1978.183607478626</ele><time>2021-10-02T05:01:43Z</time></trkpt><trkpt lat="36.405712395946594" lon="138.47324990787584"><ele>1979.357730774209</ele><time>2021-10-02T05:01:57Z</time></trkpt><trkpt lat="36.40577799222101" lon="138.4730414482215"><ele>1977.6488014385104</ele><time>2021-10-02T05:02:09Z</time></trkpt><trkpt lat="36.40583354757358" lon="138.47280512778488"><ele>1974.9848817288876</ele><time>2021-10-02T05:02:23Z</time></trkpt><trkpt lat="36.40584361620412" lon="138.47257596196093"><ele>1973.5049817431718</ele><time>2021-10-02T05:02:36Z</time></trkpt><trkpt lat="36.405776577984305" lon="138.47235225545435"><ele>1975.9767906423658</ele><time>2021-10-02T05:02:49Z</time></trkpt><trkpt lat="36.405775391461056" lon="138.4721256526774"><ele>1976.7273014634848</ele><time>2021-10-02T05:03:03Z</time></trkpt><trkpt lat="36.40584396513589" lon="138.47190086697668"><ele>1976.906703978777</ele><time>2021-10-02T05:03:16Z</time></trkpt><trkpt lat="36.40587368615071" lon="138.47165992583416"><ele>1975.8274653218687</ele><time>2021-10-02T05:03:33Z</time></trkpt><trkpt lat="36.40589793355975" lon="138.47143762173448"><ele>1975.392890338786</ele><time>2021-10-02T05:03:47Z</time></trkpt><trkpt lat="36.40589635860626" lon="138.47120870110217"><ele>1971.8747635195032</ele><time>2021-10-02T05:04:03Z</time></trkpt><trkpt lat="36.40578119844098" lon="138.4710289797031"><ele>1971.8717443058267</ele><time>2021-10-02T05:04:19Z</time></trkpt><trkpt lat="36.405638041945494" lon="138.47087334635808"><ele>1972.6914328048006</ele><time>2021-10-02T05:04:35Z</time></trkpt><trkpt lat="36.40550930727722" lon="138.47071658437704"><ele>1972.596777079627</ele><time>2021-10-02T05:04:52Z</time></trkpt><trkpt lat="36.4053498067144" lon="138.47060413841197"><ele>1972.4577621249482</ele><time>2021-10-02T05:05:09Z</time></trkpt><trkpt lat="36.40520439910116" lon="138.47045969185686"><ele>1971.664655120112</ele><time>2021-10-02T05:05:29Z</time></trkpt><trkpt lat="36.40510121132183" lon="138.47027030286282"><ele>1968.9851351780817</ele><time>2021-10-02T05:05:46Z</time></trkpt><trkpt lat="36.40498034243763" lon="138.47009243140104"><ele>1968.7158853411674</ele><time>2021-10-02T05:05:59Z</time></trkpt><trkpt lat="36.40509555959022" lon="138.46991435231652"><ele>1966.5710243489593</ele><time>2021-10-02T05:06:17Z</time></trkpt><trkpt lat="36.40507215008239" lon="138.4696921218503"><ele>1965.4733616579324</ele><time>2021-10-02T05:06:36Z</time></trkpt></trkseg></trk></gpx>