<?xml version='1.0' encoding='UTF-8'?><gpx creator="YAMAP - https://yamap.com" xsi:schemaLocation="http://www.topografix.com/GPX/1/1 http://www.topografix.com/GPX/1/1/gpx.xsd" version="1.1" xmlns="http://www.topografix.com/GPX/1/1" xmlns:xsi="http://www.w3.org/2001/XMLSchema-instance"><metadata><bounds maxlat="36.637714561163634" maxlon="140.67318024253515" minlat="36.637538108077614" minlon="140.67255976846735"/></metadata><trk><name>日立アルプストレイル・神峯山-2021-10-16</name><number>1</number><trkseg><trkpt lat="36.637538108077614" lon="140.67306887371527"><ele>41.80892946384847</ele><time>2021-10-16T00:09:09Z</time></trkpt><trkpt lat="36.63769538380781" lon="140.67294630408918"><ele>40.75728495884687</ele><time>2021-10-16T00:10:09Z</time></trkpt><trkpt lat="36.637714561163634" lon="140.67318024253515"><ele>40.6552495546639</ele><time>2021-10-16T00:10:52Z</time></trkpt><trkpt lat="36.63759412845102" lon="140.6729622105398"><ele>39.865932213142514</ele><time>2021-10-16T00:11:04Z</time></trkpt><trkpt lat="36.63757272342463" lon="140.67315400186305"><ele>39.17616438027471</ele><time>2021-10-16T00:11:24Z</time></trkpt><trkpt lat="36.63757789125958" lon="140.67281009524163"><ele>41.11799681186676</ele><time>2021-10-16T00:11:34Z</time></trkpt><trkpt lat="36.63758602389548" lon="140.67255976846735"><ele>40.929994225502014</ele><time>2021-10-16T00:11:42Z</time></trkpt><trkpt lat="36.63755806268286" lon="140.67310127856945"><ele>40.537742936983705</ele><time>2021-10-16T00:11:54Z</time></trkpt></trkseg></trk></gpx>