<?xml version='1.0' encoding='UTF-8'?><gpx creator="YAMAP - https://yamap.com" xsi:schemaLocation="http://www.topografix.com/GPX/1/1 http://www.topografix.com/GPX/1/1/gpx.xsd" version="1.1" xmlns="http://www.topografix.com/GPX/1/1" xmlns:xsi="http://www.w3.org/2001/XMLSchema-instance"><metadata><bounds maxlat="34.872804" maxlon="139.023628" minlat="34.86002" minlon="138.999093"/></metadata><trk><name>天城山</name><number>1</number><trkseg><trkpt lat="34.872787" lon="139.023622"><ele>1048.1</ele><time>2021-08-07T00:16:59Z</time></trkpt><trkpt lat="34.872522" lon="139.02355"><ele>1049.1</ele><time>2021-08-07T00:18:07Z</time></trkpt><trkpt lat="34.872435" lon="139.023541"><ele>1049.6</ele><time>2021-08-07T00:18:23Z</time></trkpt><trkpt lat="34.872347" lon="139.023533"><ele>1047.9</ele><time>2021-08-07T00:37:52Z</time></trkpt><trkpt lat="34.872259" lon="139.023524"><ele>1046.1</ele><time>2021-08-07T00:37:52Z</time></trkpt><trkpt lat="34.870679" lon="139.021"><ele>1064.7</ele><time>2021-08-07T00:38:43Z</time></trkpt><trkpt lat="34.870681" lon="139.02078"><ele>1066.2</ele><time>2021-08-07T00:39:15Z</time></trkpt><trkpt lat="34.870668" lon="139.020549"><ele>1068.5</ele><time>2021-08-07T00:40:23Z</time></trkpt><trkpt lat="34.87058" lon="139.020294"><ele>1073.0</ele><time>2021-08-07T00:41:25Z</time></trkpt><trkpt lat="34.870473" lon="139.020088"><ele>1078.2</ele><time>2021-08-07T00:41:49Z</time></trkpt><trkpt lat="34.870484" lon="139.019857"><ele>1081.9</ele><time>2021-08-07T00:42:35Z</time></trkpt><trkpt lat="34.870288" lon="139.019794"><ele>1084.9</ele><time>2021-08-07T00:42:51Z</time></trkpt><trkpt lat="34.870218" lon="139.019581"><ele>1087.2</ele><time>2021-08-07T00:46:47Z</time></trkpt><trkpt lat="34.870117" lon="139.019384"><ele>1089.2</ele><time>2021-08-07T00:47:15Z</time></trkpt><trkpt lat="34.87008" lon="139.019116"><ele>1090.5</ele><time>2021-08-07T00:47:43Z</time></trkpt><trkpt lat="34.870063" lon="139.018894"><ele>1090.0</ele><time>2021-08-07T00:48:03Z</time></trkpt><trkpt lat="34.870016" lon="139.018682"><ele>1088.3</ele><time>2021-08-07T00:48:47Z</time></trkpt><trkpt lat="34.870142" lon="139.018453"><ele>1085.5</ele><time>2021-08-07T00:49:21Z</time></trkpt><trkpt lat="34.869958" lon="139.018479"><ele>1081.7</ele><time>2021-08-07T00:50:45Z</time></trkpt><trkpt lat="34.869778" lon="139.018439"><ele>1078.1</ele><time>2021-08-07T00:52:07Z</time></trkpt><trkpt lat="34.869612" lon="139.018343"><ele>1074.1</ele><time>2021-08-07T00:52:25Z</time></trkpt><trkpt lat="34.869451" lon="139.018235"><ele>1071.6</ele><time>2021-08-07T00:54:41Z</time></trkpt><trkpt lat="34.869245" lon="139.018319"><ele>1072.7</ele><time>2021-08-07T00:56:01Z</time></trkpt><trkpt lat="34.868921" lon="139.01848"><ele>1075.4</ele><time>2021-08-07T00:58:35Z</time></trkpt><trkpt lat="34.868739" lon="139.018562"><ele>1077.3</ele><time>2021-08-07T00:59:35Z</time></trkpt><trkpt lat="34.868544" lon="139.01859"><ele>1078.9</ele><time>2021-08-07T00:59:59Z</time></trkpt><trkpt lat="34.868126" lon="139.018666"><ele>1083.8</ele><time>2021-08-07T01:01:23Z</time></trkpt><trkpt lat="34.867908" lon="139.018759"><ele>1086.0</ele><time>2021-08-07T01:02:51Z</time></trkpt><trkpt lat="34.86769" lon="139.018936"><ele>1087.9</ele><time>2021-08-07T01:03:17Z</time></trkpt><trkpt lat="34.867539" lon="139.019093"><ele>1089.7</ele><time>2021-08-07T01:04:27Z</time></trkpt><trkpt lat="34.867488" lon="139.019314"><ele>1091.5</ele><time>2021-08-07T01:05:27Z</time></trkpt><trkpt lat="34.86734" lon="139.019448"><ele>1094.0</ele><time>2021-08-07T01:05:53Z</time></trkpt><trkpt lat="34.867239" lon="139.019648"><ele>1095.0</ele><time>2021-08-07T01:06:53Z</time></trkpt><trkpt lat="34.867089" lon="139.019851"><ele>1096.6</ele><time>2021-08-07T01:07:43Z</time></trkpt><trkpt lat="34.866902" lon="139.019954"><ele>1098.3</ele><time>2021-08-07T01:08:23Z</time></trkpt><trkpt lat="34.866724" lon="139.019923"><ele>1100.0</ele><time>2021-08-07T01:09:49Z</time></trkpt><trkpt lat="34.866535" lon="139.019928"><ele>1102.1</ele><time>2021-08-07T01:10:21Z</time></trkpt><trkpt lat="34.86633" lon="139.019901"><ele>1105.5</ele><time>2021-08-07T01:10:37Z</time></trkpt><trkpt lat="34.866138" lon="139.019933"><ele>1109.2</ele><time>2021-08-07T01:12:01Z</time></trkpt><trkpt lat="34.865963" lon="139.019989"><ele>1111.7</ele><time>2021-08-07T01:13:03Z</time></trkpt><trkpt lat="34.865767" lon="139.02004"><ele>1114.3</ele><time>2021-08-07T01:14:05Z</time></trkpt><trkpt lat="34.865584" lon="139.020051"><ele>1116.6</ele><time>2021-08-07T01:14:33Z</time></trkpt><trkpt lat="34.865397" lon="139.020022"><ele>1118.5</ele><time>2021-08-07T01:16:31Z</time></trkpt><trkpt lat="34.865206" lon="139.019971"><ele>1121.4</ele><time>2021-08-07T01:16:59Z</time></trkpt><trkpt lat="34.864991" lon="139.019949"><ele>1124.9</ele><time>2021-08-07T01:18:29Z</time></trkpt><trkpt lat="34.864805" lon="139.019905"><ele>1128.2</ele><time>2021-08-07T01:19:25Z</time></trkpt><trkpt lat="34.864625" lon="139.019853"><ele>1131.4</ele><time>2021-08-07T01:19:49Z</time></trkpt><trkpt lat="34.864443" lon="139.01985"><ele>1135.4</ele><time>2021-08-07T01:20:43Z</time></trkpt><trkpt lat="34.864236" lon="139.019864"><ele>1139.4</ele><time>2021-08-07T01:21:43Z</time></trkpt><trkpt lat="34.864065" lon="139.019941"><ele>1142.7</ele><time>2021-08-07T01:22:29Z</time></trkpt><trkpt lat="34.863893" lon="139.020038"><ele>1146.0</ele><time>2021-08-07T01:23:41Z</time></trkpt><trkpt lat="34.863801" lon="139.020236"><ele>1146.8</ele><time>2021-08-07T01:24:15Z</time></trkpt><trkpt lat="34.863787" lon="139.020455"><ele>1146.7</ele><time>2021-08-07T01:25:07Z</time></trkpt><trkpt lat="34.863723" lon="139.020734"><ele>1146.3</ele><time>2021-08-07T01:26:13Z</time></trkpt><trkpt lat="34.863669" lon="139.02098"><ele>1145.0</ele><time>2021-08-07T01:27:45Z</time></trkpt><trkpt lat="34.86359" lon="139.02121"><ele>1145.8</ele><time>2021-08-07T01:28:15Z</time></trkpt><trkpt lat="34.863464" lon="139.021368"><ele>1148.7</ele><time>2021-08-07T01:29:27Z</time></trkpt><trkpt lat="34.863492" lon="139.021591"><ele>1152.8</ele><time>2021-08-07T01:30:53Z</time></trkpt><trkpt lat="34.863351" lon="139.021735"><ele>1157.5</ele><time>2021-08-07T01:34:03Z</time></trkpt><trkpt lat="34.86317" lon="139.02168"><ele>1163.0</ele><time>2021-08-07T01:36:27Z</time></trkpt><trkpt lat="34.863038" lon="139.021525"><ele>1168.9</ele><time>2021-08-07T01:38:25Z</time></trkpt><trkpt lat="34.862898" lon="139.02168"><ele>1172.5</ele><time>2021-08-07T01:39:21Z</time></trkpt><trkpt lat="34.862786" lon="139.021854"><ele>1175.5</ele><time>2021-08-07T01:41:45Z</time></trkpt><trkpt lat="34.862615" lon="139.022005"><ele>1179.7</ele><time>2021-08-07T01:42:57Z</time></trkpt><trkpt lat="34.862435" lon="139.022045"><ele>1183.8</ele><time>2021-08-07T01:43:39Z</time></trkpt><trkpt lat="34.862271" lon="139.021935"><ele>1188.9</ele><time>2021-08-07T01:45:29Z</time></trkpt><trkpt lat="34.862332" lon="139.021729"><ele>1193.9</ele><time>2021-08-07T01:46:19Z</time></trkpt><trkpt lat="34.862245" lon="139.021533"><ele>1198.7</ele><time>2021-08-07T01:49:13Z</time></trkpt><trkpt lat="34.862119" lon="139.021373"><ele>1204.6</ele><time>2021-08-07T01:52:45Z</time></trkpt><trkpt lat="34.86194" lon="139.021413"><ele>1212.5</ele><time>2021-08-07T01:56:29Z</time></trkpt><trkpt lat="34.861761" lon="139.021366"><ele>1220.2</ele><time>2021-08-07T01:57:51Z</time></trkpt><trkpt lat="34.861626" lon="139.021214"><ele>1227.3</ele><time>2021-08-07T02:00:13Z</time></trkpt><trkpt lat="34.861423" lon="139.021216"><ele>1234.9</ele><time>2021-08-07T02:01:49Z</time></trkpt><trkpt lat="34.861235" lon="139.021247"><ele>1244.0</ele><time>2021-08-07T02:03:27Z</time></trkpt><trkpt lat="34.861032" lon="139.021151"><ele>1252.3</ele><time>2021-08-07T02:05:57Z</time></trkpt><trkpt lat="34.860844" lon="139.021173"><ele>1262.5</ele><time>2021-08-07T02:07:45Z</time></trkpt><trkpt lat="34.860658" lon="139.021235"><ele>1269.9</ele><time>2021-08-07T02:08:07Z</time></trkpt><trkpt lat="34.860507" lon="139.02111"><ele>1276.6</ele><time>2021-08-07T02:11:03Z</time></trkpt><trkpt lat="34.860327" lon="139.02107"><ele>1285.4</ele><time>2021-08-07T02:12:01Z</time></trkpt><trkpt lat="34.860149" lon="139.020975"><ele>1289.2</ele><time>2021-08-07T02:12:39Z</time></trkpt><trkpt lat="34.86002" lon="139.020787"><ele>1289.0</ele><time>2021-08-07T02:15:37Z</time></trkpt><trkpt lat="34.860158" lon="139.020632"><ele>1288.9</ele><time>2021-08-07T02:18:49Z</time></trkpt><trkpt lat="34.860302" lon="139.020469"><ele>1285.3</ele><time>2021-08-07T02:21:25Z</time></trkpt><trkpt lat="34.860407" lon="139.020291"><ele>1278.3</ele><time>2021-08-07T02:24:05Z</time></trkpt><trkpt lat="34.86043" lon="139.02007"><ele>1270.2</ele><time>2021-08-07T02:25:27Z</time></trkpt><trkpt lat="34.860549" lon="139.019891"><ele>1260.7</ele><time>2021-08-07T02:27:11Z</time></trkpt><trkpt lat="34.860706" lon="139.019779"><ele>1252.8</ele><time>2021-08-07T02:28:35Z</time></trkpt><trkpt lat="34.860845" lon="139.01964"><ele>1246.0</ele><time>2021-08-07T02:30:01Z</time></trkpt><trkpt lat="34.860882" lon="139.019425"><ele>1240.9</ele><time>2021-08-07T02:30:45Z</time></trkpt><trkpt lat="34.86097" lon="139.019204"><ele>1239.0</ele><time>2021-08-07T02:31:41Z</time></trkpt><trkpt lat="34.861116" lon="139.019073"><ele>1241.0</ele><time>2021-08-07T02:32:27Z</time></trkpt><trkpt lat="34.861256" lon="139.018936"><ele>1244.5</ele><time>2021-08-07T02:33:05Z</time></trkpt><trkpt lat="34.861371" lon="139.018684"><ele>1247.8</ele><time>2021-08-07T02:33:39Z</time></trkpt><trkpt lat="34.861466" lon="139.018458"><ele>1248.7</ele><time>2021-08-07T02:34:07Z</time></trkpt><trkpt lat="34.861601" lon="139.018286"><ele>1248.4</ele><time>2021-08-07T02:34:41Z</time></trkpt><trkpt lat="34.861662" lon="139.018069"><ele>1248.2</ele><time>2021-08-07T02:35:15Z</time></trkpt><trkpt lat="34.861702" lon="139.017837"><ele>1249.5</ele><time>2021-08-07T02:35:47Z</time></trkpt><trkpt lat="34.861779" lon="139.017622"><ele>1253.0</ele><time>2021-08-07T02:36:45Z</time></trkpt><trkpt lat="34.861923" lon="139.017421"><ele>1255.8</ele><time>2021-08-07T02:37:17Z</time></trkpt><trkpt lat="34.861999" lon="139.017202"><ele>1258.5</ele><time>2021-08-07T02:38:47Z</time></trkpt><trkpt lat="34.861974" lon="139.016981"><ele>1264.1</ele><time>2021-08-07T02:39:51Z</time></trkpt><trkpt lat="34.862061" lon="139.016788"><ele>1271.8</ele><time>2021-08-07T02:40:31Z</time></trkpt><trkpt lat="34.862069" lon="139.016469"><ele>1280.5</ele><time>2021-08-07T02:42:41Z</time></trkpt><trkpt lat="34.862062" lon="139.016395"><ele>1281.7</ele><time>2021-08-07T03:01:02Z</time></trkpt><trkpt lat="34.862055" lon="139.01632"><ele>1283.2</ele><time>2021-08-07T03:01:02Z</time></trkpt><trkpt lat="34.8619" lon="139.011734"><ele>1300.7</ele><time>2021-08-07T03:02:21Z</time></trkpt><trkpt lat="34.861874" lon="139.011487"><ele>1294.2</ele><time>2021-08-07T03:04:11Z</time></trkpt><trkpt lat="34.86191" lon="139.011266"><ele>1287.0</ele><time>2021-08-07T03:07:37Z</time></trkpt><trkpt lat="34.861934" lon="139.011036"><ele>1278.2</ele><time>2021-08-07T03:11:07Z</time></trkpt><trkpt lat="34.861954" lon="139.010807"><ele>1267.6</ele><time>2021-08-07T03:16:21Z</time></trkpt><trkpt lat="34.861906" lon="139.010583"><ele>1260.2</ele><time>2021-08-07T03:19:01Z</time></trkpt><trkpt lat="34.861796" lon="139.010403"><ele>1258.3</ele><time>2021-08-07T03:24:49Z</time></trkpt><trkpt lat="34.861784" lon="139.010176"><ele>1262.0</ele><time>2021-08-07T03:26:17Z</time></trkpt><trkpt lat="34.861772" lon="139.009958"><ele>1268.4</ele><time>2021-08-07T03:27:29Z</time></trkpt><trkpt lat="34.861689" lon="139.009756"><ele>1274.9</ele><time>2021-08-07T03:28:47Z</time></trkpt><trkpt lat="34.861779" lon="139.009531"><ele>1276.8</ele><time>2021-08-07T03:29:27Z</time></trkpt><trkpt lat="34.861827" lon="139.009319"><ele>1275.1</ele><time>2021-08-07T03:30:09Z</time></trkpt><trkpt lat="34.861918" lon="139.009115"><ele>1275.6</ele><time>2021-08-07T03:31:13Z</time></trkpt><trkpt lat="34.862071" lon="139.008964"><ele>1274.1</ele><time>2021-08-07T03:32:25Z</time></trkpt><trkpt lat="34.862215" lon="139.008804"><ele>1271.8</ele><time>2021-08-07T03:32:59Z</time></trkpt><trkpt lat="34.862288" lon="139.008603"><ele>1271.3</ele><time>2021-08-07T03:34:13Z</time></trkpt><trkpt lat="34.862395" lon="139.008402"><ele>1272.1</ele><time>2021-08-07T03:34:41Z</time></trkpt><trkpt lat="34.862514" lon="139.008211"><ele>1276.0</ele><time>2021-08-07T03:35:39Z</time></trkpt><trkpt lat="34.862647" lon="139.008025"><ele>1282.6</ele><time>2021-08-07T03:37:21Z</time></trkpt><trkpt lat="34.862773" lon="139.00779"><ele>1291.4</ele><time>2021-08-07T03:38:19Z</time></trkpt><trkpt lat="34.86293" lon="139.007658"><ele>1297.2</ele><time>2021-08-07T03:38:47Z</time></trkpt><trkpt lat="34.863025" lon="139.007443"><ele>1303.5</ele><time>2021-08-07T03:39:33Z</time></trkpt><trkpt lat="34.863095" lon="139.007229"><ele>1308.4</ele><time>2021-08-07T03:40:29Z</time></trkpt><trkpt lat="34.863182" lon="139.007031"><ele>1312.1</ele><time>2021-08-07T03:41:09Z</time></trkpt><trkpt lat="34.863278" lon="139.006793"><ele>1314.7</ele><time>2021-08-07T03:41:37Z</time></trkpt><trkpt lat="34.86331" lon="139.006554"><ele>1316.6</ele><time>2021-08-07T03:42:07Z</time></trkpt><trkpt lat="34.863276" lon="139.006316"><ele>1317.4</ele><time>2021-08-07T03:42:37Z</time></trkpt><trkpt lat="34.863233" lon="139.006084"><ele>1317.0</ele><time>2021-08-07T03:42:55Z</time></trkpt><trkpt lat="34.863156" lon="139.005877"><ele>1316.9</ele><time>2021-08-07T03:43:15Z</time></trkpt><trkpt lat="34.863038" lon="139.005672"><ele>1317.9</ele><time>2021-08-07T03:43:49Z</time></trkpt><trkpt lat="34.862847" lon="139.005622"><ele>1319.5</ele><time>2021-08-07T03:45:09Z</time></trkpt><trkpt lat="34.862757" lon="139.005425"><ele>1323.0</ele><time>2021-08-07T03:46:11Z</time></trkpt><trkpt lat="34.862659" lon="139.00524"><ele>1327.0</ele><time>2021-08-07T03:46:29Z</time></trkpt><trkpt lat="34.862619" lon="139.005023"><ele>1329.3</ele><time>2021-08-07T03:46:41Z</time></trkpt><trkpt lat="34.862571" lon="139.004794"><ele>1330.3</ele><time>2021-08-07T03:47:17Z</time></trkpt><trkpt lat="34.862609" lon="139.004546"><ele>1331.1</ele><time>2021-08-07T03:48:35Z</time></trkpt><trkpt lat="34.862675" lon="139.004336"><ele>1330.6</ele><time>2021-08-07T03:49:35Z</time></trkpt><trkpt lat="34.862735" lon="139.004055"><ele>1329.4</ele><time>2021-08-07T03:50:11Z</time></trkpt><trkpt lat="34.862822" lon="139.003862"><ele>1328.3</ele><time>2021-08-07T03:50:27Z</time></trkpt><trkpt lat="34.862959" lon="139.003659"><ele>1327.4</ele><time>2021-08-07T03:51:14Z</time></trkpt><trkpt lat="34.863084" lon="139.003476"><ele>1327.6</ele><time>2021-08-07T03:51:52Z</time></trkpt><trkpt lat="34.86314" lon="139.003253"><ele>1329.0</ele><time>2021-08-07T03:52:40Z</time></trkpt><trkpt lat="34.863139" lon="139.003004"><ele>1332.2</ele><time>2021-08-07T03:53:54Z</time></trkpt><trkpt lat="34.863134" lon="139.002754"><ele>1336.9</ele><time>2021-08-07T03:55:10Z</time></trkpt><trkpt lat="34.863088" lon="139.00252"><ele>1343.7</ele><time>2021-08-07T03:55:40Z</time></trkpt><trkpt lat="34.863063" lon="139.002298"><ele>1351.5</ele><time>2021-08-07T03:57:28Z</time></trkpt><trkpt lat="34.862943" lon="139.002086"><ele>1363.6</ele><time>2021-08-07T03:59:42Z</time></trkpt><trkpt lat="34.862882" lon="139.001878"><ele>1368.8</ele><time>2021-08-07T04:12:02Z</time></trkpt><trkpt lat="34.862929" lon="139.001656"><ele>1371.1</ele><time>2021-08-07T04:12:58Z</time></trkpt><trkpt lat="34.86296" lon="139.001433"><ele>1371.7</ele><time>2021-08-07T04:13:20Z</time></trkpt><trkpt lat="34.863035" lon="139.001217"><ele>1373.7</ele><time>2021-08-07T04:13:50Z</time></trkpt><trkpt lat="34.863068" lon="139.001002"><ele>1376.4</ele><time>2021-08-07T04:14:22Z</time></trkpt><trkpt lat="34.863138" lon="139.000757"><ele>1378.1</ele><time>2021-08-07T04:15:36Z</time></trkpt><trkpt lat="34.863218" lon="139.00056"><ele>1383.6</ele><time>2021-08-07T04:16:08Z</time></trkpt><trkpt lat="34.863271" lon="139.000337"><ele>1387.5</ele><time>2021-08-07T04:17:08Z</time></trkpt><trkpt lat="34.863348" lon="139.000136"><ele>1389.5</ele><time>2021-08-07T04:17:52Z</time></trkpt><trkpt lat="34.863459" lon="138.999938"><ele>1390.2</ele><time>2021-08-07T04:18:24Z</time></trkpt><trkpt lat="34.863589" lon="138.999741"><ele>1389.4</ele><time>2021-08-07T04:19:00Z</time></trkpt><trkpt lat="34.863688" lon="138.999552"><ele>1386.7</ele><time>2021-08-07T04:19:38Z</time></trkpt><trkpt lat="34.863816" lon="138.999377"><ele>1383.0</ele><time>2021-08-07T04:20:04Z</time></trkpt><trkpt lat="34.863976" lon="138.999259"><ele>1379.6</ele><time>2021-08-07T04:21:18Z</time></trkpt><trkpt lat="34.864119" lon="138.999093"><ele>1373.0</ele><time>2021-08-07T04:21:40Z</time></trkpt><trkpt lat="34.864287" lon="138.999193"><ele>1364.1</ele><time>2021-08-07T04:25:02Z</time></trkpt><trkpt lat="34.864485" lon="138.999278"><ele>1352.5</ele><time>2021-08-07T04:26:16Z</time></trkpt><trkpt lat="34.864665" lon="138.999374"><ele>1343.0</ele><time>2021-08-07T04:31:04Z</time></trkpt><trkpt lat="34.864843" lon="138.999491"><ele>1333.6</ele><time>2021-08-07T04:31:30Z</time></trkpt><trkpt lat="34.864979" lon="138.999674"><ele>1326.6</ele><time>2021-08-07T04:34:14Z</time></trkpt><trkpt lat="34.865158" lon="138.999707"><ele>1318.5</ele><time>2021-08-07T04:34:46Z</time></trkpt><trkpt lat="34.865319" lon="138.999824"><ele>1310.3</ele><time>2021-08-07T04:37:28Z</time></trkpt><trkpt lat="34.865507" lon="138.999865"><ele>1301.0</ele><time>2021-08-07T04:38:58Z</time></trkpt><trkpt lat="34.865669" lon="138.999735"><ele>1291.2</ele><time>2021-08-07T04:40:34Z</time></trkpt><trkpt lat="34.865851" lon="138.999761"><ele>1282.5</ele><time>2021-08-07T04:41:34Z</time></trkpt><trkpt lat="34.866002" lon="138.999923"><ele>1272.4</ele><time>2021-08-07T04:46:27Z</time></trkpt><trkpt lat="34.86617" lon="139.000014"><ele>1263.7</ele><time>2021-08-07T04:47:21Z</time></trkpt><trkpt lat="34.866407" lon="138.999918"><ele>1252.0</ele><time>2021-08-07T04:51:09Z</time></trkpt><trkpt lat="34.866626" lon="138.999958"><ele>1242.3</ele><time>2021-08-07T04:51:49Z</time></trkpt><trkpt lat="34.866815" lon="139.00001"><ele>1233.3</ele><time>2021-08-07T04:52:47Z</time></trkpt><trkpt lat="34.867007" lon="139.000093"><ele>1223.5</ele><time>2021-08-07T04:53:47Z</time></trkpt><trkpt lat="34.867125" lon="138.999867"><ele>1212.9</ele><time>2021-08-07T04:56:05Z</time></trkpt><trkpt lat="34.867296" lon="138.999784"><ele>1203.9</ele><time>2021-08-07T04:58:11Z</time></trkpt><trkpt lat="34.867482" lon="138.999796"><ele>1195.7</ele><time>2021-08-07T04:59:03Z</time></trkpt><trkpt lat="34.867667" lon="138.999729"><ele>1187.3</ele><time>2021-08-07T04:59:55Z</time></trkpt><trkpt lat="34.867847" lon="138.999775"><ele>1180.6</ele><time>2021-08-07T05:02:03Z</time></trkpt><trkpt lat="34.867902" lon="138.999999"><ele>1175.7</ele><time>2021-08-07T05:04:43Z</time></trkpt><trkpt lat="34.868045" lon="139.000137"><ele>1172.3</ele><time>2021-08-07T05:05:15Z</time></trkpt><trkpt lat="34.868131" lon="139.000354"><ele>1168.5</ele><time>2021-08-07T05:05:25Z</time></trkpt><trkpt lat="34.868271" lon="139.000508"><ele>1163.1</ele><time>2021-08-07T05:07:08Z</time></trkpt><trkpt lat="34.868223" lon="139.000726"><ele>1159.4</ele><time>2021-08-07T05:10:14Z</time></trkpt><trkpt lat="34.868061" lon="139.000867"><ele>1158.2</ele><time>2021-08-07T05:11:16Z</time></trkpt><trkpt lat="34.867913" lon="139.001021"><ele>1157.2</ele><time>2021-08-07T05:11:44Z</time></trkpt><trkpt lat="34.867767" lon="139.001155"><ele>1156.5</ele><time>2021-08-07T05:12:16Z</time></trkpt><trkpt lat="34.867662" lon="139.00135"><ele>1158.5</ele><time>2021-08-07T05:13:06Z</time></trkpt><trkpt lat="34.867681" lon="139.001586"><ele>1161.5</ele><time>2021-08-07T05:16:26Z</time></trkpt><trkpt lat="34.867838" lon="139.00171"><ele>1164.3</ele><time>2021-08-07T05:17:10Z</time></trkpt><trkpt lat="34.86794" lon="139.001927"><ele>1166.2</ele><time>2021-08-07T05:18:00Z</time></trkpt><trkpt lat="34.868026" lon="139.002135"><ele>1164.4</ele><time>2021-08-07T05:18:08Z</time></trkpt><trkpt lat="34.868039" lon="139.002378"><ele>1164.1</ele><time>2021-08-07T05:18:24Z</time></trkpt><trkpt lat="34.868116" lon="139.002595"><ele>1163.6</ele><time>2021-08-07T05:18:58Z</time></trkpt><trkpt lat="34.868011" lon="139.00279"><ele>1161.0</ele><time>2021-08-07T05:19:44Z</time></trkpt><trkpt lat="34.867923" lon="139.002986"><ele>1157.0</ele><time>2021-08-07T05:20:42Z</time></trkpt><trkpt lat="34.867845" lon="139.003184"><ele>1154.7</ele><time>2021-08-07T05:21:18Z</time></trkpt><trkpt lat="34.867709" lon="139.003368"><ele>1150.8</ele><time>2021-08-07T05:22:02Z</time></trkpt><trkpt lat="34.867656" lon="139.003578"><ele>1143.5</ele><time>2021-08-07T05:23:36Z</time></trkpt><trkpt lat="34.867686" lon="139.003834"><ele>1132.9</ele><time>2021-08-07T05:26:28Z</time></trkpt><trkpt lat="34.867589" lon="139.004048"><ele>1126.0</ele><time>2021-08-07T05:29:20Z</time></trkpt><trkpt lat="34.867495" lon="139.004265"><ele>1118.8</ele><time>2021-08-07T05:30:44Z</time></trkpt><trkpt lat="34.867423" lon="139.004473"><ele>1111.5</ele><time>2021-08-07T05:36:14Z</time></trkpt><trkpt lat="34.867283" lon="139.004639"><ele>1105.8</ele><time>2021-08-07T05:36:52Z</time></trkpt><trkpt lat="34.867101" lon="139.004616"><ele>1098.3</ele><time>2021-08-07T05:41:10Z</time></trkpt><trkpt lat="34.866941" lon="139.004733"><ele>1091.6</ele><time>2021-08-07T05:42:02Z</time></trkpt><trkpt lat="34.866845" lon="139.005015"><ele>1087.9</ele><time>2021-08-07T05:45:24Z</time></trkpt><trkpt lat="34.866805" lon="139.005229"><ele>1089.4</ele><time>2021-08-07T05:46:18Z</time></trkpt><trkpt lat="34.866882" lon="139.005455"><ele>1094.3</ele><time>2021-08-07T05:48:06Z</time></trkpt><trkpt lat="34.866974" lon="139.005646"><ele>1095.6</ele><time>2021-08-07T05:48:18Z</time></trkpt><trkpt lat="34.867039" lon="139.005859"><ele>1094.2</ele><time>2021-08-07T05:51:06Z</time></trkpt><trkpt lat="34.867157" lon="139.006087"><ele>1091.8</ele><time>2021-08-07T05:52:52Z</time></trkpt><trkpt lat="34.867058" lon="139.006293"><ele>1090.6</ele><time>2021-08-07T05:54:50Z</time></trkpt><trkpt lat="34.867051" lon="139.00652"><ele>1091.0</ele><time>2021-08-07T05:55:28Z</time></trkpt><trkpt lat="34.86702" lon="139.006737"><ele>1091.2</ele><time>2021-08-07T05:56:14Z</time></trkpt><trkpt lat="34.866944" lon="139.006953"><ele>1090.2</ele><time>2021-08-07T05:58:10Z</time></trkpt><trkpt lat="34.866988" lon="139.007177"><ele>1090.6</ele><time>2021-08-07T05:59:08Z</time></trkpt><trkpt lat="34.866873" lon="139.007359"><ele>1092.1</ele><time>2021-08-07T05:59:42Z</time></trkpt><trkpt lat="34.866724" lon="139.007543"><ele>1093.5</ele><time>2021-08-07T06:01:12Z</time></trkpt><trkpt lat="34.866762" lon="139.007759"><ele>1097.3</ele><time>2021-08-07T06:02:24Z</time></trkpt><trkpt lat="34.866793" lon="139.007993"><ele>1097.1</ele><time>2021-08-07T06:02:46Z</time></trkpt><trkpt lat="34.866743" lon="139.008215"><ele>1094.7</ele><time>2021-08-07T06:03:26Z</time></trkpt><trkpt lat="34.866926" lon="139.008275"><ele>1095.6</ele><time>2021-08-07T06:04:41Z</time></trkpt><trkpt lat="34.86712" lon="139.008333"><ele>1097.3</ele><time>2021-08-07T06:05:15Z</time></trkpt><trkpt lat="34.867308" lon="139.008415"><ele>1100.1</ele><time>2021-08-07T06:06:23Z</time></trkpt><trkpt lat="34.86763" lon="139.008334"><ele>1101.9</ele><time>2021-08-07T06:08:09Z</time></trkpt><trkpt lat="34.867837" lon="139.008278"><ele>1100.5</ele><time>2021-08-07T06:08:31Z</time></trkpt><trkpt lat="34.868025" lon="139.0083"><ele>1101.8</ele><time>2021-08-07T06:08:55Z</time></trkpt><trkpt lat="34.868278" lon="139.008258"><ele>1105.3</ele><time>2021-08-07T06:09:48Z</time></trkpt><trkpt lat="34.868487" lon="139.008269"><ele>1107.2</ele><time>2021-08-07T06:10:00Z</time></trkpt><trkpt lat="34.868737" lon="139.008334"><ele>1110.0</ele><time>2021-08-07T06:10:58Z</time></trkpt><trkpt lat="34.868935" lon="139.008362"><ele>1111.0</ele><time>2021-08-07T06:11:30Z</time></trkpt><trkpt lat="34.869127" lon="139.008446"><ele>1112.1</ele><time>2021-08-07T06:12:04Z</time></trkpt><trkpt lat="34.869288" lon="139.008572"><ele>1112.7</ele><time>2021-08-07T06:13:56Z</time></trkpt><trkpt lat="34.869497" lon="139.008705"><ele>1113.0</ele><time>2021-08-07T06:14:10Z</time></trkpt><trkpt lat="34.869672" lon="139.008761"><ele>1112.3</ele><time>2021-08-07T06:14:50Z</time></trkpt><trkpt lat="34.86988" lon="139.008786"><ele>1109.9</ele><time>2021-08-07T06:15:44Z</time></trkpt><trkpt lat="34.870061" lon="139.008871"><ele>1105.5</ele><time>2021-08-07T06:15:50Z</time></trkpt><trkpt lat="34.87024" lon="139.008971"><ele>1102.1</ele><time>2021-08-07T06:16:08Z</time></trkpt><trkpt lat="34.870406" lon="139.009077"><ele>1099.5</ele><time>2021-08-07T06:16:14Z</time></trkpt><trkpt lat="34.870607" lon="139.009039"><ele>1098.0</ele><time>2021-08-07T06:16:40Z</time></trkpt><trkpt lat="34.870828" lon="139.008973"><ele>1099.7</ele><time>2021-08-07T06:17:22Z</time></trkpt><trkpt lat="34.871012" lon="139.008886"><ele>1101.7</ele><time>2021-08-07T06:17:44Z</time></trkpt><trkpt lat="34.871183" lon="139.008796"><ele>1101.0</ele><time>2021-08-07T06:18:13Z</time></trkpt><trkpt lat="34.871374" lon="139.008717"><ele>1096.8</ele><time>2021-08-07T06:18:39Z</time></trkpt><trkpt lat="34.871573" lon="139.008768"><ele>1093.0</ele><time>2021-08-07T06:19:25Z</time></trkpt><trkpt lat="34.871733" lon="139.008915"><ele>1090.1</ele><time>2021-08-07T06:19:50Z</time></trkpt><trkpt lat="34.871846" lon="139.009101"><ele>1088.8</ele><time>2021-08-07T06:20:16Z</time></trkpt><trkpt lat="34.871979" lon="139.00928"><ele>1088.1</ele><time>2021-08-07T06:21:02Z</time></trkpt><trkpt lat="34.872025" lon="139.0095"><ele>1087.2</ele><time>2021-08-07T06:21:21Z</time></trkpt><trkpt lat="34.872095" lon="139.009756"><ele>1089.4</ele><time>2021-08-07T06:21:39Z</time></trkpt><trkpt lat="34.872032" lon="139.009966"><ele>1093.1</ele><time>2021-08-07T06:22:01Z</time></trkpt><trkpt lat="34.871863" lon="139.010068"><ele>1096.9</ele><time>2021-08-07T06:22:15Z</time></trkpt><trkpt lat="34.871715" lon="139.010229"><ele>1099.3</ele><time>2021-08-07T06:23:03Z</time></trkpt><trkpt lat="34.871615" lon="139.010427"><ele>1100.9</ele><time>2021-08-07T06:23:15Z</time></trkpt><trkpt lat="34.871485" lon="139.010596"><ele>1101.7</ele><time>2021-08-07T06:23:39Z</time></trkpt><trkpt lat="34.871449" lon="139.010813"><ele>1102.9</ele><time>2021-08-07T06:24:07Z</time></trkpt><trkpt lat="34.871412" lon="139.01103"><ele>1105.8</ele><time>2021-08-07T06:24:23Z</time></trkpt><trkpt lat="34.871275" lon="139.011176"><ele>1107.2</ele><time>2021-08-07T06:24:53Z</time></trkpt><trkpt lat="34.871199" lon="139.011397"><ele>1107.2</ele><time>2021-08-07T06:25:11Z</time></trkpt><trkpt lat="34.871109" lon="139.011602"><ele>1106.6</ele><time>2021-08-07T06:25:31Z</time></trkpt><trkpt lat="34.87099" lon="139.011769"><ele>1106.6</ele><time>2021-08-07T06:26:08Z</time></trkpt><trkpt lat="34.870846" lon="139.011927"><ele>1104.2</ele><time>2021-08-07T06:26:30Z</time></trkpt><trkpt lat="34.870669" lon="139.011997"><ele>1100.3</ele><time>2021-08-07T06:27:56Z</time></trkpt><trkpt lat="34.870652" lon="139.012227"><ele>1097.4</ele><time>2021-08-07T06:28:56Z</time></trkpt><trkpt lat="34.870558" lon="139.012422"><ele>1094.8</ele><time>2021-08-07T06:29:24Z</time></trkpt><trkpt lat="34.870402" lon="139.012545"><ele>1090.8</ele><time>2021-08-07T06:30:14Z</time></trkpt><trkpt lat="34.870214" lon="139.012661"><ele>1085.6</ele><time>2021-08-07T06:31:08Z</time></trkpt><trkpt lat="34.87003" lon="139.01278"><ele>1081.0</ele><time>2021-08-07T06:32:44Z</time></trkpt><trkpt lat="34.869856" lon="139.012723"><ele>1077.2</ele><time>2021-08-07T06:33:44Z</time></trkpt><trkpt lat="34.869889" lon="139.012946"><ele>1072.2</ele><time>2021-08-07T06:35:14Z</time></trkpt><trkpt lat="34.86994" lon="139.013183"><ele>1067.9</ele><time>2021-08-07T06:36:12Z</time></trkpt><trkpt lat="34.869968" lon="139.0134"><ele>1066.3</ele><time>2021-08-07T06:37:06Z</time></trkpt><trkpt lat="34.870017" lon="139.013644"><ele>1066.5</ele><time>2021-08-07T06:37:37Z</time></trkpt><trkpt lat="34.870052" lon="139.013877"><ele>1068.8</ele><time>2021-08-07T06:38:15Z</time></trkpt><trkpt lat="34.870021" lon="139.014103"><ele>1073.0</ele><time>2021-08-07T06:38:49Z</time></trkpt><trkpt lat="34.869954" lon="139.014318"><ele>1075.4</ele><time>2021-08-07T06:39:11Z</time></trkpt><trkpt lat="34.869916" lon="139.014561"><ele>1075.9</ele><time>2021-08-07T06:39:27Z</time></trkpt><trkpt lat="34.869824" lon="139.014786"><ele>1072.9</ele><time>2021-08-07T06:40:57Z</time></trkpt><trkpt lat="34.869782" lon="139.01502"><ele>1072.2</ele><time>2021-08-07T06:41:31Z</time></trkpt><trkpt lat="34.869796" lon="139.015255"><ele>1074.1</ele><time>2021-08-07T06:42:15Z</time></trkpt><trkpt lat="34.869973" lon="139.015385"><ele>1073.5</ele><time>2021-08-07T06:42:53Z</time></trkpt><trkpt lat="34.870124" lon="139.015532"><ele>1072.5</ele><time>2021-08-07T06:43:25Z</time></trkpt><trkpt lat="34.87024" lon="139.015733"><ele>1070.7</ele><time>2021-08-07T06:43:55Z</time></trkpt><trkpt lat="34.870262" lon="139.015956"><ele>1069.9</ele><time>2021-08-07T06:44:21Z</time></trkpt><trkpt lat="34.870229" lon="139.016177"><ele>1067.8</ele><time>2021-08-07T06:45:25Z</time></trkpt><trkpt lat="34.870094" lon="139.01639"><ele>1064.9</ele><time>2021-08-07T06:45:57Z</time></trkpt><trkpt lat="34.870074" lon="139.01661"><ele>1063.8</ele><time>2021-08-07T06:46:33Z</time></trkpt><trkpt lat="34.870104" lon="139.016827"><ele>1064.8</ele><time>2021-08-07T06:47:21Z</time></trkpt><trkpt lat="34.870178" lon="139.017059"><ele>1068.0</ele><time>2021-08-07T06:48:07Z</time></trkpt><trkpt lat="34.870258" lon="139.017261"><ele>1070.5</ele><time>2021-08-07T06:48:29Z</time></trkpt><trkpt lat="34.870317" lon="139.017492"><ele>1072.0</ele><time>2021-08-07T06:48:57Z</time></trkpt><trkpt lat="34.870222" lon="139.017687"><ele>1069.9</ele><time>2021-08-07T06:49:55Z</time></trkpt><trkpt lat="34.870125" lon="139.017874"><ele>1067.4</ele><time>2021-08-07T06:50:11Z</time></trkpt><trkpt lat="34.869996" lon="139.018055"><ele>1067.2</ele><time>2021-08-07T06:51:13Z</time></trkpt><trkpt lat="34.869781" lon="139.018185"><ele>1069.7</ele><time>2021-08-07T06:52:13Z</time></trkpt><trkpt lat="34.869878" lon="139.018373"><ele>1079.6</ele><time>2021-08-07T06:53:45Z</time></trkpt><trkpt lat="34.870084" lon="139.018342"><ele>1083.7</ele><time>2021-08-07T06:54:13Z</time></trkpt><trkpt lat="34.870211" lon="139.018518"><ele>1086.9</ele><time>2021-08-07T06:55:25Z</time></trkpt><trkpt lat="34.87023" lon="139.018765"><ele>1089.1</ele><time>2021-08-07T06:56:05Z</time></trkpt><trkpt lat="34.870347" lon="139.018964"><ele>1090.5</ele><time>2021-08-07T06:56:31Z</time></trkpt><trkpt lat="34.870384" lon="139.019198"><ele>1090.1</ele><time>2021-08-07T06:56:57Z</time></trkpt><trkpt lat="34.870421" lon="139.019425"><ele>1088.6</ele><time>2021-08-07T06:57:28Z</time></trkpt><trkpt lat="34.870416" lon="139.01966"><ele>1086.5</ele><time>2021-08-07T06:57:44Z</time></trkpt><trkpt lat="34.870464" lon="139.019884"><ele>1084.0</ele><time>2021-08-07T06:58:26Z</time></trkpt><trkpt lat="34.870615" lon="139.020028"><ele>1081.2</ele><time>2021-08-07T06:59:14Z</time></trkpt><trkpt lat="34.870708" lon="139.020218"><ele>1077.4</ele><time>2021-08-07T06:59:42Z</time></trkpt><trkpt lat="34.870827" lon="139.020397"><ele>1072.5</ele><time>2021-08-07T07:00:18Z</time></trkpt><trkpt lat="34.87085" lon="139.020625"><ele>1068.9</ele><time>2021-08-07T07:01:15Z</time></trkpt><trkpt lat="34.87086" lon="139.02086"><ele>1066.4</ele><time>2021-08-07T07:01:57Z</time></trkpt><trkpt lat="34.870934" lon="139.021094"><ele>1064.7</ele><time>2021-08-07T07:03:43Z</time></trkpt><trkpt lat="34.871148" lon="139.021177"><ele>1063.6</ele><time>2021-08-07T07:04:47Z</time></trkpt><trkpt lat="34.871325" lon="139.021244"><ele>1064.1</ele><time>2021-08-07T07:05:35Z</time></trkpt><trkpt lat="34.871529" lon="139.021434"><ele>1064.1</ele><time>2021-08-07T07:05:51Z</time></trkpt><trkpt lat="34.871656" lon="139.021604"><ele>1064.0</ele><time>2021-08-07T07:06:33Z</time></trkpt><trkpt lat="34.871817" lon="139.021712"><ele>1063.3</ele><time>2021-08-07T07:07:19Z</time></trkpt><trkpt lat="34.871916" lon="139.021904"><ele>1061.1</ele><time>2021-08-07T07:07:33Z</time></trkpt><trkpt lat="34.871932" lon="139.022135"><ele>1058.1</ele><time>2021-08-07T07:08:57Z</time></trkpt><trkpt lat="34.871985" lon="139.022359"><ele>1055.0</ele><time>2021-08-07T07:10:17Z</time></trkpt><trkpt lat="34.871966" lon="139.022593"><ele>1051.9</ele><time>2021-08-07T07:11:35Z</time></trkpt><trkpt lat="34.871901" lon="139.02283"><ele>1047.9</ele><time>2021-08-07T07:13:15Z</time></trkpt><trkpt lat="34.871971" lon="139.023059"><ele>1043.9</ele><time>2021-08-07T07:14:47Z</time></trkpt><trkpt lat="34.872104" lon="139.023228"><ele>1042.9</ele><time>2021-08-07T07:17:23Z</time></trkpt><trkpt lat="34.872264" lon="139.02345"><ele>1045.8</ele><time>2021-08-07T07:18:15Z</time></trkpt><trkpt lat="34.87242" lon="139.023628"><ele>1050.0</ele><time>2021-08-07T07:19:31Z</time></trkpt><trkpt lat="34.872609" lon="139.023619"><ele>1048.8</ele><time>2021-08-07T07:19:53Z</time></trkpt><trkpt lat="34.872804" lon="139.023606"><ele>1047.5</ele><time>2021-08-07T07:20:13Z</time></trkpt></trkseg></trk></gpx>