<?xml version='1.0' encoding='UTF-8'?><gpx creator="YAMAP - https://yamap.com" xsi:schemaLocation="http://www.topografix.com/GPX/1/1 http://www.topografix.com/GPX/1/1/gpx.xsd" version="1.1" xmlns="http://www.topografix.com/GPX/1/1" xmlns:xsi="http://www.w3.org/2001/XMLSchema-instance"><metadata><bounds maxlat="37.1395199395449" maxlon="139.9757917686611" minlat="37.12140424724648" minlon="139.94396381309227"/></metadata><trk><name>茶臼岳(那須岳)・隠居倉・朝日岳・剣が峰</name><number>1</number><trkseg><trkpt lat="37.12889105550677" lon="139.9754860719107"><ele>1468.537441253662</ele><time>2021-11-06T03:14:08Z</time></trkpt><trkpt lat="37.12874487843506" lon="139.97534850053805"><ele>1467.695557567291</ele><time>2021-11-06T03:15:54Z</time></trkpt><trkpt lat="37.1285554689203" lon="139.97531466491876"><ele>1470.3229642603546</ele><time>2021-11-06T03:16:16Z</time></trkpt><trkpt lat="37.12837011227447" lon="139.97528642064725"><ele>1473.7145783966407</ele><time>2021-11-06T03:16:36Z</time></trkpt><trkpt lat="37.12851686374071" lon="139.97514641102703"><ele>1474.252987329848</ele><time>2021-11-06T03:16:55Z</time></trkpt><trkpt lat="37.12866875984096" lon="139.97501264650285"><ele>1476.7687741126865</ele><time>2021-11-06T03:17:13Z</time></trkpt><trkpt lat="37.12882075586987" lon="139.9748833548553"><ele>1480.7140336111188</ele><time>2021-11-06T03:17:31Z</time></trkpt><trkpt lat="37.12899296717622" lon="139.97479461945684"><ele>1486.589889485389</ele><time>2021-11-06T03:17:50Z</time></trkpt><trkpt lat="37.129160941717835" lon="139.9746937904681"><ele>1485.5984182199463</ele><time>2021-11-06T03:18:07Z</time></trkpt><trkpt lat="37.129329154151804" lon="139.9745887826465"><ele>1486.1047730129212</ele><time>2021-11-06T03:18:24Z</time></trkpt><trkpt lat="37.12950435453407" lon="139.97447735307819"><ele>1487.5354314344004</ele><time>2021-11-06T03:18:41Z</time></trkpt><trkpt lat="37.12967497884645" lon="139.9743860637806"><ele>1488.9556623352692</ele><time>2021-11-06T03:19:39Z</time></trkpt><trkpt lat="37.12985720724126" lon="139.97437526065733"><ele>1494.9318931112066</ele><time>2021-11-06T03:20:03Z</time></trkpt><trkpt lat="37.13000977564002" lon="139.97451230423795"><ele>1501.3044936703518</ele><time>2021-11-06T03:20:41Z</time></trkpt><trkpt lat="37.13008853489116" lon="139.9743073401434"><ele>1504.8763346392661</ele><time>2021-11-06T03:21:02Z</time></trkpt><trkpt lat="37.13011143679986" lon="139.97407692428223"><ele>1511.5149710811675</ele><time>2021-11-06T03:21:24Z</time></trkpt><trkpt lat="37.13015921974906" lon="139.97385067216757"><ele>1517.928767606616</ele><time>2021-11-06T03:21:44Z</time></trkpt><trkpt lat="37.130129874777516" lon="139.97362798093846"><ele>1522.3179941484705</ele><time>2021-11-06T03:22:07Z</time></trkpt><trkpt lat="37.13012200203606" lon="139.97340277297855"><ele>1525.0129774780944</ele><time>2021-11-06T03:22:30Z</time></trkpt><trkpt lat="37.13011563441107" lon="139.97317048676553"><ele>1530.8055648384616</ele><time>2021-11-06T03:22:58Z</time></trkpt><trkpt lat="37.130142525329454" lon="139.97293630487147"><ele>1537.1713105216622</ele><time>2021-11-06T03:23:26Z</time></trkpt><trkpt lat="37.130135458510985" lon="139.97269303000948"><ele>1542.8559900987893</ele><time>2021-11-06T03:23:52Z</time></trkpt><trkpt lat="37.130110324220915" lon="139.97246927142635"><ele>1548.7211016463116</ele><time>2021-11-06T03:24:19Z</time></trkpt><trkpt lat="37.13007226730389" lon="139.97224440050257"><ele>1556.132875145413</ele><time>2021-11-06T03:24:45Z</time></trkpt><trkpt lat="37.130087809677704" lon="139.97200566109467"><ele>1558.5186193259433</ele><time>2021-11-06T03:25:10Z</time></trkpt><trkpt lat="37.13007364573806" lon="139.97177474156197"><ele>1565.9255460966378</ele><time>2021-11-06T03:25:45Z</time></trkpt><trkpt lat="37.130242465619865" lon="139.97167194164933"><ele>1568.8743109731004</ele><time>2021-11-06T03:26:04Z</time></trkpt><trkpt lat="37.13037487195345" lon="139.97151643403885"><ele>1572.023228276521</ele><time>2021-11-06T03:26:23Z</time></trkpt><trkpt lat="37.1304911283097" lon="139.97133613205227"><ele>1573.4437109762803</ele><time>2021-11-06T03:26:44Z</time></trkpt><trkpt lat="37.130609527335494" lon="139.97115600385456"><ele>1579.2114754859358</ele><time>2021-11-06T03:27:03Z</time></trkpt><trkpt lat="37.13065859430724" lon="139.97093873987134"><ele>1579.9184646494687</ele><time>2021-11-06T03:27:24Z</time></trkpt><trkpt lat="37.13065003665815" lon="139.970709224002"><ele>1585.6344681167975</ele><time>2021-11-06T03:27:49Z</time></trkpt><trkpt lat="37.13067281924543" lon="139.9704856344886"><ele>1593.4281929573044</ele><time>2021-11-06T03:28:14Z</time></trkpt><trkpt lat="37.13062778483423" lon="139.9702638857214"><ele>1595.6160657573491</ele><time>2021-11-06T03:28:39Z</time></trkpt><trkpt lat="37.13054054377445" lon="139.97005946041577"><ele>1599.8627864979208</ele><time>2021-11-06T03:29:06Z</time></trkpt><trkpt lat="37.13054332456404" lon="139.96983310701992"><ele>1603.8601592769846</ele><time>2021-11-06T03:29:31Z</time></trkpt><trkpt lat="37.130658260244644" lon="139.9696550054794"><ele>1606.6463660923764</ele><time>2021-11-06T03:29:51Z</time></trkpt><trkpt lat="37.13059810008809" lon="139.96944154787016"><ele>1609.620888106525</ele><time>2021-11-06T03:30:12Z</time></trkpt><trkpt lat="37.13058057073704" lon="139.96921270225707"><ele>1612.3556148828939</ele><time>2021-11-06T03:30:34Z</time></trkpt><trkpt lat="37.130593449252764" lon="139.9689685293375"><ele>1616.6700246455148</ele><time>2021-11-06T03:30:57Z</time></trkpt><trkpt lat="37.13056996501056" lon="139.96873169116319"><ele>1619.2484929040074</ele><time>2021-11-06T03:31:19Z</time></trkpt><trkpt lat="37.1305697972392" lon="139.96850324492144"><ele>1624.0373809402809</ele><time>2021-11-06T03:31:44Z</time></trkpt><trkpt lat="37.13057151472316" lon="139.9682705702101"><ele>1625.4851640313864</ele><time>2021-11-06T03:32:30Z</time></trkpt><trkpt lat="37.13053450431486" lon="139.96804934522206"><ele>1628.1111052967608</ele><time>2021-11-06T03:32:49Z</time></trkpt><trkpt lat="37.13036576898928" lon="139.96796343304663"><ele>1636.3860459383577</ele><time>2021-11-06T03:33:13Z</time></trkpt><trkpt lat="37.13028404595477" lon="139.9677517670456"><ele>1639.97260385938</ele><time>2021-11-06T03:33:35Z</time></trkpt><trkpt lat="37.13017980995128" lon="139.96756025672076"><ele>1642.300895131193</ele><time>2021-11-06T03:34:00Z</time></trkpt><trkpt lat="37.13021551565808" lon="139.9673360525757"><ele>1644.9766248706728</ele><time>2021-11-06T03:34:23Z</time></trkpt><trkpt lat="37.13011971467925" lon="139.96714517503483"><ele>1649.6469346862286</ele><time>2021-11-06T03:34:53Z</time></trkpt><trkpt lat="37.130090837394924" lon="139.96691295085344"><ele>1650.4604054940864</ele><time>2021-11-06T03:35:19Z</time></trkpt><trkpt lat="37.130027290471155" lon="139.96669587357482"><ele>1654.1906146053225</ele><time>2021-11-06T03:35:44Z</time></trkpt><trkpt lat="37.12995613900637" lon="139.96647902475613"><ele>1653.681520611979</ele><time>2021-11-06T03:36:07Z</time></trkpt><trkpt lat="37.129952839048215" lon="139.96625365707754"><ele>1654.8613845231012</ele><time>2021-11-06T03:36:32Z</time></trkpt><trkpt lat="37.12997690792929" lon="139.9660218154434"><ele>1657.8651492400095</ele><time>2021-11-06T03:36:57Z</time></trkpt><trkpt lat="37.130002832436304" lon="139.96578641863317"><ele>1660.9280680222437</ele><time>2021-11-06T03:37:22Z</time></trkpt><trkpt lat="37.13003760950832" lon="139.96556359706057"><ele>1662.940044128336</ele><time>2021-11-06T03:37:43Z</time></trkpt><trkpt lat="37.13004541159283" lon="139.96532851862767"><ele>1667.0373033061624</ele><time>2021-11-06T03:38:07Z</time></trkpt><trkpt lat="37.13003526957703" lon="139.96510247146165"><ele>1671.1766776777804</ele><time>2021-11-06T03:38:29Z</time></trkpt><trkpt lat="37.130047116333124" lon="139.96487335945775"><ele>1675.355140876025</ele><time>2021-11-06T03:38:56Z</time></trkpt><trkpt lat="37.130078421643596" lon="139.96464711616773"><ele>1680.0062574250624</ele><time>2021-11-06T03:39:18Z</time></trkpt><trkpt lat="37.13008277715406" lon="139.96442021046184"><ele>1683.7686616079882</ele><time>2021-11-06T03:39:41Z</time></trkpt><trkpt lat="37.13006289091625" lon="139.9641934635394"><ele>1686.8838381515816</ele><time>2021-11-06T03:40:04Z</time></trkpt><trkpt lat="37.13003991638054" lon="139.9639607900676"><ele>1690.195240786299</ele><time>2021-11-06T03:40:29Z</time></trkpt><trkpt lat="37.130016414378694" lon="139.9637334362696"><ele>1693.3354974035174</ele><time>2021-11-06T03:40:53Z</time></trkpt><trkpt lat="37.129986966960736" lon="139.96350305553912"><ele>1698.182043380104</ele><time>2021-11-06T03:41:17Z</time></trkpt><trkpt lat="37.12994587504352" lon="139.96327296798464"><ele>1700.2566024828702</ele><time>2021-11-06T03:41:47Z</time></trkpt><trkpt lat="37.12991597516788" lon="139.96305029517956"><ele>1704.0161697641015</ele><time>2021-11-06T03:42:13Z</time></trkpt><trkpt lat="37.129916404794805" lon="139.962822097746"><ele>1706.890759224072</ele><time>2021-11-06T03:42:36Z</time></trkpt><trkpt lat="37.130047394876854" lon="139.9626533623605"><ele>1710.1220676722005</ele><time>2021-11-06T03:43:04Z</time></trkpt><trkpt lat="37.13022702931371" lon="139.9626331436375"><ele>1712.361111749895</ele><time>2021-11-06T03:43:28Z</time></trkpt><trkpt lat="37.13039303943255" lon="139.96251117264634"><ele>1715.4129447638988</ele><time>2021-11-06T03:43:47Z</time></trkpt><trkpt lat="37.130554057054944" lon="139.96240410325183"><ele>1718.6299565825611</ele><time>2021-11-06T03:44:07Z</time></trkpt><trkpt lat="37.130654492611704" lon="139.96221351103864"><ele>1725.6224485281855</ele><time>2021-11-06T03:47:06Z</time></trkpt><trkpt lat="37.13051560724619" lon="139.96206412940086"><ele>1726.8771798843518</ele><time>2021-11-06T03:47:27Z</time></trkpt><trkpt lat="37.13035998672023" lon="139.96194044347888"><ele>1729.9489256311208</ele><time>2021-11-06T03:47:57Z</time></trkpt><trkpt lat="37.13034314263185" lon="139.961910060917"><ele>1730.3004290610552</ele><time>2021-11-06T03:48:00Z</time></trkpt><trkpt lat="37.130205865810716" lon="139.96176348796882"><ele>1733.4477032851428</ele><time>2021-11-06T03:48:21Z</time></trkpt><trkpt lat="37.13006009346125" lon="139.9616301810197"><ele>1735.7367571871728</ele><time>2021-11-06T03:48:41Z</time></trkpt><trkpt lat="37.129883507441086" lon="139.96156476926072"><ele>1741.4078975729644</ele><time>2021-11-06T03:49:08Z</time></trkpt><trkpt lat="37.12973509666262" lon="139.96169786586347"><ele>1744.0257765688002</ele><time>2021-11-06T03:49:35Z</time></trkpt><trkpt lat="37.129590709020036" lon="139.9618463846391"><ele>1743.280488340184</ele><time>2021-11-06T03:50:03Z</time></trkpt><trkpt lat="37.129429194371646" lon="139.961960507528"><ele>1746.5567442281172</ele><time>2021-11-06T03:50:22Z</time></trkpt><trkpt lat="37.12925049903996" lon="139.96201209778403"><ele>1751.131805258803</ele><time>2021-11-06T03:50:45Z</time></trkpt><trkpt lat="37.12908028632999" lon="139.96208840674396"><ele>1755.2505993712693</ele><time>2021-11-06T03:51:13Z</time></trkpt><trkpt lat="37.12890933835047" lon="139.96216635368654"><ele>1759.0695819091052</ele><time>2021-11-06T03:51:38Z</time></trkpt><trkpt lat="37.12879710169662" lon="139.96234768304583"><ele>1763.4695657836273</ele><time>2021-11-06T03:52:08Z</time></trkpt><trkpt lat="37.12868795090937" lon="139.96252837881315"><ele>1771.5917214285582</ele><time>2021-11-06T03:52:46Z</time></trkpt><trkpt lat="37.128594617195716" lon="139.962731781345"><ele>1777.1620684480295</ele><time>2021-11-06T03:53:16Z</time></trkpt><trkpt lat="37.128456419664644" lon="139.96288012372085"><ele>1783.4871451528743</ele><time>2021-11-06T03:53:44Z</time></trkpt><trkpt lat="37.12832604056626" lon="139.96303819405668"><ele>1787.3964672610164</ele><time>2021-11-06T03:54:16Z</time></trkpt><trkpt lat="37.12822249487116" lon="139.96322412478116"><ele>1790.584746029228</ele><time>2021-11-06T03:54:41Z</time></trkpt><trkpt lat="37.1281727765099" lon="139.96345543309138"><ele>1792.4344580266625</ele><time>2021-11-06T03:55:02Z</time></trkpt><trkpt lat="37.128144719126155" lon="139.96368168833447"><ele>1792.4818990789354</ele><time>2021-11-06T03:55:19Z</time></trkpt><trkpt lat="37.128087407065486" lon="139.96389926531373"><ele>1795.642312581651</ele><time>2021-11-06T03:55:36Z</time></trkpt><trkpt lat="37.128006687447645" lon="139.9641007010507"><ele>1796.6236744476482</ele><time>2021-11-06T03:55:55Z</time></trkpt><trkpt lat="37.12789349659994" lon="139.9642821467217"><ele>1799.9369635535404</ele><time>2021-11-06T03:56:20Z</time></trkpt><trkpt lat="37.127800501586464" lon="139.96448155737437"><ele>1805.9461264470592</ele><time>2021-11-06T03:56:42Z</time></trkpt><trkpt lat="37.127640179608306" lon="139.96458879973207"><ele>1810.6252453671768</ele><time>2021-11-06T03:57:11Z</time></trkpt><trkpt lat="37.12749525868198" lon="139.96472463463306"><ele>1814.5289659975097</ele><time>2021-11-06T03:57:48Z</time></trkpt><trkpt lat="37.127390224740935" lon="139.96491081203658"><ele>1815.6744863837957</ele><time>2021-11-06T03:58:22Z</time></trkpt><trkpt lat="37.12726839016979" lon="139.96507672569524"><ele>1816.6611259309575</ele><time>2021-11-06T03:58:44Z</time></trkpt><trkpt lat="37.127099285047606" lon="139.96516600116405"><ele>1818.8209862569347</ele><time>2021-11-06T03:59:10Z</time></trkpt><trkpt lat="37.12691910732011" lon="139.9652177041148"><ele>1825.7273325407878</ele><time>2021-11-06T03:59:40Z</time></trkpt><trkpt lat="37.126748997427256" lon="139.9652968191427"><ele>1829.2577404938638</ele><time>2021-11-06T04:00:08Z</time></trkpt><trkpt lat="37.12656745675076" lon="139.96530880047663"><ele>1839.4848444759846</ele><time>2021-11-06T04:00:41Z</time></trkpt><trkpt lat="37.12638945399622" lon="139.9653756848183"><ele>1845.7552664419636</ele><time>2021-11-06T04:01:06Z</time></trkpt><trkpt lat="37.12620998498571" lon="139.9653544635329"><ele>1849.8367328317836</ele><time>2021-11-06T04:01:42Z</time></trkpt><trkpt lat="37.12603713429688" lon="139.96528846202952"><ele>1857.6584018412977</ele><time>2021-11-06T04:02:15Z</time></trkpt><trkpt lat="37.12595602973081" lon="139.96508554238423"><ele>1864.3134128004313</ele><time>2021-11-06T04:03:24Z</time></trkpt><trkpt lat="37.12588034910218" lon="139.9648737944189"><ele>1872.4143747407943</ele><time>2021-11-06T04:04:02Z</time></trkpt><trkpt lat="37.12573809439769" lon="139.96473473352188"><ele>1879.9786364678293</ele><time>2021-11-06T04:04:49Z</time></trkpt><trkpt lat="37.12555633809614" lon="139.96468722640964"><ele>1883.1502829212695</ele><time>2021-11-06T04:05:24Z</time></trkpt><trkpt lat="37.12537225404754" lon="139.96470242380056"><ele>1885.7087933802977</ele><time>2021-11-06T04:05:48Z</time></trkpt><trkpt lat="37.12519085934548" lon="139.9647374647786"><ele>1890.5434269597754</ele><time>2021-11-06T04:06:20Z</time></trkpt><trkpt lat="37.125028414461035" lon="139.96461709976825"><ele>1894.3839259985834</ele><time>2021-11-06T04:06:58Z</time></trkpt><trkpt lat="37.12499945397281" lon="139.9643902114863"><ele>1895.9039417076856</ele><time>2021-11-06T04:07:19Z</time></trkpt><trkpt lat="37.12494649670792" lon="139.96416308236394"><ele>1895.96295040939</ele><time>2021-11-06T04:07:52Z</time></trkpt><trkpt lat="37.12486896549982" lon="139.9639557483055"><ele>1898.546022838913</ele><time>2021-11-06T04:08:18Z</time></trkpt><trkpt lat="37.12478231255045" lon="139.96375470910402"><ele>1902.51811996568</ele><time>2021-11-06T04:08:44Z</time></trkpt><trkpt lat="37.124789874974354" lon="139.96352234971724"><ele>1905.42806325946</ele><time>2021-11-06T04:09:11Z</time></trkpt><trkpt lat="37.124860989965974" lon="139.96330751155256"><ele>1909.8385452106595</ele><time>2021-11-06T04:11:31Z</time></trkpt><trkpt lat="37.124886271453285" lon="139.96307537007587"><ele>1910.303791477345</ele><time>2021-11-06T04:12:29Z</time></trkpt><trkpt lat="37.125086315616365" lon="139.96274021105464"><ele>1904.3091340959072</ele><time>2021-11-06T04:20:58Z</time></trkpt><trkpt lat="37.125086315616365" lon="139.96274021105464"><ele>1904.3091340959072</ele><time>2021-11-06T04:20:58Z</time></trkpt><trkpt lat="37.125258944468555" lon="139.96265778240786"><ele>1899.0845498545095</ele><time>2021-11-06T04:23:59Z</time></trkpt><trkpt lat="37.12542745593952" lon="139.96256857743026"><ele>1897.767270743847</ele><time>2021-11-06T04:24:30Z</time></trkpt><trkpt lat="37.1256244571392" lon="139.96253058912092"><ele>1891.6182503299788</ele><time>2021-11-06T04:25:08Z</time></trkpt><trkpt lat="37.12579680978422" lon="139.96246240494813"><ele>1887.3671836769208</ele><time>2021-11-06T04:25:56Z</time></trkpt><trkpt lat="37.125970328611416" lon="139.962569360221"><ele>1885.7396202757955</ele><time>2021-11-06T04:26:26Z</time></trkpt><trkpt lat="37.126142849721134" lon="139.96263940100312"><ele>1888.2744453223422</ele><time>2021-11-06T04:26:48Z</time></trkpt><trkpt lat="37.12623353787316" lon="139.96283567242725"><ele>1887.6654881630093</ele><time>2021-11-06T04:27:09Z</time></trkpt><trkpt lat="37.12626973547431" lon="139.96305862116844"><ele>1888.1336714504287</ele><time>2021-11-06T04:28:14Z</time></trkpt><trkpt lat="37.12615477836791" lon="139.96323362111508"><ele>1885.9307127231732</ele><time>2021-11-06T04:29:06Z</time></trkpt><trkpt lat="37.12610318097288" lon="139.96345531065347"><ele>1886.387050847523</ele><time>2021-11-06T04:29:27Z</time></trkpt><trkpt lat="37.12600891047821" lon="139.96365083992418"><ele>1883.9447408849373</ele><time>2021-11-06T04:29:50Z</time></trkpt><trkpt lat="37.125926640062026" lon="139.96385420118062"><ele>1880.6299762455747</ele><time>2021-11-06T04:30:08Z</time></trkpt><trkpt lat="37.125885968929275" lon="139.96407614834348"><ele>1879.3234574012458</ele><time>2021-11-06T04:30:26Z</time></trkpt><trkpt lat="37.12580825612213" lon="139.96428187485787"><ele>1879.7432183139026</ele><time>2021-11-06T04:30:44Z</time></trkpt><trkpt lat="37.12577397805728" lon="139.96451123467722"><ele>1879.5149832013994</ele><time>2021-11-06T04:31:03Z</time></trkpt><trkpt lat="37.12572048015107" lon="139.9647283287028"><ele>1878.176137198694</ele><time>2021-11-06T04:31:29Z</time></trkpt><trkpt lat="37.12553816440924" lon="139.96475005181003"><ele>1880.3848698129877</ele><time>2021-11-06T04:32:10Z</time></trkpt><trkpt lat="37.12543096966329" lon="139.96494094687736"><ele>1880.2975456239656</ele><time>2021-11-06T04:32:28Z</time></trkpt><trkpt lat="37.125489070886104" lon="139.96516044282464"><ele>1873.3749245284125</ele><time>2021-11-06T04:33:00Z</time></trkpt><trkpt lat="37.125589784641086" lon="139.9653502368226"><ele>1863.6193481152877</ele><time>2021-11-06T04:33:43Z</time></trkpt><trkpt lat="37.125552034394545" lon="139.96557426866428"><ele>1852.6709104012698</ele><time>2021-11-06T04:34:57Z</time></trkpt><trkpt lat="37.1254256440719" lon="139.96574691514388"><ele>1847.9012054931372</ele><time>2021-11-06T04:35:25Z</time></trkpt><trkpt lat="37.125245065180316" lon="139.96572421726927"><ele>1848.6499376399443</ele><time>2021-11-06T04:35:56Z</time></trkpt><trkpt lat="37.125066233182814" lon="139.96577549564822"><ele>1841.4171913545579</ele><time>2021-11-06T04:36:28Z</time></trkpt><trkpt lat="37.12488352092491" lon="139.96579388741984"><ele>1836.0342188021168</ele><time>2021-11-06T04:37:11Z</time></trkpt><trkpt lat="37.12477670750847" lon="139.9659780040877"><ele>1831.6279831063002</ele><time>2021-11-06T04:37:53Z</time></trkpt><trkpt lat="37.1246735871576" lon="139.96616442710624"><ele>1818.8489062739536</ele><time>2021-11-06T04:38:46Z</time></trkpt><trkpt lat="37.12458728988276" lon="139.9663620955259"><ele>1810.8084710035473</ele><time>2021-11-06T04:39:46Z</time></trkpt><trkpt lat="37.12456312322795" lon="139.96658666676836"><ele>1805.940448670648</ele><time>2021-11-06T04:40:13Z</time></trkpt><trkpt lat="37.12443828211407" lon="139.96675096989992"><ele>1799.361873921007</ele><time>2021-11-06T04:41:30Z</time></trkpt><trkpt lat="37.12436921580429" lon="139.9669628018971"><ele>1795.4212137181312</ele><time>2021-11-06T04:41:58Z</time></trkpt><trkpt lat="37.12422536083329" lon="139.96710036354602"><ele>1787.6292689656839</ele><time>2021-11-06T04:42:36Z</time></trkpt><trkpt lat="37.1241166563109" lon="139.9672817620174"><ele>1779.7320847455412</ele><time>2021-11-06T04:43:18Z</time></trkpt><trkpt lat="37.124012679409496" lon="139.9674703206185"><ele>1773.4578601308167</ele><time>2021-11-06T04:43:51Z</time></trkpt><trkpt lat="37.123890262492765" lon="139.96763812163792"><ele>1769.6005231197923</ele><time>2021-11-06T04:44:13Z</time></trkpt><trkpt lat="37.12386433405988" lon="139.96786208740372"><ele>1764.707509741187</ele><time>2021-11-06T04:44:36Z</time></trkpt><trkpt lat="37.12372301752955" lon="139.9680143989233"><ele>1760.2896238621324</ele><time>2021-11-06T04:45:04Z</time></trkpt><trkpt lat="37.12364987585557" lon="139.96823127695518"><ele>1756.6505312239751</ele><time>2021-11-06T04:45:18Z</time></trkpt><trkpt lat="37.12353365213941" lon="139.96841810681855"><ele>1750.8143056323752</ele><time>2021-11-06T04:45:41Z</time></trkpt><trkpt lat="37.12343793216329" lon="139.96860944181404"><ele>1745.2116221347824</ele><time>2021-11-06T04:46:00Z</time></trkpt><trkpt lat="37.12332578728774" lon="139.9687906174059"><ele>1737.0124736931175</ele><time>2021-11-06T04:46:24Z</time></trkpt><trkpt lat="37.1232424349654" lon="139.96899162384858"><ele>1730.9515594393015</ele><time>2021-11-06T04:46:42Z</time></trkpt><trkpt lat="37.12313046862568" lon="139.96917384650328"><ele>1724.154084533453</ele><time>2021-11-06T04:47:06Z</time></trkpt><trkpt lat="37.12299626045122" lon="139.96902022967936"><ele>1715.8201574673876</ele><time>2021-11-06T04:47:59Z</time></trkpt><trkpt lat="37.12301876734947" lon="139.96879614518176"><ele>1717.3081019641832</ele><time>2021-11-06T04:48:17Z</time></trkpt><trkpt lat="37.12299193331876" lon="139.9685688834331"><ele>1716.0853623719886</ele><time>2021-11-06T04:48:33Z</time></trkpt><trkpt lat="37.12286622571928" lon="139.96840142176907"><ele>1714.7938936892897</ele><time>2021-11-06T04:48:50Z</time></trkpt><trkpt lat="37.1226847638006" lon="139.96832268234215"><ele>1710.5634612357244</ele><time>2021-11-06T04:49:05Z</time></trkpt><trkpt lat="37.12252557245765" lon="139.9682091470573"><ele>1710.460644967854</ele><time>2021-11-06T04:49:22Z</time></trkpt><trkpt lat="37.12246462027006" lon="139.96799353960162"><ele>1712.068029959686</ele><time>2021-11-06T04:49:41Z</time></trkpt><trkpt lat="37.122509945802506" lon="139.9677720797195"><ele>1714.9801322575659</ele><time>2021-11-06T04:50:01Z</time></trkpt><trkpt lat="37.12247000994228" lon="139.9675410820213"><ele>1715.0131314937025</ele><time>2021-11-06T04:50:25Z</time></trkpt><trkpt lat="37.12238201692852" lon="139.96734000606952"><ele>1713.2466453360394</ele><time>2021-11-06T04:50:42Z</time></trkpt><trkpt lat="37.12231680515683" lon="139.96712292624164"><ele>1715.419122199528</ele><time>2021-11-06T04:51:01Z</time></trkpt><trkpt lat="37.122184984393606" lon="139.96695906694532"><ele>1713.993092293851</ele><time>2021-11-06T04:51:20Z</time></trkpt><trkpt lat="37.12205888999361" lon="139.9667913519295"><ele>1713.7798569286242</ele><time>2021-11-06T04:51:39Z</time></trkpt><trkpt lat="37.12196727370487" lon="139.96658918294526"><ele>1717.2010114118457</ele><time>2021-11-06T04:52:05Z</time></trkpt><trkpt lat="37.12177789237005" lon="139.96660542147697"><ele>1719.7915787119418</ele><time>2021-11-06T04:52:26Z</time></trkpt><trkpt lat="37.12159814463303" lon="139.96658743042838"><ele>1720.7938647950068</ele><time>2021-11-06T04:52:44Z</time></trkpt><trkpt lat="37.12146275170916" lon="139.966424581967"><ele>1724.0146124772727</ele><time>2021-11-06T04:53:05Z</time></trkpt><trkpt lat="37.12140424724648" lon="139.96620625601534"><ele>1726.7320718150586</ele><time>2021-11-06T04:53:21Z</time></trkpt><trkpt lat="37.121446669237656" lon="139.9659838534716"><ele>1728.1589022921398</ele><time>2021-11-06T04:53:36Z</time></trkpt><trkpt lat="37.121468416351256" lon="139.96575492683772"><ele>1728.945188190788</ele><time>2021-11-06T04:53:52Z</time></trkpt><trkpt lat="37.12152759045339" lon="139.9655421310721"><ele>1729.6169393528253</ele><time>2021-11-06T04:54:09Z</time></trkpt><trkpt lat="37.12152491326788" lon="139.96531540435154"><ele>1728.6111342459917</ele><time>2021-11-06T04:54:24Z</time></trkpt><trkpt lat="37.121457316693906" lon="139.96510085470152"><ele>1725.5690959338099</ele><time>2021-11-06T04:54:39Z</time></trkpt><trkpt lat="37.12143602650711" lon="139.96486596248192"><ele>1722.0089371828362</ele><time>2021-11-06T04:54:57Z</time></trkpt><trkpt lat="37.12141530977001" lon="139.96464219953074"><ele>1720.1164425350726</ele><time>2021-11-06T04:55:13Z</time></trkpt><trkpt lat="37.12142674588462" lon="139.9644171070981"><ele>1720.2089185500517</ele><time>2021-11-06T04:55:32Z</time></trkpt><trkpt lat="37.1214686524153" lon="139.9641860183248"><ele>1720.2868190966547</ele><time>2021-11-06T04:55:50Z</time></trkpt><trkpt lat="37.12156731346763" lon="139.9639969037116"><ele>1718.075761474669</ele><time>2021-11-06T04:56:07Z</time></trkpt><trkpt lat="37.1216659733899" lon="139.96379985916911"><ele>1718.05334066879</ele><time>2021-11-06T04:56:41Z</time></trkpt><trkpt lat="37.12172848286524" lon="139.96358862353364"><ele>1715.069948606193</ele><time>2021-11-06T04:56:58Z</time></trkpt><trkpt lat="37.12180474315356" lon="139.96337027750798"><ele>1712.210587571375</ele><time>2021-11-06T04:57:30Z</time></trkpt><trkpt lat="37.1219129605961" lon="139.96318880828903"><ele>1711.5491127707064</ele><time>2021-11-06T04:57:49Z</time></trkpt><trkpt lat="37.12199698567422" lon="139.9629790649028"><ele>1708.924438088201</ele><time>2021-11-06T04:58:07Z</time></trkpt><trkpt lat="37.12202832487805" lon="139.9627531233785"><ele>1705.7893852191046</ele><time>2021-11-06T04:58:54Z</time></trkpt><trkpt lat="37.12201517013418" lon="139.9625264139415"><ele>1703.5025845672935</ele><time>2021-11-06T04:59:12Z</time></trkpt><trkpt lat="37.121975036337766" lon="139.96228974461798"><ele>1701.1677074776962</ele><time>2021-11-06T04:59:32Z</time></trkpt><trkpt lat="37.12194722149002" lon="139.96206410086546"><ele>1698.9756278106943</ele><time>2021-11-06T04:59:50Z</time></trkpt><trkpt lat="37.12191412936545" lon="139.96183418029085"><ele>1696.4047409640625</ele><time>2021-11-06T05:00:15Z</time></trkpt><trkpt lat="37.12189897490146" lon="139.9616041346345"><ele>1695.0460954671726</ele><time>2021-11-06T05:00:39Z</time></trkpt><trkpt lat="37.12202036466918" lon="139.96142439167494"><ele>1699.4368305308744</ele><time>2021-11-06T05:01:48Z</time></trkpt><trkpt lat="37.122146967487424" lon="139.9612541173709"><ele>1702.272630869411</ele><time>2021-11-06T05:02:13Z</time></trkpt><trkpt lat="37.12218498037767" lon="139.96103106127933"><ele>1706.1303947465494</ele><time>2021-11-06T05:02:35Z</time></trkpt><trkpt lat="37.122253108016444" lon="139.9608211420341"><ele>1712.2536005619913</ele><time>2021-11-06T05:03:06Z</time></trkpt><trkpt lat="37.12226349428183" lon="139.96058599163712"><ele>1719.4111100928858</ele><time>2021-11-06T05:04:00Z</time></trkpt><trkpt lat="37.12229572203163" lon="139.96036118286736"><ele>1725.3046838724986</ele><time>2021-11-06T05:04:41Z</time></trkpt><trkpt lat="37.12245422661404" lon="139.9602438096876"><ele>1729.9884041016921</ele><time>2021-11-06T05:05:13Z</time></trkpt><trkpt lat="37.122569280401706" lon="139.96004880358632"><ele>1731.918582833372</ele><time>2021-11-06T05:05:43Z</time></trkpt><trkpt lat="37.12265591812467" lon="139.95983198588812"><ele>1732.352248606272</ele><time>2021-11-06T05:06:02Z</time></trkpt><trkpt lat="37.122763273066624" lon="139.95964743385113"><ele>1734.1739492993802</ele><time>2021-11-06T05:06:21Z</time></trkpt><trkpt lat="37.12287954540073" lon="139.95982181237855"><ele>1731.3753380188718</ele><time>2021-11-06T05:07:33Z</time></trkpt><trkpt lat="37.123042037503375" lon="139.95993001166931"><ele>1726.2140714982525</ele><time>2021-11-06T05:08:03Z</time></trkpt><trkpt lat="37.12321380008082" lon="139.9600314863429"><ele>1726.785471573472</ele><time>2021-11-06T05:08:24Z</time></trkpt><trkpt lat="37.12339835642036" lon="139.96007218587073"><ele>1728.5762566290796</ele><time>2021-11-06T05:08:45Z</time></trkpt><trkpt lat="37.12357052142081" lon="139.9599923463915"><ele>1730.6071345871314</ele><time>2021-11-06T05:09:13Z</time></trkpt><trkpt lat="37.12375194625325" lon="139.9599887469201"><ele>1733.5701821735129</ele><time>2021-11-06T05:09:29Z</time></trkpt><trkpt lat="37.123915432880445" lon="139.95989370367087"><ele>1734.5570084797218</ele><time>2021-11-06T05:09:45Z</time></trkpt><trkpt lat="37.12409845379489" lon="139.95985366822438"><ele>1736.6902989465743</ele><time>2021-11-06T05:10:05Z</time></trkpt><trkpt lat="37.124279587043176" lon="139.95980933440686"><ele>1739.9402517862618</ele><time>2021-11-06T05:10:24Z</time></trkpt><trkpt lat="37.12443436956756" lon="139.95992874567654"><ele>1742.2912446036935</ele><time>2021-11-06T05:10:44Z</time></trkpt><trkpt lat="37.1245690296735" lon="139.960095861256"><ele>1745.4452421478927</ele><time>2021-11-06T05:11:08Z</time></trkpt><trkpt lat="37.124732840477776" lon="139.960192468154"><ele>1746.0197056047618</ele><time>2021-11-06T05:11:29Z</time></trkpt><trkpt lat="37.12491909162792" lon="139.96017723520458"><ele>1747.3754169093445</ele><time>2021-11-06T05:14:36Z</time></trkpt><trkpt lat="37.12508435758408" lon="139.9600495984304"><ele>1747.2899275301024</ele><time>2021-11-06T05:14:54Z</time></trkpt><trkpt lat="37.12517205929322" lon="139.95984519672592"><ele>1747.8441471355036</ele><time>2021-11-06T05:15:10Z</time></trkpt><trkpt lat="37.12517869092427" lon="139.9596138762143"><ele>1746.022176737897</ele><time>2021-11-06T05:15:26Z</time></trkpt><trkpt lat="37.12535681211502" lon="139.95954008348798"><ele>1743.1388796474785</ele><time>2021-11-06T05:16:50Z</time></trkpt><trkpt lat="37.125538529042494" lon="139.95954582133652"><ele>1742.694267229177</ele><time>2021-11-06T05:17:07Z</time></trkpt><trkpt lat="37.12572907705256" lon="139.95954049096903"><ele>1742.3833097442985</ele><time>2021-11-06T05:17:23Z</time></trkpt><trkpt lat="37.12590867489319" lon="139.9595185540266"><ele>1741.1327899387106</ele><time>2021-11-06T05:17:40Z</time></trkpt><trkpt lat="37.126093248022656" lon="139.95954551333602"><ele>1740.4144265726209</ele><time>2021-11-06T05:17:57Z</time></trkpt><trkpt lat="37.12625817228543" lon="139.95966028074938"><ele>1739.089306193404</ele><time>2021-11-06T05:18:13Z</time></trkpt><trkpt lat="37.126404080856815" lon="139.9598144199684"><ele>1740.5817763926461</ele><time>2021-11-06T05:18:30Z</time></trkpt><trkpt lat="37.12658725045515" lon="139.959861578427"><ele>1738.986168295145</ele><time>2021-11-06T05:18:46Z</time></trkpt><trkpt lat="37.12675135236345" lon="139.95995651863194"><ele>1739.6975278956816</ele><time>2021-11-06T05:19:01Z</time></trkpt><trkpt lat="37.1269130844493" lon="139.96005929214238"><ele>1738.3742289021611</ele><time>2021-11-06T05:19:18Z</time></trkpt><trkpt lat="37.127080567068475" lon="139.9601482512583"><ele>1735.1782977413386</ele><time>2021-11-06T05:19:36Z</time></trkpt><trkpt lat="37.12725822307885" lon="139.9601862023973"><ele>1731.1301794983447</ele><time>2021-11-06T05:19:56Z</time></trkpt><trkpt lat="37.12744172870348" lon="139.96021147549254"><ele>1727.3843068080023</ele><time>2021-11-06T05:20:18Z</time></trkpt><trkpt lat="37.127613307045436" lon="139.96030376791393"><ele>1728.3940726434812</ele><time>2021-11-06T05:20:35Z</time></trkpt><trkpt lat="37.12778915109411" lon="139.96037238933545"><ele>1727.9612203519791</ele><time>2021-11-06T05:20:51Z</time></trkpt><trkpt lat="37.12794785805637" lon="139.96048074829454"><ele>1731.017727999948</ele><time>2021-11-06T05:21:30Z</time></trkpt><trkpt lat="37.12804028029579" lon="139.96068417719778"><ele>1736.6675415700302</ele><time>2021-11-06T05:21:54Z</time></trkpt><trkpt lat="37.128222825203686" lon="139.96074054358334"><ele>1736.4821284897625</ele><time>2021-11-06T05:22:11Z</time></trkpt><trkpt lat="37.12831578388186" lon="139.96093788658877"><ele>1735.338737713173</ele><time>2021-11-06T05:22:32Z</time></trkpt><trkpt lat="37.128408350279486" lon="139.96113520350713"><ele>1737.7973612677306</ele><time>2021-11-06T05:24:21Z</time></trkpt><trkpt lat="37.128566509766316" lon="139.961247442712"><ele>1738.7305271606892</ele><time>2021-11-06T05:24:48Z</time></trkpt><trkpt lat="37.12872848213273" lon="139.96134930221942"><ele>1738.8143812501803</ele><time>2021-11-06T05:25:25Z</time></trkpt><trkpt lat="37.12889597206641" lon="139.96144456631941"><ele>1738.2946349652484</ele><time>2021-11-06T05:25:40Z</time></trkpt><trkpt lat="37.12906555375062" lon="139.96153868081097"><ele>1737.4994684550911</ele><time>2021-11-06T05:25:56Z</time></trkpt><trkpt lat="37.129220784125664" lon="139.96167623860012"><ele>1738.4783596070483</ele><time>2021-11-06T05:26:10Z</time></trkpt><trkpt lat="37.129400325332995" lon="139.9617334074692"><ele>1738.4084851387888</ele><time>2021-11-06T05:26:23Z</time></trkpt><trkpt lat="37.12957991846233" lon="139.96169440017604"><ele>1736.4757713377476</ele><time>2021-11-06T05:26:37Z</time></trkpt><trkpt lat="37.12974494323113" lon="139.96159573428363"><ele>1736.9518357403576</ele><time>2021-11-06T05:26:50Z</time></trkpt><trkpt lat="37.129929307814294" lon="139.96162374499576"><ele>1737.0486883269623</ele><time>2021-11-06T05:27:17Z</time></trkpt><trkpt lat="37.13011014469861" lon="139.96167022699365"><ele>1733.4893838735297</ele><time>2021-11-06T05:27:45Z</time></trkpt><trkpt lat="37.13023765564759" lon="139.96183925538296"><ele>1730.2039281735197</ele><time>2021-11-06T05:28:02Z</time></trkpt><trkpt lat="37.13040061074997" lon="139.9619528346692"><ele>1726.2901699626818</ele><time>2021-11-06T05:28:21Z</time></trkpt><trkpt lat="37.13053861777728" lon="139.9621090119588"><ele>1723.1104964548722</ele><time>2021-11-06T05:28:40Z</time></trkpt><trkpt lat="37.13068690168789" lon="139.9622434205296"><ele>1720.7656782744452</ele><time>2021-11-06T05:28:59Z</time></trkpt><trkpt lat="37.13086041060916" lon="139.96234919921466"><ele>1720.1562305083498</ele><time>2021-11-06T05:30:15Z</time></trkpt><trkpt lat="37.131013037923665" lon="139.96220725282362"><ele>1717.9974897876382</ele><time>2021-11-06T05:30:33Z</time></trkpt><trkpt lat="37.13102183150949" lon="139.9619812766948"><ele>1711.859413344413</ele><time>2021-11-06T05:31:41Z</time></trkpt><trkpt lat="37.131208074714266" lon="139.96196581421222"><ele>1700.8597247740254</ele><time>2021-11-06T05:32:26Z</time></trkpt><trkpt lat="37.13138779197363" lon="139.96194446618603"><ele>1697.1894318675622</ele><time>2021-11-06T05:32:56Z</time></trkpt><trkpt lat="37.13153770369413" lon="139.9617976843668"><ele>1689.6011562645435</ele><time>2021-11-06T05:33:32Z</time></trkpt><trkpt lat="37.131718202974824" lon="139.96171484981318"><ele>1684.2066567866132</ele><time>2021-11-06T05:33:57Z</time></trkpt><trkpt lat="37.131897347306506" lon="139.9616546558216"><ele>1681.0620552059263</ele><time>2021-11-06T05:34:22Z</time></trkpt><trkpt lat="37.13205737177173" lon="139.9615385750022"><ele>1679.0674656732008</ele><time>2021-11-06T05:34:41Z</time></trkpt><trkpt lat="37.132211127019694" lon="139.9614028524527"><ele>1670.6244118362665</ele><time>2021-11-06T05:35:07Z</time></trkpt><trkpt lat="37.13237131497147" lon="139.96128751102032"><ele>1669.3181632664055</ele><time>2021-11-06T05:35:22Z</time></trkpt><trkpt lat="37.13248243550083" lon="139.96110334228592"><ele>1668.4507052758709</ele><time>2021-11-06T05:35:42Z</time></trkpt><trkpt lat="37.132676195474474" lon="139.96114624730018"><ele>1662.8138895509765</ele><time>2021-11-06T05:36:05Z</time></trkpt><trkpt lat="37.13285146198389" lon="139.96122122051153"><ele>1664.4109587147832</ele><time>2021-11-06T05:36:25Z</time></trkpt><trkpt lat="37.13301960225861" lon="139.96114003011994"><ele>1658.8365893447772</ele><time>2021-11-06T05:36:51Z</time></trkpt><trkpt lat="37.133192271637235" lon="139.9610696154879"><ele>1656.225970258005</ele><time>2021-11-06T05:37:12Z</time></trkpt><trkpt lat="37.133182907241846" lon="139.960844544659"><ele>1651.946754581295</ele><time>2021-11-06T05:37:50Z</time></trkpt><trkpt lat="37.133342139757914" lon="139.96071210094362"><ele>1642.9663040386513</ele><time>2021-11-06T05:38:18Z</time></trkpt><trkpt lat="37.13327582388164" lon="139.96049539650758"><ele>1637.8557798527181</ele><time>2021-11-06T05:38:52Z</time></trkpt><trkpt lat="37.133283282715674" lon="139.96026885076688"><ele>1631.3111475724727</ele><time>2021-11-06T05:39:19Z</time></trkpt><trkpt lat="37.1332323809142" lon="139.96004796726854"><ele>1626.2592114852741</ele><time>2021-11-06T05:39:49Z</time></trkpt><trkpt lat="37.133209873979254" lon="139.95981468762358"><ele>1619.8965408550575</ele><time>2021-11-06T05:40:15Z</time></trkpt><trkpt lat="37.133205793561594" lon="139.9595828282563"><ele>1615.8541157208383</ele><time>2021-11-06T05:40:38Z</time></trkpt><trkpt lat="37.133037766525746" lon="139.95966721043843"><ele>1613.289369923994</ele><time>2021-11-06T05:41:25Z</time></trkpt><trkpt lat="37.133282658937766" lon="139.95983761918555"><ele>1617.568627703935</ele><time>2021-11-06T05:42:10Z</time></trkpt><trkpt lat="37.1331220482092" lon="139.95969090661868"><ele>1618.2909692944959</ele><time>2021-11-06T05:42:17Z</time></trkpt><trkpt lat="37.13305046597536" lon="139.9594691706511"><ele>1610.2001077728346</ele><time>2021-11-06T05:43:56Z</time></trkpt><trkpt lat="37.132937562281064" lon="139.95928148247322"><ele>1607.1190567864105</ele><time>2021-11-06T05:44:18Z</time></trkpt><trkpt lat="37.13282630886682" lon="139.9591019808475"><ele>1610.4040957055986</ele><time>2021-11-06T05:44:39Z</time></trkpt><trkpt lat="37.13267562262841" lon="139.9589522321605"><ele>1609.2058345945552</ele><time>2021-11-06T05:45:00Z</time></trkpt><trkpt lat="37.132643519679725" lon="139.95871954866467"><ele>1598.5151499323547</ele><time>2021-11-06T05:45:19Z</time></trkpt><trkpt lat="37.13265900708176" lon="139.95849015719654"><ele>1591.7928636167198</ele><time>2021-11-06T05:45:42Z</time></trkpt><trkpt lat="37.13264064883399" lon="139.95826616258137"><ele>1586.5184209896252</ele><time>2021-11-06T05:46:07Z</time></trkpt><trkpt lat="37.132650576967954" lon="139.9580403376453"><ele>1580.4663502434269</ele><time>2021-11-06T05:46:34Z</time></trkpt><trkpt lat="37.13271140290464" lon="139.95782234148393"><ele>1574.0207227403298</ele><time>2021-11-06T05:46:58Z</time></trkpt><trkpt lat="37.13279391196044" lon="139.9576073479617"><ele>1571.1454500267282</ele><time>2021-11-06T05:47:25Z</time></trkpt><trkpt lat="37.13284403490133" lon="139.95738438511646"><ele>1565.7346625356004</ele><time>2021-11-06T05:47:42Z</time></trkpt><trkpt lat="37.13300926720569" lon="139.95747823770495"><ele>1561.2285739593208</ele><time>2021-11-06T05:48:19Z</time></trkpt><trkpt lat="37.133173964629634" lon="139.95757799432874"><ele>1559.322900209576</ele><time>2021-11-06T05:48:37Z</time></trkpt><trkpt lat="37.133348098312844" lon="139.95767130357194"><ele>1554.946735500358</ele><time>2021-11-06T05:49:32Z</time></trkpt><trkpt lat="37.13351601148356" lon="139.95758731964585"><ele>1557.6952263424173</ele><time>2021-11-06T05:50:15Z</time></trkpt><trkpt lat="37.133505961710945" lon="139.95736078004072"><ele>1558.6808646190912</ele><time>2021-11-06T05:50:33Z</time></trkpt><trkpt lat="37.13347761974392" lon="139.95713425178823"><ele>1555.6963388323784</ele><time>2021-11-06T05:50:54Z</time></trkpt><trkpt lat="37.133481910727646" lon="139.95690679165244"><ele>1553.9791972655803</ele><time>2021-11-06T05:51:10Z</time></trkpt><trkpt lat="37.133547809632724" lon="139.95668401028007"><ele>1551.8757053557783</ele><time>2021-11-06T05:51:26Z</time></trkpt><trkpt lat="37.13371014717047" lon="139.9565710894192"><ele>1550.6845242297277</ele><time>2021-11-06T05:51:46Z</time></trkpt><trkpt lat="37.133880118248406" lon="139.95646966514167"><ele>1549.429638473317</ele><time>2021-11-06T05:52:15Z</time></trkpt><trkpt lat="37.13386168028783" lon="139.95622179290308"><ele>1556.9750653477386</ele><time>2021-11-06T05:52:37Z</time></trkpt><trkpt lat="37.133981843421424" lon="139.95604469804607"><ele>1553.7127147139981</ele><time>2021-11-06T05:53:06Z</time></trkpt><trkpt lat="37.133934705961536" lon="139.9558257775014"><ele>1550.6164318388328</ele><time>2021-11-06T05:53:30Z</time></trkpt><trkpt lat="37.13400152037923" lon="139.95561284470907"><ele>1543.7828960660845</ele><time>2021-11-06T05:54:02Z</time></trkpt><trkpt lat="37.13410917873352" lon="139.95542804970083"><ele>1542.9187584547326</ele><time>2021-11-06T05:54:26Z</time></trkpt><trkpt lat="37.134159353145186" lon="139.95517890091827"><ele>1541.8375018490478</ele><time>2021-11-06T05:54:45Z</time></trkpt><trkpt lat="37.13419688317931" lon="139.9549533827647"><ele>1543.9197619101033</ele><time>2021-11-06T05:55:12Z</time></trkpt><trkpt lat="37.13421657285152" lon="139.95471970297754"><ele>1540.447428740561</ele><time>2021-11-06T05:55:31Z</time></trkpt><trkpt lat="37.134182869630976" lon="139.95449005323846"><ele>1537.8765809983015</ele><time>2021-11-06T05:55:49Z</time></trkpt><trkpt lat="37.134180373148475" lon="139.95424737600638"><ele>1533.6617492912337</ele><time>2021-11-06T05:56:08Z</time></trkpt><trkpt lat="37.13408401185707" lon="139.9540527155592"><ele>1531.860924561508</ele><time>2021-11-06T05:56:27Z</time></trkpt><trkpt lat="37.13406158383726" lon="139.9538289621255"><ele>1530.5910441204906</ele><time>2021-11-06T05:56:47Z</time></trkpt><trkpt lat="37.13397468865727" lon="139.95362178303927"><ele>1528.2914707204327</ele><time>2021-11-06T05:57:08Z</time></trkpt><trkpt lat="37.13383605711011" lon="139.95346343946795"><ele>1524.651759782806</ele><time>2021-11-06T05:57:24Z</time></trkpt><trkpt lat="37.13371978372809" lon="139.95328699960433"><ele>1520.910247885622</ele><time>2021-11-06T05:57:43Z</time></trkpt><trkpt lat="37.13375667641217" lon="139.95305597330432"><ele>1514.723546506837</ele><time>2021-11-06T05:58:07Z</time></trkpt><trkpt lat="37.13382726457251" lon="139.95283961825632"><ele>1517.1852932805195</ele><time>2021-11-06T05:58:26Z</time></trkpt><trkpt lat="37.13384561135835" lon="139.95261466383545"><ele>1516.564503618516</ele><time>2021-11-06T05:58:40Z</time></trkpt><trkpt lat="37.13385667942958" lon="139.9523807731917"><ele>1514.0966767752543</ele><time>2021-11-06T05:58:58Z</time></trkpt><trkpt lat="37.13394102201042" lon="139.95217553193848"><ele>1514.7113122921437</ele><time>2021-11-06T05:59:20Z</time></trkpt><trkpt lat="37.13378567172932" lon="139.95203044494892"><ele>1509.7378378761932</ele><time>2021-11-06T06:01:47Z</time></trkpt><trkpt lat="37.13367253142288" lon="139.951834799911"><ele>1509.0177216958255</ele><time>2021-11-06T06:02:02Z</time></trkpt><trkpt lat="37.133579227754" lon="139.95162277542008"><ele>1506.8620886756107</ele><time>2021-11-06T06:02:17Z</time></trkpt><trkpt lat="37.13347440526746" lon="139.95142781209103"><ele>1506.2721260525286</ele><time>2021-11-06T06:02:31Z</time></trkpt><trkpt lat="37.133419373951284" lon="139.95119915026714"><ele>1504.4657640745863</ele><time>2021-11-06T06:02:48Z</time></trkpt><trkpt lat="37.13345419424881" lon="139.95097181299033"><ele>1503.9644062202424</ele><time>2021-11-06T06:03:03Z</time></trkpt><trkpt lat="37.133449711766545" lon="139.9507260604672"><ele>1503.0966605385765</ele><time>2021-11-06T06:03:18Z</time></trkpt><trkpt lat="37.133489614824626" lon="139.9504993047843"><ele>1501.7984735546634</ele><time>2021-11-06T06:03:34Z</time></trkpt><trkpt lat="37.13350897855577" lon="139.9502642162141"><ele>1500.4086772119626</ele><time>2021-11-06T06:03:50Z</time></trkpt><trkpt lat="37.13357641245854" lon="139.95004579403607"><ele>1498.4910103688017</ele><time>2021-11-06T06:04:07Z</time></trkpt><trkpt lat="37.13362303440463" lon="139.94982707535945"><ele>1496.7970961714163</ele><time>2021-11-06T06:04:21Z</time></trkpt><trkpt lat="37.13366397587399" lon="139.94959388633944"><ele>1497.6203966327012</ele><time>2021-11-06T06:04:37Z</time></trkpt><trkpt lat="37.1338387056665" lon="139.94952810549793"><ele>1497.4327937560156</ele><time>2021-11-06T06:04:53Z</time></trkpt><trkpt lat="37.13387970773722" lon="139.94929461618807"><ele>1498.5325782634318</ele><time>2021-11-06T06:05:10Z</time></trkpt><trkpt lat="37.13390938224382" lon="139.949055183681"><ele>1496.563266236335</ele><time>2021-11-06T06:05:27Z</time></trkpt><trkpt lat="37.13400472592707" lon="139.94884733957355"><ele>1494.1681528901681</ele><time>2021-11-06T06:05:42Z</time></trkpt><trkpt lat="37.13399036166675" lon="139.9486172689522"><ele>1496.2829837892205</ele><time>2021-11-06T06:05:57Z</time></trkpt><trkpt lat="37.13395452772971" lon="139.94838616258147"><ele>1496.1094626113772</ele><time>2021-11-06T06:06:15Z</time></trkpt><trkpt lat="37.133866527078304" lon="139.9481858891739"><ele>1496.4547345601022</ele><time>2021-11-06T06:06:55Z</time></trkpt><trkpt lat="37.13374591970771" lon="139.948001367352"><ele>1496.6494137309492</ele><time>2021-11-06T06:07:12Z</time></trkpt><trkpt lat="37.13362758522721" lon="139.94780361137998"><ele>1497.2439532037824</ele><time>2021-11-06T06:07:28Z</time></trkpt><trkpt lat="37.13354592670649" lon="139.94760117011035"><ele>1499.275710420683</ele><time>2021-11-06T06:07:47Z</time></trkpt><trkpt lat="37.133500829895276" lon="139.94737448907625"><ele>1501.0960045838729</ele><time>2021-11-06T06:08:02Z</time></trkpt><trkpt lat="37.13341791021636" lon="139.9471649460714"><ele>1502.003518591635</ele><time>2021-11-06T06:08:21Z</time></trkpt><trkpt lat="37.13333533606063" lon="139.9469594688949"><ele>1503.9944026358426</ele><time>2021-11-06T06:08:36Z</time></trkpt><trkpt lat="37.13325188905913" lon="139.94675731816906"><ele>1505.344811883755</ele><time>2021-11-06T06:08:50Z</time></trkpt><trkpt lat="37.133120534883886" lon="139.94659346750586"><ele>1503.3520142668858</ele><time>2021-11-06T06:09:05Z</time></trkpt><trkpt lat="37.133142240598566" lon="139.94635925115386"><ele>1502.0512884976342</ele><time>2021-11-06T06:09:19Z</time></trkpt><trkpt lat="37.133107815517604" lon="139.94611010372205"><ele>1505.190832434222</ele><time>2021-11-06T06:09:35Z</time></trkpt><trkpt lat="37.133027551096816" lon="139.9459047745188"><ele>1503.5996880577877</ele><time>2021-11-06T06:09:50Z</time></trkpt><trkpt lat="37.13297896822342" lon="139.94567925074347"><ele>1501.9984194869176</ele><time>2021-11-06T06:10:04Z</time></trkpt><trkpt lat="37.13300336271856" lon="139.94544592906087"><ele>1502.6379237854853</ele><time>2021-11-06T06:10:19Z</time></trkpt><trkpt lat="37.13307347479269" lon="139.94523131012997"><ele>1500.6871660770848</ele><time>2021-11-06T06:10:34Z</time></trkpt><trkpt lat="37.13315430860277" lon="139.94502394524815"><ele>1502.1603049114347</ele><time>2021-11-06T06:10:48Z</time></trkpt><trkpt lat="37.13327192169871" lon="139.94485060833483"><ele>1504.2079813051969</ele><time>2021-11-06T06:11:00Z</time></trkpt><trkpt lat="37.13339233971275" lon="139.94467079181325"><ele>1501.9833513787016</ele><time>2021-11-06T06:11:16Z</time></trkpt><trkpt lat="37.13349544783513" lon="139.944470566461"><ele>1502.7512194160372</ele><time>2021-11-06T06:11:30Z</time></trkpt><trkpt lat="37.133580182013525" lon="139.94425495686585"><ele>1501.412084363401</ele><time>2021-11-06T06:11:44Z</time></trkpt><trkpt lat="37.13364931649311" lon="139.9440468397004"><ele>1499.3948544692248</ele><time>2021-11-06T06:12:01Z</time></trkpt><trkpt lat="37.13382694370062" lon="139.94396381309227"><ele>1496.8269076384604</ele><time>2021-11-06T06:12:19Z</time></trkpt><trkpt lat="37.13401428872923" lon="139.94403679338146"><ele>1496.5578757645562</ele><time>2021-11-06T06:12:36Z</time></trkpt><trkpt lat="37.13419503610185" lon="139.94405519692617"><ele>1494.378830485046</ele><time>2021-11-06T06:12:49Z</time></trkpt><trkpt lat="37.13434586958363" lon="139.94419415326794"><ele>1490.2751227216795</ele><time>2021-11-06T06:13:12Z</time></trkpt><trkpt lat="37.13452997429731" lon="139.9442532489738"><ele>1489.7200275026262</ele><time>2021-11-06T06:13:37Z</time></trkpt><trkpt lat="37.13471975831914" lon="139.94425634837967"><ele>1484.2236348474398</ele><time>2021-11-06T06:14:01Z</time></trkpt><trkpt lat="37.134902807712145" lon="139.94424739275067"><ele>1480.470823227428</ele><time>2021-11-06T06:14:25Z</time></trkpt><trkpt lat="37.13508318262234" lon="139.94428210565235"><ele>1479.9711673175916</ele><time>2021-11-06T06:14:42Z</time></trkpt><trkpt lat="37.13525978704581" lon="139.94433962552122"><ele>1478.7259463891387</ele><time>2021-11-06T06:15:00Z</time></trkpt><trkpt lat="37.13544263235684" lon="139.94440407126618"><ele>1477.0110968938097</ele><time>2021-11-06T06:15:12Z</time></trkpt><trkpt lat="37.13562598950086" lon="139.94445382755063"><ele>1476.3809799673036</ele><time>2021-11-06T06:15:29Z</time></trkpt><trkpt lat="37.135807137595414" lon="139.94442316741512"><ele>1475.2604489149526</ele><time>2021-11-06T06:15:46Z</time></trkpt><trkpt lat="37.13599940033122" lon="139.9444484271284"><ele>1473.4877368630841</ele><time>2021-11-06T06:16:02Z</time></trkpt><trkpt lat="37.13618143785863" lon="139.94443360767087"><ele>1473.6112501528114</ele><time>2021-11-06T06:16:20Z</time></trkpt><trkpt lat="37.13632807601316" lon="139.94430204910904"><ele>1472.9769843230024</ele><time>2021-11-06T06:16:35Z</time></trkpt><trkpt lat="37.136489274354894" lon="139.94419458505325"><ele>1471.2572570573539</ele><time>2021-11-06T06:16:50Z</time></trkpt><trkpt lat="37.136673707014694" lon="139.94418336141658"><ele>1472.0768902907148</ele><time>2021-11-06T06:17:07Z</time></trkpt><trkpt lat="37.13682408192162" lon="139.94432386763307"><ele>1471.9762607971206</ele><time>2021-11-06T06:17:22Z</time></trkpt><trkpt lat="37.136938461523066" lon="139.94451176046837"><ele>1469.8565950505435</ele><time>2021-11-06T06:17:37Z</time></trkpt><trkpt lat="37.13706662850661" lon="139.94469689658473"><ele>1466.65832235571</ele><time>2021-11-06T06:17:53Z</time></trkpt><trkpt lat="37.137172312735736" lon="139.9448912859631"><ele>1464.0392445689067</ele><time>2021-11-06T06:18:11Z</time></trkpt><trkpt lat="37.137275709628405" lon="139.94509551025848"><ele>1466.0675729559734</ele><time>2021-11-06T06:18:27Z</time></trkpt><trkpt lat="37.13731990431525" lon="139.9453174872262"><ele>1467.820468870923</ele><time>2021-11-06T06:18:46Z</time></trkpt><trkpt lat="37.13743626464553" lon="139.94551077781423"><ele>1468.115958091803</ele><time>2021-11-06T06:19:08Z</time></trkpt><trkpt lat="37.137622272243725" lon="139.94557185967645"><ele>1468.7170625431463</ele><time>2021-11-06T06:19:24Z</time></trkpt><trkpt lat="37.13778308647745" lon="139.94570995969826"><ele>1466.857745316811</ele><time>2021-11-06T06:19:39Z</time></trkpt><trkpt lat="37.137955293517415" lon="139.94580045249072"><ele>1463.6398665467277</ele><time>2021-11-06T06:19:57Z</time></trkpt><trkpt lat="37.13811767849458" lon="139.94592476033506"><ele>1460.8430370613933</ele><time>2021-11-06T06:20:41Z</time></trkpt><trkpt lat="37.13827257866554" lon="139.94579002432934"><ele>1459.738283302635</ele><time>2021-11-06T06:33:47Z</time></trkpt><trkpt lat="37.138465003307005" lon="139.94581542010357"><ele>1459.7540588984266</ele><time>2021-11-06T06:34:08Z</time></trkpt><trkpt lat="37.138623427402884" lon="139.94592490478473"><ele>1461.912183323875</ele><time>2021-11-06T06:35:08Z</time></trkpt><trkpt lat="37.138494821677284" lon="139.94609650135044"><ele>1466.2512700557709</ele><time>2021-11-06T06:35:32Z</time></trkpt><trkpt lat="37.13834354712735" lon="139.9462188682156"><ele>1469.2463275324553</ele><time>2021-11-06T06:36:39Z</time></trkpt><trkpt lat="37.13815979882848" lon="139.94625245141685"><ele>1466.7604372911155</ele><time>2021-11-06T06:36:58Z</time></trkpt><trkpt lat="37.137985355711265" lon="139.94619354284183"><ele>1472.1468239286914</ele><time>2021-11-06T06:37:56Z</time></trkpt><trkpt lat="37.137874010462845" lon="139.94638086681402"><ele>1479.5311251021922</ele><time>2021-11-06T06:38:34Z</time></trkpt><trkpt lat="37.137747325950684" lon="139.94655724997844"><ele>1485.3882044097409</ele><time>2021-11-06T06:39:04Z</time></trkpt><trkpt lat="37.137626772104085" lon="139.94673101719076"><ele>1493.4852743623778</ele><time>2021-11-06T06:39:35Z</time></trkpt><trkpt lat="37.13746208647244" lon="139.94683627714755"><ele>1496.5590624324977</ele><time>2021-11-06T06:40:38Z</time></trkpt><trkpt lat="37.13752040663545" lon="139.94706440705272"><ele>1501.5688083982095</ele><time>2021-11-06T06:41:01Z</time></trkpt><trkpt lat="37.13763048189688" lon="139.9472466853966"><ele>1504.8887361558154</ele><time>2021-11-06T06:41:14Z</time></trkpt><trkpt lat="37.13761918856812" lon="139.94747719638787"><ele>1506.3590416004881</ele><time>2021-11-06T06:41:31Z</time></trkpt><trkpt lat="37.13768962727315" lon="139.94768596590333"><ele>1511.4761052681133</ele><time>2021-11-06T06:41:55Z</time></trkpt><trkpt lat="37.13750315521871" lon="139.94769827533074"><ele>1516.4206095309928</ele><time>2021-11-06T06:43:00Z</time></trkpt><trkpt lat="37.13752063935718" lon="139.94793275827413"><ele>1523.0556448781863</ele><time>2021-11-06T06:43:40Z</time></trkpt><trkpt lat="37.13757522006032" lon="139.94814876717737"><ele>1528.5462346458808</ele><time>2021-11-06T06:44:06Z</time></trkpt><trkpt lat="37.13759583159464" lon="139.9483725757236"><ele>1532.5899766720831</ele><time>2021-11-06T06:44:33Z</time></trkpt><trkpt lat="37.13763141865654" lon="139.9486032000726"><ele>1538.4030372463167</ele><time>2021-11-06T06:45:01Z</time></trkpt><trkpt lat="37.13769460315118" lon="139.94881837861791"><ele>1542.1488646045327</ele><time>2021-11-06T06:45:28Z</time></trkpt><trkpt lat="37.137781092890066" lon="139.94901921990387"><ele>1542.5642803190276</ele><time>2021-11-06T06:45:56Z</time></trkpt><trkpt lat="37.137841518916964" lon="139.94923221649537"><ele>1545.5667730765417</ele><time>2021-11-06T06:46:18Z</time></trkpt><trkpt lat="37.13790892753866" lon="139.9494532838137"><ele>1549.699979047291</ele><time>2021-11-06T06:46:51Z</time></trkpt><trkpt lat="37.13792275666801" lon="139.94968443065906"><ele>1555.916264506057</ele><time>2021-11-06T06:47:17Z</time></trkpt><trkpt lat="37.13794754617723" lon="139.9499092566531"><ele>1559.020512712188</ele><time>2021-11-06T06:47:46Z</time></trkpt><trkpt lat="37.13784410679977" lon="139.95009860877408"><ele>1564.3529327167198</ele><time>2021-11-06T06:48:18Z</time></trkpt><trkpt lat="37.137798744676694" lon="139.9503221305986"><ele>1570.3562608677894</ele><time>2021-11-06T06:48:51Z</time></trkpt><trkpt lat="37.13762367031212" lon="139.9503901042581"><ele>1578.4171688789502</ele><time>2021-11-06T06:52:09Z</time></trkpt><trkpt lat="37.13759440138971" lon="139.95061456985647"><ele>1583.691518315114</ele><time>2021-11-06T06:52:34Z</time></trkpt><trkpt lat="37.137552370226544" lon="139.95084106224274"><ele>1593.5466833645478</ele><time>2021-11-06T06:53:12Z</time></trkpt><trkpt lat="37.13751101519595" lon="139.9510604331576"><ele>1602.0330858035013</ele><time>2021-11-06T06:53:45Z</time></trkpt><trkpt lat="37.13761836899349" lon="139.95124174392933"><ele>1608.6607319731265</ele><time>2021-11-06T06:54:19Z</time></trkpt><trkpt lat="37.13750340331711" lon="139.95142696916048"><ele>1616.0148722911254</ele><time>2021-11-06T06:55:03Z</time></trkpt><trkpt lat="37.137527361993364" lon="139.95165081647477"><ele>1622.2214468810707</ele><time>2021-11-06T06:55:34Z</time></trkpt><trkpt lat="37.13750718588144" lon="139.95187954077724"><ele>1627.0000051958486</ele><time>2021-11-06T06:56:08Z</time></trkpt><trkpt lat="37.137621295969936" lon="139.9520588796974"><ele>1630.9187862975523</ele><time>2021-11-06T06:56:34Z</time></trkpt><trkpt lat="37.13763391729116" lon="139.95228911889154"><ele>1637.2695841435343</ele><time>2021-11-06T06:57:22Z</time></trkpt><trkpt lat="37.13756756638223" lon="139.95249995909396"><ele>1650.5339812543243</ele><time>2021-11-06T06:58:18Z</time></trkpt><trkpt lat="37.137658401107" lon="139.95269584376982"><ele>1657.495720778592</ele><time>2021-11-06T06:59:23Z</time></trkpt><trkpt lat="37.137616288082846" lon="139.95292801281806"><ele>1664.700199721381</ele><time>2021-11-06T07:00:09Z</time></trkpt><trkpt lat="37.13747447007325" lon="139.9530798726145"><ele>1667.2046867720783</ele><time>2021-11-06T07:00:43Z</time></trkpt><trkpt lat="37.137339970764614" lon="139.95324385113454"><ele>1671.1174373766407</ele><time>2021-11-06T07:01:08Z</time></trkpt><trkpt lat="37.13729779933717" lon="139.95347163047916"><ele>1677.1456371871755</ele><time>2021-11-06T07:01:37Z</time></trkpt><trkpt lat="37.13728463380996" lon="139.95370772209566"><ele>1684.272223339416</ele><time>2021-11-06T07:02:04Z</time></trkpt><trkpt lat="37.13723624018311" lon="139.95392633728"><ele>1692.021404467523</ele><time>2021-11-06T07:02:37Z</time></trkpt><trkpt lat="37.137189643821735" lon="139.95414659824144"><ele>1700.8830125434324</ele><time>2021-11-06T07:03:29Z</time></trkpt><trkpt lat="37.13713448124874" lon="139.95436168305488"><ele>1712.1840697498992</ele><time>2021-11-06T07:04:42Z</time></trkpt><trkpt lat="37.13699231595843" lon="139.9545125224093"><ele>1724.1539672780782</ele><time>2021-11-06T07:05:54Z</time></trkpt><trkpt lat="37.13706244682422" lon="139.95473262732054"><ele>1730.1384811792523</ele><time>2021-11-06T07:07:01Z</time></trkpt><trkpt lat="37.13713849106685" lon="139.95493875135884"><ele>1740.0783294346184</ele><time>2021-11-06T07:07:48Z</time></trkpt><trkpt lat="37.137229322111516" lon="139.9551419852787"><ele>1746.8313789768144</ele><time>2021-11-06T07:10:32Z</time></trkpt><trkpt lat="37.137339969923346" lon="139.95533150382414"><ele>1759.6972435060889</ele><time>2021-11-06T07:11:16Z</time></trkpt><trkpt lat="37.13740875447831" lon="139.95554033972826"><ele>1771.5637430399656</ele><time>2021-11-06T07:11:56Z</time></trkpt><trkpt lat="37.13752298984294" lon="139.9557245699548"><ele>1782.6156706344336</ele><time>2021-11-06T07:12:45Z</time></trkpt><trkpt lat="37.137610176337354" lon="139.9559294051218"><ele>1793.3460554108024</ele><time>2021-11-06T07:13:21Z</time></trkpt><trkpt lat="37.137659584472594" lon="139.95616041235516"><ele>1801.3474043319002</ele><time>2021-11-06T07:13:57Z</time></trkpt><trkpt lat="37.13773232554747" lon="139.95636734426046"><ele>1808.0692004244775</ele><time>2021-11-06T07:14:24Z</time></trkpt><trkpt lat="37.13776426774203" lon="139.95660183866744"><ele>1811.9966302430257</ele><time>2021-11-06T07:14:40Z</time></trkpt><trkpt lat="37.13762475188204" lon="139.9567582297824"><ele>1807.865984937176</ele><time>2021-11-06T07:20:52Z</time></trkpt><trkpt lat="37.13748916551573" lon="139.95691416825724"><ele>1804.6363590070978</ele><time>2021-11-06T07:21:14Z</time></trkpt><trkpt lat="37.137517867578566" lon="139.9571418749237"><ele>1798.5286560179666</ele><time>2021-11-06T07:21:42Z</time></trkpt><trkpt lat="37.137674824771025" lon="139.9572576531281"><ele>1789.950075357221</ele><time>2021-11-06T07:22:19Z</time></trkpt><trkpt lat="37.137801031524134" lon="139.95741870281236"><ele>1780.2282735221088</ele><time>2021-11-06T07:22:54Z</time></trkpt><trkpt lat="37.137900897322034" lon="139.95761790222974"><ele>1776.672512082383</ele><time>2021-11-06T07:23:23Z</time></trkpt><trkpt lat="37.13796776929885" lon="139.95783711876132"><ele>1773.51896823477</ele><time>2021-11-06T07:23:53Z</time></trkpt><trkpt lat="37.138067873726804" lon="139.958034074547"><ele>1770.1573374513537</ele><time>2021-11-06T07:24:43Z</time></trkpt><trkpt lat="37.13813216020337" lon="139.9582459328677"><ele>1771.2960380241275</ele><time>2021-11-06T07:25:05Z</time></trkpt><trkpt lat="37.13827921646786" lon="139.95837974916512"><ele>1775.782669622451</ele><time>2021-11-06T07:25:30Z</time></trkpt><trkpt lat="37.13844727592344" lon="139.9584777630644"><ele>1779.406096660532</ele><time>2021-11-06T07:25:56Z</time></trkpt><trkpt lat="37.13859449075741" lon="139.95862924342381"><ele>1777.8130801515654</ele><time>2021-11-06T07:26:14Z</time></trkpt><trkpt lat="37.138635258019676" lon="139.95885158691533"><ele>1777.861426317133</ele><time>2021-11-06T07:26:31Z</time></trkpt><trkpt lat="37.13878976438416" lon="139.9589822457584"><ele>1780.4415607284755</ele><time>2021-11-06T07:26:59Z</time></trkpt><trkpt lat="37.13893451517738" lon="139.95912215599157"><ele>1784.4523769449443</ele><time>2021-11-06T07:27:30Z</time></trkpt><trkpt lat="37.13906111465029" lon="139.95929445819735"><ele>1780.7756847906858</ele><time>2021-11-06T07:27:52Z</time></trkpt><trkpt lat="37.13920741266714" lon="139.95943081848245"><ele>1779.8555622054264</ele><time>2021-11-06T07:28:10Z</time></trkpt><trkpt lat="37.13937708909779" lon="139.9595131805748"><ele>1786.7883834969252</ele><time>2021-11-06T07:28:33Z</time></trkpt><trkpt lat="37.1394520307169" lon="139.9597251861878"><ele>1792.5363455964252</ele><time>2021-11-06T07:29:16Z</time></trkpt><trkpt lat="37.1395199395449" lon="139.95993421733573"><ele>1789.3299413239583</ele><time>2021-11-06T07:29:37Z</time></trkpt><trkpt lat="37.139519585217606" lon="139.96017639418815"><ele>1790.5930861243978</ele><time>2021-11-06T07:29:59Z</time></trkpt><trkpt lat="37.13950374746225" lon="139.96040247852744"><ele>1795.9669625665992</ele><time>2021-11-06T07:30:27Z</time></trkpt><trkpt lat="37.13947291004356" lon="139.96062929813462"><ele>1801.4223661553115</ele><time>2021-11-06T07:30:51Z</time></trkpt><trkpt lat="37.139414121002275" lon="139.96085036328438"><ele>1805.2687381282449</ele><time>2021-11-06T07:31:14Z</time></trkpt><trkpt lat="37.13935656925998" lon="139.96106688483957"><ele>1810.0630672099069</ele><time>2021-11-06T07:31:44Z</time></trkpt><trkpt lat="37.139230980508295" lon="139.9612322885109"><ele>1813.3224767958745</ele><time>2021-11-06T07:32:38Z</time></trkpt><trkpt lat="37.13921656156931" lon="139.96146269925703"><ele>1815.7183381961659</ele><time>2021-11-06T07:33:07Z</time></trkpt><trkpt lat="37.13921456169757" lon="139.96169234822003"><ele>1822.4330260334536</ele><time>2021-11-06T07:33:33Z</time></trkpt><trkpt lat="37.139331127790825" lon="139.96186883755365"><ele>1828.0978497099131</ele><time>2021-11-06T07:34:34Z</time></trkpt><trkpt lat="37.13938849828975" lon="139.96209184165437"><ele>1829.1130829649046</ele><time>2021-11-06T07:34:55Z</time></trkpt><trkpt lat="37.13942828165697" lon="139.96231209943474"><ele>1832.1396685270593</ele><time>2021-11-06T07:35:16Z</time></trkpt><trkpt lat="37.13941698718467" lon="139.96253926893098"><ele>1836.1106094596907</ele><time>2021-11-06T07:35:43Z</time></trkpt><trkpt lat="37.139432826370566" lon="139.96276364983416"><ele>1840.1520435074344</ele><time>2021-11-06T07:36:05Z</time></trkpt><trkpt lat="37.13944817032832" lon="139.96298794468598"><ele>1843.0816185073927</ele><time>2021-11-06T07:36:33Z</time></trkpt><trkpt lat="37.13949719223985" lon="139.96321739238616"><ele>1845.6147475754842</ele><time>2021-11-06T07:36:55Z</time></trkpt><trkpt lat="37.13949559903264" lon="139.96345218463975"><ele>1849.1622153352946</ele><time>2021-11-06T07:37:16Z</time></trkpt><trkpt lat="37.1394783025946" lon="139.96367621362697"><ele>1855.5387984877452</ele><time>2021-11-06T07:37:49Z</time></trkpt><trkpt lat="37.13944629218916" lon="139.96390232011544"><ele>1863.317050143145</ele><time>2021-11-06T07:38:18Z</time></trkpt><trkpt lat="37.13930948068629" lon="139.96405139995773"><ele>1870.1409857114777</ele><time>2021-11-06T07:38:53Z</time></trkpt><trkpt lat="37.13916801556398" lon="139.9641954670629"><ele>1868.1773032462224</ele><time>2021-11-06T07:41:48Z</time></trkpt><trkpt lat="37.13901504061112" lon="139.96432715353697"><ele>1861.1172486888245</ele><time>2021-11-06T07:42:17Z</time></trkpt><trkpt lat="37.138932179261296" lon="139.96453115399282"><ele>1854.4139878274873</ele><time>2021-11-06T07:42:39Z</time></trkpt><trkpt lat="37.138827344405556" lon="139.96472468763508"><ele>1851.7885859040543</ele><time>2021-11-06T07:42:54Z</time></trkpt><trkpt lat="37.13869364327353" lon="139.96487910984098"><ele>1851.8372006071731</ele><time>2021-11-06T07:43:08Z</time></trkpt><trkpt lat="37.1385273559174" lon="139.9649673585355"><ele>1857.2549502654</ele><time>2021-11-06T07:43:31Z</time></trkpt><trkpt lat="37.138387434740864" lon="139.9651158453607"><ele>1854.8497847765684</ele><time>2021-11-06T07:44:12Z</time></trkpt><trkpt lat="37.138285281222224" lon="139.9653151320932"><ele>1849.2711174366996</ele><time>2021-11-06T07:44:49Z</time></trkpt><trkpt lat="37.13812254911287" lon="139.9654300358149"><ele>1843.7387344771996</ele><time>2021-11-06T07:45:12Z</time></trkpt><trkpt lat="37.137956255229874" lon="139.9655386382084"><ele>1837.5857640039176</ele><time>2021-11-06T07:45:29Z</time></trkpt><trkpt lat="37.137778928728274" lon="139.96560207663077"><ele>1833.853270880878</ele><time>2021-11-06T07:45:50Z</time></trkpt><trkpt lat="37.13765358343385" lon="139.96576387818087"><ele>1831.1878324868158</ele><time>2021-11-06T07:46:08Z</time></trkpt><trkpt lat="37.137490730440604" lon="139.96586993670118"><ele>1832.6956244288012</ele><time>2021-11-06T07:46:27Z</time></trkpt><trkpt lat="37.13732003323041" lon="139.96596182127362"><ele>1835.6201327480376</ele><time>2021-11-06T07:46:52Z</time></trkpt><trkpt lat="37.137152846346254" lon="139.96605055314586"><ele>1837.9851770093665</ele><time>2021-11-06T07:47:15Z</time></trkpt><trkpt lat="37.137006014065186" lon="139.96618993861588"><ele>1841.7175976233557</ele><time>2021-11-06T07:47:39Z</time></trkpt><trkpt lat="37.13695366856164" lon="139.96641215642325"><ele>1846.620793740265</ele><time>2021-11-06T07:47:59Z</time></trkpt><trkpt lat="37.136918929579934" lon="139.9666382066656"><ele>1849.4966418957338</ele><time>2021-11-06T07:48:21Z</time></trkpt><trkpt lat="37.13687827025088" lon="139.9668639072692"><ele>1849.9468415854499</ele><time>2021-11-06T07:48:45Z</time></trkpt><trkpt lat="37.13684595148525" lon="139.9670859744261"><ele>1853.3198666013777</ele><time>2021-11-06T07:49:10Z</time></trkpt><trkpt lat="37.13681132708709" lon="139.96731497743443"><ele>1857.6023084102198</ele><time>2021-11-06T07:49:39Z</time></trkpt><trkpt lat="37.13680263091775" lon="139.96754623379036"><ele>1863.074231638573</ele><time>2021-11-06T07:50:06Z</time></trkpt><trkpt lat="37.136755460866716" lon="139.9677692318936"><ele>1867.927493467927</ele><time>2021-11-06T07:50:35Z</time></trkpt><trkpt lat="37.13669925992792" lon="139.96798815843928"><ele>1874.8657758682966</ele><time>2021-11-06T07:51:14Z</time></trkpt><trkpt lat="37.13672828528334" lon="139.96821055783744"><ele>1883.9502594675869</ele><time>2021-11-06T07:51:54Z</time></trkpt><trkpt lat="37.136773719333334" lon="139.96798426839064"><ele>1878.0696769561619</ele><time>2021-11-06T07:56:47Z</time></trkpt><trkpt lat="37.1367152830688" lon="139.96776858692314"><ele>1868.4837602078915</ele><time>2021-11-06T07:57:23Z</time></trkpt><trkpt lat="37.13679800700955" lon="139.96756773518894"><ele>1865.647961243987</ele><time>2021-11-06T07:57:44Z</time></trkpt><trkpt lat="37.13681818846386" lon="139.9673432796573"><ele>1861.0523527236655</ele><time>2021-11-06T07:58:04Z</time></trkpt><trkpt lat="37.136843608327595" lon="139.96711648136522"><ele>1855.6176020558923</ele><time>2021-11-06T07:58:30Z</time></trkpt><trkpt lat="37.13683413822206" lon="139.96688593777753"><ele>1852.4082162948325</ele><time>2021-11-06T07:58:50Z</time></trkpt><trkpt lat="37.13689422738447" lon="139.96667358813585"><ele>1849.757087801583</ele><time>2021-11-06T07:59:11Z</time></trkpt><trkpt lat="37.136944168407744" lon="139.96644889291204"><ele>1847.696274944581</ele><time>2021-11-06T07:59:28Z</time></trkpt><trkpt lat="37.13700495104502" lon="139.96623334552717"><ele>1844.9676806032658</ele><time>2021-11-06T07:59:48Z</time></trkpt><trkpt lat="37.137108567437835" lon="139.96604271480166"><ele>1840.6275095846504</ele><time>2021-11-06T08:00:08Z</time></trkpt><trkpt lat="37.13720994754767" lon="139.96585650794336"><ele>1835.3705441821367</ele><time>2021-11-06T08:00:36Z</time></trkpt><trkpt lat="37.137055781010496" lon="139.96573754470614"><ele>1828.2950819740072</ele><time>2021-11-06T08:01:03Z</time></trkpt><trkpt lat="37.13688959769671" lon="139.96563585895436"><ele>1818.5992937767878</ele><time>2021-11-06T08:02:04Z</time></trkpt><trkpt lat="37.13673500106077" lon="139.9655144891032"><ele>1809.3604465406388</ele><time>2021-11-06T08:02:44Z</time></trkpt><trkpt lat="37.13657549098026" lon="139.96539928758148"><ele>1803.8529924806207</ele><time>2021-11-06T08:03:05Z</time></trkpt><trkpt lat="37.13639957263063" lon="139.96544907217398"><ele>1805.5085384910926</ele><time>2021-11-06T08:03:38Z</time></trkpt><trkpt lat="37.136214301477295" lon="139.96541994195505"><ele>1807.3855298962444</ele><time>2021-11-06T08:04:02Z</time></trkpt><trkpt lat="37.13604412379871" lon="139.96549385791764"><ele>1807.4062745617703</ele><time>2021-11-06T08:04:29Z</time></trkpt><trkpt lat="37.13585350653201" lon="139.9654884418137"><ele>1807.9407030763105</ele><time>2021-11-06T08:05:01Z</time></trkpt><trkpt lat="37.13570158054787" lon="139.96536286392353"><ele>1809.9271491104737</ele><time>2021-11-06T08:05:28Z</time></trkpt><trkpt lat="37.135535803326086" lon="139.965237647926"><ele>1800.3761898381636</ele><time>2021-11-06T08:06:10Z</time></trkpt><trkpt lat="37.135450352106005" lon="139.96503390183543"><ele>1795.0077622104436</ele><time>2021-11-06T08:06:35Z</time></trkpt><trkpt lat="37.135333888480254" lon="139.96485383287543"><ele>1783.1596493106335</ele><time>2021-11-06T08:07:34Z</time></trkpt><trkpt lat="37.13516715232921" lon="139.9647482306033"><ele>1777.9340037042275</ele><time>2021-11-06T08:08:06Z</time></trkpt><trkpt lat="37.134987754621555" lon="139.96471374020868"><ele>1768.744853399694</ele><time>2021-11-06T08:08:59Z</time></trkpt><trkpt lat="37.1348027316326" lon="139.96467436528673"><ele>1762.7281012451276</ele><time>2021-11-06T08:09:40Z</time></trkpt><trkpt lat="37.134676398806306" lon="139.96450441672857"><ele>1750.7260392289609</ele><time>2021-11-06T08:10:34Z</time></trkpt><trkpt lat="37.13460916517664" lon="139.96428707841773"><ele>1739.3446538094431</ele><time>2021-11-06T08:11:23Z</time></trkpt><trkpt lat="37.13445035590053" lon="139.9641710242496"><ele>1733.340893351473</ele><time>2021-11-06T08:11:49Z</time></trkpt><trkpt lat="37.1342768681313" lon="139.9640987385534"><ele>1735.0698122819886</ele><time>2021-11-06T08:12:40Z</time></trkpt><trkpt lat="37.134102000639466" lon="139.96402460761772"><ele>1733.4573250319809</ele><time>2021-11-06T08:13:02Z</time></trkpt><trkpt lat="37.13391688462804" lon="139.96399227673325"><ele>1735.7109902845696</ele><time>2021-11-06T08:13:19Z</time></trkpt><trkpt lat="37.13372698568448" lon="139.96401383351994"><ele>1735.9142291052267</ele><time>2021-11-06T08:13:38Z</time></trkpt><trkpt lat="37.13354274766345" lon="139.96400162022127"><ele>1736.3204294303432</ele><time>2021-11-06T08:13:55Z</time></trkpt><trkpt lat="37.1333877006084" lon="139.96412132013018"><ele>1733.3722560005262</ele><time>2021-11-06T08:14:17Z</time></trkpt><trkpt lat="37.133236798999526" lon="139.96426509926525"><ele>1728.8373156189919</ele><time>2021-11-06T08:14:36Z</time></trkpt><trkpt lat="37.133052346513765" lon="139.96427632485873"><ele>1729.4779664520174</ele><time>2021-11-06T08:14:53Z</time></trkpt><trkpt lat="37.132891176463076" lon="139.96416933040842"><ele>1728.4218377852812</ele><time>2021-11-06T08:15:19Z</time></trkpt><trkpt lat="37.13271317765168" lon="139.96412920180543"><ele>1725.7189930072054</ele><time>2021-11-06T08:15:43Z</time></trkpt><trkpt lat="37.13252807146711" lon="139.96408276406453"><ele>1721.5797935454175</ele><time>2021-11-06T08:16:09Z</time></trkpt><trkpt lat="37.13236926393783" lon="139.96395952321097"><ele>1719.0229109907523</ele><time>2021-11-06T08:16:33Z</time></trkpt><trkpt lat="37.13226770068923" lon="139.96377135352446"><ele>1720.2233909564093</ele><time>2021-11-06T08:16:57Z</time></trkpt><trkpt lat="37.132122393056214" lon="139.96363383188122"><ele>1721.6731383679435</ele><time>2021-11-06T08:17:19Z</time></trkpt><trkpt lat="37.131935520507554" lon="139.96363505148446"><ele>1721.410518093966</ele><time>2021-11-06T08:17:39Z</time></trkpt><trkpt lat="37.131788614103456" lon="139.96350042699532"><ele>1721.202029348351</ele><time>2021-11-06T08:17:57Z</time></trkpt><trkpt lat="37.13170410070979" lon="139.96329425568297"><ele>1722.8737414851785</ele><time>2021-11-06T08:18:15Z</time></trkpt><trkpt lat="37.131552501868846" lon="139.96315805039228"><ele>1718.3796481164172</ele><time>2021-11-06T08:18:33Z</time></trkpt><trkpt lat="37.13144226180841" lon="139.96296755313455"><ele>1717.6725898096338</ele><time>2021-11-06T08:18:48Z</time></trkpt><trkpt lat="37.13144763976994" lon="139.96274248854877"><ele>1720.6541132908314</ele><time>2021-11-06T08:19:03Z</time></trkpt><trkpt lat="37.13131838927722" lon="139.96256342906145"><ele>1719.4741800818592</ele><time>2021-11-06T08:19:20Z</time></trkpt><trkpt lat="37.13113689577995" lon="139.96246465096272"><ele>1719.4793105842546</ele><time>2021-11-06T08:20:47Z</time></trkpt><trkpt lat="37.13097055257645" lon="139.96235191267024"><ele>1717.9540486317128</ele><time>2021-11-06T08:21:02Z</time></trkpt><trkpt lat="37.13078377609902" lon="139.9623289840053"><ele>1718.4341799207032</ele><time>2021-11-06T08:21:17Z</time></trkpt><trkpt lat="37.1305944435345" lon="139.96234485280894"><ele>1717.8643125984818</ele><time>2021-11-06T08:21:36Z</time></trkpt><trkpt lat="37.13041537108122" lon="139.96241226139912"><ele>1715.728190422058</ele><time>2021-11-06T08:21:53Z</time></trkpt><trkpt lat="37.1302643486014" lon="139.96253943399807"><ele>1714.138132326305</ele><time>2021-11-06T08:22:16Z</time></trkpt><trkpt lat="37.13010798041862" lon="139.96266827032215"><ele>1708.7238243985921</ele><time>2021-11-06T08:23:40Z</time></trkpt><trkpt lat="37.129926819585876" lon="139.96268646523836"><ele>1708.0648415330797</ele><time>2021-11-06T08:23:58Z</time></trkpt><trkpt lat="37.12990798534611" lon="139.96292126439297"><ele>1705.798127048649</ele><time>2021-11-06T08:24:24Z</time></trkpt><trkpt lat="37.129927332509965" lon="139.96315031111538"><ele>1702.6947611477226</ele><time>2021-11-06T08:24:52Z</time></trkpt><trkpt lat="37.129923953781535" lon="139.96337568881717"><ele>1699.6007032012567</ele><time>2021-11-06T08:25:19Z</time></trkpt><trkpt lat="37.12998319930208" lon="139.96359673485014"><ele>1694.7855635937303</ele><time>2021-11-06T08:26:07Z</time></trkpt><trkpt lat="37.13001081447636" lon="139.9638291912689"><ele>1692.0209199199453</ele><time>2021-11-06T08:26:25Z</time></trkpt><trkpt lat="37.13004360351482" lon="139.96405224470112"><ele>1689.5906688952819</ele><time>2021-11-06T08:26:42Z</time></trkpt><trkpt lat="37.130049763634084" lon="139.96428350654458"><ele>1685.9343363195658</ele><time>2021-11-06T08:27:02Z</time></trkpt><trkpt lat="37.13006717993578" lon="139.96450891813095"><ele>1682.7704749321565</ele><time>2021-11-06T08:27:21Z</time></trkpt><trkpt lat="37.13006249290619" lon="139.96474348932244"><ele>1679.3679885910824</ele><time>2021-11-06T08:27:41Z</time></trkpt><trkpt lat="37.13002564594781" lon="139.96497196400952"><ele>1675.3920887932181</ele><time>2021-11-06T08:28:05Z</time></trkpt><trkpt lat="37.13002036566664" lon="139.96520487312847"><ele>1670.1864209920168</ele><time>2021-11-06T08:28:27Z</time></trkpt><trkpt lat="37.13000837723062" lon="139.96544347442943"><ele>1667.518127203919</ele><time>2021-11-06T08:28:46Z</time></trkpt><trkpt lat="37.12998989325492" lon="139.9656766465204"><ele>1664.5596652170643</ele><time>2021-11-06T08:29:05Z</time></trkpt><trkpt lat="37.12997521948025" lon="139.965915830974"><ele>1660.0720380665734</ele><time>2021-11-06T08:29:27Z</time></trkpt><trkpt lat="37.12996970310171" lon="139.96614612817828"><ele>1656.580134715885</ele><time>2021-11-06T08:29:49Z</time></trkpt><trkpt lat="37.12991096376468" lon="139.9663592313882"><ele>1651.6616654284298</ele><time>2021-11-06T08:30:09Z</time></trkpt><trkpt lat="37.12998706208641" lon="139.96657176460056"><ele>1651.2831393517554</ele><time>2021-11-06T08:30:31Z</time></trkpt><trkpt lat="37.130029826389695" lon="139.96679709775083"><ele>1651.5103141749278</ele><time>2021-11-06T08:30:53Z</time></trkpt><trkpt lat="37.13006946190632" lon="139.96701838617315"><ele>1648.2442719060928</ele><time>2021-11-06T08:31:19Z</time></trkpt><trkpt lat="37.130155244205596" lon="139.96721632632008"><ele>1647.7236420912668</ele><time>2021-11-06T08:31:36Z</time></trkpt><trkpt lat="37.130198377430254" lon="139.96744170445166"><ele>1644.834456751123</ele><time>2021-11-06T08:31:59Z</time></trkpt><trkpt lat="37.13020551468321" lon="139.96767231914095"><ele>1639.8179713021964</ele><time>2021-11-06T08:32:18Z</time></trkpt><trkpt lat="37.13032254710714" lon="139.96785439361318"><ele>1636.8614488812163</ele><time>2021-11-06T08:32:37Z</time></trkpt><trkpt lat="37.13045584874285" lon="139.96800824286208"><ele>1631.3840621542186</ele><time>2021-11-06T08:33:04Z</time></trkpt><trkpt lat="37.130549594249345" lon="139.9682088966804"><ele>1628.4195477655157</ele><time>2021-11-06T08:33:26Z</time></trkpt><trkpt lat="37.130545910314936" lon="139.96844983023996"><ele>1624.0072632916272</ele><time>2021-11-06T08:34:00Z</time></trkpt><trkpt lat="37.130548572543404" lon="139.96868028834825"><ele>1622.3749564085156</ele><time>2021-11-06T08:34:18Z</time></trkpt><trkpt lat="37.13056474148766" lon="139.96891818840209"><ele>1617.6737356344238</ele><time>2021-11-06T08:34:37Z</time></trkpt><trkpt lat="37.13056094340599" lon="139.9691480446576"><ele>1613.8782997559756</ele><time>2021-11-06T08:34:57Z</time></trkpt><trkpt lat="37.13056599141022" lon="139.96937772893673"><ele>1611.0036776820198</ele><time>2021-11-06T08:35:16Z</time></trkpt><trkpt lat="37.13060214851027" lon="139.96961045669255"><ele>1607.957699063234</ele><time>2021-11-06T08:35:38Z</time></trkpt><trkpt lat="37.1305134272198" lon="139.96981392964804"><ele>1604.6460446510464</ele><time>2021-11-06T08:36:12Z</time></trkpt><trkpt lat="37.13051692650114" lon="139.97004939748902"><ele>1600.9403659990057</ele><time>2021-11-06T08:36:35Z</time></trkpt><trkpt lat="37.13061876050784" lon="139.97023993981608"><ele>1597.1898400774226</ele><time>2021-11-06T08:37:00Z</time></trkpt><trkpt lat="37.130665033854015" lon="139.9704617921242"><ele>1596.0871007349342</ele><time>2021-11-06T08:37:21Z</time></trkpt><trkpt lat="37.13064502760553" lon="139.97068943568286"><ele>1588.8305629398674</ele><time>2021-11-06T08:37:51Z</time></trkpt><trkpt lat="37.130658828781925" lon="139.97092381321733"><ele>1584.4558218196034</ele><time>2021-11-06T08:38:16Z</time></trkpt><trkpt lat="37.130604427788626" lon="139.97113924392715"><ele>1581.511458906345</ele><time>2021-11-06T08:38:39Z</time></trkpt><trkpt lat="37.13047225870963" lon="139.97130083439453"><ele>1578.3141998574138</ele><time>2021-11-06T08:38:57Z</time></trkpt><trkpt lat="37.13037458278739" lon="139.97149824295337"><ele>1577.4163972642273</ele><time>2021-11-06T08:39:16Z</time></trkpt><trkpt lat="37.130229207751434" lon="139.97164001392167"><ele>1572.3099751370028</ele><time>2021-11-06T08:39:36Z</time></trkpt><trkpt lat="37.13007928265595" lon="139.97178308090085"><ele>1571.1042283633724</ele><time>2021-11-06T08:39:54Z</time></trkpt><trkpt lat="37.13005760607475" lon="139.97201605288677"><ele>1564.374080224894</ele><time>2021-11-06T08:40:27Z</time></trkpt><trkpt lat="37.130056369969225" lon="139.97224658278793"><ele>1557.836823021993</ele><time>2021-11-06T08:40:53Z</time></trkpt><trkpt lat="37.130084259361205" lon="139.9724760837972"><ele>1553.7709354329854</ele><time>2021-11-06T08:41:16Z</time></trkpt><trkpt lat="37.130093946396435" lon="139.9727043245586"><ele>1548.12553491164</ele><time>2021-11-06T08:41:44Z</time></trkpt><trkpt lat="37.13009980716074" lon="139.97293248133613"><ele>1543.8428435353562</ele><time>2021-11-06T08:42:07Z</time></trkpt><trkpt lat="37.13009873049246" lon="139.97316223736706"><ele>1533.5617901254445</ele><time>2021-11-06T08:42:35Z</time></trkpt><trkpt lat="37.13008904194483" lon="139.97338938257352"><ele>1526.8763031261042</ele><time>2021-11-06T08:42:56Z</time></trkpt><trkpt lat="37.13011072724406" lon="139.97361473035028"><ele>1519.5077052898705</ele><time>2021-11-06T08:43:38Z</time></trkpt><trkpt lat="37.130156129222634" lon="139.9738411740193"><ele>1516.4640268031508</ele><time>2021-11-06T08:44:01Z</time></trkpt><trkpt lat="37.130091162521424" lon="139.97406289185068"><ele>1510.1303942482919</ele><time>2021-11-06T08:44:22Z</time></trkpt><trkpt lat="37.13005605846493" lon="139.97428444554436"><ele>1504.176572584547</ele><time>2021-11-06T08:44:52Z</time></trkpt><trkpt lat="37.13000734871863" lon="139.97450475512423"><ele>1500.5680069420487</ele><time>2021-11-06T08:45:17Z</time></trkpt><trkpt lat="37.12991440377327" lon="139.9743104652692"><ele>1494.9575725095347</ele><time>2021-11-06T08:45:39Z</time></trkpt><trkpt lat="37.12972660357642" lon="139.97429985613158"><ele>1489.044084672816</ele><time>2021-11-06T08:46:14Z</time></trkpt><trkpt lat="37.12957677941828" lon="139.97443543557662"><ele>1487.237621128559</ele><time>2021-11-06T08:46:31Z</time></trkpt><trkpt lat="37.12949008446351" lon="139.97463709982654"><ele>1484.3043429264799</ele><time>2021-11-06T08:47:08Z</time></trkpt><trkpt lat="37.12940261977555" lon="139.9748364141283"><ele>1480.4505360526964</ele><time>2021-11-06T08:47:23Z</time></trkpt><trkpt lat="37.12921633403532" lon="139.97490420708198"><ele>1478.8829917842522</ele><time>2021-11-06T08:47:35Z</time></trkpt><trkpt lat="37.129218135284056" lon="139.9751317999148"><ele>1477.9009112128988</ele><time>2021-11-06T08:47:58Z</time></trkpt><trkpt lat="37.12922507347569" lon="139.97536697031634"><ele>1472.502175098285</ele><time>2021-11-06T08:48:18Z</time></trkpt><trkpt lat="37.12903439093329" lon="139.9753600865349"><ele>1467.5896836416796</ele><time>2021-11-06T08:48:50Z</time></trkpt><trkpt lat="37.12884639379926" lon="139.97538707191825"><ele>1465.4303287472576</ele><time>2021-11-06T08:49:04Z</time></trkpt><trkpt lat="37.12883508939509" lon="139.97562121655648"><ele>1463.177546790801</ele><time>2021-11-06T08:50:44Z</time></trkpt><trkpt lat="37.12895692097261" lon="139.9757917686611"><ele>1462.4332777140662</ele><time>2021-11-06T08:51:16Z</time></trkpt></trkseg></trk></gpx>