<?xml version='1.0' encoding='UTF-8'?><gpx creator="YAMAP - https://yamap.com" xsi:schemaLocation="http://www.topografix.com/GPX/1/1 http://www.topografix.com/GPX/1/1/gpx.xsd" version="1.1" xmlns="http://www.topografix.com/GPX/1/1" xmlns:xsi="http://www.w3.org/2001/XMLSchema-instance"><metadata><bounds maxlat="36.22635765471625" maxlon="140.11148506012296" minlat="36.206344585759574" minlon="140.08028603635876"/></metadata><trk><name>筑波山(男体山)・筑波山(女体山)</name><number>1</number><trkseg><trkpt lat="36.20733464655579" lon="140.08056548245492"><ele>30.55667299591005</ele><time>2021-10-24T00:46:19Z</time></trkpt><trkpt lat="36.20745452187802" lon="140.0807650998731"><ele>31.203457741066813</ele><time>2021-10-24T00:46:36Z</time></trkpt><trkpt lat="36.207602853986074" lon="140.08094633174406"><ele>32.029785599559546</ele><time>2021-10-24T00:46:44Z</time></trkpt><trkpt lat="36.2077414732948" lon="140.0811064506583"><ele>32.65672920830548</ele><time>2021-10-24T00:46:51Z</time></trkpt><trkpt lat="36.20786452186702" lon="140.08128213411607"><ele>34.68888922408223</ele><time>2021-10-24T00:46:58Z</time></trkpt><trkpt lat="36.20801351457411" lon="140.08145227038938"><ele>34.22054617665708</ele><time>2021-10-24T00:47:06Z</time></trkpt><trkpt lat="36.2081445579695" lon="140.08163155549585"><ele>35.292196068912745</ele><time>2021-10-24T00:47:15Z</time></trkpt><trkpt lat="36.208280923958775" lon="140.081792340215"><ele>36.15627549029887</ele><time>2021-10-24T00:47:23Z</time></trkpt><trkpt lat="36.20844352717444" lon="140.0819202426694"><ele>37.976943185552955</ele><time>2021-10-24T00:47:42Z</time></trkpt><trkpt lat="36.20837316788652" lon="140.08214045201487"><ele>39.57689226977527</ele><time>2021-10-24T00:47:49Z</time></trkpt><trkpt lat="36.208279662233956" lon="140.08233682352906"><ele>40.59332676883787</ele><time>2021-10-24T00:47:56Z</time></trkpt><trkpt lat="36.20813615305963" lon="140.08249229812805"><ele>40.92681004758924</ele><time>2021-10-24T00:48:02Z</time></trkpt><trkpt lat="36.20799590187133" lon="140.08263744262513"><ele>41.927473897114396</ele><time>2021-10-24T00:48:08Z</time></trkpt><trkpt lat="36.20784543484142" lon="140.08285138734968"><ele>41.98099416587502</ele><time>2021-10-24T00:48:13Z</time></trkpt><trkpt lat="36.2077103551846" lon="140.0830697243127"><ele>41.454705003648996</ele><time>2021-10-24T00:48:17Z</time></trkpt><trkpt lat="36.20757341155879" lon="140.08326544761744"><ele>42.86517135798931</ele><time>2021-10-24T00:48:21Z</time></trkpt><trkpt lat="36.20744953854789" lon="140.08348510490023"><ele>43.14793560281396</ele><time>2021-10-24T00:48:25Z</time></trkpt><trkpt lat="36.207317221465374" lon="140.08367286673703"><ele>43.8969891006127</ele><time>2021-10-24T00:48:30Z</time></trkpt><trkpt lat="36.207195947622246" lon="140.08388936988848"><ele>44.98271469864994</ele><time>2021-10-24T00:48:35Z</time></trkpt><trkpt lat="36.20710484699675" lon="140.08409333308532"><ele>46.22508436534554</ele><time>2021-10-24T00:48:40Z</time></trkpt><trkpt lat="36.20705664311399" lon="140.0843287691425"><ele>46.59350909292698</ele><time>2021-10-24T00:48:45Z</time></trkpt><trkpt lat="36.20709607039844" lon="140.08455201226425"><ele>48.44353176653385</ele><time>2021-10-24T00:48:50Z</time></trkpt><trkpt lat="36.207295199006836" lon="140.08463816410247"><ele>49.84605494700372</ele><time>2021-10-24T00:48:56Z</time></trkpt><trkpt lat="36.20744534325168" lon="140.08449593380314"><ele>50.45003211405128</ele><time>2021-10-24T00:49:01Z</time></trkpt><trkpt lat="36.20761347865625" lon="140.08435256772847"><ele>50.37593845371157</ele><time>2021-10-24T00:49:07Z</time></trkpt><trkpt lat="36.20775555573166" lon="140.08421037641358"><ele>52.444048354402184</ele><time>2021-10-24T00:49:12Z</time></trkpt><trkpt lat="36.207940026071135" lon="140.0841097413652"><ele>52.18209679611027</ele><time>2021-10-24T00:49:18Z</time></trkpt><trkpt lat="36.20813986902914" lon="140.08404846619055"><ele>51.484728305600584</ele><time>2021-10-24T00:49:24Z</time></trkpt><trkpt lat="36.2083513949316" lon="140.08401199478638"><ele>52.105709484778345</ele><time>2021-10-24T00:49:30Z</time></trkpt><trkpt lat="36.208541342771774" lon="140.0839655023767"><ele>54.25748362392187</ele><time>2021-10-24T00:49:37Z</time></trkpt><trkpt lat="36.20871951522631" lon="140.08393154458963"><ele>57.839914716780186</ele><time>2021-10-24T00:49:43Z</time></trkpt><trkpt lat="36.208904330992254" lon="140.08389105192862"><ele>58.85887877177447</ele><time>2021-10-24T00:49:49Z</time></trkpt><trkpt lat="36.209089253644" lon="140.08386566359601"><ele>62.27822855487466</ele><time>2021-10-24T00:49:55Z</time></trkpt><trkpt lat="36.209278249816" lon="140.0839259877482"><ele>66.02133315149695</ele><time>2021-10-24T00:50:02Z</time></trkpt><trkpt lat="36.20932345700155" lon="140.08415609458893"><ele>70.25826410297304</ele><time>2021-10-24T00:50:11Z</time></trkpt><trkpt lat="36.20923674528872" lon="140.08436660966177"><ele>72.69323085527867</ele><time>2021-10-24T00:50:17Z</time></trkpt><trkpt lat="36.20912812706721" lon="140.08455729601317"><ele>77.4117104113102</ele><time>2021-10-24T00:50:25Z</time></trkpt><trkpt lat="36.20902394450713" lon="140.08474407000875"><ele>79.53396952711046</ele><time>2021-10-24T00:50:31Z</time></trkpt><trkpt lat="36.208916198556416" lon="140.08494989141133"><ele>80.26624697446823</ele><time>2021-10-24T00:50:38Z</time></trkpt><trkpt lat="36.20883571130266" lon="140.08516300382897"><ele>81.95966136269271</ele><time>2021-10-24T00:50:45Z</time></trkpt><trkpt lat="36.208844475016924" lon="140.0853933756327"><ele>81.67997997067869</ele><time>2021-10-24T00:50:52Z</time></trkpt><trkpt lat="36.20883332518145" lon="140.08562871185538"><ele>84.19782504718751</ele><time>2021-10-24T00:50:58Z</time></trkpt><trkpt lat="36.20887291816926" lon="140.0858495358544"><ele>83.37364077288657</ele><time>2021-10-24T00:51:05Z</time></trkpt><trkpt lat="36.20900999916531" lon="140.08600902376287"><ele>83.89717384427786</ele><time>2021-10-24T00:51:12Z</time></trkpt><trkpt lat="36.20921432266781" lon="140.08601562914288"><ele>86.01828215643764</ele><time>2021-10-24T00:51:20Z</time></trkpt><trkpt lat="36.20941270368928" lon="140.08596854151463"><ele>88.31465911585838</ele><time>2021-10-24T00:51:27Z</time></trkpt><trkpt lat="36.20959176774" lon="140.08584251235501"><ele>89.94214438833296</ele><time>2021-10-24T00:51:34Z</time></trkpt><trkpt lat="36.20972344213866" lon="140.08566919671787"><ele>91.52883227542043</ele><time>2021-10-24T00:51:42Z</time></trkpt><trkpt lat="36.20986831484636" lon="140.08553049663857"><ele>93.89690672699362</ele><time>2021-10-24T00:51:51Z</time></trkpt><trkpt lat="36.210062877037544" lon="140.08558059522176"><ele>94.81953289825469</ele><time>2021-10-24T00:52:00Z</time></trkpt><trkpt lat="36.21016187025764" lon="140.085777865814"><ele>96.27305648289621</ele><time>2021-10-24T00:52:11Z</time></trkpt><trkpt lat="36.21022046252204" lon="140.08600509433515"><ele>96.63563181459904</ele><time>2021-10-24T00:52:21Z</time></trkpt><trkpt lat="36.21027412449395" lon="140.08621878564966"><ele>99.1878031399101</ele><time>2021-10-24T00:52:29Z</time></trkpt><trkpt lat="36.21030549388128" lon="140.08646432172523"><ele>100.08822451904416</ele><time>2021-10-24T00:52:37Z</time></trkpt><trkpt lat="36.21033762941286" lon="140.08669588940197"><ele>103.07595450710505</ele><time>2021-10-24T00:52:44Z</time></trkpt><trkpt lat="36.21029977802732" lon="140.08692185710657"><ele>105.29809633363038</ele><time>2021-10-24T00:52:52Z</time></trkpt><trkpt lat="36.210236282222105" lon="140.0871304714924"><ele>107.44028626382351</ele><time>2021-10-24T00:53:00Z</time></trkpt><trkpt lat="36.21014774453254" lon="140.08734772679406"><ele>109.13125598244369</ele><time>2021-10-24T00:53:08Z</time></trkpt><trkpt lat="36.21007044864137" lon="140.08755223998145"><ele>109.64914725162089</ele><time>2021-10-24T00:53:16Z</time></trkpt><trkpt lat="36.20998617614932" lon="140.08777626814617"><ele>111.31358698941767</ele><time>2021-10-24T00:53:25Z</time></trkpt><trkpt lat="36.209925170624224" lon="140.08800057012306"><ele>111.27301855850965</ele><time>2021-10-24T00:53:34Z</time></trkpt><trkpt lat="36.2098867769351" lon="140.0882288111216"><ele>113.05931125488132</ele><time>2021-10-24T00:53:42Z</time></trkpt><trkpt lat="36.209849914747004" lon="140.08847237775754"><ele>116.84235106315464</ele><time>2021-10-24T00:53:50Z</time></trkpt><trkpt lat="36.20980018554402" lon="140.0886964523479"><ele>119.67988777440041</ele><time>2021-10-24T00:53:57Z</time></trkpt><trkpt lat="36.20977717078478" lon="140.08893350108073"><ele>120.75355551019311</ele><time>2021-10-24T00:54:05Z</time></trkpt><trkpt lat="36.2097535275566" lon="140.08918436107885"><ele>121.1347777377814</ele><time>2021-10-24T00:54:14Z</time></trkpt><trkpt lat="36.20973659560248" lon="140.08944122690022"><ele>123.51901627704501</ele><time>2021-10-24T00:54:24Z</time></trkpt><trkpt lat="36.20973260577142" lon="140.08969834631174"><ele>122.81198460888118</ele><time>2021-10-24T00:54:34Z</time></trkpt><trkpt lat="36.209717781050166" lon="140.08996048703017"><ele>124.82009325176477</ele><time>2021-10-24T00:54:44Z</time></trkpt><trkpt lat="36.20969038040041" lon="140.09020060080118"><ele>127.09787286631763</ele><time>2021-10-24T00:54:52Z</time></trkpt><trkpt lat="36.20966146618122" lon="140.09044801706585"><ele>127.45711717847735</ele><time>2021-10-24T00:55:00Z</time></trkpt><trkpt lat="36.209680568016985" lon="140.09067144130125"><ele>130.36071660276502</ele><time>2021-10-24T00:55:08Z</time></trkpt><trkpt lat="36.209660992899316" lon="140.09090297461609"><ele>130.94590179249644</ele><time>2021-10-24T00:55:15Z</time></trkpt><trkpt lat="36.20966288585043" lon="140.09113497568697"><ele>133.70785404648632</ele><time>2021-10-24T00:55:24Z</time></trkpt><trkpt lat="36.20965212865465" lon="140.0913583499648"><ele>135.4501850316301</ele><time>2021-10-24T00:55:33Z</time></trkpt><trkpt lat="36.209684824101274" lon="140.0916015080232"><ele>136.25025967508554</ele><time>2021-10-24T00:55:42Z</time></trkpt><trkpt lat="36.20975908580607" lon="140.09181331951572"><ele>140.2724747536704</ele><time>2021-10-24T00:55:51Z</time></trkpt><trkpt lat="36.20984087155558" lon="140.09204571402162"><ele>144.14517726097256</ele><time>2021-10-24T00:56:00Z</time></trkpt><trkpt lat="36.2099226989001" lon="140.09224704816643"><ele>146.15226858574897</ele><time>2021-10-24T00:56:09Z</time></trkpt><trkpt lat="36.21000298474876" lon="140.09245738335133"><ele>149.98334009759128</ele><time>2021-10-24T00:56:17Z</time></trkpt><trkpt lat="36.210082349178215" lon="140.0926752867991"><ele>151.42233260441571</ele><time>2021-10-24T00:56:27Z</time></trkpt><trkpt lat="36.210018813712175" lon="140.09289721297162"><ele>151.7302063414827</ele><time>2021-10-24T00:56:37Z</time></trkpt><trkpt lat="36.20986057803936" lon="140.09302198413232"><ele>151.85118789598346</ele><time>2021-10-24T00:56:46Z</time></trkpt><trkpt lat="36.20970903546565" lon="140.09316374837763"><ele>151.1098636072129</ele><time>2021-10-24T00:56:53Z</time></trkpt><trkpt lat="36.209605088889035" lon="140.09339091234142"><ele>152.37422909308225</ele><time>2021-10-24T00:57:01Z</time></trkpt><trkpt lat="36.209559495846" lon="140.0936110794745"><ele>155.4844239614904</ele><time>2021-10-24T00:57:09Z</time></trkpt><trkpt lat="36.209540956124606" lon="140.09385482385022"><ele>155.53026765212417</ele><time>2021-10-24T00:57:17Z</time></trkpt><trkpt lat="36.20948193194041" lon="140.0940914458609"><ele>158.47609227336943</ele><time>2021-10-24T00:57:25Z</time></trkpt><trkpt lat="36.2094547572946" lon="140.09431177461371"><ele>161.08702972810715</ele><time>2021-10-24T00:57:33Z</time></trkpt><trkpt lat="36.20950949278895" lon="140.0945311791605"><ele>161.74618297629058</ele><time>2021-10-24T00:57:42Z</time></trkpt><trkpt lat="36.20967262708264" lon="140.09465803198327"><ele>164.00771851558238</ele><time>2021-10-24T00:57:51Z</time></trkpt><trkpt lat="36.209846909774896" lon="140.09453363308367"><ele>167.7735592154786</ele><time>2021-10-24T00:58:00Z</time></trkpt><trkpt lat="36.20998129367554" lon="140.09430722315844"><ele>167.21256900951266</ele><time>2021-10-24T00:58:08Z</time></trkpt><trkpt lat="36.210080593433254" lon="140.09409002593705"><ele>168.6427007569</ele><time>2021-10-24T00:58:15Z</time></trkpt><trkpt lat="36.21017335554276" lon="140.0938853064947"><ele>169.015011834912</ele><time>2021-10-24T00:58:22Z</time></trkpt><trkpt lat="36.21029916150467" lon="140.09371770451037"><ele>169.87473924923688</ele><time>2021-10-24T00:58:32Z</time></trkpt><trkpt lat="36.21041566740023" lon="140.0935265552996"><ele>169.33581715170294</ele><time>2021-10-24T00:58:40Z</time></trkpt><trkpt lat="36.2105244160879" lon="140.0933192196146"><ele>167.93624049797654</ele><time>2021-10-24T00:58:46Z</time></trkpt><trkpt lat="36.210640652547134" lon="140.09311817561053"><ele>169.153080557473</ele><time>2021-10-24T00:58:52Z</time></trkpt><trkpt lat="36.21076815706505" lon="140.09292422466652"><ele>167.84111681673676</ele><time>2021-10-24T00:58:59Z</time></trkpt><trkpt lat="36.21084979020255" lon="140.09271586795955"><ele>168.34947980195284</ele><time>2021-10-24T00:59:05Z</time></trkpt><trkpt lat="36.210967798956474" lon="140.09254579826052"><ele>167.41738053504378</ele><time>2021-10-24T00:59:11Z</time></trkpt><trkpt lat="36.211098087429185" lon="140.09237305244756"><ele>168.63464466109872</ele><time>2021-10-24T00:59:17Z</time></trkpt><trkpt lat="36.2112407330419" lon="140.0921969267622"><ele>169.48301216308028</ele><time>2021-10-24T00:59:24Z</time></trkpt><trkpt lat="36.211389661522674" lon="140.09203988617782"><ele>173.76210170798004</ele><time>2021-10-24T00:59:31Z</time></trkpt><trkpt lat="36.21153202092181" lon="140.0918925777346"><ele>172.8539061639458</ele><time>2021-10-24T00:59:38Z</time></trkpt><trkpt lat="36.21165371454621" lon="140.09172699607598"><ele>176.54216518625617</ele><time>2021-10-24T00:59:47Z</time></trkpt><trkpt lat="36.211816244353436" lon="140.09160855513193"><ele>180.2832402056083</ele><time>2021-10-24T00:59:56Z</time></trkpt><trkpt lat="36.21199810897221" lon="140.09164647395406"><ele>183.0481451181695</ele><time>2021-10-24T01:00:04Z</time></trkpt><trkpt lat="36.212120979212145" lon="140.09182871962918"><ele>184.24608597625047</ele><time>2021-10-24T01:00:13Z</time></trkpt><trkpt lat="36.21213890919751" lon="140.09205361238233"><ele>184.84778855741024</ele><time>2021-10-24T01:00:22Z</time></trkpt><trkpt lat="36.21210614013667" lon="140.0922892485806"><ele>185.47215635050088</ele><time>2021-10-24T01:00:31Z</time></trkpt><trkpt lat="36.212112864215094" lon="140.09252661926828"><ele>186.87182133365422</ele><time>2021-10-24T01:00:40Z</time></trkpt><trkpt lat="36.21208674128238" lon="140.09277085803137"><ele>188.38920384086668</ele><time>2021-10-24T01:00:49Z</time></trkpt><trkpt lat="36.212126552407874" lon="140.09300737973933"><ele>189.77332785818726</ele><time>2021-10-24T01:00:57Z</time></trkpt><trkpt lat="36.21222674343244" lon="140.09321652095963"><ele>191.19519140105695</ele><time>2021-10-24T01:01:06Z</time></trkpt><trkpt lat="36.21227951114743" lon="140.093460773628"><ele>196.72923664934933</ele><time>2021-10-24T01:01:15Z</time></trkpt><trkpt lat="36.212271046524826" lon="140.09369346249946"><ele>201.4454671246931</ele><time>2021-10-24T01:01:24Z</time></trkpt><trkpt lat="36.21224211247751" lon="140.09393014997036"><ele>205.34952917322516</ele><time>2021-10-24T01:01:32Z</time></trkpt><trkpt lat="36.21217716837905" lon="140.09414735933174"><ele>207.49629901256412</ele><time>2021-10-24T01:01:40Z</time></trkpt><trkpt lat="36.21213459363911" lon="140.09436523139624"><ele>210.98788705281913</ele><time>2021-10-24T01:01:48Z</time></trkpt><trkpt lat="36.212152554095645" lon="140.0945908447882"><ele>211.89576246216893</ele><time>2021-10-24T01:01:56Z</time></trkpt><trkpt lat="36.2122152990265" lon="140.09480795935693"><ele>213.1056850310415</ele><time>2021-10-24T01:02:04Z</time></trkpt><trkpt lat="36.21229920966333" lon="140.09501579255334"><ele>215.0492543298751</ele><time>2021-10-24T01:02:13Z</time></trkpt><trkpt lat="36.21243637922868" lon="140.0951881346838"><ele>215.8875865470618</ele><time>2021-10-24T01:02:21Z</time></trkpt><trkpt lat="36.21256664099615" lon="140.09537171629952"><ele>217.7068343060091</ele><time>2021-10-24T01:02:28Z</time></trkpt><trkpt lat="36.21255674262669" lon="140.09559923257814"><ele>217.64629427623004</ele><time>2021-10-24T01:02:35Z</time></trkpt><trkpt lat="36.21247334461385" lon="140.0958061451088"><ele>218.62993488274515</ele><time>2021-10-24T01:02:43Z</time></trkpt><trkpt lat="36.21231764079171" lon="140.0959433943518"><ele>217.10471003688872</ele><time>2021-10-24T01:02:52Z</time></trkpt><trkpt lat="36.21213640506285" lon="140.09604521201265"><ele>218.10379558149725</ele><time>2021-10-24T01:03:02Z</time></trkpt><trkpt lat="36.21195654575097" lon="140.0960943797353"><ele>217.7089543826878</ele><time>2021-10-24T01:03:17Z</time></trkpt><trkpt lat="36.211878942432065" lon="140.09606420711745"><ele>218.74495016690344</ele><time>2021-10-24T01:05:59Z</time></trkpt><trkpt lat="36.21184069200997" lon="140.0962847193145"><ele>220.80642700195312</ele><time>2021-10-24T01:55:01Z</time></trkpt><trkpt lat="36.21192346954343" lon="140.09607872671964"><ele>217.15713505260646</ele><time>2021-10-24T01:55:27Z</time></trkpt><trkpt lat="36.21197886383232" lon="140.09629318975362"><ele>215.91158560663462</ele><time>2021-10-24T01:55:56Z</time></trkpt><trkpt lat="36.212001536234226" lon="140.0965149925105"><ele>219.44288601446897</ele><time>2021-10-24T01:56:12Z</time></trkpt><trkpt lat="36.21218304811719" lon="140.09655752198861"><ele>220.5105983018875</ele><time>2021-10-24T01:56:56Z</time></trkpt><trkpt lat="36.21224508121491" lon="140.0967792726494"><ele>220.90848092362285</ele><time>2021-10-24T01:57:40Z</time></trkpt><trkpt lat="36.21228757481606" lon="140.0970060131799"><ele>222.98357760719955</ele><time>2021-10-24T01:57:58Z</time></trkpt><trkpt lat="36.21230398334988" lon="140.09723051471462"><ele>224.95589382667094</ele><time>2021-10-24T01:58:12Z</time></trkpt><trkpt lat="36.212351921243645" lon="140.09745532373054"><ele>225.15580015536398</ele><time>2021-10-24T01:58:27Z</time></trkpt><trkpt lat="36.21237985463631" lon="140.0976839236785"><ele>224.81602373812348</ele><time>2021-10-24T01:58:41Z</time></trkpt><trkpt lat="36.21236907542727" lon="140.09790948417742"><ele>226.19817609433085</ele><time>2021-10-24T01:58:55Z</time></trkpt><trkpt lat="36.21232494961116" lon="140.0981426041263"><ele>228.57548376824707</ele><time>2021-10-24T01:59:08Z</time></trkpt><trkpt lat="36.21225225614812" lon="140.09834974346734"><ele>229.60873139929026</ele><time>2021-10-24T01:59:25Z</time></trkpt><trkpt lat="36.21220422036871" lon="140.0985755730957"><ele>231.3374598780647</ele><time>2021-10-24T01:59:40Z</time></trkpt><trkpt lat="36.21218176154747" lon="140.09880476163983"><ele>231.4728092867881</ele><time>2021-10-24T01:59:50Z</time></trkpt><trkpt lat="36.212160895644445" lon="140.09902757251223"><ele>231.18385521601886</ele><time>2021-10-24T02:00:03Z</time></trkpt><trkpt lat="36.21217153257429" lon="140.09926098554388"><ele>233.44506411626935</ele><time>2021-10-24T02:00:14Z</time></trkpt><trkpt lat="36.21215123997929" lon="140.09948395339399"><ele>235.067093369551</ele><time>2021-10-24T02:00:25Z</time></trkpt><trkpt lat="36.21216498724632" lon="140.09972826417217"><ele>235.93185973912477</ele><time>2021-10-24T02:00:38Z</time></trkpt><trkpt lat="36.2121560996895" lon="140.09996239180893"><ele>236.1317590083927</ele><time>2021-10-24T02:00:49Z</time></trkpt><trkpt lat="36.21214863824527" lon="140.1001881387633"><ele>235.15481996256858</ele><time>2021-10-24T02:01:03Z</time></trkpt><trkpt lat="36.21219250837211" lon="140.10041286246968"><ele>237.4651032956317</ele><time>2021-10-24T02:01:13Z</time></trkpt><trkpt lat="36.21212613966856" lon="140.10062738148173"><ele>236.6843045130372</ele><time>2021-10-24T02:01:26Z</time></trkpt><trkpt lat="36.212249875673734" lon="140.10080751259517"><ele>238.3007925255224</ele><time>2021-10-24T02:01:41Z</time></trkpt><trkpt lat="36.212413691344565" lon="140.10091180054482"><ele>243.0649503339082</ele><time>2021-10-24T02:01:58Z</time></trkpt><trkpt lat="36.212584103037514" lon="140.10101025098166"><ele>245.0287016760558</ele><time>2021-10-24T02:02:13Z</time></trkpt><trkpt lat="36.212774346051006" lon="140.1009741476583"><ele>247.73800902348012</ele><time>2021-10-24T02:02:29Z</time></trkpt><trkpt lat="36.212916010881145" lon="140.1011227355513"><ele>252.73438789322972</ele><time>2021-10-24T02:02:43Z</time></trkpt><trkpt lat="36.2131124474475" lon="140.1011632923361"><ele>254.269672033377</ele><time>2021-10-24T02:03:06Z</time></trkpt><trkpt lat="36.21329625296448" lon="140.10121490346685"><ele>254.14951781649143</ele><time>2021-10-24T02:03:18Z</time></trkpt><trkpt lat="36.21348869013959" lon="140.10119752910063"><ele>259.9613992832601</ele><time>2021-10-24T02:03:47Z</time></trkpt><trkpt lat="36.225646735443945" lon="140.09849642014365"><ele>869.601644102484</ele><time>2021-10-24T03:05:06Z</time></trkpt><trkpt lat="36.225646735443945" lon="140.09849642014365"><ele>869.601644102484</ele><time>2021-10-24T03:05:06Z</time></trkpt><trkpt lat="36.22565549935817" lon="140.09871991934602"><ele>865.1242608316243</ele><time>2021-10-24T03:10:52Z</time></trkpt><trkpt lat="36.22549884924773" lon="140.098835868565"><ele>864.1068942444399</ele><time>2021-10-24T03:12:10Z</time></trkpt><trkpt lat="36.22541088551623" lon="140.0990449713739"><ele>853.5061617400497</ele><time>2021-10-24T03:13:15Z</time></trkpt><trkpt lat="36.225367613691674" lon="140.0992637037917"><ele>841.4681412642822</ele><time>2021-10-24T03:14:38Z</time></trkpt><trkpt lat="36.225561279691824" lon="140.0992996541502"><ele>838.2957497024909</ele><time>2021-10-24T03:15:02Z</time></trkpt><trkpt lat="36.22559100935732" lon="140.09953051059233"><ele>831.312635788694</ele><time>2021-10-24T03:16:01Z</time></trkpt><trkpt lat="36.22566548452828" lon="140.09973517198796"><ele>821.8208341663703</ele><time>2021-10-24T03:16:53Z</time></trkpt><trkpt lat="36.2256253824971" lon="140.09996919084398"><ele>814.7650369498879</ele><time>2021-10-24T03:17:18Z</time></trkpt><trkpt lat="36.225637799476" lon="140.10019298235332"><ele>807.8248432036489</ele><time>2021-10-24T03:17:42Z</time></trkpt><trkpt lat="36.22579104171139" lon="140.10031110380646"><ele>802.2068446166813</ele><time>2021-10-24T03:18:11Z</time></trkpt><trkpt lat="36.22589955602787" lon="140.10049532181694"><ele>797.3780985884368</ele><time>2021-10-24T03:18:43Z</time></trkpt><trkpt lat="36.226081959636865" lon="140.10053440392147"><ele>799.7903898274526</ele><time>2021-10-24T03:19:04Z</time></trkpt><trkpt lat="36.22610299314862" lon="140.10109170338345"><ele>795.0661393292248</ele><time>2021-10-24T03:20:20Z</time></trkpt><trkpt lat="36.22609893394953" lon="140.101088074989"><ele>795.446323026903</ele><time>2021-10-24T03:20:21Z</time></trkpt><trkpt lat="36.22611956047655" lon="140.10131918398713"><ele>796.579808508046</ele><time>2021-10-24T03:20:58Z</time></trkpt><trkpt lat="36.22615119883526" lon="140.1015438409145"><ele>795.2918296279386</ele><time>2021-10-24T03:21:16Z</time></trkpt><trkpt lat="36.226189720149335" lon="140.1017635840077"><ele>798.3484183112159</ele><time>2021-10-24T03:21:39Z</time></trkpt><trkpt lat="36.22621833310001" lon="140.1019899559993"><ele>801.4594819322228</ele><time>2021-10-24T03:21:58Z</time></trkpt><trkpt lat="36.226282984200346" lon="140.1022124587837"><ele>804.3501807162538</ele><time>2021-10-24T03:22:19Z</time></trkpt><trkpt lat="36.22625340778085" lon="140.10243401624862"><ele>807.0419214293361</ele><time>2021-10-24T03:22:39Z</time></trkpt><trkpt lat="36.22627079039764" lon="140.10266067280008"><ele>810.00258187484</ele><time>2021-10-24T03:22:59Z</time></trkpt><trkpt lat="36.22629776190284" lon="140.10289190998353"><ele>814.6627071686089</ele><time>2021-10-24T03:23:20Z</time></trkpt><trkpt lat="36.22632495995056" lon="140.10311982998138"><ele>819.4741487028077</ele><time>2021-10-24T03:23:41Z</time></trkpt><trkpt lat="36.22630269570384" lon="140.10334994091076"><ele>819.9614799339324</ele><time>2021-10-24T03:24:03Z</time></trkpt><trkpt lat="36.22635765471625" lon="140.10356485603103"><ele>823.3453061506152</ele><time>2021-10-24T03:24:31Z</time></trkpt><trkpt lat="36.22632715080075" lon="140.10378424999786"><ele>828.8378891702741</ele><time>2021-10-24T03:25:28Z</time></trkpt><trkpt lat="36.22625784207389" lon="140.10399213577193"><ele>834.6427463339642</ele><time>2021-10-24T03:26:36Z</time></trkpt><trkpt lat="36.22620856023435" lon="140.10421448289802"><ele>840.4353363858536</ele><time>2021-10-24T03:27:41Z</time></trkpt><trkpt lat="36.226120832850526" lon="140.1044114692389"><ele>841.3610522812232</ele><time>2021-10-24T03:28:20Z</time></trkpt><trkpt lat="36.22614517172198" lon="140.10463233514656"><ele>841.195851944387</ele><time>2021-10-24T03:29:03Z</time></trkpt><trkpt lat="36.22608843524455" lon="140.10484435034803"><ele>846.4652295196429</ele><time>2021-10-24T03:30:03Z</time></trkpt><trkpt lat="36.22598720189265" lon="140.10502863072855"><ele>846.7077451460063</ele><time>2021-10-24T03:30:45Z</time></trkpt><trkpt lat="36.22600179760727" lon="140.10525296918198"><ele>849.0018688654527</ele><time>2021-10-24T03:31:15Z</time></trkpt><trkpt lat="36.226003561126056" lon="140.10548432383442"><ele>851.6518091652542</ele><time>2021-10-24T03:31:41Z</time></trkpt><trkpt lat="36.22589824680275" lon="140.1056667278166"><ele>856.8622148763388</ele><time>2021-10-24T03:32:01Z</time></trkpt><trkpt lat="36.22584393355429" lon="140.1058829450845"><ele>855.9069531541318</ele><time>2021-10-24T03:32:17Z</time></trkpt><trkpt lat="36.22578814574519" lon="140.10610743860605"><ele>856.3745273854584</ele><time>2021-10-24T03:32:37Z</time></trkpt><trkpt lat="36.22577782419271" lon="140.10633114145188"><ele>855.4640090009198</ele><time>2021-10-24T03:33:10Z</time></trkpt><trkpt lat="36.2256870753131" lon="140.1065275538046"><ele>854.3575678505003</ele><time>2021-10-24T03:34:00Z</time></trkpt><trkpt lat="36.225506382441885" lon="140.10658382855124"><ele>864.3523006234318</ele><time>2021-10-24T03:35:16Z</time></trkpt><trkpt lat="36.22567670372103" lon="140.10650495837814"><ele>856.0116648301482</ele><time>2021-10-24T03:39:30Z</time></trkpt><trkpt lat="36.22552435962601" lon="140.10663734265805"><ele>850.7680476428941</ele><time>2021-10-24T03:44:42Z</time></trkpt><trkpt lat="36.225526366932705" lon="140.1068623214813"><ele>845.896796845831</ele><time>2021-10-24T03:46:28Z</time></trkpt><trkpt lat="36.225432346795" lon="140.10706619030876"><ele>838.3182628341019</ele><time>2021-10-24T03:48:14Z</time></trkpt><trkpt lat="36.22525073494654" lon="140.10712113396"><ele>825.619322839193</ele><time>2021-10-24T03:50:27Z</time></trkpt><trkpt lat="36.225095408110334" lon="140.10724576814744"><ele>817.3063841918483</ele><time>2021-10-24T03:52:03Z</time></trkpt><trkpt lat="36.22491352271696" lon="140.10723145103765"><ele>813.7648506313562</ele><time>2021-10-24T03:52:36Z</time></trkpt><trkpt lat="36.224746076949955" lon="140.1073221270685"><ele>812.3686284767464</ele><time>2021-10-24T03:57:07Z</time></trkpt><trkpt lat="36.22480559286974" lon="140.1075326963234"><ele>799.5080318506807</ele><time>2021-10-24T03:58:39Z</time></trkpt><trkpt lat="36.2249685669504" lon="140.10765214555354"><ele>796.047680940479</ele><time>2021-10-24T03:59:13Z</time></trkpt><trkpt lat="36.22506028122132" lon="140.10784624981113"><ele>791.20480942633</ele><time>2021-10-24T03:59:59Z</time></trkpt><trkpt lat="36.22513944280008" lon="140.10804857119965"><ele>786.685284441337</ele><time>2021-10-24T04:01:01Z</time></trkpt><trkpt lat="36.225160020384415" lon="140.10828203252504"><ele>783.5867758635432</ele><time>2021-10-24T04:01:17Z</time></trkpt><trkpt lat="36.225014692577325" lon="140.10842388268432"><ele>772.2757280794904</ele><time>2021-10-24T04:04:12Z</time></trkpt><trkpt lat="36.22500884065503" lon="140.10865901717216"><ele>766.4773955764249</ele><time>2021-10-24T04:04:40Z</time></trkpt><trkpt lat="36.22509835906426" lon="140.1088563520695"><ele>765.200617951341</ele><time>2021-10-24T04:04:55Z</time></trkpt><trkpt lat="36.225141629018665" lon="140.10907318816618"><ele>760.6137981563807</ele><time>2021-10-24T04:05:06Z</time></trkpt><trkpt lat="36.22512885860527" lon="140.1093057982982"><ele>756.8155412301421</ele><time>2021-10-24T04:05:13Z</time></trkpt><trkpt lat="36.225105801584526" lon="140.10953945494867"><ele>761.7622175998986</ele><time>2021-10-24T04:05:25Z</time></trkpt><trkpt lat="36.22501480319248" lon="140.10973575904873"><ele>760.7191449822858</ele><time>2021-10-24T04:05:36Z</time></trkpt><trkpt lat="36.22491798501047" lon="140.1099264240902"><ele>760.9000570196658</ele><time>2021-10-24T04:05:54Z</time></trkpt><trkpt lat="36.22492404476852" lon="140.11015162215722"><ele>771.5490009719506</ele><time>2021-10-24T04:06:21Z</time></trkpt><trkpt lat="36.2247915837237" lon="140.11030495499654"><ele>767.6906602783129</ele><time>2021-10-24T04:07:02Z</time></trkpt><trkpt lat="36.224737359463575" lon="140.11051787091486"><ele>766.8412722339854</ele><time>2021-10-24T04:07:34Z</time></trkpt><trkpt lat="36.22464258492379" lon="140.11072341168193"><ele>764.9611792834476</ele><time>2021-10-24T04:07:58Z</time></trkpt><trkpt lat="36.22448471497762" lon="140.1108570151956"><ele>762.2838774779812</ele><time>2021-10-24T04:08:28Z</time></trkpt><trkpt lat="36.224372953255696" lon="140.1110345615401"><ele>757.3609494576231</ele><time>2021-10-24T04:09:16Z</time></trkpt><trkpt lat="36.22434156311418" lon="140.11125464512702"><ele>750.71723148413</ele><time>2021-10-24T04:10:33Z</time></trkpt><trkpt lat="36.22432641799427" lon="140.11148506012296"><ele>756.5080767879263</ele><time>2021-10-24T04:11:19Z</time></trkpt><trkpt lat="36.224140087619695" lon="140.11145883769743"><ele>747.4606501217932</ele><time>2021-10-24T04:12:55Z</time></trkpt><trkpt lat="36.22410090590073" lon="140.11123125308683"><ele>743.047667211853</ele><time>2021-10-24T04:13:17Z</time></trkpt><trkpt lat="36.224104846894285" lon="140.11100401474005"><ele>736.7238090466708</ele><time>2021-10-24T04:13:42Z</time></trkpt><trkpt lat="36.22399770147084" lon="140.11080932956764"><ele>731.8483332144096</ele><time>2021-10-24T04:13:59Z</time></trkpt><trkpt lat="36.22389746936858" lon="140.1106088942147"><ele>734.7911033127457</ele><time>2021-10-24T04:19:34Z</time></trkpt><trkpt lat="36.22394090617772" lon="140.11037736798792"><ele>723.8046777108684</ele><time>2021-10-24T04:20:00Z</time></trkpt><trkpt lat="36.22396793079437" lon="140.11015176980953"><ele>718.1197738228366</ele><time>2021-10-24T04:20:25Z</time></trkpt><trkpt lat="36.22383393096957" lon="140.10999899903064"><ele>707.9962669657543</ele><time>2021-10-24T04:20:52Z</time></trkpt><trkpt lat="36.22388652461897" lon="140.1097795241984"><ele>704.476064613089</ele><time>2021-10-24T04:21:20Z</time></trkpt><trkpt lat="36.223797090587105" lon="140.10956709196378"><ele>698.33395240549</ele><time>2021-10-24T04:22:20Z</time></trkpt><trkpt lat="36.22375169067014" lon="140.1093263002655"><ele>688.188926638104</ele><time>2021-10-24T04:23:51Z</time></trkpt><trkpt lat="36.223738955025716" lon="140.1090916748035"><ele>694.2723389500752</ele><time>2021-10-24T04:24:05Z</time></trkpt><trkpt lat="36.223556937172646" lon="140.1090388929676"><ele>688.2594544431195</ele><time>2021-10-24T04:24:47Z</time></trkpt><trkpt lat="36.22338948267907" lon="140.10894239463818"><ele>683.3727481840178</ele><time>2021-10-24T04:25:08Z</time></trkpt><trkpt lat="36.223202940158" lon="140.10894628338872"><ele>673.7304991558194</ele><time>2021-10-24T04:25:29Z</time></trkpt><trkpt lat="36.22301958870847" lon="140.1089441793363"><ele>670.4145404174924</ele><time>2021-10-24T04:25:45Z</time></trkpt><trkpt lat="36.22288803509259" lon="140.10878411936426"><ele>671.6050491360947</ele><time>2021-10-24T04:26:10Z</time></trkpt><trkpt lat="36.22270520556904" lon="140.10875751525492"><ele>674.0946075888351</ele><time>2021-10-24T04:26:33Z</time></trkpt><trkpt lat="36.22258301907879" lon="140.10858414581452"><ele>672.8233910873532</ele><time>2021-10-24T04:26:58Z</time></trkpt><trkpt lat="36.222407463556316" lon="140.10863531922269"><ele>670.6545857628807</ele><time>2021-10-24T04:27:06Z</time></trkpt><trkpt lat="36.22222268068868" lon="140.10869363634157"><ele>665.8636860707775</ele><time>2021-10-24T04:27:16Z</time></trkpt><trkpt lat="36.22202796118653" lon="140.10864368121497"><ele>661.6068402528763</ele><time>2021-10-24T04:27:36Z</time></trkpt><trkpt lat="36.221943499022224" lon="140.10843439729575"><ele>656.2754957992584</ele><time>2021-10-24T04:28:03Z</time></trkpt><trkpt lat="36.22175731395939" lon="140.10838745740665"><ele>654.5966987935826</ele><time>2021-10-24T04:28:14Z</time></trkpt><trkpt lat="36.22157615568782" lon="140.10834250719185"><ele>651.6454853247851</ele><time>2021-10-24T04:28:19Z</time></trkpt><trkpt lat="36.221389107714295" lon="140.1083372732447"><ele>651.9756150357425</ele><time>2021-10-24T04:28:25Z</time></trkpt><trkpt lat="36.22122023179723" lon="140.10823311551232"><ele>648.2715379595757</ele><time>2021-10-24T04:28:32Z</time></trkpt><trkpt lat="36.221036446785966" lon="140.10830413996652"><ele>636.6384077947587</ele><time>2021-10-24T04:28:43Z</time></trkpt><trkpt lat="36.22086753903461" lon="140.10838215465444"><ele>630.9317797878757</ele><time>2021-10-24T04:28:53Z</time></trkpt><trkpt lat="36.22069173728935" lon="140.10845115874375"><ele>623.0729789556935</ele><time>2021-10-24T04:29:14Z</time></trkpt><trkpt lat="36.220513826997085" lon="140.10837594068016"><ele>611.5750131011009</ele><time>2021-10-24T04:29:32Z</time></trkpt><trkpt lat="36.22032810847413" lon="140.1084464756303"><ele>607.5948714027181</ele><time>2021-10-24T04:29:48Z</time></trkpt><trkpt lat="36.22016618696787" lon="140.10856237860293"><ele>598.485456796363</ele><time>2021-10-24T04:30:11Z</time></trkpt><trkpt lat="36.21997632995725" lon="140.1086182953144"><ele>591.5099936127663</ele><time>2021-10-24T04:30:39Z</time></trkpt><trkpt lat="36.21984423838031" lon="140.10876980395298"><ele>582.4420902300626</ele><time>2021-10-24T04:30:49Z</time></trkpt><trkpt lat="36.21967273482689" lon="140.10885912466742"><ele>573.2183115845546</ele><time>2021-10-24T04:31:04Z</time></trkpt><trkpt lat="36.21956680765861" lon="140.10905918513092"><ele>560.689798714593</ele><time>2021-10-24T04:31:23Z</time></trkpt><trkpt lat="36.219383867607775" lon="140.10903363878106"><ele>554.7041110573336</ele><time>2021-10-24T04:31:38Z</time></trkpt><trkpt lat="36.21925665059509" lon="140.10886599250676"><ele>552.7336979936808</ele><time>2021-10-24T04:31:53Z</time></trkpt><trkpt lat="36.21920048067859" lon="140.10862789495985"><ele>547.2884211670607</ele><time>2021-10-24T04:32:07Z</time></trkpt><trkpt lat="36.21923402118205" lon="140.10837529751464"><ele>542.942064428702</ele><time>2021-10-24T04:32:21Z</time></trkpt><trkpt lat="36.21923700488058" lon="140.10814117619316"><ele>542.8569075306877</ele><time>2021-10-24T04:32:29Z</time></trkpt><trkpt lat="36.21918446937496" lon="140.10791723226004"><ele>536.9636525306851</ele><time>2021-10-24T04:32:40Z</time></trkpt><trkpt lat="36.21903397945685" lon="140.10777873435376"><ele>523.3928325856104</ele><time>2021-10-24T04:33:04Z</time></trkpt><trkpt lat="36.2188819584493" lon="140.10765403326135"><ele>515.5390012683347</ele><time>2021-10-24T04:33:20Z</time></trkpt><trkpt lat="36.21868464262715" lon="140.10763829822938"><ele>504.8231788938865</ele><time>2021-10-24T04:33:38Z</time></trkpt><trkpt lat="36.21851799657419" lon="140.10754409576464"><ele>494.77043527178466</ele><time>2021-10-24T04:33:54Z</time></trkpt><trkpt lat="36.21833665441966" lon="140.1075467991366"><ele>490.76691423077136</ele><time>2021-10-24T04:34:06Z</time></trkpt><trkpt lat="36.21817335409389" lon="140.1076757348356"><ele>481.8953296849504</ele><time>2021-10-24T04:34:24Z</time></trkpt><trkpt lat="36.217975542487444" lon="140.1076961396539"><ele>476.4500634567812</ele><time>2021-10-24T04:34:49Z</time></trkpt><trkpt lat="36.217786303607" lon="140.107673174856"><ele>468.4769344571978</ele><time>2021-10-24T04:35:04Z</time></trkpt><trkpt lat="36.217739269957306" lon="140.10745586180707"><ele>456.57285125833005</ele><time>2021-10-24T04:35:27Z</time></trkpt><trkpt lat="36.21755603705457" lon="140.10743996702993"><ele>452.3432657374069</ele><time>2021-10-24T04:35:37Z</time></trkpt><trkpt lat="36.217467005422776" lon="140.10723389317795"><ele>447.8197882147506</ele><time>2021-10-24T04:35:52Z</time></trkpt><trkpt lat="36.217329273646115" lon="140.10709013928386"><ele>443.05728970840573</ele><time>2021-10-24T04:36:02Z</time></trkpt><trkpt lat="36.21729936952226" lon="140.10685828687227"><ele>431.3376269415021</ele><time>2021-10-24T04:36:21Z</time></trkpt><trkpt lat="36.217122548352876" lon="140.10678755424"><ele>424.6584414895624</ele><time>2021-10-24T04:36:35Z</time></trkpt><trkpt lat="36.21702920585187" lon="140.10658762911856"><ele>418.26801777258515</ele><time>2021-10-24T04:36:53Z</time></trkpt><trkpt lat="36.21688246196821" lon="140.10644534960488"><ele>405.0580092128366</ele><time>2021-10-24T04:37:13Z</time></trkpt><trkpt lat="36.21683713799311" lon="140.106223881147"><ele>401.22173763625324</ele><time>2021-10-24T04:37:32Z</time></trkpt><trkpt lat="36.2168117727623" lon="140.10598361664964"><ele>395.9475134797394</ele><time>2021-10-24T04:37:45Z</time></trkpt><trkpt lat="36.21662294453311" lon="140.10596081051673"><ele>386.2661057440564</ele><time>2021-10-24T04:37:53Z</time></trkpt><trkpt lat="36.21644512873234" lon="140.10606045634617"><ele>385.68659628462046</ele><time>2021-10-24T04:38:02Z</time></trkpt><trkpt lat="36.21627298053814" lon="140.10598921848342"><ele>378.78886455483735</ele><time>2021-10-24T04:38:13Z</time></trkpt><trkpt lat="36.21620665230908" lon="140.1057819783041"><ele>378.08504723384976</ele><time>2021-10-24T04:38:26Z</time></trkpt><trkpt lat="36.21619787193511" lon="140.10555626274794"><ele>377.5510622160509</ele><time>2021-10-24T04:38:33Z</time></trkpt><trkpt lat="36.21615457471187" lon="140.10532546809299"><ele>371.80666790902615</ele><time>2021-10-24T04:38:43Z</time></trkpt><trkpt lat="36.21608324238045" lon="140.10507947566225"><ele>366.4258128013462</ele><time>2021-10-24T04:38:53Z</time></trkpt><trkpt lat="36.21590400164082" lon="140.10493653601833"><ele>360.3915148023516</ele><time>2021-10-24T04:39:03Z</time></trkpt><trkpt lat="36.215805758605235" lon="140.1047319750503"><ele>354.457955555059</ele><time>2021-10-24T04:39:15Z</time></trkpt><trkpt lat="36.21570450122661" lon="140.10450953226282"><ele>345.1048416700214</ele><time>2021-10-24T04:39:26Z</time></trkpt><trkpt lat="36.21554779320283" lon="140.10436220196837"><ele>338.568320418708</ele><time>2021-10-24T04:39:34Z</time></trkpt><trkpt lat="36.21543394973914" lon="140.10418785226395"><ele>336.66912561748177</ele><time>2021-10-24T04:39:41Z</time></trkpt><trkpt lat="36.21531257664586" lon="140.1039963092718"><ele>329.26173162460327</ele><time>2021-10-24T04:39:50Z</time></trkpt><trkpt lat="36.21513166042898" lon="140.10391867184515"><ele>329.4046038184315</ele><time>2021-10-24T04:39:59Z</time></trkpt><trkpt lat="36.2149839261793" lon="140.1037586246956"><ele>321.65945389214903</ele><time>2021-10-24T04:40:07Z</time></trkpt><trkpt lat="36.21489298214525" lon="140.10355498715148"><ele>318.12871158402413</ele><time>2021-10-24T04:40:14Z</time></trkpt><trkpt lat="36.21474096289449" lon="140.10340801971924"><ele>315.87385361175984</ele><time>2021-10-24T04:40:26Z</time></trkpt><trkpt lat="36.21459626981623" lon="140.10325161685577"><ele>307.40809799637645</ele><time>2021-10-24T04:40:40Z</time></trkpt><trkpt lat="36.214499628794535" lon="140.10303113443763"><ele>304.56738992221653</ele><time>2021-10-24T04:40:51Z</time></trkpt><trkpt lat="36.21434554377918" lon="140.10290687434252"><ele>298.55813587550074</ele><time>2021-10-24T04:41:02Z</time></trkpt><trkpt lat="36.21419698897076" lon="140.1027661065393"><ele>292.51084830239415</ele><time>2021-10-24T04:41:14Z</time></trkpt><trkpt lat="36.21401137097264" lon="140.10280598422395"><ele>283.70981166139245</ele><time>2021-10-24T04:41:21Z</time></trkpt><trkpt lat="36.213813228059855" lon="140.1027509951842"><ele>279.5124805001542</ele><time>2021-10-24T04:41:30Z</time></trkpt><trkpt lat="36.21362269174579" lon="140.10270150555374"><ele>276.70647357497364</ele><time>2021-10-24T04:41:38Z</time></trkpt><trkpt lat="36.213437737827725" lon="140.10270510300967"><ele>268.9799006320536</ele><time>2021-10-24T04:42:06Z</time></trkpt><trkpt lat="36.2132563727681" lon="140.10262466622922"><ele>263.82300476916134</ele><time>2021-10-24T04:42:13Z</time></trkpt><trkpt lat="36.21329572826652" lon="140.10240442192978"><ele>261.5787690905854</ele><time>2021-10-24T04:42:21Z</time></trkpt><trkpt lat="36.21339088209736" lon="140.10219262437025"><ele>256.5121824853122</ele><time>2021-10-24T04:42:27Z</time></trkpt><trkpt lat="36.21355423325112" lon="140.10207074489395"><ele>259.679804334417</ele><time>2021-10-24T04:42:34Z</time></trkpt><trkpt lat="36.21346073773826" lon="140.10183407179363"><ele>258.76908166799694</ele><time>2021-10-24T04:42:42Z</time></trkpt><trkpt lat="36.213323914265686" lon="140.10163657128584"><ele>257.02210558205843</ele><time>2021-10-24T04:42:48Z</time></trkpt><trkpt lat="36.213149647132646" lon="140.10157036214355"><ele>256.26456750836223</ele><time>2021-10-24T04:42:54Z</time></trkpt><trkpt lat="36.21304066478987" lon="140.10137041344277"><ele>248.79821875598282</ele><time>2021-10-24T04:43:01Z</time></trkpt><trkpt lat="36.21289701371098" lon="140.10119203985948"><ele>246.3845162410289</ele><time>2021-10-24T04:43:08Z</time></trkpt><trkpt lat="36.21272835779851" lon="140.10105961111566"><ele>246.39468348771334</ele><time>2021-10-24T04:43:14Z</time></trkpt><trkpt lat="36.212557241951366" lon="140.10092794572532"><ele>247.22259564884007</ele><time>2021-10-24T04:43:20Z</time></trkpt><trkpt lat="36.21237268913726" lon="140.10088339906778"><ele>244.81033319234848</ele><time>2021-10-24T04:43:26Z</time></trkpt><trkpt lat="36.2122068895484" lon="140.10077444152435"><ele>239.59973174054176</ele><time>2021-10-24T04:43:40Z</time></trkpt><trkpt lat="36.212101600870106" lon="140.10058490347998"><ele>238.63943165820092</ele><time>2021-10-24T04:43:49Z</time></trkpt><trkpt lat="36.212137189032" lon="140.10036155222"><ele>235.6364388456568</ele><time>2021-10-24T04:43:55Z</time></trkpt><trkpt lat="36.21216258704584" lon="140.10013727442004"><ele>237.2558959601447</ele><time>2021-10-24T04:44:00Z</time></trkpt><trkpt lat="36.212156006445014" lon="140.09989441413094"><ele>238.9880749201402</ele><time>2021-10-24T04:44:06Z</time></trkpt><trkpt lat="36.21214922545986" lon="140.09965288915916"><ele>235.82441452518106</ele><time>2021-10-24T04:44:12Z</time></trkpt><trkpt lat="36.21215229517647" lon="140.09942893670754"><ele>232.77238654717803</ele><time>2021-10-24T04:44:18Z</time></trkpt><trkpt lat="36.21216312375572" lon="140.09920614746488"><ele>232.3247870951891</ele><time>2021-10-24T04:44:23Z</time></trkpt><trkpt lat="36.21214995400186" lon="140.09895587453886"><ele>232.3586885659024</ele><time>2021-10-24T04:44:29Z</time></trkpt><trkpt lat="36.21216929454716" lon="140.09870483810013"><ele>233.36610080488026</ele><time>2021-10-24T04:44:35Z</time></trkpt><trkpt lat="36.21219384744014" lon="140.09845669644656"><ele>232.26013580616564</ele><time>2021-10-24T04:44:41Z</time></trkpt><trkpt lat="36.21230138939299" lon="140.09822896516198"><ele>228.75939065217972</ele><time>2021-10-24T04:44:46Z</time></trkpt><trkpt lat="36.21235951128101" lon="140.09799286846962"><ele>226.28400502167642</ele><time>2021-10-24T04:44:51Z</time></trkpt><trkpt lat="36.212352621451146" lon="140.09775212278151"><ele>224.69631371833384</ele><time>2021-10-24T04:44:57Z</time></trkpt><trkpt lat="36.21234837382994" lon="140.09749666460831"><ele>224.72620186954737</ele><time>2021-10-24T04:45:08Z</time></trkpt><trkpt lat="36.21231457967143" lon="140.0972615246376"><ele>221.41266151703894</ele><time>2021-10-24T04:45:14Z</time></trkpt><trkpt lat="36.2122707288018" lon="140.0970080133534"><ele>221.83068394474685</ele><time>2021-10-24T04:45:19Z</time></trkpt><trkpt lat="36.21223639462075" lon="140.09678461331"><ele>218.72932686842978</ele><time>2021-10-24T04:45:25Z</time></trkpt><trkpt lat="36.212183621798715" lon="140.09655802579388"><ele>219.68184119276702</ele><time>2021-10-24T04:45:38Z</time></trkpt><trkpt lat="36.21201336688547" lon="140.09647991351525"><ele>219.55092596262693</ele><time>2021-10-24T04:46:28Z</time></trkpt><trkpt lat="36.211965759729054" lon="140.09625833311725"><ele>217.1558247404173</ele><time>2021-10-24T04:46:40Z</time></trkpt><trkpt lat="36.21188038032149" lon="140.09615119559697"><ele>221.07833862304688</ele><time>2021-10-24T05:31:13Z</time></trkpt><trkpt lat="36.212060670738474" lon="140.09618662328552"><ele>217.44414885062724</ele><time>2021-10-24T05:31:53Z</time></trkpt><trkpt lat="36.21219609453509" lon="140.09603963788194"><ele>216.2138309571892</ele><time>2021-10-24T05:32:01Z</time></trkpt><trkpt lat="36.21232179864964" lon="140.09586618280574"><ele>215.02200094424188</ele><time>2021-10-24T05:32:07Z</time></trkpt><trkpt lat="36.21248982034371" lon="140.0957272865751"><ele>214.1900560343638</ele><time>2021-10-24T05:33:16Z</time></trkpt><trkpt lat="36.21254952450497" lon="140.09548979293456"><ele>213.50099250953645</ele><time>2021-10-24T05:33:20Z</time></trkpt><trkpt lat="36.21243734998663" lon="140.09524382273213"><ele>213.60097617004067</ele><time>2021-10-24T05:33:25Z</time></trkpt><trkpt lat="36.212312964345" lon="140.09507100872108"><ele>211.5409068800509</ele><time>2021-10-24T05:33:28Z</time></trkpt><trkpt lat="36.21218647178997" lon="140.09485718464828"><ele>211.25956156104803</ele><time>2021-10-24T05:33:31Z</time></trkpt><trkpt lat="36.2121178413" lon="140.09464499315237"><ele>209.52997214347124</ele><time>2021-10-24T05:33:34Z</time></trkpt><trkpt lat="36.212109401966664" lon="140.09435394531562"><ele>208.28170071635395</ele><time>2021-10-24T05:33:37Z</time></trkpt><trkpt lat="36.21215867880525" lon="140.0941117815799"><ele>205.51353017892689</ele><time>2021-10-24T05:33:40Z</time></trkpt><trkpt lat="36.2121962198435" lon="140.09387163657433"><ele>203.91888910345733</ele><time>2021-10-24T05:33:43Z</time></trkpt><trkpt lat="36.21221237041718" lon="140.09364994890174"><ele>201.2094320077449</ele><time>2021-10-24T05:33:46Z</time></trkpt><trkpt lat="36.21226501541903" lon="140.09341438048094"><ele>199.33476180862635</ele><time>2021-10-24T05:33:49Z</time></trkpt><trkpt lat="36.212167766109395" lon="140.0931558563785"><ele>195.1346673509106</ele><time>2021-10-24T05:33:53Z</time></trkpt><trkpt lat="36.212054693661685" lon="140.09293875294264"><ele>192.10680080018938</ele><time>2021-10-24T05:33:57Z</time></trkpt><trkpt lat="36.21203811835066" lon="140.09265341490675"><ele>189.66640456207097</ele><time>2021-10-24T05:34:00Z</time></trkpt><trkpt lat="36.21205874396746" lon="140.09240887222109"><ele>186.72064927220345</ele><time>2021-10-24T05:34:03Z</time></trkpt><trkpt lat="36.21208655421522" lon="140.0921793008912"><ele>182.8767591100186</ele><time>2021-10-24T05:34:06Z</time></trkpt><trkpt lat="36.21209961426371" lon="140.09195590962887"><ele>181.92440192773938</ele><time>2021-10-24T05:34:09Z</time></trkpt><trkpt lat="36.21205765546108" lon="140.091703208212"><ele>176.6936342716217</ele><time>2021-10-24T05:34:13Z</time></trkpt><trkpt lat="36.2118613413474" lon="140.09161332584893"><ele>174.36588967218995</ele><time>2021-10-24T05:34:17Z</time></trkpt><trkpt lat="36.21167535181069" lon="140.09176084891322"><ele>171.34530977904797</ele><time>2021-10-24T05:34:21Z</time></trkpt><trkpt lat="36.21151292065457" lon="140.09192906952333"><ele>169.35377020854503</ele><time>2021-10-24T05:34:24Z</time></trkpt><trkpt lat="36.21132864070792" lon="140.09213257314934"><ele>167.38201473932713</ele><time>2021-10-24T05:34:27Z</time></trkpt><trkpt lat="36.211152925533675" lon="140.09235063737557"><ele>165.7516749119386</ele><time>2021-10-24T05:34:30Z</time></trkpt><trkpt lat="36.21099190232483" lon="140.0925917257622"><ele>163.96678572893143</ele><time>2021-10-24T05:34:33Z</time></trkpt><trkpt lat="36.21088542371486" lon="140.09283356939773"><ele>162.1374963708222</ele><time>2021-10-24T05:34:36Z</time></trkpt><trkpt lat="36.2107498964138" lon="140.09309310028058"><ele>159.84196129720658</ele><time>2021-10-24T05:34:39Z</time></trkpt><trkpt lat="36.21062665246389" lon="140.09327059781978"><ele>160.01353623811156</ele><time>2021-10-24T05:34:41Z</time></trkpt><trkpt lat="36.210474466401486" lon="140.09352672756182"><ele>158.51805733144283</ele><time>2021-10-24T05:34:44Z</time></trkpt><trkpt lat="36.21033000580905" lon="140.09376011069352"><ele>157.94357602577657</ele><time>2021-10-24T05:34:47Z</time></trkpt><trkpt lat="36.21018592559842" lon="140.09400151927727"><ele>156.4982943655923</ele><time>2021-10-24T05:34:50Z</time></trkpt><trkpt lat="36.210071273363575" lon="140.0942392192022"><ele>153.94343876838684</ele><time>2021-10-24T05:34:53Z</time></trkpt><trkpt lat="36.210009938851705" lon="140.09445697263234"><ele>152.17247000150383</ele><time>2021-10-24T05:34:56Z</time></trkpt><trkpt lat="36.20983673383587" lon="140.09464927851292"><ele>151.02363061532378</ele><time>2021-10-24T05:35:00Z</time></trkpt><trkpt lat="36.20961099894653" lon="140.09464161245867"><ele>151.09362314920872</ele><time>2021-10-24T05:35:04Z</time></trkpt><trkpt lat="36.20947311751789" lon="140.0944829402188"><ele>151.62002431508154</ele><time>2021-10-24T05:35:07Z</time></trkpt><trkpt lat="36.209431134286554" lon="140.09428361769687"><ele>150.18475800286978</ele><time>2021-10-24T05:35:10Z</time></trkpt><trkpt lat="36.209500462043316" lon="140.09403351182317"><ele>147.42023010272533</ele><time>2021-10-24T05:35:14Z</time></trkpt><trkpt lat="36.209540739740305" lon="140.09377673186907"><ele>146.5209882259369</ele><time>2021-10-24T05:35:17Z</time></trkpt><trkpt lat="36.20952583191953" lon="140.09351583832637"><ele>144.6060273051262</ele><time>2021-10-24T05:35:21Z</time></trkpt><trkpt lat="36.20960876371707" lon="140.09325982731724"><ele>141.9240048173815</ele><time>2021-10-24T05:35:25Z</time></trkpt><trkpt lat="36.209744958709805" lon="140.0930839052285"><ele>140.3638613447547</ele><time>2021-10-24T05:35:28Z</time></trkpt><trkpt lat="36.209934004479926" lon="140.0929437685478"><ele>138.33125396445394</ele><time>2021-10-24T05:35:33Z</time></trkpt><trkpt lat="36.21007540924397" lon="140.0927668557224"><ele>136.68207219988108</ele><time>2021-10-24T05:35:37Z</time></trkpt><trkpt lat="36.21002055731737" lon="140.092536268907"><ele>134.48134814202785</ele><time>2021-10-24T05:35:41Z</time></trkpt><trkpt lat="36.209939832239954" lon="140.09232800302854"><ele>134.59841695521027</ele><time>2021-10-24T05:35:44Z</time></trkpt><trkpt lat="36.20982947700486" lon="140.09206403157071"><ele>133.79926863498986</ele><time>2021-10-24T05:35:48Z</time></trkpt><trkpt lat="36.20972744178171" lon="140.09181035989494"><ele>132.3936779005453</ele><time>2021-10-24T05:35:52Z</time></trkpt><trkpt lat="36.20964035994031" lon="140.09154695823295"><ele>129.93767054192722</ele><time>2021-10-24T05:35:56Z</time></trkpt><trkpt lat="36.20961581937995" lon="140.09130049744357"><ele>128.57085760775954</ele><time>2021-10-24T05:35:59Z</time></trkpt><trkpt lat="36.209608750123245" lon="140.0909882703555"><ele>127.76085401233286</ele><time>2021-10-24T05:36:02Z</time></trkpt><trkpt lat="36.20960767560869" lon="140.09076470982654"><ele>127.44535995367914</ele><time>2021-10-24T05:36:04Z</time></trkpt><trkpt lat="36.209619843363306" lon="140.09052478920023"><ele>125.28768442291766</ele><time>2021-10-24T05:36:06Z</time></trkpt><trkpt lat="36.20962910266693" lon="140.09028507098859"><ele>124.09296299610287</ele><time>2021-10-24T05:36:08Z</time></trkpt><trkpt lat="36.209637750869675" lon="140.09003308435322"><ele>123.50365329254419</ele><time>2021-10-24T05:36:10Z</time></trkpt><trkpt lat="36.20964508181533" lon="140.08979122313863"><ele>122.02977197431028</ele><time>2021-10-24T05:36:12Z</time></trkpt><trkpt lat="36.20965838753273" lon="140.08953313704157"><ele>120.97729213535786</ele><time>2021-10-24T05:36:13Z</time></trkpt><trkpt lat="36.20966767718862" lon="140.0893057260446"><ele>119.70991441607475</ele><time>2021-10-24T05:36:15Z</time></trkpt><trkpt lat="36.20968482815803" lon="140.08906693427213"><ele>119.4568888079375</ele><time>2021-10-24T05:36:17Z</time></trkpt><trkpt lat="36.2097174000512" lon="140.08883690828756"><ele>119.41953620966524</ele><time>2021-10-24T05:36:19Z</time></trkpt><trkpt lat="36.20975531330553" lon="140.08861426195293"><ele>118.04808369278908</ele><time>2021-10-24T05:36:21Z</time></trkpt><trkpt lat="36.209787808506" lon="140.0883921304914"><ele>117.08004020247608</ele><time>2021-10-24T05:36:23Z</time></trkpt><trkpt lat="36.20982267778527" lon="140.08817310647098"><ele>115.91890320181847</ele><time>2021-10-24T05:36:25Z</time></trkpt><trkpt lat="36.20988293129801" lon="140.08785940294047"><ele>114.2697918759659</ele><time>2021-10-24T05:36:28Z</time></trkpt><trkpt lat="36.20998393325617" lon="140.0875919504795"><ele>110.9158433014527</ele><time>2021-10-24T05:36:31Z</time></trkpt><trkpt lat="36.21009643129513" lon="140.08732024937552"><ele>108.52687748894095</ele><time>2021-10-24T05:36:34Z</time></trkpt><trkpt lat="36.210202093427775" lon="140.08705730809865"><ele>105.73901753965765</ele><time>2021-10-24T05:36:37Z</time></trkpt><trkpt lat="36.21027840965918" lon="140.08682281534587"><ele>102.50960892718285</ele><time>2021-10-24T05:36:40Z</time></trkpt><trkpt lat="36.21027535128894" lon="140.0865966193859"><ele>99.80414283648133</ele><time>2021-10-24T05:36:43Z</time></trkpt><trkpt lat="36.210228017880354" lon="140.08637604313182"><ele>96.89661688357592</ele><time>2021-10-24T05:36:46Z</time></trkpt><trkpt lat="36.21017457046619" lon="140.0861345243776"><ele>95.00416523497552</ele><time>2021-10-24T05:36:49Z</time></trkpt><trkpt lat="36.21013365528611" lon="140.08588661489432"><ele>92.7799743404612</ele><time>2021-10-24T05:36:52Z</time></trkpt><trkpt lat="36.21007472154114" lon="140.08566296162306"><ele>91.23339556157589</ele><time>2021-10-24T05:36:55Z</time></trkpt><trkpt lat="36.20987265146387" lon="140.08554350204489"><ele>87.49928279872984</ele><time>2021-10-24T05:36:59Z</time></trkpt><trkpt lat="36.20971452919775" lon="140.08568324799933"><ele>84.96515001170337</ele><time>2021-10-24T05:37:02Z</time></trkpt><trkpt lat="36.20957797047377" lon="140.08585547434035"><ele>82.716935926117</ele><time>2021-10-24T05:37:05Z</time></trkpt><trkpt lat="36.20942210003691" lon="140.0859710371167"><ele>80.8161960914731</ele><time>2021-10-24T05:37:08Z</time></trkpt><trkpt lat="36.209188156689166" lon="140.08601620731477"><ele>78.85191093664616</ele><time>2021-10-24T05:37:12Z</time></trkpt><trkpt lat="36.208957262913025" lon="140.0860038199594"><ele>76.75124933104962</ele><time>2021-10-24T05:37:16Z</time></trkpt><trkpt lat="36.20882811793319" lon="140.08579092971468"><ele>73.90626973286271</ele><time>2021-10-24T05:37:20Z</time></trkpt><trkpt lat="36.20882820656845" lon="140.08551706583154"><ele>71.17417230084538</ele><time>2021-10-24T05:37:24Z</time></trkpt><trkpt lat="36.20881641962264" lon="140.085288966263"><ele>69.44201315101236</ele><time>2021-10-24T05:37:27Z</time></trkpt><trkpt lat="36.20885680112036" lon="140.0850641711651"><ele>68.32984314952046</ele><time>2021-10-24T05:37:30Z</time></trkpt><trkpt lat="36.20895498573761" lon="140.08484428352946"><ele>65.76009571924806</ele><time>2021-10-24T05:37:33Z</time></trkpt><trkpt lat="36.20908074957092" lon="140.0846160903212"><ele>63.36430847924203</ele><time>2021-10-24T05:37:37Z</time></trkpt><trkpt lat="36.20920490488416" lon="140.08440647599477"><ele>62.15069577656686</ele><time>2021-10-24T05:37:40Z</time></trkpt><trkpt lat="36.20927954354893" lon="140.08419784430833"><ele>59.80230068042874</ele><time>2021-10-24T05:37:43Z</time></trkpt><trkpt lat="36.20920267498127" lon="140.08393749599827"><ele>58.405265535227954</ele><time>2021-10-24T05:37:47Z</time></trkpt><trkpt lat="36.20901201068668" lon="140.08389370842482"><ele>57.637172942981124</ele><time>2021-10-24T05:37:50Z</time></trkpt><trkpt lat="36.208786858850004" lon="140.0839537269918"><ele>55.903736274689436</ele><time>2021-10-24T05:37:53Z</time></trkpt><trkpt lat="36.2085395925237" lon="140.08401331320275"><ele>54.30607954598963</ele><time>2021-10-24T05:37:56Z</time></trkpt><trkpt lat="36.20829108320364" lon="140.08408311959812"><ele>51.39070945046842</ele><time>2021-10-24T05:37:59Z</time></trkpt><trkpt lat="36.20802993938414" lon="140.08414223836317"><ele>50.68723502662033</ele><time>2021-10-24T05:38:02Z</time></trkpt><trkpt lat="36.207782856787134" lon="140.08425032391088"><ele>49.623752446845174</ele><time>2021-10-24T05:38:05Z</time></trkpt><trkpt lat="36.2075860915409" lon="140.08444055369384"><ele>48.904666755348444</ele><time>2021-10-24T05:38:08Z</time></trkpt><trkpt lat="36.20741616852355" lon="140.08464160784308"><ele>47.120928352698684</ele><time>2021-10-24T05:38:11Z</time></trkpt><trkpt lat="36.20719338606526" lon="140.08470555404162"><ele>46.407448324374855</ele><time>2021-10-24T05:38:15Z</time></trkpt><trkpt lat="36.207051498745095" lon="140.08456834964127"><ele>45.330474089831114</ele><time>2021-10-24T05:38:18Z</time></trkpt><trkpt lat="36.207015739450455" lon="140.08435124591284"><ele>43.68598601035774</ele><time>2021-10-24T05:38:21Z</time></trkpt><trkpt lat="36.20707724022017" lon="140.08412546527785"><ele>40.88185637257993</ele><time>2021-10-24T05:38:23Z</time></trkpt><trkpt lat="36.20715849997982" lon="140.08388766401308"><ele>38.53862795140594</ele><time>2021-10-24T05:38:26Z</time></trkpt><trkpt lat="36.207294837160816" lon="140.08364014849343"><ele>36.56568940822035</ele><time>2021-10-24T05:38:29Z</time></trkpt><trkpt lat="36.2074546392358" lon="140.08338964990347"><ele>34.25073742587119</ele><time>2021-10-24T05:38:32Z</time></trkpt><trkpt lat="36.207573837538675" lon="140.0832111545166"><ele>33.453095401637256</ele><time>2021-10-24T05:38:34Z</time></trkpt><trkpt lat="36.20769585251037" lon="140.0830311740743"><ele>32.36035261955112</ele><time>2021-10-24T05:38:36Z</time></trkpt><trkpt lat="36.20781525231857" lon="140.08286488039002"><ele>31.634445605799556</ele><time>2021-10-24T05:38:38Z</time></trkpt><trkpt lat="36.207966492582145" lon="140.082634021984"><ele>32.9683485571295</ele><time>2021-10-24T05:38:41Z</time></trkpt><trkpt lat="36.20813657106215" lon="140.0824509773555"><ele>34.80655744858086</ele><time>2021-10-24T05:38:45Z</time></trkpt><trkpt lat="36.20827827351737" lon="140.08229900023983"><ele>36.730291947722435</ele><time>2021-10-24T05:39:08Z</time></trkpt><trkpt lat="36.2083674593579" lon="140.08206409167963"><ele>36.161290555261075</ele><time>2021-10-24T05:39:16Z</time></trkpt><trkpt lat="36.208248243116465" lon="140.0818006144926"><ele>33.80559922847897</ele><time>2021-10-24T05:39:21Z</time></trkpt><trkpt lat="36.208104790000455" lon="140.08162778641915"><ele>31.55443276371807</ele><time>2021-10-24T05:39:24Z</time></trkpt><trkpt lat="36.20795982701999" lon="140.08142419034712"><ele>30.828594491817057</ele><time>2021-10-24T05:39:27Z</time></trkpt><trkpt lat="36.2077982441223" lon="140.08123204250407"><ele>30.03687270823866</ele><time>2021-10-24T05:39:30Z</time></trkpt><trkpt lat="36.20763308809454" lon="140.08102936687018"><ele>29.290574605576694</ele><time>2021-10-24T05:39:33Z</time></trkpt><trkpt lat="36.20746388068046" lon="140.08082545425478"><ele>29.363140933215618</ele><time>2021-10-24T05:39:36Z</time></trkpt><trkpt lat="36.20729545937257" lon="140.0806194921077"><ele>29.3747971476987</ele><time>2021-10-24T05:39:39Z</time></trkpt><trkpt lat="36.207164569715836" lon="140.08044414368652"><ele>28.35598763078451</ele><time>2021-10-24T05:39:43Z</time></trkpt><trkpt lat="36.20702714174613" lon="140.08028603635876"><ele>28.245092605240643</ele><time>2021-10-24T05:39:49Z</time></trkpt><trkpt lat="36.20677093101984" lon="140.0803376894324"><ele>26.146367901936173</ele><time>2021-10-24T05:40:05Z</time></trkpt><trkpt lat="36.20669782245575" lon="140.08062395057738"><ele>26.215117432177067</ele><time>2021-10-24T05:40:15Z</time></trkpt><trkpt lat="36.20646570987217" lon="140.08058308443503"><ele>25.116611445322633</ele><time>2021-10-24T05:40:23Z</time></trkpt><trkpt lat="36.206344585759574" lon="140.08066821729054"><ele>26.335901252925396</ele><time>2021-10-24T05:40:45Z</time></trkpt></trkseg></trk></gpx>