<?xml version='1.0' encoding='UTF-8'?><gpx creator="YAMAP - https://yamap.com" xsi:schemaLocation="http://www.topografix.com/GPX/1/1 http://www.topografix.com/GPX/1/1/gpx.xsd" version="1.1" xmlns="http://www.topografix.com/GPX/1/1" xmlns:xsi="http://www.w3.org/2001/XMLSchema-instance"><metadata><bounds maxlat="37.60717197118548" maxlon="140.09508677309003" minlat="37.57401186818761" minlon="140.07148826116494"/></metadata><trk><name>赤埴山・磐梯山</name><number>1</number><trkseg><trkpt lat="37.57516080517096" lon="140.09322758777074"><ele>714.9356346130371</ele><time>2021-09-19T23:18:33Z</time></trkpt><trkpt lat="37.57497924373457" lon="140.09321682166927"><ele>708.0092432079837</ele><time>2021-09-19T23:19:05Z</time></trkpt><trkpt lat="37.57479210736342" lon="140.09321141889183"><ele>709.3946734359488</ele><time>2021-09-19T23:19:09Z</time></trkpt><trkpt lat="37.57460917871696" lon="140.09326460259956"><ele>708.0310025690123</ele><time>2021-09-19T23:19:14Z</time></trkpt><trkpt lat="37.5744153155433" lon="140.0932623922547"><ele>702.5710562691092</ele><time>2021-09-19T23:19:21Z</time></trkpt><trkpt lat="37.57421765305863" lon="140.09326545581555"><ele>701.7097458317876</ele><time>2021-09-19T23:19:26Z</time></trkpt><trkpt lat="37.57401186818761" lon="140.09319685572552"><ele>700.7318846415728</ele><time>2021-09-19T23:19:32Z</time></trkpt><trkpt lat="37.57407389828602" lon="140.0929480309693"><ele>700.2217264547944</ele><time>2021-09-19T23:19:35Z</time></trkpt><trkpt lat="37.574089462969205" lon="140.092661681357"><ele>699.7105985563248</ele><time>2021-09-19T23:19:38Z</time></trkpt><trkpt lat="37.57415008788727" lon="140.09315637690122"><ele>698.857855418697</ele><time>2021-09-19T23:19:45Z</time></trkpt><trkpt lat="37.57432961241834" lon="140.09327807747584"><ele>698.4099419666454</ele><time>2021-09-19T23:19:50Z</time></trkpt><trkpt lat="37.57452925879066" lon="140.09335983298052"><ele>698.1201579393819</ele><time>2021-09-19T23:19:57Z</time></trkpt><trkpt lat="37.57469807894503" lon="140.09344194850271"><ele>697.9677970381454</ele><time>2021-09-19T23:23:08Z</time></trkpt><trkpt lat="37.574528222938746" lon="140.093278465923"><ele>680.0349998716265</ele><time>2021-09-19T23:23:25Z</time></trkpt><trkpt lat="37.574505867963396" lon="140.0932961885697"><ele>698.5561725189909</ele><time>2021-09-19T23:25:05Z</time></trkpt><trkpt lat="37.57468624458519" lon="140.09329267148928"><ele>700.9316851524636</ele><time>2021-09-19T23:25:27Z</time></trkpt><trkpt lat="37.574871026130715" lon="140.09330916690848"><ele>703.5910559976473</ele><time>2021-09-19T23:25:51Z</time></trkpt><trkpt lat="37.57505082837737" lon="140.09327616243527"><ele>707.1299952222034</ele><time>2021-09-19T23:26:12Z</time></trkpt><trkpt lat="37.57522763481067" lon="140.09320309143757"><ele>710.4934613257647</ele><time>2021-09-19T23:28:12Z</time></trkpt><trkpt lat="37.575357460341316" lon="140.09304287474865"><ele>713.3568301657215</ele><time>2021-09-19T23:28:32Z</time></trkpt><trkpt lat="37.575387855679566" lon="140.09281956886537"><ele>717.0761714437976</ele><time>2021-09-19T23:28:52Z</time></trkpt><trkpt lat="37.57544094286682" lon="140.09260080314152"><ele>719.3144781095907</ele><time>2021-09-19T23:29:26Z</time></trkpt><trkpt lat="37.575567186353425" lon="140.09243715618916"><ele>722.1024368656799</ele><time>2021-09-19T23:29:46Z</time></trkpt><trkpt lat="37.57568776701014" lon="140.09226442101826"><ele>723.1370246885344</ele><time>2021-09-19T23:30:06Z</time></trkpt><trkpt lat="37.575771292900505" lon="140.0920521475041"><ele>724.3417308656499</ele><time>2021-09-19T23:30:25Z</time></trkpt><trkpt lat="37.57586702811149" lon="140.09184521333646"><ele>729.0711433542892</ele><time>2021-09-19T23:30:57Z</time></trkpt><trkpt lat="37.57595196097472" lon="140.0916438138135"><ele>733.8534420104697</ele><time>2021-09-19T23:31:18Z</time></trkpt><trkpt lat="37.576066498098726" lon="140.0914688640493"><ele>733.6711160950363</ele><time>2021-09-19T23:31:45Z</time></trkpt><trkpt lat="37.576229292309904" lon="140.09136890280865"><ele>737.155246635899</ele><time>2021-09-19T23:32:06Z</time></trkpt><trkpt lat="37.576367445336196" lon="140.09121029372514"><ele>739.6419214671478</ele><time>2021-09-19T23:32:27Z</time></trkpt><trkpt lat="37.57649266023724" lon="140.09104517672256"><ele>742.8174622794613</ele><time>2021-09-19T23:32:48Z</time></trkpt><trkpt lat="37.57661729435959" lon="140.09087794505143"><ele>745.1405668491498</ele><time>2021-09-19T23:33:07Z</time></trkpt><trkpt lat="37.57675790073931" lon="140.09073227830362"><ele>748.6904543340206</ele><time>2021-09-19T23:33:38Z</time></trkpt><trkpt lat="37.57689606073883" lon="140.09058346331634"><ele>752.2279376955703</ele><time>2021-09-19T23:33:59Z</time></trkpt><trkpt lat="37.577045935160875" lon="140.0904342596479"><ele>756.7753880061209</ele><time>2021-09-19T23:34:21Z</time></trkpt><trkpt lat="37.577175190350324" lon="140.09026915223944"><ele>760.8265587398782</ele><time>2021-09-19T23:34:46Z</time></trkpt><trkpt lat="37.57730937185717" lon="140.09010402516705"><ele>765.86954072956</ele><time>2021-09-19T23:35:08Z</time></trkpt><trkpt lat="37.577442993021" lon="140.0899391417673"><ele>770.5173408854753</ele><time>2021-09-19T23:35:30Z</time></trkpt><trkpt lat="37.577569486400265" lon="140.08977516152217"><ele>775.2434835247695</ele><time>2021-09-19T23:35:52Z</time></trkpt><trkpt lat="37.57770697409928" lon="140.08962705786294"><ele>779.1980266543105</ele><time>2021-09-19T23:36:16Z</time></trkpt><trkpt lat="37.5778424978754" lon="140.08946685378228"><ele>784.0617029005662</ele><time>2021-09-19T23:36:37Z</time></trkpt><trkpt lat="37.577968115309496" lon="140.08930397632017"><ele>788.8189705712721</ele><time>2021-09-19T23:36:58Z</time></trkpt><trkpt lat="37.57812494712749" lon="140.08918094647052"><ele>793.0406274953857</ele><time>2021-09-19T23:37:17Z</time></trkpt><trkpt lat="37.578264225877874" lon="140.08902146142972"><ele>795.7661021361127</ele><time>2021-09-19T23:37:36Z</time></trkpt><trkpt lat="37.57834557238882" lon="140.08881668658933"><ele>798.6626254869625</ele><time>2021-09-19T23:37:54Z</time></trkpt><trkpt lat="37.57842313139273" lon="140.08860034525287"><ele>801.4564962079749</ele><time>2021-09-19T23:38:12Z</time></trkpt><trkpt lat="37.578502976481246" lon="140.08838809406907"><ele>803.7906911978498</ele><time>2021-09-19T23:38:30Z</time></trkpt><trkpt lat="37.57859434887721" lon="140.08817748713193"><ele>807.1459871036932</ele><time>2021-09-19T23:38:47Z</time></trkpt><trkpt lat="37.57866827332109" lon="140.08796861388316"><ele>810.5750214140862</ele><time>2021-09-19T23:39:03Z</time></trkpt><trkpt lat="37.57870542843588" lon="140.08774064429835"><ele>812.4285255856812</ele><time>2021-09-19T23:39:17Z</time></trkpt><trkpt lat="37.57878019251928" lon="140.08751997081828"><ele>816.0126375611871</ele><time>2021-09-19T23:39:32Z</time></trkpt><trkpt lat="37.57881962857089" lon="140.08728591711096"><ele>819.978913500905</ele><time>2021-09-19T23:40:12Z</time></trkpt><trkpt lat="37.578835496934374" lon="140.0870603640572"><ele>823.4802392516285</ele><time>2021-09-19T23:40:39Z</time></trkpt><trkpt lat="37.578826719783414" lon="140.08682520566225"><ele>822.8150752484798</ele><time>2021-09-19T23:40:57Z</time></trkpt><trkpt lat="37.578799670670435" lon="140.0865892872321"><ele>824.9051481364295</ele><time>2021-09-19T23:41:15Z</time></trkpt><trkpt lat="37.57876258879175" lon="140.08636379093045"><ele>823.6271620485932</ele><time>2021-09-19T23:41:32Z</time></trkpt><trkpt lat="37.57869772357179" lon="140.08614752031164"><ele>825.0512459846213</ele><time>2021-09-19T23:41:47Z</time></trkpt><trkpt lat="37.57870115918567" lon="140.08591051012598"><ele>826.685996090062</ele><time>2021-09-19T23:42:02Z</time></trkpt><trkpt lat="37.57870110116798" lon="140.0856753030019"><ele>828.0952692879364</ele><time>2021-09-19T23:42:17Z</time></trkpt><trkpt lat="37.57868867418522" lon="140.08543615316245"><ele>830.4602869441733</ele><time>2021-09-19T23:42:33Z</time></trkpt><trkpt lat="37.57865825544334" lon="140.0852087451517"><ele>832.7984114410356</ele><time>2021-09-19T23:42:49Z</time></trkpt><trkpt lat="37.57863211624782" lon="140.08497142458114"><ele>836.2604043548927</ele><time>2021-09-19T23:43:08Z</time></trkpt><trkpt lat="37.57866423734897" lon="140.08474511008748"><ele>840.0714234672487</ele><time>2021-09-19T23:43:25Z</time></trkpt><trkpt lat="37.57869461516356" lon="140.08450825801816"><ele>842.1759949587286</ele><time>2021-09-19T23:43:41Z</time></trkpt><trkpt lat="37.5787243825565" lon="140.0842834439774"><ele>845.1159660471603</ele><time>2021-09-19T23:43:58Z</time></trkpt><trkpt lat="37.578767353718675" lon="140.0840536687785"><ele>848.7326642414555</ele><time>2021-09-19T23:44:15Z</time></trkpt><trkpt lat="37.57881420431883" lon="140.08382442029998"><ele>851.4218828342855</ele><time>2021-09-19T23:44:34Z</time></trkpt><trkpt lat="37.57890065112674" lon="140.0836233871359"><ele>854.4003956364468</ele><time>2021-09-19T23:44:53Z</time></trkpt><trkpt lat="37.57902903840266" lon="140.08345857907923"><ele>858.7540559405461</ele><time>2021-09-19T23:45:10Z</time></trkpt><trkpt lat="37.57916771463442" lon="140.0833120176377"><ele>862.3874884843826</ele><time>2021-09-19T23:45:28Z</time></trkpt><trkpt lat="37.57930845502529" lon="140.08315460646418"><ele>865.2808310845867</ele><time>2021-09-19T23:45:47Z</time></trkpt><trkpt lat="37.57947039577961" lon="140.0830296431299"><ele>869.1656877063215</ele><time>2021-09-19T23:46:06Z</time></trkpt><trkpt lat="37.579611691178265" lon="140.0828753847216"><ele>872.3620299194008</ele><time>2021-09-19T23:46:24Z</time></trkpt><trkpt lat="37.57974573980463" lon="140.08271211740185"><ele>875.7482809945941</ele><time>2021-09-19T23:46:42Z</time></trkpt><trkpt lat="37.57989680369545" lon="140.08257406408913"><ele>879.9856502134353</ele><time>2021-09-19T23:47:00Z</time></trkpt><trkpt lat="37.58007792876543" lon="140.0826105503655"><ele>883.6461312621832</ele><time>2021-09-19T23:47:21Z</time></trkpt><trkpt lat="37.58013029563858" lon="140.0828347590533"><ele>888.7344634644687</ele><time>2021-09-19T23:47:40Z</time></trkpt><trkpt lat="37.58016037049104" lon="140.0830705511289"><ele>891.6122536035255</ele><time>2021-09-19T23:47:59Z</time></trkpt><trkpt lat="37.58018063217407" lon="140.0833059713677"><ele>893.8116731150076</ele><time>2021-09-19T23:48:17Z</time></trkpt><trkpt lat="37.58017314732355" lon="140.08353486196214"><ele>898.1236890889704</ele><time>2021-09-19T23:48:35Z</time></trkpt><trkpt lat="37.58017335137256" lon="140.083766634131"><ele>901.9877895852551</ele><time>2021-09-19T23:48:54Z</time></trkpt><trkpt lat="37.58017717200404" lon="140.08400233848673"><ele>905.3528584707528</ele><time>2021-09-19T23:49:12Z</time></trkpt><trkpt lat="37.58018358527164" lon="140.08423418934854"><ele>908.5482577001676</ele><time>2021-09-19T23:49:29Z</time></trkpt><trkpt lat="37.58020215959007" lon="140.08447341366033"><ele>911.8716868124902</ele><time>2021-09-19T23:49:47Z</time></trkpt><trkpt lat="37.58020596051518" lon="140.08470496367227"><ele>915.009188182652</ele><time>2021-09-19T23:50:04Z</time></trkpt><trkpt lat="37.58021064306012" lon="140.08493460498966"><ele>916.8653407804668</ele><time>2021-09-19T23:50:19Z</time></trkpt><trkpt lat="37.58021810944348" lon="140.08516539899475"><ele>919.3700637128204</ele><time>2021-09-19T23:50:34Z</time></trkpt><trkpt lat="37.58025592817491" lon="140.08538873671833"><ele>918.5157570345327</ele><time>2021-09-19T23:50:49Z</time></trkpt><trkpt lat="37.580432362213415" lon="140.08545305245133"><ele>920.7189816553146</ele><time>2021-09-19T23:51:15Z</time></trkpt><trkpt lat="37.58057133366284" lon="140.08529950245375"><ele>925.5877162404358</ele><time>2021-09-19T23:51:35Z</time></trkpt><trkpt lat="37.580713303468464" lon="140.08515996934534"><ele>930.4032378969714</ele><time>2021-09-19T23:51:56Z</time></trkpt><trkpt lat="37.58083553353676" lon="140.08498975934722"><ele>934.8958778008819</ele><time>2021-09-19T23:52:18Z</time></trkpt><trkpt lat="37.58100842600343" lon="140.0848933589637"><ele>938.9127128003165</ele><time>2021-09-19T23:52:37Z</time></trkpt><trkpt lat="37.58118194257784" lon="140.0847922456381"><ele>942.3237252663821</ele><time>2021-09-19T23:52:54Z</time></trkpt><trkpt lat="37.58134572567654" lon="140.08469566239978"><ele>943.9660916123539</ele><time>2021-09-19T23:53:10Z</time></trkpt><trkpt lat="37.58152655492855" lon="140.08461317732036"><ele>943.4793319124728</ele><time>2021-09-19T23:53:25Z</time></trkpt><trkpt lat="37.581693664681296" lon="140.0845216752635"><ele>944.5765437241644</ele><time>2021-09-19T23:53:41Z</time></trkpt><trkpt lat="37.58184992872351" lon="140.0843837367329"><ele>947.7197463363409</ele><time>2021-09-19T23:53:57Z</time></trkpt><trkpt lat="37.581969293992294" lon="140.08420464234334"><ele>948.839416350238</ele><time>2021-09-19T23:54:15Z</time></trkpt><trkpt lat="37.58208887552202" lon="140.0840154814206"><ele>952.104288129136</ele><time>2021-09-19T23:54:31Z</time></trkpt><trkpt lat="37.582197312222355" lon="140.08381226421548"><ele>955.1799637647346</ele><time>2021-09-19T23:54:47Z</time></trkpt><trkpt lat="37.58231569982591" lon="140.08363740644563"><ele>957.0951607869938</ele><time>2021-09-19T23:55:03Z</time></trkpt><trkpt lat="37.582417724204326" lon="140.08344527045907"><ele>959.2396908495575</ele><time>2021-09-19T23:55:19Z</time></trkpt><trkpt lat="37.58254636319444" lon="140.08327686455493"><ele>961.5213660979643</ele><time>2021-09-19T23:55:36Z</time></trkpt><trkpt lat="37.58268464609902" lon="140.08312672124353"><ele>965.5564888538793</ele><time>2021-09-19T23:55:55Z</time></trkpt><trkpt lat="37.58283256032348" lon="140.0829943183039"><ele>970.7339030420408</ele><time>2021-09-19T23:56:20Z</time></trkpt><trkpt lat="37.583004543621406" lon="140.0829056041887"><ele>975.3934291228652</ele><time>2021-09-19T23:56:43Z</time></trkpt><trkpt lat="37.58319193162978" lon="140.08287418809468"><ele>981.9856191975996</ele><time>2021-09-19T23:57:07Z</time></trkpt><trkpt lat="37.58336284505349" lon="140.0827906011299"><ele>987.8086248831823</ele><time>2021-09-19T23:57:31Z</time></trkpt><trkpt lat="37.58352928469378" lon="140.08270379685587"><ele>993.9876380627975</ele><time>2021-09-19T23:57:56Z</time></trkpt><trkpt lat="37.58371165443877" lon="140.08268285315788"><ele>999.8484547659755</ele><time>2021-09-19T23:58:26Z</time></trkpt><trkpt lat="37.58388842280974" lon="140.082635741901"><ele>1007.3690543919802</ele><time>2021-09-19T23:58:53Z</time></trkpt><trkpt lat="37.58407023716049" lon="140.08259296171354"><ele>1012.9402984911576</ele><time>2021-09-19T23:59:18Z</time></trkpt><trkpt lat="37.58425106611074" lon="140.0825831244738"><ele>1020.6022565122694</ele><time>2021-09-19T23:59:46Z</time></trkpt><trkpt lat="37.584407401379806" lon="140.08246583411815"><ele>1027.2505492735654</ele><time>2021-09-20T00:00:11Z</time></trkpt><trkpt lat="37.58456801922934" lon="140.0823463947206"><ele>1032.1024368712679</ele><time>2021-09-20T00:03:12Z</time></trkpt><trkpt lat="37.58471008411913" lon="140.0821890039244"><ele>1036.49717586115</ele><time>2021-09-20T00:03:33Z</time></trkpt><trkpt lat="37.584855013894085" lon="140.08203942998824"><ele>1039.1072133546695</ele><time>2021-09-20T00:03:54Z</time></trkpt><trkpt lat="37.58500333694091" lon="140.0819058334825"><ele>1044.5984702892601</ele><time>2021-09-20T00:04:14Z</time></trkpt><trkpt lat="37.58514038935373" lon="140.08175129998898"><ele>1050.2095571262762</ele><time>2021-09-20T00:04:35Z</time></trkpt><trkpt lat="37.585280415316696" lon="140.0816004200673"><ele>1054.5271644527093</ele><time>2021-09-20T00:04:57Z</time></trkpt><trkpt lat="37.58541181394314" lon="140.08143290007422"><ele>1058.7359104854986</ele><time>2021-09-20T00:05:18Z</time></trkpt><trkpt lat="37.585575565193736" lon="140.08131932154882"><ele>1064.97202340886</ele><time>2021-09-20T00:05:42Z</time></trkpt><trkpt lat="37.5857528372266" lon="140.0812569417579"><ele>1073.8217531451955</ele><time>2021-09-20T00:06:11Z</time></trkpt><trkpt lat="37.58592348477772" lon="140.0813353909278"><ele>1078.8972138995305</ele><time>2021-09-20T00:06:33Z</time></trkpt><trkpt lat="37.58608592015505" lon="140.08145084988485"><ele>1086.6996998293325</ele><time>2021-09-20T00:06:59Z</time></trkpt><trkpt lat="37.58624204303914" lon="140.08157235475997"><ele>1090.757426109165</ele><time>2021-09-20T00:07:24Z</time></trkpt><trkpt lat="37.58640653089434" lon="140.0816678140901"><ele>1098.432501219213</ele><time>2021-09-20T00:07:53Z</time></trkpt><trkpt lat="37.58655526583685" lon="140.08179734660632"><ele>1108.787410467863</ele><time>2021-09-20T00:08:26Z</time></trkpt><trkpt lat="37.586726546083206" lon="140.08186772148684"><ele>1116.3168559418991</ele><time>2021-09-20T00:08:57Z</time></trkpt><trkpt lat="37.58690865940712" lon="140.08183261862004"><ele>1121.3493668921292</ele><time>2021-09-20T00:09:28Z</time></trkpt><trkpt lat="37.58708697946621" lon="140.08179620486013"><ele>1128.0390493646264</ele><time>2021-09-20T00:09:57Z</time></trkpt><trkpt lat="37.587268293911606" lon="140.08180945326248"><ele>1139.905728938058</ele><time>2021-09-20T00:10:34Z</time></trkpt><trkpt lat="37.587449208571215" lon="140.08182528059123"><ele>1143.2919582435861</ele><time>2021-09-20T00:11:08Z</time></trkpt><trkpt lat="37.58750249059655" lon="140.08160232391742"><ele>1143.9398674899712</ele><time>2021-09-20T00:12:13Z</time></trkpt><trkpt lat="37.5874987877473" lon="140.0815930162681"><ele>1146.6393642034382</ele><time>2021-09-20T00:12:30Z</time></trkpt><trkpt lat="37.587424063576144" lon="140.0818027588256"><ele>1144.8072719834745</ele><time>2021-09-20T00:18:19Z</time></trkpt><trkpt lat="37.58738206677489" lon="140.08202306800825"><ele>1144.369109862484</ele><time>2021-09-20T00:18:37Z</time></trkpt><trkpt lat="37.58733162607247" lon="140.08224765058725"><ele>1141.6633258517832</ele><time>2021-09-20T00:18:53Z</time></trkpt><trkpt lat="37.58735126061623" lon="140.082486873759"><ele>1141.1047898251563</ele><time>2021-09-20T00:19:12Z</time></trkpt><trkpt lat="37.587532932198336" lon="140.08249602097405"><ele>1146.26780308038</ele><time>2021-09-20T00:20:40Z</time></trkpt><trkpt lat="37.58771803635275" lon="140.08247591141716"><ele>1153.4321723515168</ele><time>2021-09-20T00:21:10Z</time></trkpt><trkpt lat="37.58790093431309" lon="140.08243043439242"><ele>1160.4106119880453</ele><time>2021-09-20T00:21:43Z</time></trkpt><trkpt lat="37.58801555539074" lon="140.08224832113785"><ele>1171.3188144182786</ele><time>2021-09-20T00:22:52Z</time></trkpt><trkpt lat="37.58818311394699" lon="140.0821594447262"><ele>1180.2977227615193</ele><time>2021-09-20T00:23:22Z</time></trkpt><trkpt lat="37.58836900235266" lon="140.08216574762352"><ele>1192.3981641251594</ele><time>2021-09-20T00:23:58Z</time></trkpt><trkpt lat="37.58853728378156" lon="140.08207285605081"><ele>1201.2606829348952</ele><time>2021-09-20T00:24:40Z</time></trkpt><trkpt lat="37.58871560741587" lon="140.0821054546605"><ele>1207.3082152260467</ele><time>2021-09-20T00:25:18Z</time></trkpt><trkpt lat="37.58887563182803" lon="140.0822234534085"><ele>1204.3238803269342</ele><time>2021-09-20T00:25:39Z</time></trkpt><trkpt lat="37.58905876343245" lon="140.08222700425208"><ele>1205.9326722817495</ele><time>2021-09-20T00:25:58Z</time></trkpt><trkpt lat="37.589221119972876" lon="140.08234022285953"><ele>1209.0252473456785</ele><time>2021-09-20T00:26:16Z</time></trkpt><trkpt lat="37.58933043217666" lon="140.08252148149245"><ele>1215.791050767526</ele><time>2021-09-20T00:26:48Z</time></trkpt><trkpt lat="37.58949954080607" lon="140.08263975896577"><ele>1220.8234329288825</ele><time>2021-09-20T00:27:14Z</time></trkpt><trkpt lat="37.589666686294855" lon="140.0827276115802"><ele>1225.461475471966</ele><time>2021-09-20T00:27:39Z</time></trkpt><trkpt lat="37.58984609634522" lon="140.0827924427365"><ele>1230.474405114539</ele><time>2021-09-20T00:28:05Z</time></trkpt><trkpt lat="37.59001870510108" lon="140.08287928227165"><ele>1237.9277692707255</ele><time>2021-09-20T00:28:54Z</time></trkpt><trkpt lat="37.590184587524156" lon="140.08296855479475"><ele>1245.216432755813</ele><time>2021-09-20T00:29:23Z</time></trkpt><trkpt lat="37.590352454890215" lon="140.08306051328043"><ele>1252.1485632015392</ele><time>2021-09-20T00:29:52Z</time></trkpt><trkpt lat="37.59052119319529" lon="140.0831417717393"><ele>1256.4349068123847</ele><time>2021-09-20T00:33:12Z</time></trkpt><trkpt lat="37.59070404319691" lon="140.0831882909629"><ele>1257.7132239947096</ele><time>2021-09-20T00:33:55Z</time></trkpt><trkpt lat="37.59088645563968" lon="140.08325966035832"><ele>1260.7614638656378</ele><time>2021-09-20T00:34:18Z</time></trkpt><trkpt lat="37.59106564177889" lon="140.08322524414803"><ele>1261.653769576922</ele><time>2021-09-20T00:34:35Z</time></trkpt><trkpt lat="37.59125405348163" lon="140.08324585678895"><ele>1262.5311030372977</ele><time>2021-09-20T00:34:54Z</time></trkpt><trkpt lat="37.59143935907495" lon="140.0832053652322"><ele>1266.707315620035</ele><time>2021-09-20T00:35:12Z</time></trkpt><trkpt lat="37.59161240005157" lon="140.0832725799912"><ele>1270.5883416933939</ele><time>2021-09-20T00:35:34Z</time></trkpt><trkpt lat="37.591783426939" lon="140.08334958540212"><ele>1276.3233830612153</ele><time>2021-09-20T00:35:57Z</time></trkpt><trkpt lat="37.591818554866144" lon="140.08357513684228"><ele>1283.2466884274036</ele><time>2021-09-20T00:36:19Z</time></trkpt><trkpt lat="37.592000639877526" lon="140.0836281610406"><ele>1291.7261724760756</ele><time>2021-09-20T00:36:54Z</time></trkpt><trkpt lat="37.59217322949341" lon="140.08369593209466"><ele>1298.3756425585598</ele><time>2021-09-20T00:37:26Z</time></trkpt><trkpt lat="37.592259221967346" lon="140.08384885692897"><ele>1307.5630652494729</ele><time>2021-09-20T00:38:53Z</time></trkpt><trkpt lat="37.59240444137239" lon="140.0839844129696"><ele>1308.9039491452277</ele><time>2021-09-20T00:39:40Z</time></trkpt><trkpt lat="37.5924833949994" lon="140.08419322616456"><ele>1313.8716275319457</ele><time>2021-09-20T00:40:16Z</time></trkpt><trkpt lat="37.59261392860144" lon="140.08436543858625"><ele>1318.3254474271089</ele><time>2021-09-20T00:40:39Z</time></trkpt><trkpt lat="37.592710712452586" lon="140.08455679565998"><ele>1320.7406495111063</ele><time>2021-09-20T00:41:00Z</time></trkpt><trkpt lat="37.592859628886885" lon="140.08468454410163"><ele>1323.0205791546032</ele><time>2021-09-20T00:41:23Z</time></trkpt><trkpt lat="37.59284038949777" lon="140.08491563347644"><ele>1329.175661155954</ele><time>2021-09-20T00:42:00Z</time></trkpt><trkpt lat="37.59285097461985" lon="140.08514326332278"><ele>1337.6292846901342</ele><time>2021-09-20T00:42:24Z</time></trkpt><trkpt lat="37.592972926553195" lon="140.08531073255173"><ele>1346.090672204271</ele><time>2021-09-20T00:43:08Z</time></trkpt><trkpt lat="37.593022358467074" lon="140.08553377144122"><ele>1352.8344104476273</ele><time>2021-09-20T00:43:39Z</time></trkpt><trkpt lat="37.59310875965353" lon="140.0857418436892"><ele>1360.948577518575</ele><time>2021-09-20T00:44:21Z</time></trkpt><trkpt lat="37.59325253138915" lon="140.0858915137974"><ele>1368.728641874157</ele><time>2021-09-20T00:45:04Z</time></trkpt><trkpt lat="37.593421685191394" lon="140.0859980369061"><ele>1374.228024814278</ele><time>2021-09-20T00:45:30Z</time></trkpt><trkpt lat="37.59352572364953" lon="140.08618308540235"><ele>1381.0752056185156</ele><time>2021-09-20T00:45:57Z</time></trkpt><trkpt lat="37.59364611463832" lon="140.08636058621917"><ele>1384.9419310027733</ele><time>2021-09-20T00:47:41Z</time></trkpt><trkpt lat="37.59377347485586" lon="140.08653196168564"><ele>1388.904198356904</ele><time>2021-09-20T00:48:05Z</time></trkpt><trkpt lat="37.593928855167114" lon="140.08665839625945"><ele>1394.2710987469181</ele><time>2021-09-20T00:48:23Z</time></trkpt><trkpt lat="37.594089616620806" lon="140.08676911218686"><ele>1399.3674513623118</ele><time>2021-09-20T00:49:15Z</time></trkpt><trkpt lat="37.594269477645774" lon="140.08681317403344"><ele>1402.7516636084765</ele><time>2021-09-20T00:49:34Z</time></trkpt><trkpt lat="37.59443265969515" lon="140.0869127094876"><ele>1406.9066225057468</ele><time>2021-09-20T00:49:59Z</time></trkpt><trkpt lat="37.59459988197356" lon="140.0870040464576"><ele>1414.2707176050171</ele><time>2021-09-20T00:50:38Z</time></trkpt><trkpt lat="37.59474671154326" lon="140.08714221151897"><ele>1416.8157176887617</ele><time>2021-09-20T00:50:57Z</time></trkpt><trkpt lat="37.594899281784414" lon="140.08726407160663"><ele>1418.5387976234779</ele><time>2021-09-20T00:51:18Z</time></trkpt><trkpt lat="37.59504383389365" lon="140.08740410110653"><ele>1423.4413019148633</ele><time>2021-09-20T00:51:44Z</time></trkpt><trkpt lat="37.59522226278909" lon="140.0873652492887"><ele>1429.8046353487298</ele><time>2021-09-20T00:52:11Z</time></trkpt><trkpt lat="37.595330058722695" lon="140.0871801294966"><ele>1429.9470192426816</ele><time>2021-09-20T00:52:33Z</time></trkpt><trkpt lat="37.595503673613386" lon="140.08709761407815"><ele>1429.8866896759719</ele><time>2021-09-20T01:08:36Z</time></trkpt><trkpt lat="37.5956497740901" lon="140.08696414350436"><ele>1422.0518690729514</ele><time>2021-09-20T01:09:13Z</time></trkpt><trkpt lat="37.59579907050762" lon="140.08683453400164"><ele>1411.8519856445491</ele><time>2021-09-20T01:10:05Z</time></trkpt><trkpt lat="37.59595608794075" lon="140.08671640199836"><ele>1403.7609738344327</ele><time>2021-09-20T01:10:42Z</time></trkpt><trkpt lat="37.59613095914016" lon="140.08663118068563"><ele>1394.1940997606143</ele><time>2021-09-20T01:11:22Z</time></trkpt><trkpt lat="37.59630963653998" lon="140.08660025938232"><ele>1387.2734425188974</ele><time>2021-09-20T01:11:53Z</time></trkpt><trkpt lat="37.596468454643684" lon="140.0864730091434"><ele>1379.9272405672818</ele><time>2021-09-20T01:12:25Z</time></trkpt><trkpt lat="37.596650980728406" lon="140.08644998073737"><ele>1376.9439725223929</ele><time>2021-09-20T01:12:44Z</time></trkpt><trkpt lat="37.59683084504864" lon="140.08638018412123"><ele>1376.2900455193594</ele><time>2021-09-20T01:13:01Z</time></trkpt><trkpt lat="37.59700357853124" lon="140.08629499789672"><ele>1375.0985404429957</ele><time>2021-09-20T01:13:18Z</time></trkpt><trkpt lat="37.59716315404188" lon="140.0861783123936"><ele>1371.7706054691225</ele><time>2021-09-20T01:13:34Z</time></trkpt><trkpt lat="37.59730694340144" lon="140.08603576751347"><ele>1370.8615728700534</ele><time>2021-09-20T01:13:56Z</time></trkpt><trkpt lat="37.59745784620705" lon="140.0859008100737"><ele>1365.4141444424167</ele><time>2021-09-20T01:14:16Z</time></trkpt><trkpt lat="37.59759562385759" lon="140.08574888086048"><ele>1366.0087538640946</ele><time>2021-09-20T01:14:32Z</time></trkpt><trkpt lat="37.59776571013737" lon="140.08564847742107"><ele>1364.0939035750926</ele><time>2021-09-20T01:14:50Z</time></trkpt><trkpt lat="37.59789965713894" lon="140.08548537317986"><ele>1364.1921977493912</ele><time>2021-09-20T01:15:05Z</time></trkpt><trkpt lat="37.59801559345987" lon="140.0853075862479"><ele>1366.052176401019</ele><time>2021-09-20T01:15:21Z</time></trkpt><trkpt lat="37.598118502020796" lon="140.08512165480232"><ele>1367.9519353993237</ele><time>2021-09-20T01:15:39Z</time></trkpt><trkpt lat="37.5982713085427" lon="140.08500102861078"><ele>1370.1652182117105</ele><time>2021-09-20T01:15:58Z</time></trkpt><trkpt lat="37.59844471536449" lon="140.0849262263914"><ele>1370.78409244027</ele><time>2021-09-20T01:16:13Z</time></trkpt><trkpt lat="37.59859060221426" lon="140.08477839355433"><ele>1371.2975471010432</ele><time>2021-09-20T01:16:31Z</time></trkpt><trkpt lat="37.598753335426366" lon="140.08465286924724"><ele>1372.6834855023772</ele><time>2021-09-20T01:16:48Z</time></trkpt><trkpt lat="37.598909668220685" lon="140.0845107561862"><ele>1374.9510324317962</ele><time>2021-09-20T01:17:04Z</time></trkpt><trkpt lat="37.599076854332644" lon="140.08440867436082"><ele>1377.4559570010751</ele><time>2021-09-20T01:17:23Z</time></trkpt><trkpt lat="37.599251403154604" lon="140.0843506122616"><ele>1382.788680465892</ele><time>2021-09-20T01:17:51Z</time></trkpt><trkpt lat="37.59937909714391" lon="140.0841834279399"><ele>1384.033244136721</ele><time>2021-09-20T01:18:12Z</time></trkpt><trkpt lat="37.59938682817352" lon="140.0839563822753"><ele>1387.3575999019668</ele><time>2021-09-20T01:18:29Z</time></trkpt><trkpt lat="37.599367939186756" lon="140.0837183238444"><ele>1386.6984350066632</ele><time>2021-09-20T01:18:42Z</time></trkpt><trkpt lat="37.599445154003334" lon="140.0835110170014"><ele>1389.6554862512276</ele><time>2021-09-20T01:19:00Z</time></trkpt><trkpt lat="37.59944683455325" lon="140.0832813171957"><ele>1393.1917200619355</ele><time>2021-09-20T01:19:17Z</time></trkpt><trkpt lat="37.59943523597085" lon="140.08304715420005"><ele>1395.3227582266554</ele><time>2021-09-20T01:19:33Z</time></trkpt><trkpt lat="37.59947026055501" lon="140.08280850856087"><ele>1393.5958863012493</ele><time>2021-09-20T01:19:58Z</time></trkpt><trkpt lat="37.59947718888761" lon="140.08257166407063"><ele>1394.1745655247942</ele><time>2021-09-20T01:20:13Z</time></trkpt><trkpt lat="37.59960546956648" lon="140.08240981969274"><ele>1395.0339558934793</ele><time>2021-09-20T01:20:35Z</time></trkpt><trkpt lat="37.59978933242677" lon="140.08241732016023"><ele>1395.053357290104</ele><time>2021-09-20T01:20:51Z</time></trkpt><trkpt lat="37.59995547204736" lon="140.08230132294952"><ele>1396.8149133445695</ele><time>2021-09-20T01:21:10Z</time></trkpt><trkpt lat="37.600125856390854" lon="140.08220171500315"><ele>1394.305886786431</ele><time>2021-09-20T01:21:25Z</time></trkpt><trkpt lat="37.60030808190329" lon="140.08215009280164"><ele>1392.846385203302</ele><time>2021-09-20T01:21:40Z</time></trkpt><trkpt lat="37.60048779780803" lon="140.08216908413618"><ele>1393.1825777497143</ele><time>2021-09-20T01:21:56Z</time></trkpt><trkpt lat="37.60067159387368" lon="140.08215751085902"><ele>1390.1570698395371</ele><time>2021-09-20T01:22:14Z</time></trkpt><trkpt lat="37.60085437707223" lon="140.08218361923147"><ele>1389.4069371232763</ele><time>2021-09-20T01:22:37Z</time></trkpt><trkpt lat="37.601038254823926" lon="140.08220058479682"><ele>1389.769822023809</ele><time>2021-09-20T01:22:52Z</time></trkpt><trkpt lat="37.60120081753062" lon="140.08210081438662"><ele>1391.6411500368267</ele><time>2021-09-20T01:23:13Z</time></trkpt><trkpt lat="37.60133103970692" lon="140.08193479786436"><ele>1395.713307166472</ele><time>2021-09-20T01:23:32Z</time></trkpt><trkpt lat="37.60138526725868" lon="140.08171877918804"><ele>1397.1971734305844</ele><time>2021-09-20T01:23:49Z</time></trkpt><trkpt lat="37.60142597378257" lon="140.08149124342083"><ele>1398.051790365018</ele><time>2021-09-20T01:24:04Z</time></trkpt><trkpt lat="37.6015312485232" lon="140.0812944597314"><ele>1399.8430851725861</ele><time>2021-09-20T01:24:20Z</time></trkpt><trkpt lat="37.601670497749666" lon="140.08113648330874"><ele>1400.9938648277894</ele><time>2021-09-20T01:24:44Z</time></trkpt><trkpt lat="37.601827991334126" lon="140.08100224566755"><ele>1407.7015959909186</ele><time>2021-09-20T01:25:04Z</time></trkpt><trkpt lat="37.601965498649164" lon="140.0808410387185"><ele>1410.6103984508663</ele><time>2021-09-20T01:25:23Z</time></trkpt><trkpt lat="37.60206499937203" lon="140.08065194648464"><ele>1411.7278014868498</ele><time>2021-09-20T01:25:40Z</time></trkpt><trkpt lat="37.6022215622614" lon="140.08050342917824"><ele>1410.9963485607877</ele><time>2021-09-20T01:25:58Z</time></trkpt><trkpt lat="37.60239715689623" lon="140.08041167904696"><ele>1411.6299059810117</ele><time>2021-09-20T01:26:12Z</time></trkpt><trkpt lat="37.60258012557585" lon="140.08036589307054"><ele>1409.11609101668</ele><time>2021-09-20T01:26:26Z</time></trkpt><trkpt lat="37.602756990201975" lon="140.08031232193656"><ele>1409.5077749751508</ele><time>2021-09-20T01:26:38Z</time></trkpt><trkpt lat="37.60293586964293" lon="140.08024750543422"><ele>1411.0780390454456</ele><time>2021-09-20T01:26:54Z</time></trkpt><trkpt lat="37.603129793781555" lon="140.08022693606898"><ele>1408.623328649439</ele><time>2021-09-20T01:27:12Z</time></trkpt><trkpt lat="37.60330781769763" lon="140.08015376342362"><ele>1408.9298660634086</ele><time>2021-09-20T01:27:25Z</time></trkpt><trkpt lat="37.603476355375825" lon="140.0800642028996"><ele>1407.6759951673448</ele><time>2021-09-20T01:27:39Z</time></trkpt><trkpt lat="37.603648280908594" lon="140.07997836511367"><ele>1407.0821196716279</ele><time>2021-09-20T01:27:54Z</time></trkpt><trkpt lat="37.60382739987167" lon="140.0799396389189"><ele>1406.571868323721</ele><time>2021-09-20T01:28:08Z</time></trkpt><trkpt lat="37.60401484644191" lon="140.07992604369616"><ele>1404.556871461682</ele><time>2021-09-20T01:28:22Z</time></trkpt><trkpt lat="37.604182386119845" lon="140.0800362183043"><ele>1403.8777719344944</ele><time>2021-09-20T01:28:37Z</time></trkpt><trkpt lat="37.60434801576332" lon="140.08016326765386"><ele>1403.2432970963418</ele><time>2021-09-20T01:28:53Z</time></trkpt><trkpt lat="37.604534782192076" lon="140.08011338828467"><ele>1401.6214789226651</ele><time>2021-09-20T01:29:09Z</time></trkpt><trkpt lat="37.604707044039905" lon="140.08003531571134"><ele>1400.6098975352943</ele><time>2021-09-20T01:29:30Z</time></trkpt><trkpt lat="37.604753943581" lon="140.0798130181665"><ele>1403.4490972282365</ele><time>2021-09-20T01:29:51Z</time></trkpt><trkpt lat="37.60491999526476" lon="140.0797127299134"><ele>1405.5006491458043</ele><time>2021-09-20T01:30:09Z</time></trkpt><trkpt lat="37.605095359213365" lon="140.07962867901887"><ele>1406.7482885513455</ele><time>2021-09-20T01:30:25Z</time></trkpt><trkpt lat="37.60527383013091" lon="140.0795597958661"><ele>1405.7754485048354</ele><time>2021-09-20T01:30:48Z</time></trkpt><trkpt lat="37.60545926215846" lon="140.07953125785983"><ele>1407.044180283323</ele><time>2021-09-20T01:31:04Z</time></trkpt><trkpt lat="37.60563125095883" lon="140.07944922249004"><ele>1409.639098807238</ele><time>2021-09-20T01:31:20Z</time></trkpt><trkpt lat="37.6058114600665" lon="140.07941965078547"><ele>1412.9914448708296</ele><time>2021-09-20T01:31:46Z</time></trkpt><trkpt lat="37.605956747597276" lon="140.0792750857271"><ele>1420.0262142624706</ele><time>2021-09-20T01:32:18Z</time></trkpt><trkpt lat="37.60610613950367" lon="140.0791469905533"><ele>1425.9973639380187</ele><time>2021-09-20T01:32:45Z</time></trkpt><trkpt lat="37.606164945364526" lon="140.07892719411055"><ele>1433.713000590913</ele><time>2021-09-20T01:33:17Z</time></trkpt><trkpt lat="37.6062983056811" lon="140.07876262294926"><ele>1438.7213479317725</ele><time>2021-09-20T01:33:42Z</time></trkpt><trkpt lat="37.60636378366562" lon="140.07855064052094"><ele>1444.7405426641926</ele><time>2021-09-20T01:34:12Z</time></trkpt><trkpt lat="37.606386919394865" lon="140.07832185638938"><ele>1450.5935243880376</ele><time>2021-09-20T01:34:39Z</time></trkpt><trkpt lat="37.60652222839052" lon="140.07816468955969"><ele>1455.5935681024566</ele><time>2021-09-20T01:35:04Z</time></trkpt><trkpt lat="37.60664744886225" lon="140.07799849469853"><ele>1461.7840678663924</ele><time>2021-09-20T01:35:34Z</time></trkpt><trkpt lat="37.606814358589425" lon="140.0778924231458"><ele>1470.3128706058487</ele><time>2021-09-20T01:36:08Z</time></trkpt><trkpt lat="37.60699452738185" lon="140.07787316170248"><ele>1476.4380658725277</ele><time>2021-09-20T01:36:50Z</time></trkpt><trkpt lat="37.60705386581254" lon="140.07764829597426"><ele>1485.2473542317748</ele><time>2021-09-20T01:37:25Z</time></trkpt><trkpt lat="37.60708360189273" lon="140.0774182496731"><ele>1490.883166005835</ele><time>2021-09-20T01:37:52Z</time></trkpt><trkpt lat="37.6071447087961" lon="140.07719834236815"><ele>1494.4377051182091</ele><time>2021-09-20T01:38:18Z</time></trkpt><trkpt lat="37.60717197118548" lon="140.07697003827016"><ele>1499.0190806938335</ele><time>2021-09-20T01:38:42Z</time></trkpt><trkpt lat="37.607104247059105" lon="140.07675412796976"><ele>1499.9334703655913</ele><time>2021-09-20T01:44:39Z</time></trkpt><trkpt lat="37.60699764859624" lon="140.0765689714687"><ele>1499.0666702892631</ele><time>2021-09-20T01:47:11Z</time></trkpt><trkpt lat="37.6068323675445" lon="140.07647244846513"><ele>1503.2392235696316</ele><time>2021-09-20T01:47:34Z</time></trkpt><trkpt lat="37.60666810999151" lon="140.0763683408719"><ele>1507.106959468685</ele><time>2021-09-20T01:48:03Z</time></trkpt><trkpt lat="37.60663031890149" lon="140.07614383546334"><ele>1516.828944527544</ele><time>2021-09-20T01:49:11Z</time></trkpt><trkpt lat="37.606507221086524" lon="140.07597434727307"><ele>1527.437866633758</ele><time>2021-09-20T01:49:48Z</time></trkpt><trkpt lat="37.606367347652146" lon="140.0758166979129"><ele>1535.5043381256983</ele><time>2021-09-20T01:50:23Z</time></trkpt><trkpt lat="37.606260921331696" lon="140.07562182346842"><ele>1537.2098961314186</ele><time>2021-09-20T01:50:43Z</time></trkpt><trkpt lat="37.60622519960548" lon="140.07539633332615"><ele>1538.5839712917805</ele><time>2021-09-20T01:50:59Z</time></trkpt><trkpt lat="37.606128930701566" lon="140.07520138888768"><ele>1542.75809671171</ele><time>2021-09-20T01:51:48Z</time></trkpt><trkpt lat="37.60597068125717" lon="140.07507508788913"><ele>1545.1944281281903</ele><time>2021-09-20T01:52:05Z</time></trkpt><trkpt lat="37.60585545215966" lon="140.0748893225218"><ele>1553.7738626375794</ele><time>2021-09-20T01:52:37Z</time></trkpt><trkpt lat="37.60573355790805" lon="140.07472175315186"><ele>1562.2769821062684</ele><time>2021-09-20T01:53:35Z</time></trkpt><trkpt lat="37.60562046296543" lon="140.07453739203592"><ele>1574.8477332768962</ele><time>2021-09-20T01:54:31Z</time></trkpt><trkpt lat="37.60549686547352" lon="140.07436255887976"><ele>1588.3045073887333</ele><time>2021-09-20T01:55:13Z</time></trkpt><trkpt lat="37.60531530388123" lon="140.0742913668708"><ele>1595.564572852105</ele><time>2021-09-20T01:56:29Z</time></trkpt><trkpt lat="37.60514691811483" lon="140.07420545919734"><ele>1602.4207769753411</ele><time>2021-09-20T01:56:59Z</time></trkpt><trkpt lat="37.60496658793325" lon="140.074179160601"><ele>1609.7965741567314</ele><time>2021-09-20T01:57:22Z</time></trkpt><trkpt lat="37.60478175520835" lon="140.07413597864425"><ele>1616.4669878929853</ele><time>2021-09-20T01:58:03Z</time></trkpt><trkpt lat="37.60460242429958" lon="140.07406977318132"><ele>1622.1190496757627</ele><time>2021-09-20T01:58:24Z</time></trkpt><trkpt lat="37.60456568052411" lon="140.07384542106968"><ele>1625.3922354867682</ele><time>2021-09-20T01:59:47Z</time></trkpt><trkpt lat="37.60452014319891" lon="140.07362225372438"><ele>1625.1039539417252</ele><time>2021-09-20T02:00:14Z</time></trkpt><trkpt lat="37.60442139721749" lon="140.07343133753935"><ele>1635.0147999571636</ele><time>2021-09-20T02:01:22Z</time></trkpt><trkpt lat="37.60424093520256" lon="140.07336025718044"><ele>1640.984741333872</ele><time>2021-09-20T02:01:49Z</time></trkpt><trkpt lat="37.60404767998053" lon="140.07335118181607"><ele>1646.7681872835383</ele><time>2021-09-20T02:02:19Z</time></trkpt><trkpt lat="37.60388681735917" lon="140.07324806508927"><ele>1654.9735734621063</ele><time>2021-09-20T02:03:29Z</time></trkpt><trkpt lat="37.60371184223467" lon="140.07316164478885"><ele>1664.3441156139597</ele><time>2021-09-20T02:04:53Z</time></trkpt><trkpt lat="37.603592051235715" lon="140.0729909010182"><ele>1671.751683857292</ele><time>2021-09-20T02:06:23Z</time></trkpt><trkpt lat="37.603618408281505" lon="140.07276669419437"><ele>1674.4803206538782</ele><time>2021-09-20T02:06:54Z</time></trkpt><trkpt lat="37.603439618496594" lon="140.0727344207115"><ele>1681.6530267028138</ele><time>2021-09-20T02:07:33Z</time></trkpt><trkpt lat="37.60324910759001" lon="140.07276824263886"><ele>1690.2455283161253</ele><time>2021-09-20T02:08:07Z</time></trkpt><trkpt lat="37.60308083775382" lon="140.0726782087301"><ele>1699.4621171066537</ele><time>2021-09-20T02:09:43Z</time></trkpt><trkpt lat="37.602908397084825" lon="140.07277849400515"><ele>1708.452366172336</ele><time>2021-09-20T02:10:45Z</time></trkpt><trkpt lat="37.60273091745421" lon="140.07272933393017"><ele>1718.1769884619862</ele><time>2021-09-20T02:11:57Z</time></trkpt><trkpt lat="37.602556725259646" lon="140.0726420828714"><ele>1727.673053842038</ele><time>2021-09-20T02:14:06Z</time></trkpt><trkpt lat="37.60241276335792" lon="140.07249313693282"><ele>1736.1174527350813</ele><time>2021-09-20T02:14:37Z</time></trkpt><trkpt lat="37.60222882403932" lon="140.07251356408096"><ele>1742.0334489047527</ele><time>2021-09-20T02:15:35Z</time></trkpt><trkpt lat="37.60207663871404" lon="140.07238563692124"><ele>1751.5941409450024</ele><time>2021-09-20T02:16:26Z</time></trkpt><trkpt lat="37.60189606101019" lon="140.07234645278376"><ele>1761.7929620714858</ele><time>2021-09-20T02:17:07Z</time></trkpt><trkpt lat="37.60174615239908" lon="140.07221813299174"><ele>1769.7998445006087</ele><time>2021-09-20T02:17:48Z</time></trkpt><trkpt lat="37.60166482935669" lon="140.07242021788323"><ele>1781.0068518519402</ele><time>2021-09-20T02:19:23Z</time></trkpt><trkpt lat="37.60148901080766" lon="140.07248506465325"><ele>1787.7304685814306</ele><time>2021-09-20T02:20:38Z</time></trkpt><trkpt lat="37.60133896324096" lon="140.07235251601483"><ele>1795.9519345508888</ele><time>2021-09-20T02:21:45Z</time></trkpt><trkpt lat="37.601174498821834" lon="140.07224355524602"><ele>1805.2172472923994</ele><time>2021-09-20T02:22:37Z</time></trkpt><trkpt lat="37.60099134702145" lon="140.07225133775444"><ele>1809.9795921994373</ele><time>2021-09-20T03:06:20Z</time></trkpt><trkpt lat="37.60090879969864" lon="140.07204837715707"><ele>1806.9941085875034</ele><time>2021-09-20T03:11:30Z</time></trkpt><trkpt lat="37.60108545262452" lon="140.07211409433333"><ele>1803.4473074218258</ele><time>2021-09-20T03:16:06Z</time></trkpt><trkpt lat="37.60126144759693" lon="140.07219570480245"><ele>1800.2830396723002</ele><time>2021-09-20T03:16:34Z</time></trkpt><trkpt lat="37.60137855211724" lon="140.07236922862853"><ele>1792.2495150379837</ele><time>2021-09-20T03:17:11Z</time></trkpt><trkpt lat="37.601554339255095" lon="140.0724509662959"><ele>1784.860086134635</ele><time>2021-09-20T03:18:04Z</time></trkpt><trkpt lat="37.60166198198549" lon="140.07226806990158"><ele>1777.3835052950308</ele><time>2021-09-20T03:18:57Z</time></trkpt><trkpt lat="37.60184408471431" lon="140.0722366643349"><ele>1765.9852664228529</ele><time>2021-09-20T03:20:14Z</time></trkpt><trkpt lat="37.60195821873896" lon="140.07241971357013"><ele>1759.2204770511016</ele><time>2021-09-20T03:21:03Z</time></trkpt><trkpt lat="37.60214229016251" lon="140.07238414519986"><ele>1749.6076113265008</ele><time>2021-09-20T03:22:05Z</time></trkpt><trkpt lat="37.60228348710687" lon="140.07252961634165"><ele>1741.3428297592327</ele><time>2021-09-20T03:22:55Z</time></trkpt><trkpt lat="37.60245907074675" lon="140.0724775723023"><ele>1733.4262219620869</ele><time>2021-09-20T03:24:04Z</time></trkpt><trkpt lat="37.60256408888628" lon="140.072669808476"><ele>1728.7606915868819</ele><time>2021-09-20T03:24:45Z</time></trkpt><trkpt lat="37.60274024718577" lon="140.07272820622535"><ele>1718.1971815535799</ele><time>2021-09-20T03:25:55Z</time></trkpt><trkpt lat="37.602922088604934" lon="140.07276304798188"><ele>1709.6805350705981</ele><time>2021-09-20T03:27:33Z</time></trkpt><trkpt lat="37.60309682288161" lon="140.0727011995101"><ele>1700.8253929661587</ele><time>2021-09-20T03:28:36Z</time></trkpt><trkpt lat="37.603272063539144" lon="140.07276676973854"><ele>1691.020415929146</ele><time>2021-09-20T03:30:19Z</time></trkpt><trkpt lat="37.6034485870706" lon="140.07271613205864"><ele>1682.200916774571</ele><time>2021-09-20T03:31:16Z</time></trkpt><trkpt lat="37.60358112545133" lon="140.07287691026386"><ele>1673.7482678862289</ele><time>2021-09-20T03:32:10Z</time></trkpt><trkpt lat="37.603656095059925" lon="140.07309825877633"><ele>1671.837856411934</ele><time>2021-09-20T03:32:43Z</time></trkpt><trkpt lat="37.60380630816414" lon="140.07322755506752"><ele>1659.6092847054824</ele><time>2021-09-20T03:33:51Z</time></trkpt><trkpt lat="37.60397721690115" lon="140.07330364049267"><ele>1650.360419485718</ele><time>2021-09-20T03:35:10Z</time></trkpt><trkpt lat="37.60414608449492" lon="140.07341103666784"><ele>1645.0316887414083</ele><time>2021-09-20T03:36:03Z</time></trkpt><trkpt lat="37.6043350298834" lon="140.07337668516527"><ele>1640.255383130163</ele><time>2021-09-20T03:36:57Z</time></trkpt><trkpt lat="37.60450155109774" lon="140.07347063406777"><ele>1632.2371928049251</ele><time>2021-09-20T03:37:46Z</time></trkpt><trkpt lat="37.60457359391543" lon="140.07346570318745"><ele>1629.1188110206276</ele><time>2021-09-20T03:38:13Z</time></trkpt><trkpt lat="37.60464617502207" lon="140.0732554975671"><ele>1624.144030478783</ele><time>2021-09-20T03:38:53Z</time></trkpt><trkpt lat="37.60468333424971" lon="140.07303234452206"><ele>1622.6181527143344</ele><time>2021-09-20T03:39:20Z</time></trkpt><trkpt lat="37.60475300777742" lon="140.07280811511134"><ele>1619.6766747264192</ele><time>2021-09-20T03:39:44Z</time></trkpt><trkpt lat="37.60479666109294" lon="140.07258682236153"><ele>1621.7143983822316</ele><time>2021-09-20T03:40:12Z</time></trkpt><trkpt lat="37.60479566152418" lon="140.0723576421428"><ele>1623.0700699063018</ele><time>2021-09-20T03:40:36Z</time></trkpt><trkpt lat="37.60479036632142" lon="140.0721173116633"><ele>1625.991406718269</ele><time>2021-09-20T03:41:00Z</time></trkpt><trkpt lat="37.60482999123393" lon="140.07188130068764"><ele>1622.3779756082222</ele><time>2021-09-20T03:41:20Z</time></trkpt><trkpt lat="37.60499781197345" lon="140.07179174874014"><ele>1619.944868169725</ele><time>2021-09-20T03:41:40Z</time></trkpt><trkpt lat="37.605160218464114" lon="140.07168689064244"><ele>1615.1632419489324</ele><time>2021-09-20T03:41:58Z</time></trkpt><trkpt lat="37.6053080282855" lon="140.07153669055967"><ele>1613.1628517759964</ele><time>2021-09-20T03:42:13Z</time></trkpt><trkpt lat="37.60549586565522" lon="140.0715446443087"><ele>1612.2685679234564</ele><time>2021-09-20T03:42:32Z</time></trkpt><trkpt lat="37.60567492864077" lon="140.0715861376617"><ele>1604.23000592459</ele><time>2021-09-20T03:42:50Z</time></trkpt><trkpt lat="37.60585815586843" lon="140.0715660412343"><ele>1600.0109147839248</ele><time>2021-09-20T03:43:06Z</time></trkpt><trkpt lat="37.60603945298663" lon="140.07148826116494"><ele>1596.7076673135161</ele><time>2021-09-20T03:43:31Z</time></trkpt><trkpt lat="37.606097221853524" lon="140.07170814069678"><ele>1598.6180770443752</ele><time>2021-09-20T03:45:01Z</time></trkpt><trkpt lat="37.60614231026161" lon="140.0719345433719"><ele>1599.4871830744669</ele><time>2021-09-20T03:45:19Z</time></trkpt><trkpt lat="37.60624846429002" lon="140.07212422032134"><ele>1599.24048005417</ele><time>2021-09-20T03:45:45Z</time></trkpt><trkpt lat="37.60637654767147" lon="140.0722965190182"><ele>1593.7985655376688</ele><time>2021-09-20T03:46:50Z</time></trkpt><trkpt lat="37.60647336294274" lon="140.07248918530055"><ele>1597.0313991196454</ele><time>2021-09-20T03:47:16Z</time></trkpt><trkpt lat="37.606536650196794" lon="140.07270426467076"><ele>1595.0865536164492</ele><time>2021-09-20T03:48:01Z</time></trkpt><trkpt lat="37.60655203697246" lon="140.07293040634985"><ele>1593.1339609790593</ele><time>2021-09-20T03:48:37Z</time></trkpt><trkpt lat="37.60654879723599" lon="140.0731809279974"><ele>1593.3976033590734</ele><time>2021-09-20T03:48:55Z</time></trkpt><trkpt lat="37.6066154732244" lon="140.07340449563227"><ele>1590.762505415827</ele><time>2021-09-20T03:49:25Z</time></trkpt><trkpt lat="37.60644958355652" lon="140.07351688152437"><ele>1595.2133088326082</ele><time>2021-09-20T03:50:48Z</time></trkpt><trkpt lat="37.60628402106943" lon="140.07361148678183"><ele>1592.8606792213395</ele><time>2021-09-20T03:51:10Z</time></trkpt><trkpt lat="37.606112928202634" lon="140.0737099601478"><ele>1593.2868737364188</ele><time>2021-09-20T03:51:29Z</time></trkpt><trkpt lat="37.605935846238374" lon="140.07377167930073"><ele>1588.6885876636952</ele><time>2021-09-20T03:51:46Z</time></trkpt><trkpt lat="37.60581983481525" lon="140.0739455332992"><ele>1587.29474107828</ele><time>2021-09-20T03:52:10Z</time></trkpt><trkpt lat="37.60566445339785" lon="140.07407941889556"><ele>1590.1767397429794</ele><time>2021-09-20T03:52:28Z</time></trkpt><trkpt lat="37.6055207206219" lon="140.07422458709624"><ele>1592.2879176298156</ele><time>2021-09-20T03:52:45Z</time></trkpt><trkpt lat="37.60556394970175" lon="140.07444546090977"><ele>1589.365937997587</ele><time>2021-09-20T03:53:37Z</time></trkpt><trkpt lat="37.60568018094486" lon="140.07461940765816"><ele>1578.083368981257</ele><time>2021-09-20T03:54:18Z</time></trkpt><trkpt lat="37.6057797185871" lon="140.07480857940595"><ele>1562.9062878396362</ele><time>2021-09-20T03:56:27Z</time></trkpt><trkpt lat="37.60589091837162" lon="140.07499364823747"><ele>1552.6669170632958</ele><time>2021-09-20T03:57:21Z</time></trkpt><trkpt lat="37.60601624188695" lon="140.07517587795067"><ele>1544.6436145259067</ele><time>2021-09-20T03:58:57Z</time></trkpt><trkpt lat="37.60617357395834" lon="140.07529988236274"><ele>1542.463116238825</ele><time>2021-09-20T03:59:16Z</time></trkpt><trkpt lat="37.6062247110137" lon="140.0755192264752"><ele>1539.2002755990252</ele><time>2021-09-20T03:59:37Z</time></trkpt><trkpt lat="37.60627547976009" lon="140.07573813531303"><ele>1535.9886491503567</ele><time>2021-09-20T04:00:01Z</time></trkpt><trkpt lat="37.606401534193964" lon="140.07590341832363"><ele>1529.6086779953912</ele><time>2021-09-20T04:01:15Z</time></trkpt><trkpt lat="37.60656828488573" lon="140.0760037658904"><ele>1524.2801593625918</ele><time>2021-09-20T04:01:45Z</time></trkpt><trkpt lat="37.60656909458715" lon="140.0762308826569"><ele>1512.6438985383138</ele><time>2021-09-20T04:03:31Z</time></trkpt><trkpt lat="37.60669726956305" lon="140.07640541524887"><ele>1503.1295222630724</ele><time>2021-09-20T04:04:17Z</time></trkpt><trkpt lat="37.60686570538153" lon="140.07650306209928"><ele>1499.3288585646078</ele><time>2021-09-20T04:04:43Z</time></trkpt><trkpt lat="37.60703493032071" lon="140.0765896141003"><ele>1496.8391672428697</ele><time>2021-09-20T04:04:59Z</time></trkpt><trkpt lat="37.60712828987272" lon="140.0767992231843"><ele>1496.0310696838424</ele><time>2021-09-20T04:05:20Z</time></trkpt><trkpt lat="37.60715608068165" lon="140.07702310199625"><ele>1493.0518929259852</ele><time>2021-09-20T04:06:16Z</time></trkpt><trkpt lat="37.60711868906735" lon="140.07724827979376"><ele>1490.353592558764</ele><time>2021-09-20T04:06:59Z</time></trkpt><trkpt lat="37.60706263283109" lon="140.07746843763363"><ele>1485.1852510785684</ele><time>2021-09-20T04:07:33Z</time></trkpt><trkpt lat="37.607070385303956" lon="140.07770306897746"><ele>1478.4887406146154</ele><time>2021-09-20T04:08:30Z</time></trkpt><trkpt lat="37.606950611461656" lon="140.07787806271492"><ele>1472.6891356771812</ele><time>2021-09-20T04:09:08Z</time></trkpt><trkpt lat="37.60676605043372" lon="140.07789884749607"><ele>1467.6322454567999</ele><time>2021-09-20T04:09:46Z</time></trkpt><trkpt lat="37.60661163582758" lon="140.0780244879854"><ele>1457.5767500083894</ele><time>2021-09-20T04:11:02Z</time></trkpt><trkpt lat="37.60648421874336" lon="140.07818610807968"><ele>1450.304399566725</ele><time>2021-09-20T04:11:36Z</time></trkpt><trkpt lat="37.606354057041955" lon="140.0783477499874"><ele>1446.9681836515665</ele><time>2021-09-20T04:12:01Z</time></trkpt><trkpt lat="37.60635248825171" lon="140.07857500094653"><ele>1438.596166074276</ele><time>2021-09-20T04:12:43Z</time></trkpt><trkpt lat="37.606269087568755" lon="140.0787792935252"><ele>1434.581075954251</ele><time>2021-09-20T04:13:22Z</time></trkpt><trkpt lat="37.60616120602497" lon="140.07896816241043"><ele>1428.738215261139</ele><time>2021-09-20T04:13:52Z</time></trkpt><trkpt lat="37.6060912449651" lon="140.07917967157582"><ele>1421.1384092979133</ele><time>2021-09-20T04:14:40Z</time></trkpt><trkpt lat="37.60593690113572" lon="140.07929759112758"><ele>1417.171854232438</ele><time>2021-09-20T04:15:13Z</time></trkpt><trkpt lat="37.605781196152925" lon="140.07941324631852"><ele>1411.3473286964</ele><time>2021-09-20T04:15:56Z</time></trkpt><trkpt lat="37.60560413317449" lon="140.07948374092203"><ele>1405.5426933802664</ele><time>2021-09-20T04:16:35Z</time></trkpt><trkpt lat="37.605422778411985" lon="140.07953634890364"><ele>1399.9062751466408</ele><time>2021-09-20T04:19:09Z</time></trkpt><trkpt lat="37.605237904540836" lon="140.07957778388536"><ele>1401.9606857094914</ele><time>2021-09-20T04:19:24Z</time></trkpt><trkpt lat="37.605048661535946" lon="140.07963254229563"><ele>1401.5579666700214</ele><time>2021-09-20T04:19:42Z</time></trkpt><trkpt lat="37.6048706553444" lon="140.07971597514145"><ele>1399.3974311817437</ele><time>2021-09-20T04:19:59Z</time></trkpt><trkpt lat="37.60474236565618" lon="140.07988360227668"><ele>1397.978865348734</ele><time>2021-09-20T04:20:16Z</time></trkpt><trkpt lat="37.60464681546572" lon="140.08008199874968"><ele>1395.124420184642</ele><time>2021-09-20T04:20:36Z</time></trkpt><trkpt lat="37.60447017368742" lon="140.08015857033493"><ele>1396.9255444202572</ele><time>2021-09-20T04:20:51Z</time></trkpt><trkpt lat="37.604291569469055" lon="140.08011845165726"><ele>1397.5281449547037</ele><time>2021-09-20T04:21:10Z</time></trkpt><trkpt lat="37.60413774441317" lon="140.0799907768801"><ele>1400.1177955847234</ele><time>2021-09-20T04:21:24Z</time></trkpt><trkpt lat="37.60396616498152" lon="140.07991968871832"><ele>1400.9934627600014</ele><time>2021-09-20T04:21:38Z</time></trkpt><trkpt lat="37.6037812310283" lon="140.07993807570935"><ele>1400.8188797533512</ele><time>2021-09-20T04:21:56Z</time></trkpt><trkpt lat="37.60360969491586" lon="140.0800075330755"><ele>1401.5608301088214</ele><time>2021-09-20T04:22:12Z</time></trkpt><trkpt lat="37.60343634350067" lon="140.0800752838556"><ele>1402.652577511035</ele><time>2021-09-20T04:22:26Z</time></trkpt><trkpt lat="37.603271007806505" lon="140.0801713007534"><ele>1402.7271694745868</ele><time>2021-09-20T04:22:41Z</time></trkpt><trkpt lat="37.6030773483024" lon="140.08021637777475"><ele>1401.65675358288</ele><time>2021-09-20T04:22:59Z</time></trkpt><trkpt lat="37.60288701024249" lon="140.08026287403635"><ele>1404.296535023488</ele><time>2021-09-20T04:23:15Z</time></trkpt><trkpt lat="37.60270816520343" lon="140.08033300057016"><ele>1404.9591136956587</ele><time>2021-09-20T04:23:31Z</time></trkpt><trkpt lat="37.602526042421424" lon="140.08037346958832"><ele>1406.660147360526</ele><time>2021-09-20T04:23:46Z</time></trkpt><trkpt lat="37.602349503341244" lon="140.0804265809288"><ele>1407.0380774224177</ele><time>2021-09-20T04:24:02Z</time></trkpt><trkpt lat="37.60218271060045" lon="140.08052127896727"><ele>1406.6409810297191</ele><time>2021-09-20T04:24:19Z</time></trkpt><trkpt lat="37.602050334078314" lon="140.08069546518553"><ele>1403.6713733850047</ele><time>2021-09-20T04:24:36Z</time></trkpt><trkpt lat="37.601931697498514" lon="140.080877375039"><ele>1403.3773499177769</ele><time>2021-09-20T04:24:56Z</time></trkpt><trkpt lat="37.60179035727203" lon="140.08104215973628"><ele>1399.479345422238</ele><time>2021-09-20T04:25:19Z</time></trkpt><trkpt lat="37.60163004172697" lon="140.0811578604686"><ele>1398.3119812021032</ele><time>2021-09-20T04:25:41Z</time></trkpt><trkpt lat="37.60150585410808" lon="140.0813264693783"><ele>1393.3491067457944</ele><time>2021-09-20T04:26:02Z</time></trkpt><trkpt lat="37.60142652411577" lon="140.08153869211603"><ele>1390.3758347835392</ele><time>2021-09-20T04:26:22Z</time></trkpt><trkpt lat="37.60140964460433" lon="140.08176579001403"><ele>1388.4917563376948</ele><time>2021-09-20T04:26:40Z</time></trkpt><trkpt lat="37.60130494945474" lon="140.08195867915603"><ele>1388.2406845474616</ele><time>2021-09-20T04:26:58Z</time></trkpt><trkpt lat="37.6011759791365" lon="140.08212091987906"><ele>1386.0076707107946</ele><time>2021-09-20T04:27:15Z</time></trkpt><trkpt lat="37.60098943012993" lon="140.08217451154906"><ele>1386.4865695266053</ele><time>2021-09-20T04:27:31Z</time></trkpt><trkpt lat="37.60080402336662" lon="140.08220675110405"><ele>1385.4336564391851</ele><time>2021-09-20T04:27:51Z</time></trkpt><trkpt lat="37.600612673468724" lon="140.08221085494273"><ele>1387.3369030207396</ele><time>2021-09-20T04:28:14Z</time></trkpt><trkpt lat="37.600434915590355" lon="140.08213789669117"><ele>1387.4997335029766</ele><time>2021-09-20T04:28:30Z</time></trkpt><trkpt lat="37.600248275671845" lon="140.08212534707667"><ele>1388.1869039339945</ele><time>2021-09-20T04:28:45Z</time></trkpt><trkpt lat="37.60007645383604" lon="140.08222091632246"><ele>1389.1002667965367</ele><time>2021-09-20T04:29:00Z</time></trkpt><trkpt lat="37.59991132212637" lon="140.0823413095745"><ele>1390.7018945058808</ele><time>2021-09-20T04:29:17Z</time></trkpt><trkpt lat="37.599742654360576" lon="140.08242998970155"><ele>1391.2220853576437</ele><time>2021-09-20T04:29:32Z</time></trkpt><trkpt lat="37.59956236554056" lon="140.08239288699812"><ele>1389.8644906310365</ele><time>2021-09-20T04:29:47Z</time></trkpt><trkpt lat="37.59948771523264" lon="140.08260739908448"><ele>1386.8277295101434</ele><time>2021-09-20T04:30:10Z</time></trkpt><trkpt lat="37.59948429150491" lon="140.08283435052041"><ele>1387.3699698364362</ele><time>2021-09-20T04:30:26Z</time></trkpt><trkpt lat="37.59944749344703" lon="140.08306123700396"><ele>1387.2419695481658</ele><time>2021-09-20T04:30:44Z</time></trkpt><trkpt lat="37.599489830236855" lon="140.08330661196212"><ele>1385.1665471699089</ele><time>2021-09-20T04:30:59Z</time></trkpt><trkpt lat="37.59943551350577" lon="140.08353143096855"><ele>1383.329318252392</ele><time>2021-09-20T04:31:18Z</time></trkpt><trkpt lat="37.5993943988003" lon="140.08375833762608"><ele>1380.6474633635953</ele><time>2021-09-20T04:31:36Z</time></trkpt><trkpt lat="37.59941483005867" lon="140.08399256268615"><ele>1380.674296144396</ele><time>2021-09-20T04:31:50Z</time></trkpt><trkpt lat="37.59937580193733" lon="140.0842150950992"><ele>1379.1868558917195</ele><time>2021-09-20T04:32:05Z</time></trkpt><trkpt lat="37.59924173631468" lon="140.0843754500207"><ele>1379.2711357083172</ele><time>2021-09-20T04:32:22Z</time></trkpt><trkpt lat="37.59905578400845" lon="140.08438957711274"><ele>1373.944397858344</ele><time>2021-09-20T04:32:50Z</time></trkpt><trkpt lat="37.598889697181654" lon="140.08451916389936"><ele>1367.473682789132</ele><time>2021-09-20T04:33:08Z</time></trkpt><trkpt lat="37.59874335188251" lon="140.08465831498035"><ele>1366.3312558345497</ele><time>2021-09-20T04:33:24Z</time></trkpt><trkpt lat="37.59858599044391" lon="140.08478156106506"><ele>1364.4562692902982</ele><time>2021-09-20T04:33:38Z</time></trkpt><trkpt lat="37.598447624620704" lon="140.0849290829641"><ele>1364.021760406904</ele><time>2021-09-20T04:33:53Z</time></trkpt><trkpt lat="37.5982635325252" lon="140.0850065171394"><ele>1362.9275291636586</ele><time>2021-09-20T04:34:10Z</time></trkpt><trkpt lat="37.59810258521196" lon="140.08511805795962"><ele>1359.6213864423335</ele><time>2021-09-20T04:34:24Z</time></trkpt><trkpt lat="37.59799530420784" lon="140.08531788169986"><ele>1357.6966961650178</ele><time>2021-09-20T04:34:44Z</time></trkpt><trkpt lat="37.5978821946233" lon="140.08551166506982"><ele>1358.9842106392607</ele><time>2021-09-20T04:35:00Z</time></trkpt><trkpt lat="37.597756756041626" lon="140.08568312182365"><ele>1358.8758933898062</ele><time>2021-09-20T04:35:14Z</time></trkpt><trkpt lat="37.5975819743668" lon="140.0857712381773"><ele>1359.5208721160889</ele><time>2021-09-20T04:35:31Z</time></trkpt><trkpt lat="37.59744156665391" lon="140.08592818798573"><ele>1362.2632237775251</ele><time>2021-09-20T04:35:49Z</time></trkpt><trkpt lat="37.5972822093516" lon="140.08605934735073"><ele>1365.296671371907</ele><time>2021-09-20T04:36:08Z</time></trkpt><trkpt lat="37.597152260227865" lon="140.0862172588112"><ele>1367.5053703896701</ele><time>2021-09-20T04:36:26Z</time></trkpt><trkpt lat="37.59697871274402" lon="140.08628922382331"><ele>1368.1223286828026</ele><time>2021-09-20T04:36:42Z</time></trkpt><trkpt lat="37.59681134710681" lon="140.08637397254304"><ele>1369.7064828574657</ele><time>2021-09-20T04:36:58Z</time></trkpt><trkpt lat="37.596629204448554" lon="140.0863076932537"><ele>1371.2662585955113</ele><time>2021-09-20T04:37:17Z</time></trkpt><trkpt lat="37.596456194699215" lon="140.08621064180306"><ele>1368.4826413318515</ele><time>2021-09-20T04:37:32Z</time></trkpt><trkpt lat="37.59628084971357" lon="140.08613791687478"><ele>1366.3473739819601</ele><time>2021-09-20T04:37:49Z</time></trkpt><trkpt lat="37.59610459920306" lon="140.08605636329676"><ele>1364.4730826374143</ele><time>2021-09-20T04:38:03Z</time></trkpt><trkpt lat="37.59592620127153" lon="140.0860027216547"><ele>1362.652198352851</ele><time>2021-09-20T04:38:20Z</time></trkpt><trkpt lat="37.59575192863954" lon="140.08591641926392"><ele>1361.3110168902203</ele><time>2021-09-20T04:38:34Z</time></trkpt><trkpt lat="37.59557027030466" lon="140.08586625081406"><ele>1357.550138049759</ele><time>2021-09-20T04:38:53Z</time></trkpt><trkpt lat="37.59539417246743" lon="140.0857874967776"><ele>1353.1838182965294</ele><time>2021-09-20T04:39:17Z</time></trkpt><trkpt lat="37.595211171469295" lon="140.08576390258605"><ele>1351.5837591039017</ele><time>2021-09-20T04:39:39Z</time></trkpt><trkpt lat="37.59502770351353" lon="140.08572272947822"><ele>1349.9955601859838</ele><time>2021-09-20T04:40:05Z</time></trkpt><trkpt lat="37.59484403594815" lon="140.08566191927173"><ele>1343.9615897219628</ele><time>2021-09-20T04:40:31Z</time></trkpt><trkpt lat="37.594683809234596" lon="140.08554390864708"><ele>1340.3150303224102</ele><time>2021-09-20T04:40:59Z</time></trkpt><trkpt lat="37.59450428840143" lon="140.08549708119966"><ele>1337.3706459682435</ele><time>2021-09-20T04:41:27Z</time></trkpt><trkpt lat="37.59432353033778" lon="140.08549173974666"><ele>1337.6338512739167</ele><time>2021-09-20T04:41:56Z</time></trkpt><trkpt lat="37.59413515514004" lon="140.08544334779538"><ele>1334.3875808557495</ele><time>2021-09-20T04:42:15Z</time></trkpt><trkpt lat="37.59394703926527" lon="140.08536364361555"><ele>1333.5049999868497</ele><time>2021-09-20T04:42:37Z</time></trkpt><trkpt lat="37.593769669693316" lon="140.08529587998476"><ele>1330.399466686882</ele><time>2021-09-20T04:42:56Z</time></trkpt><trkpt lat="37.59360237687403" lon="140.08520767270966"><ele>1329.0445044897497</ele><time>2021-09-20T04:43:16Z</time></trkpt><trkpt lat="37.59343705222813" lon="140.0851014617969"><ele>1328.944490622729</ele><time>2021-09-20T04:43:36Z</time></trkpt><trkpt lat="37.59326279623624" lon="140.08499155647937"><ele>1326.8895508479327</ele><time>2021-09-20T04:43:59Z</time></trkpt><trkpt lat="37.59310169331747" lon="140.0848857045123"><ele>1324.2280615167692</ele><time>2021-09-20T04:44:15Z</time></trkpt><trkpt lat="37.59294487129566" lon="140.0847531821374"><ele>1322.2468861704692</ele><time>2021-09-20T04:44:33Z</time></trkpt><trkpt lat="37.59280357605482" lon="140.08461196053557"><ele>1320.6923756888136</ele><time>2021-09-20T04:44:57Z</time></trkpt><trkpt lat="37.59267452682866" lon="140.08445327105986"><ele>1316.7815413065255</ele><time>2021-09-20T04:45:23Z</time></trkpt><trkpt lat="37.592574418917536" lon="140.08426166074526"><ele>1312.3938419586048</ele><time>2021-09-20T04:45:49Z</time></trkpt><trkpt lat="37.59246212197572" lon="140.08408068176053"><ele>1309.7325028460473</ele><time>2021-09-20T04:46:21Z</time></trkpt><trkpt lat="37.59236044478352" lon="140.08387664794813"><ele>1304.8883091956377</ele><time>2021-09-20T04:46:54Z</time></trkpt><trkpt lat="37.5922108079084" lon="140.08374085567235"><ele>1298.0323863904923</ele><time>2021-09-20T04:47:31Z</time></trkpt><trkpt lat="37.59204415214582" lon="140.08365391198845"><ele>1290.23042188026</ele><time>2021-09-20T04:48:22Z</time></trkpt><trkpt lat="37.591887511467384" lon="140.0835388990627"><ele>1281.4303369401023</ele><time>2021-09-20T04:52:07Z</time></trkpt><trkpt lat="37.591792242030905" lon="140.08333873375966"><ele>1273.066485753283</ele><time>2021-09-20T04:52:46Z</time></trkpt><trkpt lat="37.59161481150671" lon="140.08326784175412"><ele>1266.3204580452293</ele><time>2021-09-20T04:53:14Z</time></trkpt><trkpt lat="37.59146071465527" lon="140.08314738438833"><ele>1264.2820732798427</ele><time>2021-09-20T04:53:40Z</time></trkpt><trkpt lat="37.59128958571592" lon="140.0832393129512"><ele>1259.2752663465217</ele><time>2021-09-20T04:54:09Z</time></trkpt><trkpt lat="37.591106241361025" lon="140.08322493820478"><ele>1257.8360754735768</ele><time>2021-09-20T04:54:23Z</time></trkpt><trkpt lat="37.590924692075305" lon="140.08323215737553"><ele>1259.6894877254963</ele><time>2021-09-20T04:54:54Z</time></trkpt><trkpt lat="37.590741682605625" lon="140.08321087242032"><ele>1250.2139818165451</ele><time>2021-09-20T04:55:09Z</time></trkpt><trkpt lat="37.59055492525351" lon="140.0831484359829"><ele>1251.6496396716684</ele><time>2021-09-20T04:55:25Z</time></trkpt><trkpt lat="37.59038240673029" lon="140.083072543018"><ele>1246.1061648279428</ele><time>2021-09-20T04:55:44Z</time></trkpt><trkpt lat="37.59020917079657" lon="140.08299379229712"><ele>1240.7727823248133</ele><time>2021-09-20T04:56:19Z</time></trkpt><trkpt lat="37.5900465186906" lon="140.0828908205107"><ele>1231.6698631364852</ele><time>2021-09-20T04:56:48Z</time></trkpt><trkpt lat="37.58987872329044" lon="140.08279117743172"><ele>1225.971656151116</ele><time>2021-09-20T04:57:23Z</time></trkpt><trkpt lat="37.58970082631929" lon="140.08273440070397"><ele>1219.589072654955</ele><time>2021-09-20T04:57:43Z</time></trkpt><trkpt lat="37.58953682931666" lon="140.08263502180304"><ele>1216.510843922384</ele><time>2021-09-20T04:58:06Z</time></trkpt><trkpt lat="37.589358573248774" lon="140.08255578872942"><ele>1211.6143642682582</ele><time>2021-09-20T04:58:31Z</time></trkpt><trkpt lat="37.58926579486212" lon="140.08235234077154"><ele>1205.408618396148</ele><time>2021-09-20T04:59:01Z</time></trkpt><trkpt lat="37.58909275126167" lon="140.08227914320645"><ele>1197.939009891823</ele><time>2021-09-20T04:59:22Z</time></trkpt><trkpt lat="37.588907323950025" lon="140.0822429171391"><ele>1195.8640687288716</ele><time>2021-09-20T04:59:41Z</time></trkpt><trkpt lat="37.5887390174726" lon="140.08211813841334"><ele>1194.382164798677</ele><time>2021-09-20T04:59:57Z</time></trkpt><trkpt lat="37.58856713401891" lon="140.08204034006624"><ele>1190.195613430813</ele><time>2021-09-20T05:00:26Z</time></trkpt><trkpt lat="37.58839236054916" lon="140.0821093749735"><ele>1180.7822789335623</ele><time>2021-09-20T05:01:09Z</time></trkpt><trkpt lat="37.58821554099039" lon="140.08215755814942"><ele>1170.5470414180309</ele><time>2021-09-20T05:01:54Z</time></trkpt><trkpt lat="37.588045898897185" lon="140.08225181825293"><ele>1162.562824732624</ele><time>2021-09-20T05:02:28Z</time></trkpt><trkpt lat="37.58793098219562" lon="140.082436306444"><ele>1153.5681276367977</ele><time>2021-09-20T05:03:16Z</time></trkpt><trkpt lat="37.58775396878655" lon="140.08248401669061"><ele>1145.7835494065657</ele><time>2021-09-20T05:03:37Z</time></trkpt><trkpt lat="37.587565170925004" lon="140.08250694400257"><ele>1138.9089521905407</ele><time>2021-09-20T05:03:56Z</time></trkpt><trkpt lat="37.58738518151627" lon="140.08251807479104"><ele>1132.3530488004908</ele><time>2021-09-20T05:04:33Z</time></trkpt><trkpt lat="37.58729987340547" lon="140.0823157343041"><ele>1131.6847752509639</ele><time>2021-09-20T05:04:57Z</time></trkpt><trkpt lat="37.58736164942171" lon="140.0820906915003"><ele>1135.3879844788462</ele><time>2021-09-20T05:05:14Z</time></trkpt><trkpt lat="37.587399457393126" lon="140.08186323629263"><ele>1138.9980716472492</ele><time>2021-09-20T05:05:32Z</time></trkpt><trkpt lat="37.587238451186714" lon="140.08175642760443"><ele>1130.1179010327905</ele><time>2021-09-20T05:05:58Z</time></trkpt><trkpt lat="37.587054932310565" lon="140.08178298897036"><ele>1124.2909752829</ele><time>2021-09-20T05:06:18Z</time></trkpt><trkpt lat="37.58687041761916" lon="140.08179674592728"><ele>1115.6405652118847</ele><time>2021-09-20T05:06:38Z</time></trkpt><trkpt lat="37.586683551580066" lon="140.08181957566333"><ele>1106.9455646472052</ele><time>2021-09-20T05:06:52Z</time></trkpt><trkpt lat="37.586515166481824" lon="140.08172279530402"><ele>1098.0285300100222</ele><time>2021-09-20T05:07:03Z</time></trkpt><trkpt lat="37.586352364655866" lon="140.08161226557783"><ele>1091.107668261975</ele><time>2021-09-20T05:07:15Z</time></trkpt><trkpt lat="37.58617113550387" lon="140.08153100259307"><ele>1082.5324397953227</ele><time>2021-09-20T05:07:24Z</time></trkpt><trkpt lat="37.58599722098213" lon="140.08138255974313"><ele>1075.4181997450069</ele><time>2021-09-20T05:07:31Z</time></trkpt><trkpt lat="37.585837716905566" lon="140.08127191111967"><ele>1066.1445192778483</ele><time>2021-09-20T05:07:38Z</time></trkpt><trkpt lat="37.58565563063294" lon="140.08126468388303"><ele>1061.654216285795</ele><time>2021-09-20T05:10:02Z</time></trkpt><trkpt lat="37.58547285698239" lon="140.08131459989804"><ele>1058.0409111576155</ele><time>2021-09-20T05:10:48Z</time></trkpt><trkpt lat="37.585330364612595" lon="140.08145948692413"><ele>1049.1217701099813</ele><time>2021-09-20T05:11:03Z</time></trkpt><trkpt lat="37.58522163316709" lon="140.0816643755733"><ele>1044.3954709246755</ele><time>2021-09-20T05:11:18Z</time></trkpt><trkpt lat="37.58508644810054" lon="140.08182386728126"><ele>1038.0561817418784</ele><time>2021-09-20T05:11:37Z</time></trkpt><trkpt lat="37.58493705198455" lon="140.0819529976549"><ele>1039.8253796352074</ele><time>2021-09-20T05:11:55Z</time></trkpt><trkpt lat="37.584778889633895" lon="140.0820932440701"><ele>1037.8271989449859</ele><time>2021-09-20T05:12:12Z</time></trkpt><trkpt lat="37.58463789784335" lon="140.0822479305889"><ele>1032.6132794301957</ele><time>2021-09-20T05:12:31Z</time></trkpt><trkpt lat="37.5844921037395" lon="140.08239453265443"><ele>1029.3251167535782</ele><time>2021-09-20T05:12:45Z</time></trkpt><trkpt lat="37.58434305122802" lon="140.08252530591886"><ele>1022.9785640789196</ele><time>2021-09-20T05:13:11Z</time></trkpt><trkpt lat="37.58417612972803" lon="140.08261717257142"><ele>1014.9194993963465</ele><time>2021-09-20T05:13:38Z</time></trkpt><trkpt lat="37.58399001765172" lon="140.0826239354097"><ele>1005.4995691841468</ele><time>2021-09-20T05:14:01Z</time></trkpt><trkpt lat="37.58380315708979" lon="140.08265828665174"><ele>1001.5045843981206</ele><time>2021-09-20T05:14:29Z</time></trkpt><trkpt lat="37.583621838308815" lon="140.08269493942882"><ele>997.0346517870203</ele><time>2021-09-20T05:14:49Z</time></trkpt><trkpt lat="37.583445519213925" lon="140.08275332369968"><ele>990.5352798094973</ele><time>2021-09-20T05:15:09Z</time></trkpt><trkpt lat="37.5832643982356" lon="140.08283197321748"><ele>986.3566658236086</ele><time>2021-09-20T05:15:29Z</time></trkpt><trkpt lat="37.58308571843614" lon="140.08286423261046"><ele>979.9457678552717</ele><time>2021-09-20T05:15:48Z</time></trkpt><trkpt lat="37.58291677612849" lon="140.08295227128667"><ele>972.7435389775783</ele><time>2021-09-20T05:16:12Z</time></trkpt><trkpt lat="37.58276719814445" lon="140.08308758160763"><ele>966.1561731714755</ele><time>2021-09-20T05:16:36Z</time></trkpt><trkpt lat="37.58260799785241" lon="140.08321099481603"><ele>958.7853686716408</ele><time>2021-09-20T05:16:51Z</time></trkpt><trkpt lat="37.58246466190394" lon="140.08334936566297"><ele>958.4485301822424</ele><time>2021-09-20T05:17:06Z</time></trkpt><trkpt lat="37.58234567768896" lon="140.08352832242198"><ele>957.8939689965919</ele><time>2021-09-20T05:17:21Z</time></trkpt><trkpt lat="37.58224602896821" lon="140.0837215372628"><ele>955.0324500082061</ele><time>2021-09-20T05:17:38Z</time></trkpt><trkpt lat="37.58212676271738" lon="140.08390944374398"><ele>953.8169558281079</ele><time>2021-09-20T05:17:51Z</time></trkpt><trkpt lat="37.582022518302566" lon="140.08410071720567"><ele>950.9618038116023</ele><time>2021-09-20T05:18:05Z</time></trkpt><trkpt lat="37.58190675626235" lon="140.0842840409971"><ele>947.4567147791386</ele><time>2021-09-20T05:18:18Z</time></trkpt><trkpt lat="37.5817722076265" lon="140.0844521135892"><ele>944.9210843509063</ele><time>2021-09-20T05:18:33Z</time></trkpt><trkpt lat="37.58161103658457" lon="140.0845618945527"><ele>942.8673325730488</ele><time>2021-09-20T05:18:48Z</time></trkpt><trkpt lat="37.5814385150598" lon="140.08465358055267"><ele>939.836270746775</ele><time>2021-09-20T05:19:02Z</time></trkpt><trkpt lat="37.581264494887265" lon="140.08473620047315"><ele>940.235120662488</ele><time>2021-09-20T05:19:13Z</time></trkpt><trkpt lat="37.58108407806848" lon="140.08484532076912"><ele>940.0096548926085</ele><time>2021-09-20T05:19:25Z</time></trkpt><trkpt lat="37.580919615572526" lon="140.08494510700388"><ele>938.1540196845308</ele><time>2021-09-20T05:19:36Z</time></trkpt><trkpt lat="37.580762128704286" lon="140.08507101563228"><ele>932.9755397066474</ele><time>2021-09-20T05:19:45Z</time></trkpt><trkpt lat="37.580610147227205" lon="140.08521051837243"><ele>929.7122917370871</ele><time>2021-09-20T05:19:55Z</time></trkpt><trkpt lat="37.58046392798456" lon="140.08536845132886"><ele>924.7847221959382</ele><time>2021-09-20T05:20:13Z</time></trkpt><trkpt lat="37.58035198706591" lon="140.08556375478952"><ele>916.6045221500099</ele><time>2021-09-20T05:20:31Z</time></trkpt><trkpt lat="37.5802602596069" lon="140.08536318134514"><ele>917.1128306183964</ele><time>2021-09-20T05:20:48Z</time></trkpt><trkpt lat="37.58023492730047" lon="140.08512701560437"><ele>915.4800130529329</ele><time>2021-09-20T05:21:03Z</time></trkpt><trkpt lat="37.58021165756406" lon="140.08489649885004"><ele>912.8835944542661</ele><time>2021-09-20T05:21:17Z</time></trkpt><trkpt lat="37.58022114900262" lon="140.08466541758753"><ele>912.2121239937842</ele><time>2021-09-20T05:21:31Z</time></trkpt><trkpt lat="37.58016315397135" lon="140.08444598093328"><ele>910.0852004112676</ele><time>2021-09-20T05:21:47Z</time></trkpt><trkpt lat="37.58015903559127" lon="140.08421513081888"><ele>906.4179956568405</ele><time>2021-09-20T05:22:01Z</time></trkpt><trkpt lat="37.58017790470842" lon="140.08397572480675"><ele>904.1806617490947</ele><time>2021-09-20T05:22:14Z</time></trkpt><trkpt lat="37.580177209118304" lon="140.0837468535133"><ele>901.3948776638135</ele><time>2021-09-20T05:22:26Z</time></trkpt><trkpt lat="37.58018511690487" lon="140.08351333144995"><ele>897.1022212039679</ele><time>2021-09-20T05:22:40Z</time></trkpt><trkpt lat="37.58018300993559" lon="140.083280981102"><ele>893.9504464864731</ele><time>2021-09-20T05:22:52Z</time></trkpt><trkpt lat="37.5801618072203" lon="140.08304229573687"><ele>891.8196318242699</ele><time>2021-09-20T05:23:05Z</time></trkpt><trkpt lat="37.5801451369376" lon="140.08280886533746"><ele>888.7382826562971</ele><time>2021-09-20T05:23:18Z</time></trkpt><trkpt lat="37.5800779292483" lon="140.08259519277206"><ele>883.5792576465756</ele><time>2021-09-20T05:23:32Z</time></trkpt><trkpt lat="37.57989690539203" lon="140.08254287372606"><ele>877.2509308904409</ele><time>2021-09-20T05:23:48Z</time></trkpt><trkpt lat="37.579744364994475" lon="140.08269023917592"><ele>873.7223336808383</ele><time>2021-09-20T05:24:03Z</time></trkpt><trkpt lat="37.57961789989916" lon="140.08285180473018"><ele>869.1889352807775</ele><time>2021-09-20T05:24:17Z</time></trkpt><trkpt lat="37.579473009916924" lon="140.08301541341902"><ele>865.8977078925818</ele><time>2021-09-20T05:24:30Z</time></trkpt><trkpt lat="37.579326234271896" lon="140.08315249107167"><ele>863.3853962318972</ele><time>2021-09-20T05:24:43Z</time></trkpt><trkpt lat="37.579173936308464" lon="140.083282175281"><ele>859.4784149415791</ele><time>2021-09-20T05:24:56Z</time></trkpt><trkpt lat="37.57903380060705" lon="140.0834342482217"><ele>857.9211053978652</ele><time>2021-09-20T05:25:08Z</time></trkpt><trkpt lat="37.578900227905315" lon="140.0836073302217"><ele>854.417996735312</ele><time>2021-09-20T05:25:22Z</time></trkpt><trkpt lat="37.57882647886552" lon="140.08381682637224"><ele>850.5765828508884</ele><time>2021-09-20T05:25:34Z</time></trkpt><trkpt lat="37.57874605829555" lon="140.08402188523223"><ele>848.163012851961</ele><time>2021-09-20T05:25:45Z</time></trkpt><trkpt lat="37.578693101251154" lon="140.08425310528028"><ele>845.2735536349937</ele><time>2021-09-20T05:25:57Z</time></trkpt><trkpt lat="37.57865419963391" lon="140.084486278906"><ele>843.1668236078694</ele><time>2021-09-20T05:26:11Z</time></trkpt><trkpt lat="37.578638407248974" lon="140.08471785077603"><ele>838.9808974219486</ele><time>2021-09-20T05:26:24Z</time></trkpt><trkpt lat="37.57860110327039" lon="140.08495203619736"><ele>836.6160555388778</ele><time>2021-09-20T05:26:37Z</time></trkpt><trkpt lat="37.57863835551846" lon="140.08517932552175"><ele>830.1793373674154</ele><time>2021-09-20T05:26:53Z</time></trkpt><trkpt lat="37.578676852257004" lon="140.08541504013544"><ele>827.8074687439948</ele><time>2021-09-20T05:27:07Z</time></trkpt><trkpt lat="37.578703579758624" lon="140.08564624049137"><ele>826.2091872757301</ele><time>2021-09-20T05:27:20Z</time></trkpt><trkpt lat="37.57869690335275" lon="140.08588282739817"><ele>825.542249946855</ele><time>2021-09-20T05:27:34Z</time></trkpt><trkpt lat="37.57869538475037" lon="140.08613869329895"><ele>824.7347631603479</ele><time>2021-09-20T05:27:49Z</time></trkpt><trkpt lat="37.57882569609347" lon="140.08633597935565"><ele>824.8742730170488</ele><time>2021-09-20T05:28:02Z</time></trkpt><trkpt lat="37.578858612043966" lon="140.0865702006095"><ele>825.2190922191367</ele><time>2021-09-20T05:28:15Z</time></trkpt><trkpt lat="37.578863236594486" lon="140.08680262361977"><ele>824.0637881802395</ele><time>2021-09-20T05:28:27Z</time></trkpt><trkpt lat="37.57882969015773" lon="140.08703348382323"><ele>824.799513662234</ele><time>2021-09-20T05:28:39Z</time></trkpt><trkpt lat="37.578837113593146" lon="140.0872649082958"><ele>822.4030904909596</ele><time>2021-09-20T05:28:53Z</time></trkpt><trkpt lat="37.57881560773143" lon="140.0875010264463"><ele>818.8075316753238</ele><time>2021-09-20T05:29:09Z</time></trkpt><trkpt lat="37.578724963033096" lon="140.08770306853347"><ele>813.5836234409362</ele><time>2021-09-20T05:29:21Z</time></trkpt><trkpt lat="37.578688823600594" lon="140.087928632445"><ele>809.7339135622606</ele><time>2021-09-20T05:29:36Z</time></trkpt><trkpt lat="37.578597223620726" lon="140.08812653376089"><ele>804.3407803075388</ele><time>2021-09-20T05:29:50Z</time></trkpt><trkpt lat="37.57849151709187" lon="140.08832209865068"><ele>802.8916031857952</ele><time>2021-09-20T05:30:05Z</time></trkpt><trkpt lat="37.57844925407895" lon="140.0885475249993"><ele>797.480739980936</ele><time>2021-09-20T05:30:17Z</time></trkpt><trkpt lat="37.578393032937534" lon="140.08876580291601"><ele>790.9510575681925</ele><time>2021-09-20T05:30:23Z</time></trkpt><trkpt lat="37.578292141792076" lon="140.08900841736119"><ele>791.6935126641765</ele><time>2021-09-20T05:30:29Z</time></trkpt><trkpt lat="37.57817751253464" lon="140.0891874079867"><ele>790.2148527586833</ele><time>2021-09-20T05:30:33Z</time></trkpt><trkpt lat="37.578004863277265" lon="140.08933793130393"><ele>787.567225609906</ele><time>2021-09-20T05:30:38Z</time></trkpt><trkpt lat="37.57785268547565" lon="140.0895265294495"><ele>781.699267228134</ele><time>2021-09-20T05:30:43Z</time></trkpt><trkpt lat="37.57769120421844" lon="140.08972171988864"><ele>776.0207034265622</ele><time>2021-09-20T05:30:48Z</time></trkpt><trkpt lat="37.577528434540184" lon="140.0898975882956"><ele>769.438677453436</ele><time>2021-09-20T05:30:53Z</time></trkpt><trkpt lat="37.57738670768498" lon="140.0900627241768"><ele>765.4600257463753</ele><time>2021-09-20T05:30:58Z</time></trkpt><trkpt lat="37.577255033925404" lon="140.0902237309679"><ele>761.5450832974166</ele><time>2021-09-20T05:31:02Z</time></trkpt><trkpt lat="37.57710967618754" lon="140.09040430643765"><ele>757.4373934082687</ele><time>2021-09-20T05:31:07Z</time></trkpt><trkpt lat="37.57695177310841" lon="140.09058713442926"><ele>751.0653743529692</ele><time>2021-09-20T05:31:12Z</time></trkpt><trkpt lat="37.57680776655272" lon="140.09076290293817"><ele>745.9084450062364</ele><time>2021-09-20T05:31:17Z</time></trkpt><trkpt lat="37.57667263628879" lon="140.09093499787454"><ele>742.3904679780826</ele><time>2021-09-20T05:31:22Z</time></trkpt><trkpt lat="37.57650438026529" lon="140.09104994584786"><ele>736.0102006690577</ele><time>2021-09-20T05:31:27Z</time></trkpt><trkpt lat="37.57637496929913" lon="140.09126381069925"><ele>737.290088574402</ele><time>2021-09-20T05:31:32Z</time></trkpt><trkpt lat="37.57621644312169" lon="140.09142796963124"><ele>733.4337606169283</ele><time>2021-09-20T05:31:37Z</time></trkpt><trkpt lat="37.57603577842668" lon="140.09157086582505"><ele>729.3132099565119</ele><time>2021-09-20T05:31:42Z</time></trkpt><trkpt lat="37.57590711211066" lon="140.09178258972307"><ele>726.2429107017815</ele><time>2021-09-20T05:31:48Z</time></trkpt><trkpt lat="37.575824193774785" lon="140.09201473179985"><ele>724.964747116901</ele><time>2021-09-20T05:31:53Z</time></trkpt><trkpt lat="37.5757334665172" lon="140.09223696998558"><ele>722.6061188830063</ele><time>2021-09-20T05:31:58Z</time></trkpt><trkpt lat="37.575588906747406" lon="140.09237373163214"><ele>720.2365029808134</ele><time>2021-09-20T05:32:03Z</time></trkpt><trkpt lat="37.57541381564867" lon="140.0925598451079"><ele>716.9493916360661</ele><time>2021-09-20T05:32:09Z</time></trkpt><trkpt lat="37.575334593106085" lon="140.09279966704068"><ele>714.4302742527798</ele><time>2021-09-20T05:32:15Z</time></trkpt><trkpt lat="37.57529478347356" lon="140.09305429308162"><ele>710.435161546804</ele><time>2021-09-20T05:32:21Z</time></trkpt><trkpt lat="37.57520442188086" lon="140.0932673437356"><ele>707.2278564805165</ele><time>2021-09-20T05:32:27Z</time></trkpt><trkpt lat="37.57533327737857" lon="140.09344541589496"><ele>705.5445486828685</ele><time>2021-09-20T05:39:02Z</time></trkpt><trkpt lat="37.57539795883531" lon="140.0936579230426"><ele>705.624104491435</ele><time>2021-09-20T05:39:06Z</time></trkpt><trkpt lat="37.575198715488874" lon="140.0937333141684"><ele>696.7335641691461</ele><time>2021-09-20T05:39:13Z</time></trkpt><trkpt lat="37.5751804077714" lon="140.09396337118076"><ele>695.0849656658247</ele><time>2021-09-20T05:39:19Z</time></trkpt><trkpt lat="37.57517096003695" lon="140.09419718825433"><ele>692.8345833066851</ele><time>2021-09-20T05:39:29Z</time></trkpt><trkpt lat="37.575199094402805" lon="140.09443239180317"><ele>695.0803535850719</ele><time>2021-09-20T05:39:42Z</time></trkpt><trkpt lat="37.57522067194253" lon="140.09465772634437"><ele>694.8145879572257</ele><time>2021-09-20T05:39:56Z</time></trkpt><trkpt lat="37.57531163520413" lon="140.0948639373075"><ele>693.8555163415149</ele><time>2021-09-20T05:40:09Z</time></trkpt><trkpt lat="37.575394861378726" lon="140.09508677309003"><ele>691.9351983182132</ele><time>2021-09-20T05:40:22Z</time></trkpt></trkseg></trk></gpx>