<?xml version='1.0' encoding='UTF-8'?><gpx creator="YAMAP - https://yamap.com" xsi:schemaLocation="http://www.topografix.com/GPX/1/1 http://www.topografix.com/GPX/1/1/gpx.xsd" version="1.1" xmlns="http://www.topografix.com/GPX/1/1" xmlns:xsi="http://www.w3.org/2001/XMLSchema-instance"><metadata><bounds maxlat="35.144701036500784" maxlon="136.66144924403565" minlat="35.13020601424886" minlon="136.62287148011114"/></metadata><trk><name>多度山</name><number>1</number><trkseg><trkpt lat="35.13323615365553" lon="136.62344514065376"><ele>41.599941360764205</ele><time>2021-11-21T02:52:59Z</time></trkpt><trkpt lat="35.13316238147376" lon="136.62324483103563"><ele>42.84852722566575</ele><time>2021-11-21T02:53:17Z</time></trkpt><trkpt lat="35.13322006053255" lon="136.62345656385455"><ele>41.19283005036414</ele><time>2021-11-21T02:55:33Z</time></trkpt><trkpt lat="35.13324326365277" lon="136.6236813211476"><ele>39.959129206836224</ele><time>2021-11-21T02:55:53Z</time></trkpt><trkpt lat="35.13341293796866" lon="136.62378312801448"><ele>42.25686062220484</ele><time>2021-11-21T02:56:09Z</time></trkpt><trkpt lat="35.133600809212595" lon="136.62375827628975"><ele>44.66389856580645</ele><time>2021-11-21T02:56:57Z</time></trkpt><trkpt lat="35.133783270072826" lon="136.6237382659905"><ele>44.44759923219681</ele><time>2021-11-21T02:57:12Z</time></trkpt><trkpt lat="35.13398118465727" lon="136.62377519177147"><ele>50.26375708542764</ele><time>2021-11-21T02:59:20Z</time></trkpt><trkpt lat="35.13417326185947" lon="136.6237477447951"><ele>54.96943736355752</ele><time>2021-11-21T03:00:51Z</time></trkpt><trkpt lat="35.134338384988666" lon="136.6238387350791"><ele>56.67105980217457</ele><time>2021-11-21T03:01:11Z</time></trkpt><trkpt lat="35.13452238828576" lon="136.6238446941663"><ele>61.29452534671873</ele><time>2021-11-21T03:02:10Z</time></trkpt><trkpt lat="35.13469261360759" lon="136.62376217951393"><ele>67.78190291114151</ele><time>2021-11-21T03:02:25Z</time></trkpt><trkpt lat="35.13485960723099" lon="136.62365807610874"><ele>75.40608477499336</ele><time>2021-11-21T03:02:43Z</time></trkpt><trkpt lat="35.13500170286163" lon="136.62351473600145"><ele>76.54781915154308</ele><time>2021-11-21T03:03:11Z</time></trkpt><trkpt lat="35.13512507201497" lon="136.6233521922695"><ele>79.86623158492148</ele><time>2021-11-21T03:03:55Z</time></trkpt><trkpt lat="35.135216163267856" lon="136.62315359925464"><ele>81.81130974926054</ele><time>2021-11-21T03:04:14Z</time></trkpt><trkpt lat="35.13525700301169" lon="136.62288919667134"><ele>83.26134686730802</ele><time>2021-11-21T03:04:52Z</time></trkpt><trkpt lat="35.135438565975704" lon="136.62287148011114"><ele>86.97302062716335</ele><time>2021-11-21T03:04:57Z</time></trkpt><trkpt lat="35.135289383018396" lon="136.62299570237587"><ele>86.75763255544007</ele><time>2021-11-21T03:07:50Z</time></trkpt><trkpt lat="35.13527641409634" lon="136.62322330783707"><ele>79.61852740217</ele><time>2021-11-21T03:08:27Z</time></trkpt><trkpt lat="35.13519996347109" lon="136.62342599905418"><ele>76.5459899501875</ele><time>2021-11-21T03:08:48Z</time></trkpt><trkpt lat="35.13511904194141" lon="136.62362481313116"><ele>75.76456576120108</ele><time>2021-11-21T03:09:06Z</time></trkpt><trkpt lat="35.13494665611363" lon="136.62369644444277"><ele>73.96052085887641</ele><time>2021-11-21T03:09:31Z</time></trkpt><trkpt lat="35.13476237127379" lon="136.6237191929253"><ele>72.83710064087063</ele><time>2021-11-21T03:09:48Z</time></trkpt><trkpt lat="35.134581460793655" lon="136.6237494149294"><ele>68.60974120721221</ele><time>2021-11-21T03:10:06Z</time></trkpt><trkpt lat="35.13440809615564" lon="136.62383070705815"><ele>60.6946393083781</ele><time>2021-11-21T03:10:26Z</time></trkpt><trkpt lat="35.13427947245692" lon="136.62399510204517"><ele>53.64503439050168</ele><time>2021-11-21T03:11:32Z</time></trkpt><trkpt lat="35.13423837953407" lon="136.62405011719406"><ele>51.42779077962041</ele><time>2021-11-21T03:11:40Z</time></trkpt><trkpt lat="35.134172188301534" lon="136.6242552274968"><ele>44.13838456943631</ele><time>2021-11-21T03:12:06Z</time></trkpt><trkpt lat="35.13421751913077" lon="136.62447000080104"><ele>45.9171825228259</ele><time>2021-11-21T03:12:27Z</time></trkpt><trkpt lat="35.13431657090248" lon="136.62465437631394"><ele>49.04824471101165</ele><time>2021-11-21T03:12:57Z</time></trkpt><trkpt lat="35.134442460667636" lon="136.62481176713754"><ele>54.76961369626224</ele><time>2021-11-21T03:13:19Z</time></trkpt><trkpt lat="35.13453726829798" lon="136.62501188332192"><ele>58.59759416524321</ele><time>2021-11-21T03:13:40Z</time></trkpt><trkpt lat="35.134631138185924" lon="136.62520954448325"><ele>63.71010997518897</ele><time>2021-11-21T03:14:00Z</time></trkpt><trkpt lat="35.13473406929524" lon="136.62539749420714"><ele>63.853407287970185</ele><time>2021-11-21T03:14:17Z</time></trkpt><trkpt lat="35.13485558149227" lon="136.62556146303055"><ele>69.18842388130724</ele><time>2021-11-21T03:14:34Z</time></trkpt><trkpt lat="35.135001604055034" lon="136.62569619388776"><ele>74.05706783384085</ele><time>2021-11-21T03:15:01Z</time></trkpt><trkpt lat="35.13509705458434" lon="136.62590138781042"><ele>78.2417304739356</ele><time>2021-11-21T03:15:23Z</time></trkpt><trkpt lat="35.13519115781895" lon="136.62609933701648"><ele>77.22985456045717</ele><time>2021-11-21T03:15:49Z</time></trkpt><trkpt lat="35.13531363565104" lon="136.6262692467461"><ele>80.49992927536368</ele><time>2021-11-21T03:16:11Z</time></trkpt><trkpt lat="35.13543429639769" lon="136.6264429632766"><ele>83.51656650193036</ele><time>2021-11-21T03:16:30Z</time></trkpt><trkpt lat="35.13555176091775" lon="136.62662902757432"><ele>81.17563020531088</ele><time>2021-11-21T03:16:52Z</time></trkpt><trkpt lat="35.135717998453835" lon="136.6267421113215"><ele>84.70299486164004</ele><time>2021-11-21T03:17:10Z</time></trkpt><trkpt lat="35.135824456962396" lon="136.62693688178834"><ele>85.10127661284059</ele><time>2021-11-21T03:17:26Z</time></trkpt><trkpt lat="35.13582563714623" lon="136.627169095758"><ele>83.4912561159581</ele><time>2021-11-21T03:17:46Z</time></trkpt><trkpt lat="35.13577649941585" lon="136.62739682881295"><ele>80.9552617892623</ele><time>2021-11-21T03:18:11Z</time></trkpt><trkpt lat="35.135776546645175" lon="136.62761983970955"><ele>81.74641261901706</ele><time>2021-11-21T03:18:31Z</time></trkpt><trkpt lat="35.13580928029049" lon="136.62783936208962"><ele>83.31560154166073</ele><time>2021-11-21T03:18:47Z</time></trkpt><trkpt lat="35.13591586664138" lon="136.62801842360957"><ele>85.1432035882026</ele><time>2021-11-21T03:19:08Z</time></trkpt><trkpt lat="35.13604348066506" lon="136.62820778045696"><ele>86.11927423346788</ele><time>2021-11-21T03:19:33Z</time></trkpt><trkpt lat="35.13615242891112" lon="136.62838868389292"><ele>88.1843106020242</ele><time>2021-11-21T03:19:56Z</time></trkpt><trkpt lat="35.13626420709966" lon="136.6285769040575"><ele>89.39336666557938</ele><time>2021-11-21T03:20:13Z</time></trkpt><trkpt lat="35.13639097149352" lon="136.62874321013405"><ele>90.57152769900858</ele><time>2021-11-21T03:20:34Z</time></trkpt><trkpt lat="35.13656601205055" lon="136.62883220498026"><ele>93.71204146463424</ele><time>2021-11-21T03:20:52Z</time></trkpt><trkpt lat="35.13674312272216" lon="136.6289408862118"><ele>99.64502986893058</ele><time>2021-11-21T03:21:11Z</time></trkpt><trkpt lat="35.136873750034816" lon="136.62910028922488"><ele>100.90111348126084</ele><time>2021-11-21T03:21:30Z</time></trkpt><trkpt lat="35.13700672107182" lon="136.62926954456373"><ele>104.62965660728514</ele><time>2021-11-21T03:21:47Z</time></trkpt><trkpt lat="35.137159999333946" lon="136.62939839603447"><ele>104.24079421721399</ele><time>2021-11-21T03:22:06Z</time></trkpt><trkpt lat="35.137334742864894" lon="136.62933485296656"><ele>107.84418898355216</ele><time>2021-11-21T03:23:06Z</time></trkpt><trkpt lat="35.137413850811754" lon="136.62912786649895"><ele>115.08890235517174</ele><time>2021-11-21T03:23:33Z</time></trkpt><trkpt lat="35.13752519077434" lon="136.62895340166034"><ele>119.71344169229269</ele><time>2021-11-21T03:24:07Z</time></trkpt><trkpt lat="35.13761880218363" lon="136.6287657895544"><ele>127.15458866022527</ele><time>2021-11-21T03:24:39Z</time></trkpt><trkpt lat="35.13766829235948" lon="136.62855194835257"><ele>132.78225289657712</ele><time>2021-11-21T03:25:23Z</time></trkpt><trkpt lat="35.137740727050186" lon="136.62834222527152"><ele>136.3281973078847</ele><time>2021-11-21T03:27:03Z</time></trkpt><trkpt lat="35.137839860556745" lon="136.6281513219545"><ele>140.5745276948437</ele><time>2021-11-21T03:27:32Z</time></trkpt><trkpt lat="35.13795285240636" lon="136.62796537432212"><ele>146.38800117745996</ele><time>2021-11-21T03:28:04Z</time></trkpt><trkpt lat="35.13800752576645" lon="136.62775308855478"><ele>153.2828791756183</ele><time>2021-11-21T03:28:32Z</time></trkpt><trkpt lat="35.13806388875037" lon="136.62754365461078"><ele>160.1114466385916</ele><time>2021-11-21T03:29:10Z</time></trkpt><trkpt lat="35.13811593228473" lon="136.6274608206237"><ele>165.03551283851266</ele><time>2021-11-21T03:29:32Z</time></trkpt><trkpt lat="35.13826001593571" lon="136.62731571419562"><ele>172.12841623835266</ele><time>2021-11-21T03:30:08Z</time></trkpt><trkpt lat="35.13838957759692" lon="136.62715452211341"><ele>180.63095279037952</ele><time>2021-11-21T03:30:56Z</time></trkpt><trkpt lat="35.13853150772728" lon="136.62701771886816"><ele>188.3189487727359</ele><time>2021-11-21T03:31:36Z</time></trkpt><trkpt lat="35.138662927758894" lon="136.62686332510583"><ele>196.5139344772324</ele><time>2021-11-21T03:32:26Z</time></trkpt><trkpt lat="35.13880847088641" lon="136.62671838122176"><ele>201.73198224417865</ele><time>2021-11-21T03:33:23Z</time></trkpt><trkpt lat="35.13897439927653" lon="136.62661274780228"><ele>206.4500208394602</ele><time>2021-11-21T03:33:54Z</time></trkpt><trkpt lat="35.139114913576414" lon="136.6264703551508"><ele>214.42937654163688</ele><time>2021-11-21T03:34:39Z</time></trkpt><trkpt lat="35.13921973244278" lon="136.62628618444074"><ele>220.41476375237107</ele><time>2021-11-21T03:35:26Z</time></trkpt><trkpt lat="35.13928089748067" lon="136.6260764152423"><ele>228.84896470420063</ele><time>2021-11-21T03:36:05Z</time></trkpt><trkpt lat="35.139171998049264" lon="136.62601101224928"><ele>218.5599021911621</ele><time>2021-11-21T03:36:30Z</time></trkpt><trkpt lat="35.139271849276746" lon="136.62582403479124"><ele>236.68036204576492</ele><time>2021-11-21T03:37:19Z</time></trkpt><trkpt lat="35.13911505089209" lon="136.62569543574128"><ele>244.33962245471776</ele><time>2021-11-21T03:38:00Z</time></trkpt><trkpt lat="35.1390005791542" lon="136.6255197044351"><ele>253.41268615983427</ele><time>2021-11-21T03:38:47Z</time></trkpt><trkpt lat="35.13884001612023" lon="136.62541700326594"><ele>254.55894556455314</ele><time>2021-11-21T03:39:28Z</time></trkpt><trkpt lat="35.13880038162132" lon="136.62520157998745"><ele>258.04513665661216</ele><time>2021-11-21T03:48:40Z</time></trkpt><trkpt lat="35.138955349265395" lon="136.62508020558352"><ele>265.4172095628455</ele><time>2021-11-21T03:49:05Z</time></trkpt><trkpt lat="35.13897466689391" lon="136.6248550690918"><ele>270.3750841645524</ele><time>2021-11-21T03:50:08Z</time></trkpt><trkpt lat="35.13904959972812" lon="136.62464357497953"><ele>273.55984503030777</ele><time>2021-11-21T03:50:44Z</time></trkpt><trkpt lat="35.13923647086513" lon="136.62463009236467"><ele>277.9389479449019</ele><time>2021-11-21T03:51:19Z</time></trkpt><trkpt lat="35.13941561306329" lon="136.62468397561796"><ele>282.01194306928664</ele><time>2021-11-21T03:52:00Z</time></trkpt><trkpt lat="35.13959194032339" lon="136.6247432293742"><ele>286.57768000569195</ele><time>2021-11-21T03:52:36Z</time></trkpt><trkpt lat="35.13976584752715" lon="136.62483108661917"><ele>290.83257246762514</ele><time>2021-11-21T03:53:07Z</time></trkpt><trkpt lat="35.13993593801649" lon="136.62492101563538"><ele>297.7354814829305</ele><time>2021-11-21T03:53:57Z</time></trkpt><trkpt lat="35.14011728078884" lon="136.624880261923"><ele>304.3925080988556</ele><time>2021-11-21T03:54:56Z</time></trkpt><trkpt lat="35.14030064277919" lon="136.6248659607026"><ele>312.3316260110587</ele><time>2021-11-21T03:55:36Z</time></trkpt><trkpt lat="35.14047881634579" lon="136.6249242450937"><ele>319.4089993033558</ele><time>2021-11-21T03:56:16Z</time></trkpt><trkpt lat="35.140661000816145" lon="136.62493833874598"><ele>323.2961185146123</ele><time>2021-11-21T03:56:48Z</time></trkpt><trkpt lat="35.140821755343026" lon="136.62504869677917"><ele>326.3988303132355</ele><time>2021-11-21T04:00:21Z</time></trkpt><trkpt lat="35.14099196305603" lon="136.62513281438268"><ele>331.1826026327908</ele><time>2021-11-21T04:00:51Z</time></trkpt><trkpt lat="35.14117244822392" lon="136.62511498529338"><ele>338.0638164021075</ele><time>2021-11-21T04:01:38Z</time></trkpt><trkpt lat="35.14135623662369" lon="136.6251194555218"><ele>344.4192068967968</ele><time>2021-11-21T04:02:15Z</time></trkpt><trkpt lat="35.141530972832435" lon="136.62505622360266"><ele>348.3053873302415</ele><time>2021-11-21T04:02:42Z</time></trkpt><trkpt lat="35.141718966915775" lon="136.6250127614511"><ele>352.5322125433013</ele><time>2021-11-21T04:03:19Z</time></trkpt><trkpt lat="35.14189614658843" lon="136.62496300255893"><ele>353.99686619173735</ele><time>2021-11-21T04:03:46Z</time></trkpt><trkpt lat="35.14205906227964" lon="136.62484307800116"><ele>357.3126863203943</ele><time>2021-11-21T04:04:09Z</time></trkpt><trkpt lat="35.14221624945882" lon="136.62471951910675"><ele>366.39375159237534</ele><time>2021-11-21T04:04:46Z</time></trkpt><trkpt lat="35.14237603192479" lon="136.62460704340918"><ele>369.4635464148596</ele><time>2021-11-21T04:05:17Z</time></trkpt><trkpt lat="35.142525720930045" lon="136.62448456289678"><ele>374.2337937373668</ele><time>2021-11-21T04:05:56Z</time></trkpt><trkpt lat="35.14270789505478" lon="136.62445840679052"><ele>378.935607326217</ele><time>2021-11-21T04:06:20Z</time></trkpt><trkpt lat="35.142882137105524" lon="136.6244013494535"><ele>384.6317077437416</ele><time>2021-11-21T04:07:00Z</time></trkpt><trkpt lat="35.14303479870272" lon="136.62427880292054"><ele>389.31248294655234</ele><time>2021-11-21T04:07:47Z</time></trkpt><trkpt lat="35.14321662756265" lon="136.62425235553843"><ele>393.03246279712766</ele><time>2021-11-21T04:08:20Z</time></trkpt><trkpt lat="35.143399215463454" lon="136.62424541243826"><ele>395.97902468405664</ele><time>2021-11-21T04:08:47Z</time></trkpt><trkpt lat="35.14357051052804" lon="136.62414977100366"><ele>398.4495292529464</ele><time>2021-11-21T04:09:18Z</time></trkpt><trkpt lat="35.14366724591727" lon="136.6239631588522"><ele>401.4553927620873</ele><time>2021-11-21T04:09:45Z</time></trkpt><trkpt lat="35.14384767266697" lon="136.62400136698875"><ele>402.5077689504251</ele><time>2021-11-21T04:10:23Z</time></trkpt><trkpt lat="35.144021983626" lon="136.62408454257522"><ele>397.6107439985499</ele><time>2021-11-21T04:11:29Z</time></trkpt><trkpt lat="35.14421154859072" lon="136.62408916508147"><ele>390.8927634228021</ele><time>2021-11-21T04:12:41Z</time></trkpt><trkpt lat="35.14431274085331" lon="136.62416066996568"><ele>389.98131498135626</ele><time>2021-11-21T04:12:56Z</time></trkpt><trkpt lat="35.14431612106039" lon="136.6243882653359"><ele>392.6546221310273</ele><time>2021-11-21T04:17:25Z</time></trkpt><trkpt lat="35.144252186060214" lon="136.62459888817017"><ele>393.26739869453013</ele><time>2021-11-21T04:17:46Z</time></trkpt><trkpt lat="35.144196366526124" lon="136.62481130805938"><ele>393.4349247040227</ele><time>2021-11-21T04:18:11Z</time></trkpt><trkpt lat="35.144153095122114" lon="136.62503627632802"><ele>395.4852167023346</ele><time>2021-11-21T04:18:33Z</time></trkpt><trkpt lat="35.14406856164969" lon="136.62523464884356"><ele>396.33030904550105</ele><time>2021-11-21T04:18:55Z</time></trkpt><trkpt lat="35.143960889880425" lon="136.62541082840764"><ele>394.5550421681255</ele><time>2021-11-21T04:19:25Z</time></trkpt><trkpt lat="35.14378819721252" lon="136.6254782149604"><ele>391.83604203816503</ele><time>2021-11-21T04:19:42Z</time></trkpt><trkpt lat="35.14374000441775" lon="136.62569093785683"><ele>391.80264084786177</ele><time>2021-11-21T04:20:10Z</time></trkpt><trkpt lat="35.14391316462408" lon="136.62575736756503"><ele>394.17461006343365</ele><time>2021-11-21T04:21:27Z</time></trkpt><trkpt lat="35.144106089617786" lon="136.62582015692144"><ele>399.360776187852</ele><time>2021-11-21T04:21:57Z</time></trkpt><trkpt lat="35.14428085467547" lon="136.6258858810325"><ele>403.68423955421895</ele><time>2021-11-21T04:22:22Z</time></trkpt><trkpt lat="35.14443245889433" lon="136.62600838712126"><ele>403.78433915413916</ele><time>2021-11-21T04:23:10Z</time></trkpt><trkpt lat="35.14429729176047" lon="136.6258393140342"><ele>403.7408135868609</ele><time>2021-11-21T04:32:34Z</time></trkpt><trkpt lat="35.14411890031019" lon="136.6257857737702"><ele>400.2777619995177</ele><time>2021-11-21T04:32:42Z</time></trkpt><trkpt lat="35.143937163747644" lon="136.62570665391237"><ele>396.9001915343106</ele><time>2021-11-21T04:32:50Z</time></trkpt><trkpt lat="35.14256153107813" lon="136.6345872260575"><ele>126.43714258726686</ele><time>2021-11-21T05:42:49Z</time></trkpt><trkpt lat="35.14240931434567" lon="136.6347224842715"><ele>123.57574809715152</ele><time>2021-11-21T05:43:17Z</time></trkpt><trkpt lat="35.14227752583769" lon="136.63488020990786"><ele>121.3561431132257</ele><time>2021-11-21T05:43:40Z</time></trkpt><trkpt lat="35.14218761178765" lon="136.635075881415"><ele>116.5462381336838</ele><time>2021-11-21T05:44:01Z</time></trkpt><trkpt lat="35.14200508624133" lon="136.63505632615653"><ele>114.34660419635475</ele><time>2021-11-21T05:44:21Z</time></trkpt><trkpt lat="35.14182243474173" lon="136.63502019103885"><ele>111.75112254358828</ele><time>2021-11-21T05:44:42Z</time></trkpt><trkpt lat="35.141635722717005" lon="136.6349625794496"><ele>112.6437141187489</ele><time>2021-11-21T05:45:04Z</time></trkpt><trkpt lat="35.14149548078277" lon="136.63481871218553"><ele>107.99601882882416</ele><time>2021-11-21T05:45:25Z</time></trkpt><trkpt lat="35.14138393441479" lon="136.634633400527"><ele>107.47409871593118</ele><time>2021-11-21T05:46:06Z</time></trkpt><trkpt lat="35.141310624574615" lon="136.6344188934728"><ele>107.37747170310467</ele><time>2021-11-21T05:46:33Z</time></trkpt><trkpt lat="35.14123821072247" lon="136.6342177213351"><ele>105.14962517563254</ele><time>2021-11-21T05:46:51Z</time></trkpt><trkpt lat="35.1412235067359" lon="136.6339988961829"><ele>106.0059045990929</ele><time>2021-11-21T05:47:09Z</time></trkpt><trkpt lat="35.1412010558322" lon="136.63377275835012"><ele>107.54363058321178</ele><time>2021-11-21T05:47:28Z</time></trkpt><trkpt lat="35.14115445694477" lon="136.63353980841495"><ele>105.79636127129197</ele><time>2021-11-21T05:47:49Z</time></trkpt><trkpt lat="35.14109418745421" lon="136.63332561492214"><ele>107.02221985533834</ele><time>2021-11-21T05:48:08Z</time></trkpt><trkpt lat="35.141021403549075" lon="136.63311837336246"><ele>108.47768217511475</ele><time>2021-11-21T05:48:27Z</time></trkpt><trkpt lat="35.14091256412315" lon="136.6329411044077"><ele>103.75247522536665</ele><time>2021-11-21T05:48:45Z</time></trkpt><trkpt lat="35.14072182828971" lon="136.6329461619942"><ele>96.98543739039451</ele><time>2021-11-21T05:49:05Z</time></trkpt><trkpt lat="35.1405954283214" lon="136.63276839570491"><ele>96.21271498594433</ele><time>2021-11-21T05:49:43Z</time></trkpt><trkpt lat="35.14057412143224" lon="136.63254005399023"><ele>98.13739319425076</ele><time>2021-11-21T05:50:02Z</time></trkpt><trkpt lat="35.1404207692305" lon="136.63242079465368"><ele>96.28872549254447</ele><time>2021-11-21T05:50:22Z</time></trkpt><trkpt lat="35.14023759305922" lon="136.63246089301964"><ele>93.01933876983821</ele><time>2021-11-21T05:50:42Z</time></trkpt><trkpt lat="35.140055441853264" lon="136.6325340580167"><ele>89.6026550680399</ele><time>2021-11-21T05:51:01Z</time></trkpt><trkpt lat="35.139894538338886" lon="136.632646696041"><ele>86.15171423647553</ele><time>2021-11-21T05:51:21Z</time></trkpt><trkpt lat="35.139757926076676" lon="136.63279282834716"><ele>83.2168521117419</ele><time>2021-11-21T05:51:40Z</time></trkpt><trkpt lat="35.13958540035168" lon="136.63287334924834"><ele>79.31925467960536</ele><time>2021-11-21T05:52:00Z</time></trkpt><trkpt lat="35.13941706370742" lon="136.63276623071692"><ele>74.31412959937006</ele><time>2021-11-21T05:52:22Z</time></trkpt><trkpt lat="35.13931245634968" lon="136.6325818791766"><ele>73.96165339741856</ele><time>2021-11-21T05:52:41Z</time></trkpt><trkpt lat="35.139191568223886" lon="136.63241248060174"><ele>75.06206817459315</ele><time>2021-11-21T05:53:00Z</time></trkpt><trkpt lat="35.139046227436694" lon="136.63226345935416"><ele>79.21275027096272</ele><time>2021-11-21T05:53:20Z</time></trkpt><trkpt lat="35.13888542193492" lon="136.63216326063238"><ele>80.79203341715038</ele><time>2021-11-21T05:53:38Z</time></trkpt><trkpt lat="35.13875373443538" lon="136.6320006993279"><ele>83.11581342574209</ele><time>2021-11-21T05:54:06Z</time></trkpt><trkpt lat="35.138660565371204" lon="136.6318066510159"><ele>84.73542069643736</ele><time>2021-11-21T05:54:36Z</time></trkpt><trkpt lat="35.13858949778799" lon="136.6315970989208"><ele>85.82418271899223</ele><time>2021-11-21T05:55:09Z</time></trkpt><trkpt lat="35.138495013041364" lon="136.6314091088889"><ele>89.57356501743197</ele><time>2021-11-21T05:55:35Z</time></trkpt><trkpt lat="35.13837976176226" lon="136.63123906037882"><ele>93.34592509549111</ele><time>2021-11-21T05:56:10Z</time></trkpt><trkpt lat="35.138268618067436" lon="136.63106074233548"><ele>96.6657294454053</ele><time>2021-11-21T05:56:43Z</time></trkpt><trkpt lat="35.13814643410561" lon="136.63088900093908"><ele>99.81326749827713</ele><time>2021-11-21T05:57:14Z</time></trkpt><trkpt lat="35.13800133176918" lon="136.6307556461678"><ele>99.04995878692716</ele><time>2021-11-21T05:57:45Z</time></trkpt><trkpt lat="35.13787569239553" lon="136.63059589989487"><ele>97.71682401746511</ele><time>2021-11-21T05:58:17Z</time></trkpt><trkpt lat="35.13775822813826" lon="136.6304275318933"><ele>96.4941768059507</ele><time>2021-11-21T05:58:40Z</time></trkpt><trkpt lat="35.13761749727362" lon="136.63027766139086"><ele>95.61333931144327</ele><time>2021-11-21T05:59:08Z</time></trkpt><trkpt lat="35.1375124841075" lon="136.63008628768705"><ele>99.5010603517294</ele><time>2021-11-21T05:59:37Z</time></trkpt><trkpt lat="35.137379601953775" lon="136.62992752418864"><ele>100.10464794002473</ele><time>2021-11-21T06:00:03Z</time></trkpt><trkpt lat="35.13727557652896" lon="136.629741337134"><ele>102.43207283038646</ele><time>2021-11-21T06:00:28Z</time></trkpt><trkpt lat="35.1371749294773" lon="136.62955034306015"><ele>102.19787948019803</ele><time>2021-11-21T06:00:53Z</time></trkpt><trkpt lat="35.13713949799993" lon="136.62948374970668"><ele>102.00623099226505</ele><time>2021-11-21T06:01:01Z</time></trkpt><trkpt lat="35.13704018852725" lon="136.62929596855062"><ele>101.99200948700309</ele><time>2021-11-21T06:01:25Z</time></trkpt><trkpt lat="35.136879920338835" lon="136.62919276162248"><ele>101.19856110960245</ele><time>2021-11-21T06:01:44Z</time></trkpt><trkpt lat="35.13674824641129" lon="136.62904101832382"><ele>99.3354064123705</ele><time>2021-11-21T06:02:05Z</time></trkpt><trkpt lat="35.13661040611369" lon="136.62889320519815"><ele>97.3244663476944</ele><time>2021-11-21T06:02:25Z</time></trkpt><trkpt lat="35.136455471710946" lon="136.62876899295927"><ele>91.64948195312172</ele><time>2021-11-21T06:02:46Z</time></trkpt><trkpt lat="35.13629553050352" lon="136.62865818307472"><ele>89.44413172919303</ele><time>2021-11-21T06:03:08Z</time></trkpt><trkpt lat="35.13619207289664" lon="136.6284769809578"><ele>86.7793756686151</ele><time>2021-11-21T06:03:30Z</time></trkpt><trkpt lat="35.13607271901373" lon="136.62829145529068"><ele>86.92851802706718</ele><time>2021-11-21T06:03:53Z</time></trkpt><trkpt lat="35.13599995417274" lon="136.62807912720862"><ele>84.60617390368134</ele><time>2021-11-21T06:04:14Z</time></trkpt><trkpt lat="35.13587801125616" lon="136.62791438446402"><ele>82.85422572027892</ele><time>2021-11-21T06:04:32Z</time></trkpt><trkpt lat="35.13579912807742" lon="136.62769680379063"><ele>83.93276048265398</ele><time>2021-11-21T06:04:54Z</time></trkpt><trkpt lat="35.13584735188497" lon="136.62748271530853"><ele>82.25025891978294</ele><time>2021-11-21T06:05:15Z</time></trkpt><trkpt lat="35.135838096526115" lon="136.62725785096904"><ele>81.78127805236727</ele><time>2021-11-21T06:05:41Z</time></trkpt><trkpt lat="35.13587394670781" lon="136.627019244159"><ele>84.96121233515441</ele><time>2021-11-21T06:06:03Z</time></trkpt><trkpt lat="35.135766485317184" lon="136.62683701133778"><ele>86.00841128733009</ele><time>2021-11-21T06:06:28Z</time></trkpt><trkpt lat="35.135621709487204" lon="136.62666225578218"><ele>83.30054282955825</ele><time>2021-11-21T06:06:46Z</time></trkpt><trkpt lat="35.13549402678718" lon="136.6265030261367"><ele>82.6143878577277</ele><time>2021-11-21T06:07:06Z</time></trkpt><trkpt lat="35.13538599541589" lon="136.62632058387754"><ele>80.73668116796762</ele><time>2021-11-21T06:07:37Z</time></trkpt><trkpt lat="35.13525051203532" lon="136.62616679194866"><ele>80.17204145621508</ele><time>2021-11-21T06:07:58Z</time></trkpt><trkpt lat="35.135150946042515" lon="136.62598310936883"><ele>78.03812465816736</ele><time>2021-11-21T06:08:19Z</time></trkpt><trkpt lat="35.135074748604296" lon="136.6257798504665"><ele>77.56169738899916</ele><time>2021-11-21T06:08:38Z</time></trkpt><trkpt lat="35.13493255064783" lon="136.6256414575073"><ele>74.34916200861335</ele><time>2021-11-21T06:09:00Z</time></trkpt><trkpt lat="35.134796474178565" lon="136.62546549170796"><ele>68.86883992236108</ele><time>2021-11-21T06:09:24Z</time></trkpt><trkpt lat="35.134696069722956" lon="136.62527417780777"><ele>64.40363102965057</ele><time>2021-11-21T06:09:42Z</time></trkpt><trkpt lat="35.13455579402732" lon="136.62513156800065"><ele>60.22855344507843</ele><time>2021-11-21T06:10:00Z</time></trkpt><trkpt lat="35.134488664112084" lon="136.62491998333059"><ele>57.97745237965137</ele><time>2021-11-21T06:10:21Z</time></trkpt><trkpt lat="35.134397177941615" lon="136.62470763046926"><ele>52.609701657667756</ele><time>2021-11-21T06:10:42Z</time></trkpt><trkpt lat="35.13421356757357" lon="136.62464923522757"><ele>46.60136396344751</ele><time>2021-11-21T06:11:09Z</time></trkpt><trkpt lat="35.13402734263162" lon="136.62468552301627"><ele>44.16961260326207</ele><time>2021-11-21T06:11:52Z</time></trkpt><trkpt lat="35.13385002971854" lon="136.62475025169252"><ele>42.602004593238235</ele><time>2021-11-21T06:12:14Z</time></trkpt><trkpt lat="35.13370530590394" lon="136.6246120691356"><ele>42.2306443490088</ele><time>2021-11-21T06:12:42Z</time></trkpt><trkpt lat="35.13364181049051" lon="136.62439287910814"><ele>42.06062003877014</ele><time>2021-11-21T06:13:03Z</time></trkpt><trkpt lat="35.13363553103681" lon="136.62416363574764"><ele>41.721296780742705</ele><time>2021-11-21T06:13:28Z</time></trkpt><trkpt lat="35.13355794588631" lon="136.62395040702597"><ele>41.0106577957049</ele><time>2021-11-21T06:13:46Z</time></trkpt><trkpt lat="35.13340272165321" lon="136.62383323222312"><ele>38.90559108555317</ele><time>2021-11-21T06:13:57Z</time></trkpt><trkpt lat="35.13322019239693" lon="136.62379168363475"><ele>39.387803743593395</ele><time>2021-11-21T06:14:09Z</time></trkpt><trkpt lat="35.13300847594877" lon="136.62379344539957"><ele>40.94919296819717</ele><time>2021-11-21T06:14:22Z</time></trkpt><trkpt lat="35.13282811479671" lon="136.62380072611126"><ele>39.64590319711715</ele><time>2021-11-21T06:14:28Z</time></trkpt><trkpt lat="35.13275389783998" lon="136.6240044381411"><ele>42.6042450433597</ele><time>2021-11-21T06:18:34Z</time></trkpt><trkpt lat="35.13282688110224" lon="136.62394837448122"><ele>43.607212357223034</ele><time>2021-11-21T06:25:00Z</time></trkpt><trkpt lat="35.132922402221496" lon="136.62375945599345"><ele>41.57338326983154</ele><time>2021-11-21T06:30:53Z</time></trkpt><trkpt lat="35.13309634109814" lon="136.62366291004483"><ele>41.265089724212885</ele><time>2021-11-21T06:31:13Z</time></trkpt><trkpt lat="35.1331075694732" lon="136.6234414598201"><ele>40.534818324260414</ele><time>2021-11-21T06:31:32Z</time></trkpt><trkpt lat="35.133121347447066" lon="136.62321428115365"><ele>41.151894852519035</ele><time>2021-11-21T06:31:49Z</time></trkpt><trkpt lat="35.133226245301024" lon="136.62300946875092"><ele>43.38101503625512</ele><time>2021-11-21T06:32:32Z</time></trkpt><trkpt lat="35.13307669642405" lon="136.62336392503096"><ele>42.91975871659815</ele><time>2021-11-21T06:32:34Z</time></trkpt><trkpt lat="35.13323570535214" lon="136.6234718430753"><ele>40.976194561459124</ele><time>2021-11-21T06:32:59Z</time></trkpt><trkpt lat="35.1332279029233" lon="136.62323861971873"><ele>41.59296718612313</ele><time>2021-11-21T06:35:44Z</time></trkpt><trkpt lat="35.133350704416834" lon="136.6234105928983"><ele>42.24302786681801</ele><time>2021-11-21T06:35:57Z</time></trkpt><trkpt lat="35.13337285613686" lon="136.6236468211217"><ele>41.90336060523987</ele><time>2021-11-21T06:36:08Z</time></trkpt><trkpt lat="35.13321908194725" lon="136.62381384755503"><ele>41.541338849812746</ele><time>2021-11-21T06:36:25Z</time></trkpt><trkpt lat="35.13299562184375" lon="136.6238104875387"><ele>41.29686725046486</ele><time>2021-11-21T06:36:29Z</time></trkpt><trkpt lat="35.132769547786744" lon="136.62379144656165"><ele>41.40488115698099</ele><time>2021-11-21T06:36:33Z</time></trkpt><trkpt lat="35.13256641816439" lon="136.6237995108563"><ele>41.4623704161495</ele><time>2021-11-21T06:36:36Z</time></trkpt><trkpt lat="35.13232247021855" lon="136.62380023532018"><ele>41.807501706294715</ele><time>2021-11-21T06:36:39Z</time></trkpt><trkpt lat="35.13208192178813" lon="136.6238056043846"><ele>41.50527628324926</ele><time>2021-11-21T06:36:42Z</time></trkpt><trkpt lat="35.131849276264475" lon="136.62382464951435"><ele>40.95617930404842</ele><time>2021-11-21T06:36:45Z</time></trkpt><trkpt lat="35.13159231353528" lon="136.62384964773554"><ele>41.152127442881465</ele><time>2021-11-21T06:36:48Z</time></trkpt><trkpt lat="35.13133566027346" lon="136.62387532252643"><ele>41.433434673585</ele><time>2021-11-21T06:36:51Z</time></trkpt><trkpt lat="35.1311564521523" lon="136.62395741362556"><ele>41.143609661608934</ele><time>2021-11-21T06:36:53Z</time></trkpt><trkpt lat="35.13090471435506" lon="136.6240460951906"><ele>40.11841208767146</ele><time>2021-11-21T06:36:56Z</time></trkpt><trkpt lat="35.13071169454181" lon="136.62410715311805"><ele>40.94023418519646</ele><time>2021-11-21T06:36:59Z</time></trkpt><trkpt lat="35.13051683610809" lon="136.6241616878164"><ele>41.62678845785558</ele><time>2021-11-21T06:37:02Z</time></trkpt><trkpt lat="35.13032037287828" lon="136.62421388405582"><ele>41.829352021217346</ele><time>2021-11-21T06:37:05Z</time></trkpt><trkpt lat="35.13020601424886" lon="136.62439450500855"><ele>41.975527052767575</ele><time>2021-11-21T06:37:11Z</time></trkpt><trkpt lat="35.13034853613756" lon="136.62460176544596"><ele>42.66026216279715</ele><time>2021-11-21T06:37:14Z</time></trkpt><trkpt lat="35.13044818948863" lon="136.62478738577926"><ele>43.40070712193847</ele><time>2021-11-21T06:37:16Z</time></trkpt><trkpt lat="35.13057147134601" lon="136.62500366392962"><ele>44.97758288215846</ele><time>2021-11-21T06:37:18Z</time></trkpt><trkpt lat="35.13070004695798" lon="136.62520886946393"><ele>46.65018859319389</ele><time>2021-11-21T06:37:20Z</time></trkpt><trkpt lat="35.13081298361755" lon="136.62541986713214"><ele>48.214860739186406</ele><time>2021-11-21T06:37:22Z</time></trkpt><trkpt lat="35.130885231429765" lon="136.62568143706477"><ele>49.04054724145681</ele><time>2021-11-21T06:37:24Z</time></trkpt><trkpt lat="35.13093182934268" lon="136.62591554529465"><ele>51.521628841757774</ele><time>2021-11-21T06:37:26Z</time></trkpt><trkpt lat="35.13096436750721" lon="136.6261728166268"><ele>53.60540131945163</ele><time>2021-11-21T06:37:28Z</time></trkpt><trkpt lat="35.13100582533942" lon="136.62647203495106"><ele>55.18759902380407</ele><time>2021-11-21T06:37:30Z</time></trkpt><trkpt lat="35.13104214257399" lon="136.62673369592332"><ele>56.26366111822426</ele><time>2021-11-21T06:37:32Z</time></trkpt><trkpt lat="35.13107775468904" lon="136.62699027640076"><ele>56.872103561647236</ele><time>2021-11-21T06:37:34Z</time></trkpt><trkpt lat="35.13111263708464" lon="136.6272358037021"><ele>57.48138689994812</ele><time>2021-11-21T06:37:36Z</time></trkpt><trkpt lat="35.13114531330874" lon="136.62748476663867"><ele>58.207343148998916</ele><time>2021-11-21T06:37:38Z</time></trkpt><trkpt lat="35.13117674431569" lon="136.62774337699028"><ele>58.312529566697776</ele><time>2021-11-21T06:37:40Z</time></trkpt><trkpt lat="35.13120027611854" lon="136.62799892730806"><ele>58.409471369348466</ele><time>2021-11-21T06:37:42Z</time></trkpt><trkpt lat="35.13122731373836" lon="136.6282828258461"><ele>58.47703463677317</ele><time>2021-11-21T06:37:44Z</time></trkpt><trkpt lat="35.13124588588531" lon="136.6285092840645"><ele>58.32450555451214</ele><time>2021-11-21T06:37:46Z</time></trkpt><trkpt lat="35.131271898507066" lon="136.62876800973208"><ele>58.01463712006807</ele><time>2021-11-21T06:37:48Z</time></trkpt><trkpt lat="35.131308584848256" lon="136.62900057874415"><ele>57.73552227579057</ele><time>2021-11-21T06:37:50Z</time></trkpt><trkpt lat="35.131356747099424" lon="136.62929259826922"><ele>57.402411988936365</ele><time>2021-11-21T06:37:52Z</time></trkpt><trkpt lat="35.131398805647294" lon="136.62959160472377"><ele>57.61784676741809</ele><time>2021-11-21T06:37:55Z</time></trkpt><trkpt lat="35.131439006545754" lon="136.62986636028862"><ele>59.34249975346029</ele><time>2021-11-21T06:37:58Z</time></trkpt><trkpt lat="35.13147770125617" lon="136.63012629101576"><ele>61.58763621468097</ele><time>2021-11-21T06:38:01Z</time></trkpt><trkpt lat="35.1315185052385" lon="136.63041724611992"><ele>62.99424254242331</ele><time>2021-11-21T06:38:04Z</time></trkpt><trkpt lat="35.131559682694586" lon="136.6307027014877"><ele>64.34891661908478</ele><time>2021-11-21T06:38:07Z</time></trkpt><trkpt lat="35.13158575957279" lon="136.6309210178855"><ele>65.17291131708771</ele><time>2021-11-21T06:38:09Z</time></trkpt><trkpt lat="35.13161896301852" lon="136.63115866124582"><ele>65.8197228051722</ele><time>2021-11-21T06:38:11Z</time></trkpt><trkpt lat="35.13165034730796" lon="136.63138205319348"><ele>65.91075637470931</ele><time>2021-11-21T06:38:13Z</time></trkpt><trkpt lat="35.13169834924135" lon="136.6316953709597"><ele>66.25194463320076</ele><time>2021-11-21T06:38:16Z</time></trkpt><trkpt lat="35.13173019830902" lon="136.63193445656694"><ele>66.29248141590506</ele><time>2021-11-21T06:38:18Z</time></trkpt><trkpt lat="35.13175857049358" lon="136.63219976060822"><ele>66.55449924897403</ele><time>2021-11-21T06:38:20Z</time></trkpt><trkpt lat="35.13178843642414" lon="136.63246701918385"><ele>66.89809057116508</ele><time>2021-11-21T06:38:22Z</time></trkpt><trkpt lat="35.13182433244711" lon="136.63274923206905"><ele>67.40569562744349</ele><time>2021-11-21T06:38:24Z</time></trkpt><trkpt lat="35.1318644236081" lon="136.63300274836553"><ele>67.87819270510226</ele><time>2021-11-21T06:38:26Z</time></trkpt><trkpt lat="35.131902980283904" lon="136.63326673718805"><ele>68.30277710221708</ele><time>2021-11-21T06:38:28Z</time></trkpt><trkpt lat="35.13196058417616" lon="136.63350465821165"><ele>68.7590400017798</ele><time>2021-11-21T06:38:30Z</time></trkpt><trkpt lat="35.131995758013076" lon="136.6337629113063"><ele>69.02794894669205</ele><time>2021-11-21T06:38:32Z</time></trkpt><trkpt lat="35.13201154770385" lon="136.6340131507979"><ele>68.39825735613704</ele><time>2021-11-21T06:38:34Z</time></trkpt><trkpt lat="35.13199468267485" lon="136.63427871969859"><ele>67.17831654753536</ele><time>2021-11-21T06:38:36Z</time></trkpt><trkpt lat="35.131964346232785" lon="136.63455191738575"><ele>65.66612188890576</ele><time>2021-11-21T06:38:38Z</time></trkpt><trkpt lat="35.131919621763075" lon="136.63482849637393"><ele>64.26453962549567</ele><time>2021-11-21T06:38:40Z</time></trkpt><trkpt lat="35.131855080458344" lon="136.63511437125604"><ele>63.321734922006726</ele><time>2021-11-21T06:38:42Z</time></trkpt><trkpt lat="35.131794681477224" lon="136.6354005231476"><ele>62.16403395496309</ele><time>2021-11-21T06:38:44Z</time></trkpt><trkpt lat="35.13173315605162" lon="136.63572104878344"><ele>60.68569432478398</ele><time>2021-11-21T06:38:46Z</time></trkpt><trkpt lat="35.13166527056757" lon="136.63602648932826"><ele>59.03914413135499</ele><time>2021-11-21T06:38:48Z</time></trkpt><trkpt lat="35.13159336641769" lon="136.6363384317652"><ele>57.32222854811698</ele><time>2021-11-21T06:38:50Z</time></trkpt><trkpt lat="35.131533564721494" lon="136.63669485721434"><ele>53.62819806393236</ele><time>2021-11-21T06:38:52Z</time></trkpt><trkpt lat="35.13151163692072" lon="136.6370114285979"><ele>50.35711214225739</ele><time>2021-11-21T06:38:54Z</time></trkpt><trkpt lat="35.131514384338004" lon="136.63729898683533"><ele>47.066608247347176</ele><time>2021-11-21T06:38:56Z</time></trkpt><trkpt lat="35.1315250806521" lon="136.63759570563363"><ele>43.632771651260555</ele><time>2021-11-21T06:38:58Z</time></trkpt><trkpt lat="35.13153949476743" lon="136.63789232549996"><ele>41.101116300560534</ele><time>2021-11-21T06:39:00Z</time></trkpt><trkpt lat="35.131546536664835" lon="136.6382175450723"><ele>37.55786904133856</ele><time>2021-11-21T06:39:02Z</time></trkpt><trkpt lat="35.13155507474733" lon="136.63851166816949"><ele>34.09076581336558</ele><time>2021-11-21T06:39:04Z</time></trkpt><trkpt lat="35.13156521569934" lon="136.63879504546108"><ele>31.894898442551494</ele><time>2021-11-21T06:39:06Z</time></trkpt><trkpt lat="35.131577624043615" lon="136.63909548867525"><ele>30.32638287357986</ele><time>2021-11-21T06:39:08Z</time></trkpt><trkpt lat="35.131597088162025" lon="136.63940173887823"><ele>28.488924159668386</ele><time>2021-11-21T06:39:10Z</time></trkpt><trkpt lat="35.131609281543696" lon="136.63971223069137"><ele>26.796775553375483</ele><time>2021-11-21T06:39:12Z</time></trkpt><trkpt lat="35.13162396293995" lon="136.64003063387858"><ele>25.869956996291876</ele><time>2021-11-21T06:39:14Z</time></trkpt><trkpt lat="35.13162991829081" lon="136.64029766810964"><ele>24.959503825753927</ele><time>2021-11-21T06:39:17Z</time></trkpt><trkpt lat="35.13162044267987" lon="136.64055363527874"><ele>24.098612705245614</ele><time>2021-11-21T06:39:19Z</time></trkpt><trkpt lat="35.13161849820821" lon="136.64081797765306"><ele>22.978216839954257</ele><time>2021-11-21T06:39:21Z</time></trkpt><trkpt lat="35.13163407858338" lon="136.6410830860088"><ele>21.258288911543787</ele><time>2021-11-21T06:39:23Z</time></trkpt><trkpt lat="35.13164838876289" lon="136.64136347467266"><ele>19.308734068647027</ele><time>2021-11-21T06:39:25Z</time></trkpt><trkpt lat="35.13165313325867" lon="136.6416604491617"><ele>17.162807939574122</ele><time>2021-11-21T06:39:27Z</time></trkpt><trkpt lat="35.1316615944613" lon="136.64196547078544"><ele>15.302658087573946</ele><time>2021-11-21T06:39:29Z</time></trkpt><trkpt lat="35.13167203381671" lon="136.6422767574666"><ele>13.177076294086874</ele><time>2021-11-21T06:39:31Z</time></trkpt><trkpt lat="35.13168302416088" lon="136.64259828200844"><ele>10.930077964439988</ele><time>2021-11-21T06:39:33Z</time></trkpt><trkpt lat="35.13169540130973" lon="136.64293449430457"><ele>8.8989974912256</ele><time>2021-11-21T06:39:35Z</time></trkpt><trkpt lat="35.13170607258469" lon="136.64325425372624"><ele>6.65805989690125</ele><time>2021-11-21T06:39:37Z</time></trkpt><trkpt lat="35.13171296158358" lon="136.6435196198215"><ele>4.511601645499468</ele><time>2021-11-21T06:39:39Z</time></trkpt><trkpt lat="35.13171895904017" lon="136.64378453728878"><ele>2.982543590478599</ele><time>2021-11-21T06:39:41Z</time></trkpt><trkpt lat="35.13172545527016" lon="136.64406496750698"><ele>1.3060000846162438</ele><time>2021-11-21T06:39:43Z</time></trkpt><trkpt lat="35.13174009233974" lon="136.64434470262267"><ele>0.12936640065163374</ele><time>2021-11-21T06:39:45Z</time></trkpt><trkpt lat="35.131744411950805" lon="136.64464087028477"><ele>-0.32364354096353054</ele><time>2021-11-21T06:39:47Z</time></trkpt><trkpt lat="35.13175415781087" lon="136.64490507213196"><ele>-0.6830976735800505</ele><time>2021-11-21T06:39:49Z</time></trkpt><trkpt lat="35.13176647958008" lon="136.64513033410148"><ele>-1.2378995772451162</ele><time>2021-11-21T06:39:51Z</time></trkpt><trkpt lat="35.13177973030595" lon="136.6454465932793"><ele>-1.4733436424285173</ele><time>2021-11-21T06:39:53Z</time></trkpt><trkpt lat="35.131790376796246" lon="136.64570027693497"><ele>-2.0869022719562054</ele><time>2021-11-21T06:39:56Z</time></trkpt><trkpt lat="35.13179191795389" lon="136.64592861417285"><ele>0.45038414373993874</ele><time>2021-11-21T06:40:02Z</time></trkpt><trkpt lat="35.13180881616071" lon="136.64615084984968"><ele>0.6596928359940648</ele><time>2021-11-21T06:41:06Z</time></trkpt><trkpt lat="35.13181783763131" lon="136.64639648164027"><ele>1.1874744966626167</ele><time>2021-11-21T06:41:11Z</time></trkpt><trkpt lat="35.13181249695417" lon="136.6466501894815"><ele>2.2627898110076785</ele><time>2021-11-21T06:41:15Z</time></trkpt><trkpt lat="35.131821747857856" lon="136.6469301960889"><ele>1.9599925503134727</ele><time>2021-11-21T06:41:18Z</time></trkpt><trkpt lat="35.13182828240841" lon="136.64715270348833"><ele>1.2581034395843744</ele><time>2021-11-21T06:41:21Z</time></trkpt><trkpt lat="35.131844419481425" lon="136.64742286847613"><ele>0.8471369445323944</ele><time>2021-11-21T06:43:20Z</time></trkpt><trkpt lat="35.131848375211966" lon="136.64770769746985"><ele>1.6725144386291504</ele><time>2021-11-21T06:43:24Z</time></trkpt><trkpt lat="35.131881177674906" lon="136.64795913664065"><ele>1.2052374426275492</ele><time>2021-11-21T06:43:29Z</time></trkpt><trkpt lat="35.13209075923754" lon="136.64800171689512"><ele>2.411440094932914</ele><time>2021-11-21T06:43:34Z</time></trkpt><trkpt lat="35.13227748750046" lon="136.64795814323168"><ele>1.724521640688181</ele><time>2021-11-21T06:43:36Z</time></trkpt><trkpt lat="35.13246986859972" lon="136.6479374811247"><ele>1.4719155756756663</ele><time>2021-11-21T06:43:38Z</time></trkpt><trkpt lat="35.132715984780916" lon="136.64792718895197"><ele>1.1423474503681064</ele><time>2021-11-21T06:43:41Z</time></trkpt><trkpt lat="35.13293216224249" lon="136.64791644975358"><ele>1.1909120073541999</ele><time>2021-11-21T06:43:44Z</time></trkpt><trkpt lat="35.133155837416155" lon="136.64790627027563"><ele>1.5801263907924294</ele><time>2021-11-21T06:43:47Z</time></trkpt><trkpt lat="35.13334134193199" lon="136.64790676273498"><ele>2.2156237568706274</ele><time>2021-11-21T06:43:50Z</time></trkpt><trkpt lat="35.13353798840194" lon="136.6478890675758"><ele>2.671666592359543</ele><time>2021-11-21T06:43:53Z</time></trkpt><trkpt lat="35.133744995799255" lon="136.6478797015278"><ele>3.500404288060963</ele><time>2021-11-21T06:44:11Z</time></trkpt><trkpt lat="35.133939634139956" lon="136.6478698066813"><ele>3.7203475488349795</ele><time>2021-11-21T06:44:14Z</time></trkpt><trkpt lat="35.134180654888624" lon="136.64786256423568"><ele>3.449382462538779</ele><time>2021-11-21T06:44:17Z</time></trkpt><trkpt lat="35.13437100378857" lon="136.64784993187166"><ele>4.52844662964344</ele><time>2021-11-21T06:44:19Z</time></trkpt><trkpt lat="35.1345652347365" lon="136.64783926649625"><ele>4.093304042704403</ele><time>2021-11-21T06:44:21Z</time></trkpt><trkpt lat="35.134756691997545" lon="136.64782833025953"><ele>4.8523177690804005</ele><time>2021-11-21T06:44:23Z</time></trkpt><trkpt lat="35.13494644266257" lon="136.64781671383167"><ele>2.8945864010602236</ele><time>2021-11-21T06:44:25Z</time></trkpt><trkpt lat="35.135143647556646" lon="136.64781111947116"><ele>3.98153527174145</ele><time>2021-11-21T06:44:27Z</time></trkpt><trkpt lat="35.13535122763654" lon="136.64779881569876"><ele>4.143890202045441</ele><time>2021-11-21T06:44:29Z</time></trkpt><trkpt lat="35.1355612362324" lon="136.6477873614961"><ele>4.708864881657064</ele><time>2021-11-21T06:44:31Z</time></trkpt><trkpt lat="35.1357897090367" lon="136.64777917548818"><ele>4.811269058845937</ele><time>2021-11-21T06:44:33Z</time></trkpt><trkpt lat="35.13603206527109" lon="136.64776567453413"><ele>5.1331858625635505</ele><time>2021-11-21T06:44:35Z</time></trkpt><trkpt lat="35.136269201681536" lon="136.6477539987837"><ele>5.538674358278513</ele><time>2021-11-21T06:44:37Z</time></trkpt><trkpt lat="35.13650860444491" lon="136.64774222078594"><ele>5.749827680177987</ele><time>2021-11-21T06:44:39Z</time></trkpt><trkpt lat="35.13674731742959" lon="136.64772808764096"><ele>5.873472252860665</ele><time>2021-11-21T06:44:41Z</time></trkpt><trkpt lat="35.13696321619731" lon="136.6477204998006"><ele>7.804054305888712</ele><time>2021-11-21T06:44:43Z</time></trkpt><trkpt lat="35.137195764426714" lon="136.6477172288901"><ele>7.869145375676453</ele><time>2021-11-21T06:44:45Z</time></trkpt><trkpt lat="35.137451483084746" lon="136.64771112112362"><ele>8.654514617286623</ele><time>2021-11-21T06:44:47Z</time></trkpt><trkpt lat="35.137722575153646" lon="136.6476848130622"><ele>7.746518391184509</ele><time>2021-11-21T06:44:49Z</time></trkpt><trkpt lat="35.13795775955052" lon="136.64767470023344"><ele>7.480191618204117</ele><time>2021-11-21T06:44:51Z</time></trkpt><trkpt lat="35.138193783629596" lon="136.64765871621788"><ele>6.8521377090364695</ele><time>2021-11-21T06:44:53Z</time></trkpt><trkpt lat="35.138413933428694" lon="136.64764420057216"><ele>5.336932320147753</ele><time>2021-11-21T06:44:55Z</time></trkpt><trkpt lat="35.13862229901071" lon="136.64763290846543"><ele>4.537621843628585</ele><time>2021-11-21T06:44:57Z</time></trkpt><trkpt lat="35.138825588760696" lon="136.6476214917166"><ele>3.5537393763661385</ele><time>2021-11-21T06:44:59Z</time></trkpt><trkpt lat="35.13902134311971" lon="136.64760183904352"><ele>2.824556059204042</ele><time>2021-11-21T06:45:01Z</time></trkpt><trkpt lat="35.13922081071883" lon="136.64758702550031"><ele>1.650282864458859</ele><time>2021-11-21T06:45:04Z</time></trkpt><trkpt lat="35.139410004057545" lon="136.64756597798618"><ele>4.417176365852356</ele><time>2021-11-21T06:45:25Z</time></trkpt><trkpt lat="35.13958795609986" lon="136.64752109294557"><ele>3.5659468322992325</ele><time>2021-11-21T06:45:40Z</time></trkpt><trkpt lat="35.13976565337763" lon="136.64744680675489"><ele>3.196120262145996</ele><time>2021-11-21T06:45:49Z</time></trkpt><trkpt lat="35.1399661625225" lon="136.6473679176425"><ele>3.247696557082236</ele><time>2021-11-21T06:45:54Z</time></trkpt><trkpt lat="35.14015702417996" lon="136.64728510978102"><ele>3.0870963903144</ele><time>2021-11-21T06:45:58Z</time></trkpt><trkpt lat="35.14035425311625" lon="136.64718716522006"><ele>3.0116080241277814</ele><time>2021-11-21T06:46:01Z</time></trkpt><trkpt lat="35.14059295541444" lon="136.6470560882508"><ele>2.6549607180058956</ele><time>2021-11-21T06:46:04Z</time></trkpt><trkpt lat="35.14080965354628" lon="136.6469060228594"><ele>2.1934288581833243</ele><time>2021-11-21T06:46:07Z</time></trkpt><trkpt lat="35.140997149828614" lon="136.64683335468575"><ele>2.1101300744339824</ele><time>2021-11-21T06:46:11Z</time></trkpt><trkpt lat="35.141130850118714" lon="136.64702657386138"><ele>1.8921751081943512</ele><time>2021-11-21T06:46:16Z</time></trkpt><trkpt lat="35.14118590205305" lon="136.64726764007992"><ele>1.8474326971918344</ele><time>2021-11-21T06:46:29Z</time></trkpt><trkpt lat="35.14125407561945" lon="136.6475036740968"><ele>2.0930709671229124</ele><time>2021-11-21T06:46:42Z</time></trkpt><trkpt lat="35.14135652840103" lon="136.64772113435157"><ele>1.616611766628921</ele><time>2021-11-21T06:46:55Z</time></trkpt><trkpt lat="35.14141479061156" lon="136.6479394135959"><ele>1.9968270733952522</ele><time>2021-11-21T06:47:30Z</time></trkpt><trkpt lat="35.14149231499047" lon="136.64815129065036"><ele>2.452703472226858</ele><time>2021-11-21T06:47:33Z</time></trkpt><trkpt lat="35.1415755574662" lon="136.64836848477324"><ele>2.5160548891872168</ele><time>2021-11-21T06:47:36Z</time></trkpt><trkpt lat="35.14165335850174" lon="136.6485827019066"><ele>1.9911495922133327</ele><time>2021-11-21T06:47:42Z</time></trkpt><trkpt lat="35.14173597180374" lon="136.6488049330823"><ele>1.9204038344323635</ele><time>2021-11-21T06:47:50Z</time></trkpt><trkpt lat="35.14184029879648" lon="136.64908425825942"><ele>1.4815150238573551</ele><time>2021-11-21T06:47:59Z</time></trkpt><trkpt lat="35.141916840028294" lon="136.6492846565135"><ele>1.136715074069798</ele><time>2021-11-21T06:48:06Z</time></trkpt><trkpt lat="35.14201409199576" lon="136.6495744230167"><ele>1.110434022732079</ele><time>2021-11-21T06:48:15Z</time></trkpt><trkpt lat="35.142079281252315" lon="136.649820140551"><ele>0.558159414678812</ele><time>2021-11-21T06:48:20Z</time></trkpt><trkpt lat="35.14212527554394" lon="136.65003682119172"><ele>0.4807213433086872</ele><time>2021-11-21T06:48:25Z</time></trkpt><trkpt lat="35.1421739869326" lon="136.6502751312282"><ele>0.3674266431480646</ele><time>2021-11-21T06:48:30Z</time></trkpt><trkpt lat="35.14221840697597" lon="136.65049195708843"><ele>0.41410162672400475</ele><time>2021-11-21T06:48:38Z</time></trkpt><trkpt lat="35.14227434806305" lon="136.65074303620182"><ele>0.8429304510354996</ele><time>2021-11-21T06:49:03Z</time></trkpt><trkpt lat="35.14232465222742" lon="136.65098396400788"><ele>0.8070255732163787</ele><time>2021-11-21T06:49:07Z</time></trkpt><trkpt lat="35.142379321912436" lon="136.65123936792463"><ele>0.6151170711964369</ele><time>2021-11-21T06:49:11Z</time></trkpt><trkpt lat="35.14244170312024" lon="136.65146870695912"><ele>-0.025163942947983742</ele><time>2021-11-21T06:49:15Z</time></trkpt><trkpt lat="35.142498581832086" lon="136.65170500658917"><ele>-0.3254915699362755</ele><time>2021-11-21T06:49:19Z</time></trkpt><trkpt lat="35.142554547575955" lon="136.65196401030252"><ele>-0.5981156434863806</ele><time>2021-11-21T06:49:24Z</time></trkpt><trkpt lat="35.14258644185679" lon="136.65218558676494"><ele>-0.19828733708709478</ele><time>2021-11-21T06:49:45Z</time></trkpt><trkpt lat="35.14263486658167" lon="136.65243354851046"><ele>-0.05594771821051836</ele><time>2021-11-21T06:49:50Z</time></trkpt><trkpt lat="35.142686765629286" lon="136.65267801336933"><ele>0.10645496286451817</ele><time>2021-11-21T06:49:54Z</time></trkpt><trkpt lat="35.142740107109496" lon="136.65294557852178"><ele>0.03981856536120176</ele><time>2021-11-21T06:49:58Z</time></trkpt><trkpt lat="35.14279391276488" lon="136.65316052745519"><ele>-0.4734670910984278</ele><time>2021-11-21T06:50:01Z</time></trkpt><trkpt lat="35.14285022731924" lon="136.65339979357515"><ele>-0.871020725928247</ele><time>2021-11-21T06:50:05Z</time></trkpt><trkpt lat="35.142901627016904" lon="136.65362940881155"><ele>-1.6103274142369628</ele><time>2021-11-21T06:50:10Z</time></trkpt><trkpt lat="35.14294682114028" lon="136.65384456638523"><ele>-1.106751387938857</ele><time>2021-11-21T06:50:15Z</time></trkpt><trkpt lat="35.142999117757455" lon="136.65407460065526"><ele>-2.239755698479712</ele><time>2021-11-21T06:50:21Z</time></trkpt><trkpt lat="35.143038596425065" lon="136.65430322252632"><ele>-0.651218244805932</ele><time>2021-11-21T06:50:58Z</time></trkpt><trkpt lat="35.143087934920224" lon="136.65452359354578"><ele>0.1671128012239933</ele><time>2021-11-21T06:51:03Z</time></trkpt><trkpt lat="35.14312340573341" lon="136.65475576047635"><ele>0.14191610738635063</ele><time>2021-11-21T06:51:08Z</time></trkpt><trkpt lat="35.14317132741816" lon="136.65500720047407"><ele>0.14195348508656025</ele><time>2021-11-21T06:51:12Z</time></trkpt><trkpt lat="35.14321128619136" lon="136.65522947195308"><ele>-0.19712029583752155</ele><time>2021-11-21T06:51:16Z</time></trkpt><trkpt lat="35.143266198272904" lon="136.65544999207012"><ele>-0.6040426688268781</ele><time>2021-11-21T06:51:23Z</time></trkpt><trkpt lat="35.14331643176399" lon="136.6556752025535"><ele>-0.43476773239672184</ele><time>2021-11-21T06:51:28Z</time></trkpt><trkpt lat="35.14336910870721" lon="136.65591275082897"><ele>-0.4441181914880872</ele><time>2021-11-21T06:51:33Z</time></trkpt><trkpt lat="35.143416072972975" lon="136.6561393084842"><ele>-0.4335615383461118</ele><time>2021-11-21T06:51:38Z</time></trkpt><trkpt lat="35.143449966560254" lon="136.65636493998167"><ele>-0.6413683462888002</ele><time>2021-11-21T06:51:49Z</time></trkpt><trkpt lat="35.14350667102959" lon="136.6566025908118"><ele>-1.2025609714910388</ele><time>2021-11-21T06:51:56Z</time></trkpt><trkpt lat="35.143538117418075" lon="136.65682589584569"><ele>-0.3677912401035428</ele><time>2021-11-21T06:52:12Z</time></trkpt><trkpt lat="35.14360359871956" lon="136.65707944797575"><ele>-0.5605218661949039</ele><time>2021-11-21T06:52:22Z</time></trkpt><trkpt lat="35.14364322521392" lon="136.6573423707516"><ele>0.6696914620697498</ele><time>2021-11-21T06:52:33Z</time></trkpt><trkpt lat="35.14368857701141" lon="136.65757025408342"><ele>0.7749474495649338</ele><time>2021-11-21T06:52:39Z</time></trkpt><trkpt lat="35.143735159210614" lon="136.65781047842154"><ele>1.129644119180739</ele><time>2021-11-21T06:52:47Z</time></trkpt><trkpt lat="35.143787651157496" lon="136.65804756112516"><ele>0.2999620893970132</ele><time>2021-11-21T06:52:53Z</time></trkpt><trkpt lat="35.143837044416074" lon="136.65828000417747"><ele>0.2836462277919054</ele><time>2021-11-21T06:52:57Z</time></trkpt><trkpt lat="35.1438904236852" lon="136.65852383394184"><ele>0.7064903061836958</ele><time>2021-11-21T06:53:01Z</time></trkpt><trkpt lat="35.14394953385884" lon="136.65875607314635"><ele>0.7786023439839482</ele><time>2021-11-21T06:53:07Z</time></trkpt><trkpt lat="35.144000184300225" lon="136.6589905618927"><ele>2.0054620802402496</ele><time>2021-11-21T06:53:12Z</time></trkpt><trkpt lat="35.14405255950474" lon="136.65926142502573"><ele>3.5571806794032454</ele><time>2021-11-21T06:53:17Z</time></trkpt><trkpt lat="35.14410312593257" lon="136.65947774262153"><ele>4.953697605058551</ele><time>2021-11-21T06:53:25Z</time></trkpt><trkpt lat="35.14416107568734" lon="136.6597024030448"><ele>5.185841692611575</ele><time>2021-11-21T06:53:44Z</time></trkpt><trkpt lat="35.14422709134291" lon="136.65993806461162"><ele>5.7877493761479855</ele><time>2021-11-21T06:53:50Z</time></trkpt><trkpt lat="35.14428666459671" lon="136.66015573646422"><ele>5.792250832542777</ele><time>2021-11-21T06:54:16Z</time></trkpt><trkpt lat="35.144355379751474" lon="136.66036680661293"><ele>6.939287008717656</ele><time>2021-11-21T06:54:42Z</time></trkpt><trkpt lat="35.14443272939398" lon="136.66060419845337"><ele>6.933427546173334</ele><time>2021-11-21T06:54:47Z</time></trkpt><trkpt lat="35.144501917323794" lon="136.66081715107813"><ele>7.033517801202834</ele><time>2021-11-21T06:54:51Z</time></trkpt><trkpt lat="35.14456775648232" lon="136.66102656600512"><ele>6.882403204217553</ele><time>2021-11-21T06:54:57Z</time></trkpt><trkpt lat="35.144610428675065" lon="136.66124182881092"><ele>6.266643974930048</ele><time>2021-11-21T06:55:09Z</time></trkpt><trkpt lat="35.144701036500784" lon="136.66144924403565"><ele>7.018586435355246</ele><time>2021-11-21T06:55:17Z</time></trkpt><trkpt lat="35.144701036500784" lon="136.66144924403565"><ele>7.018586435355246</ele><time>2021-11-21T06:55:17Z</time></trkpt></trkseg></trk></gpx>