<?xml version='1.0' encoding='UTF-8'?><gpx creator="YAMAP - https://yamap.com" xsi:schemaLocation="http://www.topografix.com/GPX/1/1 http://www.topografix.com/GPX/1/1/gpx.xsd" version="1.1" xmlns="http://www.topografix.com/GPX/1/1" xmlns:xsi="http://www.w3.org/2001/XMLSchema-instance"><metadata><bounds maxlat="35.44136318730997" maxlon="139.2492214155058" minlat="35.423991155249276" minlon="139.23002010055194"/></metadata><trk><name>大山</name><number>1</number><trkseg><trkpt lat="35.42452008057235" lon="139.2487207478295"><ele>321.90641149505973</ele><time>2021-08-27T23:24:02Z</time></trkpt><trkpt lat="35.42452739972176" lon="139.24849326524682"><ele>322.8834771318361</ele><time>2021-08-27T23:25:37Z</time></trkpt><trkpt lat="35.424555587927166" lon="139.24826158092503"><ele>322.72860781662166</ele><time>2021-08-27T23:25:54Z</time></trkpt><trkpt lat="35.42465025292267" lon="139.24806433811924"><ele>323.86066751368344</ele><time>2021-08-27T23:26:20Z</time></trkpt><trkpt lat="35.4247761961697" lon="139.24788747150077"><ele>331.55659715179354</ele><time>2021-08-27T23:26:41Z</time></trkpt><trkpt lat="35.424890196729116" lon="139.24771293496215"><ele>335.5352792767808</ele><time>2021-08-27T23:26:56Z</time></trkpt><trkpt lat="35.42501074942091" lon="139.24754809609843"><ele>337.74529752135277</ele><time>2021-08-27T23:27:18Z</time></trkpt><trkpt lat="35.425167027885614" lon="139.24743824545078"><ele>342.61716151889414</ele><time>2021-08-27T23:27:42Z</time></trkpt><trkpt lat="35.425301074312316" lon="139.24728631320696"><ele>348.56036809366196</ele><time>2021-08-27T23:28:14Z</time></trkpt><trkpt lat="35.42545527500111" lon="139.24712920105617"><ele>345.84934238996357</ele><time>2021-08-27T23:28:28Z</time></trkpt><trkpt lat="35.42558599193879" lon="139.24697224998468"><ele>352.2642318243161</ele><time>2021-08-27T23:28:57Z</time></trkpt><trkpt lat="35.42573106017671" lon="139.2468388779712"><ele>353.08439471013844</ele><time>2021-08-27T23:29:21Z</time></trkpt><trkpt lat="35.42588456245648" lon="139.24667597855148"><ele>357.39427300263196</ele><time>2021-08-27T23:29:47Z</time></trkpt><trkpt lat="35.42600331485579" lon="139.24648052712934"><ele>358.366755397059</ele><time>2021-08-27T23:30:13Z</time></trkpt><trkpt lat="35.426182388405216" lon="139.24641841942082"><ele>361.1149168321863</ele><time>2021-08-27T23:30:27Z</time></trkpt><trkpt lat="35.42636937767873" lon="139.24633198010724"><ele>371.57201484497637</ele><time>2021-08-27T23:31:04Z</time></trkpt><trkpt lat="35.426524837344765" lon="139.24620051026935"><ele>374.9384595612064</ele><time>2021-08-27T23:31:21Z</time></trkpt><trkpt lat="35.42668558514688" lon="139.24608863667848"><ele>376.74500250350684</ele><time>2021-08-27T23:31:39Z</time></trkpt><trkpt lat="35.42684745533454" lon="139.2459909947114"><ele>378.5606178054586</ele><time>2021-08-27T23:32:03Z</time></trkpt><trkpt lat="35.42689849953058" lon="139.2457729175664"><ele>380.4424392627552</ele><time>2021-08-27T23:32:19Z</time></trkpt><trkpt lat="35.426956478768666" lon="139.24556405345277"><ele>379.7517842389643</ele><time>2021-08-27T23:32:38Z</time></trkpt><trkpt lat="35.42705151518273" lon="139.24535587283637"><ele>383.8616697154939</ele><time>2021-08-27T23:33:05Z</time></trkpt><trkpt lat="35.42720551207683" lon="139.24524006672166"><ele>388.3575115054846</ele><time>2021-08-27T23:33:27Z</time></trkpt><trkpt lat="35.42711645112581" lon="139.2450280404967"><ele>389.64023868273944</ele><time>2021-08-27T23:33:30Z</time></trkpt><trkpt lat="35.4273078548613" lon="139.24504362619967"><ele>393.1942497929558</ele><time>2021-08-27T23:33:46Z</time></trkpt><trkpt lat="35.427485044235134" lon="139.2449273735019"><ele>397.963405251503</ele><time>2021-08-27T23:34:08Z</time></trkpt><trkpt lat="35.42756616436282" lon="139.24472764581623"><ele>402.9134882139042</ele><time>2021-08-27T23:34:49Z</time></trkpt><trkpt lat="35.42755910706713" lon="139.24450490845496"><ele>409.1411699205637</ele><time>2021-08-27T23:35:14Z</time></trkpt><trkpt lat="35.42759654496749" lon="139.2442772706481"><ele>413.2118166042492</ele><time>2021-08-27T23:35:46Z</time></trkpt><trkpt lat="35.42769682421784" lon="139.24408813936904"><ele>414.1933618634939</ele><time>2021-08-27T23:36:16Z</time></trkpt><trkpt lat="35.42784064948457" lon="139.24394948222468"><ele>419.97834568750113</ele><time>2021-08-27T23:36:42Z</time></trkpt><trkpt lat="35.42802432561762" lon="139.24397497064683"><ele>429.42737863585353</ele><time>2021-08-27T23:41:37Z</time></trkpt><trkpt lat="35.42819677796523" lon="139.24386951288446"><ele>439.556972800754</ele><time>2021-08-27T23:42:38Z</time></trkpt><trkpt lat="35.42830946369514" lon="139.24369473553065"><ele>452.46302699670196</ele><time>2021-08-27T23:43:41Z</time></trkpt><trkpt lat="35.42842073619467" lon="139.24350088139266"><ele>462.31892412062734</ele><time>2021-08-27T23:44:54Z</time></trkpt><trkpt lat="35.42850372659796" lon="139.24329682733207"><ele>468.8561864681542</ele><time>2021-08-27T23:45:35Z</time></trkpt><trkpt lat="35.42861119159407" lon="139.24311936622027"><ele>473.88135743513703</ele><time>2021-08-27T23:46:07Z</time></trkpt><trkpt lat="35.42874204395316" lon="139.24296569440213"><ele>480.7330190818757</ele><time>2021-08-27T23:46:40Z</time></trkpt><trkpt lat="35.42893117136727" lon="139.24291816746947"><ele>485.1394381308928</ele><time>2021-08-27T23:47:03Z</time></trkpt><trkpt lat="35.42910149706946" lon="139.24284112430388"><ele>491.83482304308563</ele><time>2021-08-27T23:47:24Z</time></trkpt><trkpt lat="35.42928617490653" lon="139.24286762971963"><ele>503.60166146140546</ele><time>2021-08-27T23:48:08Z</time></trkpt><trkpt lat="35.4294078226794" lon="139.2426969620178"><ele>509.3939606361091</ele><time>2021-08-27T23:48:57Z</time></trkpt><trkpt lat="35.429439566609375" lon="139.24247843712186"><ele>514.0594331817701</ele><time>2021-08-27T23:49:39Z</time></trkpt><trkpt lat="35.42948240671626" lon="139.24225322164276"><ele>519.3400959540159</ele><time>2021-08-27T23:50:05Z</time></trkpt><trkpt lat="35.42956604791698" lon="139.2420557594246"><ele>525.6920425454155</ele><time>2021-08-27T23:51:03Z</time></trkpt><trkpt lat="35.429658382793214" lon="139.24185789766034"><ele>537.1925081359223</ele><time>2021-08-27T23:51:48Z</time></trkpt><trkpt lat="35.429685059463125" lon="139.24163453585575"><ele>538.1661072196439</ele><time>2021-08-27T23:52:13Z</time></trkpt><trkpt lat="35.42983420694226" lon="139.24149285491862"><ele>551.6871858751401</ele><time>2021-08-27T23:53:18Z</time></trkpt><trkpt lat="35.43000582131085" lon="139.2414156651915"><ele>559.6091328589246</ele><time>2021-08-27T23:55:20Z</time></trkpt><trkpt lat="35.430154690968706" lon="139.24128963398533"><ele>579.897023149766</ele><time>2021-08-27T23:56:35Z</time></trkpt><trkpt lat="35.43030615427003" lon="139.2411668769794"><ele>590.4711544569582</ele><time>2021-08-27T23:57:46Z</time></trkpt><trkpt lat="35.43041228645261" lon="139.2409809863654"><ele>605.280620476231</ele><time>2021-08-27T23:59:00Z</time></trkpt><trkpt lat="35.430564019237714" lon="139.24085301963243"><ele>612.9139874428511</ele><time>2021-08-27T23:59:42Z</time></trkpt><trkpt lat="35.43071256939415" lon="139.2407219817259"><ele>630.099095354788</ele><time>2021-08-28T00:00:44Z</time></trkpt><trkpt lat="35.43088447603797" lon="139.24064794126681"><ele>636.8321644337848</ele><time>2021-08-28T00:01:30Z</time></trkpt><trkpt lat="35.43102674167431" lon="139.2405114817746"><ele>641.7934511639178</ele><time>2021-08-28T00:02:21Z</time></trkpt><trkpt lat="35.43109534278702" lon="139.2403001768157"><ele>652.9220064673573</ele><time>2021-08-28T00:03:04Z</time></trkpt><trkpt lat="35.43120772181115" lon="139.24012021574288"><ele>655.8212710302323</ele><time>2021-08-28T00:03:36Z</time></trkpt><trkpt lat="35.431262833866725" lon="139.23990686196194"><ele>657.9171130796894</ele><time>2021-08-28T00:04:01Z</time></trkpt><trkpt lat="35.4313363991321" lon="139.23969678832265"><ele>664.8916616737843</ele><time>2021-08-28T00:04:35Z</time></trkpt><trkpt lat="35.431396905773994" lon="139.23947561835817"><ele>672.525034815073</ele><time>2021-08-28T00:05:10Z</time></trkpt><trkpt lat="35.43143773667871" lon="139.2392603704832"><ele>676.2765423776582</ele><time>2021-08-28T00:05:49Z</time></trkpt><trkpt lat="35.43146825190372" lon="139.23904213424223"><ele>682.000028074719</ele><time>2021-08-28T00:06:27Z</time></trkpt><trkpt lat="35.43150076037275" lon="139.23882317249428"><ele>682.5834464915097</ele><time>2021-08-28T00:06:47Z</time></trkpt><trkpt lat="35.431539729018034" lon="139.23860639661189"><ele>689.0050867972896</ele><time>2021-08-28T00:07:21Z</time></trkpt><trkpt lat="35.43158452227304" lon="139.2383899258461"><ele>695.1298008123413</ele><time>2021-08-28T00:08:05Z</time></trkpt><trkpt lat="35.43169375853059" lon="139.23821306591128"><ele>701.5061828605831</ele><time>2021-08-28T00:08:39Z</time></trkpt><trkpt lat="35.4316925223585" lon="139.23798161179582"><ele>702.1418997645378</ele><time>2021-08-28T00:09:00Z</time></trkpt><trkpt lat="35.43170443624491" lon="139.23775789808172"><ele>705.3936073267832</ele><time>2021-08-28T00:09:23Z</time></trkpt><trkpt lat="35.43172383058395" lon="139.2375370404015"><ele>706.200459565036</ele><time>2021-08-28T00:10:17Z</time></trkpt><trkpt lat="35.43187640973659" lon="139.23741373056328"><ele>722.7308656563982</ele><time>2021-08-28T00:11:22Z</time></trkpt><trkpt lat="35.432053647972126" lon="139.23735685577114"><ele>732.1154450811446</ele><time>2021-08-28T00:12:04Z</time></trkpt><trkpt lat="35.43202662674949" lon="139.23713814298125"><ele>746.3648470761254</ele><time>2021-08-28T00:13:13Z</time></trkpt><trkpt lat="35.43203927483427" lon="139.23691009335548"><ele>754.5283236596733</ele><time>2021-08-28T00:14:09Z</time></trkpt><trkpt lat="35.43211598244065" lon="139.2367024795078"><ele>760.6455223252997</ele><time>2021-08-28T00:14:50Z</time></trkpt><trkpt lat="35.43197453853026" lon="139.2365636814368"><ele>772.663125612773</ele><time>2021-08-28T00:16:12Z</time></trkpt><trkpt lat="35.43188443882259" lon="139.23637191341314"><ele>781.4899326888844</ele><time>2021-08-28T00:16:46Z</time></trkpt><trkpt lat="35.431790130672304" lon="139.23618114287387"><ele>789.8298442922533</ele><time>2021-08-28T00:17:25Z</time></trkpt><trkpt lat="35.431708969117615" lon="139.2359810088897"><ele>798.4934007525444</ele><time>2021-08-28T00:18:12Z</time></trkpt><trkpt lat="35.431631264918366" lon="139.23576618052905"><ele>802.3209723085165</ele><time>2021-08-28T00:18:58Z</time></trkpt><trkpt lat="35.43158066466617" lon="139.2355528617681"><ele>813.3118059942499</ele><time>2021-08-28T00:19:54Z</time></trkpt><trkpt lat="35.43146213174709" lon="139.2353746475968"><ele>819.182622782886</ele><time>2021-08-28T00:22:01Z</time></trkpt><trkpt lat="35.43135186397458" lon="139.23519652712827"><ele>821.5545408129692</ele><time>2021-08-28T00:22:45Z</time></trkpt><trkpt lat="35.43145114084957" lon="139.23501121464273"><ele>823.6421540463343</ele><time>2021-08-28T00:23:26Z</time></trkpt><trkpt lat="35.43161004615554" lon="139.23490085981862"><ele>841.703320206143</ele><time>2021-08-28T00:24:26Z</time></trkpt><trkpt lat="35.43149677074949" lon="139.23472575433945"><ele>846.5447379769757</ele><time>2021-08-28T00:25:21Z</time></trkpt><trkpt lat="35.43141174513204" lon="139.23453107392294"><ele>848.9901992501691</ele><time>2021-08-28T00:26:05Z</time></trkpt><trkpt lat="35.43158485947824" lon="139.23445560597946"><ele>858.51777866669</ele><time>2021-08-28T00:27:08Z</time></trkpt><trkpt lat="35.43176577756573" lon="139.23441155853737"><ele>865.0956546086818</ele><time>2021-08-28T00:27:55Z</time></trkpt><trkpt lat="35.43175856822658" lon="139.23418950267305"><ele>872.5449165012687</ele><time>2021-08-28T00:28:33Z</time></trkpt><trkpt lat="35.431905560871265" lon="139.23406105556347"><ele>880.9558978211135</ele><time>2021-08-28T00:29:04Z</time></trkpt><trkpt lat="35.43197949922053" lon="139.2338593906809"><ele>888.9110793219879</ele><time>2021-08-28T00:29:45Z</time></trkpt><trkpt lat="35.43210138570983" lon="139.23369485375696"><ele>898.5775088146329</ele><time>2021-08-28T00:30:44Z</time></trkpt><trkpt lat="35.432251760508414" lon="139.23356916982465"><ele>905.4689006470144</ele><time>2021-08-28T00:31:24Z</time></trkpt><trkpt lat="35.432363298038965" lon="139.23339459879037"><ele>914.6841000858694</ele><time>2021-08-28T00:32:18Z</time></trkpt><trkpt lat="35.43250263275753" lon="139.23324049536023"><ele>925.0320993922651</ele><time>2021-08-28T00:37:16Z</time></trkpt><trkpt lat="35.432683458869185" lon="139.2332089338301"><ele>939.8372155306861</ele><time>2021-08-28T00:38:24Z</time></trkpt><trkpt lat="35.43285662168809" lon="139.2332763229112"><ele>953.7942689750344</ele><time>2021-08-28T00:39:10Z</time></trkpt><trkpt lat="35.43299837823772" lon="139.23312807585862"><ele>954.9154715649784</ele><time>2021-08-28T00:40:00Z</time></trkpt><trkpt lat="35.43305047124247" lon="139.23291520367954"><ele>969.7824415927753</ele><time>2021-08-28T00:40:55Z</time></trkpt><trkpt lat="35.43322097320366" lon="139.23283742208838"><ele>979.9226728435606</ele><time>2021-08-28T00:41:54Z</time></trkpt><trkpt lat="35.43339497663197" lon="139.2327796999436"><ele>984.2870196700096</ele><time>2021-08-28T00:43:19Z</time></trkpt><trkpt lat="35.43354793824369" lon="139.2326626628273"><ele>991.7294353656471</ele><time>2021-08-28T00:44:18Z</time></trkpt><trkpt lat="35.43372400396597" lon="139.2325842665445"><ele>999.5145802311599</ele><time>2021-08-28T00:44:48Z</time></trkpt><trkpt lat="35.433883416922036" lon="139.23269058751242"><ele>1001.7166291913018</ele><time>2021-08-28T00:45:22Z</time></trkpt><trkpt lat="35.43407309555485" lon="139.2327159133672"><ele>1007.8171374807134</ele><time>2021-08-28T00:45:46Z</time></trkpt><trkpt lat="35.4342526433472" lon="139.23275174176462"><ele>1013.8213485693559</ele><time>2021-08-28T00:46:13Z</time></trkpt><trkpt lat="35.43444190193435" lon="139.2327909641716"><ele>1015.5155302612111</ele><time>2021-08-28T00:46:35Z</time></trkpt><trkpt lat="35.434626393981816" lon="139.23277813636938"><ele>1015.4708577468991</ele><time>2021-08-28T00:47:01Z</time></trkpt><trkpt lat="35.434788697618934" lon="139.232670424934"><ele>1024.3692061584443</ele><time>2021-08-28T00:47:28Z</time></trkpt><trkpt lat="35.434927560623876" lon="139.23252714131164"><ele>1027.6207496076822</ele><time>2021-08-28T00:48:09Z</time></trkpt><trkpt lat="35.43505147050637" lon="139.232352103372"><ele>1036.4917728397995</ele><time>2021-08-28T00:48:56Z</time></trkpt><trkpt lat="35.43522044778072" lon="139.23227104202334"><ele>1042.5467793522403</ele><time>2021-08-28T00:49:37Z</time></trkpt><trkpt lat="35.43534718870509" lon="139.23210853194897"><ele>1049.3910111067817</ele><time>2021-08-28T00:50:18Z</time></trkpt><trkpt lat="35.435509194766595" lon="139.23200837595422"><ele>1055.7859626747668</ele><time>2021-08-28T00:51:03Z</time></trkpt><trkpt lat="35.435632562862004" lon="139.23184595187803"><ele>1065.5309256324545</ele><time>2021-08-28T00:51:54Z</time></trkpt><trkpt lat="35.4357344077587" lon="139.23166219912213"><ele>1067.356702832505</ele><time>2021-08-28T00:52:39Z</time></trkpt><trkpt lat="35.435900617066125" lon="139.23156002841893"><ele>1073.202323765494</ele><time>2021-08-28T00:53:02Z</time></trkpt><trkpt lat="35.43608437192494" lon="139.23158420172183"><ele>1077.97850511875</ele><time>2021-08-28T00:53:15Z</time></trkpt><trkpt lat="35.436258383008514" lon="139.23151985496293"><ele>1082.7971787359565</ele><time>2021-08-28T00:53:30Z</time></trkpt><trkpt lat="35.436433265622334" lon="139.23144836550657"><ele>1094.0957945305854</ele><time>2021-08-28T00:54:05Z</time></trkpt><trkpt lat="35.43658498452834" lon="139.2313255760451"><ele>1099.6412267396227</ele><time>2021-08-28T00:54:48Z</time></trkpt><trkpt lat="35.43669768395273" lon="139.23150331576994"><ele>1104.6405219584703</ele><time>2021-08-28T00:55:18Z</time></trkpt><trkpt lat="35.43687654555469" lon="139.2314321210258"><ele>1112.3997587217018</ele><time>2021-08-28T00:55:48Z</time></trkpt><trkpt lat="35.43703427622374" lon="139.23132132333873"><ele>1119.7802357012406</ele><time>2021-08-28T00:56:17Z</time></trkpt><trkpt lat="35.437182150783535" lon="139.2311885103359"><ele>1127.4289172552526</ele><time>2021-08-28T00:56:56Z</time></trkpt><trkpt lat="35.43729561312352" lon="139.23101649503408"><ele>1135.4650350436568</ele><time>2021-08-28T00:57:32Z</time></trkpt><trkpt lat="35.43731708175774" lon="139.2307963719611"><ele>1143.9601426832378</ele><time>2021-08-28T00:58:01Z</time></trkpt><trkpt lat="35.437432341221225" lon="139.23060867075077"><ele>1151.6658994676545</ele><time>2021-08-28T00:58:50Z</time></trkpt><trkpt lat="35.437553760633726" lon="139.23044160657525"><ele>1153.2559911049902</ele><time>2021-08-28T00:59:30Z</time></trkpt><trkpt lat="35.43766716162366" lon="139.23026869752084"><ele>1157.8777652112767</ele><time>2021-08-28T00:59:54Z</time></trkpt><trkpt lat="35.437837645075746" lon="139.23016242718418"><ele>1159.2139657121152</ele><time>2021-08-28T01:00:13Z</time></trkpt><trkpt lat="35.438019405585486" lon="139.23013013251054"><ele>1163.5796644790098</ele><time>2021-08-28T01:00:39Z</time></trkpt><trkpt lat="35.438199839706456" lon="139.23009169724898"><ele>1169.2954147895798</ele><time>2021-08-28T01:01:12Z</time></trkpt><trkpt lat="35.43837559829403" lon="139.23002495339867"><ele>1174.18646071665</ele><time>2021-08-28T01:01:41Z</time></trkpt><trkpt lat="35.43855800189876" lon="139.23002010055194"><ele>1176.0124192694202</ele><time>2021-08-28T01:02:13Z</time></trkpt><trkpt lat="35.43873500967034" lon="139.2300688960708"><ele>1182.9961380464956</ele><time>2021-08-28T01:02:56Z</time></trkpt><trkpt lat="35.438914221293835" lon="139.2301092002891"><ele>1192.8632727768272</ele><time>2021-08-28T01:03:52Z</time></trkpt><trkpt lat="35.4390977960112" lon="139.23015381388007"><ele>1203.1266541639343</ele><time>2021-08-28T01:04:36Z</time></trkpt><trkpt lat="35.43928292736513" lon="139.2301586244079"><ele>1208.6624814188108</ele><time>2021-08-28T01:05:13Z</time></trkpt><trkpt lat="35.43947032396663" lon="139.23014086573818"><ele>1218.7904101554304</ele><time>2021-08-28T01:06:03Z</time></trkpt><trkpt lat="35.4396481447208" lon="139.23018268496773"><ele>1222.0480601089075</ele><time>2021-08-28T01:06:32Z</time></trkpt><trkpt lat="35.439828672831744" lon="139.23023912776694"><ele>1225.7721134182066</ele><time>2021-08-28T01:07:03Z</time></trkpt><trkpt lat="35.439991601473174" lon="139.23033404680922"><ele>1230.9252448780462</ele><time>2021-08-28T01:07:38Z</time></trkpt><trkpt lat="35.44017358234477" lon="139.2303713753744"><ele>1234.219777174294</ele><time>2021-08-28T01:08:10Z</time></trkpt><trkpt lat="35.44033653343509" lon="139.23046658599208"><ele>1236.1445018937811</ele><time>2021-08-28T01:08:44Z</time></trkpt><trkpt lat="35.440493731552394" lon="139.23058530454702"><ele>1247.5570614282042</ele><time>2021-08-28T01:09:31Z</time></trkpt><trkpt lat="35.440528011267695" lon="139.23080812102458"><ele>1249.6813238020986</ele><time>2021-08-28T01:09:49Z</time></trkpt><trkpt lat="35.44053102465776" lon="139.2310285942915"><ele>1251.7368655698374</ele><time>2021-08-28T01:10:14Z</time></trkpt><trkpt lat="35.44065502860871" lon="139.23118856391608"><ele>1254.4542671618983</ele><time>2021-08-28T01:10:45Z</time></trkpt><trkpt lat="35.440548483893245" lon="139.2310065499807"><ele>1253.1390083162114</ele><time>2021-08-28T01:13:17Z</time></trkpt><trkpt lat="35.44049761219687" lon="139.23079512982628"><ele>1247.2701128935441</ele><time>2021-08-28T01:13:47Z</time></trkpt><trkpt lat="35.44053174402376" lon="139.23101599600741"><ele>1253.0918107712641</ele><time>2021-08-28T01:15:19Z</time></trkpt><trkpt lat="35.44064116568939" lon="139.231191417326"><ele>1251.6972933169454</ele><time>2021-08-28T01:49:41Z</time></trkpt><trkpt lat="35.44079181082209" lon="139.23132607314847"><ele>1253.7934262519702</ele><time>2021-08-28T01:50:06Z</time></trkpt><trkpt lat="35.440973001205215" lon="139.2313383960449"><ele>1249.5278522809967</ele><time>2021-08-28T01:50:41Z</time></trkpt><trkpt lat="35.441144265489314" lon="139.2314193217402"><ele>1244.5253182752058</ele><time>2021-08-28T01:51:30Z</time></trkpt><trkpt lat="35.44126482685758" lon="139.23153704680993"><ele>1245.192066397518</ele><time>2021-08-28T01:51:36Z</time></trkpt><trkpt lat="35.44136318730997" lon="139.23177438438265"><ele>1247.7231946615502</ele><time>2021-08-28T01:51:43Z</time></trkpt><trkpt lat="35.44113334296971" lon="139.23138939848585"><ele>1248.221898687072</ele><time>2021-08-28T01:53:36Z</time></trkpt><trkpt lat="35.44095196846888" lon="139.23136196725062"><ele>1251.5750909587368</ele><time>2021-08-28T01:54:01Z</time></trkpt><trkpt lat="35.44077736141585" lon="139.231417235384"><ele>1249.376567069441</ele><time>2021-08-28T01:54:58Z</time></trkpt><trkpt lat="35.44065234870959" lon="139.23125441894402"><ele>1249.5163600137457</ele><time>2021-08-28T01:55:34Z</time></trkpt><trkpt lat="35.44056929482248" lon="139.23105889159388"><ele>1253.172630221583</ele><time>2021-08-28T02:01:20Z</time></trkpt><trkpt lat="35.44051949275923" lon="139.23084443476253"><ele>1251.2292865375057</ele><time>2021-08-28T02:01:47Z</time></trkpt><trkpt lat="35.44048536938407" lon="139.2306275435112"><ele>1250.7605923451483</ele><time>2021-08-28T02:02:11Z</time></trkpt><trkpt lat="35.440337641324895" lon="139.23049089447775"><ele>1238.8757707020268</ele><time>2021-08-28T02:03:32Z</time></trkpt><trkpt lat="35.440158633842074" lon="139.2304255077477"><ele>1237.8313369611278</ele><time>2021-08-28T02:03:46Z</time></trkpt><trkpt lat="35.43997806795825" lon="139.2303487262101"><ele>1231.5406200205907</ele><time>2021-08-28T02:04:08Z</time></trkpt><trkpt lat="35.43981064539485" lon="139.23025494506788"><ele>1225.7213967563584</ele><time>2021-08-28T02:04:33Z</time></trkpt><trkpt lat="35.43963300237293" lon="139.23021144904703"><ele>1221.4601057935506</ele><time>2021-08-28T02:04:47Z</time></trkpt><trkpt lat="35.439449766479626" lon="139.23016485167608"><ele>1215.0459589101374</ele><time>2021-08-28T02:05:21Z</time></trkpt><trkpt lat="35.439257541042984" lon="139.23019049472384"><ele>1210.333666057326</ele><time>2021-08-28T02:05:44Z</time></trkpt><trkpt lat="35.43907994440906" lon="139.23014728504896"><ele>1203.075281046331</ele><time>2021-08-28T02:06:10Z</time></trkpt><trkpt lat="35.43889694431846" lon="139.2301213911922"><ele>1196.3395576840267</ele><time>2021-08-28T02:06:35Z</time></trkpt><trkpt lat="35.43871375681717" lon="139.23011664603345"><ele>1182.8370548496023</ele><time>2021-08-28T02:07:10Z</time></trkpt><trkpt lat="35.43852456539984" lon="139.2300770634532"><ele>1172.1530923526734</ele><time>2021-08-28T02:07:36Z</time></trkpt><trkpt lat="35.43834334387971" lon="139.23008607876432"><ele>1171.0519854798913</ele><time>2021-08-28T02:07:57Z</time></trkpt><trkpt lat="35.438163497936586" lon="139.23010815202525"><ele>1166.747268536128</ele><time>2021-08-28T02:08:17Z</time></trkpt><trkpt lat="35.43798937160346" lon="139.23017091841777"><ele>1162.4210842363536</ele><time>2021-08-28T02:08:38Z</time></trkpt><trkpt lat="35.437805000257605" lon="139.23022214255403"><ele>1159.1126998271793</ele><time>2021-08-28T02:08:58Z</time></trkpt><trkpt lat="35.43765162031849" lon="139.2303457812384"><ele>1156.9489182746038</ele><time>2021-08-28T02:09:17Z</time></trkpt><trkpt lat="35.437538335712134" lon="139.2305250300754"><ele>1152.7592219831422</ele><time>2021-08-28T02:10:41Z</time></trkpt><trkpt lat="35.43740007692955" lon="139.2306716639866"><ele>1146.7889215741307</ele><time>2021-08-28T02:11:21Z</time></trkpt><trkpt lat="35.4373361308812" lon="139.23087999594756"><ele>1137.9919921671972</ele><time>2021-08-28T02:11:59Z</time></trkpt><trkpt lat="35.437260972522466" lon="139.23108043785388"><ele>1131.2155164936557</ele><time>2021-08-28T02:12:43Z</time></trkpt><trkpt lat="35.437149587912984" lon="139.23125746096062"><ele>1125.2099440777674</ele><time>2021-08-28T02:13:16Z</time></trkpt><trkpt lat="35.43700544847108" lon="139.23139265276035"><ele>1115.5954921878874</ele><time>2021-08-28T02:14:07Z</time></trkpt><trkpt lat="35.43685843544408" lon="139.23152434206568"><ele>1107.5903238477185</ele><time>2021-08-28T02:15:24Z</time></trkpt><trkpt lat="35.43667980620313" lon="139.23149140692962"><ele>1100.427994331345</ele><time>2021-08-28T02:15:47Z</time></trkpt><trkpt lat="35.43650440144156" lon="139.23141842089444"><ele>1093.6239673234522</ele><time>2021-08-28T02:16:30Z</time></trkpt><trkpt lat="35.43633234886527" lon="139.23149815452794"><ele>1085.6274818433449</ele><time>2021-08-28T02:16:56Z</time></trkpt><trkpt lat="35.436168414252116" lon="139.23159478571327"><ele>1080.1161800585687</ele><time>2021-08-28T02:17:15Z</time></trkpt><trkpt lat="35.43598259794785" lon="139.23159048254956"><ele>1075.5647176885977</ele><time>2021-08-28T02:17:45Z</time></trkpt><trkpt lat="35.43580559289777" lon="139.2316443035403"><ele>1070.0125236967579</ele><time>2021-08-28T02:18:04Z</time></trkpt><trkpt lat="35.435666897875336" lon="139.2317946264326"><ele>1063.3790575116873</ele><time>2021-08-28T02:18:40Z</time></trkpt><trkpt lat="35.43554732613988" lon="139.23196683177562"><ele>1055.2748265983537</ele><time>2021-08-28T02:19:10Z</time></trkpt><trkpt lat="35.435412054841585" lon="139.23211769677138"><ele>1050.2650803690776</ele><time>2021-08-28T02:19:39Z</time></trkpt><trkpt lat="35.43525767013977" lon="139.23225025895775"><ele>1039.8795810360461</ele><time>2021-08-28T02:20:23Z</time></trkpt><trkpt lat="35.43509691385081" lon="139.23236246992968"><ele>1035.886928198859</ele><time>2021-08-28T02:20:49Z</time></trkpt><trkpt lat="35.43495766448999" lon="139.23251364200027"><ele>1029.8441344350576</ele><time>2021-08-28T02:21:57Z</time></trkpt><trkpt lat="35.43481069684035" lon="139.23267385952633"><ele>1024.9610766535625</ele><time>2021-08-28T02:22:30Z</time></trkpt><trkpt lat="35.43464736858812" lon="139.23279328188954"><ele>1018.3172292094678</ele><time>2021-08-28T02:22:52Z</time></trkpt><trkpt lat="35.43446649645963" lon="139.23281491303715"><ele>1018.0120317870751</ele><time>2021-08-28T02:23:11Z</time></trkpt><trkpt lat="35.4342870031901" lon="139.23276787010604"><ele>1013.9020660296082</ele><time>2021-08-28T02:23:42Z</time></trkpt><trkpt lat="35.434090485497585" lon="139.23276017456368"><ele>1010.2562329620123</ele><time>2021-08-28T02:24:13Z</time></trkpt><trkpt lat="35.433910087727966" lon="139.23273498038816"><ele>1004.5168932126835</ele><time>2021-08-28T02:24:30Z</time></trkpt><trkpt lat="35.433744439062146" lon="139.23262337292766"><ele>1003.2514475164935</ele><time>2021-08-28T02:24:43Z</time></trkpt><trkpt lat="35.43356269315401" lon="139.23262999429667"><ele>992.4298606086522</ele><time>2021-08-28T02:26:03Z</time></trkpt><trkpt lat="35.433469283690044" lon="139.23281849299832"><ele>990.5029784534127</ele><time>2021-08-28T02:26:40Z</time></trkpt><trkpt lat="35.43330267842372" lon="139.23271692046157"><ele>980.5942623158917</ele><time>2021-08-28T02:27:19Z</time></trkpt><trkpt lat="35.433194117221305" lon="139.23290262689505"><ele>974.206432595849</ele><time>2021-08-28T02:28:01Z</time></trkpt><trkpt lat="35.43304200645726" lon="139.2330367601995"><ele>964.2505911197513</ele><time>2021-08-28T02:28:49Z</time></trkpt><trkpt lat="35.432978765260856" lon="139.2332484196659"><ele>950.5296251829714</ele><time>2021-08-28T02:29:43Z</time></trkpt><trkpt lat="35.43280018414035" lon="139.23318898932678"><ele>944.1248978059739</ele><time>2021-08-28T02:30:36Z</time></trkpt><trkpt lat="35.43262729532817" lon="139.23312138657008"><ele>937.1399571048096</ele><time>2021-08-28T02:31:39Z</time></trkpt><trkpt lat="35.43249994539659" lon="139.2332939887891"><ele>921.058647592552</ele><time>2021-08-28T02:33:49Z</time></trkpt><trkpt lat="35.43236170558343" lon="139.2334364389955"><ele>913.3947149487212</ele><time>2021-08-28T02:34:27Z</time></trkpt><trkpt lat="35.43221787487984" lon="139.23357126446336"><ele>905.7014560252428</ele><time>2021-08-28T02:35:06Z</time></trkpt><trkpt lat="35.432132554230215" lon="139.2337723817419"><ele>892.9236836303025</ele><time>2021-08-28T02:35:56Z</time></trkpt><trkpt lat="35.43199616421936" lon="139.2339278410374"><ele>886.6823618430644</ele><time>2021-08-28T02:36:37Z</time></trkpt><trkpt lat="35.43192288025407" lon="139.2341445487371"><ele>883.5715224994346</ele><time>2021-08-28T02:37:02Z</time></trkpt><trkpt lat="35.43174254913423" lon="139.23420053934527"><ele>876.284968229942</ele><time>2021-08-28T02:37:29Z</time></trkpt><trkpt lat="35.43179271502783" lon="139.23441730025957"><ele>861.3723907638341</ele><time>2021-08-28T02:38:17Z</time></trkpt><trkpt lat="35.431651884651835" lon="139.23455478390505"><ele>860.4180156039074</ele><time>2021-08-28T02:38:38Z</time></trkpt><trkpt lat="35.43150344526913" lon="139.23441196729726"><ele>854.9528945488855</ele><time>2021-08-28T02:39:05Z</time></trkpt><trkpt lat="35.431525626515864" lon="139.23463305814286"><ele>842.0039133336395</ele><time>2021-08-28T02:40:12Z</time></trkpt><trkpt lat="35.43164547534629" lon="139.23480863264615"><ele>840.3520193016157</ele><time>2021-08-28T02:40:43Z</time></trkpt><trkpt lat="35.43154947814114" lon="139.23500120881297"><ele>830.7593205608428</ele><time>2021-08-28T02:41:29Z</time></trkpt><trkpt lat="35.43137452144448" lon="139.2350546297117"><ele>828.8827418833971</ele><time>2021-08-28T02:41:55Z</time></trkpt><trkpt lat="35.43145642235815" lon="139.2352686437391"><ele>818.5415245536715</ele><time>2021-08-28T02:42:38Z</time></trkpt><trkpt lat="35.431561746847855" lon="139.23545711476112"><ele>809.8087685089558</ele><time>2021-08-28T02:43:15Z</time></trkpt><trkpt lat="35.431615115574104" lon="139.23566907123634"><ele>801.587919678539</ele><time>2021-08-28T02:43:57Z</time></trkpt><trkpt lat="35.43163649441163" lon="139.23588792968684"><ele>800.7429799903184</ele><time>2021-08-28T02:45:11Z</time></trkpt><trkpt lat="35.431767493040084" lon="139.23604669198642"><ele>791.2970540449023</ele><time>2021-08-28T02:47:35Z</time></trkpt><trkpt lat="35.43182653092565" lon="139.23625729244822"><ele>785.2624028604478</ele><time>2021-08-28T02:48:01Z</time></trkpt><trkpt lat="35.43188572914208" lon="139.23646657300395"><ele>778.8079328043386</ele><time>2021-08-28T02:48:31Z</time></trkpt><trkpt lat="35.43202053062797" lon="139.2366240672817"><ele>778.3806751910597</ele><time>2021-08-28T02:48:52Z</time></trkpt><trkpt lat="35.43211018592261" lon="139.23682211089465"><ele>753.2116764904931</ele><time>2021-08-28T02:49:58Z</time></trkpt><trkpt lat="35.432062870292484" lon="139.23704346705608"><ele>746.5633925898001</ele><time>2021-08-28T02:50:37Z</time></trkpt><trkpt lat="35.432119016098355" lon="139.23726744185205"><ele>732.3059428362176</ele><time>2021-08-28T02:51:18Z</time></trkpt><trkpt lat="35.43196417904679" lon="139.2373897822246"><ele>727.3196112923324</ele><time>2021-08-28T02:51:52Z</time></trkpt><trkpt lat="35.43182857541676" lon="139.23753545874257"><ele>708.239532943815</ele><time>2021-08-28T02:52:49Z</time></trkpt><trkpt lat="35.431759094917716" lon="139.23775424074051"><ele>705.2725081173703</ele><time>2021-08-28T02:53:33Z</time></trkpt><trkpt lat="35.43175535350621" lon="139.23797768658392"><ele>704.1266505876556</ele><time>2021-08-28T02:53:49Z</time></trkpt><trkpt lat="35.43173003955627" lon="139.2382009261434"><ele>698.3815358383581</ele><time>2021-08-28T02:54:45Z</time></trkpt><trkpt lat="35.43164840108759" lon="139.23839903911949"><ele>692.9349667513743</ele><time>2021-08-28T02:55:22Z</time></trkpt><trkpt lat="35.431603196763" lon="139.23861379132904"><ele>684.2662785490975</ele><time>2021-08-28T02:56:06Z</time></trkpt><trkpt lat="35.43155633075278" lon="139.2388430827258"><ele>680.20036739856</ele><time>2021-08-28T02:56:34Z</time></trkpt><trkpt lat="35.43152094374497" lon="139.2390656141831"><ele>678.3151966426522</ele><time>2021-08-28T02:56:57Z</time></trkpt><trkpt lat="35.43147340570597" lon="139.23928869671207"><ele>669.6623218078166</ele><time>2021-08-28T02:57:32Z</time></trkpt><trkpt lat="35.43142772002797" lon="139.23950419403943"><ele>666.1355045791715</ele><time>2021-08-28T02:58:02Z</time></trkpt><trkpt lat="35.43136025387064" lon="139.2397109433166"><ele>658.3716964805499</ele><time>2021-08-28T02:58:28Z</time></trkpt><trkpt lat="35.43131733223001" lon="139.23992546036706"><ele>653.9125589141622</ele><time>2021-08-28T02:59:01Z</time></trkpt><trkpt lat="35.43115222792219" lon="139.24002251443125"><ele>653.1654711998999</ele><time>2021-08-28T02:59:47Z</time></trkpt><trkpt lat="35.430992264121166" lon="139.23991508618164"><ele>633.7137765306979</ele><time>2021-08-28T03:00:59Z</time></trkpt><trkpt lat="35.430825757966325" lon="139.23982680650016"><ele>633.0349568640813</ele><time>2021-08-28T03:01:43Z</time></trkpt><trkpt lat="35.43064938201231" lon="139.2397587295984"><ele>618.6139387860894</ele><time>2021-08-28T03:02:27Z</time></trkpt><trkpt lat="35.43053851860032" lon="139.23993694680317"><ele>603.5846103085205</ele><time>2021-08-28T03:04:10Z</time></trkpt><trkpt lat="35.430361842889425" lon="139.23987185452583"><ele>593.2393639078364</ele><time>2021-08-28T03:04:43Z</time></trkpt><trkpt lat="35.43017847918788" lon="139.23988272896048"><ele>574.7407526010647</ele><time>2021-08-28T03:05:38Z</time></trkpt><trkpt lat="35.43001479276447" lon="139.23997579244744"><ele>562.6689570210874</ele><time>2021-08-28T03:06:48Z</time></trkpt><trkpt lat="35.429869807786446" lon="139.23983984017744"><ele>553.3558112774044</ele><time>2021-08-28T03:07:30Z</time></trkpt><trkpt lat="35.4298710627682" lon="139.2396191640386"><ele>554.2951641744003</ele><time>2021-08-28T03:07:49Z</time></trkpt><trkpt lat="35.42978723608725" lon="139.23941261181147"><ele>554.702392552048</ele><time>2021-08-28T03:08:24Z</time></trkpt><trkpt lat="35.42960034913187" lon="139.23938688268746"><ele>545.1696716099977</ele><time>2021-08-28T03:09:23Z</time></trkpt><trkpt lat="35.42941681605654" lon="139.23933492496383"><ele>547.1892413627356</ele><time>2021-08-28T03:09:40Z</time></trkpt><trkpt lat="35.42930961593557" lon="139.23951396709396"><ele>541.4673826927319</ele><time>2021-08-28T03:09:55Z</time></trkpt><trkpt lat="35.42916786894124" lon="139.23965038551185"><ele>524.5908587025478</ele><time>2021-08-28T03:14:14Z</time></trkpt><trkpt lat="35.42903664000265" lon="139.23980259818438"><ele>519.4667544690892</ele><time>2021-08-28T03:14:49Z</time></trkpt><trkpt lat="35.428962642866374" lon="139.24000742375895"><ele>512.0063985409215</ele><time>2021-08-28T03:15:40Z</time></trkpt><trkpt lat="35.428858817124386" lon="139.2401996596403"><ele>507.46652235183865</ele><time>2021-08-28T03:16:10Z</time></trkpt><trkpt lat="35.42873909335037" lon="139.24036919044815"><ele>501.44577517639846</ele><time>2021-08-28T03:16:53Z</time></trkpt><trkpt lat="35.42870442955337" lon="139.24058775097416"><ele>497.06704299058765</ele><time>2021-08-28T03:17:27Z</time></trkpt><trkpt lat="35.42869996453437" lon="139.24081545192408"><ele>488.7697790414095</ele><time>2021-08-28T03:17:54Z</time></trkpt><trkpt lat="35.42874396251956" lon="139.24105518425986"><ele>485.6621035160497</ele><time>2021-08-28T03:18:20Z</time></trkpt><trkpt lat="35.42874079939058" lon="139.24128094956217"><ele>477.4147985149175</ele><time>2021-08-28T03:18:47Z</time></trkpt><trkpt lat="35.42872770396853" lon="139.2415062656486"><ele>473.3443867871538</ele><time>2021-08-28T03:19:11Z</time></trkpt><trkpt lat="35.42866410818174" lon="139.24171629660435"><ele>470.78376903384924</ele><time>2021-08-28T03:19:39Z</time></trkpt><trkpt lat="35.42863730448695" lon="139.24193639581011"><ele>466.504273602739</ele><time>2021-08-28T03:20:11Z</time></trkpt><trkpt lat="35.42859526189972" lon="139.24215895881815"><ele>464.2189651746303</ele><time>2021-08-28T03:20:34Z</time></trkpt><trkpt lat="35.428438246965094" lon="139.24228388872453"><ele>458.568712557666</ele><time>2021-08-28T03:20:54Z</time></trkpt><trkpt lat="35.42834887601463" lon="139.24248850019117"><ele>455.4522390216589</ele><time>2021-08-28T03:21:14Z</time></trkpt><trkpt lat="35.42819654446856" lon="139.2426091256185"><ele>453.3762587858364</ele><time>2021-08-28T03:21:39Z</time></trkpt><trkpt lat="35.42817144601845" lon="139.24283055240952"><ele>445.45436889491975</ele><time>2021-08-28T03:22:37Z</time></trkpt><trkpt lat="35.42809908364296" lon="139.24303297702204"><ele>440.3123945975676</ele><time>2021-08-28T03:23:06Z</time></trkpt><trkpt lat="35.42800331688276" lon="139.24322213126868"><ele>437.7195654474199</ele><time>2021-08-28T03:23:31Z</time></trkpt><trkpt lat="35.427980978989346" lon="139.24344281594176"><ele>432.8077832404524</ele><time>2021-08-28T03:24:18Z</time></trkpt><trkpt lat="35.427980070611014" lon="139.2436700336889"><ele>430.3127343747765</ele><time>2021-08-28T03:24:38Z</time></trkpt><trkpt lat="35.427865645268064" lon="139.24384086941535"><ele>426.15185388177633</ele><time>2021-08-28T03:25:03Z</time></trkpt><trkpt lat="35.42777589650061" lon="139.2440431424799"><ele>422.387643086724</ele><time>2021-08-28T03:25:29Z</time></trkpt><trkpt lat="35.427639391951004" lon="139.24419024159653"><ele>412.5704323435202</ele><time>2021-08-28T03:25:54Z</time></trkpt><trkpt lat="35.42758248461038" lon="139.2444083658263"><ele>404.3222420383245</ele><time>2021-08-28T03:26:25Z</time></trkpt><trkpt lat="35.427595271119465" lon="139.24463346317825"><ele>403.7714221691713</ele><time>2021-08-28T03:26:53Z</time></trkpt><trkpt lat="35.427514663545004" lon="139.24483726331653"><ele>396.69294704310596</ele><time>2021-08-28T03:27:22Z</time></trkpt><trkpt lat="35.42737732936883" lon="139.24498902650038"><ele>390.6867452869192</ele><time>2021-08-28T03:27:43Z</time></trkpt><trkpt lat="35.427240833957846" lon="139.24513810247836"><ele>388.1664322866127</ele><time>2021-08-28T03:28:11Z</time></trkpt><trkpt lat="35.427035857223785" lon="139.2456696283811"><ele>389.1658180700615</ele><time>2021-08-28T03:28:30Z</time></trkpt><trkpt lat="35.42708329675147" lon="139.24540113287017"><ele>387.8071234077215</ele><time>2021-08-28T03:28:33Z</time></trkpt><trkpt lat="35.42697354767098" lon="139.2455767660096"><ele>384.1227097371593</ele><time>2021-08-28T03:28:56Z</time></trkpt><trkpt lat="35.42688940097268" lon="139.24578830935258"><ele>380.1306454874575</ele><time>2021-08-28T03:29:15Z</time></trkpt><trkpt lat="35.42677623221218" lon="139.2459663051308"><ele>381.206150165759</ele><time>2021-08-28T03:29:37Z</time></trkpt><trkpt lat="35.4266390821135" lon="139.2461209995983"><ele>375.65020280051976</ele><time>2021-08-28T03:29:59Z</time></trkpt><trkpt lat="35.426474465396176" lon="139.24621862867593"><ele>379.73659299034625</ele><time>2021-08-28T03:30:20Z</time></trkpt><trkpt lat="35.426310826539066" lon="139.2463571837518"><ele>376.10502372216433</ele><time>2021-08-28T03:30:37Z</time></trkpt><trkpt lat="35.42614258692303" lon="139.2465050308511"><ele>365.9811271224171</ele><time>2021-08-28T03:31:17Z</time></trkpt><trkpt lat="35.42596158552689" lon="139.24649502553683"><ele>358.773649295792</ele><time>2021-08-28T03:31:35Z</time></trkpt><trkpt lat="35.42591134243923" lon="139.24670694819264"><ele>358.12386919837445</ele><time>2021-08-28T03:31:53Z</time></trkpt><trkpt lat="35.42575494720656" lon="139.24682291211684"><ele>351.82068340852857</ele><time>2021-08-28T03:32:15Z</time></trkpt><trkpt lat="35.42560381686248" lon="139.24695131555086"><ele>350.30173539556563</ele><time>2021-08-28T03:32:39Z</time></trkpt><trkpt lat="35.425481468273986" lon="139.24711316901215"><ele>350.5080049838871</ele><time>2021-08-28T03:33:05Z</time></trkpt><trkpt lat="35.42534259742163" lon="139.24725968619452"><ele>346.7654211279005</ele><time>2021-08-28T03:33:17Z</time></trkpt><trkpt lat="35.425189330257055" lon="139.24739362140923"><ele>346.1304102418944</ele><time>2021-08-28T03:33:37Z</time></trkpt><trkpt lat="35.425024492754645" lon="139.24750822019732"><ele>341.57535494863987</ele><time>2021-08-28T03:33:59Z</time></trkpt><trkpt lat="35.42489719863844" lon="139.24766566942242"><ele>338.0740626882762</ele><time>2021-08-28T03:34:15Z</time></trkpt><trkpt lat="35.42477741575801" lon="139.2478445554408"><ele>340.09785504918545</ele><time>2021-08-28T03:34:33Z</time></trkpt><trkpt lat="35.424684108869315" lon="139.24803939535272"><ele>331.06975514627993</ele><time>2021-08-28T03:34:53Z</time></trkpt><trkpt lat="35.424588050874746" lon="139.2482308903877"><ele>327.38647312577814</ele><time>2021-08-28T03:35:10Z</time></trkpt><trkpt lat="35.424560085414484" lon="139.24845272831712"><ele>323.5604301439598</ele><time>2021-08-28T03:35:26Z</time></trkpt><trkpt lat="35.42454421705492" lon="139.24867414949742"><ele>322.1061550229788</ele><time>2021-08-28T03:35:55Z</time></trkpt><trkpt lat="35.424523213789826" lon="139.24890323024655"><ele>320.85430140886456</ele><time>2021-08-28T03:36:20Z</time></trkpt><trkpt lat="35.424416498060616" lon="139.2490906035474"><ele>315.7534376112744</ele><time>2021-08-28T03:37:02Z</time></trkpt><trkpt lat="35.42417226713256" lon="139.24917352593127"><ele>313.4325333107263</ele><time>2021-08-28T03:37:27Z</time></trkpt><trkpt lat="35.423991155249276" lon="139.2492214155058"><ele>312.3766203355044</ele><time>2021-08-28T03:37:51Z</time></trkpt><trkpt lat="35.42422070183813" lon="139.24920199743661"><ele>312.61159243714064</ele><time>2021-08-28T03:37:58Z</time></trkpt><trkpt lat="35.42439805789934" lon="139.2491603996057"><ele>315.4461229974404</ele><time>2021-08-28T03:38:11Z</time></trkpt><trkpt lat="35.42447033431043" lon="139.24895579708152"><ele>319.19143392983824</ele><time>2021-08-28T03:38:39Z</time></trkpt><trkpt lat="35.42455711442621" lon="139.248760535732"><ele>317.67137697245926</ele><time>2021-08-28T03:39:38Z</time></trkpt><trkpt lat="35.424719274542795" lon="139.24887653395078"><ele>320.3592334119603</ele><time>2021-08-28T03:40:00Z</time></trkpt></trkseg></trk></gpx>