<?xml version='1.0' encoding='UTF-8'?><gpx creator="YAMAP - https://yamap.com" xsi:schemaLocation="http://www.topografix.com/GPX/1/1 http://www.topografix.com/GPX/1/1/gpx.xsd" version="1.1" xmlns="http://www.topografix.com/GPX/1/1" xmlns:xsi="http://www.w3.org/2001/XMLSchema-instance"><metadata><bounds maxlat="37.63399440199437" maxlon="140.32552694602364" minlat="37.61799886112547" minlon="140.2878500715256"/></metadata><trk><name>薬師岳・安達太良山</name><number>1</number><trkseg><trkpt lat="37.624175264345844" lon="140.31990683418286"><ele>1017.3313029594719</ele><time>2021-09-17T22:40:23Z</time></trkpt><trkpt lat="37.62431214091512" lon="140.31974526839076"><ele>1015.054851536639</ele><time>2021-09-17T22:40:38Z</time></trkpt><trkpt lat="37.6243113403207" lon="140.31951712601327"><ele>1013.9088496053591</ele><time>2021-09-17T22:40:53Z</time></trkpt><trkpt lat="37.624254470722285" lon="140.31929478331753"><ele>1018.325747561641</ele><time>2021-09-17T22:41:12Z</time></trkpt><trkpt lat="37.62422140936068" lon="140.31905837581382"><ele>1019.4280142523348</ele><time>2021-09-17T22:41:28Z</time></trkpt><trkpt lat="37.62420441594372" lon="140.31883082843325"><ele>1023.2997213415802</ele><time>2021-09-17T22:41:43Z</time></trkpt><trkpt lat="37.62417891625558" lon="140.31860586606277"><ele>1023.4186422880739</ele><time>2021-09-17T22:41:57Z</time></trkpt><trkpt lat="37.624145230704734" lon="140.31836879060037"><ele>1024.0244375644252</ele><time>2021-09-17T22:42:12Z</time></trkpt><trkpt lat="37.624112214937306" lon="140.31813182769545"><ele>1027.545415012166</ele><time>2021-09-17T22:42:27Z</time></trkpt><trkpt lat="37.6241072941373" lon="140.31789410241035"><ele>1028.4321911931038</ele><time>2021-09-17T22:42:42Z</time></trkpt><trkpt lat="37.62407122075586" lon="140.31766728124856"><ele>1034.4595123594627</ele><time>2021-09-17T22:42:58Z</time></trkpt><trkpt lat="37.62395653423683" lon="140.31748762567577"><ele>1034.0943590058014</ele><time>2021-09-17T22:43:24Z</time></trkpt><trkpt lat="37.62388377114024" lon="140.31727873215502"><ele>1035.6242924090475</ele><time>2021-09-17T22:43:46Z</time></trkpt><trkpt lat="37.62384763068488" lon="140.3170408796757"><ele>1037.980199673213</ele><time>2021-09-17T22:44:06Z</time></trkpt><trkpt lat="37.62384706871163" lon="140.31681009059974"><ele>1040.7387434756383</ele><time>2021-09-17T22:44:22Z</time></trkpt><trkpt lat="37.62383246716745" lon="140.316583243372"><ele>1044.9195256568491</ele><time>2021-09-17T22:44:38Z</time></trkpt><trkpt lat="37.623835111991355" lon="140.31635328658678"><ele>1047.1658761864528</ele><time>2021-09-17T22:44:57Z</time></trkpt><trkpt lat="37.623772269899646" lon="140.31613309874777"><ele>1052.7716352278367</ele><time>2021-09-17T22:45:21Z</time></trkpt><trkpt lat="37.62365963190623" lon="140.31595143066366"><ele>1057.2984477896243</ele><time>2021-09-17T22:45:46Z</time></trkpt><trkpt lat="37.62353553171286" lon="140.31576918000465"><ele>1060.6229431265965</ele><time>2021-09-17T22:46:10Z</time></trkpt><trkpt lat="37.623425543276184" lon="140.31558797337325"><ele>1067.8563952064142</ele><time>2021-09-17T22:46:30Z</time></trkpt><trkpt lat="37.623369638462506" lon="140.3153665559572"><ele>1071.0454729236662</ele><time>2021-09-17T22:46:51Z</time></trkpt><trkpt lat="37.62339699036404" lon="140.31513906372183"><ele>1073.64749192819</ele><time>2021-09-17T22:47:14Z</time></trkpt><trkpt lat="37.623521935986474" lon="140.31497400814044"><ele>1076.4932468570769</ele><time>2021-09-17T22:47:35Z</time></trkpt><trkpt lat="37.62351093411099" lon="140.3147326025968"><ele>1083.6010378487408</ele><time>2021-09-17T22:49:16Z</time></trkpt><trkpt lat="37.62343256800557" lon="140.31451929674324"><ele>1086.5607200572267</ele><time>2021-09-17T22:50:02Z</time></trkpt><trkpt lat="37.62337283036544" lon="140.31430205551698"><ele>1089.9589264690876</ele><time>2021-09-17T22:50:27Z</time></trkpt><trkpt lat="37.62336614104622" lon="140.3140690946291"><ele>1093.2690694890916</ele><time>2021-09-17T22:51:09Z</time></trkpt><trkpt lat="37.62334393234618" lon="140.31384081325297"><ele>1096.339459117502</ele><time>2021-09-17T22:51:33Z</time></trkpt><trkpt lat="37.623320510092164" lon="140.31361226547946"><ele>1101.7101297266781</ele><time>2021-09-17T22:52:07Z</time></trkpt><trkpt lat="37.62326412066481" lon="140.31339369660208"><ele>1106.9457261720672</ele><time>2021-09-17T22:52:38Z</time></trkpt><trkpt lat="37.62326905249635" lon="140.31316040737823"><ele>1111.4144468214363</ele><time>2021-09-17T22:53:06Z</time></trkpt><trkpt lat="37.623288071792295" lon="140.3129310838783"><ele>1116.6582723660395</ele><time>2021-09-17T22:53:30Z</time></trkpt><trkpt lat="37.62340674284233" lon="140.3127584399025"><ele>1123.9113194709644</ele><time>2021-09-17T22:54:00Z</time></trkpt><trkpt lat="37.62355061716745" lon="140.31260467982915"><ele>1131.2639483790845</ele><time>2021-09-17T22:54:27Z</time></trkpt><trkpt lat="37.62363799440939" lon="140.31239033343945"><ele>1135.529518877156</ele><time>2021-09-17T22:54:59Z</time></trkpt><trkpt lat="37.62361472233517" lon="140.31215753372004"><ele>1138.4574045883492</ele><time>2021-09-17T22:55:37Z</time></trkpt><trkpt lat="37.623674012393806" lon="140.31193671080067"><ele>1144.3478790158406</ele><time>2021-09-17T22:56:04Z</time></trkpt><trkpt lat="37.62377143528128" lon="140.3117377483252"><ele>1150.2749793278053</ele><time>2021-09-17T22:56:29Z</time></trkpt><trkpt lat="37.62380928566323" lon="140.31150987682247"><ele>1158.4315142882988</ele><time>2021-09-17T22:56:52Z</time></trkpt><trkpt lat="37.62392773769223" lon="140.311309544026"><ele>1163.8389933537692</ele><time>2021-09-17T22:57:28Z</time></trkpt><trkpt lat="37.623875566911444" lon="140.31109071759886"><ele>1169.4579164711758</ele><time>2021-09-17T22:58:06Z</time></trkpt><trkpt lat="37.623950631093614" lon="140.31088447610975"><ele>1179.0356982341036</ele><time>2021-09-17T23:01:12Z</time></trkpt><trkpt lat="37.62414799432771" lon="140.31086596054033"><ele>1190.171162508428</ele><time>2021-09-17T23:03:51Z</time></trkpt><trkpt lat="37.62429751342414" lon="140.31073675231858"><ele>1194.0816151238978</ele><time>2021-09-17T23:04:48Z</time></trkpt><trkpt lat="37.624441826265254" lon="140.31059922093752"><ele>1201.320391879417</ele><time>2021-09-17T23:05:58Z</time></trkpt><trkpt lat="37.62460543848191" lon="140.3104993797947"><ele>1208.5482444250956</ele><time>2021-09-17T23:07:12Z</time></trkpt><trkpt lat="37.6247519257497" lon="140.31035750041153"><ele>1213.3255556719378</ele><time>2021-09-17T23:07:45Z</time></trkpt><trkpt lat="37.62460394127478" lon="140.31020400181777"><ele>1218.4772332655266</ele><time>2021-09-17T23:09:00Z</time></trkpt><trkpt lat="37.62440288082048" lon="140.31018317664441"><ele>1221.7398980921134</ele><time>2021-09-17T23:10:06Z</time></trkpt><trkpt lat="37.624417593621615" lon="140.30995692574112"><ele>1232.0956243975088</ele><time>2021-09-17T23:15:17Z</time></trkpt><trkpt lat="37.624544550803655" lon="140.30977778211155"><ele>1239.0323451794684</ele><time>2021-09-17T23:16:36Z</time></trkpt><trkpt lat="37.62445350488426" lon="140.30957766534004"><ele>1245.3051447886974</ele><time>2021-09-17T23:17:46Z</time></trkpt><trkpt lat="37.62446292088687" lon="140.30931792510646"><ele>1253.2941864682361</ele><time>2021-09-17T23:20:08Z</time></trkpt><trkpt lat="37.624335706612996" lon="140.30915336063225"><ele>1258.4412865713239</ele><time>2021-09-17T23:20:53Z</time></trkpt><trkpt lat="37.624211124673145" lon="140.30897989799763"><ele>1264.70453167893</ele><time>2021-09-17T23:22:45Z</time></trkpt><trkpt lat="37.62421194389599" lon="140.3087469283201"><ele>1270.5333974203095</ele><time>2021-09-17T23:24:42Z</time></trkpt><trkpt lat="37.62409830634334" lon="140.30855717355192"><ele>1273.6992546394467</ele><time>2021-09-17T23:25:59Z</time></trkpt><trkpt lat="37.62398778614226" lon="140.3083749290426"><ele>1278.6906065884978</ele><time>2021-09-17T23:27:40Z</time></trkpt><trkpt lat="37.623884231058504" lon="140.30818264737493"><ele>1282.8406472355127</ele><time>2021-09-17T23:28:52Z</time></trkpt><trkpt lat="37.623740013693045" lon="140.30804096202453"><ele>1286.18192985747</ele><time>2021-09-17T23:30:06Z</time></trkpt><trkpt lat="37.62359311604481" lon="140.30790869232172"><ele>1288.6842703735456</ele><time>2021-09-17T23:33:21Z</time></trkpt><trkpt lat="37.62341857814499" lon="140.30782460826362"><ele>1292.141777265817</ele><time>2021-09-17T23:34:36Z</time></trkpt><trkpt lat="37.623236205327686" lon="140.3077923061914"><ele>1294.7607997423038</ele><time>2021-09-17T23:36:12Z</time></trkpt><trkpt lat="37.62305540674933" lon="140.30774261628855"><ele>1295.5714431768283</ele><time>2021-09-17T23:37:53Z</time></trkpt><trkpt lat="37.6228838140319" lon="140.30781627714933"><ele>1298.6769303325564</ele><time>2021-09-17T23:39:18Z</time></trkpt><trkpt lat="37.62269931365383" lon="140.30780140884633"><ele>1299.1038753753528</ele><time>2021-09-17T23:39:48Z</time></trkpt><trkpt lat="37.62251567233779" lon="140.3078125004572"><ele>1302.7631524596363</ele><time>2021-09-17T23:40:16Z</time></trkpt><trkpt lat="37.62233986466261" lon="140.30790639288006"><ele>1306.101945489645</ele><time>2021-09-17T23:40:46Z</time></trkpt><trkpt lat="37.62221072482421" lon="140.3080816745486"><ele>1309.409241273068</ele><time>2021-09-17T23:41:16Z</time></trkpt><trkpt lat="37.622074005979265" lon="140.30823078836255"><ele>1312.0544619830325</ele><time>2021-09-17T23:41:45Z</time></trkpt><trkpt lat="37.62195854774292" lon="140.30842236682284"><ele>1314.9997987784445</ele><time>2021-09-17T23:42:13Z</time></trkpt><trkpt lat="37.621862621026295" lon="140.30861530296227"><ele>1315.7145599992946</ele><time>2021-09-17T23:42:40Z</time></trkpt><trkpt lat="37.621789727640646" lon="140.30882392854974"><ele>1318.9360070312396</ele><time>2021-09-17T23:43:14Z</time></trkpt><trkpt lat="37.621690866345126" lon="140.30901769199608"><ele>1320.181012420915</ele><time>2021-09-17T23:43:39Z</time></trkpt><trkpt lat="37.62150487610219" lon="140.30908355892706"><ele>1324.043819932267</ele><time>2021-09-17T23:44:13Z</time></trkpt><trkpt lat="37.62132642848896" lon="140.3091206861532"><ele>1332.3625507866964</ele><time>2021-09-17T23:44:56Z</time></trkpt><trkpt lat="37.62116342097496" lon="140.3090216393493"><ele>1341.1871971627697</ele><time>2021-09-17T23:45:35Z</time></trkpt><trkpt lat="37.62097966069731" lon="140.30897231895085"><ele>1344.828710832633</ele><time>2021-09-17T23:46:01Z</time></trkpt><trkpt lat="37.62082089382817" lon="140.30884785841067"><ele>1351.9719070186839</ele><time>2021-09-17T23:46:34Z</time></trkpt><trkpt lat="37.62063755745298" lon="140.3088578594825"><ele>1356.9016482476145</ele><time>2021-09-17T23:47:46Z</time></trkpt><trkpt lat="37.62053440590289" lon="140.30866474543012"><ele>1357.2172431536019</ele><time>2021-09-17T23:48:14Z</time></trkpt><trkpt lat="37.62041892736802" lon="140.30847146102602"><ele>1359.522421836853</ele><time>2021-09-17T23:52:56Z</time></trkpt><trkpt lat="37.620360402114805" lon="140.30825535217656"><ele>1359.9540296113119</ele><time>2021-09-17T23:53:16Z</time></trkpt><trkpt lat="37.62022328555959" lon="140.30810151539393"><ele>1362.0030727013946</ele><time>2021-09-17T23:53:37Z</time></trkpt><trkpt lat="37.62008238504668" lon="140.30794514138714"><ele>1364.3659389382228</ele><time>2021-09-17T23:54:00Z</time></trkpt><trkpt lat="37.61991062196023" lon="140.30786174170433"><ele>1367.6364536350593</ele><time>2021-09-17T23:54:17Z</time></trkpt><trkpt lat="37.61974875457897" lon="140.307733623842"><ele>1366.6539957523346</ele><time>2021-09-17T23:54:43Z</time></trkpt><trkpt lat="37.61976016181328" lon="140.30750525351567"><ele>1368.588910030201</ele><time>2021-09-17T23:54:56Z</time></trkpt><trkpt lat="37.61982531083541" lon="140.30729064394407"><ele>1369.0006347587332</ele><time>2021-09-17T23:55:10Z</time></trkpt><trkpt lat="37.61988996447325" lon="140.3070676767941"><ele>1370.0664152940735</ele><time>2021-09-17T23:55:26Z</time></trkpt><trkpt lat="37.61972860735485" lon="140.30693624625724"><ele>1369.6973805548623</ele><time>2021-09-17T23:55:43Z</time></trkpt><trkpt lat="37.619603730504345" lon="140.30676959762204"><ele>1373.0408486584201</ele><time>2021-09-17T23:55:59Z</time></trkpt><trkpt lat="37.61951592285705" lon="140.30654965441718"><ele>1375.291676783003</ele><time>2021-09-17T23:56:19Z</time></trkpt><trkpt lat="37.61941813495357" lon="140.30635159682677"><ele>1379.7629933468997</ele><time>2021-09-17T23:56:36Z</time></trkpt><trkpt lat="37.619412522164616" lon="140.30611553636462"><ele>1381.4290390592068</ele><time>2021-09-17T23:56:56Z</time></trkpt><trkpt lat="37.619498210410484" lon="140.3059125953372"><ele>1382.975359567441</ele><time>2021-09-17T23:57:13Z</time></trkpt><trkpt lat="37.619499735693026" lon="140.30568326089255"><ele>1384.4183669611812</ele><time>2021-09-17T23:57:31Z</time></trkpt><trkpt lat="37.619536889063646" lon="140.30545496170717"><ele>1389.9554147692397</ele><time>2021-09-17T23:57:49Z</time></trkpt><trkpt lat="37.61965826279324" lon="140.30528035275609"><ele>1388.9750758251175</ele><time>2021-09-17T23:58:04Z</time></trkpt><trkpt lat="37.619730406585894" lon="140.30506161338303"><ele>1387.662004536949</ele><time>2021-09-17T23:58:23Z</time></trkpt><trkpt lat="37.61972086915574" lon="140.30482924682877"><ele>1390.637702966109</ele><time>2021-09-17T23:59:20Z</time></trkpt><trkpt lat="37.61966212690477" lon="140.30461446009969"><ele>1387.8500087354332</ele><time>2021-09-17T23:59:34Z</time></trkpt><trkpt lat="37.619652629101836" lon="140.3043795266985"><ele>1386.4486659299582</ele><time>2021-09-17T23:59:49Z</time></trkpt><trkpt lat="37.61969788678628" lon="140.30415475008292"><ele>1386.9292520368472</ele><time>2021-09-18T00:00:04Z</time></trkpt><trkpt lat="37.619556330259094" lon="140.30401141647485"><ele>1389.255030805245</ele><time>2021-09-18T00:00:20Z</time></trkpt><trkpt lat="37.61956139618451" lon="140.30378294987878"><ele>1389.2307555871084</ele><time>2021-09-18T00:00:45Z</time></trkpt><trkpt lat="37.61956287711809" lon="140.303538851637"><ele>1389.2081415150315</ele><time>2021-09-18T00:01:11Z</time></trkpt><trkpt lat="37.61959022362179" lon="140.30330394843222"><ele>1388.3631261102855</ele><time>2021-09-18T00:01:35Z</time></trkpt><trkpt lat="37.61962212866703" lon="140.30307815437618"><ele>1399.0179831702262</ele><time>2021-09-18T00:01:58Z</time></trkpt><trkpt lat="37.619668635210175" lon="140.30285489056988"><ele>1398.9043044717982</ele><time>2021-09-18T00:02:29Z</time></trkpt><trkpt lat="37.61963928110255" lon="140.3026267936617"><ele>1401.5940151643008</ele><time>2021-09-18T00:02:57Z</time></trkpt><trkpt lat="37.61954921357352" lon="140.3024039912312"><ele>1406.6931634033099</ele><time>2021-09-18T00:03:32Z</time></trkpt><trkpt lat="37.619570977215474" lon="140.30215983622745"><ele>1409.773037715815</ele><time>2021-09-18T00:04:08Z</time></trkpt><trkpt lat="37.61952874039462" lon="140.3019393603667"><ele>1410.882753864862</ele><time>2021-09-18T00:04:29Z</time></trkpt><trkpt lat="37.61951943783038" lon="140.30170350822752"><ele>1414.5611246675253</ele><time>2021-09-18T00:04:52Z</time></trkpt><trkpt lat="37.61953216148356" lon="140.3014740844752"><ele>1413.2969530187547</ele><time>2021-09-18T00:05:15Z</time></trkpt><trkpt lat="37.61949957165257" lon="140.3012423498603"><ele>1421.71369590424</ele><time>2021-09-18T00:05:45Z</time></trkpt><trkpt lat="37.619438069549155" lon="140.30101978356842"><ele>1425.7496384317055</ele><time>2021-09-18T00:06:15Z</time></trkpt><trkpt lat="37.619467839121214" lon="140.3007892753272"><ele>1430.0677371462807</ele><time>2021-09-18T00:06:46Z</time></trkpt><trkpt lat="37.61950866200495" lon="140.30056336618537"><ele>1431.3469723360613</ele><time>2021-09-18T00:07:11Z</time></trkpt><trkpt lat="37.61959873914305" lon="140.30036330220688"><ele>1434.5431932071224</ele><time>2021-09-18T00:07:33Z</time></trkpt><trkpt lat="37.61970690283504" lon="140.30017760974437"><ele>1438.0786770451814</ele><time>2021-09-18T00:07:54Z</time></trkpt><trkpt lat="37.619814640486936" lon="140.29999308290098"><ele>1440.6765343910083</ele><time>2021-09-18T00:08:22Z</time></trkpt><trkpt lat="37.61992941650888" lon="140.29980988124893"><ele>1443.7599900336936</ele><time>2021-09-18T00:08:46Z</time></trkpt><trkpt lat="37.61996220974434" lon="140.2995853094077"><ele>1447.9947904087603</ele><time>2021-09-18T00:09:22Z</time></trkpt><trkpt lat="37.619888259342524" lon="140.29936450504482"><ele>1449.6496953442693</ele><time>2021-09-18T00:09:54Z</time></trkpt><trkpt lat="37.61978291716471" lon="140.29917931029388"><ele>1456.446031213738</ele><time>2021-09-18T00:10:29Z</time></trkpt><trkpt lat="37.61964636224937" lon="140.2990197383101"><ele>1461.1725705685094</ele><time>2021-09-18T00:10:56Z</time></trkpt><trkpt lat="37.61952758342875" lon="140.29884310420613"><ele>1468.5138248326257</ele><time>2021-09-18T00:11:33Z</time></trkpt><trkpt lat="37.61945457552308" lon="140.29862505912953"><ele>1472.6136868540198</ele><time>2021-09-18T00:12:05Z</time></trkpt><trkpt lat="37.619371382692165" lon="140.29841618926613"><ele>1474.8753004940227</ele><time>2021-09-18T00:12:35Z</time></trkpt><trkpt lat="37.619235929516805" lon="140.2982545509556"><ele>1480.247455008328</ele><time>2021-09-18T00:13:03Z</time></trkpt><trkpt lat="37.61910719021119" lon="140.2980877179302"><ele>1478.7780635850504</ele><time>2021-09-18T00:13:28Z</time></trkpt><trkpt lat="37.61901602723421" lon="140.29788817832508"><ele>1479.9200605330989</ele><time>2021-09-18T00:13:57Z</time></trkpt><trkpt lat="37.618942870044854" lon="140.29767893374617"><ele>1480.1160124754533</ele><time>2021-09-18T00:14:20Z</time></trkpt><trkpt lat="37.61886257839348" lon="140.29746211617234"><ele>1480.2959276279435</ele><time>2021-09-18T00:14:48Z</time></trkpt><trkpt lat="37.618770132081764" lon="140.29725776139455"><ele>1482.3959566028789</ele><time>2021-09-18T00:15:15Z</time></trkpt><trkpt lat="37.61860689378836" lon="140.29715548952814"><ele>1487.6293692346662</ele><time>2021-09-18T00:15:49Z</time></trkpt><trkpt lat="37.61853857798892" lon="140.29694345207307"><ele>1492.801288753748</ele><time>2021-09-18T00:16:15Z</time></trkpt><trkpt lat="37.61850965732056" lon="140.29671622011386"><ele>1498.2858312269673</ele><time>2021-09-18T00:16:53Z</time></trkpt><trkpt lat="37.618422247638065" lon="140.296510220336"><ele>1503.558546452783</ele><time>2021-09-18T00:17:22Z</time></trkpt><trkpt lat="37.61838342742877" lon="140.29628432717658"><ele>1505.600034629926</ele><time>2021-09-18T00:17:50Z</time></trkpt><trkpt lat="37.61831826358167" lon="140.2960687952085"><ele>1508.9642150271684</ele><time>2021-09-18T00:19:22Z</time></trkpt><trkpt lat="37.61821554466958" lon="140.29587041486573"><ele>1510.0399827351794</ele><time>2021-09-18T00:22:34Z</time></trkpt><trkpt lat="37.61810887996729" lon="140.295676442956"><ele>1514.606593602337</ele><time>2021-09-18T00:24:17Z</time></trkpt><trkpt lat="37.61801293394807" lon="140.29548376711665"><ele>1518.9252667063847</ele><time>2021-09-18T00:26:14Z</time></trkpt><trkpt lat="37.61799886112547" lon="140.295257073523"><ele>1520.0150739206001</ele><time>2021-09-18T00:27:00Z</time></trkpt><trkpt lat="37.61802143938244" lon="140.2950292543154"><ele>1522.3670902419835</ele><time>2021-09-18T00:27:34Z</time></trkpt><trkpt lat="37.61807937243779" lon="140.29480411581275"><ele>1524.025818691589</ele><time>2021-09-18T00:28:05Z</time></trkpt><trkpt lat="37.61808525297381" lon="140.29457594729115"><ele>1525.6926301997155</ele><time>2021-09-18T00:28:58Z</time></trkpt><trkpt lat="37.618146309096254" lon="140.2943529569581"><ele>1527.3985170396045</ele><time>2021-09-18T00:29:23Z</time></trkpt><trkpt lat="37.61826898350083" lon="140.2941783197327"><ele>1536.9700497286394</ele><time>2021-09-18T00:29:52Z</time></trkpt><trkpt lat="37.61836356593266" lon="140.2939832950077"><ele>1544.120387447998</ele><time>2021-09-18T00:31:53Z</time></trkpt><trkpt lat="37.61838512327342" lon="140.2937570658665"><ele>1546.0158473327756</ele><time>2021-09-18T00:32:31Z</time></trkpt><trkpt lat="37.618451114571094" lon="140.29353612130353"><ele>1554.4713536715135</ele><time>2021-09-18T00:33:30Z</time></trkpt><trkpt lat="37.618595032307105" lon="140.29339828428905"><ele>1557.0895887343213</ele><time>2021-09-18T00:34:23Z</time></trkpt><trkpt lat="37.61878204334516" lon="140.29334359315135"><ele>1562.1577141722664</ele><time>2021-09-18T00:34:49Z</time></trkpt><trkpt lat="37.618949742683384" lon="140.29323685776805"><ele>1565.792911021039</ele><time>2021-09-18T00:35:17Z</time></trkpt><trkpt lat="37.61912922896728" lon="140.29320642882954"><ele>1569.8214069614187</ele><time>2021-09-18T00:35:42Z</time></trkpt><trkpt lat="37.61928446862216" lon="140.29308952359435"><ele>1571.1534575568512</ele><time>2021-09-18T00:36:17Z</time></trkpt><trkpt lat="37.61944065934319" lon="140.29294559796688"><ele>1577.9175045946613</ele><time>2021-09-18T00:36:58Z</time></trkpt><trkpt lat="37.619597655674575" lon="140.29280990759963"><ele>1579.812970998697</ele><time>2021-09-18T00:37:26Z</time></trkpt><trkpt lat="37.61972498728838" lon="140.2926456995214"><ele>1581.406848902814</ele><time>2021-09-18T00:38:06Z</time></trkpt><trkpt lat="37.61980766419883" lon="140.29244081095095"><ele>1584.9904186027125</ele><time>2021-09-18T00:38:44Z</time></trkpt><trkpt lat="37.619897867059066" lon="140.2922382756857"><ele>1589.50772881601</ele><time>2021-09-18T00:39:47Z</time></trkpt><trkpt lat="37.61999111741332" lon="140.29203940477282"><ele>1595.0774384541437</ele><time>2021-09-18T00:40:03Z</time></trkpt><trkpt lat="37.62005746478224" lon="140.2918215702607"><ele>1601.8437355216593</ele><time>2021-09-18T00:40:57Z</time></trkpt><trkpt lat="37.620195492736364" lon="140.291662886728"><ele>1608.9476545238867</ele><time>2021-09-18T00:41:30Z</time></trkpt><trkpt lat="37.620330266269235" lon="140.2915060854872"><ele>1610.4827118124813</ele><time>2021-09-18T00:41:54Z</time></trkpt><trkpt lat="37.62050035401704" lon="140.29141612348064"><ele>1612.6959431981668</ele><time>2021-09-18T00:42:12Z</time></trkpt><trkpt lat="37.62066376405903" lon="140.29132028833334"><ele>1615.5325043024495</ele><time>2021-09-18T00:42:31Z</time></trkpt><trkpt lat="37.620824424848045" lon="140.29120362847976"><ele>1617.5958376582712</ele><time>2021-09-18T00:43:09Z</time></trkpt><trkpt lat="37.621014594377726" lon="140.29119106321664"><ele>1618.2159693669528</ele><time>2021-09-18T00:43:27Z</time></trkpt><trkpt lat="37.621190093304016" lon="140.29111899998156"><ele>1619.2602698458359</ele><time>2021-09-18T00:43:47Z</time></trkpt><trkpt lat="37.62131212520768" lon="140.29094721410377"><ele>1620.0970027409494</ele><time>2021-09-18T00:44:49Z</time></trkpt><trkpt lat="37.62140503645555" lon="140.29075263154098"><ele>1624.5370696876198</ele><time>2021-09-18T00:45:23Z</time></trkpt><trkpt lat="37.621366607717526" lon="140.2905312323798"><ele>1630.2734335074201</ele><time>2021-09-18T00:46:05Z</time></trkpt><trkpt lat="37.62138358531343" lon="140.29030468975267"><ele>1634.4539235774428</ele><time>2021-09-18T00:46:40Z</time></trkpt><trkpt lat="37.62134454872932" lon="140.29008198593783"><ele>1638.535931990482</ele><time>2021-09-18T00:47:04Z</time></trkpt><trkpt lat="37.62133768609148" lon="140.28985507688276"><ele>1643.6763466140255</ele><time>2021-09-18T00:47:38Z</time></trkpt><trkpt lat="37.6213135266095" lon="140.2896239244909"><ele>1650.1566895414144</ele><time>2021-09-18T00:48:11Z</time></trkpt><trkpt lat="37.62125969971893" lon="140.2893967959807"><ele>1653.3667659154162</ele><time>2021-09-18T00:48:37Z</time></trkpt><trkpt lat="37.62120053405401" lon="140.28917762151983"><ele>1659.0446247765794</ele><time>2021-09-18T00:49:09Z</time></trkpt><trkpt lat="37.62111726871715" lon="140.28895513484144"><ele>1664.3622203981504</ele><time>2021-09-18T00:49:47Z</time></trkpt><trkpt lat="37.621026162755186" lon="140.2887552083559"><ele>1669.8630028525367</ele><time>2021-09-18T00:50:18Z</time></trkpt><trkpt lat="37.621020074836665" lon="140.28851635082083"><ele>1676.6227182904258</ele><time>2021-09-18T00:50:46Z</time></trkpt><trkpt lat="37.62102871290302" lon="140.28828429350008"><ele>1677.4657480372116</ele><time>2021-09-18T00:51:21Z</time></trkpt><trkpt lat="37.621014510624335" lon="140.2880482948563"><ele>1684.393961247988</ele><time>2021-09-18T00:52:08Z</time></trkpt><trkpt lat="37.620919580677" lon="140.2878500715256"><ele>1685.1215850813314</ele><time>2021-09-18T00:52:51Z</time></trkpt><trkpt lat="37.62109223715303" lon="140.28793078721364"><ele>1694.3122158357874</ele><time>2021-09-18T00:53:58Z</time></trkpt><trkpt lat="37.62121436216647" lon="140.28810126180534"><ele>1706.1652347389609</ele><time>2021-09-18T01:12:26Z</time></trkpt><trkpt lat="37.62112061787409" lon="140.288322210549"><ele>1684.0307564949617</ele><time>2021-09-18T01:13:08Z</time></trkpt><trkpt lat="37.6210372176385" lon="140.28854001900226"><ele>1682.5925532570109</ele><time>2021-09-18T01:13:31Z</time></trkpt><trkpt lat="37.621017569365435" lon="140.28877629606268"><ele>1679.2807760089636</ele><time>2021-09-18T01:13:51Z</time></trkpt><trkpt lat="37.62109677893492" lon="140.28899475673353"><ele>1673.3108182158321</ele><time>2021-09-18T01:14:10Z</time></trkpt><trkpt lat="37.62122475295334" lon="140.289189027138"><ele>1666.5710519356653</ele><time>2021-09-18T01:14:40Z</time></trkpt><trkpt lat="37.62140056667335" lon="140.28913791669154"><ele>1652.4538693558425</ele><time>2021-09-18T01:17:52Z</time></trkpt><trkpt lat="37.621580731992" lon="140.28908950195174"><ele>1644.4335600417107</ele><time>2021-09-18T01:18:15Z</time></trkpt><trkpt lat="37.62175830900191" lon="140.28904566468137"><ele>1636.429614691995</ele><time>2021-09-18T01:18:54Z</time></trkpt><trkpt lat="37.62192800378221" lon="140.288958328258"><ele>1630.4568980643526</ele><time>2021-09-18T01:19:16Z</time></trkpt><trkpt lat="37.622074092962734" lon="140.28882254042298"><ele>1625.6137042809278</ele><time>2021-09-18T01:19:34Z</time></trkpt><trkpt lat="37.622244782827124" lon="140.2887341732875"><ele>1619.3679147390649</ele><time>2021-09-18T01:19:55Z</time></trkpt><trkpt lat="37.62241827545217" lon="140.28865329522384"><ele>1610.7893412159756</ele><time>2021-09-18T01:20:20Z</time></trkpt><trkpt lat="37.62259835118135" lon="140.28866682403864"><ele>1607.2032200954854</ele><time>2021-09-18T01:20:49Z</time></trkpt><trkpt lat="37.62277850527165" lon="140.28869712051124"><ele>1600.9649155484512</ele><time>2021-09-18T01:21:13Z</time></trkpt><trkpt lat="37.622952844679126" lon="140.2887631778481"><ele>1594.8756233677268</ele><time>2021-09-18T01:21:36Z</time></trkpt><trkpt lat="37.623129031635166" lon="140.2888372115559"><ele>1588.7961613507941</ele><time>2021-09-18T01:22:29Z</time></trkpt><trkpt lat="37.62331542774353" lon="140.2888952557532"><ele>1584.853229898028</ele><time>2021-09-18T01:22:36Z</time></trkpt><trkpt lat="37.62349669302604" lon="140.2889133494346"><ele>1583.8599122120067</ele><time>2021-09-18T01:22:43Z</time></trkpt><trkpt lat="37.62370180937409" lon="140.28891296954083"><ele>1583.2968488289043</ele><time>2021-09-18T01:22:58Z</time></trkpt><trkpt lat="37.62388445598692" lon="140.2888902355905"><ele>1579.6656846571714</ele><time>2021-09-18T01:23:15Z</time></trkpt><trkpt lat="37.624068112272454" lon="140.28886891931197"><ele>1574.2038223696873</ele><time>2021-09-18T01:23:35Z</time></trkpt><trkpt lat="37.62425250220951" lon="140.28884109476374"><ele>1572.2988751092926</ele><time>2021-09-18T01:23:54Z</time></trkpt><trkpt lat="37.624434548933124" lon="140.28883419102004"><ele>1566.6110973730683</ele><time>2021-09-18T01:24:26Z</time></trkpt><trkpt lat="37.62461651905022" lon="140.28883527460513"><ele>1562.563929908909</ele><time>2021-09-18T01:25:20Z</time></trkpt><trkpt lat="37.6248024167028" lon="140.28885862349586"><ele>1556.6776574021205</ele><time>2021-09-18T01:25:41Z</time></trkpt><trkpt lat="37.62500715194539" lon="140.28886417083115"><ele>1551.6052130069584</ele><time>2021-09-18T01:26:09Z</time></trkpt><trkpt lat="37.625192492475506" lon="140.28889866089364"><ele>1544.3967634886503</ele><time>2021-09-18T01:26:49Z</time></trkpt><trkpt lat="37.62532745784209" lon="140.28905180622644"><ele>1541.983951200731</ele><time>2021-09-18T01:27:34Z</time></trkpt><trkpt lat="37.62536626883019" lon="140.289082227235"><ele>1541.5128015736118</ele><time>2021-09-18T01:27:48Z</time></trkpt><trkpt lat="37.62539052858145" lon="140.2893204278198"><ele>1540.9571352591738</ele><time>2021-09-18T01:29:09Z</time></trkpt><trkpt lat="37.62547651409863" lon="140.28955795239128"><ele>1539.5435532042757</ele><time>2021-09-18T01:29:29Z</time></trkpt><trkpt lat="37.62550685697863" lon="140.2897852970244"><ele>1539.0163303092122</ele><time>2021-09-18T01:29:52Z</time></trkpt><trkpt lat="37.625606717840434" lon="140.28997775326349"><ele>1541.3087011864409</ele><time>2021-09-18T01:30:10Z</time></trkpt><trkpt lat="37.62571670468566" lon="140.29017553520876"><ele>1546.364514642395</ele><time>2021-09-18T01:30:28Z</time></trkpt><trkpt lat="37.62585698169504" lon="140.29033877471082"><ele>1549.3364853598177</ele><time>2021-09-18T01:30:44Z</time></trkpt><trkpt lat="37.62601603643086" lon="140.29046429177652"><ele>1545.4601533971727</ele><time>2021-09-18T01:31:10Z</time></trkpt><trkpt lat="37.626169718269885" lon="140.29059747683073"><ele>1550.166417418979</ele><time>2021-09-18T01:31:33Z</time></trkpt><trkpt lat="37.62631016985851" lon="140.2907529410376"><ele>1540.2637249790132</ele><time>2021-09-18T01:31:53Z</time></trkpt><trkpt lat="37.62647659331189" lon="140.29086436802015"><ele>1534.2525805663317</ele><time>2021-09-18T01:32:19Z</time></trkpt><trkpt lat="37.6266141522" lon="140.29101429188592"><ele>1527.2079990888014</ele><time>2021-09-18T01:32:45Z</time></trkpt><trkpt lat="37.62677053854053" lon="140.29114380203274"><ele>1520.4574922407046</ele><time>2021-09-18T01:33:34Z</time></trkpt><trkpt lat="37.626926242397" lon="140.29126143286717"><ele>1520.6926909098402</ele><time>2021-09-18T01:33:45Z</time></trkpt><trkpt lat="37.62701664001846" lon="140.29147168062104"><ele>1515.300045476295</ele><time>2021-09-18T01:34:23Z</time></trkpt><trkpt lat="37.62709667400528" lon="140.29167973281412"><ele>1511.3807123275474</ele><time>2021-09-18T01:34:41Z</time></trkpt><trkpt lat="37.6272101368761" lon="140.29185611575508"><ele>1505.6791435424238</ele><time>2021-09-18T01:35:03Z</time></trkpt><trkpt lat="37.627371152004066" lon="140.29200109314291"><ele>1508.0213257102296</ele><time>2021-09-18T01:35:22Z</time></trkpt><trkpt lat="37.62754242845147" lon="140.29207622330446"><ele>1503.026267291978</ele><time>2021-09-18T01:35:44Z</time></trkpt><trkpt lat="37.6276970062351" lon="140.29221452851067"><ele>1495.6625027190894</ele><time>2021-09-18T01:36:14Z</time></trkpt><trkpt lat="37.62783911670578" lon="140.2923719660574"><ele>1486.6252403045073</ele><time>2021-09-18T01:36:42Z</time></trkpt><trkpt lat="37.62793767469256" lon="140.2925653221715"><ele>1481.6466968441382</ele><time>2021-09-18T01:37:05Z</time></trkpt><trkpt lat="37.62798074599286" lon="140.29278556359154"><ele>1482.495045534335</ele><time>2021-09-18T01:37:23Z</time></trkpt><trkpt lat="37.628009843330474" lon="140.29301055267226"><ele>1478.2751444363967</ele><time>2021-09-18T01:37:46Z</time></trkpt><trkpt lat="37.62801070889023" lon="140.29324072014262"><ele>1477.1324332747608</ele><time>2021-09-18T01:38:06Z</time></trkpt><trkpt lat="37.62815707635131" lon="140.2933774608525"><ele>1473.9795498633757</ele><time>2021-09-18T01:38:37Z</time></trkpt><trkpt lat="37.62828477426793" lon="140.29356478610248"><ele>1470.523647860624</ele><time>2021-09-18T01:39:05Z</time></trkpt><trkpt lat="37.6284244341865" lon="140.2937191866467"><ele>1460.8299720529467</ele><time>2021-09-18T01:39:48Z</time></trkpt><trkpt lat="37.62858062366371" lon="140.29383234980588"><ele>1459.0789672303945</ele><time>2021-09-18T01:40:09Z</time></trkpt><trkpt lat="37.62876392574143" lon="140.29388751553913"><ele>1455.4525491464883</ele><time>2021-09-18T01:40:38Z</time></trkpt><trkpt lat="37.628946534575135" lon="140.2939156878477"><ele>1452.6277986643836</ele><time>2021-09-18T01:41:03Z</time></trkpt><trkpt lat="37.629133288041125" lon="140.2939151128801"><ele>1450.7122304299846</ele><time>2021-09-18T01:41:26Z</time></trkpt><trkpt lat="37.62933081996143" lon="140.29398878732454"><ele>1449.3062264313921</ele><time>2021-09-18T01:41:52Z</time></trkpt><trkpt lat="37.62950517458479" lon="140.2940849302945"><ele>1446.650296971202</ele><time>2021-09-18T01:42:17Z</time></trkpt><trkpt lat="37.6296609175838" lon="140.2942278606831"><ele>1446.381504965946</ele><time>2021-09-18T01:42:41Z</time></trkpt><trkpt lat="37.62979740775126" lon="140.2943821506099"><ele>1443.180923430249</ele><time>2021-09-18T01:43:06Z</time></trkpt><trkpt lat="37.62993013824573" lon="140.29455552996706"><ele>1442.3526824591681</ele><time>2021-09-18T01:43:30Z</time></trkpt><trkpt lat="37.63005022076104" lon="140.29472598215952"><ele>1437.8356520142406</ele><time>2021-09-18T01:43:58Z</time></trkpt><trkpt lat="37.63015113344068" lon="140.29491407662135"><ele>1434.59600905329</ele><time>2021-09-18T01:44:23Z</time></trkpt><trkpt lat="37.63024126247442" lon="140.2951188901981"><ele>1430.4485328476876</ele><time>2021-09-18T01:44:45Z</time></trkpt><trkpt lat="37.63037247583996" lon="140.2952826912364"><ele>1429.591255582869</ele><time>2021-09-18T01:45:02Z</time></trkpt><trkpt lat="37.63049269684377" lon="140.2954576577063"><ele>1429.2346249548718</ele><time>2021-09-18T01:45:21Z</time></trkpt><trkpt lat="37.63060951881559" lon="140.29564315917557"><ele>1427.1102365544066</ele><time>2021-09-18T01:45:44Z</time></trkpt><trkpt lat="37.63072821113476" lon="140.2958200568043"><ele>1423.55300254561</ele><time>2021-09-18T01:46:05Z</time></trkpt><trkpt lat="37.63077407153971" lon="140.29605212668946"><ele>1423.5469081867486</ele><time>2021-09-18T01:46:22Z</time></trkpt><trkpt lat="37.630905834449145" lon="140.2962181666667"><ele>1423.1768202083185</ele><time>2021-09-18T01:46:49Z</time></trkpt><trkpt lat="37.63092231793221" lon="140.29645678005207"><ele>1420.6401986097917</ele><time>2021-09-18T01:47:08Z</time></trkpt><trkpt lat="37.63097279775829" lon="140.29669304485893"><ele>1419.613569748588</ele><time>2021-09-18T01:47:33Z</time></trkpt><trkpt lat="37.630989789776685" lon="140.2969189549168"><ele>1416.4572835201398</ele><time>2021-09-18T01:48:09Z</time></trkpt><trkpt lat="37.630948906871765" lon="140.29714065508168"><ele>1414.2534724036232</ele><time>2021-09-18T01:48:34Z</time></trkpt><trkpt lat="37.630955319594904" lon="140.29737107307685"><ele>1417.0736163444817</ele><time>2021-09-18T01:49:17Z</time></trkpt><trkpt lat="37.630961561658864" lon="140.29760523031192"><ele>1410.0981417773291</ele><time>2021-09-18T01:49:53Z</time></trkpt><trkpt lat="37.63102763870045" lon="140.2978248685969"><ele>1404.4221834251657</ele><time>2021-09-18T01:50:25Z</time></trkpt><trkpt lat="37.63109799543684" lon="140.2980460343256"><ele>1399.627420263365</ele><time>2021-09-18T01:51:31Z</time></trkpt><trkpt lat="37.63115915931334" lon="140.29826356521133"><ele>1396.198508810252</ele><time>2021-09-18T01:51:55Z</time></trkpt><trkpt lat="37.631229477476914" lon="140.29847660307541"><ele>1393.5977506693453</ele><time>2021-09-18T01:52:29Z</time></trkpt><trkpt lat="37.631226282485315" lon="140.29871519055843"><ele>1394.1369971334934</ele><time>2021-09-18T01:53:19Z</time></trkpt><trkpt lat="37.631272210877434" lon="140.29894943638732"><ele>1390.862326216884</ele><time>2021-09-18T01:53:52Z</time></trkpt><trkpt lat="37.63130377079861" lon="140.29917629469946"><ele>1388.9516728129238</ele><time>2021-09-18T01:54:29Z</time></trkpt><trkpt lat="37.631344482076635" lon="140.2994042185396"><ele>1390.4396374356002</ele><time>2021-09-18T01:55:10Z</time></trkpt><trkpt lat="37.63137358555053" lon="140.29962893171407"><ele>1384.4435498388484</ele><time>2021-09-18T01:55:47Z</time></trkpt><trkpt lat="37.63146083152342" lon="140.2998331611527"><ele>1379.9055328853428</ele><time>2021-09-18T01:56:37Z</time></trkpt><trkpt lat="37.631567405788076" lon="140.30003962029744"><ele>1377.697296046652</ele><time>2021-09-18T01:57:46Z</time></trkpt><trkpt lat="37.63166488418459" lon="140.3002326639649"><ele>1371.1603908268735</ele><time>2021-09-18T01:59:08Z</time></trkpt><trkpt lat="37.63178374903928" lon="140.3004293119181"><ele>1372.8039635336027</ele><time>2021-09-18T01:59:54Z</time></trkpt><trkpt lat="37.63188219918298" lon="140.30062323144435"><ele>1367.4847267800942</ele><time>2021-09-18T02:00:34Z</time></trkpt><trkpt lat="37.63199877734733" lon="140.30080334725432"><ele>1362.7508460842073</ele><time>2021-09-18T02:01:25Z</time></trkpt><trkpt lat="37.63215687371225" lon="140.30091973083998"><ele>1360.2182283904403</ele><time>2021-09-18T02:02:38Z</time></trkpt><trkpt lat="37.6322160443997" lon="140.30113984244835"><ele>1355.080851628445</ele><time>2021-09-18T02:03:44Z</time></trkpt><trkpt lat="37.63227704682156" lon="140.30135375566354"><ele>1349.7979146540165</ele><time>2021-09-18T02:04:52Z</time></trkpt><trkpt lat="37.632399119202425" lon="140.30152261722387"><ele>1344.1308395536616</ele><time>2021-09-18T02:06:08Z</time></trkpt><trkpt lat="37.63247286855931" lon="140.30173158860015"><ele>1340.8159175142646</ele><time>2021-09-18T02:06:41Z</time></trkpt><trkpt lat="37.63257018939106" lon="140.3019329760161"><ele>1335.8354444103315</ele><time>2021-09-18T02:07:01Z</time></trkpt><trkpt lat="37.63267543043285" lon="140.3021181426505"><ele>1335.2781598353758</ele><time>2021-09-18T02:07:23Z</time></trkpt><trkpt lat="37.63275695836903" lon="140.30233085420028"><ele>1330.4356144424528</ele><time>2021-09-18T02:08:05Z</time></trkpt><trkpt lat="37.63286191959471" lon="140.30252590032927"><ele>1329.078445496969</ele><time>2021-09-18T02:08:37Z</time></trkpt><trkpt lat="37.63298769873703" lon="140.30270635336413"><ele>1326.8072340497747</ele><time>2021-09-18T02:09:05Z</time></trkpt><trkpt lat="37.633111390196376" lon="140.3028746812335"><ele>1323.062166089192</ele><time>2021-09-18T02:09:38Z</time></trkpt><trkpt lat="37.63324085784216" lon="140.30303626663562"><ele>1320.7218253510073</ele><time>2021-09-18T02:09:57Z</time></trkpt><trkpt lat="37.63335102976014" lon="140.30323016510266"><ele>1322.0487922970206</ele><time>2021-09-18T02:10:19Z</time></trkpt><trkpt lat="37.63345549323109" lon="140.30341671544477"><ele>1318.4646260375157</ele><time>2021-09-18T02:10:50Z</time></trkpt><trkpt lat="37.63350747803433" lon="140.30364401711506"><ele>1314.2049264907837</ele><time>2021-09-18T02:11:37Z</time></trkpt><trkpt lat="37.63361972171527" lon="140.30383283768703"><ele>1312.5715385200456</ele><time>2021-09-18T02:12:23Z</time></trkpt><trkpt lat="37.63372213441993" lon="140.30403086035506"><ele>1310.6283286446705</ele><time>2021-09-18T02:13:04Z</time></trkpt><trkpt lat="37.63386287894605" lon="140.3041794524867"><ele>1306.9808141542599</ele><time>2021-09-18T02:13:31Z</time></trkpt><trkpt lat="37.63399440199437" lon="140.30435784913166"><ele>1308.0961005454883</ele><time>2021-09-18T02:14:17Z</time></trkpt><trkpt lat="37.63394419991578" lon="140.3045944914162"><ele>1306.225424412638</ele><time>2021-09-18T02:16:40Z</time></trkpt><trkpt lat="37.633854289726536" lon="140.30479727436446"><ele>1301.9155894471332</ele><time>2021-09-18T02:17:00Z</time></trkpt><trkpt lat="37.63372867325324" lon="140.3049929192543"><ele>1301.2273859428242</ele><time>2021-09-18T02:17:19Z</time></trkpt><trkpt lat="37.633593884599335" lon="140.305150952271"><ele>1296.283656350337</ele><time>2021-09-18T02:17:40Z</time></trkpt><trkpt lat="37.63350376581953" lon="140.3053560536206"><ele>1293.435755815357</ele><time>2021-09-18T02:17:58Z</time></trkpt><trkpt lat="37.633382092225894" lon="140.30552945461562"><ele>1291.1227821698412</ele><time>2021-09-18T02:18:18Z</time></trkpt><trkpt lat="37.63326403731257" lon="140.3057318788668"><ele>1289.154933928512</ele><time>2021-09-18T02:18:38Z</time></trkpt><trkpt lat="37.63314766009626" lon="140.30592174240533"><ele>1286.7341792359948</ele><time>2021-09-18T02:18:58Z</time></trkpt><trkpt lat="37.63303816210494" lon="140.30611127414144"><ele>1283.0842556850985</ele><time>2021-09-18T02:19:15Z</time></trkpt><trkpt lat="37.632940772460024" lon="140.30630969902109"><ele>1281.0238850619644</ele><time>2021-09-18T02:19:34Z</time></trkpt><trkpt lat="37.632839676582755" lon="140.30650619766533"><ele>1277.904611075297</ele><time>2021-09-18T02:19:53Z</time></trkpt><trkpt lat="37.63274138068068" lon="140.30670655499603"><ele>1276.9650307781994</ele><time>2021-09-18T02:20:09Z</time></trkpt><trkpt lat="37.63262005964936" lon="140.3068935945947"><ele>1275.8264247514307</ele><time>2021-09-18T02:20:25Z</time></trkpt><trkpt lat="37.63252190174693" lon="140.30709077456214"><ele>1273.9906941549852</ele><time>2021-09-18T02:20:43Z</time></trkpt><trkpt lat="37.63243978079033" lon="140.30729488054268"><ele>1271.1001500720158</ele><time>2021-09-18T02:21:00Z</time></trkpt><trkpt lat="37.6323387198752" lon="140.30748735816638"><ele>1269.5431438926607</ele><time>2021-09-18T02:21:17Z</time></trkpt><trkpt lat="37.63222240466697" lon="140.30766739886724"><ele>1267.6621291162446</ele><time>2021-09-18T02:21:37Z</time></trkpt><trkpt lat="37.63215740690814" lon="140.30788694212112"><ele>1268.8165267296135</ele><time>2021-09-18T02:21:54Z</time></trkpt><trkpt lat="37.632076833322955" lon="140.30811592869162"><ele>1266.0698910402134</ele><time>2021-09-18T02:22:07Z</time></trkpt><trkpt lat="37.63200638360022" lon="140.3083383819327"><ele>1264.5722144460306</ele><time>2021-09-18T02:22:26Z</time></trkpt><trkpt lat="37.63192935424194" lon="140.30856051531896"><ele>1263.6778081888333</ele><time>2021-09-18T02:22:43Z</time></trkpt><trkpt lat="37.63185809424121" lon="140.30877905521552"><ele>1262.2951541906223</ele><time>2021-09-18T02:22:57Z</time></trkpt><trkpt lat="37.631771101662935" lon="140.3089776329634"><ele>1260.6939710490406</ele><time>2021-09-18T02:23:19Z</time></trkpt><trkpt lat="37.63172384845411" lon="140.30920149979897"><ele>1260.6978850048035</ele><time>2021-09-18T02:23:34Z</time></trkpt><trkpt lat="37.63171920103604" lon="140.30943323164456"><ele>1257.7864855919033</ele><time>2021-09-18T02:23:51Z</time></trkpt><trkpt lat="37.63167939476853" lon="140.30966575376686"><ele>1256.4758811322972</ele><time>2021-09-18T02:24:09Z</time></trkpt><trkpt lat="37.63163530725543" lon="140.30989774414704"><ele>1256.393540225923</ele><time>2021-09-18T02:24:25Z</time></trkpt><trkpt lat="37.631561783994336" lon="140.3101220436697"><ele>1253.5386540265754</ele><time>2021-09-18T02:24:44Z</time></trkpt><trkpt lat="37.63148532433862" lon="140.3103318136223"><ele>1251.8615812081844</ele><time>2021-09-18T02:24:59Z</time></trkpt><trkpt lat="37.63138602615935" lon="140.3105254562378"><ele>1251.251185127534</ele><time>2021-09-18T02:25:46Z</time></trkpt><trkpt lat="37.631292120131896" lon="140.31073141505132"><ele>1255.9524868326262</ele><time>2021-09-18T02:26:29Z</time></trkpt><trkpt lat="37.63117849922313" lon="140.3109160844695"><ele>1246.2684356030077</ele><time>2021-09-18T02:27:13Z</time></trkpt><trkpt lat="37.631063334801304" lon="140.311104274311"><ele>1242.7028307160363</ele><time>2021-09-18T02:27:31Z</time></trkpt><trkpt lat="37.630922937273645" lon="140.31125231760922"><ele>1240.303061472252</ele><time>2021-09-18T02:27:49Z</time></trkpt><trkpt lat="37.63078459093612" lon="140.31141935665806"><ele>1238.9700081255287</ele><time>2021-09-18T02:28:06Z</time></trkpt><trkpt lat="37.630664990301355" lon="140.31160404905035"><ele>1236.3559205271304</ele><time>2021-09-18T02:28:23Z</time></trkpt><trkpt lat="37.630479917555284" lon="140.3116538172934"><ele>1236.6202871957794</ele><time>2021-09-18T02:28:38Z</time></trkpt><trkpt lat="37.63033429364499" lon="140.3117973350739"><ele>1235.2124296426773</ele><time>2021-09-18T02:28:56Z</time></trkpt><trkpt lat="37.63019748351755" lon="140.311960647576"><ele>1230.8391107004136</ele><time>2021-09-18T02:29:16Z</time></trkpt><trkpt lat="37.63007050729521" lon="140.31214425293814"><ele>1225.9566475003958</ele><time>2021-09-18T02:29:37Z</time></trkpt><trkpt lat="37.629930765248034" lon="140.3123029299964"><ele>1223.5059682186693</ele><time>2021-09-18T02:29:54Z</time></trkpt><trkpt lat="37.6297491685451" lon="140.31238452445157"><ele>1224.7303603524342</ele><time>2021-09-18T02:30:13Z</time></trkpt><trkpt lat="37.62961146398788" lon="140.31253939578497"><ele>1221.828281688504</ele><time>2021-09-18T02:30:29Z</time></trkpt><trkpt lat="37.62943584042805" lon="140.31260939780714"><ele>1220.160994390957</ele><time>2021-09-18T02:30:47Z</time></trkpt><trkpt lat="37.62926738022756" lon="140.31272140073645"><ele>1217.9150152252987</ele><time>2021-09-18T02:31:03Z</time></trkpt><trkpt lat="37.62942869679304" lon="140.31285131470946"><ele>1216.6821987517178</ele><time>2021-09-18T02:32:08Z</time></trkpt><trkpt lat="37.62960955910921" lon="140.31291659809355"><ele>1216.6671357443556</ele><time>2021-09-18T02:32:25Z</time></trkpt><trkpt lat="37.62979675501624" lon="140.3129520476543"><ele>1212.1930046929047</ele><time>2021-09-18T02:32:42Z</time></trkpt><trkpt lat="37.629643313570554" lon="140.31307887343937"><ele>1206.2185318181291</ele><time>2021-09-18T02:33:03Z</time></trkpt><trkpt lat="37.62947271185653" lon="140.31319483344427"><ele>1206.5416062623262</ele><time>2021-09-18T02:33:17Z</time></trkpt><trkpt lat="37.629283266163036" lon="140.3132431848003"><ele>1203.4744185646996</ele><time>2021-09-18T02:33:35Z</time></trkpt><trkpt lat="37.62910225958921" lon="140.3132778128777"><ele>1199.8773784330115</ele><time>2021-09-18T02:33:54Z</time></trkpt><trkpt lat="37.62891264119667" lon="140.3133087800462"><ele>1196.6235691485927</ele><time>2021-09-18T02:34:12Z</time></trkpt><trkpt lat="37.62900822501811" lon="140.31350241357055"><ele>1191.8954409072176</ele><time>2021-09-18T02:34:32Z</time></trkpt><trkpt lat="37.62914411621294" lon="140.31365144680055"><ele>1191.5995615134016</ele><time>2021-09-18T02:34:47Z</time></trkpt><trkpt lat="37.62925595449033" lon="140.3138505533121"><ele>1189.7504091570154</ele><time>2021-09-18T02:35:08Z</time></trkpt><trkpt lat="37.62928049610867" lon="140.31409250743798"><ele>1188.2864726297557</ele><time>2021-09-18T02:35:28Z</time></trkpt><trkpt lat="37.62929578596448" lon="140.31432353587743"><ele>1184.8248352138326</ele><time>2021-09-18T02:35:47Z</time></trkpt><trkpt lat="37.62934507739503" lon="140.3145486486126"><ele>1180.0015394724905</ele><time>2021-09-18T02:36:02Z</time></trkpt><trkpt lat="37.6294994647064" lon="140.3146657459"><ele>1178.3796617006883</ele><time>2021-09-18T02:36:21Z</time></trkpt><trkpt lat="37.62968329205388" lon="140.3146461690218"><ele>1177.7007411103696</ele><time>2021-09-18T02:36:36Z</time></trkpt><trkpt lat="37.629694538840454" lon="140.31487317784175"><ele>1177.5349211683497</ele><time>2021-09-18T02:36:54Z</time></trkpt><trkpt lat="37.629649539760216" lon="140.31509384340308"><ele>1176.228589080274</ele><time>2021-09-18T02:37:10Z</time></trkpt><trkpt lat="37.62960679751104" lon="140.31533381044085"><ele>1173.9284480093047</ele><time>2021-09-18T02:37:27Z</time></trkpt><trkpt lat="37.62953632081218" lon="140.3155426828399"><ele>1171.5568717056885</ele><time>2021-09-18T02:37:43Z</time></trkpt><trkpt lat="37.629410949522345" lon="140.31571340866458"><ele>1167.2051097666845</ele><time>2021-09-18T02:37:57Z</time></trkpt><trkpt lat="37.629260910847954" lon="140.3158388831881"><ele>1164.1990250935778</ele><time>2021-09-18T02:38:15Z</time></trkpt><trkpt lat="37.62911937332741" lon="140.3159816843829"><ele>1161.892402230762</ele><time>2021-09-18T02:38:32Z</time></trkpt><trkpt lat="37.62895878080987" lon="140.3161130083739"><ele>1159.209016136825</ele><time>2021-09-18T02:38:50Z</time></trkpt><trkpt lat="37.62884989849571" lon="140.31630867802735"><ele>1155.7824117606506</ele><time>2021-09-18T02:39:09Z</time></trkpt><trkpt lat="37.62874080788183" lon="140.31651399789936"><ele>1153.9183926712722</ele><time>2021-09-18T02:39:28Z</time></trkpt><trkpt lat="37.62873476609869" lon="140.3162833543793"><ele>1152.9382865363732</ele><time>2021-09-18T02:39:47Z</time></trkpt><trkpt lat="37.628701443402235" lon="140.31605589976013"><ele>1154.213826132007</ele><time>2021-09-18T02:40:02Z</time></trkpt><trkpt lat="37.62853890311289" lon="140.31592715157538"><ele>1149.8531051212922</ele><time>2021-09-18T02:40:26Z</time></trkpt><trkpt lat="37.62854445078453" lon="140.316157730073"><ele>1144.2233214918524</ele><time>2021-09-18T02:40:45Z</time></trkpt><trkpt lat="37.628528918986554" lon="140.31639021853238"><ele>1142.8164836820215</ele><time>2021-09-18T02:41:04Z</time></trkpt><trkpt lat="37.62852747668759" lon="140.31661964778274"><ele>1142.0579819511622</ele><time>2021-09-18T02:41:18Z</time></trkpt><trkpt lat="37.62853130245253" lon="140.3168619024035"><ele>1140.0101184388623</ele><time>2021-09-18T02:41:36Z</time></trkpt><trkpt lat="37.6285569576013" lon="140.31708730657053"><ele>1140.6450824057683</ele><time>2021-09-18T02:41:49Z</time></trkpt><trkpt lat="37.62856410700129" lon="140.31731440040588"><ele>1137.1570850582793</ele><time>2021-09-18T02:42:06Z</time></trkpt><trkpt lat="37.628595627582" lon="140.31753947532508"><ele>1136.1605527317151</ele><time>2021-09-18T02:42:26Z</time></trkpt><trkpt lat="37.62857736900415" lon="140.31776904492955"><ele>1131.7215147381648</ele><time>2021-09-18T02:42:45Z</time></trkpt><trkpt lat="37.62861214499605" lon="140.31799227555754"><ele>1129.8928379518911</ele><time>2021-09-18T02:42:59Z</time></trkpt><trkpt lat="37.62856980845631" lon="140.318217104635"><ele>1124.6862068548799</ele><time>2021-09-18T02:43:21Z</time></trkpt><trkpt lat="37.628573067941026" lon="140.31845116231017"><ele>1121.5422103507444</ele><time>2021-09-18T02:43:41Z</time></trkpt><trkpt lat="37.62858601229909" lon="140.31869118534854"><ele>1117.1849156804383</ele><time>2021-09-18T02:44:02Z</time></trkpt><trkpt lat="37.62849677611971" lon="140.31848514668698"><ele>1115.6951750749722</ele><time>2021-09-18T02:44:23Z</time></trkpt><trkpt lat="37.6283912657933" lon="140.3182975067721"><ele>1116.6013304209337</ele><time>2021-09-18T02:44:42Z</time></trkpt><trkpt lat="37.62829804397357" lon="140.3180996734709"><ele>1114.4574066335335</ele><time>2021-09-18T02:45:00Z</time></trkpt><trkpt lat="37.62818808732644" lon="140.31790653771847"><ele>1110.9509200071916</ele><time>2021-09-18T02:45:14Z</time></trkpt><trkpt lat="37.628099832744205" lon="140.3176523879479"><ele>1108.7813603132963</ele><time>2021-09-18T02:45:32Z</time></trkpt><trkpt lat="37.62797858300461" lon="140.31748338756802"><ele>1105.102447164245</ele><time>2021-09-18T02:45:49Z</time></trkpt><trkpt lat="37.627948303099856" lon="140.31724723257386"><ele>1104.7754387864843</ele><time>2021-09-18T02:46:08Z</time></trkpt><trkpt lat="37.62787853455505" lon="140.3170354674804"><ele>1106.0821369215846</ele><time>2021-09-18T02:46:23Z</time></trkpt><trkpt lat="37.627841915767846" lon="140.31726285118003"><ele>1101.5499804969877</ele><time>2021-09-18T02:46:44Z</time></trkpt><trkpt lat="37.62780844701648" lon="140.3175197919138"><ele>1101.1590853743255</ele><time>2021-09-18T02:47:04Z</time></trkpt><trkpt lat="37.62795791767276" lon="140.31765242458366"><ele>1101.512413289398</ele><time>2021-09-18T02:47:10Z</time></trkpt><trkpt lat="37.627956877864406" lon="140.31788664014647"><ele>1099.9116190429777</ele><time>2021-09-18T02:47:28Z</time></trkpt><trkpt lat="37.62801596167525" lon="140.31812932964547"><ele>1099.5799190783873</ele><time>2021-09-18T02:47:43Z</time></trkpt><trkpt lat="37.62804754392549" lon="140.31835451041044"><ele>1099.2838841406628</ele><time>2021-09-18T02:48:00Z</time></trkpt><trkpt lat="37.62808375266165" lon="140.3185768450753"><ele>1096.8894138485193</ele><time>2021-09-18T02:48:13Z</time></trkpt><trkpt lat="37.628126746451365" lon="140.31880158930676"><ele>1096.4034918099642</ele><time>2021-09-18T02:48:32Z</time></trkpt><trkpt lat="37.62816054938016" lon="140.3190344719222"><ele>1094.4876791788265</ele><time>2021-09-18T02:48:45Z</time></trkpt><trkpt lat="37.62827687105625" lon="140.31925594697316"><ele>1092.564573169686</ele><time>2021-09-18T02:49:02Z</time></trkpt><trkpt lat="37.628285553685274" lon="140.31950539672434"><ele>1089.043825914152</ele><time>2021-09-18T02:49:19Z</time></trkpt><trkpt lat="37.628378777426185" lon="140.31971791168678"><ele>1087.6149691501632</ele><time>2021-09-18T02:49:36Z</time></trkpt><trkpt lat="37.62821746100676" lon="140.31958113112125"><ele>1083.8678182903677</ele><time>2021-09-18T02:50:16Z</time></trkpt><trkpt lat="37.628078067164566" lon="140.3194372650264"><ele>1081.5294787362218</ele><time>2021-09-18T02:50:32Z</time></trkpt><trkpt lat="37.62793011880855" lon="140.3193004000646"><ele>1080.9966351035982</ele><time>2021-09-18T02:50:46Z</time></trkpt><trkpt lat="37.627759810741374" lon="140.31916363525866"><ele>1079.1871222630143</ele><time>2021-09-18T02:50:59Z</time></trkpt><trkpt lat="37.627676886491294" lon="140.3189517955704"><ele>1074.6012254841626</ele><time>2021-09-18T02:51:20Z</time></trkpt><trkpt lat="37.627529062815114" lon="140.31880423130633"><ele>1072.9836959345266</ele><time>2021-09-18T02:51:39Z</time></trkpt><trkpt lat="37.62764754377957" lon="140.31902031667482"><ele>1068.9349502725527</ele><time>2021-09-18T02:51:52Z</time></trkpt><trkpt lat="37.62774058202822" lon="140.31922314036737"><ele>1069.670178747736</ele><time>2021-09-18T02:52:07Z</time></trkpt><trkpt lat="37.627801547938816" lon="140.31945925096852"><ele>1069.7875484032556</ele><time>2021-09-18T02:52:23Z</time></trkpt><trkpt lat="37.62792765466736" lon="140.3196481523315"><ele>1069.440452114679</ele><time>2021-09-18T02:52:43Z</time></trkpt><trkpt lat="37.628032454946876" lon="140.3198518839766"><ele>1069.1377735780552</ele><time>2021-09-18T02:52:55Z</time></trkpt><trkpt lat="37.628109860248735" lon="140.32006532442335"><ele>1067.8703914601356</ele><time>2021-09-18T02:53:15Z</time></trkpt><trkpt lat="37.62815888007103" lon="140.32030174306104"><ele>1065.598434491083</ele><time>2021-09-18T02:53:24Z</time></trkpt><trkpt lat="37.62823184143117" lon="140.32053805489193"><ele>1064.3708749162033</ele><time>2021-09-18T02:53:46Z</time></trkpt><trkpt lat="37.62809812600215" lon="140.32031244226997"><ele>1062.2127787349746</ele><time>2021-09-18T02:54:16Z</time></trkpt><trkpt lat="37.6279391920718" lon="140.3202014437463"><ele>1058.6207726569846</ele><time>2021-09-18T02:54:33Z</time></trkpt><trkpt lat="37.62782894200703" lon="140.32000895365658"><ele>1056.3780266819522</ele><time>2021-09-18T02:54:48Z</time></trkpt><trkpt lat="37.627667803736266" lon="140.31989010352163"><ele>1055.3622844275087</ele><time>2021-09-18T02:55:02Z</time></trkpt><trkpt lat="37.627504204650634" lon="140.31978748410276"><ele>1052.8676459938288</ele><time>2021-09-18T02:55:21Z</time></trkpt><trkpt lat="37.627351688041095" lon="140.31965586688702"><ele>1050.360575446859</ele><time>2021-09-18T02:55:36Z</time></trkpt><trkpt lat="37.627214303729396" lon="140.3194975026412"><ele>1048.9415785996243</ele><time>2021-09-18T02:55:50Z</time></trkpt><trkpt lat="37.627078140295296" lon="140.3193308536799"><ele>1048.9946946743876</ele><time>2021-09-18T02:56:07Z</time></trkpt><trkpt lat="37.6269887826837" lon="140.3191334793051"><ele>1048.6930511863902</ele><time>2021-09-18T02:56:20Z</time></trkpt><trkpt lat="37.62690383706918" lon="140.31891416687887"><ele>1047.4916700106114</ele><time>2021-09-18T02:56:37Z</time></trkpt><trkpt lat="37.6268166150402" lon="140.31870483373487"><ele>1046.1698641413823</ele><time>2021-09-18T02:56:56Z</time></trkpt><trkpt lat="37.62673742688223" lon="140.31849510246715"><ele>1044.9623038563877</ele><time>2021-09-18T02:57:09Z</time></trkpt><trkpt lat="37.62659351130196" lon="140.31829994977812"><ele>1041.793367904611</ele><time>2021-09-18T02:57:28Z</time></trkpt><trkpt lat="37.626548932378284" lon="140.3180552890697"><ele>1041.3186020469293</ele><time>2021-09-18T02:57:39Z</time></trkpt><trkpt lat="37.62639276178645" lon="140.31792554677455"><ele>1037.9303703671321</ele><time>2021-09-18T02:58:00Z</time></trkpt><trkpt lat="37.62620523015648" lon="140.3179738916918"><ele>1033.0405064253137</ele><time>2021-09-18T02:58:16Z</time></trkpt><trkpt lat="37.626309915177735" lon="140.31819015223385"><ele>1031.4079892439768</ele><time>2021-09-18T02:58:29Z</time></trkpt><trkpt lat="37.62636588865206" lon="140.31841164814568"><ele>1030.6500938115641</ele><time>2021-09-18T02:58:39Z</time></trkpt><trkpt lat="37.62634414449267" lon="140.31865675130214"><ele>1027.6358645549044</ele><time>2021-09-18T02:58:54Z</time></trkpt><trkpt lat="37.62635210126258" lon="140.31889185491022"><ele>1024.1203528381884</ele><time>2021-09-18T02:59:15Z</time></trkpt><trkpt lat="37.62618265952098" lon="140.31874359962538"><ele>1020.6474344013259</ele><time>2021-09-18T02:59:51Z</time></trkpt><trkpt lat="37.626060788962036" lon="140.31856060955386"><ele>1019.0030415337533</ele><time>2021-09-18T03:00:07Z</time></trkpt><trkpt lat="37.625973825586705" lon="140.31834955790032"><ele>1017.6478253947571</ele><time>2021-09-18T03:00:23Z</time></trkpt><trkpt lat="37.62586483736658" lon="140.3181605140325"><ele>1012.7613100307062</ele><time>2021-09-18T03:00:47Z</time></trkpt><trkpt lat="37.6257974983612" lon="140.3179486625675"><ele>1012.3734657093883</ele><time>2021-09-18T03:01:01Z</time></trkpt><trkpt lat="37.62572824207835" lon="140.31773869467156"><ele>1016.0703012412414</ele><time>2021-09-18T03:01:18Z</time></trkpt><trkpt lat="37.625593610885794" lon="140.31757821619047"><ele>1015.4048032108694</ele><time>2021-09-18T03:02:14Z</time></trkpt><trkpt lat="37.62557592849088" lon="140.31780616375204"><ele>1013.191031682305</ele><time>2021-09-18T03:03:25Z</time></trkpt><trkpt lat="37.625757324775996" lon="140.31782695662184"><ele>1011.8326177466661</ele><time>2021-09-18T03:04:05Z</time></trkpt><trkpt lat="37.62583194237545" lon="140.31804018909756"><ele>1017.8788444204256</ele><time>2021-09-18T03:04:51Z</time></trkpt><trkpt lat="37.625733201768064" lon="140.31827094309426"><ele>1010.891251090914</ele><time>2021-09-18T03:05:12Z</time></trkpt><trkpt lat="37.62561414609609" lon="140.31850714340678"><ele>1012.3589925086126</ele><time>2021-09-18T03:07:54Z</time></trkpt><trkpt lat="37.62564702331946" lon="140.31873088999396"><ele>1009.497705552727</ele><time>2021-09-18T03:08:10Z</time></trkpt><trkpt lat="37.62558988692566" lon="140.3189507403911"><ele>1003.5606057532132</ele><time>2021-09-18T03:08:37Z</time></trkpt><trkpt lat="37.62563552193349" lon="140.31920929991074"><ele>1001.3213635133579</ele><time>2021-09-18T03:08:57Z</time></trkpt><trkpt lat="37.6257907901692" lon="140.31907110347828"><ele>997.8226218586788</ele><time>2021-09-18T03:09:14Z</time></trkpt><trkpt lat="37.625823177044985" lon="140.31930260525536"><ele>1002.1746227480471</ele><time>2021-09-18T03:12:00Z</time></trkpt><trkpt lat="37.625679722941754" lon="140.31946879968405"><ele>998.301598219201</ele><time>2021-09-18T03:12:20Z</time></trkpt><trkpt lat="37.62570302396659" lon="140.31970493544893"><ele>998.9924888964742</ele><time>2021-09-18T03:12:30Z</time></trkpt><trkpt lat="37.62572327533961" lon="140.31993535344395"><ele>993.0588687276468</ele><time>2021-09-18T03:13:01Z</time></trkpt><trkpt lat="37.62572077698252" lon="140.32016599523325"><ele>989.0908817406744</ele><time>2021-09-18T03:13:51Z</time></trkpt><trkpt lat="37.62561059414645" lon="140.3199855929703"><ele>989.2555062146857</ele><time>2021-09-18T03:14:07Z</time></trkpt><trkpt lat="37.625681897432024" lon="140.32021583329922"><ele>989.5181630356237</ele><time>2021-09-18T03:14:19Z</time></trkpt><trkpt lat="37.625716424253994" lon="140.3204436800125"><ele>982.8913073120639</ele><time>2021-09-18T03:15:09Z</time></trkpt><trkpt lat="37.625896456743234" lon="140.32048765447885"><ele>979.2013276536018</ele><time>2021-09-18T03:15:21Z</time></trkpt><trkpt lat="37.625918132703355" lon="140.32072235087637"><ele>974.9412605473772</ele><time>2021-09-18T03:15:56Z</time></trkpt><trkpt lat="37.626052148281495" lon="140.32089306050594"><ele>972.0914909103885</ele><time>2021-09-18T03:17:20Z</time></trkpt><trkpt lat="37.6260885974261" lon="140.32114163652884"><ele>961.4144240571186</ele><time>2021-09-18T03:22:41Z</time></trkpt><trkpt lat="37.62612382786414" lon="140.32137126525316"><ele>959.4877518825233</ele><time>2021-09-18T03:23:05Z</time></trkpt><trkpt lat="37.62606877609246" lon="140.32115218278707"><ele>967.842962436378</ele><time>2021-09-18T03:24:02Z</time></trkpt><trkpt lat="37.62621349062618" lon="140.32137976524427"><ele>967.612649072893</ele><time>2021-09-18T03:24:07Z</time></trkpt><trkpt lat="37.62626413556681" lon="140.32161173893772"><ele>959.8856537221</ele><time>2021-09-18T03:25:06Z</time></trkpt><trkpt lat="37.62613638643522" lon="140.3217752071864"><ele>952.9114094898105</ele><time>2021-09-18T03:25:49Z</time></trkpt><trkpt lat="37.625951220282666" lon="140.32172920149446"><ele>950.1307876165956</ele><time>2021-09-18T03:27:02Z</time></trkpt><trkpt lat="37.62613871754426" lon="140.32186663245335"><ele>956.216619248502</ele><time>2021-09-18T03:28:00Z</time></trkpt><trkpt lat="37.626056614166664" lon="140.3220724279872"><ele>952.6694043893367</ele><time>2021-09-18T03:28:28Z</time></trkpt><trkpt lat="37.62606468593776" lon="140.3223411551708"><ele>950.8234321577474</ele><time>2021-09-18T03:28:50Z</time></trkpt><trkpt lat="37.62606364484541" lon="140.3226150305028"><ele>946.4491761345416</ele><time>2021-09-18T03:29:12Z</time></trkpt><trkpt lat="37.62599476954806" lon="140.32285334043456"><ele>939.8033726327121</ele><time>2021-09-18T03:29:37Z</time></trkpt><trkpt lat="37.62600864996731" lon="140.32309037921772"><ele>935.8491648165509</ele><time>2021-09-18T03:29:55Z</time></trkpt><trkpt lat="37.625828609173" lon="140.32308012272298"><ele>935.8182916119695</ele><time>2021-09-18T03:30:11Z</time></trkpt><trkpt lat="37.62571825851542" lon="140.3232667055101"><ele>939.9222750905901</ele><time>2021-09-18T03:31:06Z</time></trkpt><trkpt lat="37.62558858054275" lon="140.3234252887914"><ele>937.6018240042031</ele><time>2021-09-18T03:31:20Z</time></trkpt><trkpt lat="37.62540450327595" lon="140.32347133894478"><ele>940.4878977844492</ele><time>2021-09-18T03:31:38Z</time></trkpt><trkpt lat="37.625230180842976" lon="140.32357757787278"><ele>942.083730250597</ele><time>2021-09-18T03:31:55Z</time></trkpt><trkpt lat="37.62505473538995" lon="140.32367967259893"><ele>946.0562967788428</ele><time>2021-09-18T03:32:11Z</time></trkpt><trkpt lat="37.62489031898391" lon="140.3238040006252"><ele>950.8833922529593</ele><time>2021-09-18T03:32:28Z</time></trkpt><trkpt lat="37.62478176924605" lon="140.3239947708204"><ele>952.0294176470488</ele><time>2021-09-18T03:32:41Z</time></trkpt><trkpt lat="37.624654384137116" lon="140.32416354144195"><ele>948.7325953869149</ele><time>2021-09-18T03:33:01Z</time></trkpt><trkpt lat="37.6245012163246" lon="140.32428694439884"><ele>947.378611413762</ele><time>2021-09-18T03:33:16Z</time></trkpt><trkpt lat="37.62430883839165" lon="140.32432324346695"><ele>948.2427525501698</ele><time>2021-09-18T03:33:32Z</time></trkpt><trkpt lat="37.62413009131471" lon="140.32437122396678"><ele>948.9066762989387</ele><time>2021-09-18T03:33:46Z</time></trkpt><trkpt lat="37.6239764531222" lon="140.32424477815937"><ele>947.729950863868</ele><time>2021-09-18T03:34:02Z</time></trkpt><trkpt lat="37.6238128747794" lon="140.3241386347923"><ele>951.7669134223834</ele><time>2021-09-18T03:34:15Z</time></trkpt><trkpt lat="37.62364605022147" lon="140.3242397571485"><ele>950.4770027352497</ele><time>2021-09-18T03:34:33Z</time></trkpt><trkpt lat="37.62355183496826" lon="140.32444329802004"><ele>946.877454943955</ele><time>2021-09-18T03:34:48Z</time></trkpt><trkpt lat="37.623467830937" lon="140.324649852734"><ele>946.6479490725324</ele><time>2021-09-18T03:35:02Z</time></trkpt><trkpt lat="37.62337251975891" lon="140.32485741342487"><ele>946.0814065318555</ele><time>2021-09-18T03:35:17Z</time></trkpt><trkpt lat="37.62338281494073" lon="140.32509900088573"><ele>944.749459458515</ele><time>2021-09-18T03:35:36Z</time></trkpt><trkpt lat="37.6233282301452" lon="140.325318124815"><ele>946.4682681178674</ele><time>2021-09-18T03:40:40Z</time></trkpt><trkpt lat="37.623162778567966" lon="140.32543572420244"><ele>945.0801825020462</ele><time>2021-09-18T03:41:00Z</time></trkpt><trkpt lat="37.62299502991223" lon="140.32552694602364"><ele>946.3147080829367</ele><time>2021-09-18T03:41:14Z</time></trkpt></trkseg></trk></gpx>