<?xml version='1.0' encoding='UTF-8'?><gpx creator="YAMAP - https://yamap.com" xsi:schemaLocation="http://www.topografix.com/GPX/1/1 http://www.topografix.com/GPX/1/1/gpx.xsd" version="1.1" xmlns="http://www.topografix.com/GPX/1/1" xmlns:xsi="http://www.w3.org/2001/XMLSchema-instance"><metadata><bounds maxlat="35.394636864908215" maxlon="138.7475986266426" minlat="35.37015521639273" minlon="138.73177031068013"/></metadata><trk><name>経ヶ岳　富士山</name><number>1</number><trkseg><trkpt lat="35.394636864908215" lon="138.73273511016552"><ele>2299.7569214217365</ele><time>2022-05-22T00:17:21Z</time></trkpt><trkpt lat="35.39452715515444" lon="138.73291284203134"><ele>2303.555641973391</ele><time>2022-05-22T00:17:40Z</time></trkpt><trkpt lat="35.39435426328822" lon="138.7329856801932"><ele>2305.225065655075</ele><time>2022-05-22T00:17:56Z</time></trkpt><trkpt lat="35.39426381282397" lon="138.73317763140543"><ele>2304.704721988179</ele><time>2022-05-22T00:18:14Z</time></trkpt><trkpt lat="35.39415230468113" lon="138.7333630377241"><ele>2305.5153605379164</ele><time>2022-05-22T00:18:31Z</time></trkpt><trkpt lat="35.389413633416765" lon="138.74212984008597"><ele>2248.7759742736816</ele><time>2022-05-22T00:39:22Z</time></trkpt><trkpt lat="35.389275625381046" lon="138.7423157506983"><ele>2310.8963356018066</ele><time>2022-05-22T00:39:23Z</time></trkpt><trkpt lat="35.38910005849942" lon="138.7423690661569"><ele>2285.290744140744</ele><time>2022-05-22T00:43:49Z</time></trkpt><trkpt lat="35.38892839544798" lon="138.74248915400966"><ele>2287.913022772409</ele><time>2022-05-22T00:44:10Z</time></trkpt><trkpt lat="35.3887579960572" lon="138.74256316550907"><ele>2287.837530561723</ele><time>2022-05-22T00:44:30Z</time></trkpt><trkpt lat="35.388597522168794" lon="138.7426891640905"><ele>2289.6927188877016</ele><time>2022-05-22T00:44:49Z</time></trkpt><trkpt lat="35.38847773710952" lon="138.74286446211542"><ele>2294.6074777022004</ele><time>2022-05-22T00:45:09Z</time></trkpt><trkpt lat="35.38833427966812" lon="138.74300068070468"><ele>2298.9051391771063</ele><time>2022-05-22T00:45:31Z</time></trkpt><trkpt lat="35.388191394508596" lon="138.7431479217358"><ele>2304.922583944164</ele><time>2022-05-22T00:45:52Z</time></trkpt><trkpt lat="35.38802873293224" lon="138.74324753748917"><ele>2308.4378586141393</ele><time>2022-05-22T00:46:18Z</time></trkpt><trkpt lat="35.387864405467624" lon="138.7433585963133"><ele>2315.9348606811836</ele><time>2022-05-22T00:46:45Z</time></trkpt><trkpt lat="35.38771091870918" lon="138.7434859822805"><ele>2321.5108668366447</ele><time>2022-05-22T00:47:18Z</time></trkpt><trkpt lat="35.387591469347434" lon="138.74365092575232"><ele>2318.771360862069</ele><time>2022-05-22T00:47:53Z</time></trkpt><trkpt lat="35.387445267094556" lon="138.7437899430206"><ele>2321.0133262174204</ele><time>2022-05-22T00:48:23Z</time></trkpt><trkpt lat="35.38727606410176" lon="138.74387541571718"><ele>2324.0139616830274</ele><time>2022-05-22T00:48:50Z</time></trkpt><trkpt lat="35.38712418648035" lon="138.74400282221313"><ele>2328.50823746901</ele><time>2022-05-22T00:49:22Z</time></trkpt><trkpt lat="35.386976757305085" lon="138.74413589805778"><ele>2333.2444308781996</ele><time>2022-05-22T00:49:53Z</time></trkpt><trkpt lat="35.386839717388355" lon="138.74429700444512"><ele>2336.86384906061</ele><time>2022-05-22T00:50:20Z</time></trkpt><trkpt lat="35.386707617699294" lon="138.74446282978715"><ele>2338.7585803484544</ele><time>2022-05-22T00:50:48Z</time></trkpt><trkpt lat="35.386562511672125" lon="138.74459338898373"><ele>2342.6464401483536</ele><time>2022-05-22T00:51:16Z</time></trkpt><trkpt lat="35.38642037081882" lon="138.74473197229065"><ele>2344.785866089165</ele><time>2022-05-22T00:51:41Z</time></trkpt><trkpt lat="35.3862610378145" lon="138.74485335839123"><ele>2347.446717071347</ele><time>2022-05-22T00:52:06Z</time></trkpt><trkpt lat="35.38610356080776" lon="138.74497957495902"><ele>2348.9498732844368</ele><time>2022-05-22T00:52:31Z</time></trkpt><trkpt lat="35.386040024728466" lon="138.74519061077888"><ele>2352.7427997309715</ele><time>2022-05-22T00:52:53Z</time></trkpt><trkpt lat="35.38607091079334" lon="138.745414347952"><ele>2359.5738949738443</ele><time>2022-05-22T00:53:15Z</time></trkpt><trkpt lat="35.38597895434228" lon="138.74561968740596"><ele>2363.640339122154</ele><time>2022-05-22T00:53:46Z</time></trkpt><trkpt lat="35.38586136293251" lon="138.74579732684373"><ele>2368.315791510977</ele><time>2022-05-22T00:54:26Z</time></trkpt><trkpt lat="35.38576144218785" lon="138.74598347077037"><ele>2371.54443845246</ele><time>2022-05-22T00:54:51Z</time></trkpt><trkpt lat="35.385799025609465" lon="138.74620586042667"><ele>2371.5685078594834</ele><time>2022-05-22T00:55:09Z</time></trkpt><trkpt lat="35.385722920407964" lon="138.74641057992116"><ele>2374.5202468158677</ele><time>2022-05-22T00:55:38Z</time></trkpt><trkpt lat="35.38566078580754" lon="138.74662002794005"><ele>2378.1971945706755</ele><time>2022-05-22T00:56:03Z</time></trkpt><trkpt lat="35.38558369260973" lon="138.74681956248875"><ele>2384.4084077700973</ele><time>2022-05-22T00:56:28Z</time></trkpt><trkpt lat="35.38544658628331" lon="138.7469656560578"><ele>2386.553866967559</ele><time>2022-05-22T00:56:54Z</time></trkpt><trkpt lat="35.385409033750726" lon="138.7471853472325"><ele>2388.210779153742</ele><time>2022-05-22T00:57:19Z</time></trkpt><trkpt lat="35.385313271819356" lon="138.74738325909357"><ele>2388.080209071748</ele><time>2022-05-22T00:57:41Z</time></trkpt><trkpt lat="35.38526678580276" lon="138.7475986266426"><ele>2389.545169055462</ele><time>2022-05-22T00:58:32Z</time></trkpt><trkpt lat="35.38509315172885" lon="138.7475365455746"><ele>2393.6918843965977</ele><time>2022-05-22T00:59:04Z</time></trkpt><trkpt lat="35.38503155771873" lon="138.7473185347773"><ele>2401.0448799785227</ele><time>2022-05-22T01:00:08Z</time></trkpt><trkpt lat="35.384938067323155" lon="138.7471297042481"><ele>2405.4927851390094</ele><time>2022-05-22T01:00:48Z</time></trkpt><trkpt lat="35.38485251656667" lon="138.7469321815183"><ele>2411.8106046710163</ele><time>2022-05-22T01:01:37Z</time></trkpt><trkpt lat="35.38470693896269" lon="138.74706345206377"><ele>2414.85590221826</ele><time>2022-05-22T01:02:19Z</time></trkpt><trkpt lat="35.3846094505986" lon="138.74687478408396"><ele>2423.819996500388</ele><time>2022-05-22T01:03:25Z</time></trkpt><trkpt lat="35.3844778141043" lon="138.74703623565694"><ele>2430.5858459444717</ele><time>2022-05-22T01:04:09Z</time></trkpt><trkpt lat="35.38436796652701" lon="138.74721606021242"><ele>2431.6118225688115</ele><time>2022-05-22T01:04:34Z</time></trkpt><trkpt lat="35.38419477257645" lon="138.7471371434423"><ele>2437.3413352034986</ele><time>2022-05-22T01:05:06Z</time></trkpt><trkpt lat="35.384007015123984" lon="138.7471314781039"><ele>2441.484759709798</ele><time>2022-05-22T01:05:33Z</time></trkpt><trkpt lat="35.383824787669155" lon="138.7471633696062"><ele>2447.1561353616416</ele><time>2022-05-22T01:06:11Z</time></trkpt><trkpt lat="35.38364135920752" lon="138.74717902894068"><ele>2451.6233308250085</ele><time>2022-05-22T01:06:44Z</time></trkpt><trkpt lat="35.38345860085822" lon="138.74720237919803"><ele>2454.6671540923417</ele><time>2022-05-22T01:07:15Z</time></trkpt><trkpt lat="35.38327435948892" lon="138.74720587426532"><ele>2457.862773806788</ele><time>2022-05-22T01:07:44Z</time></trkpt><trkpt lat="35.38308870042189" lon="138.74721676472421"><ele>2462.1404431220144</ele><time>2022-05-22T01:08:24Z</time></trkpt><trkpt lat="35.383131037903844" lon="138.74700066912015"><ele>2471.591551700607</ele><time>2022-05-22T01:09:14Z</time></trkpt><trkpt lat="35.383183378373346" lon="138.7467898816105"><ele>2475.378956656903</ele><time>2022-05-22T01:09:51Z</time></trkpt><trkpt lat="35.38300537610379" lon="138.746845201891"><ele>2478.4546566680074</ele><time>2022-05-22T01:10:32Z</time></trkpt><trkpt lat="35.38283114031922" lon="138.7469036860828"><ele>2481.676623071544</ele><time>2022-05-22T01:11:02Z</time></trkpt><trkpt lat="35.38274944920604" lon="138.74670335204232"><ele>2490.2749527860433</ele><time>2022-05-22T01:11:55Z</time></trkpt><trkpt lat="35.38277729503426" lon="138.74648531261005"><ele>2493.9161924682558</ele><time>2022-05-22T01:12:29Z</time></trkpt><trkpt lat="35.38260750884269" lon="138.7465608689957"><ele>2498.6635859422386</ele><time>2022-05-22T01:13:16Z</time></trkpt><trkpt lat="35.38246668463023" lon="138.74670528712755"><ele>2503.0341312801465</ele><time>2022-05-22T01:13:48Z</time></trkpt><trkpt lat="35.382316777859124" lon="138.7468309529396"><ele>2508.7196388356388</ele><time>2022-05-22T01:14:23Z</time></trkpt><trkpt lat="35.38213734285828" lon="138.74688396098648"><ele>2514.8939962266013</ele><time>2022-05-22T01:15:02Z</time></trkpt><trkpt lat="35.3819589674485" lon="138.74692906168582"><ele>2520.5270912731066</ele><time>2022-05-22T01:15:37Z</time></trkpt><trkpt lat="35.38199914230127" lon="138.7467112879747"><ele>2526.4423364698887</ele><time>2022-05-22T01:16:23Z</time></trkpt><trkpt lat="35.38181690847305" lon="138.74671094406403"><ele>2531.0672386605293</ele><time>2022-05-22T01:18:53Z</time></trkpt><trkpt lat="35.381723483323526" lon="138.7465203152647"><ele>2541.1541425874457</ele><time>2022-05-22T01:19:40Z</time></trkpt><trkpt lat="35.381761799578584" lon="138.74630413247746"><ele>2545.8568508317694</ele><time>2022-05-22T01:20:10Z</time></trkpt><trkpt lat="35.38151226475404" lon="138.74634400954352"><ele>2556.1436500549316</ele><time>2022-05-22T01:21:18Z</time></trkpt><trkpt lat="35.38151226475404" lon="138.74634400954352"><ele>2556.1436500549316</ele><time>2022-05-22T01:21:18Z</time></trkpt><trkpt lat="35.38048313468264" lon="138.74522360054658"><ele>2590.6106910705566</ele><time>2022-05-22T01:28:24Z</time></trkpt><trkpt lat="35.38077411245124" lon="138.74524145400034"><ele>2619.3841285705566</ele><time>2022-05-22T01:28:25Z</time></trkpt><trkpt lat="35.38059059904902" lon="138.7452257784012"><ele>2616.5588990831748</ele><time>2022-05-22T01:29:19Z</time></trkpt><trkpt lat="35.38040686283819" lon="138.74521517317274"><ele>2620.7217364273965</ele><time>2022-05-22T01:29:57Z</time></trkpt><trkpt lat="35.38023441357456" lon="138.74529634626276"><ele>2623.3064393308014</ele><time>2022-05-22T01:30:27Z</time></trkpt><trkpt lat="35.38022995512415" lon="138.74507340467838"><ele>2629.343116994947</ele><time>2022-05-22T01:31:25Z</time></trkpt><trkpt lat="35.380059908543" lon="138.7451467945556"><ele>2635.3644236382097</ele><time>2022-05-22T01:32:10Z</time></trkpt><trkpt lat="35.37996748426853" lon="138.74495375717308"><ele>2642.4790930980816</ele><time>2022-05-22T01:33:12Z</time></trkpt><trkpt lat="35.379784777662614" lon="138.74497446057097"><ele>2651.738334475085</ele><time>2022-05-22T01:33:56Z</time></trkpt><trkpt lat="35.37985896231757" lon="138.74476554309868"><ele>2654.1674546385184</ele><time>2022-05-22T01:34:37Z</time></trkpt><trkpt lat="35.379686276627694" lon="138.74469362906572"><ele>2661.5210471460596</ele><time>2022-05-22T01:35:58Z</time></trkpt><trkpt lat="35.379627559793086" lon="138.7444798385437"><ele>2669.418037320487</ele><time>2022-05-22T01:37:03Z</time></trkpt><trkpt lat="35.37948208964074" lon="138.74434605072958"><ele>2677.9252455281094</ele><time>2022-05-22T01:38:13Z</time></trkpt><trkpt lat="35.379303035952546" lon="138.7442978402038"><ele>2686.5975395562127</ele><time>2022-05-22T01:39:07Z</time></trkpt><trkpt lat="35.379124226046464" lon="138.74434005219473"><ele>2689.508795131929</ele><time>2022-05-22T01:39:58Z</time></trkpt><trkpt lat="35.37901562787896" lon="138.74453007786875"><ele>2695.3629323337227</ele><time>2022-05-22T01:40:30Z</time></trkpt><trkpt lat="35.37885969350617" lon="138.74464952950686"><ele>2695.942441112362</ele><time>2022-05-22T01:42:00Z</time></trkpt><trkpt lat="35.37901465443905" lon="138.74453278584164"><ele>2692.7579877199605</ele><time>2022-05-22T01:42:51Z</time></trkpt><trkpt lat="35.37911599009065" lon="138.74434475190347"><ele>2691.2405957207084</ele><time>2022-05-22T01:43:37Z</time></trkpt><trkpt lat="35.37903149997547" lon="138.74454079700834"><ele>2698.8691503070295</ele><time>2022-05-22T01:47:48Z</time></trkpt><trkpt lat="35.37884762883047" lon="138.744553719691"><ele>2698.5122055653483</ele><time>2022-05-22T01:58:29Z</time></trkpt><trkpt lat="35.37866824130134" lon="138.7445228691366"><ele>2708.007321487181</ele><time>2022-05-22T02:01:10Z</time></trkpt><trkpt lat="35.37853647262879" lon="138.74437270423684"><ele>2717.31394683104</ele><time>2022-05-22T02:02:18Z</time></trkpt><trkpt lat="35.378382656730295" lon="138.7442555255422"><ele>2728.0423202672973</ele><time>2022-05-22T02:03:49Z</time></trkpt><trkpt lat="35.37825222350305" lon="138.7440941384963"><ele>2744.062099439092</ele><time>2022-05-22T02:06:16Z</time></trkpt><trkpt lat="35.37807220208611" lon="138.7440529796562"><ele>2750.281872262247</ele><time>2022-05-22T02:07:28Z</time></trkpt><trkpt lat="35.3779037343323" lon="138.74397490467243"><ele>2761.687881199643</ele><time>2022-05-22T02:09:15Z</time></trkpt><trkpt lat="35.377734639971145" lon="138.74388145085317"><ele>2769.8201035326347</ele><time>2022-05-22T02:10:41Z</time></trkpt><trkpt lat="35.37756551095959" lon="138.74379569177216"><ele>2780.5623878203332</ele><time>2022-05-22T02:23:16Z</time></trkpt><trkpt lat="35.37739633943551" lon="138.7437199463332"><ele>2792.035454712808</ele><time>2022-05-22T02:24:08Z</time></trkpt><trkpt lat="35.37722758369369" lon="138.74361340682432"><ele>2803.85571494326</ele><time>2022-05-22T02:25:30Z</time></trkpt><trkpt lat="35.37733042899902" lon="138.74343106604599"><ele>2810.415230270475</ele><time>2022-05-22T02:34:44Z</time></trkpt><trkpt lat="35.377476293801735" lon="138.74330071808836"><ele>2812.745804771781</ele><time>2022-05-22T02:35:06Z</time></trkpt><trkpt lat="35.37749111772223" lon="138.7430806215308"><ele>2814.1887407042086</ele><time>2022-05-22T02:36:16Z</time></trkpt><trkpt lat="35.37733467999863" lon="138.74296301045106"><ele>2822.7191694127396</ele><time>2022-05-22T02:37:11Z</time></trkpt><trkpt lat="35.377151318043154" lon="138.7430038875195"><ele>2834.221071704291</ele><time>2022-05-22T02:38:56Z</time></trkpt><trkpt lat="35.37700410033955" lon="138.74287386782999"><ele>2848.705734100193</ele><time>2022-05-22T02:42:02Z</time></trkpt><trkpt lat="35.37682554965821" lon="138.7428249363424"><ele>2861.6736118700355</ele><time>2022-05-22T02:43:47Z</time></trkpt><trkpt lat="35.37665868613947" lon="138.7429172979207"><ele>2865.641376644373</ele><time>2022-05-22T02:44:37Z</time></trkpt><trkpt lat="35.376484318872826" lon="138.7428520213869"><ele>2870.890710462816</ele><time>2022-05-22T02:47:33Z</time></trkpt><trkpt lat="35.37630765626572" lon="138.74279503305837"><ele>2883.979008629918</ele><time>2022-05-22T02:49:36Z</time></trkpt><trkpt lat="35.3761233984852" lon="138.74279267322964"><ele>2894.1402968410403</ele><time>2022-05-22T02:51:15Z</time></trkpt><trkpt lat="35.37597855593385" lon="138.74292929350813"><ele>2905.2847468378022</ele><time>2022-05-22T02:52:28Z</time></trkpt><trkpt lat="35.37584615851781" lon="138.7430907800188"><ele>2906.850568914786</ele><time>2022-05-22T02:53:12Z</time></trkpt><trkpt lat="35.37401653829531" lon="138.74133766641722"><ele>2999.5909156799316</ele><time>2022-05-22T03:27:56Z</time></trkpt><trkpt lat="35.37417636615418" lon="138.74145040313792"><ele>3030.22787875589</ele><time>2022-05-22T03:28:12Z</time></trkpt><trkpt lat="35.374018390715044" lon="138.7415646407177"><ele>3032.634675698355</ele><time>2022-05-22T03:33:01Z</time></trkpt><trkpt lat="35.37385205001911" lon="138.74147973296257"><ele>3035.570822224021</ele><time>2022-05-22T03:33:39Z</time></trkpt><trkpt lat="35.37377988106517" lon="138.74127671361293"><ele>3041.3128450363874</ele><time>2022-05-22T03:34:39Z</time></trkpt><trkpt lat="35.373722926620005" lon="138.74106530949513"><ele>3055.947695652023</ele><time>2022-05-22T03:37:14Z</time></trkpt><trkpt lat="35.373546890851514" lon="138.7410150628855"><ele>3065.771864613518</ele><time>2022-05-22T03:38:48Z</time></trkpt><trkpt lat="35.37337213976576" lon="138.74107510569496"><ele>3070.4002471985295</ele><time>2022-05-22T03:40:27Z</time></trkpt><trkpt lat="35.37320450450928" lon="138.74116081348865"><ele>3074.480210253969</ele><time>2022-05-22T03:41:05Z</time></trkpt><trkpt lat="35.3730539559206" lon="138.74103719678877"><ele>3082.5047233542427</ele><time>2022-05-22T03:42:50Z</time></trkpt><trkpt lat="35.37292435740812" lon="138.74088373300853"><ele>3095.245815174654</ele><time>2022-05-22T03:46:27Z</time></trkpt><trkpt lat="35.372984408429964" lon="138.74067319931805"><ele>3099.338303135708</ele><time>2022-05-22T03:47:52Z</time></trkpt><trkpt lat="35.37299849474807" lon="138.7404503340542"><ele>3105.3489772491157</ele><time>2022-05-22T03:48:49Z</time></trkpt><trkpt lat="35.37294061513723" lon="138.74024103123165"><ele>3112.430560310371</ele><time>2022-05-22T03:49:59Z</time></trkpt><trkpt lat="35.37275609325242" lon="138.7402414233533"><ele>3121.1317561184987</ele><time>2022-05-22T03:51:52Z</time></trkpt><trkpt lat="35.37259284690191" lon="138.74034787439493"><ele>3125.738574099727</ele><time>2022-05-22T03:53:01Z</time></trkpt><trkpt lat="35.372520631102184" lon="138.74014560400943"><ele>3136.271743759513</ele><time>2022-05-22T03:54:36Z</time></trkpt><trkpt lat="35.37234797016168" lon="138.74008131550514"><ele>3144.40949767828</ele><time>2022-05-22T03:56:09Z</time></trkpt><trkpt lat="35.37219576474033" lon="138.73995663349615"><ele>3153.994942086749</ele><time>2022-05-22T03:58:56Z</time></trkpt><trkpt lat="35.37203674340478" lon="138.7398529710232"><ele>3167.7127727903426</ele><time>2022-05-22T04:01:24Z</time></trkpt><trkpt lat="35.37185568220578" lon="138.739838903333"><ele>3174.889961037785</ele><time>2022-05-22T04:02:38Z</time></trkpt><trkpt lat="35.371689112365864" lon="138.73992657215965"><ele>3180.3536767270416</ele><time>2022-05-22T04:03:50Z</time></trkpt><trkpt lat="35.371695064493984" lon="138.73970194087536"><ele>3198.891222753562</ele><time>2022-05-22T04:06:07Z</time></trkpt><trkpt lat="35.371740217220335" lon="138.73948688734237"><ele>3198.6229229662567</ele><time>2022-05-22T04:18:04Z</time></trkpt><trkpt lat="35.37167144747543" lon="138.73927521157884"><ele>3199.9322591898963</ele><time>2022-05-22T04:18:34Z</time></trkpt><trkpt lat="35.371603638066304" lon="138.73907101102873"><ele>3205.8414085432887</ele><time>2022-05-22T04:19:30Z</time></trkpt><trkpt lat="35.37142320147232" lon="138.73908790202637"><ele>3214.6714444942772</ele><time>2022-05-22T04:21:08Z</time></trkpt><trkpt lat="35.3713378403298" lon="138.73889150263008"><ele>3224.4061987027526</ele><time>2022-05-22T04:22:51Z</time></trkpt><trkpt lat="35.37130681371035" lon="138.73867334502157"><ele>3231.992550998926</ele><time>2022-05-22T04:23:48Z</time></trkpt><trkpt lat="35.37118969565593" lon="138.73884556570562"><ele>3240.7460083197802</ele><time>2022-05-22T04:24:55Z</time></trkpt><trkpt lat="35.37114310141558" lon="138.7390665653162"><ele>3244.0747986882925</ele><time>2022-05-22T04:26:07Z</time></trkpt><trkpt lat="35.371070555689585" lon="138.7392709670531"><ele>3243.7471262374893</ele><time>2022-05-22T04:35:50Z</time></trkpt><trkpt lat="35.370890041914016" lon="138.7392642832178"><ele>3250.387975280173</ele><time>2022-05-22T04:36:55Z</time></trkpt><trkpt lat="35.37071096800197" lon="138.73930950237926"><ele>3260.675977030769</ele><time>2022-05-22T04:38:08Z</time></trkpt><trkpt lat="35.370683647621" lon="138.73909146160656"><ele>3265.296934259124</ele><time>2022-05-22T04:39:35Z</time></trkpt><trkpt lat="35.37049932312684" lon="138.73911346194436"><ele>3277.073093308136</ele><time>2022-05-22T04:41:10Z</time></trkpt><trkpt lat="35.37032373949386" lon="138.73906076053132"><ele>3287.9513294147328</ele><time>2022-05-22T04:43:49Z</time></trkpt><trkpt lat="35.37015521639273" lon="138.73914204151947"><ele>3292.842233825475</ele><time>2022-05-22T04:44:51Z</time></trkpt><trkpt lat="35.370333905280724" lon="138.7390640766803"><ele>3287.0065015321597</ele><time>2022-05-22T04:53:58Z</time></trkpt><trkpt lat="35.37044013944102" lon="138.7388778043152"><ele>3283.8588811708614</ele><time>2022-05-22T04:54:40Z</time></trkpt><trkpt lat="35.3704578886867" lon="138.73865739796494"><ele>3288.3828364536166</ele><time>2022-05-22T05:18:02Z</time></trkpt><trkpt lat="35.37057629358209" lon="138.7384752599939"><ele>3285.560194250196</ele><time>2022-05-22T05:19:46Z</time></trkpt><trkpt lat="35.37064097502363" lon="138.73825892534737"><ele>3278.9977540867403</ele><time>2022-05-22T05:22:13Z</time></trkpt><trkpt lat="35.37075561249087" lon="138.7380760988585"><ele>3274.3546862928197</ele><time>2022-05-22T05:22:28Z</time></trkpt><trkpt lat="35.37096105581141" lon="138.7380092359163"><ele>3261.958934135735</ele><time>2022-05-22T05:22:34Z</time></trkpt><trkpt lat="35.37110861376218" lon="138.73784807094864"><ele>3256.7184071540833</ele><time>2022-05-22T05:22:56Z</time></trkpt><trkpt lat="35.37123480726307" lon="138.73768895580832"><ele>3252.930411607027</ele><time>2022-05-22T05:23:05Z</time></trkpt><trkpt lat="35.37137629102682" lon="138.7375387349234"><ele>3249.837305228226</ele><time>2022-05-22T05:23:16Z</time></trkpt><trkpt lat="35.371542522597714" lon="138.73739389629043"><ele>3244.2314866269007</ele><time>2022-05-22T05:23:25Z</time></trkpt><trkpt lat="35.371703599785015" lon="138.7372526453835"><ele>3240.786538128741</ele><time>2022-05-22T05:23:53Z</time></trkpt><trkpt lat="35.371867361075076" lon="138.737158620285"><ele>3235.9541109297425</ele><time>2022-05-22T05:24:00Z</time></trkpt><trkpt lat="35.37205891506673" lon="138.7372329710303"><ele>3220.572569162585</ele><time>2022-05-22T05:24:12Z</time></trkpt><trkpt lat="35.372216861496504" lon="138.7373417267878"><ele>3210.903503266163</ele><time>2022-05-22T05:24:24Z</time></trkpt><trkpt lat="35.372407860093986" lon="138.73727398303828"><ele>3205.005851871334</ele><time>2022-05-22T05:24:34Z</time></trkpt><trkpt lat="35.37260436735155" lon="138.73732544191967"><ele>3193.8720147274435</ele><time>2022-05-22T05:25:50Z</time></trkpt><trkpt lat="35.37275379539808" lon="138.73749396914872"><ele>3181.3191327210516</ele><time>2022-05-22T05:26:01Z</time></trkpt><trkpt lat="35.372876961308066" lon="138.7376596323777"><ele>3169.034219666384</ele><time>2022-05-22T05:26:10Z</time></trkpt><trkpt lat="35.372970846108316" lon="138.73784811197507"><ele>3157.618302660063</ele><time>2022-05-22T05:26:28Z</time></trkpt><trkpt lat="35.37315946070114" lon="138.7378841870049"><ele>3146.9142933879048</ele><time>2022-05-22T05:28:42Z</time></trkpt><trkpt lat="35.37309484253174" lon="138.73809409267565"><ele>3141.691532447003</ele><time>2022-05-22T05:28:50Z</time></trkpt><trkpt lat="35.3731832629202" lon="138.7382920531809"><ele>3128.770100972615</ele><time>2022-05-22T05:29:00Z</time></trkpt><trkpt lat="35.37317748345656" lon="138.73853010422837"><ele>3121.366921423003</ele><time>2022-05-22T05:29:06Z</time></trkpt><trkpt lat="35.37311968414756" lon="138.7387525981681"><ele>3119.1278529837728</ele><time>2022-05-22T05:29:12Z</time></trkpt><trkpt lat="35.37317400682514" lon="138.73896617160918"><ele>3105.722184509039</ele><time>2022-05-22T05:29:20Z</time></trkpt><trkpt lat="35.373357243029425" lon="138.73904352008753"><ele>3091.7721297191456</ele><time>2022-05-22T05:29:30Z</time></trkpt><trkpt lat="35.37339985153509" lon="138.73927017337977"><ele>3084.1062768828124</ele><time>2022-05-22T05:29:35Z</time></trkpt><trkpt lat="35.39432588967997" lon="138.73177031068013"><ele>2266.9141578674316</ele><time>2022-05-22T07:46:11Z</time></trkpt></trkseg></trk></gpx>