<?xml version='1.0' encoding='UTF-8'?><gpx creator="YAMAP - https://yamap.com" xsi:schemaLocation="http://www.topografix.com/GPX/1/1 http://www.topografix.com/GPX/1/1/gpx.xsd" version="1.1" xmlns="http://www.topografix.com/GPX/1/1" xmlns:xsi="http://www.w3.org/2001/XMLSchema-instance"><metadata><bounds maxlat="36.91600382777024" maxlon="139.2010319112866" minlat="36.883343886026076" minlon="139.17119902724892"/></metadata><trk><name>至仏山・小至仏山</name><number>1</number><trkseg><trkpt lat="36.889378554017284" lon="139.2010319112866"><ele>1583.7161522712559</ele><time>2022-10-09T00:53:03Z</time></trkpt><trkpt lat="36.88957171155395" lon="139.20100194331752"><ele>1589.2011295575649</ele><time>2022-10-09T00:53:26Z</time></trkpt><trkpt lat="36.889753788949484" lon="139.2009475361553"><ele>1590.127573906444</ele><time>2022-10-09T00:53:42Z</time></trkpt><trkpt lat="36.88986580287552" lon="139.2007687334847"><ele>1589.8999916268513</ele><time>2022-10-09T00:54:03Z</time></trkpt><trkpt lat="36.889945720575945" lon="139.20056442176738"><ele>1590.3270927630365</ele><time>2022-10-09T00:54:25Z</time></trkpt><trkpt lat="36.89011739816957" lon="139.20048400282948"><ele>1591.1035610288382</ele><time>2022-10-09T00:54:48Z</time></trkpt><trkpt lat="36.89026375628107" lon="139.20034929753226"><ele>1593.0844904854894</ele><time>2022-10-09T00:55:06Z</time></trkpt><trkpt lat="36.89044167346875" lon="139.2003907325268"><ele>1594.247481633909</ele><time>2022-10-09T00:55:39Z</time></trkpt><trkpt lat="36.89062144573096" lon="139.20032834125243"><ele>1592.1290867822245</ele><time>2022-10-09T00:56:00Z</time></trkpt><trkpt lat="36.89079587210241" lon="139.20023910471912"><ele>1590.9538426622748</ele><time>2022-10-09T00:56:28Z</time></trkpt><trkpt lat="36.890975230178235" lon="139.20016331144075"><ele>1590.7494589025155</ele><time>2022-10-09T00:56:55Z</time></trkpt><trkpt lat="36.89117217753266" lon="139.2001361893557"><ele>1587.025602824986</ele><time>2022-10-09T00:57:34Z</time></trkpt><trkpt lat="36.89135419674455" lon="139.2000810013387"><ele>1582.3274746444076</ele><time>2022-10-09T00:58:04Z</time></trkpt><trkpt lat="36.89147862051188" lon="139.1999037051887"><ele>1582.9773823637515</ele><time>2022-10-09T00:58:43Z</time></trkpt><trkpt lat="36.89166944090502" lon="139.19993361824407"><ele>1571.6663248343393</ele><time>2022-10-09T01:01:46Z</time></trkpt><trkpt lat="36.89185233923137" lon="139.19996194851535"><ele>1570.957907200791</ele><time>2022-10-09T01:02:09Z</time></trkpt><trkpt lat="36.89190656773271" lon="139.19974451734788"><ele>1565.6076050801203</ele><time>2022-10-09T01:02:42Z</time></trkpt><trkpt lat="36.89208440512513" lon="139.19969016877417"><ele>1562.4133283020929</ele><time>2022-10-09T01:03:14Z</time></trkpt><trkpt lat="36.89225835405327" lon="139.1996211509603"><ele>1557.0814140262082</ele><time>2022-10-09T01:03:57Z</time></trkpt><trkpt lat="36.89243852636238" lon="139.19962262499413"><ele>1553.374361702241</ele><time>2022-10-09T01:04:24Z</time></trkpt><trkpt lat="36.892623742308764" lon="139.19963714235078"><ele>1548.2904302012175</ele><time>2022-10-09T01:05:07Z</time></trkpt><trkpt lat="36.89280285681472" lon="139.19959459763808"><ele>1546.6118315421045</ele><time>2022-10-09T01:05:31Z</time></trkpt><trkpt lat="36.892982641674884" lon="139.19957880270672"><ele>1540.3564645387232</ele><time>2022-10-09T01:06:11Z</time></trkpt><trkpt lat="36.89316333271214" lon="139.19962573773398"><ele>1540.4182417560369</ele><time>2022-10-09T01:06:41Z</time></trkpt><trkpt lat="36.89334973607158" lon="139.19961472038887"><ele>1541.044161003083</ele><time>2022-10-09T01:07:03Z</time></trkpt><trkpt lat="36.89353039080236" lon="139.19954683917007"><ele>1536.8796692779288</ele><time>2022-10-09T01:07:43Z</time></trkpt><trkpt lat="36.89366293915712" lon="139.19938679281802"><ele>1537.5449786735699</ele><time>2022-10-09T01:08:02Z</time></trkpt><trkpt lat="36.893805322896206" lon="139.19924595375605"><ele>1533.7491977484897</ele><time>2022-10-09T01:08:30Z</time></trkpt><trkpt lat="36.89399768629836" lon="139.19923175869337"><ele>1532.783440284431</ele><time>2022-10-09T01:08:49Z</time></trkpt><trkpt lat="36.89416189169826" lon="139.19911679721918"><ele>1537.8929015016183</ele><time>2022-10-09T01:09:12Z</time></trkpt><trkpt lat="36.89426085625876" lon="139.19892241370476"><ele>1536.891993981786</ele><time>2022-10-09T01:09:39Z</time></trkpt><trkpt lat="36.89443389440785" lon="139.19885918766533"><ele>1535.3437427729368</ele><time>2022-10-09T01:10:00Z</time></trkpt><trkpt lat="36.8946145328423" lon="139.19882357533982"><ele>1535.7620692653582</ele><time>2022-10-09T01:10:18Z</time></trkpt><trkpt lat="36.894803427496555" lon="139.19877904356787"><ele>1534.9320853408426</ele><time>2022-10-09T01:10:39Z</time></trkpt><trkpt lat="36.89498682812933" lon="139.19880621619998"><ele>1533.795811098069</ele><time>2022-10-09T01:11:00Z</time></trkpt><trkpt lat="36.895166751237966" lon="139.19877430875414"><ele>1533.976395313628</ele><time>2022-10-09T01:11:21Z</time></trkpt><trkpt lat="36.895349340364845" lon="139.1987590697153"><ele>1528.3561444040388</ele><time>2022-10-09T01:11:44Z</time></trkpt><trkpt lat="36.89552743509771" lon="139.19870654548492"><ele>1526.4456845521927</ele><time>2022-10-09T01:12:01Z</time></trkpt><trkpt lat="36.895709242771105" lon="139.1986947214262"><ele>1526.8786999871954</ele><time>2022-10-09T01:12:19Z</time></trkpt><trkpt lat="36.89590065331392" lon="139.1986625548743"><ele>1526.3686708379537</ele><time>2022-10-09T01:12:42Z</time></trkpt><trkpt lat="36.89607013285534" lon="139.1985863218202"><ele>1521.5638040658087</ele><time>2022-10-09T01:13:03Z</time></trkpt><trkpt lat="36.89624457103837" lon="139.19849871240788"><ele>1519.0380085613579</ele><time>2022-10-09T01:13:25Z</time></trkpt><trkpt lat="36.89642601949562" lon="139.19841959603136"><ele>1516.7573325587437</ele><time>2022-10-09T01:13:44Z</time></trkpt><trkpt lat="36.896610858829256" lon="139.198374823859"><ele>1513.0331889325753</ele><time>2022-10-09T01:14:13Z</time></trkpt><trkpt lat="36.896788727995556" lon="139.19845234501278"><ele>1510.4508683504537</ele><time>2022-10-09T01:14:43Z</time></trkpt><trkpt lat="36.89697164434311" lon="139.1985059583198"><ele>1508.9799609566107</ele><time>2022-10-09T01:14:58Z</time></trkpt><trkpt lat="36.897176158407355" lon="139.1984910551451"><ele>1507.2644586488605</ele><time>2022-10-09T01:15:14Z</time></trkpt><trkpt lat="36.89736077117114" lon="139.19847040378212"><ele>1505.078309030272</ele><time>2022-10-09T01:15:29Z</time></trkpt><trkpt lat="36.89753670443136" lon="139.19853734585297"><ele>1501.3616331377998</ele><time>2022-10-09T01:15:40Z</time></trkpt><trkpt lat="36.89772242551686" lon="139.19856937808723"><ele>1498.4322479441762</ele><time>2022-10-09T01:16:01Z</time></trkpt><trkpt lat="36.89789102088881" lon="139.1986837798104"><ele>1495.4191866954789</ele><time>2022-10-09T01:16:24Z</time></trkpt><trkpt lat="36.89805226821478" lon="139.1985762647852"><ele>1485.6737640053034</ele><time>2022-10-09T01:17:14Z</time></trkpt><trkpt lat="36.898161092799455" lon="139.1983939801139"><ele>1482.8971428582445</ele><time>2022-10-09T01:17:37Z</time></trkpt><trkpt lat="36.89831820123107" lon="139.19826273062418"><ele>1480.6051892926916</ele><time>2022-10-09T01:17:56Z</time></trkpt><trkpt lat="36.89850802772051" lon="139.19824273303115"><ele>1478.935247390531</ele><time>2022-10-09T01:18:15Z</time></trkpt><trkpt lat="36.89865049130979" lon="139.19839906514378"><ele>1478.5090634282678</ele><time>2022-10-09T01:18:32Z</time></trkpt><trkpt lat="36.898818026354256" lon="139.19829144489523"><ele>1479.229512423277</ele><time>2022-10-09T01:18:48Z</time></trkpt><trkpt lat="36.89899675011837" lon="139.19832579763445"><ele>1476.891275160946</ele><time>2022-10-09T01:18:58Z</time></trkpt><trkpt lat="36.899137468180705" lon="139.1981784300243"><ele>1476.7051097024232</ele><time>2022-10-09T01:19:29Z</time></trkpt><trkpt lat="36.89929488549824" lon="139.19806338660595"><ele>1473.9784988928586</ele><time>2022-10-09T01:19:53Z</time></trkpt><trkpt lat="36.899429577384716" lon="139.19823060677976"><ele>1475.682091823779</ele><time>2022-10-09T01:20:13Z</time></trkpt><trkpt lat="36.899519115793886" lon="139.19843222646134"><ele>1478.6098183412105</ele><time>2022-10-09T01:20:30Z</time></trkpt><trkpt lat="36.89970947870757" lon="139.19844366080252"><ele>1481.8368897289038</ele><time>2022-10-09T01:20:54Z</time></trkpt><trkpt lat="36.89989404580175" lon="139.1984228042503"><ele>1480.1445414572954</ele><time>2022-10-09T01:21:12Z</time></trkpt><trkpt lat="36.90008411409047" lon="139.19846311275418"><ele>1480.271487426944</ele><time>2022-10-09T01:21:39Z</time></trkpt><trkpt lat="36.90026422241299" lon="139.19843340131334"><ele>1476.8255877271295</ele><time>2022-10-09T01:22:04Z</time></trkpt><trkpt lat="36.900436482194124" lon="139.19834043556259"><ele>1475.8340041963384</ele><time>2022-10-09T01:22:23Z</time></trkpt><trkpt lat="36.9005665643404" lon="139.198179325111"><ele>1476.412909636274</ele><time>2022-10-09T01:22:39Z</time></trkpt><trkpt lat="36.90073448231891" lon="139.198093627333"><ele>1477.0058669783175</ele><time>2022-10-09T01:22:58Z</time></trkpt><trkpt lat="36.90091946821793" lon="139.19803222127715"><ele>1470.7617581412196</ele><time>2022-10-09T01:23:20Z</time></trkpt><trkpt lat="36.901109468924595" lon="139.1979933562167"><ele>1470.853508228436</ele><time>2022-10-09T01:23:39Z</time></trkpt><trkpt lat="36.90129351359631" lon="139.19798456331688"><ele>1469.603417115286</ele><time>2022-10-09T01:23:58Z</time></trkpt><trkpt lat="36.901473057110884" lon="139.19796559461574"><ele>1467.3377516428009</ele><time>2022-10-09T01:24:20Z</time></trkpt><trkpt lat="36.901656659060954" lon="139.19789740324367"><ele>1467.4540817067027</ele><time>2022-10-09T01:24:37Z</time></trkpt><trkpt lat="36.90182592581063" lon="139.19779853344724"><ele>1463.1423493716866</ele><time>2022-10-09T01:25:05Z</time></trkpt><trkpt lat="36.90198973860169" lon="139.19770307566046"><ele>1459.4048676397651</ele><time>2022-10-09T01:25:35Z</time></trkpt><trkpt lat="36.90212886127135" lon="139.19754926224422"><ele>1455.5975250927731</ele><time>2022-10-09T01:26:00Z</time></trkpt><trkpt lat="36.90229646459425" lon="139.19746485786476"><ele>1457.9647616418079</ele><time>2022-10-09T01:26:25Z</time></trkpt><trkpt lat="36.902434425092714" lon="139.197312997774"><ele>1458.2170902770013</ele><time>2022-10-09T01:26:43Z</time></trkpt><trkpt lat="36.90251848482294" lon="139.19711068871948"><ele>1453.2354825744405</ele><time>2022-10-09T01:27:12Z</time></trkpt><trkpt lat="36.902706173684294" lon="139.1971233482528"><ele>1455.5357751157135</ele><time>2022-10-09T01:27:31Z</time></trkpt><trkpt lat="36.90287356937992" lon="139.19720938075267"><ele>1454.5237209908664</ele><time>2022-10-09T01:27:53Z</time></trkpt><trkpt lat="36.903063741980745" lon="139.19724198531833"><ele>1456.0003201738</ele><time>2022-10-09T01:28:21Z</time></trkpt><trkpt lat="36.90325862279064" lon="139.19729206695845"><ele>1455.982340353541</ele><time>2022-10-09T01:28:40Z</time></trkpt><trkpt lat="36.903447966699446" lon="139.19733073604687"><ele>1456.8609225181863</ele><time>2022-10-09T01:28:59Z</time></trkpt><trkpt lat="36.9036227275284" lon="139.1973964867342"><ele>1454.4349852502346</ele><time>2022-10-09T01:29:30Z</time></trkpt><trkpt lat="36.903779922913195" lon="139.19751868949922"><ele>1450.2370263636112</ele><time>2022-10-09T01:29:52Z</time></trkpt><trkpt lat="36.90394245948752" lon="139.19764736794457"><ele>1450.6241998355836</ele><time>2022-10-09T01:30:15Z</time></trkpt><trkpt lat="36.904113948466815" lon="139.1977720669291"><ele>1451.4830234842375</ele><time>2022-10-09T01:30:37Z</time></trkpt><trkpt lat="36.90429262883827" lon="139.19785218771986"><ele>1453.859425444156</ele><time>2022-10-09T01:30:57Z</time></trkpt><trkpt lat="36.90449131429503" lon="139.19788567940827"><ele>1452.3399995127693</ele><time>2022-10-09T01:31:18Z</time></trkpt><trkpt lat="36.90468168184106" lon="139.19787797580875"><ele>1450.096785590984</ele><time>2022-10-09T01:31:42Z</time></trkpt><trkpt lat="36.90487371555776" lon="139.19788678681743"><ele>1450.0930614043027</ele><time>2022-10-09T01:32:05Z</time></trkpt><trkpt lat="36.9050645884255" lon="139.19786079454877"><ele>1448.3632326582447</ele><time>2022-10-09T01:32:32Z</time></trkpt><trkpt lat="36.90523273278284" lon="139.19797127682656"><ele>1449.9915537256747</ele><time>2022-10-09T01:32:56Z</time></trkpt><trkpt lat="36.905417577275166" lon="139.19795208030058"><ele>1446.6705739889294</ele><time>2022-10-09T01:33:21Z</time></trkpt><trkpt lat="36.90557157131882" lon="139.1978247749088"><ele>1449.7999980449677</ele><time>2022-10-09T01:33:37Z</time></trkpt><trkpt lat="36.90576393978975" lon="139.1977473173322"><ele>1450.8774544717744</ele><time>2022-10-09T01:34:03Z</time></trkpt><trkpt lat="36.905938236903594" lon="139.1978270653191"><ele>1446.0231251120567</ele><time>2022-10-09T01:34:24Z</time></trkpt><trkpt lat="36.90612428031523" lon="139.19782788054601"><ele>1443.9768414171413</ele><time>2022-10-09T01:34:41Z</time></trkpt><trkpt lat="36.90630827447349" lon="139.1978437724942"><ele>1440.2981037115678</ele><time>2022-10-09T01:35:10Z</time></trkpt><trkpt lat="36.90648346238256" lon="139.19791690084722"><ele>1441.607273166068</ele><time>2022-10-09T01:35:48Z</time></trkpt><trkpt lat="36.90666941866861" lon="139.1979294158345"><ele>1438.5684223445132</ele><time>2022-10-09T01:36:09Z</time></trkpt><trkpt lat="36.90685574126639" lon="139.19790120412048"><ele>1439.7682553194463</ele><time>2022-10-09T01:36:27Z</time></trkpt><trkpt lat="36.90703272535597" lon="139.19798695927454"><ele>1439.1876736180857</ele><time>2022-10-09T01:36:51Z</time></trkpt><trkpt lat="36.9072192284049" lon="139.1980296106996"><ele>1437.1564736124128</ele><time>2022-10-09T01:37:07Z</time></trkpt><trkpt lat="36.90740843779251" lon="139.19801546369303"><ele>1436.694708134979</ele><time>2022-10-09T01:37:24Z</time></trkpt><trkpt lat="36.907599706227124" lon="139.19803401078673"><ele>1436.3513924516737</ele><time>2022-10-09T01:37:41Z</time></trkpt><trkpt lat="36.9077569699578" lon="139.19789402063023"><ele>1435.6752313068137</ele><time>2022-10-09T01:37:58Z</time></trkpt><trkpt lat="36.90790816883218" lon="139.19774966155407"><ele>1436.9784796601161</ele><time>2022-10-09T01:38:17Z</time></trkpt><trkpt lat="36.908000167164914" lon="139.1975315679809"><ele>1438.095673869364</ele><time>2022-10-09T01:38:38Z</time></trkpt><trkpt lat="36.90805512669237" lon="139.19731267415568"><ele>1437.7579803410918</ele><time>2022-10-09T01:38:58Z</time></trkpt><trkpt lat="36.908204062390176" lon="139.19716010967977"><ele>1430.7356321988627</ele><time>2022-10-09T01:39:24Z</time></trkpt><trkpt lat="36.90836724686239" lon="139.19705061547722"><ele>1432.9785339012742</ele><time>2022-10-09T01:39:37Z</time></trkpt><trkpt lat="36.908548948460734" lon="139.19709904109357"><ele>1434.0374215478078</ele><time>2022-10-09T01:39:51Z</time></trkpt><trkpt lat="36.9087069767657" lon="139.19699022870802"><ele>1436.0593600515276</ele><time>2022-10-09T01:40:07Z</time></trkpt><trkpt lat="36.908885244251415" lon="139.19703053434924"><ele>1436.8649370865896</ele><time>2022-10-09T01:40:23Z</time></trkpt><trkpt lat="36.90903037649719" lon="139.19716630305376"><ele>1437.9391752025113</ele><time>2022-10-09T01:40:41Z</time></trkpt><trkpt lat="36.90921015609953" lon="139.19721609473442"><ele>1433.5926794512197</ele><time>2022-10-09T01:40:57Z</time></trkpt><trkpt lat="36.90942753354377" lon="139.19724115109474"><ele>1431.2080464018509</ele><time>2022-10-09T01:41:14Z</time></trkpt><trkpt lat="36.90961500406622" lon="139.19720250134856"><ele>1428.069880370982</ele><time>2022-10-09T01:41:31Z</time></trkpt><trkpt lat="36.909801869126454" lon="139.19719462399763"><ele>1426.3679692167789</ele><time>2022-10-09T01:41:50Z</time></trkpt><trkpt lat="36.90998994789487" lon="139.1971878979249"><ele>1428.2898861514404</ele><time>2022-10-09T01:42:10Z</time></trkpt><trkpt lat="36.91017164449976" lon="139.1972099282161"><ele>1425.9194038221613</ele><time>2022-10-09T01:42:24Z</time></trkpt><trkpt lat="36.91035418229954" lon="139.1972442107083"><ele>1427.3852449432015</ele><time>2022-10-09T01:42:40Z</time></trkpt><trkpt lat="36.91054011911606" lon="139.19723374210233"><ele>1429.358978671953</ele><time>2022-10-09T01:42:54Z</time></trkpt><trkpt lat="36.910705270926336" lon="139.19711603606964"><ele>1425.9304822329432</ele><time>2022-10-09T01:43:12Z</time></trkpt><trkpt lat="36.91091294741532" lon="139.19710396864429"><ele>1426.24223170802</ele><time>2022-10-09T01:43:35Z</time></trkpt><trkpt lat="36.911091199251494" lon="139.19706211066847"><ele>1426.6340250661597</ele><time>2022-10-09T01:43:52Z</time></trkpt><trkpt lat="36.91127971300807" lon="139.19702160070693"><ele>1424.6471866564825</ele><time>2022-10-09T01:44:11Z</time></trkpt><trkpt lat="36.91144242420168" lon="139.19713784394833"><ele>1425.760133948177</ele><time>2022-10-09T01:44:31Z</time></trkpt><trkpt lat="36.91163296835589" lon="139.1971632459335"><ele>1426.0904403608292</ele><time>2022-10-09T01:44:45Z</time></trkpt><trkpt lat="36.9117899120253" lon="139.19728895186455"><ele>1427.3288912493736</ele><time>2022-10-09T01:45:03Z</time></trkpt><trkpt lat="36.91197509796218" lon="139.19733634121914"><ele>1427.0184275973588</ele><time>2022-10-09T01:45:21Z</time></trkpt><trkpt lat="36.91215441722006" lon="139.19736031529513"><ele>1426.3927150825039</ele><time>2022-10-09T01:45:36Z</time></trkpt><trkpt lat="36.91233653773834" lon="139.19738088528626"><ele>1425.3386283731088</ele><time>2022-10-09T01:45:49Z</time></trkpt><trkpt lat="36.91251463358913" lon="139.19733841844985"><ele>1421.4194891126826</ele><time>2022-10-09T01:46:06Z</time></trkpt><trkpt lat="36.912699950225345" lon="139.1972859327291"><ele>1419.7360255736858</ele><time>2022-10-09T01:46:22Z</time></trkpt><trkpt lat="36.91287961530832" lon="139.19722649865915"><ele>1419.169021495618</ele><time>2022-10-09T01:46:44Z</time></trkpt><trkpt lat="36.91304776410943" lon="139.19730937446485"><ele>1420.3784899935126</ele><time>2022-10-09T01:46:59Z</time></trkpt><trkpt lat="36.91325019955263" lon="139.19730246504682"><ele>1418.8293764414266</ele><time>2022-10-09T01:47:16Z</time></trkpt><trkpt lat="36.913413250469574" lon="139.19717527697978"><ele>1411.946409500204</ele><time>2022-10-09T01:47:44Z</time></trkpt><trkpt lat="36.91356485706557" lon="139.19730625691696"><ele>1415.6864421768114</ele><time>2022-10-09T01:48:03Z</time></trkpt><trkpt lat="36.91375023656878" lon="139.1973474672582"><ele>1417.973273199983</ele><time>2022-10-09T01:48:23Z</time></trkpt><trkpt lat="36.91391889315212" lon="139.1974344080924"><ele>1418.4472234370187</ele><time>2022-10-09T01:48:46Z</time></trkpt><trkpt lat="36.91411611816792" lon="139.19741130991298"><ele>1419.1432936154306</ele><time>2022-10-09T01:49:01Z</time></trkpt><trkpt lat="36.914300298146195" lon="139.19745194409984"><ele>1416.918618968688</ele><time>2022-10-09T01:49:19Z</time></trkpt><trkpt lat="36.91449264173124" lon="139.1974364313833"><ele>1418.6228683833033</ele><time>2022-10-09T01:49:37Z</time></trkpt><trkpt lat="36.91468429403146" lon="139.19744508999176"><ele>1419.0520832277834</ele><time>2022-10-09T01:49:53Z</time></trkpt><trkpt lat="36.91486377569558" lon="139.19741296822951"><ele>1415.6368075693026</ele><time>2022-10-09T01:50:11Z</time></trkpt><trkpt lat="36.915050667406014" lon="139.19737468669507"><ele>1413.4874045159668</ele><time>2022-10-09T01:50:26Z</time></trkpt><trkpt lat="36.915223525911024" lon="139.1972935958666"><ele>1413.5627162288874</ele><time>2022-10-09T01:50:42Z</time></trkpt><trkpt lat="36.915412704366524" lon="139.19736565358411"><ele>1413.3790655825287</ele><time>2022-10-09T01:51:54Z</time></trkpt><trkpt lat="36.91541249558199" lon="139.1975966590844"><ele>1412.666222677566</ele><time>2022-10-09T01:52:05Z</time></trkpt><trkpt lat="36.91523864868754" lon="139.19717699302285"><ele>1408.9268455747515</ele><time>2022-10-09T01:53:18Z</time></trkpt><trkpt lat="36.91532692690424" lon="139.19753475669782"><ele>1417.577020322904</ele><time>2022-10-09T01:53:19Z</time></trkpt><trkpt lat="36.9154154155769" lon="139.19733857739158"><ele>1411.6520723188296</ele><time>2022-10-09T01:54:58Z</time></trkpt><trkpt lat="36.91539796386246" lon="139.19739089077063"><ele>1414.6372609352693</ele><time>2022-10-09T01:56:29Z</time></trkpt><trkpt lat="36.91529728010024" lon="139.1971020588085"><ele>1413.0324363941327</ele><time>2022-10-09T01:59:37Z</time></trkpt><trkpt lat="36.91512071530978" lon="139.1971541104272"><ele>1412.9438133239746</ele><time>2022-10-09T01:59:42Z</time></trkpt><trkpt lat="36.91527957719525" lon="139.19731138106746"><ele>1418.8313355026767</ele><time>2022-10-09T01:59:44Z</time></trkpt><trkpt lat="36.91508299674565" lon="139.19728914288729"><ele>1400.1914940122515</ele><time>2022-10-09T02:01:47Z</time></trkpt><trkpt lat="36.91527199678323" lon="139.19744377513487"><ele>1419.8944724751636</ele><time>2022-10-09T02:02:10Z</time></trkpt><trkpt lat="36.91530090396054" lon="139.19691302435456"><ele>1418.1182772368193</ele><time>2022-10-09T02:03:53Z</time></trkpt><trkpt lat="36.91524889148531" lon="139.19713500204662"><ele>1417.937656801194</ele><time>2022-10-09T02:04:00Z</time></trkpt><trkpt lat="36.91538076867141" lon="139.19730522912513"><ele>1412.9696398014203</ele><time>2022-10-09T02:04:18Z</time></trkpt><trkpt lat="36.915555295572275" lon="139.19738197917755"><ele>1413.0394367780536</ele><time>2022-10-09T02:04:35Z</time></trkpt><trkpt lat="36.915745359964866" lon="139.19731079661452"><ele>1411.575740646571</ele><time>2022-10-09T02:04:51Z</time></trkpt><trkpt lat="36.91591603255217" lon="139.19722376246466"><ele>1410.5417283037677</ele><time>2022-10-09T02:05:17Z</time></trkpt><trkpt lat="36.915736323136045" lon="139.1972884293221"><ele>1415.1190905338153</ele><time>2022-10-09T02:06:04Z</time></trkpt><trkpt lat="36.91589553029688" lon="139.19717672133245"><ele>1409.6653068959713</ele><time>2022-10-09T02:18:27Z</time></trkpt><trkpt lat="36.91596636631421" lon="139.19695756581166"><ele>1408.3543819291517</ele><time>2022-10-09T02:19:00Z</time></trkpt><trkpt lat="36.91600382777024" lon="139.19673577754762"><ele>1409.3583337729797</ele><time>2022-10-09T02:19:15Z</time></trkpt><trkpt lat="36.915989002227455" lon="139.19650424009086"><ele>1407.7377260057256</ele><time>2022-10-09T02:19:47Z</time></trkpt><trkpt lat="36.91595997728184" lon="139.19627351050153"><ele>1407.2464607292786</ele><time>2022-10-09T02:20:07Z</time></trkpt><trkpt lat="36.91592261995288" lon="139.19604542624543"><ele>1408.3494074726477</ele><time>2022-10-09T02:20:45Z</time></trkpt><trkpt lat="36.91584668911096" lon="139.19583516568548"><ele>1408.8783923238516</ele><time>2022-10-09T02:21:06Z</time></trkpt><trkpt lat="36.91577271041035" lon="139.19562009217202"><ele>1409.0493649495766</ele><time>2022-10-09T02:21:28Z</time></trkpt><trkpt lat="36.91569624600432" lon="139.19540758261033"><ele>1409.0268418379128</ele><time>2022-10-09T02:21:47Z</time></trkpt><trkpt lat="36.91562032186042" lon="139.1952024899116"><ele>1408.7532739350572</ele><time>2022-10-09T02:22:05Z</time></trkpt><trkpt lat="36.91554711005795" lon="139.19498428630408"><ele>1407.8083725776523</ele><time>2022-10-09T02:22:24Z</time></trkpt><trkpt lat="36.915472276710375" lon="139.19476332800568"><ele>1408.9008567230776</ele><time>2022-10-09T02:22:42Z</time></trkpt><trkpt lat="36.915401298640326" lon="139.1945474944282"><ele>1408.9333707960322</ele><time>2022-10-09T02:23:01Z</time></trkpt><trkpt lat="36.915323620739066" lon="139.1943233770806"><ele>1410.0617816951126</ele><time>2022-10-09T02:23:17Z</time></trkpt><trkpt lat="36.91525069700837" lon="139.19411200479647"><ele>1411.7886409154162</ele><time>2022-10-09T02:24:09Z</time></trkpt><trkpt lat="36.91515150390293" lon="139.19391241835868"><ele>1411.6559830987826</ele><time>2022-10-09T02:24:37Z</time></trkpt><trkpt lat="36.915063599022226" lon="139.19371066923523"><ele>1419.4629056174308</ele><time>2022-10-09T02:25:10Z</time></trkpt><trkpt lat="36.91493879318665" lon="139.19353899245792"><ele>1423.8054556660354</ele><time>2022-10-09T02:25:41Z</time></trkpt><trkpt lat="36.914803959497625" lon="139.19338982783756"><ele>1431.604542545043</ele><time>2022-10-09T02:26:14Z</time></trkpt><trkpt lat="36.914666519731" lon="139.19323744673258"><ele>1445.198804573156</ele><time>2022-10-09T02:27:02Z</time></trkpt><trkpt lat="36.91460488437597" lon="139.1930180584957"><ele>1445.2739929603413</ele><time>2022-10-09T02:27:37Z</time></trkpt><trkpt lat="36.914452764278714" lon="139.1928960001745"><ele>1456.2293613264337</ele><time>2022-10-09T02:28:13Z</time></trkpt><trkpt lat="36.914342673732904" lon="139.1927136631482"><ele>1458.5600770264864</ele><time>2022-10-09T02:28:44Z</time></trkpt><trkpt lat="36.91428157057149" lon="139.19249879343252"><ele>1458.604897719808</ele><time>2022-10-09T02:29:08Z</time></trkpt><trkpt lat="36.91410159914388" lon="139.19244141794096"><ele>1463.6733101559803</ele><time>2022-10-09T02:29:40Z</time></trkpt><trkpt lat="36.913970064783946" lon="139.1922821031013"><ele>1470.1981965769082</ele><time>2022-10-09T02:30:13Z</time></trkpt><trkpt lat="36.913933701598836" lon="139.19206123405434"><ele>1475.156961582601</ele><time>2022-10-09T02:30:43Z</time></trkpt><trkpt lat="36.91379497520976" lon="139.1919049076331"><ele>1482.9946826398373</ele><time>2022-10-09T02:31:27Z</time></trkpt><trkpt lat="36.91363792375651" lon="139.19178771494555"><ele>1488.5512383524328</ele><time>2022-10-09T02:32:16Z</time></trkpt><trkpt lat="36.91350363291322" lon="139.1916246879451"><ele>1493.5899142157286</ele><time>2022-10-09T02:32:53Z</time></trkpt><trkpt lat="36.91337130193193" lon="139.19146997908805"><ele>1504.6517629632726</ele><time>2022-10-09T02:33:40Z</time></trkpt><trkpt lat="36.91323536589889" lon="139.1913109174307"><ele>1515.6737498259172</ele><time>2022-10-09T02:36:48Z</time></trkpt><trkpt lat="36.91312146151851" lon="139.19113143933782"><ele>1515.5837506176904</ele><time>2022-10-09T02:37:29Z</time></trkpt><trkpt lat="36.91308027326934" lon="139.1909119921349"><ele>1519.7959972713143</ele><time>2022-10-09T02:38:23Z</time></trkpt><trkpt lat="36.91296572136509" lon="139.1907313782596"><ele>1528.7617822680622</ele><time>2022-10-09T02:39:05Z</time></trkpt><trkpt lat="36.91283514302819" lon="139.19056979412468"><ele>1535.953672785312</ele><time>2022-10-09T02:40:18Z</time></trkpt><trkpt lat="36.912682783697754" lon="139.19044593504157"><ele>1542.5609392281622</ele><time>2022-10-09T02:42:16Z</time></trkpt><trkpt lat="36.912523629625206" lon="139.1903253303745"><ele>1550.7334980946034</ele><time>2022-10-09T02:42:54Z</time></trkpt><trkpt lat="36.91239277117377" lon="139.19015835698065"><ele>1564.4612345350906</ele><time>2022-10-09T02:43:55Z</time></trkpt><trkpt lat="36.91237451949415" lon="139.19015649204889"><ele>1563.6057659490034</ele><time>2022-10-09T02:43:58Z</time></trkpt><trkpt lat="36.91235420234531" lon="139.19015726750607"><ele>1563.331419473514</ele><time>2022-10-09T02:44:10Z</time></trkpt><trkpt lat="36.91235063714621" lon="139.19015476234398"><ele>1563.2622142247856</ele><time>2022-10-09T02:44:11Z</time></trkpt><trkpt lat="36.91223126168875" lon="139.1899811943025"><ele>1567.361561407335</ele><time>2022-10-09T02:45:10Z</time></trkpt><trkpt lat="36.912116677322814" lon="139.18978695655517"><ele>1575.2340293573216</ele><time>2022-10-09T02:46:11Z</time></trkpt><trkpt lat="36.91201674029605" lon="139.1895953341812"><ele>1581.3799934964627</ele><time>2022-10-09T02:46:59Z</time></trkpt><trkpt lat="36.911914785463125" lon="139.18940492146848"><ele>1586.5739663681015</ele><time>2022-10-09T02:47:53Z</time></trkpt><trkpt lat="36.91174824449305" lon="139.18931004367505"><ele>1591.6189946290106</ele><time>2022-10-09T02:48:36Z</time></trkpt><trkpt lat="36.91165516580591" lon="139.18911289143452"><ele>1597.1174976099283</ele><time>2022-10-09T02:49:24Z</time></trkpt><trkpt lat="36.911559195050586" lon="139.18891237276137"><ele>1601.4873311342672</ele><time>2022-10-09T02:50:08Z</time></trkpt><trkpt lat="36.91145215301689" lon="139.18872956276695"><ele>1607.3346057357267</ele><time>2022-10-09T02:50:59Z</time></trkpt><trkpt lat="36.91135710869508" lon="139.1885332769171"><ele>1614.1538595929742</ele><time>2022-10-09T02:53:20Z</time></trkpt><trkpt lat="36.911251484618035" lon="139.18834924828462"><ele>1616.884073715657</ele><time>2022-10-09T02:54:07Z</time></trkpt><trkpt lat="36.91118223860882" lon="139.1881323955559"><ele>1622.7985348254442</ele><time>2022-10-09T02:54:54Z</time></trkpt><trkpt lat="36.91111669860168" lon="139.18792246341312"><ele>1629.5797837665305</ele><time>2022-10-09T02:55:43Z</time></trkpt><trkpt lat="36.91098053362612" lon="139.18776501755704"><ele>1636.624425349757</ele><time>2022-10-09T02:56:14Z</time></trkpt><trkpt lat="36.9109154656432" lon="139.18755407402156"><ele>1636.6165636675432</ele><time>2022-10-09T02:56:50Z</time></trkpt><trkpt lat="36.91081458656709" lon="139.1873652349006"><ele>1643.0117306485772</ele><time>2022-10-09T02:57:26Z</time></trkpt><trkpt lat="36.9106682290774" lon="139.18722611856634"><ele>1648.1686449712142</ele><time>2022-10-09T02:58:10Z</time></trkpt><trkpt lat="36.91053576430108" lon="139.1870695200204"><ele>1659.505047261715</ele><time>2022-10-09T02:59:21Z</time></trkpt><trkpt lat="36.91038645195843" lon="139.18692725469535"><ele>1664.9969730116427</ele><time>2022-10-09T03:00:38Z</time></trkpt><trkpt lat="36.91028804428744" lon="139.1867380496744"><ele>1666.8133599366993</ele><time>2022-10-09T03:01:24Z</time></trkpt><trkpt lat="36.91017308650194" lon="139.18655587556316"><ele>1677.4439186956733</ele><time>2022-10-09T03:02:54Z</time></trkpt><trkpt lat="36.910049814212826" lon="139.1863814824332"><ele>1685.5384845715016</ele><time>2022-10-09T03:10:05Z</time></trkpt><trkpt lat="36.909984468780515" lon="139.18617212217845"><ele>1692.87225545384</ele><time>2022-10-09T03:10:57Z</time></trkpt><trkpt lat="36.909827057624575" lon="139.18604070938457"><ele>1703.4027112023905</ele><time>2022-10-09T03:11:43Z</time></trkpt><trkpt lat="36.90972263852969" lon="139.18585652779976"><ele>1710.085539327003</ele><time>2022-10-09T03:12:49Z</time></trkpt><trkpt lat="36.90960755469728" lon="139.1856651057035"><ele>1718.1803225232288</ele><time>2022-10-09T03:14:43Z</time></trkpt><trkpt lat="36.90951281811844" lon="139.18546563076845"><ele>1727.0661138864234</ele><time>2022-10-09T03:15:47Z</time></trkpt><trkpt lat="36.909391753662916" lon="139.18529825573646"><ele>1733.7255522115156</ele><time>2022-10-09T03:17:05Z</time></trkpt><trkpt lat="36.90926973963059" lon="139.1851178099515"><ele>1745.0657813418657</ele><time>2022-10-09T03:18:18Z</time></trkpt><trkpt lat="36.90914470427593" lon="139.18494464594988"><ele>1747.495447319001</ele><time>2022-10-09T03:19:30Z</time></trkpt><trkpt lat="36.9089711273104" lon="139.1848841864001"><ele>1751.5872674537823</ele><time>2022-10-09T03:20:51Z</time></trkpt><trkpt lat="36.90886188329877" lon="139.18470055733053"><ele>1758.5020418642089</ele><time>2022-10-09T03:21:38Z</time></trkpt><trkpt lat="36.90876226432309" lon="139.1845129607709"><ele>1770.3928211880848</ele><time>2022-10-09T03:22:41Z</time></trkpt><trkpt lat="36.90869910378755" lon="139.1845066100692"><ele>1777.289283581078</ele><time>2022-10-09T03:25:45Z</time></trkpt><trkpt lat="36.90869910378755" lon="139.1845066100692"><ele>1777.289283581078</ele><time>2022-10-09T03:25:47Z</time></trkpt><trkpt lat="36.908538923498185" lon="139.18438919137458"><ele>1779.5015279874206</ele><time>2022-10-09T03:27:30Z</time></trkpt><trkpt lat="36.908395713362026" lon="139.18425291269045"><ele>1784.3338863691315</ele><time>2022-10-09T03:28:12Z</time></trkpt><trkpt lat="36.90842996675956" lon="139.1840323918903"><ele>1790.3537091733888</ele><time>2022-10-09T03:29:15Z</time></trkpt><trkpt lat="36.908315032890066" lon="139.1838593768287"><ele>1800.8952598106116</ele><time>2022-10-09T03:30:55Z</time></trkpt><trkpt lat="36.908182135559606" lon="139.18370749653212"><ele>1812.203205080703</ele><time>2022-10-09T03:33:10Z</time></trkpt><trkpt lat="36.908102766270915" lon="139.18349851776517"><ele>1821.9419082151726</ele><time>2022-10-09T03:35:28Z</time></trkpt><trkpt lat="36.907977330682826" lon="139.18333418227812"><ele>1829.5391655359417</ele><time>2022-10-09T03:36:56Z</time></trkpt><trkpt lat="36.90787601704898" lon="139.1831446113029"><ele>1837.4302220083773</ele><time>2022-10-09T03:38:38Z</time></trkpt><trkpt lat="36.9077955837679" lon="139.18294235123278"><ele>1847.5124471494928</ele><time>2022-10-09T03:40:21Z</time></trkpt><trkpt lat="36.907662893490304" lon="139.18277849677827"><ele>1856.5188274467364</ele><time>2022-10-09T03:42:09Z</time></trkpt><trkpt lat="36.907514779306275" lon="139.18263856769818"><ele>1864.5036696353927</ele><time>2022-10-09T03:42:38Z</time></trkpt><trkpt lat="36.90739134127412" lon="139.18247100297066"><ele>1874.1058992175385</ele><time>2022-10-09T03:45:55Z</time></trkpt><trkpt lat="36.907337982843416" lon="139.18225294238627"><ele>1881.8114560116082</ele><time>2022-10-09T03:47:34Z</time></trkpt><trkpt lat="36.907159525091465" lon="139.1822087289821"><ele>1890.197137773037</ele><time>2022-10-09T03:49:23Z</time></trkpt><trkpt lat="36.90702505901805" lon="139.1820543199986"><ele>1896.7971458425745</ele><time>2022-10-09T03:51:21Z</time></trkpt><trkpt lat="36.906997380371834" lon="139.18183208495088"><ele>1908.1704433765262</ele><time>2022-10-09T03:53:05Z</time></trkpt><trkpt lat="36.906866704324635" lon="139.1816739239706"><ele>1919.5420080907643</ele><time>2022-10-09T03:55:09Z</time></trkpt><trkpt lat="36.906825275643435" lon="139.1814546798937"><ele>1928.2018853835762</ele><time>2022-10-09T03:55:49Z</time></trkpt><trkpt lat="36.90672904737187" lon="139.1812631083734"><ele>1939.9961830303073</ele><time>2022-10-09T04:00:07Z</time></trkpt><trkpt lat="36.906718098533275" lon="139.18103773556743"><ele>1947.8399821156636</ele><time>2022-10-09T04:00:59Z</time></trkpt><trkpt lat="36.90657178045886" lon="139.18089975956295"><ele>1957.1109586851671</ele><time>2022-10-09T04:01:44Z</time></trkpt><trkpt lat="36.90642494261179" lon="139.18075843876036"><ele>1968.3922780035064</ele><time>2022-10-09T04:02:28Z</time></trkpt><trkpt lat="36.906271587886046" lon="139.18064016456745"><ele>1975.5486774109304</ele><time>2022-10-09T04:04:37Z</time></trkpt><trkpt lat="36.90616565802194" lon="139.18045725315693"><ele>1986.5043966192752</ele><time>2022-10-09T04:06:51Z</time></trkpt><trkpt lat="36.90605844144944" lon="139.1802721829678"><ele>1990.9255532445386</ele><time>2022-10-09T04:08:58Z</time></trkpt><trkpt lat="36.90607623888742" lon="139.18004778928426"><ele>1999.947728334926</ele><time>2022-10-09T04:09:55Z</time></trkpt><trkpt lat="36.905930087719135" lon="139.1798987369828"><ele>2009.9710616450757</ele><time>2022-10-09T04:11:08Z</time></trkpt><trkpt lat="36.905786219697056" lon="139.17975290896288"><ele>2018.4747230522335</ele><time>2022-10-09T04:12:18Z</time></trkpt><trkpt lat="36.90562252996341" lon="139.17965539330498"><ele>2024.9329508114606</ele><time>2022-10-09T04:13:09Z</time></trkpt><trkpt lat="36.90555099992035" lon="139.17944871307486"><ele>2032.7120464481413</ele><time>2022-10-09T04:14:31Z</time></trkpt><trkpt lat="36.905573344213806" lon="139.1792253675577"><ele>2044.8577220924199</ele><time>2022-10-09T04:16:23Z</time></trkpt><trkpt lat="36.90560628058682" lon="139.17900448932116"><ele>2057.5382151296362</ele><time>2022-10-09T04:18:19Z</time></trkpt><trkpt lat="36.90547729011848" lon="139.1788443686984"><ele>2064.802580706775</ele><time>2022-10-09T04:18:58Z</time></trkpt><trkpt lat="36.905302236068046" lon="139.17877818837422"><ele>2072.049018582329</ele><time>2022-10-09T04:19:26Z</time></trkpt><trkpt lat="36.90516102956765" lon="139.17863779272267"><ele>2079.1554629607126</ele><time>2022-10-09T04:19:55Z</time></trkpt><trkpt lat="36.90503948303718" lon="139.17846710669943"><ele>2088.8823132524267</ele><time>2022-10-09T04:20:35Z</time></trkpt><trkpt lat="36.90485810925845" lon="139.17842669644202"><ele>2095.4490551995113</ele><time>2022-10-09T04:21:07Z</time></trkpt><trkpt lat="36.904716861760875" lon="139.1782836896159"><ele>2101.9425822785124</ele><time>2022-10-09T04:21:32Z</time></trkpt><trkpt lat="36.90469832749992" lon="139.178058030289"><ele>2107.73355482053</ele><time>2022-10-09T04:21:58Z</time></trkpt><trkpt lat="36.90454161768128" lon="139.17793117679568"><ele>2113.9881531400606</ele><time>2022-10-09T04:22:22Z</time></trkpt><trkpt lat="36.90447748579815" lon="139.1777195898684"><ele>2117.3759738868102</ele><time>2022-10-09T04:30:15Z</time></trkpt><trkpt lat="36.904382324122125" lon="139.17752843768974"><ele>2119.2479012534022</ele><time>2022-10-09T04:30:44Z</time></trkpt><trkpt lat="36.90424302364536" lon="139.17738586307524"><ele>2123.580556907691</ele><time>2022-10-09T04:31:17Z</time></trkpt><trkpt lat="36.90417451251463" lon="139.17717687219465"><ele>2128.92838919349</ele><time>2022-10-09T04:32:00Z</time></trkpt><trkpt lat="36.90419355449322" lon="139.1769507241855"><ele>2133.4385719187558</ele><time>2022-10-09T04:32:44Z</time></trkpt><trkpt lat="36.90416813341744" lon="139.17672729810496"><ele>2142.147077430971</ele><time>2022-10-09T04:33:28Z</time></trkpt><trkpt lat="36.90416928906253" lon="139.17650259661315"><ele>2144.464288080111</ele><time>2022-10-09T04:34:01Z</time></trkpt><trkpt lat="36.904161233050274" lon="139.17627217412723"><ele>2148.533000325784</ele><time>2022-10-09T04:34:37Z</time></trkpt><trkpt lat="36.9040947486654" lon="139.17605781349997"><ele>2155.8655505692586</ele><time>2022-10-09T04:35:45Z</time></trkpt><trkpt lat="36.904047189755985" lon="139.17583855444383"><ele>2161.8270434392616</ele><time>2022-10-09T04:36:59Z</time></trkpt><trkpt lat="36.90391432707018" lon="139.17568575347656"><ele>2166.392158364877</ele><time>2022-10-09T04:37:29Z</time></trkpt><trkpt lat="36.903803305590664" lon="139.1755052341061"><ele>2168.3920103209093</ele><time>2022-10-09T04:38:02Z</time></trkpt><trkpt lat="36.90368340509509" lon="139.1753269077733"><ele>2172.310783994384</ele><time>2022-10-09T04:40:41Z</time></trkpt><trkpt lat="36.90360239099238" lon="139.17511944892968"><ele>2174.708763620816</ele><time>2022-10-09T04:41:39Z</time></trkpt><trkpt lat="36.90348949808863" lon="139.17493558179902"><ele>2177.0588197177276</ele><time>2022-10-09T04:42:05Z</time></trkpt><trkpt lat="36.9033666309148" lon="139.17476582476894"><ele>2181.772761495784</ele><time>2022-10-09T04:42:45Z</time></trkpt><trkpt lat="36.903335677833184" lon="139.17454401384606"><ele>2187.2515528369695</ele><time>2022-10-09T04:43:54Z</time></trkpt><trkpt lat="36.90328510969064" lon="139.174323223829"><ele>2190.7080298596993</ele><time>2022-10-09T04:45:08Z</time></trkpt><trkpt lat="36.90323948652005" lon="139.17410606360937"><ele>2194.594276896678</ele><time>2022-10-09T04:46:01Z</time></trkpt><trkpt lat="36.9031690052825" lon="139.1738961936551"><ele>2198.972149484791</ele><time>2022-10-09T04:46:45Z</time></trkpt><trkpt lat="36.9030759986938" lon="139.17370367988212"><ele>2203.258812027052</ele><time>2022-10-09T04:47:27Z</time></trkpt><trkpt lat="36.90316692106464" lon="139.1735072460914"><ele>2211.703952510841</ele><time>2022-10-09T04:48:37Z</time></trkpt><trkpt lat="36.90334853762294" lon="139.17346981184775"><ele>2215.79700496234</ele><time>2022-10-09T04:50:31Z</time></trkpt><trkpt lat="36.90352637752546" lon="139.17342576928743"><ele>2222.203977330588</ele><time>2022-10-09T04:51:14Z</time></trkpt><trkpt lat="36.90346441101381" lon="139.17328144643076"><ele>2222.8861876046285</ele><time>2022-10-09T04:52:06Z</time></trkpt><trkpt lat="36.903286055790836" lon="139.1732452300837"><ele>2219.4303440488875</ele><time>2022-10-09T04:55:46Z</time></trkpt><trkpt lat="36.90315085212214" lon="139.17309523164235"><ele>2215.1547490684316</ele><time>2022-10-09T04:56:31Z</time></trkpt><trkpt lat="36.902981464088185" lon="139.17300780583687"><ele>2213.567229228094</ele><time>2022-10-09T05:00:01Z</time></trkpt><trkpt lat="36.90280377966168" lon="139.172943091977"><ele>2213.3331885067746</ele><time>2022-10-09T05:00:44Z</time></trkpt><trkpt lat="36.90265626173336" lon="139.17281374810395"><ele>2215.418222195469</ele><time>2022-10-09T05:01:33Z</time></trkpt><trkpt lat="36.902530379211086" lon="139.1726414352909"><ele>2221.5707447435707</ele><time>2022-10-09T05:04:18Z</time></trkpt><trkpt lat="36.902351279476036" lon="139.17261418753455"><ele>2218.009941060096</ele><time>2022-10-09T05:06:20Z</time></trkpt><trkpt lat="36.902261062811725" lon="139.17251151270693"><ele>2211.894447317347</ele><time>2022-10-09T05:10:06Z</time></trkpt><trkpt lat="36.90217241094271" lon="139.17231198113416"><ele>2210.8875532289967</ele><time>2022-10-09T05:11:42Z</time></trkpt><trkpt lat="36.90210776188701" lon="139.1720932185546"><ele>2204.2410470871255</ele><time>2022-10-09T05:12:40Z</time></trkpt><trkpt lat="36.901991065318114" lon="139.17191931970058"><ele>2207.3548488738015</ele><time>2022-10-09T05:13:40Z</time></trkpt><trkpt lat="36.901834781569335" lon="139.1717995381814"><ele>2205.2811551932245</ele><time>2022-10-09T05:14:59Z</time></trkpt><trkpt lat="36.90167850169105" lon="139.17168390696045"><ele>2195.4058185825124</ele><time>2022-10-09T05:15:59Z</time></trkpt><trkpt lat="36.9014954151842" lon="139.17169316640897"><ele>2191.5085154511034</ele><time>2022-10-09T05:16:57Z</time></trkpt><trkpt lat="36.90131363758473" lon="139.17167200733056"><ele>2188.1044197622687</ele><time>2022-10-09T05:18:07Z</time></trkpt><trkpt lat="36.901130904455506" lon="139.17170251753987"><ele>2182.9428500393406</ele><time>2022-10-09T05:19:39Z</time></trkpt><trkpt lat="36.900986969847786" lon="139.17156439422527"><ele>2179.2406307160854</ele><time>2022-10-09T05:20:20Z</time></trkpt><trkpt lat="36.90083511410962" lon="139.17144055060143"><ele>2175.9047455685213</ele><time>2022-10-09T05:21:01Z</time></trkpt><trkpt lat="36.9006736513661" lon="139.1713310168079"><ele>2171.097344715148</ele><time>2022-10-09T05:21:59Z</time></trkpt><trkpt lat="36.90048859982829" lon="139.17132694130342"><ele>2170.3246247693896</ele><time>2022-10-09T05:23:16Z</time></trkpt><trkpt lat="36.900311287770506" lon="139.17128316533072"><ele>2163.7047826731578</ele><time>2022-10-09T05:25:21Z</time></trkpt><trkpt lat="36.900130263932255" lon="139.1712681326586"><ele>2163.5732704745606</ele><time>2022-10-09T05:25:40Z</time></trkpt><trkpt lat="36.89994960757916" lon="139.17127025601815"><ele>2163.7469006814063</ele><time>2022-10-09T05:26:12Z</time></trkpt><trkpt lat="36.89977413058864" lon="139.17119902724892"><ele>2161.1330464882776</ele><time>2022-10-09T05:26:49Z</time></trkpt><trkpt lat="36.89959841342934" lon="139.17125584384078"><ele>2155.4181657703593</ele><time>2022-10-09T05:27:48Z</time></trkpt><trkpt lat="36.89941868313829" lon="139.17127522140282"><ele>2149.0820895712823</ele><time>2022-10-09T05:29:00Z</time></trkpt><trkpt lat="36.89923274779312" lon="139.17131001635062"><ele>2143.216568564065</ele><time>2022-10-09T05:29:35Z</time></trkpt><trkpt lat="36.89904262407897" lon="139.1712963057801"><ele>2134.084697851911</ele><time>2022-10-09T05:38:19Z</time></trkpt><trkpt lat="36.89885616286149" lon="139.17127124124625"><ele>2130.4082322549075</ele><time>2022-10-09T05:38:45Z</time></trkpt><trkpt lat="36.898689547142936" lon="139.1713681403239"><ele>2127.38381668739</ele><time>2022-10-09T05:39:14Z</time></trkpt><trkpt lat="36.89852729779233" lon="139.17146821887277"><ele>2125.1647842610255</ele><time>2022-10-09T05:40:00Z</time></trkpt><trkpt lat="36.89835457106377" lon="139.17154501480178"><ele>2128.112102678977</ele><time>2022-10-09T05:40:42Z</time></trkpt><trkpt lat="36.89817161011754" lon="139.17160708861394"><ele>2126.292712101713</ele><time>2022-10-09T05:41:22Z</time></trkpt><trkpt lat="36.89799365442831" lon="139.17156419343195"><ele>2124.1268564034253</ele><time>2022-10-09T05:42:02Z</time></trkpt><trkpt lat="36.89781700193708" lon="139.17162242176488"><ele>2120.645009051077</ele><time>2022-10-09T05:43:11Z</time></trkpt><trkpt lat="36.897640932768184" lon="139.17157082385802"><ele>2116.550627601333</ele><time>2022-10-09T05:43:43Z</time></trkpt><trkpt lat="36.897460237170115" lon="139.17159195347077"><ele>2121.7415077555925</ele><time>2022-10-09T05:44:34Z</time></trkpt><trkpt lat="36.897277510779595" lon="139.17153179157702"><ele>2122.928859796375</ele><time>2022-10-09T05:45:00Z</time></trkpt><trkpt lat="36.89709801057429" lon="139.17147637204687"><ele>2125.903529030271</ele><time>2022-10-09T05:45:27Z</time></trkpt><trkpt lat="36.896910696877285" lon="139.17144443762965"><ele>2131.678092029877</ele><time>2022-10-09T05:46:05Z</time></trkpt><trkpt lat="36.896756647304116" lon="139.1715610392607"><ele>2138.1119218347594</ele><time>2022-10-09T05:46:54Z</time></trkpt><trkpt lat="36.896574720090555" lon="139.171517387084"><ele>2143.4942811988294</ele><time>2022-10-09T05:47:23Z</time></trkpt><trkpt lat="36.89639461997362" lon="139.17150250769365"><ele>2153.4324976196513</ele><time>2022-10-09T05:49:11Z</time></trkpt><trkpt lat="36.896212999390855" lon="139.1715007038821"><ele>2153.12530587893</ele><time>2022-10-09T05:49:34Z</time></trkpt><trkpt lat="36.89604955625129" lon="139.1715956437258"><ele>2159.951352599077</ele><time>2022-10-09T05:50:06Z</time></trkpt><trkpt lat="36.89590715348791" lon="139.17166231344862"><ele>2159.2344343466684</ele><time>2022-10-09T05:53:43Z</time></trkpt><trkpt lat="36.89572808035013" lon="139.17169280932902"><ele>2153.4582486748695</ele><time>2022-10-09T05:55:41Z</time></trkpt><trkpt lat="36.895556078218384" lon="139.17176941404088"><ele>2152.4139438131824</ele><time>2022-10-09T05:56:39Z</time></trkpt><trkpt lat="36.89537680240142" lon="139.17179187854063"><ele>2147.976326856762</ele><time>2022-10-09T05:57:27Z</time></trkpt><trkpt lat="36.895205478893836" lon="139.17186176085843"><ele>2144.94452411402</ele><time>2022-10-09T05:58:50Z</time></trkpt><trkpt lat="36.89510144398271" lon="139.17204522022098"><ele>2141.1188489580527</ele><time>2022-10-09T05:59:40Z</time></trkpt><trkpt lat="36.894967813698955" lon="139.17189165505468"><ele>2137.531274032779</ele><time>2022-10-09T06:00:34Z</time></trkpt><trkpt lat="36.89479801484097" lon="139.17197156205754"><ele>2130.6184061923996</ele><time>2022-10-09T06:01:36Z</time></trkpt><trkpt lat="36.89463114737897" lon="139.17205897641142"><ele>2121.6554130911827</ele><time>2022-10-09T06:02:03Z</time></trkpt><trkpt lat="36.894480920537795" lon="139.17218856419177"><ele>2113.428423174657</ele><time>2022-10-09T06:02:36Z</time></trkpt><trkpt lat="36.89434764810078" lon="139.17234372252224"><ele>2109.0913238767534</ele><time>2022-10-09T06:03:06Z</time></trkpt><trkpt lat="36.894196893888875" lon="139.17246847198535"><ele>2099.9395683417097</ele><time>2022-10-09T06:03:45Z</time></trkpt><trkpt lat="36.894036448725956" lon="139.1725742839207"><ele>2094.996991504915</ele><time>2022-10-09T06:04:37Z</time></trkpt><trkpt lat="36.893870996361706" lon="139.17266762578868"><ele>2082.130521324463</ele><time>2022-10-09T06:06:47Z</time></trkpt><trkpt lat="36.89368826255641" lon="139.1726958059447"><ele>2082.5056440085173</ele><time>2022-10-09T06:10:10Z</time></trkpt><trkpt lat="36.89362124541092" lon="139.1724824591793"><ele>2078.2175512006506</ele><time>2022-10-09T06:11:11Z</time></trkpt><trkpt lat="36.893442151684084" lon="139.17255509107062"><ele>2074.4589362442493</ele><time>2022-10-09T06:12:01Z</time></trkpt><trkpt lat="36.89328897328568" lon="139.17268937040615"><ele>2073.2724572354928</ele><time>2022-10-09T06:12:35Z</time></trkpt><trkpt lat="36.893108975499636" lon="139.17275686076488"><ele>2069.0816769488156</ele><time>2022-10-09T06:13:05Z</time></trkpt><trkpt lat="36.89293187753486" lon="139.17280391063372"><ele>2065.819356947206</ele><time>2022-10-09T06:13:37Z</time></trkpt><trkpt lat="36.892756834667125" lon="139.17286455549592"><ele>2062.7736380407587</ele><time>2022-10-09T06:14:14Z</time></trkpt><trkpt lat="36.89256675991772" lon="139.17281658981608"><ele>2057.803699414246</ele><time>2022-10-09T06:14:28Z</time></trkpt><trkpt lat="36.89237527212262" lon="139.17282468793306"><ele>2057.2806457225233</ele><time>2022-10-09T06:14:43Z</time></trkpt><trkpt lat="36.892195795245094" lon="139.17287220252933"><ele>2055.4232523934916</ele><time>2022-10-09T06:14:59Z</time></trkpt><trkpt lat="36.89201213126713" lon="139.17288556071992"><ele>2052.1212971834466</ele><time>2022-10-09T06:15:17Z</time></trkpt><trkpt lat="36.89183592887452" lon="139.17283238578608"><ele>2050.590835862793</ele><time>2022-10-09T06:15:44Z</time></trkpt><trkpt lat="36.89166862895744" lon="139.17274853199606"><ele>2048.613346155733</ele><time>2022-10-09T06:16:12Z</time></trkpt><trkpt lat="36.89148487744191" lon="139.1727133268977"><ele>2043.4361958112568</ele><time>2022-10-09T06:16:30Z</time></trkpt><trkpt lat="36.891308181729826" lon="139.172759118125"><ele>2039.5023580500856</ele><time>2022-10-09T06:16:44Z</time></trkpt><trkpt lat="36.89115461048715" lon="139.1728800322411"><ele>2040.1310684150085</ele><time>2022-10-09T06:17:01Z</time></trkpt><trkpt lat="36.890978316409964" lon="139.1729262939755"><ele>2041.3544291602448</ele><time>2022-10-09T06:17:18Z</time></trkpt><trkpt lat="36.890796226065746" lon="139.17291175955543"><ele>2043.018818758428</ele><time>2022-10-09T06:17:36Z</time></trkpt><trkpt lat="36.89061990387782" lon="139.17299927519016"><ele>2044.8776638861746</ele><time>2022-10-09T06:17:52Z</time></trkpt><trkpt lat="36.89047647594808" lon="139.1731359634624"><ele>2039.3488535024226</ele><time>2022-10-09T06:18:09Z</time></trkpt><trkpt lat="36.89030440782956" lon="139.17322561009436"><ele>2036.0444397218525</ele><time>2022-10-09T06:18:55Z</time></trkpt><trkpt lat="36.89013221109561" lon="139.17330524933112"><ele>2033.6268818909302</ele><time>2022-10-09T06:19:14Z</time></trkpt><trkpt lat="36.88996065217451" lon="139.17338398971614"><ele>2031.0951561415568</ele><time>2022-10-09T06:19:29Z</time></trkpt><trkpt lat="36.88977639764401" lon="139.173451806284"><ele>2028.238101053983</ele><time>2022-10-09T06:19:43Z</time></trkpt><trkpt lat="36.88959424829185" lon="139.17348940743335"><ele>2030.8948035957292</ele><time>2022-10-09T06:19:59Z</time></trkpt><trkpt lat="36.88941246486482" lon="139.17353315962444"><ele>2024.782994022593</ele><time>2022-10-09T06:20:31Z</time></trkpt><trkpt lat="36.88923030961012" lon="139.17353213619722"><ele>2015.1144399885088</ele><time>2022-10-09T06:21:06Z</time></trkpt><trkpt lat="36.88905750728112" lon="139.17359935246176"><ele>2015.3157995361835</ele><time>2022-10-09T06:21:49Z</time></trkpt><trkpt lat="36.88887786911873" lon="139.17362340529738"><ele>2012.0967038553208</ele><time>2022-10-09T06:22:24Z</time></trkpt><trkpt lat="36.88870867071849" lon="139.17370343631518"><ele>2009.8179651983082</ele><time>2022-10-09T06:22:48Z</time></trkpt><trkpt lat="36.8886036735333" lon="139.17388627095738"><ele>2005.577518134378</ele><time>2022-10-09T06:23:16Z</time></trkpt><trkpt lat="36.888496471858495" lon="139.1740825085989"><ele>2000.373547709547</ele><time>2022-10-09T06:24:53Z</time></trkpt><trkpt lat="36.88841392891117" lon="139.17429681161323"><ele>1997.1613432066515</ele><time>2022-10-09T06:25:18Z</time></trkpt><trkpt lat="36.88835757094174" lon="139.17450996656106"><ele>1992.2785740913823</ele><time>2022-10-09T06:25:48Z</time></trkpt><trkpt lat="36.88816316812091" lon="139.1745503647468"><ele>1985.9622713634744</ele><time>2022-10-09T06:26:23Z</time></trkpt><trkpt lat="36.88807396715632" lon="139.1747482158677"><ele>1984.0611149072647</ele><time>2022-10-09T06:26:43Z</time></trkpt><trkpt lat="36.88789212468241" lon="139.17476678042914"><ele>1981.8806208604947</ele><time>2022-10-09T06:27:07Z</time></trkpt><trkpt lat="36.88779202883002" lon="139.17496428814823"><ele>1973.724796638824</ele><time>2022-10-09T06:27:43Z</time></trkpt><trkpt lat="36.88777012837302" lon="139.17519469914762"><ele>1967.1142488205805</ele><time>2022-10-09T06:28:06Z</time></trkpt><trkpt lat="36.887628375074286" lon="139.17535408217006"><ele>1962.6434837151319</ele><time>2022-10-09T06:28:30Z</time></trkpt><trkpt lat="36.88753153378575" lon="139.17554752219496"><ele>1958.708667972125</ele><time>2022-10-09T06:28:54Z</time></trkpt><trkpt lat="36.887420652332395" lon="139.1757289451182"><ele>1957.0493255434558</ele><time>2022-10-09T06:29:17Z</time></trkpt><trkpt lat="36.887486898131684" lon="139.1759453957713"><ele>1950.6451398702338</ele><time>2022-10-09T06:29:43Z</time></trkpt><trkpt lat="36.887361378547226" lon="139.17611057343677"><ele>1945.2323266919702</ele><time>2022-10-09T06:30:11Z</time></trkpt><trkpt lat="36.887349389229875" lon="139.1763446201926"><ele>1940.9727743966505</ele><time>2022-10-09T06:30:38Z</time></trkpt><trkpt lat="36.887343805398764" lon="139.1765729073486"><ele>1938.1777206240222</ele><time>2022-10-09T06:31:02Z</time></trkpt><trkpt lat="36.88725165874076" lon="139.17677283050097"><ele>1937.2176581760868</ele><time>2022-10-09T06:31:30Z</time></trkpt><trkpt lat="36.8872087803397" lon="139.17699384390403"><ele>1929.3166629401967</ele><time>2022-10-09T06:32:02Z</time></trkpt><trkpt lat="36.88722745225041" lon="139.17722397200117"><ele>1925.4832046050578</ele><time>2022-10-09T06:32:23Z</time></trkpt><trkpt lat="36.887066355321686" lon="139.1773403442974"><ele>1923.4210017034784</ele><time>2022-10-09T06:32:40Z</time></trkpt><trkpt lat="36.886942747906176" lon="139.177520815334"><ele>1925.182792764157</ele><time>2022-10-09T06:32:56Z</time></trkpt><trkpt lat="36.8868105187509" lon="139.17768319007567"><ele>1923.755782698281</ele><time>2022-10-09T06:33:14Z</time></trkpt><trkpt lat="36.88672375178298" lon="139.17788051086438"><ele>1919.8393657663837</ele><time>2022-10-09T06:33:31Z</time></trkpt><trkpt lat="36.88659037194335" lon="139.17803847232307"><ele>1918.37537291646</ele><time>2022-10-09T06:33:50Z</time></trkpt><trkpt lat="36.886414582687735" lon="139.17812232988416"><ele>1916.7505529569462</ele><time>2022-10-09T06:34:10Z</time></trkpt><trkpt lat="36.88624634088081" lon="139.17820373102182"><ele>1919.8876910777763</ele><time>2022-10-09T06:34:34Z</time></trkpt><trkpt lat="36.88620127298397" lon="139.17842264619952"><ele>1921.4547635633498</ele><time>2022-10-09T06:35:06Z</time></trkpt><trkpt lat="36.886160885019386" lon="139.17864750748942"><ele>1920.083065699786</ele><time>2022-10-09T06:36:07Z</time></trkpt><trkpt lat="36.886068365714685" lon="139.1788516202416"><ele>1915.7918651113287</ele><time>2022-10-09T06:36:33Z</time></trkpt><trkpt lat="36.88597386631448" lon="139.17905008472061"><ele>1911.4657850349322</ele><time>2022-10-09T06:37:01Z</time></trkpt><trkpt lat="36.885864069382826" lon="139.17924251122432"><ele>1905.3449408598244</ele><time>2022-10-09T06:37:48Z</time></trkpt><trkpt lat="36.88576297651088" lon="139.1794444770276"><ele>1896.3735039215535</ele><time>2022-10-09T06:38:42Z</time></trkpt><trkpt lat="36.88566003302857" lon="139.1796316667369"><ele>1893.42518458236</ele><time>2022-10-09T06:39:01Z</time></trkpt><trkpt lat="36.885521635623554" lon="139.17979754533488"><ele>1887.358801391907</ele><time>2022-10-09T06:39:23Z</time></trkpt><trkpt lat="36.88539744405909" lon="139.17996608971097"><ele>1888.5267886286601</ele><time>2022-10-09T06:39:41Z</time></trkpt><trkpt lat="36.88529315385901" lon="139.18015440391022"><ele>1883.8872685916722</ele><time>2022-10-09T06:40:11Z</time></trkpt><trkpt lat="36.88513782064473" lon="139.180272205965"><ele>1883.3302486557513</ele><time>2022-10-09T06:40:32Z</time></trkpt><trkpt lat="36.885001632841906" lon="139.18043233054948"><ele>1881.50885040313</ele><time>2022-10-09T06:41:13Z</time></trkpt><trkpt lat="36.88486045717364" lon="139.18057856913626"><ele>1880.8524127425626</ele><time>2022-10-09T06:41:38Z</time></trkpt><trkpt lat="36.88475543021255" lon="139.18076336529901"><ele>1878.1530813705176</ele><time>2022-10-09T06:42:01Z</time></trkpt><trkpt lat="36.88465632151318" lon="139.1809568639495"><ele>1873.24635292124</ele><time>2022-10-09T06:42:21Z</time></trkpt><trkpt lat="36.88463912130023" lon="139.18119143463372"><ele>1873.314766773954</ele><time>2022-10-09T06:42:38Z</time></trkpt><trkpt lat="36.884640887326775" lon="139.18141786046957"><ele>1868.9488023584709</ele><time>2022-10-09T06:43:08Z</time></trkpt><trkpt lat="36.88467062095865" lon="139.18164138733422"><ele>1864.3526251250878</ele><time>2022-10-09T06:43:36Z</time></trkpt><trkpt lat="36.88457579000069" lon="139.18183511737618"><ele>1860.9567427029833</ele><time>2022-10-09T06:43:59Z</time></trkpt><trkpt lat="36.8844814083749" lon="139.18204274294675"><ele>1857.3683887310326</ele><time>2022-10-09T06:44:21Z</time></trkpt><trkpt lat="36.88438214969179" lon="139.18223546298393"><ele>1857.646325752139</ele><time>2022-10-09T06:44:39Z</time></trkpt><trkpt lat="36.884231433704386" lon="139.18238367634808"><ele>1858.5868131108582</ele><time>2022-10-09T06:44:57Z</time></trkpt><trkpt lat="36.88407374237434" lon="139.18249253545594"><ele>1860.4354589404538</ele><time>2022-10-09T06:45:13Z</time></trkpt><trkpt lat="36.883923820035065" lon="139.18262092602075"><ele>1861.9804883254692</ele><time>2022-10-09T06:45:32Z</time></trkpt><trkpt lat="36.88379779668197" lon="139.1827960454839"><ele>1861.3931195698678</ele><time>2022-10-09T06:45:48Z</time></trkpt><trkpt lat="36.8837233174155" lon="139.1830024897599"><ele>1856.2655035126954</ele><time>2022-10-09T06:46:05Z</time></trkpt><trkpt lat="36.88366257367506" lon="139.18322630537259"><ele>1855.777584723197</ele><time>2022-10-09T06:46:23Z</time></trkpt><trkpt lat="36.88366170856755" lon="139.18345447680025"><ele>1851.9532431205735</ele><time>2022-10-09T06:46:39Z</time></trkpt><trkpt lat="36.883617420343654" lon="139.18371046114981"><ele>1846.371340596117</ele><time>2022-10-09T06:47:06Z</time></trkpt><trkpt lat="36.88356303626463" lon="139.18392964618687"><ele>1845.7360865836963</ele><time>2022-10-09T06:47:25Z</time></trkpt><trkpt lat="36.883512245475536" lon="139.18416122508935"><ele>1844.16971186921</ele><time>2022-10-09T06:47:40Z</time></trkpt><trkpt lat="36.88348870294509" lon="139.1843871000441"><ele>1844.7999923443422</ele><time>2022-10-09T06:47:56Z</time></trkpt><trkpt lat="36.8834400925658" lon="139.18461555607237"><ele>1839.1118347737938</ele><time>2022-10-09T06:48:19Z</time></trkpt><trkpt lat="36.88336553731438" lon="139.1848302888732"><ele>1837.3207754967734</ele><time>2022-10-09T06:48:41Z</time></trkpt><trkpt lat="36.88337220566227" lon="139.18506122820756"><ele>1837.658242708072</ele><time>2022-10-09T06:48:56Z</time></trkpt><trkpt lat="36.883343886026076" lon="139.18528577307472"><ele>1837.0848303614184</ele><time>2022-10-09T06:49:13Z</time></trkpt><trkpt lat="36.88335265858115" lon="139.18551504958089"><ele>1837.131477710791</ele><time>2022-10-09T06:49:29Z</time></trkpt><trkpt lat="36.883399428587666" lon="139.1857390522906"><ele>1833.2729832846671</ele><time>2022-10-09T06:49:46Z</time></trkpt><trkpt lat="36.883454374774914" lon="139.18595607085342"><ele>1828.450945747085</ele><time>2022-10-09T06:50:06Z</time></trkpt><trkpt lat="36.8835745551699" lon="139.18613121139248"><ele>1823.4325917763636</ele><time>2022-10-09T06:50:25Z</time></trkpt><trkpt lat="36.883743308460566" lon="139.18622588709542"><ele>1819.055833143182</ele><time>2022-10-09T06:50:40Z</time></trkpt><trkpt lat="36.88391240564519" lon="139.18631076730972"><ele>1814.4008838180453</ele><time>2022-10-09T06:50:55Z</time></trkpt><trkpt lat="36.88408435275501" lon="139.1863806193234"><ele>1808.0575157031417</ele><time>2022-10-09T06:51:24Z</time></trkpt><trkpt lat="36.88426240281205" lon="139.18642042687986"><ele>1809.1133915493265</ele><time>2022-10-09T06:51:41Z</time></trkpt><trkpt lat="36.88437532964482" lon="139.18659897168072"><ele>1803.1930813919753</ele><time>2022-10-09T06:52:28Z</time></trkpt><trkpt lat="36.88437632361652" lon="139.18678924227828"><ele>1797.0499098422006</ele><time>2022-10-09T06:53:01Z</time></trkpt><trkpt lat="36.884365740938385" lon="139.187023937912"><ele>1791.446148131974</ele><time>2022-10-09T06:53:40Z</time></trkpt><trkpt lat="36.88435319069571" lon="139.1872609982"><ele>1783.8877649148926</ele><time>2022-10-09T06:54:11Z</time></trkpt><trkpt lat="36.88437231528552" lon="139.18748592510815"><ele>1778.8391067469493</ele><time>2022-10-09T06:54:39Z</time></trkpt><trkpt lat="36.88439196165714" lon="139.18771712921827"><ele>1777.120516911149</ele><time>2022-10-09T06:55:09Z</time></trkpt><trkpt lat="36.884393796245625" lon="139.18794431562665"><ele>1770.7440673233941</ele><time>2022-10-09T06:55:40Z</time></trkpt><trkpt lat="36.88445041924341" lon="139.1881673882147"><ele>1766.360548319295</ele><time>2022-10-09T06:56:10Z</time></trkpt><trkpt lat="36.884458837229005" lon="139.18839708615454"><ele>1761.6681225262582</ele><time>2022-10-09T06:56:51Z</time></trkpt><trkpt lat="36.884536208776304" lon="139.18860133028005"><ele>1757.998810700141</ele><time>2022-10-09T06:57:20Z</time></trkpt><trkpt lat="36.884592723323586" lon="139.18882408470606"><ele>1753.3273817682639</ele><time>2022-10-09T06:57:52Z</time></trkpt><trkpt lat="36.884616464285806" lon="139.18905109086012"><ele>1749.354408396408</ele><time>2022-10-09T06:58:22Z</time></trkpt><trkpt lat="36.88458831683506" lon="139.18927885971266"><ele>1745.2020346196368</ele><time>2022-10-09T06:58:53Z</time></trkpt><trkpt lat="36.88465328088831" lon="139.1894912702147"><ele>1741.096698563546</ele><time>2022-10-09T06:59:26Z</time></trkpt><trkpt lat="36.88474731678263" lon="139.18969085128595"><ele>1737.8245512014255</ele><time>2022-10-09T06:59:50Z</time></trkpt><trkpt lat="36.884857244464314" lon="139.1898700388373"><ele>1735.0247886721045</ele><time>2022-10-09T07:00:15Z</time></trkpt><trkpt lat="36.884890374785854" lon="139.1900943637085"><ele>1732.227121539414</ele><time>2022-10-09T07:00:42Z</time></trkpt><trkpt lat="36.88495256724703" lon="139.1903113543157"><ele>1729.888040988706</ele><time>2022-10-09T07:01:03Z</time></trkpt><trkpt lat="36.88503923412848" lon="139.19051664688013"><ele>1728.2247102111578</ele><time>2022-10-09T07:01:27Z</time></trkpt><trkpt lat="36.88503419415378" lon="139.1907444571597"><ele>1727.1568055283278</ele><time>2022-10-09T07:01:46Z</time></trkpt><trkpt lat="36.88508712033" lon="139.19096170718188"><ele>1723.9859883692116</ele><time>2022-10-09T07:02:09Z</time></trkpt><trkpt lat="36.88512091268646" lon="139.1911821884843"><ele>1721.4538113353774</ele><time>2022-10-09T07:02:32Z</time></trkpt><trkpt lat="36.885164213301906" lon="139.19140875116528"><ele>1722.1998627763242</ele><time>2022-10-09T07:02:56Z</time></trkpt><trkpt lat="36.88527090225843" lon="139.19159434335361"><ele>1720.053911707364</ele><time>2022-10-09T07:03:16Z</time></trkpt><trkpt lat="36.88543516287086" lon="139.19169788450137"><ele>1715.6999885654077</ele><time>2022-10-09T07:03:48Z</time></trkpt><trkpt lat="36.885480538848995" lon="139.1919226461987"><ele>1716.7160150650889</ele><time>2022-10-09T07:04:07Z</time></trkpt><trkpt lat="36.88553736310666" lon="139.1921388710058"><ele>1710.9121761647984</ele><time>2022-10-09T07:04:33Z</time></trkpt><trkpt lat="36.885687077700354" lon="139.19227550993006"><ele>1707.099985259585</ele><time>2022-10-09T07:05:11Z</time></trkpt><trkpt lat="36.88582934223592" lon="139.19242625662156"><ele>1703.2517614811659</ele><time>2022-10-09T07:05:34Z</time></trkpt><trkpt lat="36.88596726777007" lon="139.1925816982289"><ele>1699.8588908948004</ele><time>2022-10-09T07:05:55Z</time></trkpt><trkpt lat="36.88612550896871" lon="139.19271249045943"><ele>1699.3200989561155</ele><time>2022-10-09T07:06:15Z</time></trkpt><trkpt lat="36.88627696334188" lon="139.19284159875482"><ele>1697.307638578117</ele><time>2022-10-09T07:06:36Z</time></trkpt><trkpt lat="36.886418980012536" lon="139.19298983297733"><ele>1697.6596261980012</ele><time>2022-10-09T07:06:54Z</time></trkpt><trkpt lat="36.886584032773534" lon="139.19308568798218"><ele>1694.5463015139103</ele><time>2022-10-09T07:07:14Z</time></trkpt><trkpt lat="36.88673269028796" lon="139.1932235406627"><ele>1693.9699718328193</ele><time>2022-10-09T07:07:40Z</time></trkpt><trkpt lat="36.886897406964486" lon="139.1933192127284"><ele>1688.797013935633</ele><time>2022-10-09T07:08:14Z</time></trkpt><trkpt lat="36.88704913306199" lon="139.19344816587375"><ele>1685.1704797968268</ele><time>2022-10-09T07:08:39Z</time></trkpt><trkpt lat="36.8872037697123" lon="139.19356644020618"><ele>1683.507903797552</ele><time>2022-10-09T07:08:58Z</time></trkpt><trkpt lat="36.8873739135673" lon="139.19368445639068"><ele>1680.7092793574557</ele><time>2022-10-09T07:09:26Z</time></trkpt><trkpt lat="36.88749104474288" lon="139.19386020537246"><ele>1677.9654925502837</ele><time>2022-10-09T07:09:48Z</time></trkpt><trkpt lat="36.887622233617044" lon="139.19401537330498"><ele>1680.0785356787965</ele><time>2022-10-09T07:10:08Z</time></trkpt><trkpt lat="36.88772721905127" lon="139.19420585042238"><ele>1680.3778364341706</ele><time>2022-10-09T07:11:10Z</time></trkpt><trkpt lat="36.887836661499776" lon="139.1943900766529"><ele>1679.8643064852804</ele><time>2022-10-09T07:11:31Z</time></trkpt><trkpt lat="36.88786488808093" lon="139.19461461160074"><ele>1677.680293683894</ele><time>2022-10-09T07:11:55Z</time></trkpt><trkpt lat="36.88787367943748" lon="139.1948395204109"><ele>1675.48113744054</ele><time>2022-10-09T07:12:21Z</time></trkpt><trkpt lat="36.887961057226484" lon="139.19505123306652"><ele>1675.2662715595216</ele><time>2022-10-09T07:12:46Z</time></trkpt><trkpt lat="36.88808715991364" lon="139.19522398426216"><ele>1670.230888819322</ele><time>2022-10-09T07:13:10Z</time></trkpt><trkpt lat="36.88811413980988" lon="139.19545998298867"><ele>1668.3949738116935</ele><time>2022-10-09T07:13:36Z</time></trkpt><trkpt lat="36.88821051598522" lon="139.19567053464408"><ele>1665.9383192276582</ele><time>2022-10-09T07:13:57Z</time></trkpt><trkpt lat="36.88828219500679" lon="139.19587947738097"><ele>1664.5161742875353</ele><time>2022-10-09T07:14:11Z</time></trkpt><trkpt lat="36.88836064758063" lon="139.19609297594153"><ele>1663.0599862234667</ele><time>2022-10-09T07:14:56Z</time></trkpt><trkpt lat="36.88841137297872" lon="139.19631607987864"><ele>1658.3331584278494</ele><time>2022-10-09T07:15:28Z</time></trkpt><trkpt lat="36.888502298884205" lon="139.19651256520245"><ele>1651.7514023175463</ele><time>2022-10-09T07:16:17Z</time></trkpt><trkpt lat="36.88858389126089" lon="139.196713664555"><ele>1649.21209745761</ele><time>2022-10-09T07:16:56Z</time></trkpt><trkpt lat="36.88867825473394" lon="139.19691528381884"><ele>1645.0971809430048</ele><time>2022-10-09T07:17:35Z</time></trkpt><trkpt lat="36.88874951245017" lon="139.19713472021988"><ele>1642.470377208665</ele><time>2022-10-09T07:18:07Z</time></trkpt><trkpt lat="36.88881547114268" lon="139.1973443869142"><ele>1635.9046755759045</ele><time>2022-10-09T07:18:39Z</time></trkpt><trkpt lat="36.88886733156723" lon="139.1975639981273"><ele>1633.5577152334154</ele><time>2022-10-09T07:19:16Z</time></trkpt><trkpt lat="36.8889085092419" lon="139.19779308255332"><ele>1630.5221762275323</ele><time>2022-10-09T07:19:47Z</time></trkpt><trkpt lat="36.88904997994714" lon="139.19793321296243"><ele>1625.9489283580333</ele><time>2022-10-09T07:20:13Z</time></trkpt><trkpt lat="36.88921686536716" lon="139.1980300166511"><ele>1623.9069511322305</ele><time>2022-10-09T07:20:34Z</time></trkpt><trkpt lat="36.88931945487979" lon="139.19822584881996"><ele>1621.3114214874804</ele><time>2022-10-09T07:20:58Z</time></trkpt><trkpt lat="36.88941296581164" lon="139.1984298111293"><ele>1618.5991606200114</ele><time>2022-10-09T07:21:29Z</time></trkpt><trkpt lat="36.88955533218109" lon="139.19857614896094"><ele>1615.6762146688998</ele><time>2022-10-09T07:22:05Z</time></trkpt><trkpt lat="36.88968760826319" lon="139.19874151071565"><ele>1613.7290694462135</ele><time>2022-10-09T07:22:39Z</time></trkpt><trkpt lat="36.88974801896484" lon="139.19895417379308"><ele>1609.7140667652711</ele><time>2022-10-09T07:23:05Z</time></trkpt><trkpt lat="36.88991817581983" lon="139.19904197930478"><ele>1606.5033989939839</ele><time>2022-10-09T07:23:23Z</time></trkpt><trkpt lat="36.88994989809587" lon="139.19927184323967"><ele>1607.4802175974473</ele><time>2022-10-09T07:23:42Z</time></trkpt><trkpt lat="36.889980192098974" lon="139.19949767187748"><ele>1604.7581599680707</ele><time>2022-10-09T07:24:00Z</time></trkpt><trkpt lat="36.8900630415547" lon="139.19970027386555"><ele>1603.4163771215826</ele><time>2022-10-09T07:24:15Z</time></trkpt><trkpt lat="36.89017975172776" lon="139.1998848232985"><ele>1597.5125906001776</ele><time>2022-10-09T07:25:14Z</time></trkpt><trkpt lat="36.890275673796914" lon="139.2001002032605"><ele>1595.7463610982522</ele><time>2022-10-09T07:25:26Z</time></trkpt><trkpt lat="36.89023229458196" lon="139.20032686529223"><ele>1593.1065044738352</ele><time>2022-10-09T07:25:41Z</time></trkpt><trkpt lat="36.89020826553647" lon="139.20056143699915"><ele>1594.0710701663047</ele><time>2022-10-09T07:25:57Z</time></trkpt><trkpt lat="36.89002714561195" lon="139.20057483078642"><ele>1593.0165774421766</ele><time>2022-10-09T07:27:08Z</time></trkpt><trkpt lat="36.889905077641586" lon="139.20075291767347"><ele>1590.5874862717465</ele><time>2022-10-09T07:27:27Z</time></trkpt><trkpt lat="36.8897916698582" lon="139.20093002966794"><ele>1591.1021906314418</ele><time>2022-10-09T07:27:42Z</time></trkpt><trkpt lat="36.88961300753463" lon="139.20099192539723"><ele>1589.8634411441162</ele><time>2022-10-09T07:28:00Z</time></trkpt></trkseg></trk></gpx>