<?xml version='1.0' encoding='UTF-8'?><gpx creator="YAMAP - https://yamap.com" xsi:schemaLocation="http://www.topografix.com/GPX/1/1 http://www.topografix.com/GPX/1/1/gpx.xsd" version="1.1" xmlns="http://www.topografix.com/GPX/1/1" xmlns:xsi="http://www.w3.org/2001/XMLSchema-instance"><metadata><bounds maxlat="34.185622534330705" maxlon="135.9540510734866" minlat="34.17363758234597" minlon="135.90742701677223"/></metadata><trk><name>弁天ノ森・八経ヶ岳（八剣山・仏経ヶ岳）・弥山</name><number>1</number><trkseg><trkpt lat="34.185622534330705" lon="135.94967288026174"><ele>1115.079510629177</ele><time>2022-05-03T01:04:59Z</time></trkpt><trkpt lat="34.18553269388201" lon="135.94947376888837"><ele>1124.3292335970327</ele><time>2022-05-03T01:10:40Z</time></trkpt><trkpt lat="34.18553664134218" lon="135.94969099213682"><ele>1122.3248177664354</ele><time>2022-05-03T01:11:02Z</time></trkpt><trkpt lat="34.18403183372517" lon="135.95336932027388"><ele>1070.7987681915984</ele><time>2022-05-03T01:22:22Z</time></trkpt><trkpt lat="34.18403183372517" lon="135.95336932027388"><ele>1070.7987681915984</ele><time>2022-05-03T01:22:23Z</time></trkpt><trkpt lat="34.1840225924405" lon="135.95359856860588"><ele>1072.0038623372093</ele><time>2022-05-03T01:22:36Z</time></trkpt><trkpt lat="34.184028675512494" lon="135.95381984174597"><ele>1067.569222677499</ele><time>2022-05-03T01:22:51Z</time></trkpt><trkpt lat="34.18403642329602" lon="135.9540510734866"><ele>1061.0938765741885</ele><time>2022-05-03T01:23:08Z</time></trkpt><trkpt lat="34.18400552622551" lon="135.9538196712885"><ele>1064.4988589584827</ele><time>2022-05-03T01:25:22Z</time></trkpt><trkpt lat="34.18399953663615" lon="135.95359994517455"><ele>1065.3850924065337</ele><time>2022-05-03T01:25:35Z</time></trkpt><trkpt lat="34.18402676814898" lon="135.95338342199295"><ele>1065.934601773508</ele><time>2022-05-03T01:25:49Z</time></trkpt><trkpt lat="34.18409359710988" lon="135.95316600645037"><ele>1065.5258772568777</ele><time>2022-05-03T01:26:03Z</time></trkpt><trkpt lat="34.18406983565514" lon="135.9529416640525"><ele>1067.2264540763572</ele><time>2022-05-03T01:26:17Z</time></trkpt><trkpt lat="34.18403557216166" lon="135.9527175270576"><ele>1068.9628823269159</ele><time>2022-05-03T01:26:32Z</time></trkpt><trkpt lat="34.18394247275068" lon="135.9525293712674"><ele>1073.1835682978854</ele><time>2022-05-03T01:26:46Z</time></trkpt><trkpt lat="34.18387550942861" lon="135.9523146377518"><ele>1077.3653833940625</ele><time>2022-05-03T01:27:02Z</time></trkpt><trkpt lat="34.18383854650749" lon="135.95208207065335"><ele>1075.206677914597</ele><time>2022-05-03T01:27:19Z</time></trkpt><trkpt lat="34.183922025367465" lon="135.95188440998908"><ele>1075.3049684353173</ele><time>2022-05-03T01:27:34Z</time></trkpt><trkpt lat="34.1840804767356" lon="135.95177537215176"><ele>1078.2447197251022</ele><time>2022-05-03T01:27:49Z</time></trkpt><trkpt lat="34.18423800651341" lon="135.95163560618232"><ele>1077.9418230038136</ele><time>2022-05-03T01:28:04Z</time></trkpt><trkpt lat="34.18433867471056" lon="135.95145214807113"><ele>1078.4124680273235</ele><time>2022-05-03T01:28:19Z</time></trkpt><trkpt lat="34.184401479800684" lon="135.951243657795"><ele>1081.313125897199</ele><time>2022-05-03T01:28:35Z</time></trkpt><trkpt lat="34.18436365200372" lon="135.95102653855196"><ele>1082.5928108049557</ele><time>2022-05-03T01:28:52Z</time></trkpt><trkpt lat="34.18427611097467" lon="135.95121991561552"><ele>1097.0344841368496</ele><time>2022-05-03T01:29:35Z</time></trkpt><trkpt lat="34.18411396563243" lon="135.95131554729738"><ele>1099.0029561752453</ele><time>2022-05-03T01:30:11Z</time></trkpt><trkpt lat="34.18413152581417" lon="135.95108538516493"><ele>1105.9391072848812</ele><time>2022-05-03T01:30:58Z</time></trkpt><trkpt lat="34.18397947792513" lon="135.9512027882575"><ele>1112.0995051264763</ele><time>2022-05-03T01:31:39Z</time></trkpt><trkpt lat="34.18381252969952" lon="135.95130537428528"><ele>1120.4456477249041</ele><time>2022-05-03T01:32:58Z</time></trkpt><trkpt lat="34.183623510634696" lon="135.95135783321163"><ele>1121.6970644472167</ele><time>2022-05-03T01:33:13Z</time></trkpt><trkpt lat="34.18344304461002" lon="135.9513311915062"><ele>1137.6338887754828</ele><time>2022-05-03T01:33:40Z</time></trkpt><trkpt lat="34.183253147921555" lon="135.95127214062987"><ele>1139.3699006587267</ele><time>2022-05-03T01:34:02Z</time></trkpt><trkpt lat="34.183071195138105" lon="135.95127790036867"><ele>1144.9005792681128</ele><time>2022-05-03T01:34:25Z</time></trkpt><trkpt lat="34.18296603393437" lon="135.95145676865675"><ele>1142.7398576065898</ele><time>2022-05-03T01:34:55Z</time></trkpt><trkpt lat="34.18288954170905" lon="135.95166322161387"><ele>1144.5552877811715</ele><time>2022-05-03T01:37:10Z</time></trkpt><trkpt lat="34.18291745592942" lon="135.95188956183347"><ele>1148.056933388114</ele><time>2022-05-03T01:37:29Z</time></trkpt><trkpt lat="34.18292231837924" lon="135.9521239121745"><ele>1148.862845032476</ele><time>2022-05-03T01:37:57Z</time></trkpt><trkpt lat="34.182911568046684" lon="135.95234143818888"><ele>1151.5165946185589</ele><time>2022-05-03T01:38:17Z</time></trkpt><trkpt lat="34.182772827573416" lon="135.9521883078168"><ele>1154.4818270904943</ele><time>2022-05-03T01:38:55Z</time></trkpt><trkpt lat="34.18268899045053" lon="135.9519933422683"><ele>1162.9935147585347</ele><time>2022-05-03T01:39:24Z</time></trkpt><trkpt lat="34.182633548022494" lon="135.95178146682989"><ele>1172.1500529525802</ele><time>2022-05-03T01:40:06Z</time></trkpt><trkpt lat="34.18251182977365" lon="135.9516206933788"><ele>1180.076768196188</ele><time>2022-05-03T01:40:43Z</time></trkpt><trkpt lat="34.182356724921156" lon="135.9514885927266"><ele>1189.9456013292074</ele><time>2022-05-03T01:41:07Z</time></trkpt><trkpt lat="34.18222508121879" lon="135.9513360543629"><ele>1197.0542605770752</ele><time>2022-05-03T01:41:48Z</time></trkpt><trkpt lat="34.182082728824156" lon="135.95120117828867"><ele>1205.9290025476366</ele><time>2022-05-03T01:42:33Z</time></trkpt><trkpt lat="34.18192654193557" lon="135.95107579346825"><ele>1210.749518723227</ele><time>2022-05-03T01:43:07Z</time></trkpt><trkpt lat="34.18190546519632" lon="135.95085018906119"><ele>1219.5715277744457</ele><time>2022-05-03T01:43:44Z</time></trkpt><trkpt lat="34.1818705495694" lon="135.95062711765277"><ele>1228.9583178563043</ele><time>2022-05-03T01:44:36Z</time></trkpt><trkpt lat="34.1819006553342" lon="135.95040968164122"><ele>1240.0079055111855</ele><time>2022-05-03T01:45:27Z</time></trkpt><trkpt lat="34.181800010884146" lon="135.95022634054374"><ele>1253.3507090462372</ele><time>2022-05-03T01:46:31Z</time></trkpt><trkpt lat="34.181808842984246" lon="135.9500075111429"><ele>1264.3390952171758</ele><time>2022-05-03T01:47:28Z</time></trkpt><trkpt lat="34.18183325483691" lon="135.94978723460179"><ele>1273.5121636418626</ele><time>2022-05-03T01:50:18Z</time></trkpt><trkpt lat="34.18181431778702" lon="135.94956970616568"><ele>1284.685982846655</ele><time>2022-05-03T01:51:23Z</time></trkpt><trkpt lat="34.181869346325925" lon="135.94934608999148"><ele>1286.339779461734</ele><time>2022-05-03T01:52:00Z</time></trkpt><trkpt lat="34.18193544384309" lon="135.94913782884908"><ele>1304.3333996934816</ele><time>2022-05-03T01:52:43Z</time></trkpt><trkpt lat="34.181895222583066" lon="135.94891786620224"><ele>1311.908697778359</ele><time>2022-05-03T01:53:32Z</time></trkpt><trkpt lat="34.18190067633288" lon="135.94873856464037"><ele>1324.1480955202132</ele><time>2022-05-03T01:54:44Z</time></trkpt><trkpt lat="34.181892438823525" lon="135.9487332032397"><ele>1325.3442459106445</ele><time>2022-05-03T01:54:45Z</time></trkpt><trkpt lat="34.18178239360386" lon="135.94854442104656"><ele>1335.8395410757512</ele><time>2022-05-03T01:56:02Z</time></trkpt><trkpt lat="34.18183145366907" lon="135.9483338407963"><ele>1351.2854499230161</ele><time>2022-05-03T01:57:27Z</time></trkpt><trkpt lat="34.18187695095655" lon="135.94810873025563"><ele>1360.025741151534</ele><time>2022-05-03T01:58:39Z</time></trkpt><trkpt lat="34.18177227104882" lon="135.94792056745632"><ele>1369.557195134461</ele><time>2022-05-03T01:59:22Z</time></trkpt><trkpt lat="34.18188011971593" lon="135.94774350407596"><ele>1378.2150143496692</ele><time>2022-05-03T02:00:22Z</time></trkpt><trkpt lat="34.18192646625112" lon="135.94752612705665"><ele>1382.6294753905386</ele><time>2022-05-03T02:01:48Z</time></trkpt><trkpt lat="34.18198650630483" lon="135.94732085463352"><ele>1386.817950163968</ele><time>2022-05-03T02:02:20Z</time></trkpt><trkpt lat="34.18202252451343" lon="135.94710352808096"><ele>1387.7607009941712</ele><time>2022-05-03T02:02:52Z</time></trkpt><trkpt lat="34.18211300134391" lon="135.94690568732716"><ele>1391.7585985427722</ele><time>2022-05-03T02:03:19Z</time></trkpt><trkpt lat="34.18223642077607" lon="135.94674581404036"><ele>1395.4984939312562</ele><time>2022-05-03T02:03:54Z</time></trkpt><trkpt lat="34.18225552217305" lon="135.94651907024885"><ele>1396.1909874323756</ele><time>2022-05-03T02:04:14Z</time></trkpt><trkpt lat="34.18231454062735" lon="135.9463106489238"><ele>1403.7763235522434</ele><time>2022-05-03T02:05:17Z</time></trkpt><trkpt lat="34.18237143196695" lon="135.9461039060274"><ele>1407.646311942488</ele><time>2022-05-03T02:06:04Z</time></trkpt><trkpt lat="34.1824035473056" lon="135.9458884398929"><ele>1413.8403858700767</ele><time>2022-05-03T02:06:35Z</time></trkpt><trkpt lat="34.18231868707797" lon="135.94569110914662"><ele>1421.1735701682046</ele><time>2022-05-03T02:07:15Z</time></trkpt><trkpt lat="34.182308250007836" lon="135.9454573994021"><ele>1427.7484870338812</ele><time>2022-05-03T02:08:32Z</time></trkpt><trkpt lat="34.18224213814632" lon="135.94524979671158"><ele>1434.0322603080422</ele><time>2022-05-03T02:09:09Z</time></trkpt><trkpt lat="34.18213619641866" lon="135.94506280531212"><ele>1440.1352568203583</ele><time>2022-05-03T02:10:09Z</time></trkpt><trkpt lat="34.18208173739923" lon="135.94484749090125"><ele>1444.5540916211903</ele><time>2022-05-03T02:10:44Z</time></trkpt><trkpt lat="34.18202876491242" lon="135.94462326427345"><ele>1454.2601256342605</ele><time>2022-05-03T02:11:39Z</time></trkpt><trkpt lat="34.181980394351655" lon="135.9444126847175"><ele>1460.6371855745092</ele><time>2022-05-03T02:12:16Z</time></trkpt><trkpt lat="34.181931208230736" lon="135.94419773684504"><ele>1463.725859847851</ele><time>2022-05-03T02:13:02Z</time></trkpt><trkpt lat="34.181897542441185" lon="135.94398246554067"><ele>1469.921515468508</ele><time>2022-05-03T02:13:38Z</time></trkpt><trkpt lat="34.18178134293383" lon="135.94381662032808"><ele>1473.0785235231742</ele><time>2022-05-03T02:14:05Z</time></trkpt><trkpt lat="34.1816460252644" lon="135.94367196756127"><ele>1475.0331341372803</ele><time>2022-05-03T02:14:32Z</time></trkpt><trkpt lat="34.18147972996351" lon="135.94358113132245"><ele>1477.5946233347058</ele><time>2022-05-03T02:15:07Z</time></trkpt><trkpt lat="34.18133644718165" lon="135.94344799889873"><ele>1476.7503938088194</ele><time>2022-05-03T02:15:37Z</time></trkpt><trkpt lat="34.1811560145342" lon="135.94337547583515"><ele>1477.1131208408624</ele><time>2022-05-03T02:15:53Z</time></trkpt><trkpt lat="34.18097928486765" lon="135.9432823119507"><ele>1477.828078868799</ele><time>2022-05-03T02:16:09Z</time></trkpt><trkpt lat="34.1807990229296" lon="135.94320769258948"><ele>1480.4595855167136</ele><time>2022-05-03T02:16:25Z</time></trkpt><trkpt lat="34.18062269695928" lon="135.94313469425805"><ele>1481.9654742982239</ele><time>2022-05-03T02:16:45Z</time></trkpt><trkpt lat="34.1804690039177" lon="135.94301739379557"><ele>1485.0708490414545</ele><time>2022-05-03T02:17:18Z</time></trkpt><trkpt lat="34.18032978001113" lon="135.9428728712813"><ele>1485.8769362196326</ele><time>2022-05-03T02:17:37Z</time></trkpt><trkpt lat="34.18030161960121" lon="135.94265098001472"><ele>1482.1744517376646</ele><time>2022-05-03T02:18:01Z</time></trkpt><trkpt lat="34.18030540723083" lon="135.94242676077843"><ele>1475.9973895922303</ele><time>2022-05-03T02:18:37Z</time></trkpt><trkpt lat="34.180365563552165" lon="135.94221524093115"><ele>1473.4090461749583</ele><time>2022-05-03T02:20:59Z</time></trkpt><trkpt lat="34.180457218220106" lon="135.9420161880105"><ele>1471.551445465535</ele><time>2022-05-03T02:21:20Z</time></trkpt><trkpt lat="34.1804220371872" lon="135.94179509985324"><ele>1471.0630344999954</ele><time>2022-05-03T02:21:49Z</time></trkpt><trkpt lat="34.18035992739084" lon="135.94158315415928"><ele>1471.8065518746153</ele><time>2022-05-03T02:22:18Z</time></trkpt><trkpt lat="34.18027213722933" lon="135.9413925951523"><ele>1475.1684873541817</ele><time>2022-05-03T02:22:53Z</time></trkpt><trkpt lat="34.18019365094352" lon="135.941190998987"><ele>1477.9439991377294</ele><time>2022-05-03T02:23:16Z</time></trkpt><trkpt lat="34.18005587886783" lon="135.9410411501066"><ele>1477.7709995936602</ele><time>2022-05-03T02:23:47Z</time></trkpt><trkpt lat="34.17997683880396" lon="135.94083254323166"><ele>1481.6179506415501</ele><time>2022-05-03T02:24:09Z</time></trkpt><trkpt lat="34.179960754387835" lon="135.94060916847107"><ele>1479.759601086378</ele><time>2022-05-03T02:24:47Z</time></trkpt><trkpt lat="34.1800166786284" lon="135.94040057480825"><ele>1474.9741675909609</ele><time>2022-05-03T02:25:17Z</time></trkpt><trkpt lat="34.18005401805188" lon="135.9401790783946"><ele>1476.971411156468</ele><time>2022-05-03T02:25:37Z</time></trkpt><trkpt lat="34.180088573353586" lon="135.93995047505345"><ele>1481.5631738221273</ele><time>2022-05-03T02:26:07Z</time></trkpt><trkpt lat="34.18020243054396" lon="135.9397768924569"><ele>1482.6875956077129</ele><time>2022-05-03T02:26:29Z</time></trkpt><trkpt lat="34.18019297888605" lon="135.93955788951746"><ele>1478.8935594838113</ele><time>2022-05-03T02:27:01Z</time></trkpt><trkpt lat="34.18018181570727" lon="135.93932395655753"><ele>1476.901384674944</ele><time>2022-05-03T02:27:23Z</time></trkpt><trkpt lat="34.18009357626642" lon="135.93921142643654"><ele>1473.1725795762613</ele><time>2022-05-03T02:27:58Z</time></trkpt><trkpt lat="34.18008734475242" lon="135.93921372609586"><ele>1472.3542091809213</ele><time>2022-05-03T02:27:58Z</time></trkpt><trkpt lat="34.18016619618093" lon="135.93900682260912"><ele>1465.237243779935</ele><time>2022-05-03T02:28:24Z</time></trkpt><trkpt lat="34.18014102405957" lon="135.9387815429142"><ele>1460.84338066075</ele><time>2022-05-03T02:28:38Z</time></trkpt><trkpt lat="34.180181910992054" lon="135.93856521076088"><ele>1457.677932263352</ele><time>2022-05-03T02:28:53Z</time></trkpt><trkpt lat="34.180200762700714" lon="135.93834649762002"><ele>1459.234154669568</ele><time>2022-05-03T02:29:12Z</time></trkpt><trkpt lat="34.1803747520482" lon="135.93784276676578"><ele>1461.2487483276054</ele><time>2022-05-03T02:30:14Z</time></trkpt><trkpt lat="34.1803747520482" lon="135.93784276676578"><ele>1461.2487483276054</ele><time>2022-05-03T02:30:14Z</time></trkpt><trkpt lat="34.1804740262583" lon="135.93765147477868"><ele>1466.0742988670245</ele><time>2022-05-03T02:30:34Z</time></trkpt><trkpt lat="34.18060224039463" lon="135.9375008932877"><ele>1468.4787918422371</ele><time>2022-05-03T02:31:01Z</time></trkpt><trkpt lat="34.17937040797835" lon="135.92851001781963"><ele>1595.8784256149083</ele><time>2022-05-03T02:58:16Z</time></trkpt><trkpt lat="34.17920132560806" lon="135.92842907444236"><ele>1603.6041780486703</ele><time>2022-05-03T02:59:22Z</time></trkpt><trkpt lat="34.179057040136875" lon="135.92827228106353"><ele>1603.8460314646363</ele><time>2022-05-03T02:59:42Z</time></trkpt><trkpt lat="34.17897547085143" lon="135.92806922347685"><ele>1599.9102972485125</ele><time>2022-05-03T03:00:08Z</time></trkpt><trkpt lat="34.17889569083022" lon="135.92787429117124"><ele>1595.657250375487</ele><time>2022-05-03T03:00:37Z</time></trkpt><trkpt lat="34.178786621828486" lon="135.92769291670314"><ele>1595.2774975635111</ele><time>2022-05-03T03:00:55Z</time></trkpt><trkpt lat="34.17875080058874" lon="135.9274729629289"><ele>1588.788480793126</ele><time>2022-05-03T03:01:20Z</time></trkpt><trkpt lat="34.17879437242707" lon="135.9272583967409"><ele>1584.8154605068266</ele><time>2022-05-03T03:01:40Z</time></trkpt><trkpt lat="34.17872250911612" lon="135.92705489797956"><ele>1587.2620054809377</ele><time>2022-05-03T03:02:03Z</time></trkpt><trkpt lat="34.17873123366738" lon="135.92683782484377"><ele>1582.715822249651</ele><time>2022-05-03T03:02:30Z</time></trkpt><trkpt lat="34.17877557079306" lon="135.92662665979262"><ele>1579.9930804260075</ele><time>2022-05-03T03:03:04Z</time></trkpt><trkpt lat="34.17882251678717" lon="135.9264161061897"><ele>1579.0393767151982</ele><time>2022-05-03T03:03:49Z</time></trkpt><trkpt lat="34.178934265541486" lon="135.92624061530276"><ele>1572.7398770553991</ele><time>2022-05-03T03:04:40Z</time></trkpt><trkpt lat="34.17891950625386" lon="135.9260210796532"><ele>1571.784936903976</ele><time>2022-05-03T03:05:13Z</time></trkpt><trkpt lat="34.178839874728155" lon="135.92581233625438"><ele>1572.4867591410875</ele><time>2022-05-03T03:05:36Z</time></trkpt><trkpt lat="34.178964455971325" lon="135.9256405632967"><ele>1567.3970344429836</ele><time>2022-05-03T03:05:56Z</time></trkpt><trkpt lat="34.17905558244029" lon="135.92544099865276"><ele>1565.5078030722216</ele><time>2022-05-03T03:06:10Z</time></trkpt><trkpt lat="34.1791897092629" lon="135.92528009557398"><ele>1562.7563894297928</ele><time>2022-05-03T03:06:30Z</time></trkpt><trkpt lat="34.17926933245807" lon="135.92507326036556"><ele>1560.556561017409</ele><time>2022-05-03T03:06:49Z</time></trkpt><trkpt lat="34.17950919764494" lon="135.9216980302787"><ele>1539.7231522072107</ele><time>2022-05-03T03:14:15Z</time></trkpt><trkpt lat="34.17950919764494" lon="135.9216980302787"><ele>1539.7231522072107</ele><time>2022-05-03T03:14:16Z</time></trkpt><trkpt lat="34.17950919764494" lon="135.9216980302787"><ele>1539.7231522072107</ele><time>2022-05-03T03:14:16Z</time></trkpt><trkpt lat="34.17944726783307" lon="135.92148513259875"><ele>1536.9748612204567</ele><time>2022-05-03T03:14:35Z</time></trkpt><trkpt lat="34.1794254886374" lon="135.9212576515155"><ele>1538.0570147670805</ele><time>2022-05-03T03:14:58Z</time></trkpt><trkpt lat="34.17940753614203" lon="135.9210395239306"><ele>1535.4912567269057</ele><time>2022-05-03T03:15:16Z</time></trkpt><trkpt lat="34.17943213830084" lon="135.9208123493774"><ele>1538.3875045105815</ele><time>2022-05-03T03:15:34Z</time></trkpt><trkpt lat="34.17940810610606" lon="135.92059241762635"><ele>1542.9332327768207</ele><time>2022-05-03T03:15:54Z</time></trkpt><trkpt lat="34.17935294441712" lon="135.92037610199895"><ele>1546.721492975019</ele><time>2022-05-03T03:16:21Z</time></trkpt><trkpt lat="34.17931468887645" lon="135.92015863327723"><ele>1553.1003772113472</ele><time>2022-05-03T03:16:42Z</time></trkpt><trkpt lat="34.17934816565018" lon="135.91994209214732"><ele>1554.4953736206517</ele><time>2022-05-03T03:17:13Z</time></trkpt><trkpt lat="34.17927963069044" lon="135.91973990212506"><ele>1553.5263225641102</ele><time>2022-05-03T03:17:41Z</time></trkpt><trkpt lat="34.17929798981816" lon="135.91951332683308"><ele>1552.5094660259783</ele><time>2022-05-03T03:18:09Z</time></trkpt><trkpt lat="34.17923604337875" lon="135.9192974010414"><ele>1556.039701718837</ele><time>2022-05-03T03:18:31Z</time></trkpt><trkpt lat="34.17927185015712" lon="135.91907396661352"><ele>1556.8514208141714</ele><time>2022-05-03T03:18:56Z</time></trkpt><trkpt lat="34.179215388724344" lon="135.91886630704892"><ele>1560.9655708158389</ele><time>2022-05-03T03:19:14Z</time></trkpt><trkpt lat="34.17933846922971" lon="135.91869966674886"><ele>1564.6378071410581</ele><time>2022-05-03T03:19:37Z</time></trkpt><trkpt lat="34.17939972000099" lon="135.9184786669268"><ele>1567.0722838845104</ele><time>2022-05-03T03:20:09Z</time></trkpt><trkpt lat="34.179330977643694" lon="135.9182729894251"><ele>1567.5206687720492</ele><time>2022-05-03T03:20:28Z</time></trkpt><trkpt lat="34.17920082991144" lon="135.91810803208855"><ele>1570.5312633020803</ele><time>2022-05-03T03:20:48Z</time></trkpt><trkpt lat="34.179187211817805" lon="135.91787191382065"><ele>1576.0401808517054</ele><time>2022-05-03T03:21:20Z</time></trkpt><trkpt lat="34.179129412177815" lon="135.91765514228464"><ele>1579.651707874611</ele><time>2022-05-03T03:21:39Z</time></trkpt><trkpt lat="34.17920506620933" lon="135.91745803126665"><ele>1580.7375592645258</ele><time>2022-05-03T03:23:05Z</time></trkpt><trkpt lat="34.17920704560778" lon="135.91723930768924"><ele>1585.8743789130822</ele><time>2022-05-03T03:23:47Z</time></trkpt><trkpt lat="34.17985023187958" lon="135.91625458523555"><ele>1630.0805740812793</ele><time>2022-05-03T03:30:20Z</time></trkpt><trkpt lat="34.17985023187958" lon="135.91625458523555"><ele>1630.0805740812793</ele><time>2022-05-03T03:30:20Z</time></trkpt><trkpt lat="34.17983912400359" lon="135.91546509427567"><ele>1675.6201248168945</ele><time>2022-05-03T03:36:04Z</time></trkpt><trkpt lat="34.17982236019725" lon="135.91524439876517"><ele>1664.8100662231445</ele><time>2022-05-03T03:36:05Z</time></trkpt><trkpt lat="34.179989010261764" lon="135.9153286322094"><ele>1672.7307756356895</ele><time>2022-05-03T03:37:28Z</time></trkpt><trkpt lat="34.18015869015416" lon="135.91523735407716"><ele>1674.8850756054744</ele><time>2022-05-03T03:38:11Z</time></trkpt><trkpt lat="34.18029206818964" lon="135.91508857979835"><ele>1681.7805066872388</ele><time>2022-05-03T03:38:51Z</time></trkpt><trkpt lat="34.18039783906522" lon="135.91491119869715"><ele>1688.870884085074</ele><time>2022-05-03T03:39:39Z</time></trkpt><trkpt lat="34.180529015493455" lon="135.9147490680394"><ele>1690.8456111671403</ele><time>2022-05-03T03:40:11Z</time></trkpt><trkpt lat="34.18062951986162" lon="135.91456765968923"><ele>1694.0326335057616</ele><time>2022-05-03T03:40:51Z</time></trkpt><trkpt lat="34.18071025342943" lon="135.91437122747524"><ele>1698.8284977097064</ele><time>2022-05-03T03:41:26Z</time></trkpt><trkpt lat="34.18076870708186" lon="135.91416380182233"><ele>1702.3184835882857</ele><time>2022-05-03T03:41:56Z</time></trkpt><trkpt lat="34.18081256285917" lon="135.91395042510308"><ele>1707.3706906866282</ele><time>2022-05-03T03:42:48Z</time></trkpt><trkpt lat="34.180731156220425" lon="135.91375461963153"><ele>1716.577483734116</ele><time>2022-05-03T03:43:28Z</time></trkpt><trkpt lat="34.1807246801307" lon="135.91353261513396"><ele>1722.0707722147927</ele><time>2022-05-03T03:44:12Z</time></trkpt><trkpt lat="34.180694068418205" lon="135.9133158647182"><ele>1725.9324356121942</ele><time>2022-05-03T03:44:56Z</time></trkpt><trkpt lat="34.180598637741376" lon="135.913129393203"><ele>1732.8199827866629</ele><time>2022-05-03T03:45:53Z</time></trkpt><trkpt lat="34.18051771446345" lon="135.9129351812451"><ele>1740.5777586018667</ele><time>2022-05-03T03:46:36Z</time></trkpt><trkpt lat="34.18053813322231" lon="135.91271957146338"><ele>1750.956935133785</ele><time>2022-05-03T03:47:24Z</time></trkpt><trkpt lat="34.17936718094552" lon="135.9106496070846"><ele>1879.0341873168945</ele><time>2022-05-03T04:05:32Z</time></trkpt><trkpt lat="34.17936655230278" lon="135.91064994236072"><ele>1880.0581130981445</ele><time>2022-05-03T04:05:33Z</time></trkpt><trkpt lat="34.17939643378759" lon="135.91062203062316"><ele>1885.1850662231445</ele><time>2022-05-03T04:13:31Z</time></trkpt><trkpt lat="34.179396433787694" lon="135.91062203062316"><ele>1885.1850662408397</ele><time>2022-05-03T04:13:32Z</time></trkpt><trkpt lat="34.17923799841247" lon="135.9105008511205"><ele>1881.1987316906452</ele><time>2022-05-03T04:15:45Z</time></trkpt><trkpt lat="34.179056495730336" lon="135.91054684759374"><ele>1880.2088271360844</ele><time>2022-05-03T04:16:02Z</time></trkpt><trkpt lat="34.178875946314065" lon="135.9105954621828"><ele>1880.3590893372893</ele><time>2022-05-03T04:16:22Z</time></trkpt><trkpt lat="34.17870772083184" lon="135.91067842739136"><ele>1873.0573077239096</ele><time>2022-05-03T04:16:47Z</time></trkpt><trkpt lat="34.178531681016125" lon="135.91062200906998"><ele>1867.665649539791</ele><time>2022-05-03T04:18:05Z</time></trkpt><trkpt lat="34.17835160275468" lon="135.9105832896205"><ele>1863.5926764737815</ele><time>2022-05-03T04:18:44Z</time></trkpt><trkpt lat="34.178173363479836" lon="135.9106290238946"><ele>1856.6782902833074</ele><time>2022-05-03T04:19:22Z</time></trkpt><trkpt lat="34.177989120558856" lon="135.91060311151134"><ele>1851.222223367542</ele><time>2022-05-03T04:21:19Z</time></trkpt><trkpt lat="34.17780777575892" lon="135.91062738121605"><ele>1842.4173606177792</ele><time>2022-05-03T04:22:22Z</time></trkpt><trkpt lat="34.17774539234839" lon="135.9104194228782"><ele>1840.9484743392095</ele><time>2022-05-03T04:25:30Z</time></trkpt><trkpt lat="34.17755764874585" lon="135.91040770081517"><ele>1831.8112031547353</ele><time>2022-05-03T04:25:52Z</time></trkpt><trkpt lat="34.17738255349666" lon="135.91046669190712"><ele>1825.4026700425893</ele><time>2022-05-03T04:26:14Z</time></trkpt><trkpt lat="34.17720677528187" lon="135.91055250588724"><ele>1823.9277148237452</ele><time>2022-05-03T04:26:33Z</time></trkpt><trkpt lat="34.17702002423275" lon="135.9105438429111"><ele>1819.0189284272492</ele><time>2022-05-03T04:26:55Z</time></trkpt><trkpt lat="34.17684993876536" lon="135.91046353236354"><ele>1815.8141658166423</ele><time>2022-05-03T04:27:24Z</time></trkpt><trkpt lat="34.17668549985893" lon="135.91035360469232"><ele>1812.3836662434042</ele><time>2022-05-03T04:27:51Z</time></trkpt><trkpt lat="34.17651192731221" lon="135.91027660920474"><ele>1808.9139749091119</ele><time>2022-05-03T04:28:13Z</time></trkpt><trkpt lat="34.17363953314179" lon="135.90742701677223"><ele>1914.3359451293945</ele><time>2022-05-03T04:59:50Z</time></trkpt><trkpt lat="34.17363758234597" lon="135.9075229573221"><ele>1917.9603203237057</ele><time>2022-05-03T05:10:54Z</time></trkpt><trkpt lat="34.17924788573297" lon="135.9105251211684"><ele>1880.7387772100046</ele><time>2022-05-03T05:41:20Z</time></trkpt><trkpt lat="34.179262365246466" lon="135.910531757526"><ele>1880.3906326461583</ele><time>2022-05-03T05:41:22Z</time></trkpt><trkpt lat="34.17938276653392" lon="135.9103639798481"><ele>1884.598268863745</ele><time>2022-05-03T05:43:47Z</time></trkpt><trkpt lat="34.18003165322818" lon="135.9094856414021"><ele>1900.2727127904072</ele><time>2022-05-03T05:47:50Z</time></trkpt><trkpt lat="34.1794260638153" lon="135.91063468729695"><ele>1882.2587966918945</ele><time>2022-05-03T05:55:08Z</time></trkpt><trkpt lat="34.1794260638153" lon="135.91063468729695"><ele>1882.2587966918945</ele><time>2022-05-03T05:55:08Z</time></trkpt><trkpt lat="34.17937677822465" lon="135.91067374696573"><ele>1887.5097732543945</ele><time>2022-05-03T05:55:13Z</time></trkpt><trkpt lat="34.17941114531599" lon="135.9106646808882"><ele>1892.4203557828441</ele><time>2022-05-03T05:56:40Z</time></trkpt><trkpt lat="34.17939334676771" lon="135.91088231403407"><ele>1880.4069554237649</ele><time>2022-05-03T05:59:18Z</time></trkpt><trkpt lat="34.179493787666665" lon="135.91106345736944"><ele>1869.3709984170273</ele><time>2022-05-03T06:00:09Z</time></trkpt><trkpt lat="34.179574492921546" lon="135.91125850886561"><ele>1864.2390121668577</ele><time>2022-05-03T06:01:11Z</time></trkpt><trkpt lat="34.179548665444386" lon="135.91148115113805"><ele>1858.0162222040817</ele><time>2022-05-03T06:02:08Z</time></trkpt><trkpt lat="34.17951215348306" lon="135.91170707692643"><ele>1848.337788803503</ele><time>2022-05-03T06:04:37Z</time></trkpt><trkpt lat="34.17949281341873" lon="135.91192334628408"><ele>1846.7448137179017</ele><time>2022-05-03T06:05:13Z</time></trkpt><trkpt lat="34.1794795701821" lon="135.91214135623505"><ele>1839.558453913778</ele><time>2022-05-03T06:06:09Z</time></trkpt><trkpt lat="34.1795003520558" lon="135.91235779537962"><ele>1834.779090131633</ele><time>2022-05-03T06:07:04Z</time></trkpt><trkpt lat="34.17968153926428" lon="135.9123288514802"><ele>1820.340316212736</ele><time>2022-05-03T06:07:53Z</time></trkpt><trkpt lat="34.17985928601082" lon="135.912396088496"><ele>1807.9274813570082</ele><time>2022-05-03T06:08:55Z</time></trkpt><trkpt lat="34.179887636589044" lon="135.91262509357838"><ele>1801.7282756380737</ele><time>2022-05-03T06:09:58Z</time></trkpt><trkpt lat="34.17985155811745" lon="135.9128384344425"><ele>1799.278169392608</ele><time>2022-05-03T06:10:37Z</time></trkpt><trkpt lat="34.179837550760695" lon="135.9130550263099"><ele>1794.8079548738897</ele><time>2022-05-03T06:12:26Z</time></trkpt><trkpt lat="34.179997033098545" lon="135.91294593450226"><ele>1780.199568930082</ele><time>2022-05-03T06:13:25Z</time></trkpt><trkpt lat="34.18011390184721" lon="135.91283674399293"><ele>1780.2690543690696</ele><time>2022-05-03T06:13:56Z</time></trkpt><trkpt lat="34.18011568148227" lon="135.9128337507964"><ele>1780.0712462393567</ele><time>2022-05-03T06:13:57Z</time></trkpt><trkpt lat="34.18011320998651" lon="135.9128287969184"><ele>1778.510156929493</ele><time>2022-05-03T06:14:02Z</time></trkpt><trkpt lat="34.18028280989123" lon="135.91273456546492"><ele>1770.456131009385</ele><time>2022-05-03T06:15:15Z</time></trkpt><trkpt lat="34.180448442128345" lon="135.9126192051665"><ele>1764.2379819368944</ele><time>2022-05-03T06:16:10Z</time></trkpt><trkpt lat="34.18050285930732" lon="135.91283242018264"><ele>1757.2782329777256</ele><time>2022-05-03T06:19:15Z</time></trkpt><trkpt lat="34.18054533919901" lon="135.91304802771802"><ele>1744.0233436087146</ele><time>2022-05-03T06:20:16Z</time></trkpt><trkpt lat="34.18062632337194" lon="135.91325465380794"><ele>1737.0314739290625</ele><time>2022-05-03T06:21:22Z</time></trkpt><trkpt lat="34.18068632023059" lon="135.9134642611499"><ele>1730.7513888217509</ele><time>2022-05-03T06:22:11Z</time></trkpt><trkpt lat="34.18069543815358" lon="135.91368747081708"><ele>1726.5610974617302</ele><time>2022-05-03T06:22:55Z</time></trkpt><trkpt lat="34.1807486831113" lon="135.91389656494465"><ele>1718.9797808462754</ele><time>2022-05-03T06:23:44Z</time></trkpt><trkpt lat="34.18077821045927" lon="135.9141196017198"><ele>1708.9097350249067</ele><time>2022-05-03T06:25:00Z</time></trkpt><trkpt lat="34.18071033329589" lon="135.91432776498016"><ele>1705.0553470458835</ele><time>2022-05-03T06:25:37Z</time></trkpt><trkpt lat="34.18066022905018" lon="135.91455148420454"><ele>1704.3690921450034</ele><time>2022-05-03T06:26:26Z</time></trkpt><trkpt lat="34.18050543413959" lon="135.91471971785958"><ele>1696.9761044085026</ele><time>2022-05-03T06:27:02Z</time></trkpt><trkpt lat="34.18039225715297" lon="135.9149058006816"><ele>1692.711018611677</ele><time>2022-05-03T06:27:39Z</time></trkpt><trkpt lat="34.18027714940049" lon="135.91507771915698"><ele>1689.0467987610027</ele><time>2022-05-03T06:28:14Z</time></trkpt><trkpt lat="34.18015879556779" lon="135.91524635170614"><ele>1682.8937552962452</ele><time>2022-05-03T06:28:59Z</time></trkpt><trkpt lat="34.17998840878397" lon="135.91533100844393"><ele>1681.330740340054</ele><time>2022-05-03T06:29:50Z</time></trkpt><trkpt lat="34.17980320042684" lon="135.91537552124188"><ele>1671.939373023808</ele><time>2022-05-03T06:30:57Z</time></trkpt><trkpt lat="34.17993457860626" lon="135.91552684979547"><ele>1664.5993280280381</ele><time>2022-05-03T06:32:24Z</time></trkpt><trkpt lat="34.18011488089692" lon="135.91558404260147"><ele>1660.6075121928006</ele><time>2022-05-03T06:33:37Z</time></trkpt><trkpt lat="34.17994783065176" lon="135.91568644036"><ele>1655.5977350920439</ele><time>2022-05-03T06:34:29Z</time></trkpt><trkpt lat="34.179783803650714" lon="135.9158007788525"><ele>1652.864114176482</ele><time>2022-05-03T06:35:56Z</time></trkpt><trkpt lat="34.17994676196284" lon="135.9158964603364"><ele>1643.2730205468833</ele><time>2022-05-03T06:36:58Z</time></trkpt><trkpt lat="34.179930308063746" lon="135.91613372599454"><ele>1636.415418183431</ele><time>2022-05-03T06:37:31Z</time></trkpt><trkpt lat="34.17995116676507" lon="135.9161530900881"><ele>1633.0712468018755</ele><time>2022-05-03T06:38:05Z</time></trkpt><trkpt lat="34.17936677569527" lon="135.92097760216146"><ele>1536.3564529977739</ele><time>2022-05-03T06:55:37Z</time></trkpt><trkpt lat="34.17936677569527" lon="135.92097760216146"><ele>1536.3564529977739</ele><time>2022-05-03T06:55:37Z</time></trkpt><trkpt lat="34.17944538410211" lon="135.9243223351761"><ele>1571.2138748168945</ele><time>2022-05-03T07:02:11Z</time></trkpt><trkpt lat="34.17951723499978" lon="135.9244029073113"><ele>1566.5339432042092</ele><time>2022-05-03T07:02:28Z</time></trkpt><trkpt lat="34.17945547743356" lon="135.92460784352906"><ele>1571.070644681342</ele><time>2022-05-03T07:02:54Z</time></trkpt><trkpt lat="34.1793863875657" lon="135.92481056922827"><ele>1571.3149335347116</ele><time>2022-05-03T07:03:14Z</time></trkpt><trkpt lat="34.179284081489" lon="135.92500161232982"><ele>1573.4400427909568</ele><time>2022-05-03T07:03:26Z</time></trkpt><trkpt lat="34.17921613627812" lon="135.92521913475335"><ele>1574.4456096468493</ele><time>2022-05-03T07:03:48Z</time></trkpt><trkpt lat="34.17912766307352" lon="135.92541973447342"><ele>1574.4789192816243</ele><time>2022-05-03T07:04:11Z</time></trkpt><trkpt lat="34.179058197396884" lon="135.9256210616752"><ele>1576.8553523300216</ele><time>2022-05-03T07:04:27Z</time></trkpt><trkpt lat="34.17887720276181" lon="135.92570008206687"><ele>1582.2936400165781</ele><time>2022-05-03T07:04:44Z</time></trkpt><trkpt lat="34.17886692543567" lon="135.92593314251906"><ele>1582.6528910826892</ele><time>2022-05-03T07:05:05Z</time></trkpt><trkpt lat="34.17895750042804" lon="135.92612960748465"><ele>1580.1966626392677</ele><time>2022-05-03T07:05:25Z</time></trkpt><trkpt lat="34.1788782484032" lon="135.92633358138127"><ele>1580.0308814533055</ele><time>2022-05-03T07:06:11Z</time></trkpt><trkpt lat="34.17878132929559" lon="135.92653291650205"><ele>1584.0376389557496</ele><time>2022-05-03T07:06:27Z</time></trkpt><trkpt lat="34.17875110469356" lon="135.92674795404818"><ele>1586.8378792218864</ele><time>2022-05-03T07:07:21Z</time></trkpt><trkpt lat="34.17871865780134" lon="135.92696336453886"><ele>1589.503158768639</ele><time>2022-05-03T07:07:42Z</time></trkpt><trkpt lat="34.178745942825685" lon="135.9271883125889"><ele>1590.568052888848</ele><time>2022-05-03T07:08:00Z</time></trkpt><trkpt lat="34.178777466900186" lon="135.92740464398642"><ele>1592.181189244613</ele><time>2022-05-03T07:08:18Z</time></trkpt><trkpt lat="34.178744693228104" lon="135.92762815498784"><ele>1597.5204207375646</ele><time>2022-05-03T07:08:42Z</time></trkpt><trkpt lat="34.17884259987629" lon="135.92782287816127"><ele>1600.0432947371155</ele><time>2022-05-03T07:09:01Z</time></trkpt><trkpt lat="34.17893232746936" lon="135.92801446273023"><ele>1600.6634913627058</ele><time>2022-05-03T07:09:24Z</time></trkpt><trkpt lat="34.179045650817685" lon="135.92818830461707"><ele>1603.827161397785</ele><time>2022-05-03T07:09:52Z</time></trkpt><trkpt lat="34.179105625434374" lon="135.928395062318"><ele>1608.9206912433729</ele><time>2022-05-03T07:10:16Z</time></trkpt><trkpt lat="34.179260532160676" lon="135.92852058223386"><ele>1610.0722141591832</ele><time>2022-05-03T07:10:39Z</time></trkpt><trkpt lat="34.17928884621988" lon="135.92873478322622"><ele>1611.2365601314232</ele><time>2022-05-03T07:11:58Z</time></trkpt><trkpt lat="34.179253426824104" lon="135.92894876166042"><ele>1608.5444886730984</ele><time>2022-05-03T07:12:23Z</time></trkpt><trkpt lat="34.17918527999883" lon="135.92915426454144"><ele>1602.6768570849672</ele><time>2022-05-03T07:13:07Z</time></trkpt><trkpt lat="34.17913018597252" lon="135.9293654256036"><ele>1592.7600168483332</ele><time>2022-05-03T07:14:22Z</time></trkpt><trkpt lat="34.17908372143041" lon="135.92957982284784"><ele>1589.5938573936</ele><time>2022-05-03T07:15:23Z</time></trkpt><trkpt lat="34.17900315428591" lon="135.92978445044264"><ele>1583.5822174120694</ele><time>2022-05-03T07:16:33Z</time></trkpt><trkpt lat="34.178982992186924" lon="135.9300049156447"><ele>1577.0298766093329</ele><time>2022-05-03T07:17:21Z</time></trkpt><trkpt lat="34.178864732662845" lon="135.93017381603448"><ele>1575.1550742201507</ele><time>2022-05-03T07:18:08Z</time></trkpt><trkpt lat="34.17876118913235" lon="135.93035604550366"><ele>1575.4866790231317</ele><time>2022-05-03T07:18:35Z</time></trkpt><trkpt lat="34.178735199372795" lon="135.93057510239512"><ele>1572.4725134661421</ele><time>2022-05-03T07:19:05Z</time></trkpt><trkpt lat="34.17873924565698" lon="135.93079283717157"><ele>1568.6386022465304</ele><time>2022-05-03T07:19:29Z</time></trkpt><trkpt lat="34.178719186461095" lon="135.93102082661278"><ele>1568.1078106248751</ele><time>2022-05-03T07:19:55Z</time></trkpt><trkpt lat="34.178654849240694" lon="135.93122817777518"><ele>1567.850901122205</ele><time>2022-05-03T07:20:13Z</time></trkpt><trkpt lat="34.178632958153756" lon="135.93145334673355"><ele>1561.0491043180227</ele><time>2022-05-03T07:20:36Z</time></trkpt><trkpt lat="34.1785516741803" lon="135.9316674987988"><ele>1563.9561686804518</ele><time>2022-05-03T07:20:51Z</time></trkpt><trkpt lat="34.178525431061416" lon="135.93188282282748"><ele>1567.2603111891076</ele><time>2022-05-03T07:22:05Z</time></trkpt><trkpt lat="34.17861808095495" lon="135.93207132241807"><ele>1560.4264246439561</ele><time>2022-05-03T07:23:52Z</time></trkpt><trkpt lat="34.17874284038737" lon="135.93223838471954"><ele>1556.0364604340866</ele><time>2022-05-03T07:24:26Z</time></trkpt><trkpt lat="34.178856197011825" lon="135.93241586653852"><ele>1555.5952775347978</ele><time>2022-05-03T07:24:50Z</time></trkpt><trkpt lat="34.17893101623122" lon="135.9326276698254"><ele>1554.927631083876</ele><time>2022-05-03T07:25:14Z</time></trkpt><trkpt lat="34.178956741912764" lon="135.9328518730445"><ele>1547.1970376269892</ele><time>2022-05-03T07:25:51Z</time></trkpt><trkpt lat="34.178999882665245" lon="135.93306760535998"><ele>1547.0328803490847</ele><time>2022-05-03T07:26:13Z</time></trkpt><trkpt lat="34.17906720954511" lon="135.93327437620292"><ele>1546.775500210002</ele><time>2022-05-03T07:26:40Z</time></trkpt><trkpt lat="34.17909522742999" lon="135.93349645947168"><ele>1545.644855945371</ele><time>2022-05-03T07:27:00Z</time></trkpt><trkpt lat="34.17917508202907" lon="135.9336950634167"><ele>1543.7743173232302</ele><time>2022-05-03T07:27:35Z</time></trkpt><trkpt lat="34.17923221486255" lon="135.93391355347626"><ele>1537.536761221476</ele><time>2022-05-03T07:27:55Z</time></trkpt><trkpt lat="34.17927898874572" lon="135.93413382372825"><ele>1535.8345143543556</ele><time>2022-05-03T07:28:17Z</time></trkpt><trkpt lat="34.17937778938936" lon="135.93431613404175"><ele>1531.4409854346886</ele><time>2022-05-03T07:28:44Z</time></trkpt><trkpt lat="34.17947999605492" lon="135.9344957904217"><ele>1525.4562729541212</ele><time>2022-05-03T07:29:20Z</time></trkpt><trkpt lat="34.179596187732486" lon="135.93466299735687"><ele>1516.6889842646196</ele><time>2022-05-03T07:30:03Z</time></trkpt><trkpt lat="34.17969360036816" lon="135.93484659636584"><ele>1510.7803173372522</ele><time>2022-05-03T07:30:35Z</time></trkpt><trkpt lat="34.17984424403175" lon="135.93497024718056"><ele>1510.336270738393</ele><time>2022-05-03T07:30:48Z</time></trkpt><trkpt lat="34.179964616755164" lon="135.9351444978184"><ele>1511.7214313307777</ele><time>2022-05-03T07:31:16Z</time></trkpt><trkpt lat="34.18014168073898" lon="135.93521639540478"><ele>1504.7900608163327</ele><time>2022-05-03T07:31:59Z</time></trkpt><trkpt lat="34.18028362157771" lon="135.93535589529986"><ele>1499.2005681954324</ele><time>2022-05-03T07:32:23Z</time></trkpt><trkpt lat="34.180389087188075" lon="135.9355376677229"><ele>1495.5382759403437</ele><time>2022-05-03T07:32:46Z</time></trkpt><trkpt lat="34.180453602103945" lon="135.93575224337582"><ele>1490.9008657373488</ele><time>2022-05-03T07:33:06Z</time></trkpt><trkpt lat="34.18050631078755" lon="135.93596013666155"><ele>1485.9636426605284</ele><time>2022-05-03T07:33:30Z</time></trkpt><trkpt lat="34.1805466315761" lon="135.93618539293556"><ele>1482.9611350093037</ele><time>2022-05-03T07:33:56Z</time></trkpt><trkpt lat="34.18062405044354" lon="135.93638886605478"><ele>1482.8872766820714</ele><time>2022-05-03T07:34:15Z</time></trkpt><trkpt lat="34.180646392878856" lon="135.93661250290629"><ele>1482.0312985917553</ele><time>2022-05-03T07:34:33Z</time></trkpt><trkpt lat="34.18067767989834" lon="135.93682710958595"><ele>1480.617667036131</ele><time>2022-05-03T07:34:50Z</time></trkpt><trkpt lat="34.18073043598692" lon="135.93705056595647"><ele>1478.7331317244098</ele><time>2022-05-03T07:35:10Z</time></trkpt><trkpt lat="34.18075567229154" lon="135.9372677610447"><ele>1471.675545912236</ele><time>2022-05-03T07:35:31Z</time></trkpt><trkpt lat="34.18065715854841" lon="135.93745966173415"><ele>1469.248133527115</ele><time>2022-05-03T07:36:31Z</time></trkpt><trkpt lat="34.18052127334153" lon="135.93760496710217"><ele>1467.217568662949</ele><time>2022-05-03T07:36:54Z</time></trkpt><trkpt lat="34.18041986134533" lon="135.93778611524615"><ele>1466.8769704494625</ele><time>2022-05-03T07:37:11Z</time></trkpt><trkpt lat="34.180318337253865" lon="135.93797602089762"><ele>1461.058677044697</ele><time>2022-05-03T07:37:33Z</time></trkpt><trkpt lat="34.1802376446739" lon="135.93818104844135"><ele>1462.2276171548292</ele><time>2022-05-03T07:37:53Z</time></trkpt><trkpt lat="34.18019761026283" lon="135.9383979469029"><ele>1459.4878868367523</ele><time>2022-05-03T07:38:20Z</time></trkpt><trkpt lat="34.18015730424693" lon="135.9386104039445"><ele>1460.3424935471267</ele><time>2022-05-03T07:38:38Z</time></trkpt><trkpt lat="34.18015161805" lon="135.9388296001048"><ele>1464.2723925011232</ele><time>2022-05-03T07:39:01Z</time></trkpt><trkpt lat="34.18012464629024" lon="135.9390513994251"><ele>1471.0205698665231</ele><time>2022-05-03T07:39:37Z</time></trkpt><trkpt lat="34.18013215029763" lon="135.93928220638455"><ele>1478.1158316535875</ele><time>2022-05-03T07:40:14Z</time></trkpt><trkpt lat="34.180175550747656" lon="135.9394941893715"><ele>1478.7652284419164</ele><time>2022-05-03T07:40:35Z</time></trkpt><trkpt lat="34.18019412207448" lon="135.93972152477338"><ele>1479.7873669387773</ele><time>2022-05-03T07:41:02Z</time></trkpt><trkpt lat="34.180085814788804" lon="135.93990494159928"><ele>1484.469864075072</ele><time>2022-05-03T07:41:34Z</time></trkpt><trkpt lat="34.18003424888821" lon="135.94011802298206"><ele>1482.1353126177564</ele><time>2022-05-03T07:42:03Z</time></trkpt><trkpt lat="34.179996834558615" lon="135.9403394771051"><ele>1478.2520919386297</ele><time>2022-05-03T07:42:40Z</time></trkpt><trkpt lat="34.17995489965584" lon="135.94056470622928"><ele>1483.1122396970168</ele><time>2022-05-03T07:43:15Z</time></trkpt><trkpt lat="34.179941248941866" lon="135.94078721119286"><ele>1484.8265260662884</ele><time>2022-05-03T07:43:42Z</time></trkpt><trkpt lat="34.1800335091849" lon="135.94097366009777"><ele>1483.0411642361432</ele><time>2022-05-03T07:44:11Z</time></trkpt><trkpt lat="34.18015926177895" lon="135.9411413988725"><ele>1480.8208935344592</ele><time>2022-05-03T07:44:49Z</time></trkpt><trkpt lat="34.1802312963184" lon="135.94134022632042"><ele>1482.5686480812728</ele><time>2022-05-03T07:45:24Z</time></trkpt><trkpt lat="34.1803314372093" lon="135.94153512198372"><ele>1476.554607771337</ele><time>2022-05-03T07:45:48Z</time></trkpt><trkpt lat="34.18041612034365" lon="135.9417319469699"><ele>1474.7445596875623</ele><time>2022-05-03T07:46:21Z</time></trkpt><trkpt lat="34.18043099029226" lon="135.94195283184771"><ele>1471.073219162412</ele><time>2022-05-03T07:46:59Z</time></trkpt><trkpt lat="34.18038026556818" lon="135.94217817329636"><ele>1475.5343634458259</ele><time>2022-05-03T07:47:40Z</time></trkpt><trkpt lat="34.180315241476464" lon="135.94238268019075"><ele>1480.439824340865</ele><time>2022-05-03T07:48:14Z</time></trkpt><trkpt lat="34.1802818407534" lon="135.94260956768233"><ele>1489.0663572354242</ele><time>2022-05-03T07:49:16Z</time></trkpt><trkpt lat="34.18030286289128" lon="135.9428345861422"><ele>1489.966910903342</ele><time>2022-05-03T07:49:49Z</time></trkpt><trkpt lat="34.180452163032626" lon="135.94297777347165"><ele>1485.1813431838527</ele><time>2022-05-03T07:50:23Z</time></trkpt><trkpt lat="34.18055614941773" lon="135.9431558404941"><ele>1485.5056082773954</ele><time>2022-05-03T07:50:42Z</time></trkpt><trkpt lat="34.18073099273449" lon="135.94322082840955"><ele>1481.9854582874104</ele><time>2022-05-03T07:51:02Z</time></trkpt><trkpt lat="34.18091829530429" lon="135.943222517401"><ele>1476.4972097370774</ele><time>2022-05-03T07:51:17Z</time></trkpt><trkpt lat="34.18106470498279" lon="135.94335574085528"><ele>1478.1149402381852</ele><time>2022-05-03T07:51:53Z</time></trkpt><trkpt lat="34.181236135828286" lon="135.94343078226234"><ele>1475.5426717642695</ele><time>2022-05-03T07:52:08Z</time></trkpt><trkpt lat="34.181399992826776" lon="135.9435418790146"><ele>1477.28728041891</ele><time>2022-05-03T07:52:24Z</time></trkpt><trkpt lat="34.181577104286504" lon="135.94363019392586"><ele>1475.1677053822204</ele><time>2022-05-03T07:52:42Z</time></trkpt><trkpt lat="34.18171694609732" lon="135.94378111651656"><ele>1473.4279363090172</ele><time>2022-05-03T07:56:17Z</time></trkpt><trkpt lat="34.18188571067105" lon="135.94389748175485"><ele>1474.2849849965423</ele><time>2022-05-03T07:56:38Z</time></trkpt><trkpt lat="34.18191035659607" lon="135.9441153698906"><ele>1473.571116015315</ele><time>2022-05-03T08:00:42Z</time></trkpt><trkpt lat="34.1819435384902" lon="135.94433406634587"><ele>1472.022359373048</ele><time>2022-05-03T08:01:20Z</time></trkpt><trkpt lat="34.18200109239773" lon="135.94454526801007"><ele>1464.2621219139546</ele><time>2022-05-03T08:01:51Z</time></trkpt><trkpt lat="34.18201244742704" lon="135.94476357750247"><ele>1459.7631293274462</ele><time>2022-05-03T08:02:31Z</time></trkpt><trkpt lat="34.18211136685631" lon="135.94495305815803"><ele>1449.499425389804</ele><time>2022-05-03T08:03:11Z</time></trkpt><trkpt lat="34.182171665032364" lon="135.9451603249342"><ele>1445.2407135739923</ele><time>2022-05-03T08:03:30Z</time></trkpt><trkpt lat="34.182284756963206" lon="135.94533460240882"><ele>1439.8777690744027</ele><time>2022-05-03T08:04:20Z</time></trkpt><trkpt lat="34.18236371366603" lon="135.94553166212702"><ele>1431.7942625368014</ele><time>2022-05-03T08:05:35Z</time></trkpt><trkpt lat="34.18231265394454" lon="135.94574250791416"><ele>1429.4792749043554</ele><time>2022-05-03T08:06:44Z</time></trkpt><trkpt lat="34.182366153826706" lon="135.9459522895518"><ele>1423.8933036914095</ele><time>2022-05-03T08:07:29Z</time></trkpt><trkpt lat="34.18235835208265" lon="135.94617078476787"><ele>1415.472709679976</ele><time>2022-05-03T08:08:28Z</time></trkpt><trkpt lat="34.18225432638586" lon="135.94635713295315"><ele>1412.0720856692642</ele><time>2022-05-03T08:09:07Z</time></trkpt><trkpt lat="34.182221900129676" lon="135.9465871534829"><ele>1408.2975348401815</ele><time>2022-05-03T08:10:27Z</time></trkpt><trkpt lat="34.18221982163649" lon="135.9468108798305"><ele>1404.8151151249185</ele><time>2022-05-03T08:10:44Z</time></trkpt><trkpt lat="34.18211968444263" lon="135.94700396471782"><ele>1399.1396362194791</ele><time>2022-05-03T08:11:09Z</time></trkpt><trkpt lat="34.18199923783784" lon="135.94716681185224"><ele>1398.097439572215</ele><time>2022-05-03T08:11:33Z</time></trkpt><trkpt lat="34.18199225545416" lon="135.94738507998127"><ele>1394.4656429896131</ele><time>2022-05-03T08:11:53Z</time></trkpt><trkpt lat="34.18191630848514" lon="135.9475896646423"><ele>1388.8880385728553</ele><time>2022-05-03T08:12:11Z</time></trkpt><trkpt lat="34.18188685724334" lon="135.94781324087398"><ele>1390.7440492827445</ele><time>2022-05-03T08:12:37Z</time></trkpt><trkpt lat="34.18183526179858" lon="135.94802197274015"><ele>1375.6193331098184</ele><time>2022-05-03T08:13:43Z</time></trkpt><trkpt lat="34.181878527007456" lon="135.94823972616757"><ele>1365.0253689112142</ele><time>2022-05-03T08:15:01Z</time></trkpt><trkpt lat="34.18176142266889" lon="135.94841027379917"><ele>1363.6268820660189</ele><time>2022-05-03T08:16:17Z</time></trkpt><trkpt lat="34.18185093792384" lon="135.94860711667624"><ele>1342.4970315685496</ele><time>2022-05-03T08:17:53Z</time></trkpt><trkpt lat="34.181901314211814" lon="135.9488192202144"><ele>1330.4005366982892</ele><time>2022-05-03T08:19:39Z</time></trkpt><trkpt lat="34.18192850443801" lon="135.9490356014271"><ele>1313.5693475417793</ele><time>2022-05-03T08:21:56Z</time></trkpt><trkpt lat="34.181913086858124" lon="135.94926549489676"><ele>1313.5897622993216</ele><time>2022-05-03T08:23:19Z</time></trkpt><trkpt lat="34.18187306680968" lon="135.94947858273974"><ele>1300.3003785088658</ele><time>2022-05-03T08:24:53Z</time></trkpt><trkpt lat="34.18186719144327" lon="135.9497039775552"><ele>1293.03540013358</ele><time>2022-05-03T08:26:14Z</time></trkpt><trkpt lat="34.18186259624733" lon="135.94992207122905"><ele>1275.302201825194</ele><time>2022-05-03T08:29:28Z</time></trkpt><trkpt lat="34.18183460534186" lon="135.9501400213058"><ele>1265.348273246549</ele><time>2022-05-03T08:31:02Z</time></trkpt><trkpt lat="34.18191978836219" lon="135.95034287738702"><ele>1257.3753945138305</ele><time>2022-05-03T08:32:37Z</time></trkpt><trkpt lat="34.18187752316131" lon="135.95055743813722"><ele>1243.9260528264567</ele><time>2022-05-03T08:34:09Z</time></trkpt><trkpt lat="34.1819222477093" lon="135.9507756342833"><ele>1233.185774229467</ele><time>2022-05-03T08:35:11Z</time></trkpt><trkpt lat="34.181939017167515" lon="135.95099967408675"><ele>1222.947463880293</ele><time>2022-05-03T08:36:38Z</time></trkpt><trkpt lat="34.18199441674356" lon="135.95120737094612"><ele>1217.420386034064</ele><time>2022-05-03T08:37:46Z</time></trkpt><trkpt lat="34.18215552990335" lon="135.95133345695385"><ele>1209.1570008555427</ele><time>2022-05-03T08:38:40Z</time></trkpt><trkpt lat="34.182312796451846" lon="135.951440445556"><ele>1201.219106242992</ele><time>2022-05-03T08:39:39Z</time></trkpt><trkpt lat="34.18245678989186" lon="135.95158212988673"><ele>1193.5192894497886</ele><time>2022-05-03T08:41:15Z</time></trkpt><trkpt lat="34.182604407576974" lon="135.95172879171938"><ele>1187.9008524296805</ele><time>2022-05-03T08:42:05Z</time></trkpt><trkpt lat="34.182652042328606" lon="135.95194887432524"><ele>1174.9109140923247</ele><time>2022-05-03T08:44:05Z</time></trkpt><trkpt lat="34.18275900538789" lon="135.95212821781183"><ele>1165.856854797341</ele><time>2022-05-03T08:45:08Z</time></trkpt><trkpt lat="34.1828618223675" lon="135.95232238841865"><ele>1165.53063886147</ele><time>2022-05-03T08:45:44Z</time></trkpt><trkpt lat="34.182949798263294" lon="135.95212196495163"><ele>1150.2589544830844</ele><time>2022-05-03T08:46:48Z</time></trkpt><trkpt lat="34.18296975619954" lon="135.95190291533905"><ele>1146.572190796025</ele><time>2022-05-03T08:47:35Z</time></trkpt><trkpt lat="34.18297589274638" lon="135.95168486210417"><ele>1144.760099561885</ele><time>2022-05-03T08:48:10Z</time></trkpt><trkpt lat="34.18301561186962" lon="135.95147058703068"><ele>1140.846076561138</ele><time>2022-05-03T08:48:44Z</time></trkpt><trkpt lat="34.18308055728411" lon="135.9512666947512"><ele>1141.7254938827828</ele><time>2022-05-03T08:49:42Z</time></trkpt><trkpt lat="34.183260468938194" lon="135.95122344059044"><ele>1139.8935012966394</ele><time>2022-05-03T08:50:54Z</time></trkpt><trkpt lat="34.18342243929356" lon="135.95132784742935"><ele>1134.1629607751966</ele><time>2022-05-03T08:52:09Z</time></trkpt><trkpt lat="34.183606510591254" lon="135.95134466946084"><ele>1129.580818561837</ele><time>2022-05-03T08:52:49Z</time></trkpt><trkpt lat="34.183797961915616" lon="135.95137069258496"><ele>1126.870743191801</ele><time>2022-05-03T08:53:11Z</time></trkpt><trkpt lat="34.18398687833042" lon="135.95135935692764"><ele>1119.755171911791</ele><time>2022-05-03T08:53:35Z</time></trkpt><trkpt lat="34.18407584933685" lon="135.95116618928046"><ele>1112.9935489324853</ele><time>2022-05-03T08:54:25Z</time></trkpt><trkpt lat="34.18424572579436" lon="135.95124972780232"><ele>1098.4798783101141</ele><time>2022-05-03T08:56:35Z</time></trkpt><trkpt lat="34.184368479394166" lon="135.9510842390482"><ele>1090.1957580009475</ele><time>2022-05-03T08:57:38Z</time></trkpt><trkpt lat="34.184488446719776" lon="135.95091463461003"><ele>1089.2919873818755</ele><time>2022-05-03T08:58:54Z</time></trkpt><trkpt lat="34.18461046002665" lon="135.9507545235704"><ele>1093.0426295520738</ele><time>2022-05-03T08:59:17Z</time></trkpt><trkpt lat="34.18465713665164" lon="135.95054056636397"><ele>1094.8843310559168</ele><time>2022-05-03T08:59:35Z</time></trkpt><trkpt lat="34.18462551683568" lon="135.9503219789139"><ele>1098.7856556270272</ele><time>2022-05-03T08:59:58Z</time></trkpt><trkpt lat="34.184657638723024" lon="135.9501008434786"><ele>1104.6179801821709</ele><time>2022-05-03T09:00:22Z</time></trkpt><trkpt lat="34.18479042287713" lon="135.94995020894916"><ele>1112.460996452719</ele><time>2022-05-03T09:00:49Z</time></trkpt><trkpt lat="34.18491840751231" lon="135.9497951349933"><ele>1115.7153460504487</ele><time>2022-05-03T09:01:14Z</time></trkpt><trkpt lat="34.185032716593476" lon="135.94962052536684"><ele>1116.9939209166914</ele><time>2022-05-03T09:01:38Z</time></trkpt><trkpt lat="34.185182955414255" lon="135.94949407578798"><ele>1122.7823114581406</ele><time>2022-05-03T09:02:04Z</time></trkpt><trkpt lat="34.185333656962705" lon="135.94935758146423"><ele>1130.9264497803524</ele><time>2022-05-03T09:02:32Z</time></trkpt><trkpt lat="34.18551362642065" lon="135.94932282694697"><ele>1138.267552882433</ele><time>2022-05-03T09:02:59Z</time></trkpt><trkpt lat="34.18551126836749" lon="135.9495435305192"><ele>1129.7896098876372</ele><time>2022-05-03T09:03:30Z</time></trkpt></trkseg></trk></gpx>