<?xml version='1.0' encoding='UTF-8'?><gpx creator="YAMAP - https://yamap.com" xsi:schemaLocation="http://www.topografix.com/GPX/1/1 http://www.topografix.com/GPX/1/1/gpx.xsd" version="1.1" xmlns="http://www.topografix.com/GPX/1/1" xmlns:xsi="http://www.w3.org/2001/XMLSchema-instance"><metadata><bounds maxlat="37.15227667297408" maxlon="139.1299540896752" minlat="37.12229679683185" minlon="139.07521085754354"/></metadata><trk><name>道行山・小倉山・越後駒ヶ岳</name><number>1</number><trkseg><trkpt lat="37.152177777073625" lon="139.1297459162257"><ele>1064.104311584495</ele><time>2022-10-22T21:38:00Z</time></trkpt><trkpt lat="37.15207621844867" lon="139.12993302639555"><ele>1065.0002229223028</ele><time>2022-10-22T21:38:18Z</time></trkpt><trkpt lat="37.151902701765636" lon="139.1298557029818"><ele>1069.2539035035297</ele><time>2022-10-22T21:38:48Z</time></trkpt><trkpt lat="37.15177948700225" lon="139.12968382020796"><ele>1074.7776227807626</ele><time>2022-10-22T21:39:15Z</time></trkpt><trkpt lat="37.151658645513535" lon="139.12951666661877"><ele>1080.3531824853271</ele><time>2022-10-22T21:39:33Z</time></trkpt><trkpt lat="37.15147807929952" lon="139.12946639026075"><ele>1083.7262856122106</ele><time>2022-10-22T21:39:54Z</time></trkpt><trkpt lat="37.15129715386783" lon="139.12944151949958"><ele>1088.998239127919</ele><time>2022-10-22T21:40:18Z</time></trkpt><trkpt lat="37.15112888132062" lon="139.12935852854136"><ele>1094.4364207834005</ele><time>2022-10-22T21:40:38Z</time></trkpt><trkpt lat="37.15094087396618" lon="139.1293788151505"><ele>1094.1251416038722</ele><time>2022-10-22T21:40:55Z</time></trkpt><trkpt lat="37.15075914430896" lon="139.12938587053873"><ele>1092.7937834477052</ele><time>2022-10-22T21:41:14Z</time></trkpt><trkpt lat="37.15057779555473" lon="139.12938820408124"><ele>1094.80378318578</ele><time>2022-10-22T21:41:32Z</time></trkpt><trkpt lat="37.15039563497841" lon="139.1293812894477"><ele>1097.005037849769</ele><time>2022-10-22T21:41:48Z</time></trkpt><trkpt lat="37.1502073059497" lon="139.12936597957463"><ele>1100.1983967693523</ele><time>2022-10-22T21:42:12Z</time></trkpt><trkpt lat="37.150025509353156" lon="139.12934614112527"><ele>1103.8595151659101</ele><time>2022-10-22T21:42:37Z</time></trkpt><trkpt lat="37.14984030094367" lon="139.1293655141177"><ele>1102.8761073527858</ele><time>2022-10-22T21:42:55Z</time></trkpt><trkpt lat="37.149661419144934" lon="139.1292831195917"><ele>1103.7469643214718</ele><time>2022-10-22T21:43:13Z</time></trkpt><trkpt lat="37.14953403974573" lon="139.129114727063"><ele>1105.5736029157415</ele><time>2022-10-22T21:43:31Z</time></trkpt><trkpt lat="37.14939245446865" lon="139.12897155743903"><ele>1108.1550037404522</ele><time>2022-10-22T21:43:50Z</time></trkpt><trkpt lat="37.14924401010648" lon="139.1288332913829"><ele>1110.7457015663385</ele><time>2022-10-22T21:44:14Z</time></trkpt><trkpt lat="37.14910139200577" lon="139.1286895550665"><ele>1118.011412405409</ele><time>2022-10-22T21:44:39Z</time></trkpt><trkpt lat="37.14902448795863" lon="139.12847778583776"><ele>1123.8549922881648</ele><time>2022-10-22T21:45:06Z</time></trkpt><trkpt lat="37.14887087960722" lon="139.1283441362871"><ele>1128.6247302340344</ele><time>2022-10-22T21:45:28Z</time></trkpt><trkpt lat="37.14875341137426" lon="139.12816550792115"><ele>1128.2343447692692</ele><time>2022-10-22T21:45:51Z</time></trkpt><trkpt lat="37.14867428581012" lon="139.12794644949457"><ele>1126.8419836917892</ele><time>2022-10-22T21:46:10Z</time></trkpt><trkpt lat="37.148526161423135" lon="139.12780085373308"><ele>1126.3112460877746</ele><time>2022-10-22T21:46:34Z</time></trkpt><trkpt lat="37.14844124289763" lon="139.1275949737974"><ele>1130.397000788711</ele><time>2022-10-22T21:46:57Z</time></trkpt><trkpt lat="37.1483953511554" lon="139.1273738967155"><ele>1137.1819217372686</ele><time>2022-10-22T21:47:25Z</time></trkpt><trkpt lat="37.14831589242241" lon="139.12716873617634"><ele>1143.8062064880505</ele><time>2022-10-22T21:47:55Z</time></trkpt><trkpt lat="37.14821919601607" lon="139.12697750166893"><ele>1147.4877301426604</ele><time>2022-10-22T21:48:20Z</time></trkpt><trkpt lat="37.14810027514993" lon="139.12679465936407"><ele>1148.9295070972294</ele><time>2022-10-22T21:48:43Z</time></trkpt><trkpt lat="37.14796107659088" lon="139.12665148012707"><ele>1156.8808680484071</ele><time>2022-10-22T21:49:09Z</time></trkpt><trkpt lat="37.14780546420605" lon="139.12652885564128"><ele>1173.0430240752175</ele><time>2022-10-22T21:53:00Z</time></trkpt><trkpt lat="37.147671625681944" lon="139.12636907854986"><ele>1179.494173625484</ele><time>2022-10-22T21:53:31Z</time></trkpt><trkpt lat="37.14761863214667" lon="139.12614480857152"><ele>1178.048840958625</ele><time>2022-10-22T21:53:48Z</time></trkpt><trkpt lat="37.147624463867295" lon="139.12591598280014"><ele>1179.4259633552283</ele><time>2022-10-22T21:54:05Z</time></trkpt><trkpt lat="37.147582144878555" lon="139.12569632586576"><ele>1183.257686836645</ele><time>2022-10-22T21:54:27Z</time></trkpt><trkpt lat="37.14752844692672" lon="139.12547707354003"><ele>1184.3089592214674</ele><time>2022-10-22T21:54:45Z</time></trkpt><trkpt lat="37.14746480334815" lon="139.12526449166265"><ele>1186.945013209246</ele><time>2022-10-22T21:55:03Z</time></trkpt><trkpt lat="37.14739946386444" lon="139.1250542475235"><ele>1187.6644704388455</ele><time>2022-10-22T21:55:18Z</time></trkpt><trkpt lat="37.14738199801417" lon="139.12482928443183"><ele>1189.3991826316342</ele><time>2022-10-22T21:55:37Z</time></trkpt><trkpt lat="37.14735444498688" lon="139.1246029254801"><ele>1192.2132276436314</ele><time>2022-10-22T21:55:58Z</time></trkpt><trkpt lat="37.14740478553756" lon="139.12437705074615"><ele>1193.8299856772646</ele><time>2022-10-22T21:56:16Z</time></trkpt><trkpt lat="37.14736135215248" lon="139.1241556371118"><ele>1187.524084104225</ele><time>2022-10-22T21:56:34Z</time></trkpt><trkpt lat="37.14728561474441" lon="139.1239419942707"><ele>1190.877097913064</ele><time>2022-10-22T21:56:54Z</time></trkpt><trkpt lat="37.14714973909633" lon="139.1237835861863"><ele>1192.0499493833631</ele><time>2022-10-22T21:57:14Z</time></trkpt><trkpt lat="37.14708127137364" lon="139.12357042369973"><ele>1191.3697505295277</ele><time>2022-10-22T21:57:29Z</time></trkpt><trkpt lat="37.14697345921159" lon="139.12338242929283"><ele>1193.2511471137404</ele><time>2022-10-22T21:57:49Z</time></trkpt><trkpt lat="37.146937473814624" lon="139.1231596575819"><ele>1198.9500367743894</ele><time>2022-10-22T21:58:09Z</time></trkpt><trkpt lat="37.14685629984036" lon="139.1229545187328"><ele>1203.4954140558839</ele><time>2022-10-22T21:58:36Z</time></trkpt><trkpt lat="37.14684815281945" lon="139.1227220993736"><ele>1204.9054500339553</ele><time>2022-10-22T21:58:57Z</time></trkpt><trkpt lat="37.14689879218731" lon="139.1225013725094"><ele>1209.9325640974566</ele><time>2022-10-22T21:59:16Z</time></trkpt><trkpt lat="37.14696024159834" lon="139.12227170847393"><ele>1209.5378692876548</ele><time>2022-10-22T21:59:33Z</time></trkpt><trkpt lat="37.1470167458595" lon="139.12205212101134"><ele>1217.2055353820324</ele><time>2022-10-22T21:59:55Z</time></trkpt><trkpt lat="37.1471323058976" lon="139.12186792277254"><ele>1219.534530762583</ele><time>2022-10-22T22:00:20Z</time></trkpt><trkpt lat="37.14696133943809" lon="139.12178372083116"><ele>1227.131736194715</ele><time>2022-10-22T22:01:13Z</time></trkpt><trkpt lat="37.14683156515038" lon="139.12162234848265"><ele>1236.3458280935884</ele><time>2022-10-22T22:02:01Z</time></trkpt><trkpt lat="37.146833413294765" lon="139.12138583952787"><ele>1238.2432484291494</ele><time>2022-10-22T22:02:20Z</time></trkpt><trkpt lat="37.146733616442134" lon="139.1211888355593"><ele>1233.7226223926991</ele><time>2022-10-22T22:02:47Z</time></trkpt><trkpt lat="37.146574429536585" lon="139.12107719166656"><ele>1231.3724805247039</ele><time>2022-10-22T22:03:08Z</time></trkpt><trkpt lat="37.14641420507682" lon="139.12095610953853"><ele>1226.078316807747</ele><time>2022-10-22T22:03:34Z</time></trkpt><trkpt lat="37.146260587503846" lon="139.12082508220163"><ele>1217.7124499930069</ele><time>2022-10-22T22:04:07Z</time></trkpt><trkpt lat="37.146092053170285" lon="139.12074163149282"><ele>1214.9133298303932</ele><time>2022-10-22T22:04:26Z</time></trkpt><trkpt lat="37.14594769178925" lon="139.1206014574639"><ele>1212.8338768742979</ele><time>2022-10-22T22:04:42Z</time></trkpt><trkpt lat="37.14579516380529" lon="139.1204672741861"><ele>1212.3426309172064</ele><time>2022-10-22T22:05:01Z</time></trkpt><trkpt lat="37.14562043571819" lon="139.1203818583668"><ele>1208.5856135534123</ele><time>2022-10-22T22:05:18Z</time></trkpt><trkpt lat="37.14545597975884" lon="139.12026768986482"><ele>1204.136122373864</ele><time>2022-10-22T22:05:37Z</time></trkpt><trkpt lat="37.145285906383826" lon="139.12018940447828"><ele>1201.0345327714458</ele><time>2022-10-22T22:05:55Z</time></trkpt><trkpt lat="37.14513971704078" lon="139.12003836105026"><ele>1201.9653892349452</ele><time>2022-10-22T22:06:15Z</time></trkpt><trkpt lat="37.14498745965626" lon="139.11990813915068"><ele>1200.8766371235251</ele><time>2022-10-22T22:06:33Z</time></trkpt><trkpt lat="37.14480943733075" lon="139.1198333723889"><ele>1200.4247956238687</ele><time>2022-10-22T22:06:50Z</time></trkpt><trkpt lat="37.14463815821415" lon="139.1197477383277"><ele>1201.3959701480344</ele><time>2022-10-22T22:07:11Z</time></trkpt><trkpt lat="37.14452559215615" lon="139.11956958363984"><ele>1201.0638575674966</ele><time>2022-10-22T22:07:30Z</time></trkpt><trkpt lat="37.144387875415696" lon="139.1194107335537"><ele>1204.1408041203395</ele><time>2022-10-22T22:07:51Z</time></trkpt><trkpt lat="37.14425499468274" lon="139.1192535893699"><ele>1209.481553399004</ele><time>2022-10-22T22:08:17Z</time></trkpt><trkpt lat="37.14409132803211" lon="139.11913907894632"><ele>1212.0886060260236</ele><time>2022-10-22T22:08:39Z</time></trkpt><trkpt lat="37.14396540013651" lon="139.11897009631494"><ele>1212.6635693600401</ele><time>2022-10-22T22:08:57Z</time></trkpt><trkpt lat="37.143836700906185" lon="139.1188122585538"><ele>1213.1911841165274</ele><time>2022-10-22T22:09:15Z</time></trkpt><trkpt lat="37.14367438000342" lon="139.11869226407757"><ele>1205.3816641913727</ele><time>2022-10-22T22:09:45Z</time></trkpt><trkpt lat="37.14349160335307" lon="139.1186832605881"><ele>1197.137027228251</ele><time>2022-10-22T22:10:10Z</time></trkpt><trkpt lat="37.14331276598544" lon="139.11871292958935"><ele>1196.9831216065213</ele><time>2022-10-22T22:10:25Z</time></trkpt><trkpt lat="37.143132546254385" lon="139.11868619108117"><ele>1200.0445930566639</ele><time>2022-10-22T22:10:49Z</time></trkpt><trkpt lat="37.14295222847939" lon="139.1186821345077"><ele>1199.0083228498697</ele><time>2022-10-22T22:11:09Z</time></trkpt><trkpt lat="37.14277220130898" lon="139.118762249074"><ele>1197.689737258479</ele><time>2022-10-22T22:11:27Z</time></trkpt><trkpt lat="37.14258800035057" lon="139.11872180251447"><ele>1191.982689442113</ele><time>2022-10-22T22:11:48Z</time></trkpt><trkpt lat="37.14240000135622" lon="139.11869835179138"><ele>1190.5423715347424</ele><time>2022-10-22T22:12:07Z</time></trkpt><trkpt lat="37.14221934568894" lon="139.1186443873245"><ele>1190.3601357340813</ele><time>2022-10-22T22:12:26Z</time></trkpt><trkpt lat="37.1420468359669" lon="139.11857369114213"><ele>1191.0100744413212</ele><time>2022-10-22T22:12:43Z</time></trkpt><trkpt lat="37.14187759234683" lon="139.11848838011292"><ele>1197.4263463718817</ele><time>2022-10-22T22:13:10Z</time></trkpt><trkpt lat="37.14170014426137" lon="139.11843074111047"><ele>1201.1156613426283</ele><time>2022-10-22T22:13:40Z</time></trkpt><trkpt lat="37.141511762966395" lon="139.11841626704128"><ele>1206.6190278315917</ele><time>2022-10-22T22:14:10Z</time></trkpt><trkpt lat="37.14133924918252" lon="139.11832820123936"><ele>1215.1528446516022</ele><time>2022-10-22T22:14:51Z</time></trkpt><trkpt lat="37.14115328901877" lon="139.1183598800189"><ele>1224.1462489925325</ele><time>2022-10-22T22:15:57Z</time></trkpt><trkpt lat="37.140985235775005" lon="139.1182697250896"><ele>1227.1224762285128</ele><time>2022-10-22T22:17:08Z</time></trkpt><trkpt lat="37.14082602224092" lon="139.11815045231742"><ele>1220.2296989504248</ele><time>2022-10-22T22:17:35Z</time></trkpt><trkpt lat="37.14066618892813" lon="139.11804173953763"><ele>1220.2969675809145</ele><time>2022-10-22T22:17:50Z</time></trkpt><trkpt lat="37.14050561170559" lon="139.11793625730868"><ele>1223.7600621227175</ele><time>2022-10-22T22:18:08Z</time></trkpt><trkpt lat="37.140335370726376" lon="139.11785590188256"><ele>1223.8261376628652</ele><time>2022-10-22T22:18:31Z</time></trkpt><trkpt lat="37.14016734474761" lon="139.11776700852533"><ele>1223.8518109880388</ele><time>2022-10-22T22:18:52Z</time></trkpt><trkpt lat="37.13998491471978" lon="139.11775053738674"><ele>1225.7251716181636</ele><time>2022-10-22T22:19:20Z</time></trkpt><trkpt lat="37.139806559156426" lon="139.11771805618946"><ele>1230.7693733554333</ele><time>2022-10-22T22:19:56Z</time></trkpt><trkpt lat="37.139623019764194" lon="139.11774385331225"><ele>1231.3613173859194</ele><time>2022-10-22T22:20:18Z</time></trkpt><trkpt lat="37.13945459976049" lon="139.11784303771708"><ele>1232.9502488728613</ele><time>2022-10-22T22:20:57Z</time></trkpt><trkpt lat="37.13927338029189" lon="139.11785521714256"><ele>1233.3332544062287</ele><time>2022-10-22T22:21:23Z</time></trkpt><trkpt lat="37.139126212747875" lon="139.11772445026196"><ele>1233.2200772948563</ele><time>2022-10-22T22:21:51Z</time></trkpt><trkpt lat="37.13895828286764" lon="139.11763674913541"><ele>1231.1442419970408</ele><time>2022-10-22T22:22:17Z</time></trkpt><trkpt lat="37.13884939953769" lon="139.11745192691595"><ele>1220.582113285549</ele><time>2022-10-22T22:22:41Z</time></trkpt><trkpt lat="37.13870668055285" lon="139.11730446127262"><ele>1214.3823083555326</ele><time>2022-10-22T22:23:10Z</time></trkpt><trkpt lat="37.13852941518737" lon="139.11722639095697"><ele>1214.3908094074577</ele><time>2022-10-22T22:23:32Z</time></trkpt><trkpt lat="37.1383783862004" lon="139.11708698226423"><ele>1216.773353382945</ele><time>2022-10-22T22:23:50Z</time></trkpt><trkpt lat="37.1382549819975" lon="139.11691324970195"><ele>1215.9522591698915</ele><time>2022-10-22T22:24:08Z</time></trkpt><trkpt lat="37.138089490693645" lon="139.1168177634481"><ele>1214.7824352616444</ele><time>2022-10-22T22:24:33Z</time></trkpt><trkpt lat="37.13798431642665" lon="139.1166281416117"><ele>1211.9904724694788</ele><time>2022-10-22T22:24:56Z</time></trkpt><trkpt lat="37.13795362409753" lon="139.1163991770735"><ele>1212.570556562394</ele><time>2022-10-22T22:25:27Z</time></trkpt><trkpt lat="37.137992943529426" lon="139.11617495225693"><ele>1215.8134630378336</ele><time>2022-10-22T22:25:55Z</time></trkpt><trkpt lat="37.13790672678863" lon="139.11596208381874"><ele>1215.9731955081224</ele><time>2022-10-22T22:26:23Z</time></trkpt><trkpt lat="37.137759570553804" lon="139.11583175499013"><ele>1215.4573094220832</ele><time>2022-10-22T22:26:45Z</time></trkpt><trkpt lat="37.13766630527172" lon="139.11563092167984"><ele>1213.1088450215757</ele><time>2022-10-22T22:27:09Z</time></trkpt><trkpt lat="37.13752423858951" lon="139.11548415985726"><ele>1209.6230367766693</ele><time>2022-10-22T22:27:38Z</time></trkpt><trkpt lat="37.13736969154747" lon="139.11535111595987"><ele>1205.0368085401133</ele><time>2022-10-22T22:28:02Z</time></trkpt><trkpt lat="37.137305222167676" lon="139.11513931455613"><ele>1208.0256183845922</ele><time>2022-10-22T22:28:23Z</time></trkpt><trkpt lat="37.13717981656662" lon="139.11496718347885"><ele>1208.783983872272</ele><time>2022-10-22T22:28:54Z</time></trkpt><trkpt lat="37.13711937688191" lon="139.11474918117395"><ele>1217.7369013074785</ele><time>2022-10-22T22:29:34Z</time></trkpt><trkpt lat="37.13701429546246" lon="139.11456220044897"><ele>1225.1594115234911</ele><time>2022-10-22T22:30:10Z</time></trkpt><trkpt lat="37.13688034834754" lon="139.11440779477988"><ele>1237.4905810747296</ele><time>2022-10-22T22:31:23Z</time></trkpt><trkpt lat="37.136849195358536" lon="139.1141807977703"><ele>1247.5214990656823</ele><time>2022-10-22T22:32:30Z</time></trkpt><trkpt lat="37.13676937986367" lon="139.11397454714717"><ele>1254.3501230785623</ele><time>2022-10-22T22:33:06Z</time></trkpt><trkpt lat="37.13668956737771" lon="139.11375749898872"><ele>1256.4053021920845</ele><time>2022-10-22T22:33:32Z</time></trkpt><trkpt lat="37.13652435641813" lon="139.11364543093606"><ele>1255.6474236678332</ele><time>2022-10-22T22:33:54Z</time></trkpt><trkpt lat="37.136416912890915" lon="139.11345306575873"><ele>1256.7090746238828</ele><time>2022-10-22T22:34:15Z</time></trkpt><trkpt lat="37.1362981729175" lon="139.1132749095983"><ele>1256.92692112457</ele><time>2022-10-22T22:34:34Z</time></trkpt><trkpt lat="37.13612187567982" lon="139.11322845842452"><ele>1266.8437027903274</ele><time>2022-10-22T22:35:06Z</time></trkpt><trkpt lat="37.13597491528232" lon="139.11308703914457"><ele>1273.178772225976</ele><time>2022-10-22T22:35:51Z</time></trkpt><trkpt lat="37.13581044385427" lon="139.11298940339606"><ele>1277.5476611508057</ele><time>2022-10-22T22:36:17Z</time></trkpt><trkpt lat="37.1356455820768" lon="139.11289250792944"><ele>1277.87823197525</ele><time>2022-10-22T22:36:40Z</time></trkpt><trkpt lat="37.13546103170777" lon="139.11286971601433"><ele>1282.255116250366</ele><time>2022-10-22T22:37:09Z</time></trkpt><trkpt lat="37.13528057224692" lon="139.1128378157416"><ele>1283.1534267999232</ele><time>2022-10-22T22:37:38Z</time></trkpt><trkpt lat="37.13515558244738" lon="139.11266988299448"><ele>1283.014043492265</ele><time>2022-10-22T22:38:00Z</time></trkpt><trkpt lat="37.13502232685628" lon="139.112515884643"><ele>1280.6618460044265</ele><time>2022-10-22T22:38:23Z</time></trkpt><trkpt lat="37.13494863206755" lon="139.11230688166316"><ele>1279.3531940402463</ele><time>2022-10-22T22:38:45Z</time></trkpt><trkpt lat="37.13491074000162" lon="139.11208571097737"><ele>1277.8033812604845</ele><time>2022-10-22T22:39:13Z</time></trkpt><trkpt lat="37.13484668358252" lon="139.11186404617672"><ele>1269.727439764887</ele><time>2022-10-22T22:39:39Z</time></trkpt><trkpt lat="37.13478646753396" lon="139.11163545741843"><ele>1273.8753501717001</ele><time>2022-10-22T22:40:49Z</time></trkpt><trkpt lat="37.13472287935182" lon="139.111421810651"><ele>1264.7506780317053</ele><time>2022-10-22T22:41:49Z</time></trkpt><trkpt lat="37.134723659095926" lon="139.11118549511164"><ele>1266.3674381794408</ele><time>2022-10-22T22:42:12Z</time></trkpt><trkpt lat="37.134774055153635" lon="139.11096791028078"><ele>1265.6738849096</ele><time>2022-10-22T22:42:31Z</time></trkpt><trkpt lat="37.13477828832245" lon="139.11074072814188"><ele>1264.0214482173324</ele><time>2022-10-22T22:42:48Z</time></trkpt><trkpt lat="37.134829180350415" lon="139.1105116588653"><ele>1260.0576865160838</ele><time>2022-10-22T22:43:27Z</time></trkpt><trkpt lat="37.13492862515792" lon="139.1103192800244"><ele>1255.383936053142</ele><time>2022-10-22T22:43:48Z</time></trkpt><trkpt lat="37.13504404844852" lon="139.11014621703296"><ele>1251.5234187599272</ele><time>2022-10-22T22:44:09Z</time></trkpt><trkpt lat="37.13511709840093" lon="139.1099235418117"><ele>1248.7412990406156</ele><time>2022-10-22T22:44:29Z</time></trkpt><trkpt lat="37.13515307041935" lon="139.1096855188659"><ele>1246.6309244390577</ele><time>2022-10-22T22:44:46Z</time></trkpt><trkpt lat="37.13513532959729" lon="139.1094454479306"><ele>1245.3588055847213</ele><time>2022-10-22T22:45:03Z</time></trkpt><trkpt lat="37.13509585402293" lon="139.10922199702662"><ele>1244.9432840915397</ele><time>2022-10-22T22:45:22Z</time></trkpt><trkpt lat="37.13509550937361" lon="139.10898705734792"><ele>1242.4978581843898</ele><time>2022-10-22T22:45:39Z</time></trkpt><trkpt lat="37.13515079580804" lon="139.10876656840762"><ele>1239.8044598978013</ele><time>2022-10-22T22:45:59Z</time></trkpt><trkpt lat="37.13520204705113" lon="139.1085388074805"><ele>1239.1062466232106</ele><time>2022-10-22T22:46:20Z</time></trkpt><trkpt lat="37.13528378190337" lon="139.10833414195102"><ele>1236.9018233614042</ele><time>2022-10-22T22:46:42Z</time></trkpt><trkpt lat="37.135255406037395" lon="139.10809587187794"><ele>1234.5914836544544</ele><time>2022-10-22T22:47:01Z</time></trkpt><trkpt lat="37.1353146459348" lon="139.1078673305249"><ele>1234.871937353164</ele><time>2022-10-22T22:47:17Z</time></trkpt><trkpt lat="37.135355237995824" lon="139.10763515910347"><ele>1235.169807927683</ele><time>2022-10-22T22:47:35Z</time></trkpt><trkpt lat="37.13551361333647" lon="139.1075075882218"><ele>1234.1234190324321</ele><time>2022-10-22T22:47:50Z</time></trkpt><trkpt lat="37.135680956033745" lon="139.10742334763555"><ele>1234.290367553942</ele><time>2022-10-22T22:48:07Z</time></trkpt><trkpt lat="37.135790285186005" lon="139.10724101338616"><ele>1236.703736839816</ele><time>2022-10-22T22:48:30Z</time></trkpt><trkpt lat="37.13594745747167" lon="139.1071289323455"><ele>1239.2028063107282</ele><time>2022-10-22T22:48:50Z</time></trkpt><trkpt lat="37.135982605948556" lon="139.10690437114775"><ele>1243.04310281761</ele><time>2022-10-22T22:49:11Z</time></trkpt><trkpt lat="37.136032490388025" lon="139.10668612620913"><ele>1242.5725714601576</ele><time>2022-10-22T22:49:29Z</time></trkpt><trkpt lat="37.135952949136275" lon="139.1064757632199"><ele>1242.6553090028465</ele><time>2022-10-22T22:49:47Z</time></trkpt><trkpt lat="37.135796188305896" lon="139.1063581702913"><ele>1240.1772471750155</ele><time>2022-10-22T22:50:06Z</time></trkpt><trkpt lat="37.135684103377194" lon="139.10618005256703"><ele>1240.4868241073564</ele><time>2022-10-22T22:50:22Z</time></trkpt><trkpt lat="37.135567036952466" lon="139.10600310247096"><ele>1235.8981125755236</ele><time>2022-10-22T22:50:39Z</time></trkpt><trkpt lat="37.135430073546004" lon="139.10583578330582"><ele>1230.4742401754484</ele><time>2022-10-22T22:51:00Z</time></trkpt><trkpt lat="37.1352368957073" lon="139.10581341936322"><ele>1230.0285481745377</ele><time>2022-10-22T22:51:18Z</time></trkpt><trkpt lat="37.13508969980517" lon="139.10567942276248"><ele>1231.8578929975629</ele><time>2022-10-22T22:51:36Z</time></trkpt><trkpt lat="37.13496975367048" lon="139.10550010237301"><ele>1230.5672696428373</ele><time>2022-10-22T22:51:52Z</time></trkpt><trkpt lat="37.134893910590634" lon="139.1052877849303"><ele>1233.3565048072487</ele><time>2022-10-22T22:52:13Z</time></trkpt><trkpt lat="37.13484646976986" lon="139.10506148315605"><ele>1238.4260528143495</ele><time>2022-10-22T22:52:36Z</time></trkpt><trkpt lat="37.134770809695944" lon="139.1048537068916"><ele>1244.0811271863058</ele><time>2022-10-22T22:53:04Z</time></trkpt><trkpt lat="37.13464888127245" lon="139.10466600964918"><ele>1246.75597409904</ele><time>2022-10-22T22:53:23Z</time></trkpt><trkpt lat="37.13456371113729" lon="139.1044670559698"><ele>1245.1488104891032</ele><time>2022-10-22T22:53:39Z</time></trkpt><trkpt lat="37.13441207347951" lon="139.10432370544737"><ele>1244.72599002067</ele><time>2022-10-22T22:53:56Z</time></trkpt><trkpt lat="37.13437650753162" lon="139.1041002365638"><ele>1247.3068715659901</ele><time>2022-10-22T22:54:20Z</time></trkpt><trkpt lat="37.1342820678792" lon="139.10390173632254"><ele>1250.3048071246594</ele><time>2022-10-22T22:54:48Z</time></trkpt><trkpt lat="37.134214389814595" lon="139.10368867006565"><ele>1256.3921851823106</ele><time>2022-10-22T22:55:21Z</time></trkpt><trkpt lat="37.13413737972639" lon="139.10347754265604"><ele>1261.161943868734</ele><time>2022-10-22T22:55:53Z</time></trkpt><trkpt lat="37.13406603303111" lon="139.1032541724919"><ele>1266.6284410208464</ele><time>2022-10-22T22:56:31Z</time></trkpt><trkpt lat="37.13396717937322" lon="139.1030658375966"><ele>1276.1198662221432</ele><time>2022-10-22T22:57:08Z</time></trkpt><trkpt lat="37.13391093116667" lon="139.1028511935787"><ele>1280.9303903123364</ele><time>2022-10-22T22:57:37Z</time></trkpt><trkpt lat="37.133816386727155" lon="139.10265332858742"><ele>1282.5636647865176</ele><time>2022-10-22T22:57:58Z</time></trkpt><trkpt lat="37.13375421101482" lon="139.10242956658246"><ele>1281.1720693251118</ele><time>2022-10-22T22:58:15Z</time></trkpt><trkpt lat="37.13376078460363" lon="139.10220407038852"><ele>1281.96518966835</ele><time>2022-10-22T22:58:31Z</time></trkpt><trkpt lat="37.133851043418446" lon="139.1019975511989"><ele>1285.9051445554942</ele><time>2022-10-22T22:58:51Z</time></trkpt><trkpt lat="37.13389844676334" lon="139.10177546549363"><ele>1285.5536268856376</ele><time>2022-10-22T22:59:11Z</time></trkpt><trkpt lat="37.13384426738075" lon="139.10155607095984"><ele>1284.6550823422149</ele><time>2022-10-22T22:59:29Z</time></trkpt><trkpt lat="37.13380215638896" lon="139.10133332605747"><ele>1284.349242772907</ele><time>2022-10-22T22:59:51Z</time></trkpt><trkpt lat="37.133778569363386" lon="139.10110932320163"><ele>1288.3409206587821</ele><time>2022-10-22T23:00:10Z</time></trkpt><trkpt lat="37.13377949434759" lon="139.10087382204802"><ele>1290.3792521450669</ele><time>2022-10-22T23:00:31Z</time></trkpt><trkpt lat="37.133884998772665" lon="139.10068930977664"><ele>1293.5354966931045</ele><time>2022-10-22T23:00:53Z</time></trkpt><trkpt lat="37.13395052413859" lon="139.1004735409071"><ele>1300.5496405921876</ele><time>2022-10-22T23:01:28Z</time></trkpt><trkpt lat="37.13409746047342" lon="139.10033735253774"><ele>1301.7325696181506</ele><time>2022-10-22T23:01:55Z</time></trkpt><trkpt lat="37.13421160750707" lon="139.10015491276113"><ele>1301.1710581509396</ele><time>2022-10-22T23:02:16Z</time></trkpt><trkpt lat="37.134288422686964" lon="139.09993913230952"><ele>1297.3555273050442</ele><time>2022-10-22T23:02:37Z</time></trkpt><trkpt lat="37.134396805211466" lon="139.09975729572997"><ele>1300.611128446646</ele><time>2022-10-22T23:02:58Z</time></trkpt><trkpt lat="37.134477559908355" lon="139.09955045702264"><ele>1308.5898852543905</ele><time>2022-10-22T23:03:28Z</time></trkpt><trkpt lat="37.13457180806247" lon="139.09935647676653"><ele>1310.1715394593775</ele><time>2022-10-22T23:03:46Z</time></trkpt><trkpt lat="37.134590518686025" lon="139.09912677621327"><ele>1311.1077905567363</ele><time>2022-10-22T23:04:06Z</time></trkpt><trkpt lat="37.134653678782975" lon="139.0989129511812"><ele>1320.2363935643807</ele><time>2022-10-22T23:04:38Z</time></trkpt><trkpt lat="37.134636450438855" lon="139.09868215262156"><ele>1327.322861368768</ele><time>2022-10-22T23:05:14Z</time></trkpt><trkpt lat="37.13464244301302" lon="139.09845119726782"><ele>1333.0468660248443</ele><time>2022-10-22T23:05:54Z</time></trkpt><trkpt lat="37.134624811579016" lon="139.09822525518612"><ele>1343.2340667545795</ele><time>2022-10-22T23:06:35Z</time></trkpt><trkpt lat="37.13456079330621" lon="139.0980141658229"><ele>1350.1976302238181</ele><time>2022-10-22T23:07:14Z</time></trkpt><trkpt lat="37.13464432900597" lon="139.09780315630337"><ele>1359.7695880681276</ele><time>2022-10-22T23:07:58Z</time></trkpt><trkpt lat="37.134697286326535" lon="139.09758681817053"><ele>1366.1780505776405</ele><time>2022-10-22T23:08:37Z</time></trkpt><trkpt lat="37.13461524101028" lon="139.09737962096048"><ele>1371.9117629034445</ele><time>2022-10-22T23:14:29Z</time></trkpt><trkpt lat="37.13452470205163" lon="139.09717702655917"><ele>1373.111330844462</ele><time>2022-10-22T23:14:47Z</time></trkpt><trkpt lat="37.134375916992795" lon="139.0970280015382"><ele>1374.2321656290442</ele><time>2022-10-22T23:15:08Z</time></trkpt><trkpt lat="37.13423119571621" lon="139.09688264220162"><ele>1374.8897488806397</ele><time>2022-10-22T23:15:24Z</time></trkpt><trkpt lat="37.134053536308336" lon="139.09681329576733"><ele>1373.7227896004915</ele><time>2022-10-22T23:15:42Z</time></trkpt><trkpt lat="37.133874722509184" lon="139.0967803593834"><ele>1368.580622682348</ele><time>2022-10-22T23:16:04Z</time></trkpt><trkpt lat="37.133694119344014" lon="139.0967262772835"><ele>1362.9344564210624</ele><time>2022-10-22T23:16:33Z</time></trkpt><trkpt lat="37.133516475546934" lon="139.0968176176973"><ele>1357.5337917441502</ele><time>2022-10-22T23:16:51Z</time></trkpt><trkpt lat="37.133346818003" lon="139.09691277627465"><ele>1356.846091718413</ele><time>2022-10-22T23:17:06Z</time></trkpt><trkpt lat="37.13317547714231" lon="139.09700603665502"><ele>1360.5377508997917</ele><time>2022-10-22T23:17:22Z</time></trkpt><trkpt lat="37.132993151379374" lon="139.09699716610334"><ele>1360.0878833588213</ele><time>2022-10-22T23:17:37Z</time></trkpt><trkpt lat="37.13281015002249" lon="139.09696724718603"><ele>1361.9594276966527</ele><time>2022-10-22T23:17:58Z</time></trkpt><trkpt lat="37.132634027946075" lon="139.0968798119455"><ele>1363.4163300897926</ele><time>2022-10-22T23:18:16Z</time></trkpt><trkpt lat="37.132524305210815" lon="139.09668441055842"><ele>1365.6263044606894</ele><time>2022-10-22T23:18:35Z</time></trkpt><trkpt lat="37.132387070359734" lon="139.09652564976759"><ele>1371.642141379416</ele><time>2022-10-22T23:18:55Z</time></trkpt><trkpt lat="37.13224465796289" lon="139.09638369278045"><ele>1371.7241996815428</ele><time>2022-10-22T23:19:14Z</time></trkpt><trkpt lat="37.1321120520978" lon="139.09622564648768"><ele>1370.0075043588877</ele><time>2022-10-22T23:19:32Z</time></trkpt><trkpt lat="37.13199432028757" lon="139.0960509758109"><ele>1373.1799723189324</ele><time>2022-10-22T23:19:56Z</time></trkpt><trkpt lat="37.131831864544964" lon="139.09593613284673"><ele>1378.0495212646201</ele><time>2022-10-22T23:20:25Z</time></trkpt><trkpt lat="37.13164401134577" lon="139.0959663017539"><ele>1379.3776576099917</ele><time>2022-10-22T23:20:46Z</time></trkpt><trkpt lat="37.13146441847468" lon="139.09599354492502"><ele>1384.5169151714072</ele><time>2022-10-22T23:21:11Z</time></trkpt><trkpt lat="37.13127612817585" lon="139.096007730871"><ele>1386.7228363240138</ele><time>2022-10-22T23:21:30Z</time></trkpt><trkpt lat="37.13108776571836" lon="139.0959763032124"><ele>1389.511222555302</ele><time>2022-10-22T23:21:51Z</time></trkpt><trkpt lat="37.130971520894796" lon="139.09579442415685"><ele>1393.6471323752776</ele><time>2022-10-22T23:22:11Z</time></trkpt><trkpt lat="37.13078483156632" lon="139.09578954463285"><ele>1396.0933429189026</ele><time>2022-10-22T23:22:29Z</time></trkpt><trkpt lat="37.13063002627648" lon="139.09591500334253"><ele>1395.1578189581633</ele><time>2022-10-22T23:22:51Z</time></trkpt><trkpt lat="37.13044499316833" lon="139.0958914447063"><ele>1394.2019054191187</ele><time>2022-10-22T23:23:07Z</time></trkpt><trkpt lat="37.13029495323169" lon="139.09575335569932"><ele>1397.0493558291346</ele><time>2022-10-22T23:23:26Z</time></trkpt><trkpt lat="37.130149949094225" lon="139.09561274885615"><ele>1400.6424721963704</ele><time>2022-10-22T23:23:46Z</time></trkpt><trkpt lat="37.130014004953544" lon="139.09546287726727"><ele>1403.0484384279698</ele><time>2022-10-22T23:24:08Z</time></trkpt><trkpt lat="37.12987040612901" lon="139.0953231802521"><ele>1410.587359781377</ele><time>2022-10-22T23:24:42Z</time></trkpt><trkpt lat="37.129760805951754" lon="139.09514421890404"><ele>1416.2869052989408</ele><time>2022-10-22T23:25:08Z</time></trkpt><trkpt lat="37.12965052652785" lon="139.09496478729832"><ele>1420.8422270603478</ele><time>2022-10-22T23:25:30Z</time></trkpt><trkpt lat="37.12954057211999" lon="139.09478538733055"><ele>1421.1110486146063</ele><time>2022-10-22T23:25:47Z</time></trkpt><trkpt lat="37.12943354438787" lon="139.0945873035202"><ele>1424.7585168005899</ele><time>2022-10-22T23:26:09Z</time></trkpt><trkpt lat="37.12928770362605" lon="139.094449700866"><ele>1427.8604310462251</ele><time>2022-10-22T23:26:31Z</time></trkpt><trkpt lat="37.12914010768623" lon="139.09431875081646"><ele>1433.6483364915475</ele><time>2022-10-22T23:27:00Z</time></trkpt><trkpt lat="37.12897781946059" lon="139.09421177194312"><ele>1436.6812841501087</ele><time>2022-10-22T23:27:21Z</time></trkpt><trkpt lat="37.12883548250342" lon="139.09406792995546"><ele>1439.1156118372455</ele><time>2022-10-22T23:27:40Z</time></trkpt><trkpt lat="37.12869741056323" lon="139.0939102533333"><ele>1440.757378436625</ele><time>2022-10-22T23:27:57Z</time></trkpt><trkpt lat="37.128544147592585" lon="139.0937824657339"><ele>1444.896786764264</ele><time>2022-10-22T23:28:21Z</time></trkpt><trkpt lat="37.12843964257379" lon="139.093591280305"><ele>1451.5453102588654</ele><time>2022-10-22T23:28:49Z</time></trkpt><trkpt lat="37.12830456722461" lon="139.0934388589437"><ele>1455.7574837896973</ele><time>2022-10-22T23:29:16Z</time></trkpt><trkpt lat="37.128188620068535" lon="139.09325227351636"><ele>1459.4568660436198</ele><time>2022-10-22T23:29:37Z</time></trkpt><trkpt lat="37.128071511320066" lon="139.09307351711735"><ele>1461.3906948752701</ele><time>2022-10-22T23:29:56Z</time></trkpt><trkpt lat="37.127959915145205" lon="139.09289601797693"><ele>1464.9922875408083</ele><time>2022-10-22T23:30:19Z</time></trkpt><trkpt lat="37.12792639330398" lon="139.09267411925015"><ele>1465.9881455805153</ele><time>2022-10-22T23:30:37Z</time></trkpt><trkpt lat="37.12790627758302" lon="139.09243994617393"><ele>1466.1074253171682</ele><time>2022-10-22T23:30:55Z</time></trkpt><trkpt lat="37.12793075944398" lon="139.0922145159389"><ele>1465.2183712925762</ele><time>2022-10-22T23:31:11Z</time></trkpt><trkpt lat="37.12782088521031" lon="139.092034118001"><ele>1464.7320129293948</ele><time>2022-10-22T23:31:26Z</time></trkpt><trkpt lat="37.127682172941284" lon="139.0918866908568"><ele>1466.1699783923104</ele><time>2022-10-22T23:31:42Z</time></trkpt><trkpt lat="37.1275266991312" lon="139.09177079543295"><ele>1468.2981030270457</ele><time>2022-10-22T23:32:02Z</time></trkpt><trkpt lat="37.127389572595455" lon="139.09162019761558"><ele>1472.199041377753</ele><time>2022-10-22T23:32:24Z</time></trkpt><trkpt lat="37.127234163680846" lon="139.09149183507614"><ele>1474.4987263167277</ele><time>2022-10-22T23:32:46Z</time></trkpt><trkpt lat="37.12708177166873" lon="139.0913670980896"><ele>1481.1898005316034</ele><time>2022-10-22T23:33:19Z</time></trkpt><trkpt lat="37.12695314726928" lon="139.09120176104568"><ele>1489.4832073850557</ele><time>2022-10-22T23:33:55Z</time></trkpt><trkpt lat="37.12681993238593" lon="139.0910385564731"><ele>1496.244673885405</ele><time>2022-10-22T23:34:29Z</time></trkpt><trkpt lat="37.126717045873015" lon="139.09085226003208"><ele>1503.6254152115434</ele><time>2022-10-22T23:35:09Z</time></trkpt><trkpt lat="37.12663606588515" lon="139.09065009803635"><ele>1509.7181781344116</ele><time>2022-10-22T23:35:43Z</time></trkpt><trkpt lat="37.126481162493114" lon="139.0905156281599"><ele>1517.1101850261912</ele><time>2022-10-22T23:36:17Z</time></trkpt><trkpt lat="37.126366893823665" lon="139.09033400138426"><ele>1524.3216841323301</ele><time>2022-10-22T23:36:56Z</time></trkpt><trkpt lat="37.126249563143624" lon="139.09016051156897"><ele>1532.3599297050387</ele><time>2022-10-22T23:37:29Z</time></trkpt><trkpt lat="37.12612061509865" lon="139.08999508297543"><ele>1532.7338633714244</ele><time>2022-10-22T23:37:48Z</time></trkpt><trkpt lat="37.125997682136706" lon="139.0898278757033"><ele>1536.3352238200605</ele><time>2022-10-22T23:38:12Z</time></trkpt><trkpt lat="37.125892660144736" lon="139.0896423694845"><ele>1537.1607544925064</ele><time>2022-10-22T23:38:32Z</time></trkpt><trkpt lat="37.12585098024453" lon="139.08942344878764"><ele>1541.5043879030272</ele><time>2022-10-22T23:38:53Z</time></trkpt><trkpt lat="37.125826368737926" lon="139.08919547207267"><ele>1544.5724182790145</ele><time>2022-10-22T23:39:14Z</time></trkpt><trkpt lat="37.125905453589944" lon="139.08899055714124"><ele>1542.0036819726229</ele><time>2022-10-22T23:42:10Z</time></trkpt><trkpt lat="37.125948558601024" lon="139.08876730923762"><ele>1540.1560379201546</ele><time>2022-10-22T23:42:29Z</time></trkpt><trkpt lat="37.12597509013995" lon="139.08853907742196"><ele>1541.6538975331932</ele><time>2022-10-22T23:42:51Z</time></trkpt><trkpt lat="37.12597345359928" lon="139.0883117912087"><ele>1545.2051862897351</ele><time>2022-10-22T23:43:12Z</time></trkpt><trkpt lat="37.12594265474982" lon="139.08808937098442"><ele>1549.1174857681617</ele><time>2022-10-22T23:43:36Z</time></trkpt><trkpt lat="37.12577493413496" lon="139.0880017248118"><ele>1552.6747938971967</ele><time>2022-10-22T23:44:05Z</time></trkpt><trkpt lat="37.12563310736953" lon="139.08785649185555"><ele>1559.4069023774937</ele><time>2022-10-22T23:44:37Z</time></trkpt><trkpt lat="37.12553534534256" lon="139.08766351835234"><ele>1571.0748974345624</ele><time>2022-10-22T23:45:28Z</time></trkpt><trkpt lat="37.12542940331872" lon="139.08747934149773"><ele>1577.4948187042028</ele><time>2022-10-22T23:46:03Z</time></trkpt><trkpt lat="37.12531799562131" lon="139.08729906825087"><ele>1588.3357304381207</ele><time>2022-10-22T23:46:48Z</time></trkpt><trkpt lat="37.12522411113539" lon="139.08709767169395"><ele>1595.4740537209436</ele><time>2022-10-22T23:47:28Z</time></trkpt><trkpt lat="37.125082773030776" lon="139.08695684851338"><ele>1602.904385458678</ele><time>2022-10-22T23:48:01Z</time></trkpt><trkpt lat="37.124943296497115" lon="139.08681324070469"><ele>1606.92812963482</ele><time>2022-10-22T23:48:31Z</time></trkpt><trkpt lat="37.124819562599896" lon="139.08664947683388"><ele>1615.4163960553706</ele><time>2022-10-22T23:49:08Z</time></trkpt><trkpt lat="37.124729366852385" lon="139.08644935662846"><ele>1624.6580416215584</ele><time>2022-10-22T23:50:01Z</time></trkpt><trkpt lat="37.12464999697844" lon="139.08624022973828"><ele>1633.9680272573605</ele><time>2022-10-22T23:50:49Z</time></trkpt><trkpt lat="37.124549114960665" lon="139.08604974642628"><ele>1639.1418955754489</ele><time>2022-10-22T23:51:25Z</time></trkpt><trkpt lat="37.12436705231523" lon="139.0860296995915"><ele>1645.4234551079571</ele><time>2022-10-22T23:51:58Z</time></trkpt><trkpt lat="37.1241957082292" lon="139.0859345483748"><ele>1649.1587931606919</ele><time>2022-10-22T23:52:23Z</time></trkpt><trkpt lat="37.12419400691889" lon="139.08570340973287"><ele>1654.8360855951905</ele><time>2022-10-22T23:52:51Z</time></trkpt><trkpt lat="37.124051407269256" lon="139.0855605287007"><ele>1658.968603739515</ele><time>2022-10-22T23:53:30Z</time></trkpt><trkpt lat="37.12391145609084" lon="139.08541373715138"><ele>1670.2751488555223</ele><time>2022-10-22T23:54:43Z</time></trkpt><trkpt lat="37.12381392870944" lon="139.0852237837284"><ele>1680.0652442770079</ele><time>2022-10-22T23:55:42Z</time></trkpt><trkpt lat="37.123728035464396" lon="139.08501903184364"><ele>1687.7809532489628</ele><time>2022-10-22T23:56:34Z</time></trkpt><trkpt lat="37.12375292533623" lon="139.08479525941055"><ele>1699.812139859423</ele><time>2022-10-22T23:57:46Z</time></trkpt><trkpt lat="37.12369756319731" lon="139.08457334061978"><ele>1709.953076631762</ele><time>2022-10-22T23:58:46Z</time></trkpt><trkpt lat="37.12367294964696" lon="139.0843466686459"><ele>1721.430703220889</ele><time>2022-10-22T23:59:59Z</time></trkpt><trkpt lat="37.123567808905456" lon="139.08416036129205"><ele>1730.6153203789145</ele><time>2022-10-23T00:00:57Z</time></trkpt><trkpt lat="37.12348459017728" lon="139.08395139347047"><ele>1739.7349120862782</ele><time>2022-10-23T00:01:48Z</time></trkpt><trkpt lat="37.12340019208786" lon="139.08374949163144"><ele>1750.4892033962533</ele><time>2022-10-23T00:02:37Z</time></trkpt><trkpt lat="37.12323556269325" lon="139.08363928185665"><ele>1756.568617010489</ele><time>2022-10-23T00:03:32Z</time></trkpt><trkpt lat="37.12322203735179" lon="139.0834131939404"><ele>1761.8224855875596</ele><time>2022-10-23T00:03:59Z</time></trkpt><trkpt lat="37.12326083423764" lon="139.08317912450863"><ele>1762.7773541081697</ele><time>2022-10-23T00:04:25Z</time></trkpt><trkpt lat="37.12325630095607" lon="139.0829518019086"><ele>1761.176716517657</ele><time>2022-10-23T00:04:43Z</time></trkpt><trkpt lat="37.12325234328118" lon="139.0827247503286"><ele>1768.886116241105</ele><time>2022-10-23T00:05:27Z</time></trkpt><trkpt lat="37.12322458912361" lon="139.0824970814963"><ele>1773.00241208449</ele><time>2022-10-23T00:06:01Z</time></trkpt><trkpt lat="37.123292876525184" lon="139.08228595524506"><ele>1777.5046449555084</ele><time>2022-10-23T00:06:39Z</time></trkpt><trkpt lat="37.12331003852575" lon="139.08206156094803"><ele>1784.1925416877493</ele><time>2022-10-23T00:07:12Z</time></trkpt><trkpt lat="37.1233051478166" lon="139.08183135308843"><ele>1787.9332346580923</ele><time>2022-10-23T00:07:35Z</time></trkpt><trkpt lat="37.12325731148097" lon="139.0816121302544"><ele>1791.8880235766992</ele><time>2022-10-23T00:08:37Z</time></trkpt><trkpt lat="37.12320766711242" lon="139.0813884428969"><ele>1795.1828891122714</ele><time>2022-10-23T00:09:25Z</time></trkpt><trkpt lat="37.123150998180414" lon="139.0811695901791"><ele>1795.555189749226</ele><time>2022-10-23T00:09:44Z</time></trkpt><trkpt lat="37.12310620697365" lon="139.0809495178503"><ele>1799.2280407277867</ele><time>2022-10-23T00:10:08Z</time></trkpt><trkpt lat="37.1230720932364" lon="139.08072098257506"><ele>1806.1333686532453</ele><time>2022-10-23T00:10:46Z</time></trkpt><trkpt lat="37.12298773499033" lon="139.08052193518608"><ele>1811.9563263999298</ele><time>2022-10-23T00:11:18Z</time></trkpt><trkpt lat="37.123022603677384" lon="139.08029107926922"><ele>1816.6717010652646</ele><time>2022-10-23T00:11:50Z</time></trkpt><trkpt lat="37.12302895916239" lon="139.08006061488317"><ele>1822.231036205776</ele><time>2022-10-23T00:12:18Z</time></trkpt><trkpt lat="37.1230949214619" lon="139.07984385772846"><ele>1827.7677875887603</ele><time>2022-10-23T00:12:49Z</time></trkpt><trkpt lat="37.12309457493254" lon="139.07961612226055"><ele>1837.0063977735117</ele><time>2022-10-23T00:13:56Z</time></trkpt><trkpt lat="37.12309738513051" lon="139.0793877968968"><ele>1846.292491165921</ele><time>2022-10-23T00:15:04Z</time></trkpt><trkpt lat="37.12306905632998" lon="139.07916284807396"><ele>1852.618788011372</ele><time>2022-10-23T00:15:42Z</time></trkpt><trkpt lat="37.12323091444106" lon="139.07905583579367"><ele>1867.9694215189666</ele><time>2022-10-23T00:17:18Z</time></trkpt><trkpt lat="37.123334417603715" lon="139.0788632578907"><ele>1882.0374767575413</ele><time>2022-10-23T00:18:28Z</time></trkpt><trkpt lat="37.123435401636684" lon="139.07867655400656"><ele>1891.892347781919</ele><time>2022-10-23T00:19:23Z</time></trkpt><trkpt lat="37.12351718886972" lon="139.07861809477708"><ele>1896.3350229961798</ele><time>2022-10-23T00:21:27Z</time></trkpt><trkpt lat="37.1233820139241" lon="139.07843567920418"><ele>1889.8776686098427</ele><time>2022-10-23T00:25:57Z</time></trkpt><trkpt lat="37.123266380282" lon="139.07825401087362"><ele>1898.7023115437478</ele><time>2022-10-23T00:26:16Z</time></trkpt><trkpt lat="37.12315471687855" lon="139.07807227874702"><ele>1900.0941090565175</ele><time>2022-10-23T00:26:38Z</time></trkpt><trkpt lat="37.12303341440234" lon="139.07789436580433"><ele>1906.954836784862</ele><time>2022-10-23T00:27:02Z</time></trkpt><trkpt lat="37.12294643602801" lon="139.07769173432908"><ele>1914.532909750007</ele><time>2022-10-23T00:27:34Z</time></trkpt><trkpt lat="37.12284105798762" lon="139.07750724391653"><ele>1918.0711273606867</ele><time>2022-10-23T00:28:08Z</time></trkpt><trkpt lat="37.122754118631136" lon="139.07730158235876"><ele>1933.1232051439583</ele><time>2022-10-23T00:28:56Z</time></trkpt><trkpt lat="37.12266456464515" lon="139.0771061551278"><ele>1944.3512081028894</ele><time>2022-10-23T00:29:48Z</time></trkpt><trkpt lat="37.12251137550663" lon="139.07697377297526"><ele>1951.811734921299</ele><time>2022-10-23T00:30:43Z</time></trkpt><trkpt lat="37.122462554656444" lon="139.0767506473701"><ele>1955.9759806543589</ele><time>2022-10-23T00:31:12Z</time></trkpt><trkpt lat="37.12238984868599" lon="139.07654033179"><ele>1965.7025049487129</ele><time>2022-10-23T00:31:40Z</time></trkpt><trkpt lat="37.122374664523825" lon="139.07631111671637"><ele>1971.1880234545097</ele><time>2022-10-23T00:32:11Z</time></trkpt><trkpt lat="37.1223470473755" lon="139.0760847793422"><ele>1975.940075803548</ele><time>2022-10-23T00:32:46Z</time></trkpt><trkpt lat="37.12234301351516" lon="139.07585856508047"><ele>1984.4256540089846</ele><time>2022-10-23T00:33:20Z</time></trkpt><trkpt lat="37.12229679683185" lon="139.07563988964824"><ele>1993.3728250674903</ele><time>2022-10-23T00:33:58Z</time></trkpt><trkpt lat="37.122395000297104" lon="139.07544444140953"><ele>1992.978750887327</ele><time>2022-10-23T00:34:44Z</time></trkpt><trkpt lat="37.122551655552826" lon="139.0753274338229"><ele>1991.1105439895764</ele><time>2022-10-23T00:35:03Z</time></trkpt><trkpt lat="37.12274272452627" lon="139.07532059762633"><ele>1988.953037906438</ele><time>2022-10-23T00:35:24Z</time></trkpt><trkpt lat="37.122923223609796" lon="139.07526250265187"><ele>1988.853470813483</ele><time>2022-10-23T00:35:42Z</time></trkpt><trkpt lat="37.12310934449935" lon="139.0752700045144"><ele>1987.4423890495673</ele><time>2022-10-23T00:36:02Z</time></trkpt><trkpt lat="37.12328967788134" lon="139.07530658551684"><ele>1989.4822789272293</ele><time>2022-10-23T00:36:21Z</time></trkpt><trkpt lat="37.1234715646152" lon="139.07532895456535"><ele>1994.1936545008793</ele><time>2022-10-23T00:36:42Z</time></trkpt><trkpt lat="37.123646681567905" lon="139.0752483346266"><ele>2001.2075730413198</ele><time>2022-10-23T00:37:14Z</time></trkpt><trkpt lat="37.12367437871785" lon="139.07521085754354"><ele>2008.1652516396716</ele><time>2022-10-23T00:38:50Z</time></trkpt><trkpt lat="37.123503027329775" lon="139.07530457192118"><ele>2006.7317669494078</ele><time>2022-10-23T00:40:45Z</time></trkpt><trkpt lat="37.12331374757036" lon="139.07527706892975"><ele>2004.0794346602634</ele><time>2022-10-23T00:41:00Z</time></trkpt><trkpt lat="37.12313153139274" lon="139.07523615121326"><ele>2001.0103103201836</ele><time>2022-10-23T00:41:15Z</time></trkpt><trkpt lat="37.122948136323586" lon="139.07522123545402"><ele>1997.858636425808</ele><time>2022-10-23T00:41:31Z</time></trkpt><trkpt lat="37.122761655977506" lon="139.07528410199092"><ele>1997.1880754930899</ele><time>2022-10-23T00:41:49Z</time></trkpt><trkpt lat="37.122574444671606" lon="139.07530707251536"><ele>1994.7874091127887</ele><time>2022-10-23T00:42:07Z</time></trkpt><trkpt lat="37.12240872095946" lon="139.0754148445811"><ele>1993.6088466523215</ele><time>2022-10-23T00:42:23Z</time></trkpt><trkpt lat="37.12230554593203" lon="139.07560681075657"><ele>1992.8185931611806</ele><time>2022-10-23T00:42:58Z</time></trkpt><trkpt lat="37.12237447182297" lon="139.07582139065664"><ele>1988.0879106642678</ele><time>2022-10-23T00:43:23Z</time></trkpt><trkpt lat="37.12238833473972" lon="139.07604986457414"><ele>1982.103740112856</ele><time>2022-10-23T00:43:53Z</time></trkpt><trkpt lat="37.1224001464224" lon="139.07627456492762"><ele>1974.5169539218768</ele><time>2022-10-23T00:44:18Z</time></trkpt><trkpt lat="37.12241797571618" lon="139.07649872509472"><ele>1974.9742413274944</ele><time>2022-10-23T00:44:39Z</time></trkpt><trkpt lat="37.12244745887652" lon="139.0767231456024"><ele>1969.9301330260932</ele><time>2022-10-23T00:44:56Z</time></trkpt><trkpt lat="37.12251477440625" lon="139.07694263744787"><ele>1957.5214237226173</ele><time>2022-10-23T00:45:39Z</time></trkpt><trkpt lat="37.12266639816255" lon="139.07706978817234"><ele>1940.589880336076</ele><time>2022-10-23T00:46:32Z</time></trkpt><trkpt lat="37.122747782632814" lon="139.07727151066453"><ele>1930.2851628623903</ele><time>2022-10-23T00:47:48Z</time></trkpt><trkpt lat="37.122818824010814" lon="139.07748184689805"><ele>1931.4056655252352</ele><time>2022-10-23T00:50:00Z</time></trkpt><trkpt lat="37.122923870565536" lon="139.07766558869463"><ele>1917.3616071417928</ele><time>2022-10-23T00:52:41Z</time></trkpt><trkpt lat="37.12299799415266" lon="139.07787533753066"><ele>1911.6946000736207</ele><time>2022-10-23T00:53:04Z</time></trkpt><trkpt lat="37.123104941050045" lon="139.0780634017711"><ele>1905.270960460417</ele><time>2022-10-23T00:53:28Z</time></trkpt><trkpt lat="37.12322285978071" lon="139.07824499313526"><ele>1899.5503160664812</ele><time>2022-10-23T00:53:51Z</time></trkpt><trkpt lat="37.123348220421896" lon="139.07841416725407"><ele>1895.5937649365515</ele><time>2022-10-23T00:54:11Z</time></trkpt><trkpt lat="37.123449683733995" lon="139.07860259079334"><ele>1893.2109033055604</ele><time>2022-10-23T00:54:28Z</time></trkpt><trkpt lat="37.123560304994754" lon="139.07878214130395"><ele>1891.2906889729202</ele><time>2022-10-23T00:54:47Z</time></trkpt><trkpt lat="37.12340160127274" lon="139.0786648948786"><ele>1888.1234493115917</ele><time>2022-10-23T01:13:17Z</time></trkpt><trkpt lat="37.12331840422892" lon="139.07886879859595"><ele>1881.4818379124627</ele><time>2022-10-23T01:14:11Z</time></trkpt><trkpt lat="37.12318843476553" lon="139.07902679357392"><ele>1870.6614129813388</ele><time>2022-10-23T01:15:28Z</time></trkpt><trkpt lat="37.12306027783334" lon="139.0792001844901"><ele>1854.4974470045418</ele><time>2022-10-23T01:17:06Z</time></trkpt><trkpt lat="37.12311540636047" lon="139.07942093040603"><ele>1850.5253627505153</ele><time>2022-10-23T01:17:43Z</time></trkpt><trkpt lat="37.12309009583053" lon="139.07965461260721"><ele>1838.487791129388</ele><time>2022-10-23T01:18:59Z</time></trkpt><trkpt lat="37.123081445175146" lon="139.07988366530643"><ele>1832.0524832326919</ele><time>2022-10-23T01:19:53Z</time></trkpt><trkpt lat="37.12305019823552" lon="139.08010686186395"><ele>1825.2876875856891</ele><time>2022-10-23T01:20:45Z</time></trkpt><trkpt lat="37.12305515669359" lon="139.0803346606252"><ele>1820.3013611240312</ele><time>2022-10-23T01:21:03Z</time></trkpt><trkpt lat="37.12305790885263" lon="139.08056257359385"><ele>1814.0960501916707</ele><time>2022-10-23T01:21:30Z</time></trkpt><trkpt lat="37.12310568549273" lon="139.0807860315209"><ele>1804.688801849261</ele><time>2022-10-23T01:21:58Z</time></trkpt><trkpt lat="37.12313830749345" lon="139.08102420225293"><ele>1800.3029519962147</ele><time>2022-10-23T01:22:28Z</time></trkpt><trkpt lat="37.123221311910505" lon="139.08122844512127"><ele>1799.5213880082592</ele><time>2022-10-23T01:22:47Z</time></trkpt><trkpt lat="37.123282456502395" lon="139.08144426286128"><ele>1799.5029636733234</ele><time>2022-10-23T01:23:07Z</time></trkpt><trkpt lat="37.123318622326394" lon="139.0816791554275"><ele>1798.250452009961</ele><time>2022-10-23T01:24:05Z</time></trkpt><trkpt lat="37.12333215834495" lon="139.08190973790215"><ele>1793.4122899416834</ele><time>2022-10-23T01:24:38Z</time></trkpt><trkpt lat="37.12334778008834" lon="139.08214102905572"><ele>1791.024838225916</ele><time>2022-10-23T01:24:57Z</time></trkpt><trkpt lat="37.12328399165481" lon="139.08236521409663"><ele>1784.2706977827474</ele><time>2022-10-23T01:25:33Z</time></trkpt><trkpt lat="37.12325257988487" lon="139.08258882359328"><ele>1779.8601662833244</ele><time>2022-10-23T01:25:59Z</time></trkpt><trkpt lat="37.123268196193806" lon="139.08281716448857"><ele>1770.2799511309713</ele><time>2022-10-23T01:26:37Z</time></trkpt><trkpt lat="37.123310419326025" lon="139.08303684146907"><ele>1770.1193490149453</ele><time>2022-10-23T01:26:57Z</time></trkpt><trkpt lat="37.123299231482996" lon="139.08326508395703"><ele>1772.5890368437394</ele><time>2022-10-23T01:27:16Z</time></trkpt><trkpt lat="37.12322241101719" lon="139.0834775041044"><ele>1774.0269228965044</ele><time>2022-10-23T01:27:37Z</time></trkpt><trkpt lat="37.12331801850699" lon="139.08367343618255"><ele>1765.344823429361</ele><time>2022-10-23T01:34:03Z</time></trkpt><trkpt lat="37.123459412369996" lon="139.08381552945409"><ele>1740.9151795720682</ele><time>2022-10-23T01:35:00Z</time></trkpt><trkpt lat="37.12353959002986" lon="139.08401722092367"><ele>1728.6282088384032</ele><time>2022-10-23T01:35:34Z</time></trkpt><trkpt lat="37.12365434964959" lon="139.08419222950783"><ele>1723.7617840068415</ele><time>2022-10-23T01:36:17Z</time></trkpt><trkpt lat="37.1236826014369" lon="139.0844172751641"><ele>1708.724183479324</ele><time>2022-10-23T01:37:20Z</time></trkpt><trkpt lat="37.123754142085424" lon="139.08463178866324"><ele>1702.2666318099946</ele><time>2022-10-23T01:37:59Z</time></trkpt><trkpt lat="37.123781450622374" lon="139.08485861643737"><ele>1694.9268342684954</ele><time>2022-10-23T01:38:41Z</time></trkpt><trkpt lat="37.12377932445551" lon="139.08508587180734"><ele>1683.8742666039616</ele><time>2022-10-23T01:39:33Z</time></trkpt><trkpt lat="37.12385319467225" lon="139.0852998500371"><ele>1675.9238617755473</ele><time>2022-10-23T01:40:21Z</time></trkpt><trkpt lat="37.123901273970006" lon="139.08552316937602"><ele>1665.7131537944078</ele><time>2022-10-23T01:41:13Z</time></trkpt><trkpt lat="37.12408164755594" lon="139.08556984185682"><ele>1660.906029349193</ele><time>2022-10-23T01:41:40Z</time></trkpt><trkpt lat="37.124195087324985" lon="139.0857487700631"><ele>1653.0907885599881</ele><time>2022-10-23T01:42:12Z</time></trkpt><trkpt lat="37.1242261703185" lon="139.08597799052305"><ele>1647.769503256306</ele><time>2022-10-23T01:42:37Z</time></trkpt><trkpt lat="37.1244098964193" lon="139.08603490738042"><ele>1644.979511947371</ele><time>2022-10-23T01:42:53Z</time></trkpt><trkpt lat="37.12459122560905" lon="139.08609553908192"><ele>1636.956133925356</ele><time>2022-10-23T01:43:26Z</time></trkpt><trkpt lat="37.12467948734934" lon="139.08629986446095"><ele>1627.1783225974068</ele><time>2022-10-23T01:44:04Z</time></trkpt><trkpt lat="37.124759472741815" lon="139.08650392274086"><ele>1620.8172818813473</ele><time>2022-10-23T01:44:38Z</time></trkpt><trkpt lat="37.12487730025655" lon="139.08667781757285"><ele>1614.7389482101426</ele><time>2022-10-23T01:45:06Z</time></trkpt><trkpt lat="37.124998052334014" lon="139.0868630124917"><ele>1607.0723704472184</ele><time>2022-10-23T01:45:33Z</time></trkpt><trkpt lat="37.1251277622582" lon="139.08703099126228"><ele>1598.952224638313</ele><time>2022-10-23T01:46:06Z</time></trkpt><trkpt lat="37.12526159087093" lon="139.0871887066508"><ele>1590.635796428658</ele><time>2022-10-23T01:46:33Z</time></trkpt><trkpt lat="37.12535642676596" lon="139.08738249485486"><ele>1583.8883395669982</ele><time>2022-10-23T01:47:10Z</time></trkpt><trkpt lat="37.12548446034774" lon="139.08755038111525"><ele>1576.0688525084406</ele><time>2022-10-23T01:47:43Z</time></trkpt><trkpt lat="37.12559123794501" lon="139.08773404819547"><ele>1566.0077718077227</ele><time>2022-10-23T01:48:21Z</time></trkpt><trkpt lat="37.12568681868733" lon="139.0879252827015"><ele>1557.3338277917355</ele><time>2022-10-23T01:48:48Z</time></trkpt><trkpt lat="37.1258439562965" lon="139.08804334307078"><ele>1551.515965900384</ele><time>2022-10-23T01:49:15Z</time></trkpt><trkpt lat="37.12596296327433" lon="139.08821347366842"><ele>1544.586918508634</ele><time>2022-10-23T01:49:43Z</time></trkpt><trkpt lat="37.125976079406904" lon="139.08844048119565"><ele>1541.9946034867316</ele><time>2022-10-23T01:50:01Z</time></trkpt><trkpt lat="37.12596410122279" lon="139.08866581151182"><ele>1543.204888055101</ele><time>2022-10-23T01:50:20Z</time></trkpt><trkpt lat="37.12595006547392" lon="139.08889409705264"><ele>1540.7712930729613</ele><time>2022-10-23T01:50:36Z</time></trkpt><trkpt lat="37.1258448462455" lon="139.08908432348443"><ele>1540.7419462250546</ele><time>2022-10-23T01:55:32Z</time></trkpt><trkpt lat="37.125846143975735" lon="139.0893148855864"><ele>1537.7658465076238</ele><time>2022-10-23T01:55:51Z</time></trkpt><trkpt lat="37.1258721816075" lon="139.08954288542694"><ele>1534.7756474325433</ele><time>2022-10-23T01:56:17Z</time></trkpt><trkpt lat="37.12597504928869" lon="139.08973051346362"><ele>1532.051409930922</ele><time>2022-10-23T01:56:37Z</time></trkpt><trkpt lat="37.12608685980472" lon="139.08992673282532"><ele>1530.673989805393</ele><time>2022-10-23T01:57:00Z</time></trkpt><trkpt lat="37.12621186477176" lon="139.09009532970657"><ele>1529.8517376845703</ele><time>2022-10-23T01:57:18Z</time></trkpt><trkpt lat="37.126344459673255" lon="139.09026148302127"><ele>1525.287837642245</ele><time>2022-10-23T01:57:45Z</time></trkpt><trkpt lat="37.126455622173914" lon="139.09044245893114"><ele>1516.3688439195976</ele><time>2022-10-23T01:58:21Z</time></trkpt><trkpt lat="37.1266140457841" lon="139.09058255696664"><ele>1508.309820576571</ele><time>2022-10-23T01:58:51Z</time></trkpt><trkpt lat="37.126700125325414" lon="139.09080059223032"><ele>1504.0334052136168</ele><time>2022-10-23T01:59:17Z</time></trkpt><trkpt lat="37.12680824056033" lon="139.09102684271593"><ele>1494.5692847594619</ele><time>2022-10-23T01:59:48Z</time></trkpt><trkpt lat="37.126943198514084" lon="139.09119195070804"><ele>1484.2610700214282</ele><time>2022-10-23T02:00:21Z</time></trkpt><trkpt lat="37.127063792755116" lon="139.09136014662062"><ele>1479.6205790983513</ele><time>2022-10-23T02:00:53Z</time></trkpt><trkpt lat="37.12725010321158" lon="139.09150118293704"><ele>1473.917191828601</ele><time>2022-10-23T02:01:21Z</time></trkpt><trkpt lat="37.127397866803676" lon="139.09163880985747"><ele>1467.6280110208318</ele><time>2022-10-23T02:01:43Z</time></trkpt><trkpt lat="37.12755796386129" lon="139.09176518033289"><ele>1464.1000747056678</ele><time>2022-10-23T02:02:02Z</time></trkpt><trkpt lat="37.12770743760464" lon="139.09189783716567"><ele>1462.6869919514284</ele><time>2022-10-23T02:02:15Z</time></trkpt><trkpt lat="37.127851599448356" lon="139.09204684759226"><ele>1459.9854679191485</ele><time>2022-10-23T02:02:28Z</time></trkpt><trkpt lat="37.12794617801004" lon="139.0922532099989"><ele>1460.286162249744</ele><time>2022-10-23T02:02:46Z</time></trkpt><trkpt lat="37.12791951050502" lon="139.09249116832373"><ele>1464.1555655030534</ele><time>2022-10-23T02:03:04Z</time></trkpt><trkpt lat="37.12790976038767" lon="139.092716174764"><ele>1462.4356067031622</ele><time>2022-10-23T02:03:20Z</time></trkpt><trkpt lat="37.12799394964508" lon="139.0929193021616"><ele>1460.852375187911</ele><time>2022-10-23T02:03:38Z</time></trkpt><trkpt lat="37.128124122209975" lon="139.09307818061984"><ele>1454.773483099416</ele><time>2022-10-23T02:04:00Z</time></trkpt><trkpt lat="37.128234404836896" lon="139.09328778106192"><ele>1455.2908244729042</ele><time>2022-10-23T02:04:16Z</time></trkpt><trkpt lat="37.12834668901439" lon="139.09346390829114"><ele>1448.4398871166632</ele><time>2022-10-23T02:04:40Z</time></trkpt><trkpt lat="37.12845142549788" lon="139.09366025980384"><ele>1445.2975026331842</ele><time>2022-10-23T02:05:04Z</time></trkpt><trkpt lat="37.12858946103845" lon="139.09380548421632"><ele>1439.0051808683202</ele><time>2022-10-23T02:05:30Z</time></trkpt><trkpt lat="37.12873714528209" lon="139.09394403943105"><ele>1434.8800419028848</ele><time>2022-10-23T02:05:50Z</time></trkpt><trkpt lat="37.128873762656724" lon="139.0940934271445"><ele>1431.0546077061445</ele><time>2022-10-23T02:06:05Z</time></trkpt><trkpt lat="37.12902886938985" lon="139.09424462306222"><ele>1431.6480290824547</ele><time>2022-10-23T02:06:25Z</time></trkpt><trkpt lat="37.12919588498312" lon="139.09433156073953"><ele>1428.536271869205</ele><time>2022-10-23T02:06:48Z</time></trkpt><trkpt lat="37.129351393805344" lon="139.09446219692566"><ele>1425.150747303851</ele><time>2022-10-23T02:07:13Z</time></trkpt><trkpt lat="37.12949197956147" lon="139.09460403286633"><ele>1421.0035809753463</ele><time>2022-10-23T02:07:40Z</time></trkpt><trkpt lat="37.129587792155604" lon="139.09480191189982"><ele>1417.0114044174552</ele><time>2022-10-23T02:08:04Z</time></trkpt><trkpt lat="37.12968851065644" lon="139.0949901344646"><ele>1415.1744904620573</ele><time>2022-10-23T02:08:24Z</time></trkpt><trkpt lat="37.129799032538536" lon="139.09517045759154"><ele>1411.9991512233391</ele><time>2022-10-23T02:08:47Z</time></trkpt><trkpt lat="37.12990828982062" lon="139.09535520101923"><ele>1405.481808069162</ele><time>2022-10-23T02:09:19Z</time></trkpt><trkpt lat="37.130050939236554" lon="139.09549499535797"><ele>1401.39859001711</ele><time>2022-10-23T02:09:43Z</time></trkpt><trkpt lat="37.130185927158" lon="139.09564447166406"><ele>1396.5739443069324</ele><time>2022-10-23T02:10:03Z</time></trkpt><trkpt lat="37.13033692193286" lon="139.09578046793806"><ele>1396.4125503916293</ele><time>2022-10-23T02:10:25Z</time></trkpt><trkpt lat="37.1304900076769" lon="139.09590606967484"><ele>1394.3429934838787</ele><time>2022-10-23T02:11:05Z</time></trkpt><trkpt lat="37.13066421266813" lon="139.09584149418757"><ele>1394.5191285116598</ele><time>2022-10-23T02:12:14Z</time></trkpt><trkpt lat="37.130840479781256" lon="139.09578512029634"><ele>1392.244117137976</ele><time>2022-10-23T02:12:32Z</time></trkpt><trkpt lat="37.13101410997775" lon="139.0958492833037"><ele>1387.5417713625357</ele><time>2022-10-23T02:12:52Z</time></trkpt><trkpt lat="37.131175742549324" lon="139.0959538633064"><ele>1383.511332605034</ele><time>2022-10-23T02:13:20Z</time></trkpt><trkpt lat="37.13136546388226" lon="139.0959906605713"><ele>1381.8576461225748</ele><time>2022-10-23T02:13:40Z</time></trkpt><trkpt lat="37.13154603408513" lon="139.09593973731904"><ele>1377.144678948447</ele><time>2022-10-23T02:14:02Z</time></trkpt><trkpt lat="37.131731041361164" lon="139.0959538049936"><ele>1373.5271578598768</ele><time>2022-10-23T02:14:24Z</time></trkpt><trkpt lat="37.1319182625618" lon="139.0959856080032"><ele>1367.9299249332398</ele><time>2022-10-23T02:14:49Z</time></trkpt><trkpt lat="37.13204279096951" lon="139.09616351476453"><ele>1364.9647201066837</ele><time>2022-10-23T02:15:16Z</time></trkpt><trkpt lat="37.13219831451192" lon="139.09628510511897"><ele>1365.5902117257938</ele><time>2022-10-23T02:15:32Z</time></trkpt><trkpt lat="37.132323745254304" lon="139.0964513633334"><ele>1367.9891180498526</ele><time>2022-10-23T02:15:51Z</time></trkpt><trkpt lat="37.13246225698826" lon="139.09659792023595"><ele>1363.385237940587</ele><time>2022-10-23T02:16:12Z</time></trkpt><trkpt lat="37.13256856144129" lon="139.0967943674718"><ele>1362.5257818121463</ele><time>2022-10-23T02:16:33Z</time></trkpt><trkpt lat="37.13273044301853" lon="139.09690981742796"><ele>1359.214238455519</ele><time>2022-10-23T02:16:53Z</time></trkpt><trkpt lat="37.13289686734462" lon="139.09700331771108"><ele>1359.4442797573283</ele><time>2022-10-23T02:17:12Z</time></trkpt><trkpt lat="37.133085840787174" lon="139.0970140693349"><ele>1356.7087067160755</ele><time>2022-10-23T02:17:35Z</time></trkpt><trkpt lat="37.133258634491895" lon="139.09694269293718"><ele>1357.407079320401</ele><time>2022-10-23T02:17:54Z</time></trkpt><trkpt lat="37.133439646685396" lon="139.09688670092422"><ele>1357.0403260653839</ele><time>2022-10-23T02:18:11Z</time></trkpt><trkpt lat="37.133600050949916" lon="139.096764856762"><ele>1358.547359273769</ele><time>2022-10-23T02:18:49Z</time></trkpt><trkpt lat="37.133780641601774" lon="139.096748777156"><ele>1363.7341750543565</ele><time>2022-10-23T02:19:17Z</time></trkpt><trkpt lat="37.13395243626245" lon="139.09681805477234"><ele>1372.6030133478343</ele><time>2022-10-23T02:19:43Z</time></trkpt><trkpt lat="37.134136033354714" lon="139.09680804529197"><ele>1370.3643738059327</ele><time>2022-10-23T02:20:01Z</time></trkpt><trkpt lat="37.13430527067858" lon="139.09691876078202"><ele>1369.615087470971</ele><time>2022-10-23T02:20:18Z</time></trkpt><trkpt lat="37.134446044506745" lon="139.0970783277798"><ele>1371.7205184102058</ele><time>2022-10-23T02:20:38Z</time></trkpt><trkpt lat="37.13456632479891" lon="139.09724928956743"><ele>1370.3331642169505</ele><time>2022-10-23T02:20:57Z</time></trkpt><trkpt lat="37.13465472746367" lon="139.09745431292225"><ele>1369.9213590444997</ele><time>2022-10-23T02:21:14Z</time></trkpt><trkpt lat="37.134719961945954" lon="139.097672864046"><ele>1364.8586316313595</ele><time>2022-10-23T02:21:50Z</time></trkpt><trkpt lat="37.134609074394504" lon="139.0978672513739"><ele>1356.2627340825275</ele><time>2022-10-23T02:22:32Z</time></trkpt><trkpt lat="37.13460929644806" lon="139.09811146262118"><ele>1345.0599100822583</ele><time>2022-10-23T02:23:03Z</time></trkpt><trkpt lat="37.134718972532646" lon="139.0982911082839"><ele>1339.4234555661678</ele><time>2022-10-23T02:23:30Z</time></trkpt><trkpt lat="37.13469532396552" lon="139.09851895054294"><ele>1335.9908365011215</ele><time>2022-10-23T02:23:58Z</time></trkpt><trkpt lat="37.134653593215745" lon="139.09874385626634"><ele>1325.0298253530636</ele><time>2022-10-23T02:24:40Z</time></trkpt><trkpt lat="37.13465984309323" lon="139.0989816107234"><ele>1319.4874004554003</ele><time>2022-10-23T02:25:05Z</time></trkpt><trkpt lat="37.134608941232834" lon="139.09920659196106"><ele>1313.1214298876002</ele><time>2022-10-23T02:25:26Z</time></trkpt><trkpt lat="37.13457506078272" lon="139.09942895765494"><ele>1307.9410683512688</ele><time>2022-10-23T02:25:42Z</time></trkpt><trkpt lat="37.134543379109274" lon="139.0994535174007"><ele>1307.6367809008807</ele><time>2022-10-23T02:26:07Z</time></trkpt><trkpt lat="37.134448222785416" lon="139.0996476996891"><ele>1301.3764414219186</ele><time>2022-10-23T02:26:49Z</time></trkpt><trkpt lat="37.134358975452685" lon="139.09984818773498"><ele>1302.3673794018105</ele><time>2022-10-23T02:27:07Z</time></trkpt><trkpt lat="37.1342822677733" lon="139.10006336144025"><ele>1300.4894536212087</ele><time>2022-10-23T02:27:28Z</time></trkpt><trkpt lat="37.13416510005767" lon="139.10024251072767"><ele>1304.6957409773022</ele><time>2022-10-23T02:27:50Z</time></trkpt><trkpt lat="37.13401367556036" lon="139.10037005474328"><ele>1304.0758422212675</ele><time>2022-10-23T02:28:12Z</time></trkpt><trkpt lat="37.1340325759227" lon="139.1004202775199"><ele>1299.0521303145215</ele><time>2022-10-23T02:28:51Z</time></trkpt><trkpt lat="37.133894229264506" lon="139.10057091392372"><ele>1295.2890886878595</ele><time>2022-10-23T02:33:34Z</time></trkpt><trkpt lat="37.13381617387902" lon="139.10079147660755"><ele>1294.7285774257034</ele><time>2022-10-23T02:33:56Z</time></trkpt><trkpt lat="37.1337618253964" lon="139.10100847428484"><ele>1295.2500693919137</ele><time>2022-10-23T02:34:14Z</time></trkpt><trkpt lat="37.13381595284177" lon="139.10123551624554"><ele>1290.3025915231556</ele><time>2022-10-23T02:34:32Z</time></trkpt><trkpt lat="37.13382915536776" lon="139.10146557423124"><ele>1291.9070549802855</ele><time>2022-10-23T02:34:49Z</time></trkpt><trkpt lat="37.133907649893764" lon="139.10167690033657"><ele>1290.7269839905202</ele><time>2022-10-23T02:35:05Z</time></trkpt><trkpt lat="37.13391355450611" lon="139.10190839829627"><ele>1288.2371330847964</ele><time>2022-10-23T02:35:23Z</time></trkpt><trkpt lat="37.1338183889043" lon="139.10211324141176"><ele>1285.5170811899006</ele><time>2022-10-23T02:35:42Z</time></trkpt><trkpt lat="37.13375983371512" lon="139.10233055282637"><ele>1287.7034139093012</ele><time>2022-10-23T02:36:01Z</time></trkpt><trkpt lat="37.13378227267074" lon="139.10256134093422"><ele>1284.7027773726732</ele><time>2022-10-23T02:36:18Z</time></trkpt><trkpt lat="37.133886413952574" lon="139.10276253990233"><ele>1279.965613747947</ele><time>2022-10-23T02:36:36Z</time></trkpt><trkpt lat="37.13396722700902" lon="139.10296512048424"><ele>1275.144671608694</ele><time>2022-10-23T02:37:03Z</time></trkpt><trkpt lat="37.1340603257775" lon="139.10316489705798"><ele>1266.1764705078676</ele><time>2022-10-23T02:37:35Z</time></trkpt><trkpt lat="37.13413278198797" lon="139.1033759022833"><ele>1263.8284860150889</ele><time>2022-10-23T02:37:54Z</time></trkpt><trkpt lat="37.134202264449634" lon="139.10358618638577"><ele>1257.5831010872498</ele><time>2022-10-23T02:38:29Z</time></trkpt><trkpt lat="37.13427247937071" lon="139.1038010091796"><ele>1250.4284631684422</ele><time>2022-10-23T02:38:58Z</time></trkpt><trkpt lat="37.134324746554356" lon="139.10401916714272"><ele>1248.8634573342279</ele><time>2022-10-23T02:39:22Z</time></trkpt><trkpt lat="37.13436507154903" lon="139.10425018225126"><ele>1243.3909436082467</ele><time>2022-10-23T02:39:52Z</time></trkpt><trkpt lat="37.134506013868716" lon="139.10439299582265"><ele>1243.620536624454</ele><time>2022-10-23T02:40:08Z</time></trkpt><trkpt lat="37.13462455915955" lon="139.10456511881094"><ele>1246.060838131234</ele><time>2022-10-23T02:40:27Z</time></trkpt><trkpt lat="37.13474892701082" lon="139.10473148210113"><ele>1243.4400605140254</ele><time>2022-10-23T02:40:43Z</time></trkpt><trkpt lat="37.13485438548609" lon="139.10491541154897"><ele>1238.5086439447477</ele><time>2022-10-23T02:41:03Z</time></trkpt><trkpt lat="37.13487186475168" lon="139.1051533206252"><ele>1236.905702009797</ele><time>2022-10-23T02:41:20Z</time></trkpt><trkpt lat="37.134936949826454" lon="139.10536768491002"><ele>1231.3433369025588</ele><time>2022-10-23T02:41:41Z</time></trkpt><trkpt lat="37.1350434969456" lon="139.10556256679288"><ele>1228.0126880854368</ele><time>2022-10-23T02:41:58Z</time></trkpt><trkpt lat="37.13517192313812" lon="139.10573952517103"><ele>1228.8582605952397</ele><time>2022-10-23T02:42:15Z</time></trkpt><trkpt lat="37.13535142918372" lon="139.10582385500376"><ele>1229.9841067101806</ele><time>2022-10-23T02:42:34Z</time></trkpt><trkpt lat="37.13552492383101" lon="139.10588933751353"><ele>1230.2672140104696</ele><time>2022-10-23T02:42:56Z</time></trkpt><trkpt lat="37.1356203292555" lon="139.10608235492325"><ele>1240.4232598217204</ele><time>2022-10-23T02:43:23Z</time></trkpt><trkpt lat="37.13575104972485" lon="139.1062418753601"><ele>1236.203179731965</ele><time>2022-10-23T02:43:42Z</time></trkpt><trkpt lat="37.13589772019221" lon="139.1064000092232"><ele>1239.7794536137953</ele><time>2022-10-23T02:44:01Z</time></trkpt><trkpt lat="37.13602958664867" lon="139.10655927685613"><ele>1240.5676694111899</ele><time>2022-10-23T02:44:17Z</time></trkpt><trkpt lat="37.13604137097798" lon="139.10680005211088"><ele>1239.6930631538853</ele><time>2022-10-23T02:44:37Z</time></trkpt><trkpt lat="37.13600042659467" lon="139.1070382421719"><ele>1239.1941273305565</ele><time>2022-10-23T02:44:53Z</time></trkpt><trkpt lat="37.1358763644264" lon="139.10721344354943"><ele>1239.1666394425556</ele><time>2022-10-23T02:45:12Z</time></trkpt><trkpt lat="37.135755630070705" lon="139.10738279649843"><ele>1234.527031544596</ele><time>2022-10-23T02:45:29Z</time></trkpt><trkpt lat="37.1355798698353" lon="139.1074555557874"><ele>1232.6015377407894</ele><time>2022-10-23T02:45:48Z</time></trkpt><trkpt lat="37.135421682517325" lon="139.1075753119108"><ele>1232.3147967699915</ele><time>2022-10-23T02:46:02Z</time></trkpt><trkpt lat="37.135351908863356" lon="139.10779616430776"><ele>1235.3781758332625</ele><time>2022-10-23T02:46:19Z</time></trkpt><trkpt lat="37.13527188048136" lon="139.10800783314738"><ele>1235.7082241978496</ele><time>2022-10-23T02:46:35Z</time></trkpt><trkpt lat="37.135296191637195" lon="139.10823164312626"><ele>1237.0703580956906</ele><time>2022-10-23T02:46:50Z</time></trkpt><trkpt lat="37.13524139973282" lon="139.10845261700618"><ele>1239.788907846436</ele><time>2022-10-23T02:47:10Z</time></trkpt><trkpt lat="37.13519258152554" lon="139.10868318263124"><ele>1238.547046246007</ele><time>2022-10-23T02:47:25Z</time></trkpt><trkpt lat="37.13513672108846" lon="139.10889886741856"><ele>1237.6028458857909</ele><time>2022-10-23T02:47:46Z</time></trkpt><trkpt lat="37.13506384322612" lon="139.1091101055621"><ele>1242.7672541067004</ele><time>2022-10-23T02:48:05Z</time></trkpt><trkpt lat="37.135143276387915" lon="139.10931903469208"><ele>1241.4433620087802</ele><time>2022-10-23T02:48:18Z</time></trkpt><trkpt lat="37.13516367942028" lon="139.10954937977343"><ele>1246.0122032919899</ele><time>2022-10-23T02:48:35Z</time></trkpt><trkpt lat="37.135173394848685" lon="139.1097833817241"><ele>1246.580389842391</ele><time>2022-10-23T02:48:52Z</time></trkpt><trkpt lat="37.13510897996536" lon="139.10999623948538"><ele>1247.2356384946033</ele><time>2022-10-23T02:49:10Z</time></trkpt><trkpt lat="37.13498991120773" lon="139.11017927812563"><ele>1250.306644438766</ele><time>2022-10-23T02:49:29Z</time></trkpt><trkpt lat="37.13490439080574" lon="139.1103782130532"><ele>1252.1422445038334</ele><time>2022-10-23T02:49:54Z</time></trkpt><trkpt lat="37.13481526490038" lon="139.1105835268479"><ele>1259.3664508042857</ele><time>2022-10-23T02:50:18Z</time></trkpt><trkpt lat="37.134809067341415" lon="139.110812845452"><ele>1260.1641607955098</ele><time>2022-10-23T02:50:37Z</time></trkpt><trkpt lat="37.13478195728473" lon="139.11104864918792"><ele>1262.612635890022</ele><time>2022-10-23T02:50:55Z</time></trkpt><trkpt lat="37.1347305987465" lon="139.1112735087449"><ele>1266.6199701298028</ele><time>2022-10-23T02:51:14Z</time></trkpt><trkpt lat="37.134771075842416" lon="139.11149335410096"><ele>1264.1194154452533</ele><time>2022-10-23T02:51:36Z</time></trkpt><trkpt lat="37.13480600913414" lon="139.1117392000597"><ele>1264.2570742079988</ele><time>2022-10-23T02:52:00Z</time></trkpt><trkpt lat="37.13488060592631" lon="139.11195619062363"><ele>1266.3674866892397</ele><time>2022-10-23T02:52:28Z</time></trkpt><trkpt lat="37.13491034518955" lon="139.11218202231967"><ele>1272.5075772190467</ele><time>2022-10-23T02:52:56Z</time></trkpt><trkpt lat="37.13478971087115" lon="139.11235760104785"><ele>1280.114781790413</ele><time>2022-10-23T02:54:24Z</time></trkpt><trkpt lat="37.13461325735028" lon="139.1123101938334"><ele>1289.517946477048</ele><time>2022-10-23T02:54:58Z</time></trkpt><trkpt lat="37.134798366106466" lon="139.11234043260092"><ele>1283.150843451731</ele><time>2022-10-23T03:02:11Z</time></trkpt><trkpt lat="37.13496393884732" lon="139.11243748721677"><ele>1280.9331650715321</ele><time>2022-10-23T03:02:50Z</time></trkpt><trkpt lat="37.13510134820894" lon="139.1125971031003"><ele>1281.028460497968</ele><time>2022-10-23T03:03:08Z</time></trkpt><trkpt lat="37.13524858503934" lon="139.11274585868526"><ele>1280.920849999413</ele><time>2022-10-23T03:03:28Z</time></trkpt><trkpt lat="37.13540833690293" lon="139.11285899614856"><ele>1279.861108395271</ele><time>2022-10-23T03:03:54Z</time></trkpt><trkpt lat="37.13558776684135" lon="139.11288706687114"><ele>1278.5403453400359</ele><time>2022-10-23T03:04:17Z</time></trkpt><trkpt lat="37.13575664758628" lon="139.11297572992976"><ele>1275.0672658821568</ele><time>2022-10-23T03:04:41Z</time></trkpt><trkpt lat="37.1359310829623" lon="139.11303951407137"><ele>1273.765406052582</ele><time>2022-10-23T03:05:00Z</time></trkpt><trkpt lat="37.13607439641921" lon="139.11318383891987"><ele>1265.3929025996476</ele><time>2022-10-23T03:05:29Z</time></trkpt><trkpt lat="37.1362524206301" lon="139.11323750655913"><ele>1259.3727442016825</ele><time>2022-10-23T03:05:59Z</time></trkpt><trkpt lat="37.13637067388215" lon="139.11340737800387"><ele>1256.736148364842</ele><time>2022-10-23T03:06:17Z</time></trkpt><trkpt lat="37.136498539838215" lon="139.1135688490027"><ele>1256.3972807852551</ele><time>2022-10-23T03:06:35Z</time></trkpt><trkpt lat="37.13663940792738" lon="139.1137244093604"><ele>1254.6567422524095</ele><time>2022-10-23T03:06:55Z</time></trkpt><trkpt lat="37.136767175741156" lon="139.11389331074244"><ele>1253.140497913584</ele><time>2022-10-23T03:07:11Z</time></trkpt><trkpt lat="37.13681559866383" lon="139.11411516076427"><ele>1251.613385496661</ele><time>2022-10-23T03:07:30Z</time></trkpt><trkpt lat="37.13685031212632" lon="139.11434265414445"><ele>1241.8401552233845</ele><time>2022-10-23T03:08:00Z</time></trkpt><trkpt lat="37.13696684530992" lon="139.1145184075235"><ele>1229.4913293160498</ele><time>2022-10-23T03:09:22Z</time></trkpt><trkpt lat="37.137086913952345" lon="139.11468782674686"><ele>1222.5399633301422</ele><time>2022-10-23T03:10:04Z</time></trkpt><trkpt lat="37.1371825214814" lon="139.11487922150909"><ele>1211.0752695221454</ele><time>2022-10-23T03:10:42Z</time></trkpt><trkpt lat="37.13725307755567" lon="139.1150939903546"><ele>1207.6807826245204</ele><time>2022-10-23T03:11:13Z</time></trkpt><trkpt lat="37.13733795513014" lon="139.11529601717953"><ele>1204.9385593915358</ele><time>2022-10-23T03:11:39Z</time></trkpt><trkpt lat="37.13747598024797" lon="139.11544167771072"><ele>1205.7267342954874</ele><time>2022-10-23T03:12:02Z</time></trkpt><trkpt lat="37.13762298625423" lon="139.11557198705867"><ele>1214.1801700219512</ele><time>2022-10-23T03:12:34Z</time></trkpt><trkpt lat="37.13770468102458" lon="139.1157792812786"><ele>1216.5839309040457</ele><time>2022-10-23T03:13:10Z</time></trkpt><trkpt lat="37.137841655082376" lon="139.11593711795018"><ele>1217.7068931525573</ele><time>2022-10-23T03:13:28Z</time></trkpt><trkpt lat="37.137999973003815" lon="139.1160661827419"><ele>1216.8062286376953</ele><time>2022-10-23T03:13:49Z</time></trkpt><trkpt lat="37.138011298731094" lon="139.11630404950895"><ele>1212.9259700896218</ele><time>2022-10-23T03:14:17Z</time></trkpt><trkpt lat="37.13797634097222" lon="139.11653508214783"><ele>1213.3273809682578</ele><time>2022-10-23T03:14:43Z</time></trkpt><trkpt lat="37.13804571484958" lon="139.11674395576307"><ele>1213.6403299290687</ele><time>2022-10-23T03:15:13Z</time></trkpt><trkpt lat="37.13818372687998" lon="139.1168886753615"><ele>1219.7483328608796</ele><time>2022-10-23T03:15:41Z</time></trkpt><trkpt lat="37.138339365068525" lon="139.11701445962976"><ele>1218.6576697919518</ele><time>2022-10-23T03:16:03Z</time></trkpt><trkpt lat="37.138462049817555" lon="139.11718345968245"><ele>1215.2276803553104</ele><time>2022-10-23T03:16:21Z</time></trkpt><trkpt lat="37.13863586295634" lon="139.11725166585208"><ele>1216.761058284901</ele><time>2022-10-23T03:16:42Z</time></trkpt><trkpt lat="37.13877855577475" lon="139.11739030869322"><ele>1221.8373264111578</ele><time>2022-10-23T03:17:13Z</time></trkpt><trkpt lat="37.13889102827316" lon="139.11757709669695"><ele>1224.6003149598837</ele><time>2022-10-23T03:18:18Z</time></trkpt><trkpt lat="37.139028699615245" lon="139.117723288941"><ele>1222.4218175942078</ele><time>2022-10-23T03:18:45Z</time></trkpt><trkpt lat="37.13920779890239" lon="139.11777041333656"><ele>1229.5032368153334</ele><time>2022-10-23T03:19:12Z</time></trkpt><trkpt lat="37.13935300350216" lon="139.11790722855207"><ele>1230.4390424285084</ele><time>2022-10-23T03:19:38Z</time></trkpt><trkpt lat="37.139520592511275" lon="139.11781432453995"><ele>1231.6068534078076</ele><time>2022-10-23T03:20:09Z</time></trkpt><trkpt lat="37.1396937323601" lon="139.11774137916825"><ele>1229.9447292070836</ele><time>2022-10-23T03:20:44Z</time></trkpt><trkpt lat="37.13987628631723" lon="139.11775132874516"><ele>1230.5887190438807</ele><time>2022-10-23T03:21:11Z</time></trkpt><trkpt lat="37.14005849405936" lon="139.1177358934603"><ele>1226.552018511109</ele><time>2022-10-23T03:21:56Z</time></trkpt><trkpt lat="37.14023607974649" lon="139.11780750001827"><ele>1226.0429279189557</ele><time>2022-10-23T03:22:22Z</time></trkpt><trkpt lat="37.14040927461818" lon="139.11789771086717"><ele>1225.9210735009983</ele><time>2022-10-23T03:22:44Z</time></trkpt><trkpt lat="37.14057567415565" lon="139.11798615037694"><ele>1222.092599007301</ele><time>2022-10-23T03:23:22Z</time></trkpt><trkpt lat="37.14073602834494" lon="139.11810470527527"><ele>1221.0515493005514</ele><time>2022-10-23T03:23:41Z</time></trkpt><trkpt lat="37.14089258805702" lon="139.11822159811814"><ele>1222.0970655884594</ele><time>2022-10-23T03:23:59Z</time></trkpt><trkpt lat="37.141047364123274" lon="139.11835092760754"><ele>1229.6022920627147</ele><time>2022-10-23T03:24:25Z</time></trkpt><trkpt lat="37.14122825046924" lon="139.1183654683926"><ele>1216.9556548669934</ele><time>2022-10-23T03:25:08Z</time></trkpt><trkpt lat="37.141410023085626" lon="139.11836843753076"><ele>1211.9559548171237</ele><time>2022-10-23T03:25:42Z</time></trkpt><trkpt lat="37.1415905920424" lon="139.1184199771181"><ele>1209.0237124683335</ele><time>2022-10-23T03:26:03Z</time></trkpt><trkpt lat="37.14177939117619" lon="139.11847773492158"><ele>1200.0172916278243</ele><time>2022-10-23T03:26:31Z</time></trkpt><trkpt lat="37.141951196993936" lon="139.1185462644074"><ele>1195.3416372165084</ele><time>2022-10-23T03:26:55Z</time></trkpt><trkpt lat="37.14213288756633" lon="139.11861173329552"><ele>1190.7346978662536</ele><time>2022-10-23T03:27:15Z</time></trkpt><trkpt lat="37.142309363551156" lon="139.11870643889108"><ele>1187.0702890632674</ele><time>2022-10-23T03:27:35Z</time></trkpt><trkpt lat="37.142491936690035" lon="139.1187460360154"><ele>1184.446120992303</ele><time>2022-10-23T03:27:55Z</time></trkpt><trkpt lat="37.142675040491504" lon="139.11875746252207"><ele>1189.7617343999445</ele><time>2022-10-23T03:28:12Z</time></trkpt><trkpt lat="37.142854960268494" lon="139.11873379209734"><ele>1196.2671741535887</ele><time>2022-10-23T03:29:24Z</time></trkpt><trkpt lat="37.14304105620755" lon="139.1186859673828"><ele>1199.2358195660636</ele><time>2022-10-23T03:29:46Z</time></trkpt><trkpt lat="37.143221042331504" lon="139.11870065000187"><ele>1196.8412717403844</ele><time>2022-10-23T03:30:14Z</time></trkpt><trkpt lat="37.143402215277504" lon="139.11873967989752"><ele>1196.8960088314489</ele><time>2022-10-23T03:30:33Z</time></trkpt><trkpt lat="37.14358474134455" lon="139.11868335330178"><ele>1199.9765575705096</ele><time>2022-10-23T03:30:55Z</time></trkpt><trkpt lat="37.143755956824386" lon="139.11876176922328"><ele>1205.0787485195324</ele><time>2022-10-23T03:31:20Z</time></trkpt><trkpt lat="37.1439157658762" lon="139.11887777127004"><ele>1208.1165003394708</ele><time>2022-10-23T03:31:43Z</time></trkpt><trkpt lat="37.14403766799956" lon="139.1190585751206"><ele>1206.4854308916256</ele><time>2022-10-23T03:32:02Z</time></trkpt><trkpt lat="37.14419723645761" lon="139.11919426959997"><ele>1207.805737029761</ele><time>2022-10-23T03:32:16Z</time></trkpt><trkpt lat="37.14435459591555" lon="139.11930602819905"><ele>1204.326717844233</ele><time>2022-10-23T03:32:32Z</time></trkpt><trkpt lat="37.14448890427766" lon="139.11946818463517"><ele>1199.600614243187</ele><time>2022-10-23T03:32:49Z</time></trkpt><trkpt lat="37.144597381802015" lon="139.1196705099678"><ele>1197.1509602796286</ele><time>2022-10-23T03:33:06Z</time></trkpt><trkpt lat="37.14472955069348" lon="139.11983460762272"><ele>1197.6077056089416</ele><time>2022-10-23T03:33:21Z</time></trkpt><trkpt lat="37.14490642815662" lon="139.11989773004788"><ele>1196.6547988504171</ele><time>2022-10-23T03:33:35Z</time></trkpt><trkpt lat="37.1450786584579" lon="139.11997822874113"><ele>1198.6398792630062</ele><time>2022-10-23T03:33:52Z</time></trkpt><trkpt lat="37.145232055454464" lon="139.1201015484332"><ele>1198.8168338704854</ele><time>2022-10-23T03:34:11Z</time></trkpt><trkpt lat="37.14538479361275" lon="139.12023752236183"><ele>1199.879006974399</ele><time>2022-10-23T03:34:28Z</time></trkpt><trkpt lat="37.145551902006716" lon="139.1203361057137"><ele>1204.4481257693842</ele><time>2022-10-23T03:34:48Z</time></trkpt><trkpt lat="37.14572763188908" lon="139.12042138843017"><ele>1204.826062841341</ele><time>2022-10-23T03:35:11Z</time></trkpt><trkpt lat="37.145885330196855" lon="139.12054396775972"><ele>1208.0137801803648</ele><time>2022-10-23T03:35:30Z</time></trkpt><trkpt lat="37.14604891875691" lon="139.12066643486494"><ele>1209.8397239465266</ele><time>2022-10-23T03:35:53Z</time></trkpt><trkpt lat="37.1462056151976" lon="139.12078209371305"><ele>1214.283585300669</ele><time>2022-10-23T03:36:11Z</time></trkpt><trkpt lat="37.146357536563194" lon="139.1209098885446"><ele>1220.552197064273</ele><time>2022-10-23T03:36:31Z</time></trkpt><trkpt lat="37.14652023055874" lon="139.12102415183364"><ele>1228.4321449538693</ele><time>2022-10-23T03:36:58Z</time></trkpt><trkpt lat="37.146671132733424" lon="139.1211559857391"><ele>1230.76406009309</ele><time>2022-10-23T03:37:19Z</time></trkpt><trkpt lat="37.14681073696354" lon="139.1213107553656"><ele>1237.472804629244</ele><time>2022-10-23T03:37:47Z</time></trkpt><trkpt lat="37.1468530846253" lon="139.12154340321175"><ele>1234.1573682045564</ele><time>2022-10-23T03:38:54Z</time></trkpt><trkpt lat="37.146931680981815" lon="139.12175070866397"><ele>1225.4871268859133</ele><time>2022-10-23T03:39:25Z</time></trkpt><trkpt lat="37.147113039177775" lon="139.12179028331505"><ele>1218.7158050592989</ele><time>2022-10-23T03:39:51Z</time></trkpt><trkpt lat="37.14707024818581" lon="139.1220126107147"><ele>1212.7190950661898</ele><time>2022-10-23T03:40:26Z</time></trkpt><trkpt lat="37.146994289256185" lon="139.12222122906567"><ele>1208.1387756206095</ele><time>2022-10-23T03:40:44Z</time></trkpt><trkpt lat="37.14691481757404" lon="139.12243348425625"><ele>1208.1122935265303</ele><time>2022-10-23T03:41:01Z</time></trkpt><trkpt lat="37.14687220383631" lon="139.12265302395025"><ele>1203.5757190948352</ele><time>2022-10-23T03:41:16Z</time></trkpt><trkpt lat="37.14681601013805" lon="139.12287182675874"><ele>1205.7034026728943</ele><time>2022-10-23T03:41:28Z</time></trkpt><trkpt lat="37.14691974047085" lon="139.12306683499156"><ele>1202.2747660102323</ele><time>2022-10-23T03:41:42Z</time></trkpt><trkpt lat="37.14698015240136" lon="139.12329312468913"><ele>1196.6374974958599</ele><time>2022-10-23T03:42:02Z</time></trkpt><trkpt lat="37.14706859288692" lon="139.12348933969466"><ele>1194.3577632168308</ele><time>2022-10-23T03:42:17Z</time></trkpt><trkpt lat="37.14713556264123" lon="139.1237017678358"><ele>1192.5975591642782</ele><time>2022-10-23T03:42:33Z</time></trkpt><trkpt lat="37.147228208831244" lon="139.12390469697385"><ele>1192.8056459994987</ele><time>2022-10-23T03:42:47Z</time></trkpt><trkpt lat="37.147382707886536" lon="139.12402088602914"><ele>1189.1625159131363</ele><time>2022-10-23T03:43:02Z</time></trkpt><trkpt lat="37.14740841015965" lon="139.12424819850222"><ele>1190.672830319032</ele><time>2022-10-23T03:43:18Z</time></trkpt><trkpt lat="37.14740895353665" lon="139.12447335294922"><ele>1193.1498083416373</ele><time>2022-10-23T03:43:45Z</time></trkpt><trkpt lat="37.14739286212752" lon="139.12470461981934"><ele>1191.952601253055</ele><time>2022-10-23T03:44:02Z</time></trkpt><trkpt lat="37.147428470493765" lon="139.12492636561268"><ele>1188.9710216494277</ele><time>2022-10-23T03:44:18Z</time></trkpt><trkpt lat="37.1474558985038" lon="139.12515962301836"><ele>1187.965961895883</ele><time>2022-10-23T03:44:35Z</time></trkpt><trkpt lat="37.1475216260416" lon="139.12539648396344"><ele>1186.2709530917928</ele><time>2022-10-23T03:44:50Z</time></trkpt><trkpt lat="37.1475726267372" lon="139.12561806209754"><ele>1185.7793271793053</ele><time>2022-10-23T03:45:02Z</time></trkpt><trkpt lat="37.147633365740234" lon="139.12584107780484"><ele>1181.102324847132</ele><time>2022-10-23T03:45:19Z</time></trkpt><trkpt lat="37.14768036859445" lon="139.1260696088288"><ele>1178.3671689983457</ele><time>2022-10-23T03:45:34Z</time></trkpt><trkpt lat="37.14769701164463" lon="139.1263010195299"><ele>1176.753232812509</ele><time>2022-10-23T03:45:50Z</time></trkpt><trkpt lat="37.14780434735355" lon="139.12650724416443"><ele>1173.2498058769852</ele><time>2022-10-23T03:47:10Z</time></trkpt><trkpt lat="37.14795908336669" lon="139.12663714037518"><ele>1164.1970242597163</ele><time>2022-10-23T03:47:32Z</time></trkpt><trkpt lat="37.14810497879335" lon="139.1267735446312"><ele>1157.0643928563222</ele><time>2022-10-23T03:47:49Z</time></trkpt><trkpt lat="37.14821856312786" lon="139.12694879628074"><ele>1151.80004157871</ele><time>2022-10-23T03:48:01Z</time></trkpt><trkpt lat="37.14832398409019" lon="139.12714679850913"><ele>1148.8238150309771</ele><time>2022-10-23T03:48:15Z</time></trkpt><trkpt lat="37.1484072624131" lon="139.12735144583655"><ele>1143.836062331684</ele><time>2022-10-23T03:48:32Z</time></trkpt><trkpt lat="37.14848049574558" lon="139.12756756844462"><ele>1136.365765336901</ele><time>2022-10-23T03:48:54Z</time></trkpt><trkpt lat="37.14855305398776" lon="139.12778349231797"><ele>1133.047960581258</ele><time>2022-10-23T03:49:36Z</time></trkpt><trkpt lat="37.148697223009705" lon="139.12792528365995"><ele>1133.0175540614873</ele><time>2022-10-23T03:49:53Z</time></trkpt><trkpt lat="37.14877067324261" lon="139.128133658301"><ele>1134.0887100296095</ele><time>2022-10-23T03:50:10Z</time></trkpt><trkpt lat="37.14883745079546" lon="139.12834439731856"><ele>1133.274877245538</ele><time>2022-10-23T03:50:49Z</time></trkpt><trkpt lat="37.14903650164789" lon="139.12845651647942"><ele>1131.6822782941163</ele><time>2022-10-23T03:50:57Z</time></trkpt><trkpt lat="37.149106743125486" lon="139.12867059854372"><ele>1127.5542376311496</ele><time>2022-10-23T03:51:13Z</time></trkpt><trkpt lat="37.149246941127885" lon="139.12881933498412"><ele>1116.3865554500371</ele><time>2022-10-23T03:51:32Z</time></trkpt><trkpt lat="37.14939104827498" lon="139.1289563718928"><ele>1113.281857731752</ele><time>2022-10-23T03:51:44Z</time></trkpt><trkpt lat="37.149533280324874" lon="139.12909654087017"><ele>1109.2168936599046</ele><time>2022-10-23T03:51:56Z</time></trkpt><trkpt lat="37.1496603423305" lon="139.12927296698192"><ele>1107.317977052182</ele><time>2022-10-23T03:52:09Z</time></trkpt><trkpt lat="37.149817040066466" lon="139.1293991888152"><ele>1106.8209730507806</ele><time>2022-10-23T03:52:23Z</time></trkpt><trkpt lat="37.14999889149093" lon="139.12939388361661"><ele>1106.4007888901979</ele><time>2022-10-23T03:52:37Z</time></trkpt><trkpt lat="37.15018386730641" lon="139.12941103158354"><ele>1104.4211171958596</ele><time>2022-10-23T03:52:57Z</time></trkpt><trkpt lat="37.15039302340897" lon="139.12941911124895"><ele>1097.4944026870653</ele><time>2022-10-23T03:53:16Z</time></trkpt><trkpt lat="37.150579317792115" lon="139.12943090153547"><ele>1096.1309801498428</ele><time>2022-10-23T03:53:29Z</time></trkpt><trkpt lat="37.15076209108754" lon="139.12942187695876"><ele>1092.8314135419205</ele><time>2022-10-23T03:53:42Z</time></trkpt><trkpt lat="37.15094447846215" lon="139.12942203468592"><ele>1091.621047757566</ele><time>2022-10-23T03:53:56Z</time></trkpt><trkpt lat="37.15112748675446" lon="139.12940361234737"><ele>1096.2571386331692</ele><time>2022-10-23T03:54:20Z</time></trkpt><trkpt lat="37.15131270266707" lon="139.1294840273647"><ele>1090.3540123524144</ele><time>2022-10-23T03:54:36Z</time></trkpt><trkpt lat="37.15149813943144" lon="139.1294975062381"><ele>1085.801450772211</ele><time>2022-10-23T03:54:49Z</time></trkpt><trkpt lat="37.15168764222135" lon="139.12955819478458"><ele>1078.9803233724087</ele><time>2022-10-23T03:55:04Z</time></trkpt><trkpt lat="37.151804766859854" lon="139.12974095044643"><ele>1075.2649841392413</ele><time>2022-10-23T03:55:16Z</time></trkpt><trkpt lat="37.15194069078429" lon="139.12991215983547"><ele>1068.739323657006</ele><time>2022-10-23T03:55:26Z</time></trkpt><trkpt lat="37.15212873313835" lon="139.1299540896752"><ele>1063.227911026217</ele><time>2022-10-23T03:55:36Z</time></trkpt><trkpt lat="37.15214748964133" lon="139.12972474928847"><ele>1065.3951595174149</ele><time>2022-10-23T03:55:51Z</time></trkpt><trkpt lat="37.15227667297408" lon="139.1295503032007"><ele>1065.0830937037244</ele><time>2022-10-23T03:56:12Z</time></trkpt><trkpt lat="37.152218009793536" lon="139.1295385423763"><ele>1066.6880153436214</ele><time>2022-10-23T03:58:10Z</time></trkpt></trkseg></trk></gpx>