<?xml version='1.0' encoding='UTF-8'?><gpx creator="YAMAP - https://yamap.com" xsi:schemaLocation="http://www.topografix.com/GPX/1/1 http://www.topografix.com/GPX/1/1/gpx.xsd" version="1.1" xmlns="http://www.topografix.com/GPX/1/1" xmlns:xsi="http://www.w3.org/2001/XMLSchema-instance"><metadata><bounds maxlat="35.41845782946117" maxlon="136.40705849047123" minlat="35.39427279032338" minlon="136.3833427616734"/></metadata><trk><name>伊吹山</name><number>1</number><trkseg><trkpt lat="35.39427279032338" lon="136.3833427616734"><ele>216.52043914794922</ele><time>2022-05-05T01:52:41Z</time></trkpt><trkpt lat="35.39442213050174" lon="136.38346645522705"><ele>227.7603191724047</ele><time>2022-05-05T01:53:23Z</time></trkpt><trkpt lat="35.39459986239592" lon="136.3835131723882"><ele>239.0841026864946</ele><time>2022-05-05T01:54:35Z</time></trkpt><trkpt lat="35.394574128885175" lon="136.38373213462626"><ele>245.85737511329353</ele><time>2022-05-05T01:55:29Z</time></trkpt><trkpt lat="35.39444923549678" lon="136.38391453352025"><ele>255.92731056455523</ele><time>2022-05-05T01:56:00Z</time></trkpt><trkpt lat="35.39461114486206" lon="136.38403146755908"><ele>268.20816828869283</ele><time>2022-05-05T01:58:32Z</time></trkpt><trkpt lat="35.39478971681925" lon="136.38400136600936"><ele>265.48182812333107</ele><time>2022-05-05T01:58:53Z</time></trkpt><trkpt lat="35.39497385223071" lon="136.38401040093964"><ele>264.8877334520221</ele><time>2022-05-05T01:59:09Z</time></trkpt><trkpt lat="35.39516293834179" lon="136.38403787078275"><ele>274.83868605457246</ele><time>2022-05-05T01:59:29Z</time></trkpt><trkpt lat="35.395319027857866" lon="136.3841487508241"><ele>274.17519858293235</ele><time>2022-05-05T01:59:54Z</time></trkpt><trkpt lat="35.3955007953366" lon="136.38422560346973"><ele>272.1120273480192</ele><time>2022-05-05T02:00:17Z</time></trkpt><trkpt lat="35.39565381779864" lon="136.38434581735154"><ele>278.84114138316363</ele><time>2022-05-05T02:00:41Z</time></trkpt><trkpt lat="35.39548849006593" lon="136.38443599075566"><ele>290.7838731389493</ele><time>2022-05-05T02:01:39Z</time></trkpt><trkpt lat="35.39535889519119" lon="136.3846132220268"><ele>295.9400520026684</ele><time>2022-05-05T02:02:26Z</time></trkpt><trkpt lat="35.39519129920578" lon="136.38470088959994"><ele>304.4043281050399</ele><time>2022-05-05T02:02:49Z</time></trkpt><trkpt lat="35.39531587045441" lon="136.3848655836057"><ele>312.4298518039286</ele><time>2022-05-05T02:03:09Z</time></trkpt><trkpt lat="35.39545859153604" lon="136.38501153853232"><ele>306.962705061771</ele><time>2022-05-05T02:03:46Z</time></trkpt><trkpt lat="35.3952859912616" lon="136.38511062602126"><ele>317.8064183238894</ele><time>2022-05-05T02:04:55Z</time></trkpt><trkpt lat="35.395093449222486" lon="136.38515759049363"><ele>319.93760104011744</ele><time>2022-05-05T02:05:34Z</time></trkpt><trkpt lat="35.3951322472026" lon="136.38537394616782"><ele>326.2765089934692</ele><time>2022-05-05T02:06:03Z</time></trkpt><trkpt lat="35.395299527079416" lon="136.38548651997272"><ele>331.98697387147695</ele><time>2022-05-05T02:07:28Z</time></trkpt><trkpt lat="35.39512250575739" lon="136.38821876620537"><ele>415.6871871948242</ele><time>2022-05-05T02:22:23Z</time></trkpt><trkpt lat="35.39508692457843" lon="136.38821708982474"><ele>410.9026412963867</ele><time>2022-05-05T02:22:24Z</time></trkpt><trkpt lat="35.39520619740349" lon="136.3883829697489"><ele>423.73860220983624</ele><time>2022-05-05T02:22:47Z</time></trkpt><trkpt lat="35.395287378110055" lon="136.38858743463533"><ele>429.6232613865286</ele><time>2022-05-05T02:23:14Z</time></trkpt><trkpt lat="35.395265161671304" lon="136.38880941763387"><ele>433.7343156468123</ele><time>2022-05-05T02:23:49Z</time></trkpt><trkpt lat="35.39522464527077" lon="136.3890242623677"><ele>435.7966070594266</ele><time>2022-05-05T02:24:17Z</time></trkpt><trkpt lat="35.3953167229923" lon="136.38882454346864"><ele>430.46628167293966</ele><time>2022-05-05T02:27:29Z</time></trkpt><trkpt lat="35.39543648026379" lon="136.38899284728558"><ele>435.34810667391866</ele><time>2022-05-05T02:28:04Z</time></trkpt><trkpt lat="35.395474286838095" lon="136.38921167187243"><ele>442.6666830442846</ele><time>2022-05-05T02:28:38Z</time></trkpt><trkpt lat="35.39555733095526" lon="136.38941259826422"><ele>445.83468872029334</ele><time>2022-05-05T02:29:11Z</time></trkpt><trkpt lat="35.39562569511247" lon="136.38962227860662"><ele>450.15094550233334</ele><time>2022-05-05T02:29:57Z</time></trkpt><trkpt lat="35.39577160137815" lon="136.38975821214387"><ele>456.4354402804747</ele><time>2022-05-05T02:30:32Z</time></trkpt><trkpt lat="35.39591253689973" lon="136.3899028124744"><ele>464.21808660030365</ele><time>2022-05-05T02:31:59Z</time></trkpt><trkpt lat="35.39606185768791" lon="136.39003318109735"><ele>469.3456830345094</ele><time>2022-05-05T02:32:39Z</time></trkpt><trkpt lat="35.39621487332001" lon="136.390152272512"><ele>474.43589047994465</ele><time>2022-05-05T02:33:14Z</time></trkpt><trkpt lat="35.39635747890711" lon="136.39029532802948"><ele>482.5643293717876</ele><time>2022-05-05T02:33:54Z</time></trkpt><trkpt lat="35.39649722058929" lon="136.3904398946514"><ele>487.2225554501638</ele><time>2022-05-05T02:34:40Z</time></trkpt><trkpt lat="35.39656221122827" lon="136.39064624413913"><ele>494.9387841988355</ele><time>2022-05-05T02:35:18Z</time></trkpt><trkpt lat="35.396722893994635" lon="136.39076347159286"><ele>502.2182818967849</ele><time>2022-05-05T02:35:53Z</time></trkpt><trkpt lat="35.39666909292485" lon="136.39098535013406"><ele>503.92488870676607</ele><time>2022-05-05T02:36:24Z</time></trkpt><trkpt lat="35.396644238852666" lon="136.39120830678547"><ele>505.001371034421</ele><time>2022-05-05T02:36:42Z</time></trkpt><trkpt lat="35.39674185406836" lon="136.3913987503494"><ele>508.89756114501506</ele><time>2022-05-05T02:37:05Z</time></trkpt><trkpt lat="35.39686441358239" lon="136.3915633926532"><ele>512.0971704367548</ele><time>2022-05-05T02:37:32Z</time></trkpt><trkpt lat="35.39697279842451" lon="136.3917414803052"><ele>515.5586930857971</ele><time>2022-05-05T02:37:55Z</time></trkpt><trkpt lat="35.39711449333902" lon="136.3918903704466"><ele>520.610342849046</ele><time>2022-05-05T02:38:40Z</time></trkpt><trkpt lat="35.397242813820135" lon="136.3920523405952"><ele>524.8963154172525</ele><time>2022-05-05T02:39:48Z</time></trkpt><trkpt lat="35.397358622874926" lon="136.39223049150016"><ele>531.5821179505438</ele><time>2022-05-05T02:40:15Z</time></trkpt><trkpt lat="35.39746557124786" lon="136.39241293131468"><ele>537.9536465955898</ele><time>2022-05-05T02:40:47Z</time></trkpt><trkpt lat="35.397582790938856" lon="136.39258182676033"><ele>539.3890363918617</ele><time>2022-05-05T02:41:09Z</time></trkpt><trkpt lat="35.39770303671499" lon="136.39275383882"><ele>544.6923234304413</ele><time>2022-05-05T02:41:36Z</time></trkpt><trkpt lat="35.39784980935287" lon="136.3928912762838"><ele>546.9299195008352</ele><time>2022-05-05T02:41:57Z</time></trkpt><trkpt lat="35.39791793604325" lon="136.39310710663202"><ele>551.4420110043138</ele><time>2022-05-05T02:42:24Z</time></trkpt><trkpt lat="35.3980194203505" lon="136.39330747050738"><ele>558.204872998409</ele><time>2022-05-05T02:42:58Z</time></trkpt><trkpt lat="35.3981969504589" lon="136.3933781394638"><ele>563.8303405251354</ele><time>2022-05-05T02:43:26Z</time></trkpt><trkpt lat="35.39836792036689" lon="136.39345798388754"><ele>568.3749680658802</ele><time>2022-05-05T02:46:42Z</time></trkpt><trkpt lat="35.39848639114526" lon="136.39362943676932"><ele>575.9968191171065</ele><time>2022-05-05T02:47:29Z</time></trkpt><trkpt lat="35.398469073003575" lon="136.39384856187243"><ele>581.0270478213206</ele><time>2022-05-05T02:48:04Z</time></trkpt><trkpt lat="35.40170908908863" lon="136.39610664000398"><ele>708.9913635253906</ele><time>2022-05-05T03:12:38Z</time></trkpt><trkpt lat="35.401755700909014" lon="136.39632616598615"><ele>720.9176450045779</ele><time>2022-05-05T03:16:26Z</time></trkpt><trkpt lat="35.401842959769006" lon="136.39652296310848"><ele>721.8618657821789</ele><time>2022-05-05T03:16:58Z</time></trkpt><trkpt lat="35.40202506030071" lon="136.39656706758467"><ele>724.8859373172745</ele><time>2022-05-05T03:17:31Z</time></trkpt><trkpt lat="35.40221267552058" lon="136.39655974485635"><ele>727.0582871334627</ele><time>2022-05-05T03:17:58Z</time></trkpt><trkpt lat="35.40238201718358" lon="136.39664251261453"><ele>727.7214473662898</ele><time>2022-05-05T03:18:22Z</time></trkpt><trkpt lat="35.402564953770096" lon="136.39668264931217"><ele>729.6634201249108</ele><time>2022-05-05T03:18:48Z</time></trkpt><trkpt lat="35.40274402752914" lon="136.3966522032517"><ele>732.2325820242986</ele><time>2022-05-05T03:19:13Z</time></trkpt><trkpt lat="35.40293266328442" lon="136.39666570595298"><ele>732.4021233581007</ele><time>2022-05-05T03:19:35Z</time></trkpt><trkpt lat="35.41426396832989" lon="136.40095906433163"><ele>1089.243373918347</ele><time>2022-05-05T04:32:45Z</time></trkpt><trkpt lat="35.41426396832989" lon="136.40095906433163"><ele>1089.243373918347</ele><time>2022-05-05T04:32:45Z</time></trkpt><trkpt lat="35.41507026183923" lon="136.40203365137464"><ele>1150.738368988037</ele><time>2022-05-05T04:43:36Z</time></trkpt><trkpt lat="35.415207934459204" lon="136.40188644901946"><ele>1165.3403803771362</ele><time>2022-05-05T04:44:29Z</time></trkpt><trkpt lat="35.41520156660632" lon="136.4021200741399"><ele>1177.3551167147234</ele><time>2022-05-05T04:45:21Z</time></trkpt><trkpt lat="35.41537207994221" lon="136.40204755560933"><ele>1178.1467882925645</ele><time>2022-05-05T04:45:58Z</time></trkpt><trkpt lat="35.41551618098604" lon="136.4021815594793"><ele>1201.0018776841462</ele><time>2022-05-05T04:47:49Z</time></trkpt><trkpt lat="35.41559048707221" lon="136.4023918512251"><ele>1210.3324453793466</ele><time>2022-05-05T04:49:07Z</time></trkpt><trkpt lat="35.41820622518232" lon="136.40696464119145"><ele>1366.866054534912</ele><time>2022-05-05T05:52:30Z</time></trkpt><trkpt lat="35.41815995707681" lon="136.4069676586766"><ele>1372.146083831787</ele><time>2022-05-05T05:52:31Z</time></trkpt><trkpt lat="35.418326642124256" lon="136.40705849047123"><ele>1366.1560997124761</ele><time>2022-05-05T05:55:11Z</time></trkpt><trkpt lat="35.41845782946117" lon="136.40690284550172"><ele>1366.421212987043</ele><time>2022-05-05T05:55:41Z</time></trkpt></trkseg></trk></gpx>