<?xml version='1.0' encoding='UTF-8'?><gpx creator="YAMAP - https://yamap.com" xsi:schemaLocation="http://www.topografix.com/GPX/1/1 http://www.topografix.com/GPX/1/1/gpx.xsd" version="1.1" xmlns="http://www.topografix.com/GPX/1/1" xmlns:xsi="http://www.w3.org/2001/XMLSchema-instance"><metadata><bounds maxlat="42.94829387721567" maxlon="140.51485362364124" minlat="42.928671979750156" minlon="140.50153001028426"/></metadata><trk><name>岩内岳</name><number>1</number><trkseg><trkpt lat="42.94746273303688" lon="140.5139111485912"><ele>204.97943774797022</ele><time>2022-02-13T01:35:21Z</time></trkpt><trkpt lat="42.94738265387323" lon="140.51368628609998"><ele>206.82433954253793</ele><time>2022-02-13T01:41:13Z</time></trkpt><trkpt lat="42.947375142154655" lon="140.5134362930339"><ele>208.7579556144774</ele><time>2022-02-13T01:42:03Z</time></trkpt><trkpt lat="42.94746059917253" lon="140.51321340633237"><ele>207.6289214324206</ele><time>2022-02-13T01:43:13Z</time></trkpt><trkpt lat="42.94749343469048" lon="140.5129687837413"><ele>210.91320458706468</ele><time>2022-02-13T01:43:31Z</time></trkpt><trkpt lat="42.947393684459" lon="140.51276435943922"><ele>210.33374416828156</ele><time>2022-02-13T01:44:24Z</time></trkpt><trkpt lat="42.947227165838335" lon="140.51263746015007"><ele>214.12604938540608</ele><time>2022-02-13T01:44:56Z</time></trkpt><trkpt lat="42.947062397701664" lon="140.51252737242982"><ele>213.71981392987072</ele><time>2022-02-13T01:45:26Z</time></trkpt><trkpt lat="42.946882060514504" lon="140.51258343851075"><ele>219.74242059513927</ele><time>2022-02-13T01:45:51Z</time></trkpt><trkpt lat="42.946699750835634" lon="140.51257384740384"><ele>224.3262706073001</ele><time>2022-02-13T01:46:25Z</time></trkpt><trkpt lat="42.946535451671984" lon="140.51269335022863"><ele>225.66159931384027</ele><time>2022-02-13T01:46:59Z</time></trkpt><trkpt lat="42.94634906572122" lon="140.51269235499512"><ele>227.09574606642127</ele><time>2022-02-13T01:47:29Z</time></trkpt><trkpt lat="42.946164865103384" lon="140.51267877992103"><ele>230.66845674905926</ele><time>2022-02-13T01:47:58Z</time></trkpt><trkpt lat="42.94597964517769" lon="140.51264382910836"><ele>234.79267027135938</ele><time>2022-02-13T01:48:29Z</time></trkpt><trkpt lat="42.94584726686344" lon="140.512471330665"><ele>238.48384138848633</ele><time>2022-02-13T01:48:55Z</time></trkpt><trkpt lat="42.94566426225239" lon="140.51243996590523"><ele>241.97455928940326</ele><time>2022-02-13T01:49:42Z</time></trkpt><trkpt lat="42.945562470175055" lon="140.51223439614358"><ele>245.07823796290904</ele><time>2022-02-13T01:50:10Z</time></trkpt><trkpt lat="42.94541192038367" lon="140.51209586333647"><ele>249.91683486942202</ele><time>2022-02-13T01:51:01Z</time></trkpt><trkpt lat="42.94528284644198" lon="140.51191869339038"><ele>255.91428435780108</ele><time>2022-02-13T01:53:22Z</time></trkpt><trkpt lat="42.94524964002935" lon="140.51167558605317"><ele>258.03438868932426</ele><time>2022-02-13T01:53:58Z</time></trkpt><trkpt lat="42.94515347357585" lon="140.51188654683838"><ele>261.05671728309244</ele><time>2022-02-13T01:54:26Z</time></trkpt><trkpt lat="42.94496596034783" lon="140.51191409043085"><ele>265.49306762591004</ele><time>2022-02-13T01:55:01Z</time></trkpt><trkpt lat="42.94483824067814" lon="140.5117351450106"><ele>267.44053106289357</ele><time>2022-02-13T01:55:26Z</time></trkpt><trkpt lat="42.94475061778998" lon="140.5115131864535"><ele>268.8613545112312</ele><time>2022-02-13T01:56:24Z</time></trkpt><trkpt lat="42.94458706010028" lon="140.51139346830303"><ele>274.20057652611285</ele><time>2022-02-13T01:56:54Z</time></trkpt><trkpt lat="42.94442947006771" lon="140.51127350795613"><ele>276.67652181722224</ele><time>2022-02-13T01:57:26Z</time></trkpt><trkpt lat="42.94424874713593" lon="140.5112600062056"><ele>282.49311440158635</ele><time>2022-02-13T01:58:06Z</time></trkpt><trkpt lat="42.94408573981719" lon="140.51113949224452"><ele>288.1482698684558</ele><time>2022-02-13T01:58:36Z</time></trkpt><trkpt lat="42.94403166684901" lon="140.51089860909275"><ele>291.5638094563037</ele><time>2022-02-13T01:59:31Z</time></trkpt><trkpt lat="42.94392284044297" lon="140.51069658986415"><ele>296.16659734398127</ele><time>2022-02-13T02:00:01Z</time></trkpt><trkpt lat="42.94378364192464" lon="140.51052957502574"><ele>300.6372988810763</ele><time>2022-02-13T02:00:55Z</time></trkpt><trkpt lat="42.94365524676514" lon="140.51035685400566"><ele>304.84805545862764</ele><time>2022-02-13T02:01:27Z</time></trkpt><trkpt lat="42.94348697795979" lon="140.51044714801273"><ele>312.1883369060233</ele><time>2022-02-13T02:02:16Z</time></trkpt><trkpt lat="42.943336504851494" lon="140.51058931936373"><ele>315.36230482626706</ele><time>2022-02-13T02:02:55Z</time></trkpt><trkpt lat="42.94324461186036" lon="140.5103773683446"><ele>320.71643036417663</ele><time>2022-02-13T02:03:42Z</time></trkpt><trkpt lat="42.943104245744344" lon="140.51021935673066"><ele>325.6325177932158</ele><time>2022-02-13T02:04:32Z</time></trkpt><trkpt lat="42.942959160749375" lon="140.5100658722901"><ele>329.5689430711791</ele><time>2022-02-13T02:05:16Z</time></trkpt><trkpt lat="42.942816528843316" lon="140.50991468765778"><ele>335.2611795924604</ele><time>2022-02-13T02:05:54Z</time></trkpt><trkpt lat="42.942667317367366" lon="140.50976861348693"><ele>340.3883713912219</ele><time>2022-02-13T02:12:47Z</time></trkpt><trkpt lat="42.94250497484928" lon="140.50965156825478"><ele>340.22044994309545</ele><time>2022-02-13T02:13:17Z</time></trkpt><trkpt lat="42.9423616909292" lon="140.50949212738996"><ele>344.14706983603537</ele><time>2022-02-13T02:13:45Z</time></trkpt><trkpt lat="42.942213992168874" lon="140.5093482720528"><ele>348.1931003257632</ele><time>2022-02-13T02:14:14Z</time></trkpt><trkpt lat="42.94216667095864" lon="140.50931637552492"><ele>351.2585490355268</ele><time>2022-02-13T02:14:23Z</time></trkpt><trkpt lat="42.94201322357252" lon="140.5091729565586"><ele>355.7443068465218</ele><time>2022-02-13T02:14:48Z</time></trkpt><trkpt lat="42.9418667091224" lon="140.5090278345241"><ele>360.34953521192074</ele><time>2022-02-13T02:15:13Z</time></trkpt><trkpt lat="42.94174829527918" lon="140.50884179261186"><ele>366.2311335494742</ele><time>2022-02-13T02:15:58Z</time></trkpt><trkpt lat="42.9417023306866" lon="140.50859701612302"><ele>369.55428169388324</ele><time>2022-02-13T02:16:28Z</time></trkpt><trkpt lat="42.94160717442157" lon="140.50838679677426"><ele>372.1406525010243</ele><time>2022-02-13T02:16:56Z</time></trkpt><trkpt lat="42.941503630292246" lon="140.5081742388727"><ele>373.4647556124255</ele><time>2022-02-13T02:17:30Z</time></trkpt><trkpt lat="42.94137477099057" lon="140.50800200478838"><ele>375.83127000834793</ele><time>2022-02-13T02:17:55Z</time></trkpt><trkpt lat="42.94125276090358" lon="140.5078116414031"><ele>371.75322144292295</ele><time>2022-02-13T02:20:39Z</time></trkpt><trkpt lat="42.94109445818397" lon="140.5076916904515"><ele>374.8427661973983</ele><time>2022-02-13T02:21:08Z</time></trkpt><trkpt lat="42.94094120576156" lon="140.50755849132702"><ele>377.8014984950423</ele><time>2022-02-13T02:22:26Z</time></trkpt><trkpt lat="42.94078841797522" lon="140.50742074447143"><ele>381.24242891930044</ele><time>2022-02-13T02:23:21Z</time></trkpt><trkpt lat="42.94063709322527" lon="140.50727616967603"><ele>382.69726751185954</ele><time>2022-02-13T02:23:43Z</time></trkpt><trkpt lat="42.94048762926508" lon="140.50713574786278"><ele>388.1359327547252</ele><time>2022-02-13T02:24:13Z</time></trkpt><trkpt lat="42.94033069649412" lon="140.5070030007608"><ele>395.5151252830401</ele><time>2022-02-13T02:24:52Z</time></trkpt><trkpt lat="42.94015937504511" lon="140.506922202118"><ele>401.572949482128</ele><time>2022-02-13T02:25:37Z</time></trkpt><trkpt lat="42.939998748673204" lon="140.50680841288806"><ele>406.88237293995917</ele><time>2022-02-13T02:26:33Z</time></trkpt><trkpt lat="42.939841332521574" lon="140.50666749736808"><ele>410.6514957342297</ele><time>2022-02-13T02:27:36Z</time></trkpt><trkpt lat="42.93968943134824" lon="140.50653541835038"><ele>417.9473959710449</ele><time>2022-02-13T02:28:18Z</time></trkpt><trkpt lat="42.93950734713176" lon="140.50651579114373"><ele>425.17972138896585</ele><time>2022-02-13T02:30:22Z</time></trkpt><trkpt lat="42.939370189959625" lon="140.50634782394098"><ele>431.601642658934</ele><time>2022-02-13T02:31:44Z</time></trkpt><trkpt lat="42.93922798945164" lon="140.50619676322475"><ele>437.8427878608927</ele><time>2022-02-13T02:33:24Z</time></trkpt><trkpt lat="42.93915715764649" lon="140.50596945343776"><ele>443.1451443415135</ele><time>2022-02-13T02:33:54Z</time></trkpt><trkpt lat="42.938970816825616" lon="140.50596556752015"><ele>451.7460946664214</ele><time>2022-02-13T02:34:57Z</time></trkpt><trkpt lat="42.93879205491035" lon="140.5059264082873"><ele>454.500440582633</ele><time>2022-02-13T02:35:45Z</time></trkpt><trkpt lat="42.93864483446883" lon="140.5057697857755"><ele>460.2695872699842</ele><time>2022-02-13T02:36:24Z</time></trkpt><trkpt lat="42.938481213945316" lon="140.5056586446132"><ele>465.6940595852211</ele><time>2022-02-13T02:37:22Z</time></trkpt><trkpt lat="42.93832399199293" lon="140.505531130935"><ele>472.18925558496267</ele><time>2022-02-13T02:38:10Z</time></trkpt><trkpt lat="42.93814612315546" lon="140.50545394050545"><ele>478.2632676800713</ele><time>2022-02-13T02:39:03Z</time></trkpt><trkpt lat="42.937982539833094" lon="140.5053459703447"><ele>485.9776695566252</ele><time>2022-02-13T02:40:00Z</time></trkpt><trkpt lat="42.93789057899727" lon="140.5051299887453"><ele>490.52859665825963</ele><time>2022-02-13T02:40:39Z</time></trkpt><trkpt lat="42.93776892284629" lon="140.50493056822063"><ele>496.32010264880955</ele><time>2022-02-13T02:41:49Z</time></trkpt><trkpt lat="42.937597681586794" lon="140.50502493193818"><ele>504.3080294560641</ele><time>2022-02-13T02:42:54Z</time></trkpt><trkpt lat="42.937456643029805" lon="140.50487104081202"><ele>510.183498153463</ele><time>2022-02-13T02:44:11Z</time></trkpt><trkpt lat="42.9373524599466" lon="140.50490096304347"><ele>514.3469545533881</ele><time>2022-02-13T02:45:02Z</time></trkpt><trkpt lat="42.937232528767865" lon="140.50471809049554"><ele>515.7450522687286</ele><time>2022-02-13T02:45:37Z</time></trkpt><trkpt lat="42.93707323458693" lon="140.5045946776652"><ele>518.6793396808207</ele><time>2022-02-13T02:46:15Z</time></trkpt><trkpt lat="42.93688782347125" lon="140.50461701042016"><ele>519.8384238164872</ele><time>2022-02-13T02:47:05Z</time></trkpt><trkpt lat="42.93670565388075" lon="140.50456460167734"><ele>524.8697896907106</ele><time>2022-02-13T02:47:40Z</time></trkpt><trkpt lat="42.93653608854435" lon="140.50464906017584"><ele>526.9384471382946</ele><time>2022-02-13T02:48:11Z</time></trkpt><trkpt lat="42.93636054657037" lon="140.50471400726298"><ele>528.7782318741083</ele><time>2022-02-13T02:48:41Z</time></trkpt><trkpt lat="42.936177786321416" lon="140.50469259618043"><ele>531.5340238232166</ele><time>2022-02-13T02:49:14Z</time></trkpt><trkpt lat="42.936006128808465" lon="140.50478203721383"><ele>533.7938689710572</ele><time>2022-02-13T02:49:43Z</time></trkpt><trkpt lat="42.935834475319" lon="140.50486580039464"><ele>535.1612109225243</ele><time>2022-02-13T02:50:13Z</time></trkpt><trkpt lat="42.935658525070636" lon="140.50491844748797"><ele>539.8463515350595</ele><time>2022-02-13T02:50:50Z</time></trkpt><trkpt lat="42.93548971596332" lon="140.50502141642315"><ele>542.748890905641</ele><time>2022-02-13T02:51:26Z</time></trkpt><trkpt lat="42.93531041262408" lon="140.50506265478955"><ele>547.5730653097853</ele><time>2022-02-13T02:52:09Z</time></trkpt><trkpt lat="42.93514501527059" lon="140.50516424329035"><ele>552.984822225757</ele><time>2022-02-13T02:52:46Z</time></trkpt><trkpt lat="42.934997423724944" lon="140.50531747312908"><ele>557.8662924673408</ele><time>2022-02-13T02:53:48Z</time></trkpt><trkpt lat="42.934820395383134" lon="140.50536978928972"><ele>562.2744142916054</ele><time>2022-02-13T02:54:35Z</time></trkpt><trkpt lat="42.9346576669642" lon="140.5054760416989"><ele>567.4564307639375</ele><time>2022-02-13T02:55:16Z</time></trkpt><trkpt lat="42.93447263889433" lon="140.50547311902974"><ele>572.5641976334155</ele><time>2022-02-13T02:55:48Z</time></trkpt><trkpt lat="42.93435449170998" lon="140.50565934608824"><ele>579.1850318880752</ele><time>2022-02-13T02:56:47Z</time></trkpt><trkpt lat="42.934189451318694" lon="140.50555377675863"><ele>585.1195789454505</ele><time>2022-02-13T02:57:56Z</time></trkpt><trkpt lat="42.934008885744184" lon="140.50558404525881"><ele>593.0924861412495</ele><time>2022-02-13T03:00:40Z</time></trkpt><trkpt lat="42.93382057344354" lon="140.50552142519356"><ele>600.7028982331976</ele><time>2022-02-13T03:01:32Z</time></trkpt><trkpt lat="42.93370321984526" lon="140.50572362112302"><ele>607.5532453237101</ele><time>2022-02-13T03:02:26Z</time></trkpt><trkpt lat="42.93352228662672" lon="140.50570275339632"><ele>610.3757799034938</ele><time>2022-02-13T03:03:16Z</time></trkpt><trkpt lat="42.93335740790376" lon="140.50560366574686"><ele>613.9146454669535</ele><time>2022-02-13T03:03:59Z</time></trkpt><trkpt lat="42.93330182393862" lon="140.50584476005656"><ele>620.6592201953754</ele><time>2022-02-13T03:04:50Z</time></trkpt><trkpt lat="42.933166409130344" lon="140.50601016046795"><ele>626.8744267951697</ele><time>2022-02-13T03:05:46Z</time></trkpt><trkpt lat="42.93302499516571" lon="140.50616782677784"><ele>633.8193653104827</ele><time>2022-02-13T03:06:35Z</time></trkpt><trkpt lat="42.932856451098075" lon="140.5062651320032"><ele>638.1056972602382</ele><time>2022-02-13T03:07:27Z</time></trkpt><trkpt lat="42.932685534160875" lon="140.5063437346276"><ele>644.5008916500956</ele><time>2022-02-13T03:11:11Z</time></trkpt><trkpt lat="42.93251356096189" lon="140.50642686310232"><ele>650.5057691214606</ele><time>2022-02-13T03:11:40Z</time></trkpt><trkpt lat="42.932337702874555" lon="140.50633754256094"><ele>658.7251498252153</ele><time>2022-02-13T03:12:40Z</time></trkpt><trkpt lat="42.93218738733211" lon="140.50618479480323"><ele>664.3637865372002</ele><time>2022-02-13T03:13:52Z</time></trkpt><trkpt lat="42.93207894202221" lon="140.50638843564022"><ele>668.9104770123959</ele><time>2022-02-13T03:15:09Z</time></trkpt><trkpt lat="42.9319075969184" lon="140.5064643333914"><ele>677.2187395971268</ele><time>2022-02-13T03:17:08Z</time></trkpt><trkpt lat="42.93175032242402" lon="140.50634484591146"><ele>681.6288424460217</ele><time>2022-02-13T03:18:15Z</time></trkpt><trkpt lat="42.931571349499265" lon="140.50639229951602"><ele>683.8674459354952</ele><time>2022-02-13T03:21:54Z</time></trkpt><trkpt lat="42.93138702673893" lon="140.50642742031334"><ele>691.3880814043805</ele><time>2022-02-13T03:23:48Z</time></trkpt><trkpt lat="42.93120311315116" lon="140.50642885743903"><ele>692.1355320895091</ele><time>2022-02-13T03:24:16Z</time></trkpt><trkpt lat="42.931057950571855" lon="140.50658186793711"><ele>696.7441366193816</ele><time>2022-02-13T03:25:04Z</time></trkpt><trkpt lat="42.930875890533386" lon="140.50659791875978"><ele>702.4002497987822</ele><time>2022-02-13T03:25:58Z</time></trkpt><trkpt lat="42.93083496356314" lon="140.50683719547433"><ele>712.8240442806855</ele><time>2022-02-13T03:27:24Z</time></trkpt><trkpt lat="42.930871563120775" lon="140.50707785687536"><ele>718.5285405414179</ele><time>2022-02-13T03:28:11Z</time></trkpt><trkpt lat="42.930702431224724" lon="140.50699066838465"><ele>720.1951741324738</ele><time>2022-02-13T03:29:04Z</time></trkpt><trkpt lat="42.93051985377128" lon="140.50700062780905"><ele>725.3387142019346</ele><time>2022-02-13T03:31:30Z</time></trkpt><trkpt lat="42.930340625872255" lon="140.50703499944066"><ele>731.4746368993074</ele><time>2022-02-13T03:32:04Z</time></trkpt><trkpt lat="42.930446392902006" lon="140.50724116508312"><ele>739.3249600399286</ele><time>2022-02-13T03:32:53Z</time></trkpt><trkpt lat="42.93032716683986" lon="140.50742838103926"><ele>746.5375110553578</ele><time>2022-02-13T03:34:10Z</time></trkpt><trkpt lat="42.93015503666007" lon="140.5075304133906"><ele>751.4463005028665</ele><time>2022-02-13T03:36:21Z</time></trkpt><trkpt lat="42.93024380858028" lon="140.50774378731253"><ele>762.1304259030148</ele><time>2022-02-13T03:38:00Z</time></trkpt><trkpt lat="42.93010433453798" lon="140.50790557867907"><ele>767.9323750343174</ele><time>2022-02-13T03:39:40Z</time></trkpt><trkpt lat="42.92993931083901" lon="140.50800515051455"><ele>774.3796945000067</ele><time>2022-02-13T03:40:55Z</time></trkpt><trkpt lat="42.92977096782208" lon="140.50791053020453"><ele>776.7835536068305</ele><time>2022-02-13T03:41:40Z</time></trkpt><trkpt lat="42.92959696407619" lon="140.50797545058714"><ele>779.601753603667</ele><time>2022-02-13T03:42:30Z</time></trkpt><trkpt lat="42.929572705643146" lon="140.50822101607062"><ele>787.2217517588288</ele><time>2022-02-13T03:43:20Z</time></trkpt><trkpt lat="42.9293829758764" lon="140.50820895122615"><ele>791.7016178173944</ele><time>2022-02-13T03:46:04Z</time></trkpt><trkpt lat="42.929224210327625" lon="140.50808762604981"><ele>794.6685329154134</ele><time>2022-02-13T03:46:44Z</time></trkpt><trkpt lat="42.929048738004006" lon="140.50802450193828"><ele>798.8239958537742</ele><time>2022-02-13T03:47:52Z</time></trkpt><trkpt lat="42.92922752001119" lon="140.50807652473242"><ele>794.3505673576146</ele><time>2022-02-13T03:50:28Z</time></trkpt><trkpt lat="42.92941277263999" lon="140.50806017653667"><ele>790.4439449831843</ele><time>2022-02-13T04:07:07Z</time></trkpt><trkpt lat="42.92955418817048" lon="140.50789232276568"><ele>781.2271960424259</ele><time>2022-02-13T04:07:13Z</time></trkpt><trkpt lat="42.92967627425376" lon="140.50770578133353"><ele>774.2120715118945</ele><time>2022-02-13T04:07:20Z</time></trkpt><trkpt lat="42.92991459472484" lon="140.50765424219776"><ele>762.7447933824733</ele><time>2022-02-13T04:07:24Z</time></trkpt><trkpt lat="42.93009157030586" lon="140.50753144443505"><ele>754.6939190141857</ele><time>2022-02-13T04:07:28Z</time></trkpt><trkpt lat="42.93027411565282" lon="140.50743203471828"><ele>750.4283794881776</ele><time>2022-02-13T04:08:13Z</time></trkpt><trkpt lat="42.93046699948343" lon="140.50736726762565"><ele>741.3198273014277</ele><time>2022-02-13T04:08:17Z</time></trkpt><trkpt lat="42.93041329633957" lon="140.5070960981771"><ele>733.8770050350577</ele><time>2022-02-13T04:08:22Z</time></trkpt><trkpt lat="42.93061297055988" lon="140.5070274517859"><ele>725.4469822561368</ele><time>2022-02-13T04:08:27Z</time></trkpt><trkpt lat="42.930769550393904" lon="140.50690006544542"><ele>713.5838445452973</ele><time>2022-02-13T04:08:57Z</time></trkpt><trkpt lat="42.93077699044327" lon="140.5066435373816"><ele>704.6295234207064</ele><time>2022-02-13T04:09:03Z</time></trkpt><trkpt lat="42.93094082030873" lon="140.5064839247878"><ele>700.21433347743</ele><time>2022-02-13T04:09:46Z</time></trkpt><trkpt lat="42.93085231097121" lon="140.50622237408052"><ele>688.6144479792565</ele><time>2022-02-13T04:09:51Z</time></trkpt><trkpt lat="42.930881969801355" lon="140.5059690573157"><ele>674.1592819495127</ele><time>2022-02-13T04:09:56Z</time></trkpt><trkpt lat="42.93095727390073" lon="140.50569802401483"><ele>669.638349420391</ele><time>2022-02-13T04:10:10Z</time></trkpt><trkpt lat="42.93111246604592" lon="140.50556016776233"><ele>666.4173807287589</ele><time>2022-02-13T04:10:13Z</time></trkpt><trkpt lat="42.931146877210224" lon="140.50529170821954"><ele>663.9483481822535</ele><time>2022-02-13T04:10:17Z</time></trkpt><trkpt lat="42.93117022195082" lon="140.50504712975834"><ele>657.9387677768245</ele><time>2022-02-13T04:10:30Z</time></trkpt><trkpt lat="42.93116376023327" lon="140.5047985837949"><ele>641.9914146466181</ele><time>2022-02-13T04:10:36Z</time></trkpt><trkpt lat="42.93128344966783" lon="140.5045701132299"><ele>642.4502742802724</ele><time>2022-02-13T04:11:01Z</time></trkpt><trkpt lat="42.93130936968288" lon="140.50432364869087"><ele>631.8630361948162</ele><time>2022-02-13T04:11:04Z</time></trkpt><trkpt lat="42.93138138410336" lon="140.5040804089808"><ele>617.4507909910753</ele><time>2022-02-13T04:14:13Z</time></trkpt><trkpt lat="42.931397663043484" lon="140.50382088053036"><ele>605.2002757769078</ele><time>2022-02-13T04:14:18Z</time></trkpt><trkpt lat="42.931545612133434" lon="140.50362094371047"><ele>600.8174761710688</ele><time>2022-02-13T04:14:22Z</time></trkpt><trkpt lat="42.9316014945399" lon="140.50338141846737"><ele>592.9110002890229</ele><time>2022-02-13T04:14:26Z</time></trkpt><trkpt lat="42.93179037226659" lon="140.50331199169509"><ele>585.9660937823355</ele><time>2022-02-13T04:14:30Z</time></trkpt><trkpt lat="42.931968082685934" lon="140.5032424355092"><ele>582.6363795762882</ele><time>2022-02-13T04:14:36Z</time></trkpt><trkpt lat="42.932194773040315" lon="140.50316509523003"><ele>576.6571329189464</ele><time>2022-02-13T04:19:56Z</time></trkpt><trkpt lat="42.93237871100096" lon="140.50318731638987"><ele>571.9072729228064</ele><time>2022-02-13T04:19:59Z</time></trkpt><trkpt lat="42.9326100786225" lon="140.50319737822682"><ele>566.0637673800811</ele><time>2022-02-13T04:20:04Z</time></trkpt><trkpt lat="42.93281164502457" lon="140.50317953355867"><ele>563.8290134826675</ele><time>2022-02-13T04:20:09Z</time></trkpt><trkpt lat="42.932991583499515" lon="140.50310234469796"><ele>562.5085213994607</ele><time>2022-02-13T04:20:34Z</time></trkpt><trkpt lat="42.933205014549976" lon="140.50301085908413"><ele>559.6490944381803</ele><time>2022-02-13T04:20:40Z</time></trkpt><trkpt lat="42.933417719855655" lon="140.50293694209913"><ele>552.7891862140968</ele><time>2022-02-13T04:20:48Z</time></trkpt><trkpt lat="42.9336001055193" lon="140.50289659810176"><ele>549.882211079821</ele><time>2022-02-13T04:20:51Z</time></trkpt><trkpt lat="42.93378054803596" lon="140.50289793931012"><ele>549.5224016234279</ele><time>2022-02-13T04:21:14Z</time></trkpt><trkpt lat="42.93395609628881" lon="140.5029581037962"><ele>547.2334948228672</ele><time>2022-02-13T04:22:06Z</time></trkpt><trkpt lat="42.93414826253229" lon="140.50298579440656"><ele>543.8930311156437</ele><time>2022-02-13T04:22:12Z</time></trkpt><trkpt lat="42.93433737217686" lon="140.5029839544411"><ele>543.2588081657887</ele><time>2022-02-13T04:23:00Z</time></trkpt><trkpt lat="42.934516114013825" lon="140.50302749996553"><ele>541.9806982176378</ele><time>2022-02-13T04:23:23Z</time></trkpt><trkpt lat="42.93469850091377" lon="140.50308793601766"><ele>539.4365418842062</ele><time>2022-02-13T04:25:09Z</time></trkpt><trkpt lat="42.934883253963676" lon="140.50309678272"><ele>535.8230477105826</ele><time>2022-02-13T04:25:19Z</time></trkpt><trkpt lat="42.93506612471069" lon="140.50303594002384"><ele>536.5597929013893</ele><time>2022-02-13T04:25:32Z</time></trkpt><trkpt lat="42.93525988154703" lon="140.50301771361927"><ele>533.9694035053253</ele><time>2022-02-13T04:25:41Z</time></trkpt><trkpt lat="42.93543472724067" lon="140.5031054002229"><ele>532.299179174006</ele><time>2022-02-13T04:26:42Z</time></trkpt><trkpt lat="42.935616584407555" lon="140.50321722572795"><ele>526.7054690551013</ele><time>2022-02-13T04:26:50Z</time></trkpt><trkpt lat="42.93582465451134" lon="140.50326202621258"><ele>525.924553363584</ele><time>2022-02-13T04:26:54Z</time></trkpt><trkpt lat="42.93599575804486" lon="140.50334972992405"><ele>520.1034426214173</ele><time>2022-02-13T04:27:01Z</time></trkpt><trkpt lat="42.93616490441546" lon="140.50345163137723"><ele>522.4354445151985</ele><time>2022-02-13T04:29:13Z</time></trkpt><trkpt lat="42.93629862094661" lon="140.5036198651356"><ele>521.5033270297572</ele><time>2022-02-13T04:30:59Z</time></trkpt><trkpt lat="42.93642297056797" lon="140.5038030486222"><ele>524.4950901828706</ele><time>2022-02-13T04:31:28Z</time></trkpt><trkpt lat="42.93655227431482" lon="140.50398814957526"><ele>525.7379251113161</ele><time>2022-02-13T04:32:00Z</time></trkpt><trkpt lat="42.93673643229412" lon="140.50406434625225"><ele>523.2645589224994</ele><time>2022-02-13T04:33:04Z</time></trkpt><trkpt lat="42.93692053276798" lon="140.50407636205713"><ele>517.3502571154386</ele><time>2022-02-13T04:33:14Z</time></trkpt><trkpt lat="42.93709387329653" lon="140.5041774296083"><ele>517.0060067819431</ele><time>2022-02-13T04:35:08Z</time></trkpt><trkpt lat="42.937280239548876" lon="140.50400831505738"><ele>511.9097836147994</ele><time>2022-02-13T04:35:14Z</time></trkpt><trkpt lat="42.93751194574358" lon="140.5039591246526"><ele>503.55036654789</ele><time>2022-02-13T04:35:19Z</time></trkpt><trkpt lat="42.93771294208756" lon="140.5039350129116"><ele>499.4126183949411</ele><time>2022-02-13T04:35:22Z</time></trkpt><trkpt lat="42.937858417769164" lon="140.50375349595163"><ele>497.0162257719785</ele><time>2022-02-13T04:35:26Z</time></trkpt><trkpt lat="42.938064596433605" lon="140.5036710322621"><ele>491.50258866511285</ele><time>2022-02-13T04:37:26Z</time></trkpt><trkpt lat="42.93823149676315" lon="140.5038604604744"><ele>487.27489859145135</ele><time>2022-02-13T04:41:47Z</time></trkpt><trkpt lat="42.93837796863698" lon="140.5040928528136"><ele>483.08267070446163</ele><time>2022-02-13T04:41:51Z</time></trkpt><trkpt lat="42.93857637332635" lon="140.50426232608692"><ele>474.80289198551327</ele><time>2022-02-13T04:41:57Z</time></trkpt><trkpt lat="42.938663021671864" lon="140.50449360874947"><ele>468.7913872040808</ele><time>2022-02-13T04:42:02Z</time></trkpt><trkpt lat="42.93871088742693" lon="140.50477416309212"><ele>467.07671994622797</ele><time>2022-02-13T04:42:07Z</time></trkpt><trkpt lat="42.938892072366365" lon="140.5048842180722"><ele>457.2561018252745</ele><time>2022-02-13T04:42:11Z</time></trkpt><trkpt lat="42.93904494225346" lon="140.50502268919664"><ele>452.965826545842</ele><time>2022-02-13T04:42:15Z</time></trkpt><trkpt lat="42.939177021892284" lon="140.5052386156914"><ele>445.94243299681693</ele><time>2022-02-13T04:42:19Z</time></trkpt><trkpt lat="42.939348651939035" lon="140.5054629652791"><ele>438.22880710009485</ele><time>2022-02-13T04:42:23Z</time></trkpt><trkpt lat="42.93953734900579" lon="140.5055664771608"><ele>433.2961989957839</ele><time>2022-02-13T04:42:27Z</time></trkpt><trkpt lat="42.93973656726201" lon="140.50570644342284"><ele>427.8792946739122</ele><time>2022-02-13T04:42:52Z</time></trkpt><trkpt lat="42.93991505893389" lon="140.50585894907746"><ele>418.240745941177</ele><time>2022-02-13T04:42:58Z</time></trkpt><trkpt lat="42.940073641067805" lon="140.50605368303945"><ele>415.295247932896</ele><time>2022-02-13T04:43:05Z</time></trkpt><trkpt lat="42.94024957832499" lon="140.5061647514192"><ele>410.951415611431</ele><time>2022-02-13T04:43:10Z</time></trkpt><trkpt lat="42.94045543924626" lon="140.5061674359598"><ele>406.7291026050225</ele><time>2022-02-13T04:43:52Z</time></trkpt><trkpt lat="42.94065461067654" lon="140.50633774219838"><ele>397.97928452305496</ele><time>2022-02-13T04:43:56Z</time></trkpt><trkpt lat="42.94083441827847" lon="140.50640447158787"><ele>390.76950953155756</ele><time>2022-02-13T04:43:59Z</time></trkpt><trkpt lat="42.940911191652624" lon="140.50666552486484"><ele>386.4594417139888</ele><time>2022-02-13T04:44:02Z</time></trkpt><trkpt lat="42.94100104894139" lon="140.50695468343125"><ele>380.2507798951119</ele><time>2022-02-13T04:44:06Z</time></trkpt><trkpt lat="42.94117094828025" lon="140.50712643262986"><ele>375.3358040722087</ele><time>2022-02-13T04:44:09Z</time></trkpt><trkpt lat="42.941266745229605" lon="140.50733956830663"><ele>373.5368411792442</ele><time>2022-02-13T04:44:12Z</time></trkpt><trkpt lat="42.941345954716446" lon="140.5075774043656"><ele>372.6703605791554</ele><time>2022-02-13T04:44:17Z</time></trkpt><trkpt lat="42.94138296349202" lon="140.50782601159207"><ele>373.1737671000883</ele><time>2022-02-13T04:44:47Z</time></trkpt><trkpt lat="42.94139277664772" lon="140.50808867246548"><ele>371.87432499509305</ele><time>2022-02-13T04:45:15Z</time></trkpt><trkpt lat="42.94136465375884" lon="140.5083535317527"><ele>372.48048024997115</ele><time>2022-02-13T04:45:31Z</time></trkpt><trkpt lat="42.94138080405882" lon="140.50861243817394"><ele>370.76491674687713</ele><time>2022-02-13T04:45:59Z</time></trkpt><trkpt lat="42.941481155820775" lon="140.50887258442793"><ele>366.5482288599014</ele><time>2022-02-13T04:46:03Z</time></trkpt><trkpt lat="42.94165939477227" lon="140.50905029182601"><ele>362.6114326585084</ele><time>2022-02-13T04:46:06Z</time></trkpt><trkpt lat="42.941842411250285" lon="140.50917080585097"><ele>356.98274106159806</ele><time>2022-02-13T04:46:09Z</time></trkpt><trkpt lat="42.9420325750671" lon="140.50931231389973"><ele>354.3512800289318</ele><time>2022-02-13T04:46:12Z</time></trkpt><trkpt lat="42.942225416316695" lon="140.50943427146768"><ele>352.11241449415684</ele><time>2022-02-13T04:46:16Z</time></trkpt><trkpt lat="42.94241186075776" lon="140.50964963004807"><ele>346.8145993705839</ele><time>2022-02-13T04:46:20Z</time></trkpt><trkpt lat="42.942556297318724" lon="140.50989984418234"><ele>343.16263496875763</ele><time>2022-02-13T04:46:23Z</time></trkpt><trkpt lat="42.942700846877706" lon="140.51007260375076"><ele>340.413739817217</ele><time>2022-02-13T04:46:26Z</time></trkpt><trkpt lat="42.942880497608144" lon="140.5102648696632"><ele>334.60075160022825</ele><time>2022-02-13T04:46:30Z</time></trkpt><trkpt lat="42.943044568649775" lon="140.510403293311"><ele>327.466097404249</ele><time>2022-02-13T04:46:33Z</time></trkpt><trkpt lat="42.94316766611758" lon="140.51062124020336"><ele>320.6184899173677</ele><time>2022-02-13T04:46:36Z</time></trkpt><trkpt lat="42.94328763861138" lon="140.51084589314635"><ele>313.89293665252626</ele><time>2022-02-13T04:46:39Z</time></trkpt><trkpt lat="42.94344843772454" lon="140.51103399233278"><ele>306.2255523726344</ele><time>2022-02-13T04:46:42Z</time></trkpt><trkpt lat="42.943556353783144" lon="140.5113096862738"><ele>300.7501760488376</ele><time>2022-02-13T04:46:46Z</time></trkpt><trkpt lat="42.943727216330714" lon="140.5114170407446"><ele>293.4939565900713</ele><time>2022-02-13T04:46:49Z</time></trkpt><trkpt lat="42.94390875208687" lon="140.51153240807264"><ele>287.3977762265131</ele><time>2022-02-13T04:46:52Z</time></trkpt><trkpt lat="42.94408069342132" lon="140.51161396421017"><ele>279.77834398299456</ele><time>2022-02-13T04:46:56Z</time></trkpt><trkpt lat="42.94420429836653" lon="140.51184035122364"><ele>273.4193737320602</ele><time>2022-02-13T04:47:00Z</time></trkpt><trkpt lat="42.94440153199687" lon="140.51196983898245"><ele>270.98712466005236</ele><time>2022-02-13T04:47:03Z</time></trkpt><trkpt lat="42.944564130558675" lon="140.5121909308033"><ele>267.1092829015106</ele><time>2022-02-13T04:47:06Z</time></trkpt><trkpt lat="42.94475243651569" lon="140.51226903170038"><ele>264.26675849966705</ele><time>2022-02-13T04:47:10Z</time></trkpt><trkpt lat="42.94491424211395" lon="140.51243794438838"><ele>259.8849377222359</ele><time>2022-02-13T04:47:47Z</time></trkpt><trkpt lat="42.94506411119223" lon="140.51258169964836"><ele>255.41352630313486</ele><time>2022-02-13T04:47:51Z</time></trkpt><trkpt lat="42.945250254783616" lon="140.5127943769437"><ele>248.21493023913354</ele><time>2022-02-13T04:47:55Z</time></trkpt><trkpt lat="42.945431978479675" lon="140.5128075452411"><ele>244.52270930819213</ele><time>2022-02-13T04:47:58Z</time></trkpt><trkpt lat="42.94564126491539" lon="140.51290886934882"><ele>239.07683590147644</ele><time>2022-02-13T04:48:02Z</time></trkpt><trkpt lat="42.94580980881811" lon="140.51302796196276"><ele>235.81185051519424</ele><time>2022-02-13T04:48:05Z</time></trkpt><trkpt lat="42.94599560224346" lon="140.51307701905705"><ele>232.06904164422303</ele><time>2022-02-13T04:48:08Z</time></trkpt><trkpt lat="42.94619035317302" lon="140.51323609878236"><ele>229.31707079336047</ele><time>2022-02-13T04:48:11Z</time></trkpt><trkpt lat="42.94637642510109" lon="140.51339095664906"><ele>227.13858225755394</ele><time>2022-02-13T04:48:14Z</time></trkpt><trkpt lat="42.94651137537021" lon="140.51360732599397"><ele>225.81881900690496</ele><time>2022-02-13T04:48:17Z</time></trkpt><trkpt lat="42.946665663331025" lon="140.51382042145954"><ele>222.997943488881</ele><time>2022-02-13T04:48:21Z</time></trkpt><trkpt lat="42.94677324048855" lon="140.51403094243838"><ele>221.5795289967209</ele><time>2022-02-13T04:48:30Z</time></trkpt><trkpt lat="42.94685954882368" lon="140.51424668874682"><ele>218.490948099643</ele><time>2022-02-13T04:48:40Z</time></trkpt><trkpt lat="42.94692095018175" lon="140.5145150187615"><ele>213.84645825531334</ele><time>2022-02-13T04:48:48Z</time></trkpt><trkpt lat="42.94699781055831" lon="140.51474474135676"><ele>212.1021896386519</ele><time>2022-02-13T04:48:52Z</time></trkpt><trkpt lat="42.946811775007134" lon="140.51467374695915"><ele>212.43536206707358</ele><time>2022-02-13T05:06:12Z</time></trkpt><trkpt lat="42.946987746747745" lon="140.5147335894383"><ele>209.00370167382061</ele><time>2022-02-13T05:07:42Z</time></trkpt><trkpt lat="42.94697252758587" lon="140.51448276898745"><ele>210.3643548414111</ele><time>2022-02-13T05:08:17Z</time></trkpt><trkpt lat="42.94707171415203" lon="140.51427611995487"><ele>210.31975357793272</ele><time>2022-02-13T05:12:00Z</time></trkpt><trkpt lat="42.94719881251065" lon="140.514097284611"><ele>209.07491633109748</ele><time>2022-02-13T05:12:17Z</time></trkpt><trkpt lat="42.947307489371" lon="140.51389876394174"><ele>207.64399830810726</ele><time>2022-02-13T05:12:34Z</time></trkpt><trkpt lat="42.947416977737525" lon="140.5136965047035"><ele>206.56682584621012</ele><time>2022-02-13T05:12:52Z</time></trkpt><trkpt lat="42.94738425106833" lon="140.5134436629176"><ele>207.34949107002467</ele><time>2022-02-13T05:13:13Z</time></trkpt><trkpt lat="42.94745615228726" lon="140.51321654881377"><ele>203.64209181349725</ele><time>2022-02-13T05:13:32Z</time></trkpt><trkpt lat="42.94748374450489" lon="140.51297154348137"><ele>205.92232316266745</ele><time>2022-02-13T05:13:47Z</time></trkpt><trkpt lat="42.94739601727005" lon="140.51275276998783"><ele>210.15454651787877</ele><time>2022-02-13T05:14:12Z</time></trkpt><trkpt lat="42.94723438111851" lon="140.512644307867"><ele>214.32927404809743</ele><time>2022-02-13T05:14:39Z</time></trkpt><trkpt lat="42.94706453365897" lon="140.5125441021157"><ele>216.6006608651951</ele><time>2022-02-13T05:15:26Z</time></trkpt><trkpt lat="42.9468881774714" lon="140.51259818163877"><ele>218.94180278480053</ele><time>2022-02-13T05:15:46Z</time></trkpt><trkpt lat="42.94670896730601" lon="140.51255810433136"><ele>223.11968930717558</ele><time>2022-02-13T05:16:08Z</time></trkpt><trkpt lat="42.9465630247982" lon="140.5127105434543"><ele>226.68919047247618</ele><time>2022-02-13T05:16:32Z</time></trkpt><trkpt lat="42.94638216235293" lon="140.51273407919962"><ele>228.11239915527403</ele><time>2022-02-13T05:16:51Z</time></trkpt><trkpt lat="42.946202688424144" lon="140.51271270703546"><ele>230.75301115773618</ele><time>2022-02-13T05:17:09Z</time></trkpt><trkpt lat="42.9460194048014" lon="140.5126876062895"><ele>234.25506546907127</ele><time>2022-02-13T05:17:31Z</time></trkpt><trkpt lat="42.945893061241044" lon="140.51250849691482"><ele>234.98350900691003</ele><time>2022-02-13T05:17:51Z</time></trkpt><trkpt lat="42.94571337590279" lon="140.5124628412714"><ele>238.6635128809139</ele><time>2022-02-13T05:18:13Z</time></trkpt><trkpt lat="42.945580574336525" lon="140.5122758334661"><ele>243.81955145765096</ele><time>2022-02-13T05:18:37Z</time></trkpt><trkpt lat="42.94548829462604" lon="140.5120590258526"><ele>244.61531744990498</ele><time>2022-02-13T05:19:17Z</time></trkpt><trkpt lat="42.94531498624372" lon="140.51196590550057"><ele>252.2895877333358</ele><time>2022-02-13T05:19:42Z</time></trkpt><trkpt lat="42.94524842660711" lon="140.5117311050763"><ele>256.1062155868858</ele><time>2022-02-13T05:20:09Z</time></trkpt><trkpt lat="42.94509607292993" lon="140.51186397039953"><ele>262.7002822738141</ele><time>2022-02-13T05:20:42Z</time></trkpt><trkpt lat="42.944912068465094" lon="140.511881953023"><ele>266.5738908359781</ele><time>2022-02-13T05:21:05Z</time></trkpt><trkpt lat="42.94482640545009" lon="140.51164653212774"><ele>266.28411119710654</ele><time>2022-02-13T05:21:23Z</time></trkpt><trkpt lat="42.94471689541367" lon="140.51144088164446"><ele>270.5832818336785</ele><time>2022-02-13T05:21:46Z</time></trkpt><trkpt lat="42.94454106498942" lon="140.5113582528113"><ele>272.8853931128979</ele><time>2022-02-13T05:22:11Z</time></trkpt><trkpt lat="42.94441547126717" lon="140.51117568020408"><ele>278.6226273905486</ele><time>2022-02-13T05:23:01Z</time></trkpt><trkpt lat="42.94423819324629" lon="140.51124790747969"><ele>280.79663063492626</ele><time>2022-02-13T05:24:22Z</time></trkpt><trkpt lat="42.9440701524481" lon="140.51112893031376"><ele>288.5931146023795</ele><time>2022-02-13T05:24:40Z</time></trkpt><trkpt lat="42.94403879057102" lon="140.51087947763986"><ele>288.5057059926912</ele><time>2022-02-13T05:25:07Z</time></trkpt><trkpt lat="42.94392212570179" lon="140.5106798352129"><ele>293.8450664030388</ele><time>2022-02-13T05:25:37Z</time></trkpt><trkpt lat="42.9437800421592" lon="140.51051680206817"><ele>301.72867173701525</ele><time>2022-02-13T05:26:29Z</time></trkpt><trkpt lat="42.94365500300476" lon="140.51033856471082"><ele>304.8374656951055</ele><time>2022-02-13T05:26:58Z</time></trkpt><trkpt lat="42.943482311638526" lon="140.510412591962"><ele>312.00938833877444</ele><time>2022-02-13T05:27:42Z</time></trkpt><trkpt lat="42.943336881438626" lon="140.51056751815966"><ele>317.5609447546303</ele><time>2022-02-13T05:28:10Z</time></trkpt><trkpt lat="42.94322547274357" lon="140.51037093980162"><ele>320.8204280594364</ele><time>2022-02-13T05:28:48Z</time></trkpt><trkpt lat="42.94309283091984" lon="140.51020380720678"><ele>327.10892726574093</ele><time>2022-02-13T05:29:32Z</time></trkpt><trkpt lat="42.942944079287145" lon="140.5100596655549"><ele>333.0879632849246</ele><time>2022-02-13T05:30:03Z</time></trkpt><trkpt lat="42.94279974404334" lon="140.5099075887057"><ele>336.2050635544583</ele><time>2022-02-13T05:30:32Z</time></trkpt><trkpt lat="42.942653894860904" lon="140.50976307454255"><ele>339.5182786937803</ele><time>2022-02-13T05:31:00Z</time></trkpt><trkpt lat="42.942496221895446" lon="140.509636140821"><ele>340.75453630648553</ele><time>2022-02-13T05:31:42Z</time></trkpt><trkpt lat="42.94235753683553" lon="140.50947903624464"><ele>347.1193405520171</ele><time>2022-02-13T05:32:36Z</time></trkpt><trkpt lat="42.94221114637201" lon="140.5093320098726"><ele>351.00937521643937</ele><time>2022-02-13T05:33:00Z</time></trkpt><trkpt lat="42.942057209293026" lon="140.50919832314008"><ele>354.31405691523105</ele><time>2022-02-13T05:33:26Z</time></trkpt><trkpt lat="42.941905206580145" lon="140.5090554734124"><ele>356.23007626552135</ele><time>2022-02-13T05:33:48Z</time></trkpt><trkpt lat="42.941764177780826" lon="140.50888761107916"><ele>360.1919171875343</ele><time>2022-02-13T05:34:11Z</time></trkpt><trkpt lat="42.94169744068298" lon="140.5086497965625"><ele>364.95383585523814</ele><time>2022-02-13T05:34:37Z</time></trkpt><trkpt lat="42.94162976022337" lon="140.50841971792033"><ele>366.5025889026001</ele><time>2022-02-13T05:35:02Z</time></trkpt><trkpt lat="42.94152888195985" lon="140.50820432238308"><ele>369.04699024464935</ele><time>2022-02-13T05:35:22Z</time></trkpt><trkpt lat="42.94139387124111" lon="140.50803027103257"><ele>370.21871636249125</ele><time>2022-02-13T05:35:42Z</time></trkpt><trkpt lat="42.94132035551385" lon="140.50780539072912"><ele>371.8821735996753</ele><time>2022-02-13T05:36:25Z</time></trkpt><trkpt lat="42.94114963550695" lon="140.5077118700669"><ele>370.85358673799783</ele><time>2022-02-13T05:38:27Z</time></trkpt><trkpt lat="42.94098845695711" lon="140.50758774388297"><ele>373.1979421908036</ele><time>2022-02-13T05:38:48Z</time></trkpt><trkpt lat="42.9408213840124" lon="140.5074752570548"><ele>377.09116053115577</ele><time>2022-02-13T05:39:13Z</time></trkpt><trkpt lat="42.94068370467575" lon="140.50730813354176"><ele>379.3151093106717</ele><time>2022-02-13T05:39:36Z</time></trkpt><trkpt lat="42.94053581173514" lon="140.5071681454313"><ele>384.71026647184044</ele><time>2022-02-13T05:40:12Z</time></trkpt><trkpt lat="42.940379796842755" lon="140.5070455089369"><ele>392.274382956326</ele><time>2022-02-13T05:40:49Z</time></trkpt><trkpt lat="42.940209163820505" lon="140.50695796142605"><ele>400.2073479751125</ele><time>2022-02-13T05:41:31Z</time></trkpt><trkpt lat="42.94005694990824" lon="140.5068240489914"><ele>403.4684329777956</ele><time>2022-02-13T05:42:14Z</time></trkpt><trkpt lat="42.939893026551665" lon="140.50670137640031"><ele>407.3958510030061</ele><time>2022-02-13T05:42:42Z</time></trkpt><trkpt lat="42.939749512035675" lon="140.50655075365432"><ele>412.0456866165623</ele><time>2022-02-13T05:43:19Z</time></trkpt><trkpt lat="42.93957071605882" lon="140.5065184780347"><ele>422.8458367623389</ele><time>2022-02-13T05:44:06Z</time></trkpt><trkpt lat="42.93939292468515" lon="140.50647219627766"><ele>428.30773932673037</ele><time>2022-02-13T05:44:42Z</time></trkpt><trkpt lat="42.939390301707576" lon="140.50622082439466"><ele>432.07696453947574</ele><time>2022-02-13T05:45:17Z</time></trkpt><trkpt lat="42.93920217165921" lon="140.50617823542476"><ele>438.8503052033484</ele><time>2022-02-13T05:45:59Z</time></trkpt><trkpt lat="42.939109240603344" lon="140.50596621536656"><ele>444.8291991967708</ele><time>2022-02-13T05:46:50Z</time></trkpt><trkpt lat="42.938925964382406" lon="140.50593526717708"><ele>449.4605182399973</ele><time>2022-02-13T05:47:34Z</time></trkpt><trkpt lat="42.93874486423658" lon="140.5058571409923"><ele>453.7882508132607</ele><time>2022-02-13T05:48:09Z</time></trkpt><trkpt lat="42.93858477365908" lon="140.50574337914358"><ele>458.72019977588207</ele><time>2022-02-13T05:48:44Z</time></trkpt><trkpt lat="42.938449537909065" lon="140.50557535455567"><ele>463.08087781630456</ele><time>2022-02-13T05:49:24Z</time></trkpt><trkpt lat="42.93827850983145" lon="140.50549114645747"><ele>472.60589872300625</ele><time>2022-02-13T05:50:03Z</time></trkpt><trkpt lat="42.93812186763205" lon="140.50536820188154"><ele>479.0531313121319</ele><time>2022-02-13T05:50:46Z</time></trkpt><trkpt lat="42.937953153447154" lon="140.50526716778066"><ele>486.0809432743117</ele><time>2022-02-13T05:51:31Z</time></trkpt><trkpt lat="42.93785730990272" lon="140.505050344786"><ele>489.37165621947497</ele><time>2022-02-13T05:52:08Z</time></trkpt><trkpt lat="42.93775296944323" lon="140.5048505215288"><ele>493.6676771910861</ele><time>2022-02-13T05:52:43Z</time></trkpt><trkpt lat="42.9375798614174" lon="140.50495039897547"><ele>501.4802127638832</ele><time>2022-02-13T05:53:19Z</time></trkpt><trkpt lat="42.937416068080104" lon="140.50483181016835"><ele>507.3296369770542</ele><time>2022-02-13T05:54:03Z</time></trkpt><trkpt lat="42.93726017074771" lon="140.50470255684758"><ele>514.9984601642936</ele><time>2022-02-13T05:54:48Z</time></trkpt><trkpt lat="42.93709757226252" lon="140.50458869622625"><ele>517.2403501402587</ele><time>2022-02-13T05:55:31Z</time></trkpt><trkpt lat="42.936920278374224" lon="140.50453783835906"><ele>517.6790698543191</ele><time>2022-02-13T05:56:02Z</time></trkpt><trkpt lat="42.93674012696265" lon="140.5045353397815"><ele>522.6241596760228</ele><time>2022-02-13T05:56:25Z</time></trkpt><trkpt lat="42.93656169710564" lon="140.50458337024935"><ele>527.0713462140411</ele><time>2022-02-13T05:56:54Z</time></trkpt><trkpt lat="42.936395093235255" lon="140.50469149277237"><ele>527.3742875233293</ele><time>2022-02-13T05:57:18Z</time></trkpt><trkpt lat="42.936205742540515" lon="140.50468015698053"><ele>532.9153965841979</ele><time>2022-02-13T05:57:45Z</time></trkpt><trkpt lat="42.93602262138596" lon="140.5047472032023"><ele>535.451991405338</ele><time>2022-02-13T05:58:10Z</time></trkpt><trkpt lat="42.9358489222272" lon="140.50481662163494"><ele>536.9201423441991</ele><time>2022-02-13T05:58:34Z</time></trkpt><trkpt lat="42.93567235229184" lon="140.5048899793044"><ele>538.7660317858681</ele><time>2022-02-13T05:59:01Z</time></trkpt><trkpt lat="42.935502519581114" lon="140.50498699430764"><ele>542.5392825296149</ele><time>2022-02-13T05:59:26Z</time></trkpt><trkpt lat="42.93532475515473" lon="140.50503898308327"><ele>547.0541813680902</ele><time>2022-02-13T05:59:54Z</time></trkpt><trkpt lat="42.935154151131194" lon="140.505121220966"><ele>551.9713186267763</ele><time>2022-02-13T06:00:26Z</time></trkpt><trkpt lat="42.93500143143251" lon="140.50526025024664"><ele>557.2378389146179</ele><time>2022-02-13T06:00:58Z</time></trkpt><trkpt lat="42.93482786348675" lon="140.50533411314018"><ele>560.699625316076</ele><time>2022-02-13T06:01:37Z</time></trkpt><trkpt lat="42.93467209264473" lon="140.5054629958844"><ele>565.8519960241392</ele><time>2022-02-13T06:02:10Z</time></trkpt><trkpt lat="42.93449041412169" lon="140.50547112283277"><ele>571.2585216294974</ele><time>2022-02-13T06:02:44Z</time></trkpt><trkpt lat="42.93433778959487" lon="140.5056109556245"><ele>578.9298075772822</ele><time>2022-02-13T06:03:30Z</time></trkpt><trkpt lat="42.934159370147704" lon="140.50555936196196"><ele>586.3887782283127</ele><time>2022-02-13T06:04:46Z</time></trkpt><trkpt lat="42.93397879385801" lon="140.50552558712795"><ele>592.8586466582492</ele><time>2022-02-13T06:05:27Z</time></trkpt><trkpt lat="42.93379627725998" lon="140.5054899666809"><ele>596.8487392356619</ele><time>2022-02-13T06:06:10Z</time></trkpt><trkpt lat="42.933691315626696" lon="140.5056972402122"><ele>606.559889594093</ele><time>2022-02-13T06:06:51Z</time></trkpt><trkpt lat="42.93351130209205" lon="140.50568199837184"><ele>609.9075629422441</ele><time>2022-02-13T06:07:48Z</time></trkpt><trkpt lat="42.93333802972749" lon="140.50559924339456"><ele>615.3123309267685</ele><time>2022-02-13T06:08:31Z</time></trkpt><trkpt lat="42.93330085264516" lon="140.5058483933157"><ele>621.9083851501346</ele><time>2022-02-13T06:09:07Z</time></trkpt><trkpt lat="42.93315057895136" lon="140.50599541409204"><ele>628.8651937413961</ele><time>2022-02-13T06:09:58Z</time></trkpt><trkpt lat="42.93301208720459" lon="140.50615764047745"><ele>634.6312295105308</ele><time>2022-02-13T06:10:32Z</time></trkpt><trkpt lat="42.932842106802894" lon="140.50624907193"><ele>639.5979913864285</ele><time>2022-02-13T06:11:13Z</time></trkpt><trkpt lat="42.932659877675135" lon="140.50631495090943"><ele>644.6952259186655</ele><time>2022-02-13T06:11:54Z</time></trkpt><trkpt lat="42.93248549420742" lon="140.50638966925953"><ele>651.7651728335768</ele><time>2022-02-13T06:12:32Z</time></trkpt><trkpt lat="42.932318591708835" lon="140.50629557217897"><ele>659.3609325615689</ele><time>2022-02-13T06:13:38Z</time></trkpt><trkpt lat="42.93217300209846" lon="140.5061487171159"><ele>665.1260377839208</ele><time>2022-02-13T06:14:13Z</time></trkpt><trkpt lat="42.932066456769896" lon="140.5063510499965"><ele>668.7099615130574</ele><time>2022-02-13T06:15:29Z</time></trkpt><trkpt lat="42.93192857061683" lon="140.50651624347995"><ele>675.80136308074</ele><time>2022-02-13T06:19:40Z</time></trkpt><trkpt lat="42.9317571824642" lon="140.50644021870113"><ele>687.2322740647942</ele><time>2022-02-13T06:21:45Z</time></trkpt><trkpt lat="42.931579526678135" lon="140.50648612405797"><ele>690.2345758769661</ele><time>2022-02-13T06:22:40Z</time></trkpt><trkpt lat="42.93142813422779" lon="140.50662378937335"><ele>697.0122963953763</ele><time>2022-02-13T06:23:43Z</time></trkpt><trkpt lat="42.93125233804641" lon="140.5065564003705"><ele>698.0318641001359</ele><time>2022-02-13T06:24:27Z</time></trkpt><trkpt lat="42.931071693764764" lon="140.5066058755935"><ele>698.2888737078756</ele><time>2022-02-13T06:25:08Z</time></trkpt><trkpt lat="42.93089088542416" lon="140.50655922818976"><ele>702.620413296856</ele><time>2022-02-13T06:26:01Z</time></trkpt><trkpt lat="42.93083281499525" lon="140.50679939549843"><ele>710.7637175740674</ele><time>2022-02-13T06:27:17Z</time></trkpt><trkpt lat="42.93086132730058" lon="140.5070447349551"><ele>719.5422077709809</ele><time>2022-02-13T06:31:31Z</time></trkpt><trkpt lat="42.93068782846193" lon="140.5069724944209"><ele>721.0839037476107</ele><time>2022-02-13T06:32:00Z</time></trkpt><trkpt lat="42.9306693829716" lon="140.50722126683465"><ele>732.9601717432961</ele><time>2022-02-13T06:33:14Z</time></trkpt><trkpt lat="42.930511457162794" lon="140.50734406472014"><ele>738.5277121448889</ele><time>2022-02-13T06:34:45Z</time></trkpt><trkpt lat="42.93038402383602" lon="140.50752853352688"><ele>749.9771807882935</ele><time>2022-02-13T06:36:06Z</time></trkpt><trkpt lat="42.93020226529314" lon="140.50754742623195"><ele>756.540583383292</ele><time>2022-02-13T06:36:45Z</time></trkpt><trkpt lat="42.93029824795279" lon="140.50775601330184"><ele>765.2038389630616</ele><time>2022-02-13T06:37:59Z</time></trkpt><trkpt lat="42.93013310869124" lon="140.5078605595197"><ele>766.1904703145847</ele><time>2022-02-13T06:38:33Z</time></trkpt><trkpt lat="42.92996260184089" lon="140.50795660809632"><ele>774.1511207669973</ele><time>2022-02-13T06:39:27Z</time></trkpt><trkpt lat="42.929789742205344" lon="140.50788743735305"><ele>776.1904084272683</ele><time>2022-02-13T06:39:57Z</time></trkpt><trkpt lat="42.92965550841" lon="140.50805703331926"><ele>784.5650707352906</ele><time>2022-02-13T06:40:59Z</time></trkpt><trkpt lat="42.92951239103941" lon="140.50821304650114"><ele>788.6653218520805</ele><time>2022-02-13T06:41:34Z</time></trkpt><trkpt lat="42.92932863093802" lon="140.50818546675632"><ele>791.6298250062391</ele><time>2022-02-13T06:42:02Z</time></trkpt><trkpt lat="42.929146921193" lon="140.50822011271114"><ele>798.1062051141635</ele><time>2022-02-13T06:44:56Z</time></trkpt><trkpt lat="42.92897000143517" lon="140.5083019028707"><ele>802.4324604561552</ele><time>2022-02-13T06:45:31Z</time></trkpt><trkpt lat="42.92880429638743" lon="140.50841345117072"><ele>810.8210201216862</ele><time>2022-02-13T06:46:11Z</time></trkpt><trkpt lat="42.928671979750156" lon="140.5085924872811"><ele>816.4456098964438</ele><time>2022-02-13T06:50:00Z</time></trkpt><trkpt lat="42.928804288978355" lon="140.50839117733628"><ele>815.8637752700597</ele><time>2022-02-13T07:03:48Z</time></trkpt><trkpt lat="42.92890307262624" lon="140.50816455902287"><ele>809.7056158706546</ele><time>2022-02-13T07:04:10Z</time></trkpt><trkpt lat="42.92911933222117" lon="140.508171957346"><ele>803.4918077485636</ele><time>2022-02-13T07:04:21Z</time></trkpt><trkpt lat="42.929294522520244" lon="140.5080715595831"><ele>797.7593120485544</ele><time>2022-02-13T07:04:41Z</time></trkpt><trkpt lat="42.92948718061521" lon="140.50800981125673"><ele>789.20626751706</ele><time>2022-02-13T07:05:03Z</time></trkpt><trkpt lat="42.92962022251859" lon="140.507826158683"><ele>780.547760616988</ele><time>2022-02-13T07:05:09Z</time></trkpt><trkpt lat="42.9298099100627" lon="140.50770850231754"><ele>769.0059805251658</ele><time>2022-02-13T07:05:14Z</time></trkpt><trkpt lat="42.92999209311477" lon="140.50758779025904"><ele>760.6264999331906</ele><time>2022-02-13T07:05:18Z</time></trkpt><trkpt lat="42.930188891192316" lon="140.50748417511525"><ele>753.0895843235776</ele><time>2022-02-13T07:06:17Z</time></trkpt><trkpt lat="42.930393127874765" lon="140.50740412490472"><ele>746.4169642506167</ele><time>2022-02-13T07:06:22Z</time></trkpt><trkpt lat="42.93055483830677" lon="140.50724065151144"><ele>735.5583138493821</ele><time>2022-02-13T07:06:41Z</time></trkpt><trkpt lat="42.930750375802596" lon="140.50723874009745"><ele>734.5604746202007</ele><time>2022-02-13T07:07:15Z</time></trkpt><trkpt lat="42.93084014895062" lon="140.50698446877686"><ele>723.3779601426795</ele><time>2022-02-13T07:07:29Z</time></trkpt><trkpt lat="42.93089563665154" lon="140.50672765272014"><ele>713.4039649525657</ele><time>2022-02-13T07:07:33Z</time></trkpt><trkpt lat="42.93108693592218" lon="140.50661164888243"><ele>699.3965703202412</ele><time>2022-02-13T07:07:40Z</time></trkpt><trkpt lat="42.93127456987504" lon="140.50655487363807"><ele>695.9573441203684</ele><time>2022-02-13T07:07:44Z</time></trkpt><trkpt lat="42.93127951589695" lon="140.50630159224002"><ele>694.2289071371779</ele><time>2022-02-13T07:08:01Z</time></trkpt><trkpt lat="42.93117354999286" lon="140.5060336652497"><ele>693.7732195304707</ele><time>2022-02-13T07:08:49Z</time></trkpt><trkpt lat="42.93117922938235" lon="140.5057774436869"><ele>680.3866638503969</ele><time>2022-02-13T07:08:59Z</time></trkpt><trkpt lat="42.93112416107224" lon="140.50551253269012"><ele>678.2200384382159</ele><time>2022-02-13T07:09:09Z</time></trkpt><trkpt lat="42.931276223099765" lon="140.5053367849134"><ele>668.7737213494256</ele><time>2022-02-13T07:09:30Z</time></trkpt><trkpt lat="42.93145117344287" lon="140.5052579504424"><ele>661.0863315798342</ele><time>2022-02-13T07:10:28Z</time></trkpt><trkpt lat="42.931658727948445" lon="140.50526340917855"><ele>658.4960099970922</ele><time>2022-02-13T07:10:34Z</time></trkpt><trkpt lat="42.93182206502416" lon="140.50514376329008"><ele>650.9168164646253</ele><time>2022-02-13T07:10:39Z</time></trkpt><trkpt lat="42.932011751157575" lon="140.50512219829926"><ele>645.7736286437139</ele><time>2022-02-13T07:10:43Z</time></trkpt><trkpt lat="42.93217412727779" lon="140.50497734264513"><ele>636.5010679541156</ele><time>2022-02-13T07:10:47Z</time></trkpt><trkpt lat="42.93235584550909" lon="140.50490992675498"><ele>629.6248878790066</ele><time>2022-02-13T07:10:51Z</time></trkpt><trkpt lat="42.93247706112558" lon="140.504709877077"><ele>623.3289048131555</ele><time>2022-02-13T07:11:38Z</time></trkpt><trkpt lat="42.93249218995916" lon="140.50445876422683"><ele>615.9571701344103</ele><time>2022-02-13T07:11:42Z</time></trkpt><trkpt lat="42.93260671907595" lon="140.5041824721582"><ele>605.1458947174251</ele><time>2022-02-13T07:11:48Z</time></trkpt><trkpt lat="42.93278538256825" lon="140.50413407087137"><ele>601.8169274069369</ele><time>2022-02-13T07:11:52Z</time></trkpt><trkpt lat="42.93293461678574" lon="140.50396036976528"><ele>593.5427542570978</ele><time>2022-02-13T07:11:57Z</time></trkpt><trkpt lat="42.93307971674017" lon="140.50371961962347"><ele>582.502529011108</ele><time>2022-02-13T07:12:02Z</time></trkpt><trkpt lat="42.933153767391154" lon="140.50347446001047"><ele>573.00868322514</ele><time>2022-02-13T07:12:25Z</time></trkpt><trkpt lat="42.9332530420245" lon="140.50323841771612"><ele>564.8495427211747</ele><time>2022-02-13T07:13:10Z</time></trkpt><trkpt lat="42.933375260318556" lon="140.50302146504006"><ele>554.9669781597331</ele><time>2022-02-13T07:13:16Z</time></trkpt><trkpt lat="42.933557910020994" lon="140.50298818758668"><ele>552.5449437573552</ele><time>2022-02-13T07:13:22Z</time></trkpt><trkpt lat="42.93376928646018" lon="140.50293614567377"><ele>549.2427319176495</ele><time>2022-02-13T07:13:27Z</time></trkpt><trkpt lat="42.93398694853497" lon="140.502873446171"><ele>544.7959810458124</ele><time>2022-02-13T07:13:32Z</time></trkpt><trkpt lat="42.93417293212012" lon="140.5028127119985"><ele>541.8908605985343</ele><time>2022-02-13T07:13:37Z</time></trkpt><trkpt lat="42.934287036243" lon="140.50259299079767"><ele>535.2459964249283</ele><time>2022-02-13T07:14:00Z</time></trkpt><trkpt lat="42.93444726649542" lon="140.50246826937905"><ele>532.1238795928657</ele><time>2022-02-13T07:14:15Z</time></trkpt><trkpt lat="42.93457840201903" lon="140.50228764135647"><ele>524.3481077235192</ele><time>2022-02-13T07:14:23Z</time></trkpt><trkpt lat="42.93473531176407" lon="140.5021515764289"><ele>524.7767067998648</ele><time>2022-02-13T07:17:40Z</time></trkpt><trkpt lat="42.93493920384102" lon="140.50205450035472"><ele>513.7244211677462</ele><time>2022-02-13T07:17:47Z</time></trkpt><trkpt lat="42.93512031934952" lon="140.50199972494838"><ele>514.8088012114167</ele><time>2022-02-13T07:18:04Z</time></trkpt><trkpt lat="42.935337406538295" lon="140.50196465143867"><ele>508.23934135306627</ele><time>2022-02-13T07:20:49Z</time></trkpt><trkpt lat="42.93553938429789" lon="140.50194030365026"><ele>504.59958024695516</ele><time>2022-02-13T07:20:55Z</time></trkpt><trkpt lat="42.935734431899455" lon="140.5018667022896"><ele>502.1443408578634</ele><time>2022-02-13T07:21:01Z</time></trkpt><trkpt lat="42.93592598060669" lon="140.50188947907483"><ele>504.54167851246893</ele><time>2022-02-13T07:21:20Z</time></trkpt><trkpt lat="42.93609870406336" lon="140.50180345412565"><ele>500.4846019167453</ele><time>2022-02-13T07:21:29Z</time></trkpt><trkpt lat="42.93627957032886" lon="140.50182412583234"><ele>497.12707842700183</ele><time>2022-02-13T07:21:57Z</time></trkpt><trkpt lat="42.93647191662068" lon="140.50180476791877"><ele>493.2498249495402</ele><time>2022-02-13T07:22:07Z</time></trkpt><trkpt lat="42.936659477920934" lon="140.50176394719296"><ele>492.3215751145035</ele><time>2022-02-13T07:22:14Z</time></trkpt><trkpt lat="42.93683996890736" lon="140.501749757164"><ele>491.3109254539013</ele><time>2022-02-13T07:22:26Z</time></trkpt><trkpt lat="42.93702412348258" lon="140.50176105685534"><ele>493.0242190314457</ele><time>2022-02-13T07:22:57Z</time></trkpt><trkpt lat="42.93720347882834" lon="140.50167934101088"><ele>489.216149834916</ele><time>2022-02-13T07:24:06Z</time></trkpt><trkpt lat="42.93738910764794" lon="140.50159430348413"><ele>487.4110504006967</ele><time>2022-02-13T07:24:13Z</time></trkpt><trkpt lat="42.93756858864016" lon="140.50153001028426"><ele>487.4540915088728</ele><time>2022-02-13T07:24:56Z</time></trkpt><trkpt lat="42.93775003729379" lon="140.50154931372757"><ele>487.1740631060675</ele><time>2022-02-13T07:29:07Z</time></trkpt><trkpt lat="42.93781863669303" lon="140.50181382130017"><ele>473.3543745437637</ele><time>2022-02-13T07:30:49Z</time></trkpt><trkpt lat="42.93805419681206" lon="140.50173733628907"><ele>463.4791355840862</ele><time>2022-02-13T07:30:53Z</time></trkpt><trkpt lat="42.93827907221718" lon="140.50169146246785"><ele>450.988234968856</ele><time>2022-02-13T07:30:58Z</time></trkpt><trkpt lat="42.9384631960559" lon="140.5017633702997"><ele>446.93786653131247</ele><time>2022-02-13T07:31:01Z</time></trkpt><trkpt lat="42.93861672112817" lon="140.5018967440378"><ele>443.30210260581225</ele><time>2022-02-13T07:31:04Z</time></trkpt><trkpt lat="42.93877045235688" lon="140.50202951746647"><ele>448.36336009111255</ele><time>2022-02-13T07:32:20Z</time></trkpt><trkpt lat="42.93891964129219" lon="140.50217700335278"><ele>440.16440019290894</ele><time>2022-02-13T07:32:38Z</time></trkpt><trkpt lat="42.93905967487843" lon="140.5023406288323"><ele>435.46139871515334</ele><time>2022-02-13T07:32:42Z</time></trkpt><trkpt lat="42.93924488175347" lon="140.5023490947073"><ele>421.6592681016773</ele><time>2022-02-13T07:32:52Z</time></trkpt><trkpt lat="42.93940457090768" lon="140.50220620763875"><ele>415.3043889570981</ele><time>2022-02-13T07:32:56Z</time></trkpt><trkpt lat="42.93958546004667" lon="140.5022148025268"><ele>405.71920951548964</ele><time>2022-02-13T07:32:59Z</time></trkpt><trkpt lat="42.939770281463495" lon="140.50230543282902"><ele>392.18520891387016</ele><time>2022-02-13T07:33:09Z</time></trkpt><trkpt lat="42.939980200197176" lon="140.50239760710159"><ele>387.8399301003665</ele><time>2022-02-13T07:33:13Z</time></trkpt><trkpt lat="42.940151599680014" lon="140.50252918717248"><ele>388.1403789501637</ele><time>2022-02-13T07:33:35Z</time></trkpt><trkpt lat="42.940335949147894" lon="140.50258166803343"><ele>375.9108895799145</ele><time>2022-02-13T07:33:41Z</time></trkpt><trkpt lat="42.94050353048719" lon="140.50236864718752"><ele>365.7354220598936</ele><time>2022-02-13T07:33:47Z</time></trkpt><trkpt lat="42.94070837819238" lon="140.50232293493744"><ele>356.6757261250168</ele><time>2022-02-13T07:33:51Z</time></trkpt><trkpt lat="42.94087434385155" lon="140.5022004644119"><ele>342.06349527835846</ele><time>2022-02-13T07:33:58Z</time></trkpt><trkpt lat="42.941091969851726" lon="140.50219617373506"><ele>339.9117128616199</ele><time>2022-02-13T07:34:01Z</time></trkpt><trkpt lat="42.94126670677998" lon="140.502306683388"><ele>337.6318714171648</ele><time>2022-02-13T07:34:06Z</time></trkpt><trkpt lat="42.94146755069575" lon="140.50234133498725"><ele>329.6843734337017</ele><time>2022-02-13T07:34:10Z</time></trkpt><trkpt lat="42.941637712155" lon="140.50244105568055"><ele>327.6850006124005</ele><time>2022-02-13T07:34:15Z</time></trkpt><trkpt lat="42.94178220959326" lon="140.50259515409468"><ele>329.7141718864441</ele><time>2022-02-13T07:36:43Z</time></trkpt><trkpt lat="42.94195978387087" lon="140.50269823026684"><ele>317.5735142994672</ele><time>2022-02-13T07:36:50Z</time></trkpt><trkpt lat="42.94215845859695" lon="140.50278362715164"><ele>317.57450465206057</ele><time>2022-02-13T07:36:54Z</time></trkpt><trkpt lat="42.942320792640636" lon="140.50289835840215"><ele>318.96018887590617</ele><time>2022-02-13T07:37:02Z</time></trkpt><trkpt lat="42.94248200887196" lon="140.50301417373564"><ele>315.3495169291273</ele><time>2022-02-13T07:37:10Z</time></trkpt><trkpt lat="42.9426459697401" lon="140.50311759202233"><ele>314.3754882318899</ele><time>2022-02-13T07:37:18Z</time></trkpt><trkpt lat="42.94283479221329" lon="140.5031931146174"><ele>308.9825437916443</ele><time>2022-02-13T07:37:24Z</time></trkpt><trkpt lat="42.94304198726535" lon="140.50326144881885"><ele>304.66665709763765</ele><time>2022-02-13T07:37:30Z</time></trkpt><trkpt lat="42.943200106163516" lon="140.50338547192723"><ele>307.625978901051</ele><time>2022-02-13T07:44:32Z</time></trkpt><trkpt lat="42.94345604586911" lon="140.5035858402538"><ele>295.8749967068434</ele><time>2022-02-13T07:44:44Z</time></trkpt><trkpt lat="42.94366769375167" lon="140.50373867169012"><ele>292.55008972994983</ele><time>2022-02-13T07:44:47Z</time></trkpt><trkpt lat="42.94386812839998" lon="140.50377813537554"><ele>289.2255152510479</ele><time>2022-02-13T07:44:50Z</time></trkpt><trkpt lat="42.94407128848005" lon="140.50376435227273"><ele>286.3304779427126</ele><time>2022-02-13T07:44:56Z</time></trkpt><trkpt lat="42.94424278932092" lon="140.50393614358666"><ele>282.53199280425906</ele><time>2022-02-13T07:45:02Z</time></trkpt><trkpt lat="42.94437171558237" lon="140.50412139464146"><ele>284.11006616894156</ele><time>2022-02-13T07:45:20Z</time></trkpt><trkpt lat="42.94453825150884" lon="140.5042722154963"><ele>279.4924295209348</ele><time>2022-02-13T07:45:29Z</time></trkpt><trkpt lat="42.94475772711079" lon="140.50428377776004"><ele>275.90603450126946</ele><time>2022-02-13T07:45:36Z</time></trkpt><trkpt lat="42.9449546046788" lon="140.50426192204455"><ele>273.6482378114015</ele><time>2022-02-13T07:45:40Z</time></trkpt><trkpt lat="42.94514103363185" lon="140.504310030165"><ele>271.9125809613615</ele><time>2022-02-13T07:45:43Z</time></trkpt><trkpt lat="42.94532024139037" lon="140.50439463208085"><ele>263.84720965940505</ele><time>2022-02-13T07:45:47Z</time></trkpt><trkpt lat="42.945526436165196" lon="140.50453981995187"><ele>262.65758996549994</ele><time>2022-02-13T07:45:54Z</time></trkpt><trkpt lat="42.945729154425884" lon="140.5045842334221"><ele>259.60847570747137</ele><time>2022-02-13T07:45:58Z</time></trkpt><trkpt lat="42.9459493550005" lon="140.50465407987537"><ele>258.4797888631001</ele><time>2022-02-13T07:46:04Z</time></trkpt><trkpt lat="42.946147590692085" lon="140.50466742656212"><ele>255.45998872537166</ele><time>2022-02-13T07:46:09Z</time></trkpt><trkpt lat="42.94632734734176" lon="140.50471927171972"><ele>256.35980576556176</ele><time>2022-02-13T07:46:23Z</time></trkpt><trkpt lat="42.946494379784305" lon="140.5048338739969"><ele>253.22816764283925</ele><time>2022-02-13T07:46:39Z</time></trkpt><trkpt lat="42.94666473805399" lon="140.50495002517056"><ele>251.85897024534643</ele><time>2022-02-13T07:46:50Z</time></trkpt><trkpt lat="42.94684015261575" lon="140.50507620581166"><ele>246.71266972925514</ele><time>2022-02-13T07:46:55Z</time></trkpt><trkpt lat="42.94698097902226" lon="140.50530133607592"><ele>238.97908947058022</ele><time>2022-02-13T07:47:02Z</time></trkpt><trkpt lat="42.94711571156922" lon="140.5055603857438"><ele>237.3055209312588</ele><time>2022-02-13T07:47:07Z</time></trkpt><trkpt lat="42.947308032949664" lon="140.5055461123918"><ele>230.4539429154247</ele><time>2022-02-13T07:47:12Z</time></trkpt><trkpt lat="42.94741328141324" lon="140.50575424112665"><ele>228.38944540172815</ele><time>2022-02-13T07:47:16Z</time></trkpt><trkpt lat="42.94745709391165" lon="140.50604441060534"><ele>225.860416774638</ele><time>2022-02-13T07:47:21Z</time></trkpt><trkpt lat="42.94750139209686" lon="140.50628923785823"><ele>223.17494762409478</ele><time>2022-02-13T07:47:37Z</time></trkpt><trkpt lat="42.94753240768474" lon="140.5065386919882"><ele>220.52815171144903</ele><time>2022-02-13T07:52:11Z</time></trkpt><trkpt lat="42.94745440599218" lon="140.50679244856943"><ele>217.50735449790955</ele><time>2022-02-13T07:52:19Z</time></trkpt><trkpt lat="42.94742030612123" lon="140.50703501494107"><ele>215.1889030970633</ele><time>2022-02-13T07:52:32Z</time></trkpt><trkpt lat="42.947410747769396" lon="140.50728187248257"><ele>215.70611750427634</ele><time>2022-02-13T07:52:41Z</time></trkpt><trkpt lat="42.947409446562936" lon="140.50753884002015"><ele>213.1830031098798</ele><time>2022-02-13T07:52:55Z</time></trkpt><trkpt lat="42.947459521178054" lon="140.50779089490155"><ele>211.13467034883797</ele><time>2022-02-13T07:53:12Z</time></trkpt><trkpt lat="42.94750911864039" lon="140.5080314614533"><ele>211.7568881502375</ele><time>2022-02-13T07:53:28Z</time></trkpt><trkpt lat="42.94756834075777" lon="140.5082751179022"><ele>209.2258633170277</ele><time>2022-02-13T07:53:59Z</time></trkpt><trkpt lat="42.9476333493292" lon="140.50850569887933"><ele>209.4297488257289</ele><time>2022-02-13T07:54:25Z</time></trkpt><trkpt lat="42.94769653553131" lon="140.5087370079993"><ele>213.95516607537866</ele><time>2022-02-13T07:55:40Z</time></trkpt><trkpt lat="42.94777629898009" lon="140.5089634389369"><ele>214.53188452869654</ele><time>2022-02-13T07:56:02Z</time></trkpt><trkpt lat="42.94784957812157" lon="140.50919875951323"><ele>215.60563571751118</ele><time>2022-02-13T07:56:26Z</time></trkpt><trkpt lat="42.947860900554396" lon="140.50945030407115"><ele>216.46061380114406</ele><time>2022-02-13T07:56:54Z</time></trkpt><trkpt lat="42.94786434363924" lon="140.50970540884066"><ele>214.53173356875777</ele><time>2022-02-13T07:57:36Z</time></trkpt><trkpt lat="42.94787180843907" lon="140.50995457788147"><ele>215.09471697174013</ele><time>2022-02-13T07:58:00Z</time></trkpt><trkpt lat="42.94788526332353" lon="140.51021144623627"><ele>215.0490076551214</ele><time>2022-02-13T07:58:29Z</time></trkpt><trkpt lat="42.94792089619687" lon="140.51046308827694"><ele>215.2193753812462</ele><time>2022-02-13T07:58:54Z</time></trkpt><trkpt lat="42.947922857163164" lon="140.51071259796822"><ele>215.80568605475128</ele><time>2022-02-13T07:59:22Z</time></trkpt><trkpt lat="42.947901393239874" lon="140.51097474284302"><ele>215.1956504713744</ele><time>2022-02-13T07:59:46Z</time></trkpt><trkpt lat="42.947838089818276" lon="140.51120577609504"><ele>211.14949636347592</ele><time>2022-02-13T08:03:29Z</time></trkpt><trkpt lat="42.94801133270152" lon="140.51133485081712"><ele>208.61482685990632</ele><time>2022-02-13T08:05:00Z</time></trkpt><trkpt lat="42.94814195292451" lon="140.5115462071583"><ele>206.52043666597456</ele><time>2022-02-13T08:05:07Z</time></trkpt><trkpt lat="42.948227223459654" lon="140.51176878098448"><ele>205.00848038122058</ele><time>2022-02-13T08:05:18Z</time></trkpt><trkpt lat="42.94827753457618" lon="140.51202392869496"><ele>205.8228226536885</ele><time>2022-02-13T08:09:44Z</time></trkpt><trkpt lat="42.94819522225997" lon="140.51225854067394"><ele>204.8112381156534</ele><time>2022-02-13T08:10:04Z</time></trkpt><trkpt lat="42.948233676871624" lon="140.51251257733998"><ele>202.91516960971057</ele><time>2022-02-13T08:10:21Z</time></trkpt><trkpt lat="42.94827976466502" lon="140.51275988310533"><ele>201.1663249116391</ele><time>2022-02-13T08:10:40Z</time></trkpt><trkpt lat="42.94829387721567" lon="140.51301990351615"><ele>198.97166122030467</ele><time>2022-02-13T08:10:59Z</time></trkpt><trkpt lat="42.94828088267581" lon="140.51327401760466"><ele>198.46196112502366</ele><time>2022-02-13T08:11:13Z</time></trkpt><trkpt lat="42.94827862479702" lon="140.51352114787926"><ele>197.78060914762318</ele><time>2022-02-13T08:11:24Z</time></trkpt><trkpt lat="42.94828131741372" lon="140.51377360921467"><ele>196.4189377669245</ele><time>2022-02-13T08:11:37Z</time></trkpt><trkpt lat="42.948276912157645" lon="140.51402383749797"><ele>195.75463577732444</ele><time>2022-02-13T08:11:50Z</time></trkpt><trkpt lat="42.948237459648894" lon="140.5142881041071"><ele>195.6501254606992</ele><time>2022-02-13T08:12:48Z</time></trkpt><trkpt lat="42.948221901488765" lon="140.51453275715247"><ele>192.52125167381018</ele><time>2022-02-13T08:12:57Z</time></trkpt><trkpt lat="42.94818716772516" lon="140.51478430462657"><ele>194.42403864394873</ele><time>2022-02-13T08:13:15Z</time></trkpt><trkpt lat="42.94800600805464" lon="140.51485362364124"><ele>194.14917135890573</ele><time>2022-02-13T08:13:32Z</time></trkpt></trkseg></trk></gpx>