<?xml version='1.0' encoding='UTF-8'?><gpx creator="YAMAP - https://yamap.com" xsi:schemaLocation="http://www.topografix.com/GPX/1/1 http://www.topografix.com/GPX/1/1/gpx.xsd" version="1.1" xmlns="http://www.topografix.com/GPX/1/1" xmlns:xsi="http://www.w3.org/2001/XMLSchema-instance"><metadata><bounds maxlat="42.84472788454677" maxlon="140.8547873174944" minlat="42.82666428014049" minlon="140.81067596678673"/></metadata><trk><name>真狩岳・羊蹄山（後方羊蹄山・マッカリヌプリ）</name><number>1</number><trkseg><trkpt lat="42.844711507641684" lon="140.85431848470256"><ele>422.90324037428945</ele><time>2022-08-26T22:51:58Z</time></trkpt><trkpt lat="42.844672433358106" lon="140.8540669379206"><ele>424.1120242420584</ele><time>2022-08-26T22:52:17Z</time></trkpt><trkpt lat="42.84464775150559" lon="140.85382386172284"><ele>426.53959514945745</ele><time>2022-08-26T22:52:34Z</time></trkpt><trkpt lat="42.8446310087098" lon="140.8535648065289"><ele>428.05381802935153</ele><time>2022-08-26T22:52:52Z</time></trkpt><trkpt lat="42.84460706394924" lon="140.85331822661516"><ele>429.4470506571233</ele><time>2022-08-26T22:53:10Z</time></trkpt><trkpt lat="42.84459749436164" lon="140.85304710341632"><ele>430.1170537183061</ele><time>2022-08-26T22:53:28Z</time></trkpt><trkpt lat="42.84457211886226" lon="140.85280008365817"><ele>431.3792035225779</ele><time>2022-08-26T22:53:45Z</time></trkpt><trkpt lat="42.84456939017152" lon="140.8525461532351"><ele>432.5592666519806</ele><time>2022-08-26T22:54:04Z</time></trkpt><trkpt lat="42.844544567644974" lon="140.85228436315992"><ele>434.8641407089308</ele><time>2022-08-26T22:54:23Z</time></trkpt><trkpt lat="42.84452187858764" lon="140.8520349399045"><ele>437.05844836402684</ele><time>2022-08-26T22:54:40Z</time></trkpt><trkpt lat="42.84448018699598" lon="140.85179135895166"><ele>438.51328871026635</ele><time>2022-08-26T22:54:59Z</time></trkpt><trkpt lat="42.84443983601894" lon="140.85154167082052"><ele>440.1325551578775</ele><time>2022-08-26T22:55:19Z</time></trkpt><trkpt lat="42.84440439290905" lon="140.8512931538156"><ele>442.1359578119591</ele><time>2022-08-26T22:55:37Z</time></trkpt><trkpt lat="42.84436009155922" lon="140.8510490970584"><ele>444.2425731634721</ele><time>2022-08-26T22:55:58Z</time></trkpt><trkpt lat="42.844315956688945" lon="140.8508010286852"><ele>446.621767308563</ele><time>2022-08-26T22:56:18Z</time></trkpt><trkpt lat="42.84425632840848" lon="140.85055645357576"><ele>447.4700029576197</ele><time>2022-08-26T22:56:39Z</time></trkpt><trkpt lat="42.84419689335886" lon="140.85031488590718"><ele>450.55950268916786</ele><time>2022-08-26T22:57:00Z</time></trkpt><trkpt lat="42.84413596500484" lon="140.8500761685071"><ele>453.69815948512405</ele><time>2022-08-26T22:57:21Z</time></trkpt><trkpt lat="42.84406551264146" lon="140.84983822584437"><ele>455.7716311616823</ele><time>2022-08-26T22:57:42Z</time></trkpt><trkpt lat="42.84400052567348" lon="140.84960618836269"><ele>456.9807294085622</ele><time>2022-08-26T22:58:03Z</time></trkpt><trkpt lat="42.84394823430981" lon="140.84937090096417"><ele>458.7811043392867</ele><time>2022-08-26T22:58:24Z</time></trkpt><trkpt lat="42.84390750815489" lon="140.84911949553901"><ele>461.7022513272241</ele><time>2022-08-26T22:58:44Z</time></trkpt><trkpt lat="42.843869545421626" lon="140.84887537613525"><ele>463.9732503518462</ele><time>2022-08-26T22:59:04Z</time></trkpt><trkpt lat="42.843841515422376" lon="140.8486310257653"><ele>465.66934614349157</ele><time>2022-08-26T22:59:24Z</time></trkpt><trkpt lat="42.843804989394464" lon="140.84838255712464"><ele>466.2951841810718</ele><time>2022-08-26T22:59:44Z</time></trkpt><trkpt lat="42.84375039756617" lon="140.84814595391217"><ele>469.2027102885768</ele><time>2022-08-26T23:00:21Z</time></trkpt><trkpt lat="42.843681600031445" lon="140.84791263912737"><ele>473.0492791440338</ele><time>2022-08-26T23:00:38Z</time></trkpt><trkpt lat="42.84361022503154" lon="140.84767978562144"><ele>475.2105705412105</ele><time>2022-08-26T23:00:56Z</time></trkpt><trkpt lat="42.84354114785993" lon="140.84744229080266"><ele>475.70691266376525</ele><time>2022-08-26T23:01:17Z</time></trkpt><trkpt lat="42.8434704132429" lon="140.8472116646214"><ele>478.34760992228985</ele><time>2022-08-26T23:01:36Z</time></trkpt><trkpt lat="42.84339976252357" lon="140.84697708418352"><ele>480.87674052268267</ele><time>2022-08-26T23:01:56Z</time></trkpt><trkpt lat="42.843327489273854" lon="140.8467479630941"><ele>482.4175831992179</ele><time>2022-08-26T23:02:16Z</time></trkpt><trkpt lat="42.84326350721934" lon="140.84651011861465"><ele>487.8441185737029</ele><time>2022-08-26T23:02:38Z</time></trkpt><trkpt lat="42.84319474330572" lon="140.84627465144266"><ele>491.86591369565576</ele><time>2022-08-26T23:03:00Z</time></trkpt><trkpt lat="42.843134016408484" lon="140.84603684178808"><ele>493.5176531514153</ele><time>2022-08-26T23:03:21Z</time></trkpt><trkpt lat="42.843050803828596" lon="140.84580624306557"><ele>495.55093137640506</ele><time>2022-08-26T23:03:38Z</time></trkpt><trkpt lat="42.84300397149027" lon="140.84555430915583"><ele>499.1122995102778</ele><time>2022-08-26T23:04:01Z</time></trkpt><trkpt lat="42.84290673099725" lon="140.84534378905371"><ele>502.1317658163607</ele><time>2022-08-26T23:04:21Z</time></trkpt><trkpt lat="42.84285625595231" lon="140.845090272801"><ele>507.21872251387686</ele><time>2022-08-26T23:04:43Z</time></trkpt><trkpt lat="42.842773212568346" lon="140.84487064775269"><ele>510.10204500705004</ele><time>2022-08-26T23:05:05Z</time></trkpt><trkpt lat="42.84271382991252" lon="140.8446350909298"><ele>512.7906591072679</ele><time>2022-08-26T23:05:25Z</time></trkpt><trkpt lat="42.8426808220778" lon="140.84438403982844"><ele>519.2274263035506</ele><time>2022-08-26T23:05:49Z</time></trkpt><trkpt lat="42.84261275557689" lon="140.8441456766413"><ele>522.4643376264721</ele><time>2022-08-26T23:06:56Z</time></trkpt><trkpt lat="42.842527501048465" lon="140.84391924399694"><ele>525.531724347733</ele><time>2022-08-26T23:07:14Z</time></trkpt><trkpt lat="42.842452134926795" lon="140.8436846748861"><ele>529.2199679780751</ele><time>2022-08-26T23:07:37Z</time></trkpt><trkpt lat="42.842363993941525" lon="140.84346861021461"><ele>532.3561102356762</ele><time>2022-08-26T23:07:54Z</time></trkpt><trkpt lat="42.842275574256384" lon="140.8432499879803"><ele>536.6442017396912</ele><time>2022-08-26T23:08:15Z</time></trkpt><trkpt lat="42.84218189653789" lon="140.84303066914433"><ele>541.243283524178</ele><time>2022-08-26T23:08:34Z</time></trkpt><trkpt lat="42.842060663658366" lon="140.84283990888673"><ele>544.7677980549634</ele><time>2022-08-26T23:08:53Z</time></trkpt><trkpt lat="42.84194068087178" lon="140.84263774664473"><ele>548.025551543571</ele><time>2022-08-26T23:09:13Z</time></trkpt><trkpt lat="42.84178298636818" lon="140.84251449988597"><ele>549.058105529286</ele><time>2022-08-26T23:09:36Z</time></trkpt><trkpt lat="42.84172593264132" lon="140.84227768375402"><ele>554.3994686445221</ele><time>2022-08-26T23:09:58Z</time></trkpt><trkpt lat="42.841636636228074" lon="140.8420622369834"><ele>556.5121049927548</ele><time>2022-08-26T23:10:14Z</time></trkpt><trkpt lat="42.84154859485344" lon="140.84184567558415"><ele>561.1807215902954</ele><time>2022-08-26T23:10:35Z</time></trkpt><trkpt lat="42.84146581029088" lon="140.84161721783317"><ele>564.6594633627683</ele><time>2022-08-26T23:10:53Z</time></trkpt><trkpt lat="42.841413498838655" lon="140.84137365231106"><ele>572.491781597957</ele><time>2022-08-26T23:11:18Z</time></trkpt><trkpt lat="42.84134839214576" lon="140.84113237833324"><ele>575.5562621233985</ele><time>2022-08-26T23:11:40Z</time></trkpt><trkpt lat="42.841232617808544" lon="140.84094338177394"><ele>578.6187747688964</ele><time>2022-08-26T23:12:05Z</time></trkpt><trkpt lat="42.84106090360049" lon="140.84083267712248"><ele>582.1286436785012</ele><time>2022-08-26T23:12:45Z</time></trkpt><trkpt lat="42.84092587464675" lon="140.84064923805977"><ele>588.0716774556786</ele><time>2022-08-26T23:13:10Z</time></trkpt><trkpt lat="42.84083567161712" lon="140.84043401460178"><ele>596.7878454830498</ele><time>2022-08-26T23:13:34Z</time></trkpt><trkpt lat="42.84071938568492" lon="140.84023963285807"><ele>596.8704828219488</ele><time>2022-08-26T23:13:58Z</time></trkpt><trkpt lat="42.8405960961294" lon="140.84004485137945"><ele>601.5031721154228</ele><time>2022-08-26T23:14:20Z</time></trkpt><trkpt lat="42.840440683141765" lon="140.83990307002858"><ele>604.6684210989624</ele><time>2022-08-26T23:14:43Z</time></trkpt><trkpt lat="42.840273927657286" lon="140.8397813012656"><ele>607.1012346148491</ele><time>2022-08-26T23:15:05Z</time></trkpt><trkpt lat="42.84016644995364" lon="140.83957653982355"><ele>613.8051141239703</ele><time>2022-08-26T23:15:34Z</time></trkpt><trkpt lat="42.84006098398618" lon="140.83937328770241"><ele>615.1432687519118</ele><time>2022-08-26T23:15:55Z</time></trkpt><trkpt lat="42.83991842987305" lon="140.83921728029014"><ele>622.2336935140193</ele><time>2022-08-26T23:16:22Z</time></trkpt><trkpt lat="42.83982351140494" lon="140.83899848514065"><ele>623.091427501291</ele><time>2022-08-26T23:16:47Z</time></trkpt><trkpt lat="42.839729135567644" lon="140.8387821397981"><ele>629.0956191178411</ele><time>2022-08-26T23:17:14Z</time></trkpt><trkpt lat="42.83963456794041" lon="140.83855571079542"><ele>632.6404817057773</ele><time>2022-08-26T23:17:34Z</time></trkpt><trkpt lat="42.83976528027057" lon="140.83838090647637"><ele>643.6517902202904</ele><time>2022-08-26T23:18:41Z</time></trkpt><trkpt lat="42.83990299004606" lon="140.83821666824667"><ele>644.0728364754468</ele><time>2022-08-26T23:19:05Z</time></trkpt><trkpt lat="42.839801976768335" lon="140.83800642401235"><ele>652.9641819847748</ele><time>2022-08-26T23:19:46Z</time></trkpt><trkpt lat="42.8396894090677" lon="140.8378080141513"><ele>656.8973113270476</ele><time>2022-08-26T23:20:09Z</time></trkpt><trkpt lat="42.83961294347088" lon="140.83757803547888"><ele>668.8371347822249</ele><time>2022-08-26T23:20:38Z</time></trkpt><trkpt lat="42.83971370773332" lon="140.83736361842537"><ele>671.8077176399529</ele><time>2022-08-26T23:21:07Z</time></trkpt><trkpt lat="42.83984200019098" lon="140.83717023780855"><ele>677.0666675530374</ele><time>2022-08-26T23:21:34Z</time></trkpt><trkpt lat="42.83974183122413" lon="140.83695071716335"><ele>685.0741967000067</ele><time>2022-08-26T23:22:00Z</time></trkpt><trkpt lat="42.83971298165595" lon="140.8367015154406"><ele>687.4154140008613</ele><time>2022-08-26T23:22:27Z</time></trkpt><trkpt lat="42.839729070674814" lon="140.83644911078443"><ele>691.7471647188067</ele><time>2022-08-26T23:22:54Z</time></trkpt><trkpt lat="42.839663329750294" lon="140.83620354378962"><ele>695.0430731363595</ele><time>2022-08-26T23:23:28Z</time></trkpt><trkpt lat="42.839710991053956" lon="140.83596449436018"><ele>703.8804296525195</ele><time>2022-08-26T23:24:06Z</time></trkpt><trkpt lat="42.83968934074343" lon="140.83571882143312"><ele>714.5869942642748</ele><time>2022-08-26T23:24:56Z</time></trkpt><trkpt lat="42.839608907134874" lon="140.8354971497076"><ele>720.6871270602569</ele><time>2022-08-26T23:25:31Z</time></trkpt><trkpt lat="42.839495016276324" lon="140.83530150554193"><ele>727.2201532591134</ele><time>2022-08-26T23:26:19Z</time></trkpt><trkpt lat="42.83941552944487" lon="140.83506891444583"><ele>731.0537069085985</ele><time>2022-08-26T23:26:45Z</time></trkpt><trkpt lat="42.83937782471428" lon="140.83482750071664"><ele>736.4623608132824</ele><time>2022-08-26T23:27:13Z</time></trkpt><trkpt lat="42.839239491790366" lon="140.83465989132065"><ele>743.2067634761333</ele><time>2022-08-26T23:27:44Z</time></trkpt><trkpt lat="42.8391491862551" lon="140.83444247086183"><ele>748.9239884493873</ele><time>2022-08-26T23:28:12Z</time></trkpt><trkpt lat="42.83905711431032" lon="140.8342198179383"><ele>756.5656185019761</ele><time>2022-08-26T23:28:43Z</time></trkpt><trkpt lat="42.838981320949614" lon="140.83399327896743"><ele>758.7203980600461</ele><time>2022-08-26T23:29:11Z</time></trkpt><trkpt lat="42.838856417603516" lon="140.833815134422"><ele>763.4854751387611</ele><time>2022-08-26T23:29:38Z</time></trkpt><trkpt lat="42.83886900925117" lon="140.83356374828116"><ele>768.9330134326592</ele><time>2022-08-26T23:30:20Z</time></trkpt><trkpt lat="42.83881707174846" lon="140.83332514035288"><ele>773.9195240577683</ele><time>2022-08-26T23:30:45Z</time></trkpt><trkpt lat="42.838826903528854" lon="140.8330760270019"><ele>780.1108312364668</ele><time>2022-08-26T23:31:15Z</time></trkpt><trkpt lat="42.83871167915705" lon="140.83288415045004"><ele>786.4230194343254</ele><time>2022-08-26T23:31:42Z</time></trkpt><trkpt lat="42.838645335768895" lon="140.83264283171854"><ele>791.5266612172127</ele><time>2022-08-26T23:32:15Z</time></trkpt><trkpt lat="42.8384876493572" lon="140.8325202417017"><ele>798.3881385708228</ele><time>2022-08-26T23:32:45Z</time></trkpt><trkpt lat="42.83854074454667" lon="140.83227318351263"><ele>803.6823460320011</ele><time>2022-08-26T23:33:22Z</time></trkpt><trkpt lat="42.838412162370574" lon="140.83209600765585"><ele>809.9958045538515</ele><time>2022-08-26T23:33:59Z</time></trkpt><trkpt lat="42.83835923142309" lon="140.8318572846213"><ele>815.8721645595506</ele><time>2022-08-26T23:34:37Z</time></trkpt><trkpt lat="42.83826129211733" lon="140.83165071395086"><ele>823.0930650914088</ele><time>2022-08-26T23:35:30Z</time></trkpt><trkpt lat="42.83819588337138" lon="140.83141966614838"><ele>829.4816451258957</ele><time>2022-08-26T23:35:59Z</time></trkpt><trkpt lat="42.838226115342" lon="140.8311770479921"><ele>840.3996862480417</ele><time>2022-08-26T23:36:44Z</time></trkpt><trkpt lat="42.838070606093645" lon="140.83104320650935"><ele>848.4965200535953</ele><time>2022-08-26T23:37:15Z</time></trkpt><trkpt lat="42.83796486090362" lon="140.8308444956467"><ele>854.6965367160738</ele><time>2022-08-26T23:38:20Z</time></trkpt><trkpt lat="42.83787265156237" lon="140.83063152340316"><ele>865.7355454778299</ele><time>2022-08-26T23:39:08Z</time></trkpt><trkpt lat="42.837814326847464" lon="140.8303954596506"><ele>869.5100342268124</ele><time>2022-08-26T23:39:47Z</time></trkpt><trkpt lat="42.8376439621279" lon="140.83029812983992"><ele>880.9374135993421</ele><time>2022-08-26T23:40:43Z</time></trkpt><trkpt lat="42.83764326301385" lon="140.83004918888085"><ele>887.5979215437546</ele><time>2022-08-26T23:41:21Z</time></trkpt><trkpt lat="42.83756360510525" lon="140.82982905148955"><ele>896.3862247057259</ele><time>2022-08-26T23:42:02Z</time></trkpt><trkpt lat="42.837393505254134" lon="140.829747237061"><ele>905.8416380081326</ele><time>2022-08-26T23:42:48Z</time></trkpt><trkpt lat="42.83735415836883" lon="140.82950393876902"><ele>910.433521666564</ele><time>2022-08-26T23:43:27Z</time></trkpt><trkpt lat="42.83719805584416" lon="140.82938037732305"><ele>919.489604585804</ele><time>2022-08-26T23:44:12Z</time></trkpt><trkpt lat="42.83725090282432" lon="140.829139375185"><ele>924.6869569318369</ele><time>2022-08-26T23:44:50Z</time></trkpt><trkpt lat="42.83719331263326" lon="140.8289053234806"><ele>932.4564095567912</ele><time>2022-08-26T23:45:29Z</time></trkpt><trkpt lat="42.837144097655404" lon="140.8286604340439"><ele>940.8181357262656</ele><time>2022-08-26T23:46:50Z</time></trkpt><trkpt lat="42.837095518643274" lon="140.8284158697093"><ele>946.6625109389424</ele><time>2022-08-26T23:47:39Z</time></trkpt><trkpt lat="42.83703134900715" lon="140.82818666345025"><ele>951.2302649784833</ele><time>2022-08-26T23:48:21Z</time></trkpt><trkpt lat="42.83705364798432" lon="140.8279394035738"><ele>960.9763141097501</ele><time>2022-08-26T23:48:56Z</time></trkpt><trkpt lat="42.836871871357886" lon="140.8279257894728"><ele>969.7948029348627</ele><time>2022-08-26T23:49:30Z</time></trkpt><trkpt lat="42.83674250958554" lon="140.82775448463065"><ele>978.2776188356802</ele><time>2022-08-26T23:50:20Z</time></trkpt><trkpt lat="42.83671288316596" lon="140.82750458125844"><ele>984.4051244473085</ele><time>2022-08-26T23:50:53Z</time></trkpt><trkpt lat="42.83653422521714" lon="140.82744094235068"><ele>990.9759120391682</ele><time>2022-08-26T23:51:31Z</time></trkpt><trkpt lat="42.83655364691907" lon="140.8271938491426"><ele>998.1175556117669</ele><time>2022-08-26T23:52:07Z</time></trkpt><trkpt lat="42.83649222642188" lon="140.82695682448795"><ele>1006.1283537819982</ele><time>2022-08-26T23:52:51Z</time></trkpt><trkpt lat="42.83641666504264" lon="140.82673332734774"><ele>1015.0674403272569</ele><time>2022-08-26T23:53:34Z</time></trkpt><trkpt lat="42.83632382957595" lon="140.8265158695183"><ele>1022.8557063387707</ele><time>2022-08-26T23:54:19Z</time></trkpt><trkpt lat="42.83625213692651" lon="140.82628726930497"><ele>1032.1208947002888</ele><time>2022-08-26T23:54:56Z</time></trkpt><trkpt lat="42.83623783294551" lon="140.8260432122921"><ele>1040.455727815628</ele><time>2022-08-27T00:04:54Z</time></trkpt><trkpt lat="42.83611621418076" lon="140.82586071148975"><ele>1049.2120467610657</ele><time>2022-08-27T00:05:43Z</time></trkpt><trkpt lat="42.836011246966535" lon="140.82564778786752"><ele>1057.7655289340764</ele><time>2022-08-27T00:06:21Z</time></trkpt><trkpt lat="42.83586557477163" lon="140.8254826575038"><ele>1067.8954546907917</ele><time>2022-08-27T00:06:59Z</time></trkpt><trkpt lat="42.8359378267745" lon="140.82524326787922"><ele>1079.9422669578344</ele><time>2022-08-27T00:07:50Z</time></trkpt><trkpt lat="42.83587648063091" lon="140.82499432329396"><ele>1084.6807686630636</ele><time>2022-08-27T00:08:42Z</time></trkpt><trkpt lat="42.835947293557886" lon="140.82476495245203"><ele>1091.2148471875116</ele><time>2022-08-27T00:09:27Z</time></trkpt><trkpt lat="42.835761891837" lon="140.82477015466702"><ele>1097.077383200638</ele><time>2022-08-27T00:09:56Z</time></trkpt><trkpt lat="42.83563471776599" lon="140.82459694850323"><ele>1106.8758939271793</ele><time>2022-08-27T00:10:49Z</time></trkpt><trkpt lat="42.83567813342224" lon="140.82435734773384"><ele>1114.7382506728172</ele><time>2022-08-27T00:11:40Z</time></trkpt><trkpt lat="42.835580979258154" lon="140.82414823779771"><ele>1120.6876934403554</ele><time>2022-08-27T00:12:47Z</time></trkpt><trkpt lat="42.835419547180436" lon="140.82401757732137"><ele>1132.8055978231132</ele><time>2022-08-27T00:13:51Z</time></trkpt><trkpt lat="42.83529587128583" lon="140.82383261486774"><ele>1144.133815552108</ele><time>2022-08-27T00:15:06Z</time></trkpt><trkpt lat="42.8352036007699" lon="140.8236065228944"><ele>1153.4839046215639</ele><time>2022-08-27T00:16:10Z</time></trkpt><trkpt lat="42.83514019094636" lon="140.82337049685353"><ele>1163.923133019358</ele><time>2022-08-27T00:17:20Z</time></trkpt><trkpt lat="42.8350080302471" lon="140.82319788293722"><ele>1167.6520100589842</ele><time>2022-08-27T00:18:25Z</time></trkpt><trkpt lat="42.83490484752293" lon="140.82297533166653"><ele>1185.2291994960979</ele><time>2022-08-27T00:19:31Z</time></trkpt><trkpt lat="42.83481644609221" lon="140.82275628603242"><ele>1192.9748864416033</ele><time>2022-08-27T00:20:42Z</time></trkpt><trkpt lat="42.83472684842573" lon="140.82253888226322"><ele>1202.704408146441</ele><time>2022-08-27T00:21:39Z</time></trkpt><trkpt lat="42.83456216250353" lon="140.82243257837152"><ele>1213.3984220558777</ele><time>2022-08-27T00:22:26Z</time></trkpt><trkpt lat="42.83453674779865" lon="140.82217663495072"><ele>1224.1608646688983</ele><time>2022-08-27T00:23:33Z</time></trkpt><trkpt lat="42.834432939630865" lon="140.82197494123002"><ele>1239.9162755887955</ele><time>2022-08-27T00:24:42Z</time></trkpt><trkpt lat="42.83436548357062" lon="140.8217439719984"><ele>1248.037751010619</ele><time>2022-08-27T00:25:34Z</time></trkpt><trkpt lat="42.83429877995934" lon="140.8215162554444"><ele>1255.4409550316632</ele><time>2022-08-27T00:26:33Z</time></trkpt><trkpt lat="42.834268970084146" lon="140.82126506060467"><ele>1266.8282783376053</ele><time>2022-08-27T00:27:31Z</time></trkpt><trkpt lat="42.83415770462875" lon="140.82106593770635"><ele>1281.0985458698124</ele><time>2022-08-27T00:28:42Z</time></trkpt><trkpt lat="42.83400292209177" lon="140.82093672385"><ele>1288.8991069803014</ele><time>2022-08-27T00:29:40Z</time></trkpt><trkpt lat="42.833880947106785" lon="140.82075316646976"><ele>1299.0966615825891</ele><time>2022-08-27T00:30:38Z</time></trkpt><trkpt lat="42.83379232881754" lon="140.82052743117706"><ele>1311.493969283998</ele><time>2022-08-27T00:32:15Z</time></trkpt><trkpt lat="42.833654678531175" lon="140.82036657967913"><ele>1321.7910493090749</ele><time>2022-08-27T00:33:09Z</time></trkpt><trkpt lat="42.83367055109079" lon="140.82011436360085"><ele>1331.0938624208793</ele><time>2022-08-27T00:35:26Z</time></trkpt><trkpt lat="42.833516290160304" lon="140.81998753938885"><ele>1338.1302455347031</ele><time>2022-08-27T00:36:06Z</time></trkpt><trkpt lat="42.83349188887784" lon="140.8197429688835"><ele>1352.4204619359225</ele><time>2022-08-27T00:37:03Z</time></trkpt><trkpt lat="42.83341460040012" lon="140.8195217897918"><ele>1364.8043128736317</ele><time>2022-08-27T00:38:22Z</time></trkpt><trkpt lat="42.83333067035555" lon="140.8193019481827"><ele>1380.625755877234</ele><time>2022-08-27T00:39:35Z</time></trkpt><trkpt lat="42.833227403381706" lon="140.81909704669454"><ele>1391.9141908055171</ele><time>2022-08-27T00:40:57Z</time></trkpt><trkpt lat="42.83318604741815" lon="140.81884677285967"><ele>1404.522241286002</ele><time>2022-08-27T00:42:15Z</time></trkpt><trkpt lat="42.833164163138164" lon="140.8185970967481"><ele>1414.7230820693076</ele><time>2022-08-27T00:43:24Z</time></trkpt><trkpt lat="42.83299513095886" lon="140.81851031652877"><ele>1421.8746128994972</ele><time>2022-08-27T00:44:07Z</time></trkpt><trkpt lat="42.83300824180284" lon="140.81825629454812"><ele>1430.5852126609534</ele><time>2022-08-27T00:44:57Z</time></trkpt><trkpt lat="42.832828538396164" lon="140.8182090662771"><ele>1441.0523505676538</ele><time>2022-08-27T00:45:42Z</time></trkpt><trkpt lat="42.832702762775035" lon="140.81802977825265"><ele>1452.5362725751474</ele><time>2022-08-27T00:46:43Z</time></trkpt><trkpt lat="42.832684706083626" lon="140.81777451874478"><ele>1463.138409756124</ele><time>2022-08-27T00:47:42Z</time></trkpt><trkpt lat="42.83260415224423" lon="140.81755281356138"><ele>1474.3045821776614</ele><time>2022-08-27T00:49:01Z</time></trkpt><trkpt lat="42.83267260254558" lon="140.81732492881721"><ele>1487.786380761303</ele><time>2022-08-27T00:50:03Z</time></trkpt><trkpt lat="42.832501740501534" lon="140.81724764717157"><ele>1495.4529554769397</ele><time>2022-08-27T00:51:14Z</time></trkpt><trkpt lat="42.83240901194813" lon="140.8170268741547"><ele>1509.4160138489679</ele><time>2022-08-27T00:52:26Z</time></trkpt><trkpt lat="42.83227006192284" lon="140.81687006679869"><ele>1524.4051995873451</ele><time>2022-08-27T00:53:31Z</time></trkpt><trkpt lat="42.83207474442754" lon="140.81685671980784"><ele>1529.6564392866567</ele><time>2022-08-27T00:54:06Z</time></trkpt><trkpt lat="42.83194025559" lon="140.81668747352117"><ele>1540.7159280395135</ele><time>2022-08-27T00:55:17Z</time></trkpt><trkpt lat="42.83186277718703" lon="140.81645616033094"><ele>1553.277126070112</ele><time>2022-08-27T00:56:29Z</time></trkpt><trkpt lat="42.83191040446856" lon="140.8162155857772"><ele>1562.8500416884199</ele><time>2022-08-27T00:57:26Z</time></trkpt><trkpt lat="42.83173872806553" lon="140.81612842862498"><ele>1570.290268132463</ele><time>2022-08-27T00:58:06Z</time></trkpt><trkpt lat="42.83170720022673" lon="140.8158826665086"><ele>1581.1279664114118</ele><time>2022-08-27T00:59:11Z</time></trkpt><trkpt lat="42.831752498097" lon="140.81564571077672"><ele>1593.0222957916558</ele><time>2022-08-27T01:00:23Z</time></trkpt><trkpt lat="42.831583578089024" lon="140.81554209555034"><ele>1601.695714741014</ele><time>2022-08-27T01:01:10Z</time></trkpt><trkpt lat="42.83158073997171" lon="140.8152958010172"><ele>1616.2732579028234</ele><time>2022-08-27T01:04:01Z</time></trkpt><trkpt lat="42.83142592280505" lon="140.81516285776465"><ele>1621.5418150788173</ele><time>2022-08-27T01:04:49Z</time></trkpt><trkpt lat="42.83137019748232" lon="140.8149227742273"><ele>1634.375708851032</ele><time>2022-08-27T01:06:03Z</time></trkpt><trkpt lat="42.83130635549069" lon="140.8146740695422"><ele>1645.4240441033617</ele><time>2022-08-27T01:07:27Z</time></trkpt><trkpt lat="42.83116920263971" lon="140.81451036135658"><ele>1655.961795276031</ele><time>2022-08-27T01:08:17Z</time></trkpt><trkpt lat="42.83114096506152" lon="140.81425695889783"><ele>1669.879554066807</ele><time>2022-08-27T01:09:43Z</time></trkpt><trkpt lat="42.83101718379338" lon="140.8140540511755"><ele>1678.9676473345608</ele><time>2022-08-27T01:10:42Z</time></trkpt><trkpt lat="42.83087998947139" lon="140.81388610092844"><ele>1693.6196759026498</ele><time>2022-08-27T01:11:49Z</time></trkpt><trkpt lat="42.83071371487365" lon="140.81375524362755"><ele>1706.8836973728612</ele><time>2022-08-27T01:13:11Z</time></trkpt><trkpt lat="42.830596060463556" lon="140.8135681303736"><ele>1712.3528173565865</ele><time>2022-08-27T01:14:26Z</time></trkpt><trkpt lat="42.83041489474577" lon="140.8135392784064"><ele>1727.1831868812442</ele><time>2022-08-27T01:15:24Z</time></trkpt><trkpt lat="42.83023012228951" lon="140.8135537950472"><ele>1734.2285260437056</ele><time>2022-08-27T01:16:20Z</time></trkpt><trkpt lat="42.830207242311694" lon="140.81330213455126"><ele>1746.2649628417566</ele><time>2022-08-27T01:17:27Z</time></trkpt><trkpt lat="42.83027894757589" lon="140.81306554855846"><ele>1755.806824077852</ele><time>2022-08-27T01:18:48Z</time></trkpt><trkpt lat="42.83010987983222" lon="140.81294981083602"><ele>1766.6164742773399</ele><time>2022-08-27T01:19:41Z</time></trkpt><trkpt lat="42.830089262593376" lon="140.8127034847535"><ele>1777.534471203573</ele><time>2022-08-27T01:20:51Z</time></trkpt><trkpt lat="42.82999114629682" lon="140.81249508386006"><ele>1787.1864977497607</ele><time>2022-08-27T01:21:47Z</time></trkpt><trkpt lat="42.82986692922386" lon="140.81231211931686"><ele>1797.501943594776</ele><time>2022-08-27T01:22:56Z</time></trkpt><trkpt lat="42.829695177563906" lon="140.81223816629583"><ele>1807.9332273481414</ele><time>2022-08-27T01:27:03Z</time></trkpt><trkpt lat="42.82968741785646" lon="140.8119912135386"><ele>1816.8103942098096</ele><time>2022-08-27T01:37:21Z</time></trkpt><trkpt lat="42.82951329380037" lon="140.81192325088446"><ele>1826.393091443926</ele><time>2022-08-27T01:38:13Z</time></trkpt><trkpt lat="42.829348257956525" lon="140.81182226834417"><ele>1831.990516886115</ele><time>2022-08-27T01:38:59Z</time></trkpt><trkpt lat="42.829267696090895" lon="140.81160026096387"><ele>1842.2131191091612</ele><time>2022-08-27T01:40:17Z</time></trkpt><trkpt lat="42.829256186109156" lon="140.81135413417684"><ele>1855.193647143431</ele><time>2022-08-27T01:41:22Z</time></trkpt><trkpt lat="42.8291444838459" lon="140.81115927577898"><ele>1866.550785286352</ele><time>2022-08-27T01:42:38Z</time></trkpt><trkpt lat="42.829085979331275" lon="140.81092194940413"><ele>1880.6915869461372</ele><time>2022-08-27T01:43:45Z</time></trkpt><trkpt lat="42.82900401081687" lon="140.810702191494"><ele>1887.4265597108752</ele><time>2022-08-27T01:44:46Z</time></trkpt><trkpt lat="42.82882060660063" lon="140.81067596678673"><ele>1888.4637690205127</ele><time>2022-08-27T01:46:49Z</time></trkpt><trkpt lat="42.82881351907853" lon="140.8109205959181"><ele>1879.4944368898869</ele><time>2022-08-27T01:50:38Z</time></trkpt><trkpt lat="42.82862636665268" lon="140.81090305560224"><ele>1886.8251951690763</ele><time>2022-08-27T01:50:59Z</time></trkpt><trkpt lat="42.82845108525869" lon="140.8109915620134"><ele>1890.9677944248542</ele><time>2022-08-27T01:51:21Z</time></trkpt><trkpt lat="42.828331694484895" lon="140.81118421252967"><ele>1888.5809362176806</ele><time>2022-08-27T01:51:50Z</time></trkpt><trkpt lat="42.828169149651416" lon="140.81130797716284"><ele>1888.502710070461</ele><time>2022-08-27T01:52:17Z</time></trkpt><trkpt lat="42.828024293324034" lon="140.8114544539388"><ele>1888.0541123710573</ele><time>2022-08-27T01:52:32Z</time></trkpt><trkpt lat="42.827872045949796" lon="140.81162130164844"><ele>1885.2996957590804</ele><time>2022-08-27T01:53:00Z</time></trkpt><trkpt lat="42.82772469346372" lon="140.81176176790444"><ele>1882.2989717330784</ele><time>2022-08-27T01:53:23Z</time></trkpt><trkpt lat="42.82754694138611" lon="140.81171869119902"><ele>1882.8721105754375</ele><time>2022-08-27T01:53:54Z</time></trkpt><trkpt lat="42.82736682458506" lon="140.8117888236838"><ele>1882.7762984540313</ele><time>2022-08-27T01:54:17Z</time></trkpt><trkpt lat="42.82718630781092" lon="140.81175551645796"><ele>1885.3723752601072</ele><time>2022-08-27T01:54:49Z</time></trkpt><trkpt lat="42.82701764125796" lon="140.81163371349308"><ele>1878.7492373166606</ele><time>2022-08-27T01:55:36Z</time></trkpt><trkpt lat="42.82683979331469" lon="140.81156202412268"><ele>1881.2331321835518</ele><time>2022-08-27T01:56:00Z</time></trkpt><trkpt lat="42.82666428014049" lon="140.81149565957526"><ele>1885.738096605055</ele><time>2022-08-27T01:56:46Z</time></trkpt><trkpt lat="42.82680468477829" lon="140.81167029838804"><ele>1879.5551666384563</ele><time>2022-08-27T02:02:33Z</time></trkpt><trkpt lat="42.82698013476324" lon="140.81160958935197"><ele>1880.7629014067352</ele><time>2022-08-27T02:02:55Z</time></trkpt><trkpt lat="42.827103062426545" lon="140.81179091893694"><ele>1881.5887723900378</ele><time>2022-08-27T02:03:16Z</time></trkpt><trkpt lat="42.827214142446834" lon="140.81198435114035"><ele>1883.5337370708585</ele><time>2022-08-27T02:04:50Z</time></trkpt><trkpt lat="42.82739261763982" lon="140.81187939279275"><ele>1886.3749448768795</ele><time>2022-08-27T02:06:25Z</time></trkpt><trkpt lat="42.82751296879188" lon="140.81168470936788"><ele>1887.3567211488262</ele><time>2022-08-27T02:06:56Z</time></trkpt><trkpt lat="42.82771475628319" lon="140.81170025920736"><ele>1883.9745553871617</ele><time>2022-08-27T02:07:26Z</time></trkpt><trkpt lat="42.827882691534974" lon="140.81159856881226"><ele>1883.5575129017234</ele><time>2022-08-27T02:07:47Z</time></trkpt><trkpt lat="42.82805226648804" lon="140.8114891760913"><ele>1883.0947786914185</ele><time>2022-08-27T02:08:08Z</time></trkpt><trkpt lat="42.828163751942576" lon="140.81128725889744"><ele>1887.045979982242</ele><time>2022-08-27T02:08:33Z</time></trkpt><trkpt lat="42.82831961680965" lon="140.81115703096387"><ele>1890.278351051733</ele><time>2022-08-27T02:08:49Z</time></trkpt><trkpt lat="42.82847777316908" lon="140.81101811949642"><ele>1888.6306064566597</ele><time>2022-08-27T02:09:04Z</time></trkpt><trkpt lat="42.82865327509609" lon="140.81090491260645"><ele>1884.667934525758</ele><time>2022-08-27T02:09:20Z</time></trkpt><trkpt lat="42.828833171393235" lon="140.8109144397099"><ele>1883.9166451869532</ele><time>2022-08-27T02:09:43Z</time></trkpt><trkpt lat="42.828847020218696" lon="140.8111618971702"><ele>1875.7699377601966</ele><time>2022-08-27T02:11:05Z</time></trkpt><trkpt lat="42.82893753177407" lon="140.81138334150262"><ele>1862.0158148435876</ele><time>2022-08-27T02:11:41Z</time></trkpt><trkpt lat="42.82903284094123" lon="140.8115909886981"><ele>1855.0438711550087</ele><time>2022-08-27T02:12:29Z</time></trkpt><trkpt lat="42.82922410979686" lon="140.81160581864492"><ele>1847.6592452991754</ele><time>2022-08-27T02:14:25Z</time></trkpt><trkpt lat="42.82931447877432" lon="140.81185213687147"><ele>1837.5983847603202</ele><time>2022-08-27T02:15:17Z</time></trkpt><trkpt lat="42.82949645243229" lon="140.81189323661215"><ele>1824.7481781579554</ele><time>2022-08-27T02:15:49Z</time></trkpt><trkpt lat="42.829650858713386" lon="140.81203588911748"><ele>1821.4942961139604</ele><time>2022-08-27T02:17:49Z</time></trkpt><trkpt lat="42.82962302624957" lon="140.81229733746412"><ele>1812.2164479754865</ele><time>2022-08-27T02:18:44Z</time></trkpt><trkpt lat="42.829809428291476" lon="140.81225930771404"><ele>1805.4772266633809</ele><time>2022-08-27T02:19:16Z</time></trkpt><trkpt lat="42.82993700016774" lon="140.81245126483165"><ele>1793.9474105294794</ele><time>2022-08-27T02:20:03Z</time></trkpt><trkpt lat="42.830017909012014" lon="140.81268009121942"><ele>1789.050567126833</ele><time>2022-08-27T02:20:49Z</time></trkpt><trkpt lat="42.83019559923742" lon="140.8127293952308"><ele>1773.0675875199959</ele><time>2022-08-27T02:22:11Z</time></trkpt><trkpt lat="42.8301279188067" lon="140.81295945215953"><ele>1773.177083030343</ele><time>2022-08-27T02:22:38Z</time></trkpt><trkpt lat="42.83031031330016" lon="140.81302975284638"><ele>1766.2340836711228</ele><time>2022-08-27T02:23:49Z</time></trkpt><trkpt lat="42.83016103121376" lon="140.81323958642008"><ele>1767.8899517143145</ele><time>2022-08-27T02:24:20Z</time></trkpt><trkpt lat="42.83021382646267" lon="140.81349098733656"><ele>1738.5356291793287</ele><time>2022-08-27T02:26:36Z</time></trkpt><trkpt lat="42.830406268118445" lon="140.8135381289074"><ele>1729.573960825801</ele><time>2022-08-27T02:27:52Z</time></trkpt><trkpt lat="42.83058722250781" lon="140.8134953983061"><ele>1724.0351371075958</ele><time>2022-08-27T02:28:26Z</time></trkpt><trkpt lat="42.830616210151476" lon="140.81374075383232"><ele>1713.0544304661453</ele><time>2022-08-27T02:29:45Z</time></trkpt><trkpt lat="42.83078523897175" lon="140.81383470128262"><ele>1706.1306125279516</ele><time>2022-08-27T02:30:43Z</time></trkpt><trkpt lat="42.83094988358484" lon="140.81394566388704"><ele>1693.5643463181332</ele><time>2022-08-27T02:31:37Z</time></trkpt><trkpt lat="42.8311020181574" lon="140.81408632286497"><ele>1677.582593517378</ele><time>2022-08-27T02:32:58Z</time></trkpt><trkpt lat="42.831144360097014" lon="140.81433053836076"><ele>1671.8118949141353</ele><time>2022-08-27T02:33:53Z</time></trkpt><trkpt lat="42.83117751413567" lon="140.81459559472086"><ele>1656.1602593194693</ele><time>2022-08-27T02:35:01Z</time></trkpt><trkpt lat="42.83131393954014" lon="140.8147653732043"><ele>1641.3495624233037</ele><time>2022-08-27T02:38:37Z</time></trkpt><trkpt lat="42.83136209587325" lon="140.81500380904956"><ele>1634.2132640890777</ele><time>2022-08-27T02:39:50Z</time></trkpt><trkpt lat="42.83146238378417" lon="140.81521730719163"><ele>1621.770407244563</ele><time>2022-08-27T02:41:26Z</time></trkpt><trkpt lat="42.83156937721636" lon="140.8154165739267"><ele>1611.6646546106786</ele><time>2022-08-27T02:42:37Z</time></trkpt><trkpt lat="42.831627025139234" lon="140.815650791315"><ele>1597.7892698226497</ele><time>2022-08-27T02:44:01Z</time></trkpt><trkpt lat="42.83169030927804" lon="140.81589609292033"><ele>1585.916569427587</ele><time>2022-08-27T02:45:21Z</time></trkpt><trkpt lat="42.83180728081976" lon="140.81608944558508"><ele>1571.8978906664997</ele><time>2022-08-27T02:46:42Z</time></trkpt><trkpt lat="42.831949148843464" lon="140.81624078777944"><ele>1561.4850162649527</ele><time>2022-08-27T02:48:03Z</time></trkpt><trkpt lat="42.831901871717704" lon="140.8164838591544"><ele>1558.9883832382038</ele><time>2022-08-27T02:48:18Z</time></trkpt><trkpt lat="42.83188982056733" lon="140.8167426312367"><ele>1544.2042331164703</ele><time>2022-08-27T02:49:42Z</time></trkpt><trkpt lat="42.83204076366224" lon="140.8168977602465"><ele>1531.5513084372506</ele><time>2022-08-27T02:51:12Z</time></trkpt><trkpt lat="42.832221943104656" lon="140.81687729055463"><ele>1527.432046957314</ele><time>2022-08-27T02:51:57Z</time></trkpt><trkpt lat="42.832337608815514" lon="140.81707169663056"><ele>1519.1716895196587</ele><time>2022-08-27T02:52:52Z</time></trkpt><trkpt lat="42.832517672845356" lon="140.8171040370137"><ele>1506.865326604806</ele><time>2022-08-27T02:53:50Z</time></trkpt><trkpt lat="42.83253560836947" lon="140.81735091173874"><ele>1494.0959415370598</ele><time>2022-08-27T02:54:57Z</time></trkpt><trkpt lat="42.83266068263348" lon="140.81717264941352"><ele>1491.8964229030535</ele><time>2022-08-27T02:55:37Z</time></trkpt><trkpt lat="42.83264533444968" lon="140.81743773621096"><ele>1485.9423831766471</ele><time>2022-08-27T02:56:22Z</time></trkpt><trkpt lat="42.83263532357101" lon="140.817700696031"><ele>1471.5783127266914</ele><time>2022-08-27T02:57:43Z</time></trkpt><trkpt lat="42.8327441431639" lon="140.8179039817187"><ele>1460.0766220763326</ele><time>2022-08-27T02:58:52Z</time></trkpt><trkpt lat="42.83283779370909" lon="140.818114734114"><ele>1447.0071232309565</ele><time>2022-08-27T03:00:16Z</time></trkpt><trkpt lat="42.83293663726328" lon="140.81831967056223"><ele>1435.2339966855943</ele><time>2022-08-27T03:01:10Z</time></trkpt><trkpt lat="42.832982219407825" lon="140.81855817049174"><ele>1424.5266513973475</ele><time>2022-08-27T03:01:54Z</time></trkpt><trkpt lat="42.833163831840594" lon="140.81859196935207"><ele>1416.093365913257</ele><time>2022-08-27T03:02:47Z</time></trkpt><trkpt lat="42.83313021231041" lon="140.81884200209038"><ele>1409.0610465658829</ele><time>2022-08-27T03:03:21Z</time></trkpt><trkpt lat="42.83318393141893" lon="140.819089690243"><ele>1395.3851432893425</ele><time>2022-08-27T03:04:44Z</time></trkpt><trkpt lat="42.83335443650372" lon="140.81917943981884"><ele>1391.3728971295059</ele><time>2022-08-27T03:05:13Z</time></trkpt><trkpt lat="42.83331262182625" lon="140.81942744029828"><ele>1379.856813528575</ele><time>2022-08-27T03:06:37Z</time></trkpt><trkpt lat="42.83337081441173" lon="140.81966252100648"><ele>1363.4509139824659</ele><time>2022-08-27T03:08:03Z</time></trkpt><trkpt lat="42.83350375157081" lon="140.81983831770816"><ele>1352.2186994291842</ele><time>2022-08-27T03:09:20Z</time></trkpt><trkpt lat="42.833541935008554" lon="140.82007905831333"><ele>1338.7761151557788</ele><time>2022-08-27T03:10:22Z</time></trkpt><trkpt lat="42.83362201413884" lon="140.8203042684949"><ele>1330.4630433972925</ele><time>2022-08-27T03:11:10Z</time></trkpt><trkpt lat="42.833753602584146" lon="140.82049333585974"><ele>1319.9620758332312</ele><time>2022-08-27T03:13:01Z</time></trkpt><trkpt lat="42.83376251920149" lon="140.82078455786476"><ele>1306.485991222784</ele><time>2022-08-27T03:14:02Z</time></trkpt><trkpt lat="42.8339380074119" lon="140.8208625845835"><ele>1297.6911600530148</ele><time>2022-08-27T03:15:04Z</time></trkpt><trkpt lat="42.83409309912428" lon="140.82100448169575"><ele>1287.0970055796206</ele><time>2022-08-27T03:15:52Z</time></trkpt><trkpt lat="42.834137762945865" lon="140.82124526830705"><ele>1279.2090851217508</ele><time>2022-08-27T03:16:57Z</time></trkpt><trkpt lat="42.834326779914086" lon="140.82130041436122"><ele>1267.2164872093126</ele><time>2022-08-27T03:17:43Z</time></trkpt><trkpt lat="42.83429662793512" lon="140.82155842359967"><ele>1258.0737167121843</ele><time>2022-08-27T03:18:32Z</time></trkpt><trkpt lat="42.8343380142868" lon="140.8218024517517"><ele>1248.6860650451854</ele><time>2022-08-27T03:19:37Z</time></trkpt><trkpt lat="42.83445339275055" lon="140.82200744525196"><ele>1240.829934460111</ele><time>2022-08-27T03:20:43Z</time></trkpt><trkpt lat="42.83455788855058" lon="140.82221649781982"><ele>1226.4466979494318</ele><time>2022-08-27T03:22:18Z</time></trkpt><trkpt lat="42.83448052460757" lon="140.82245708463236"><ele>1217.994112463668</ele><time>2022-08-27T03:23:08Z</time></trkpt><trkpt lat="42.83468737213213" lon="140.82252297782068"><ele>1210.8247558725998</ele><time>2022-08-27T03:23:43Z</time></trkpt><trkpt lat="42.83474060052518" lon="140.82276391554495"><ele>1198.2602590182796</ele><time>2022-08-27T03:24:33Z</time></trkpt><trkpt lat="42.83483949961247" lon="140.8229713290039"><ele>1188.675937121734</ele><time>2022-08-27T03:26:37Z</time></trkpt><trkpt lat="42.83491952098858" lon="140.82319803874583"><ele>1181.0507151279598</ele><time>2022-08-27T03:27:25Z</time></trkpt><trkpt lat="42.83505580477742" lon="140.82336376806452"><ele>1163.4829610669985</ele><time>2022-08-27T03:28:44Z</time></trkpt><trkpt lat="42.83515614461529" lon="140.8236012666663"><ele>1156.1987320864573</ele><time>2022-08-27T03:29:35Z</time></trkpt><trkpt lat="42.8353200739834" lon="140.8237024864297"><ele>1152.180799533613</ele><time>2022-08-27T03:41:56Z</time></trkpt><trkpt lat="42.8353525889032" lon="140.82395974359406"><ele>1144.0905206669122</ele><time>2022-08-27T03:42:24Z</time></trkpt><trkpt lat="42.83549902568621" lon="140.82413015518108"><ele>1131.855639363639</ele><time>2022-08-27T03:43:14Z</time></trkpt><trkpt lat="42.83563928448113" lon="140.82436470859423"><ele>1124.9520807499066</ele><time>2022-08-27T03:44:39Z</time></trkpt><trkpt lat="42.83564224309537" lon="140.82463115692065"><ele>1113.5244825324044</ele><time>2022-08-27T03:46:52Z</time></trkpt><trkpt lat="42.83573292731755" lon="140.8248600916557"><ele>1099.360293793492</ele><time>2022-08-27T03:47:50Z</time></trkpt><trkpt lat="42.835905115524824" lon="140.82478063986835"><ele>1096.3612186089158</ele><time>2022-08-27T03:48:14Z</time></trkpt><trkpt lat="42.835882689049704" lon="140.82502729512"><ele>1084.2370306383818</ele><time>2022-08-27T03:48:57Z</time></trkpt><trkpt lat="42.8359351172004" lon="140.82528941676804"><ele>1076.342589144595</ele><time>2022-08-27T03:50:11Z</time></trkpt><trkpt lat="42.83586452843887" lon="140.82551917272437"><ele>1069.3225933788344</ele><time>2022-08-27T03:50:47Z</time></trkpt><trkpt lat="42.835975651418735" lon="140.82571563106112"><ele>1062.697297631763</ele><time>2022-08-27T03:51:39Z</time></trkpt><trkpt lat="42.836128682483015" lon="140.8258514423435"><ele>1051.834665977396</ele><time>2022-08-27T03:52:28Z</time></trkpt><trkpt lat="42.836239724560144" lon="140.82604536337828"><ele>1040.3925097119063</ele><time>2022-08-27T03:53:11Z</time></trkpt><trkpt lat="42.83621759873152" lon="140.82629750651287"><ele>1033.3547094305977</ele><time>2022-08-27T03:53:48Z</time></trkpt><trkpt lat="42.836295509420275" lon="140.8265298477887"><ele>1024.0336859403178</ele><time>2022-08-27T03:54:32Z</time></trkpt><trkpt lat="42.83638997713783" lon="140.82676950026735"><ele>1016.8012894010171</ele><time>2022-08-27T03:55:06Z</time></trkpt><trkpt lat="42.8365008487703" lon="140.82696925604137"><ele>1005.8381171254441</ele><time>2022-08-27T03:55:49Z</time></trkpt><trkpt lat="42.836566603848205" lon="140.8272052841753"><ele>995.3953592171893</ele><time>2022-08-27T03:57:01Z</time></trkpt><trkpt lat="42.83656335554603" lon="140.8274657656877"><ele>988.7368060909212</ele><time>2022-08-27T03:57:38Z</time></trkpt><trkpt lat="42.83673874488602" lon="140.82753743397868"><ele>981.8646793365479</ele><time>2022-08-27T03:58:14Z</time></trkpt><trkpt lat="42.83674062166383" lon="140.8277983804056"><ele>977.7397653572261</ele><time>2022-08-27T03:59:29Z</time></trkpt><trkpt lat="42.83676107412223" lon="140.82804476090783"><ele>971.500280125998</ele><time>2022-08-27T04:01:19Z</time></trkpt><trkpt lat="42.836951165367864" lon="140.82804028687582"><ele>966.6441663792357</ele><time>2022-08-27T04:01:41Z</time></trkpt><trkpt lat="42.83711274828503" lon="140.82792307717378"><ele>960.5882920473814</ele><time>2022-08-27T04:01:59Z</time></trkpt><trkpt lat="42.83705138219733" lon="140.82816066592696"><ele>954.9662276646122</ele><time>2022-08-27T04:02:26Z</time></trkpt><trkpt lat="42.83708420499452" lon="140.82841033369652"><ele>947.8750497307628</ele><time>2022-08-27T04:02:57Z</time></trkpt><trkpt lat="42.83721873548914" lon="140.828587710226"><ele>942.6209197631106</ele><time>2022-08-27T04:03:37Z</time></trkpt><trkpt lat="42.837220646344676" lon="140.82884770643878"><ele>939.9281202154234</ele><time>2022-08-27T04:04:01Z</time></trkpt><trkpt lat="42.837360134082616" lon="140.82900434416302"><ele>928.7978698462248</ele><time>2022-08-27T04:05:17Z</time></trkpt><trkpt lat="42.83723793079759" lon="140.82921051443904"><ele>925.1544827492908</ele><time>2022-08-27T04:05:33Z</time></trkpt><trkpt lat="42.837216136176764" lon="140.82945335194685"><ele>918.5544670959935</ele><time>2022-08-27T04:06:02Z</time></trkpt><trkpt lat="42.83740542829932" lon="140.8295845466225"><ele>911.8089309940115</ele><time>2022-08-27T04:06:31Z</time></trkpt><trkpt lat="42.83740082189374" lon="140.82983830946011"><ele>903.1004490219057</ele><time>2022-08-27T04:07:16Z</time></trkpt><trkpt lat="42.83758483190549" lon="140.82983838732605"><ele>897.729674981907</ele><time>2022-08-27T04:07:41Z</time></trkpt><trkpt lat="42.83766318384163" lon="140.83008873619193"><ele>891.5872367285192</ele><time>2022-08-27T04:08:16Z</time></trkpt><trkpt lat="42.83767551918767" lon="140.8303577829502"><ele>882.5196753526106</ele><time>2022-08-27T04:08:49Z</time></trkpt><trkpt lat="42.837876570117544" lon="140.8302606731147"><ele>875.0649055950344</ele><time>2022-08-27T04:09:36Z</time></trkpt><trkpt lat="42.83778632670198" lon="140.83052321353006"><ele>870.2870455812663</ele><time>2022-08-27T04:10:04Z</time></trkpt><trkpt lat="42.8378919798473" lon="140.8307358433706"><ele>863.2938214698806</ele><time>2022-08-27T04:10:33Z</time></trkpt><trkpt lat="42.83792298909812" lon="140.83097891207348"><ele>852.6231830334291</ele><time>2022-08-27T04:14:37Z</time></trkpt><trkpt lat="42.83808743382876" lon="140.83107971467513"><ele>843.9539696117863</ele><time>2022-08-27T04:15:10Z</time></trkpt><trkpt lat="42.83821208471283" lon="140.83126137664198"><ele>834.0903186658397</ele><time>2022-08-27T04:16:00Z</time></trkpt><trkpt lat="42.83822823956636" lon="140.83150577397038"><ele>827.0020836144686</ele><time>2022-08-27T04:16:27Z</time></trkpt><trkpt lat="42.83823295196449" lon="140.83175762442653"><ele>819.9519792785868</ele><time>2022-08-27T04:16:52Z</time></trkpt><trkpt lat="42.838361766933076" lon="140.83193665223988"><ele>810.4835766823962</ele><time>2022-08-27T04:17:32Z</time></trkpt><trkpt lat="42.83845265044845" lon="140.83215521000167"><ele>802.9459496447816</ele><time>2022-08-27T04:18:15Z</time></trkpt><trkpt lat="42.8384937524955" lon="140.83239661705755"><ele>799.1759190149605</ele><time>2022-08-27T04:18:47Z</time></trkpt><trkpt lat="42.83859492784969" lon="140.83260065204837"><ele>793.1747881183401</ele><time>2022-08-27T04:19:26Z</time></trkpt><trkpt lat="42.83867607946532" lon="140.8328196812647"><ele>789.055799106136</ele><time>2022-08-27T04:19:51Z</time></trkpt><trkpt lat="42.83877861160716" lon="140.8330293944982"><ele>780.2449779901654</ele><time>2022-08-27T04:20:13Z</time></trkpt><trkpt lat="42.83879812004469" lon="140.8332736531385"><ele>775.790931972675</ele><time>2022-08-27T04:20:40Z</time></trkpt><trkpt lat="42.83885540627146" lon="140.83350834512703"><ele>772.5498655317351</ele><time>2022-08-27T04:21:00Z</time></trkpt><trkpt lat="42.838856327797544" lon="140.83376985441743"><ele>765.5604513296857</ele><time>2022-08-27T04:21:25Z</time></trkpt><trkpt lat="42.83896155657771" lon="140.83399022902765"><ele>758.8489891821519</ele><time>2022-08-27T04:21:49Z</time></trkpt><trkpt lat="42.83904232661313" lon="140.83422447646217"><ele>752.9586284589022</ele><time>2022-08-27T04:22:08Z</time></trkpt><trkpt lat="42.83913325169397" lon="140.83444490199494"><ele>748.4720608768985</ele><time>2022-08-27T04:22:28Z</time></trkpt><trkpt lat="42.83922526739419" lon="140.8346742073772"><ele>744.7553950864822</ele><time>2022-08-27T04:22:42Z</time></trkpt><trkpt lat="42.83935386316134" lon="140.83487206389844"><ele>735.2280770074576</ele><time>2022-08-27T04:22:54Z</time></trkpt><trkpt lat="42.839427829751834" lon="140.83512620905574"><ele>732.5743500674143</ele><time>2022-08-27T04:23:06Z</time></trkpt><trkpt lat="42.83952484155986" lon="140.83533438586807"><ele>727.6827187500894</ele><time>2022-08-27T04:23:16Z</time></trkpt><trkpt lat="42.83965749834341" lon="140.83552415805494"><ele>720.5886481860653</ele><time>2022-08-27T04:23:33Z</time></trkpt><trkpt lat="42.83965798555759" lon="140.83577994375688"><ele>711.2741980822757</ele><time>2022-08-27T04:23:51Z</time></trkpt><trkpt lat="42.83967173513575" lon="140.83602512843595"><ele>701.0262477118522</ele><time>2022-08-27T04:24:12Z</time></trkpt><trkpt lat="42.83967281047801" lon="140.83628494347295"><ele>695.7865445520729</ele><time>2022-08-27T04:24:29Z</time></trkpt><trkpt lat="42.8397136106385" lon="140.8365314863666"><ele>689.4539369372651</ele><time>2022-08-27T04:24:41Z</time></trkpt><trkpt lat="42.839709680573584" lon="140.83679706239582"><ele>682.440407496877</ele><time>2022-08-27T04:24:53Z</time></trkpt><trkpt lat="42.83976075583793" lon="140.83703683207304"><ele>679.121480980888</ele><time>2022-08-27T04:25:04Z</time></trkpt><trkpt lat="42.83974121726835" lon="140.83728500957972"><ele>669.3539236970246</ele><time>2022-08-27T04:25:14Z</time></trkpt><trkpt lat="42.83960289776457" lon="140.83746301391454"><ele>670.3926383899525</ele><time>2022-08-27T04:25:24Z</time></trkpt><trkpt lat="42.83963490547837" lon="140.8377392340466"><ele>664.6571188028902</ele><time>2022-08-27T04:25:34Z</time></trkpt><trkpt lat="42.839737720805545" lon="140.8379734840122"><ele>662.4010316086933</ele><time>2022-08-27T04:25:43Z</time></trkpt><trkpt lat="42.83978897261299" lon="140.83821300457706"><ele>652.6228873226792</ele><time>2022-08-27T04:25:54Z</time></trkpt><trkpt lat="42.83966374069851" lon="140.83841344841795"><ele>640.2361208945513</ele><time>2022-08-27T04:26:21Z</time></trkpt><trkpt lat="42.839657367319155" lon="140.83868016211713"><ele>642.1675351979211</ele><time>2022-08-27T04:26:46Z</time></trkpt><trkpt lat="42.839801097012426" lon="140.8388354291418"><ele>633.6280116448179</ele><time>2022-08-27T04:26:55Z</time></trkpt><trkpt lat="42.839871430524795" lon="140.83907266807356"><ele>623.7986623831093</ele><time>2022-08-27T04:27:05Z</time></trkpt><trkpt lat="42.83995779254219" lon="140.83928772139953"><ele>618.0434020776302</ele><time>2022-08-27T04:27:14Z</time></trkpt><trkpt lat="42.84009906796392" lon="140.83945253513198"><ele>613.3020429369062</ele><time>2022-08-27T04:27:24Z</time></trkpt><trkpt lat="42.84020929034331" lon="140.83965914193544"><ele>610.6636270815507</ele><time>2022-08-27T04:27:37Z</time></trkpt><trkpt lat="42.840357127220315" lon="140.83984883390855"><ele>605.5695259971544</ele><time>2022-08-27T04:27:44Z</time></trkpt><trkpt lat="42.840526466369475" lon="140.84000983908004"><ele>600.7374075641856</ele><time>2022-08-27T04:27:53Z</time></trkpt><trkpt lat="42.8406581428555" lon="140.84020021052348"><ele>598.0408024629578</ele><time>2022-08-27T04:28:01Z</time></trkpt><trkpt lat="42.84076366575174" lon="140.84041668091675"><ele>590.5334608303383</ele><time>2022-08-27T04:28:11Z</time></trkpt><trkpt lat="42.84090006770273" lon="140.84058086802102"><ele>589.8129588365555</ele><time>2022-08-27T04:28:19Z</time></trkpt><trkpt lat="42.841033844976465" lon="140.84078472907154"><ele>587.7857451867312</ele><time>2022-08-27T04:28:28Z</time></trkpt><trkpt lat="42.84118268412177" lon="140.8409621103552"><ele>582.7427145112306</ele><time>2022-08-27T04:28:36Z</time></trkpt><trkpt lat="42.841288436005996" lon="140.84116837465788"><ele>575.8606938850135</ele><time>2022-08-27T04:28:43Z</time></trkpt><trkpt lat="42.841412126761504" lon="140.8413497282178"><ele>569.7686266023666</ele><time>2022-08-27T04:28:57Z</time></trkpt><trkpt lat="42.84149960795473" lon="140.8415844710642"><ele>570.0446315184236</ele><time>2022-08-27T04:29:36Z</time></trkpt><trkpt lat="42.84157516079249" lon="140.8418381753777"><ele>565.4431321425363</ele><time>2022-08-27T04:29:42Z</time></trkpt><trkpt lat="42.84164996761786" lon="140.84206609602572"><ele>561.2932696212083</ele><time>2022-08-27T04:29:49Z</time></trkpt><trkpt lat="42.84174639753574" lon="140.84229276548385"><ele>556.8120339000598</ele><time>2022-08-27T04:29:56Z</time></trkpt><trkpt lat="42.84185908288735" lon="140.84251915290366"><ele>551.6550402566791</ele><time>2022-08-27T04:30:02Z</time></trkpt><trkpt lat="42.84198834709882" lon="140.8427198205842"><ele>548.5659437449649</ele><time>2022-08-27T04:30:08Z</time></trkpt><trkpt lat="42.842115375117444" lon="140.8429216684916"><ele>542.4198372075334</ele><time>2022-08-27T04:30:14Z</time></trkpt><trkpt lat="42.84220355735666" lon="140.8431772829824"><ele>536.9087819037959</ele><time>2022-08-27T04:30:20Z</time></trkpt><trkpt lat="42.84230516075152" lon="140.8434100364322"><ele>535.3891068901867</ele><time>2022-08-27T04:30:26Z</time></trkpt><trkpt lat="42.84241484298788" lon="140.84363893545054"><ele>530.8939648801461</ele><time>2022-08-27T04:30:33Z</time></trkpt><trkpt lat="42.84251084943705" lon="140.84386906691444"><ele>527.5588216008618</ele><time>2022-08-27T04:30:39Z</time></trkpt><trkpt lat="42.84259420670142" lon="140.84411528442965"><ele>525.7410074705258</ele><time>2022-08-27T04:30:46Z</time></trkpt><trkpt lat="42.84266346856879" lon="140.84434622529125"><ele>522.307806477882</ele><time>2022-08-27T04:30:54Z</time></trkpt><trkpt lat="42.84271310988374" lon="140.84460025235367"><ele>513.8669349737465</ele><time>2022-08-27T04:31:03Z</time></trkpt><trkpt lat="42.84277009869629" lon="140.84485857126452"><ele>510.52854270953685</ele><time>2022-08-27T04:31:10Z</time></trkpt><trkpt lat="42.84283822167938" lon="140.8450979625555"><ele>505.5937176430598</ele><time>2022-08-27T04:31:17Z</time></trkpt><trkpt lat="42.84289718471361" lon="140.84533987346583"><ele>502.465689775534</ele><time>2022-08-27T04:31:24Z</time></trkpt><trkpt lat="42.843000260385956" lon="140.84556349405787"><ele>500.18788081407547</ele><time>2022-08-27T04:31:31Z</time></trkpt><trkpt lat="42.84305478488349" lon="140.84581095096863"><ele>497.8419654779136</ele><time>2022-08-27T04:31:38Z</time></trkpt><trkpt lat="42.84315581817892" lon="140.84604411435853"><ele>494.79309688322246</ele><time>2022-08-27T04:31:45Z</time></trkpt><trkpt lat="42.84322945739282" lon="140.846270272884"><ele>492.82147678826004</ele><time>2022-08-27T04:31:51Z</time></trkpt><trkpt lat="42.8432831335601" lon="140.8465058553468"><ele>488.7114971745759</ele><time>2022-08-27T04:31:56Z</time></trkpt><trkpt lat="42.84336442480076" lon="140.84675779403054"><ele>486.1082063456997</ele><time>2022-08-27T04:32:02Z</time></trkpt><trkpt lat="42.843448708752234" lon="140.84698142245153"><ele>482.6802098825574</ele><time>2022-08-27T04:32:08Z</time></trkpt><trkpt lat="42.84351115872659" lon="140.8472281379363"><ele>479.61531567014754</ele><time>2022-08-27T04:32:14Z</time></trkpt><trkpt lat="42.84358886966325" lon="140.84746791207297"><ele>477.6912848725915</ele><time>2022-08-27T04:32:20Z</time></trkpt><trkpt lat="42.84365711653588" lon="140.84769620840808"><ele>476.0938239041716</ele><time>2022-08-27T04:32:25Z</time></trkpt><trkpt lat="42.84373107952991" lon="140.84794826034633"><ele>473.3510188376531</ele><time>2022-08-27T04:32:31Z</time></trkpt><trkpt lat="42.84379361455667" lon="140.84819360317462"><ele>471.210493195802</ele><time>2022-08-27T04:32:37Z</time></trkpt><trkpt lat="42.843846393300744" lon="140.848435648426"><ele>469.1440836125985</ele><time>2022-08-27T04:32:53Z</time></trkpt><trkpt lat="42.84387719555336" lon="140.84867972354252"><ele>465.38345412909985</ele><time>2022-08-27T04:33:07Z</time></trkpt><trkpt lat="42.84390788243882" lon="140.84894293449247"><ele>461.65775880683213</ele><time>2022-08-27T04:33:21Z</time></trkpt><trkpt lat="42.843941081646776" lon="140.8491957981426"><ele>459.5462146261707</ele><time>2022-08-27T04:33:34Z</time></trkpt><trkpt lat="42.84398425094286" lon="140.84943552565687"><ele>455.6943257134408</ele><time>2022-08-27T04:33:48Z</time></trkpt><trkpt lat="42.84403036102988" lon="140.849685675296"><ele>453.47351522371173</ele><time>2022-08-27T04:34:02Z</time></trkpt><trkpt lat="42.844090487143866" lon="140.84992689759966"><ele>454.2156149074435</ele><time>2022-08-27T04:34:16Z</time></trkpt><trkpt lat="42.84417943624648" lon="140.8501474488299"><ele>448.74613999575377</ele><time>2022-08-27T04:34:31Z</time></trkpt><trkpt lat="42.84424348177002" lon="140.85038085172394"><ele>449.1056571220979</ele><time>2022-08-27T04:34:48Z</time></trkpt><trkpt lat="42.84429899988299" lon="140.85062459192827"><ele>446.39035309292376</ele><time>2022-08-27T04:35:03Z</time></trkpt><trkpt lat="42.84434484345875" lon="140.85086322730226"><ele>443.9183001415804</ele><time>2022-08-27T04:35:17Z</time></trkpt><trkpt lat="42.844393153415055" lon="140.85110889805244"><ele>442.09993127081543</ele><time>2022-08-27T04:35:32Z</time></trkpt><trkpt lat="42.844425356528355" lon="140.85136882281842"><ele>439.7928691711277</ele><time>2022-08-27T04:35:48Z</time></trkpt><trkpt lat="42.844462693487976" lon="140.85162267605554"><ele>437.162152543664</ele><time>2022-08-27T04:36:03Z</time></trkpt><trkpt lat="42.844507531742615" lon="140.851872442778"><ele>435.3276581550017</ele><time>2022-08-27T04:36:18Z</time></trkpt><trkpt lat="42.84453104212403" lon="140.85212552971694"><ele>432.79679589159787</ele><time>2022-08-27T04:36:33Z</time></trkpt><trkpt lat="42.8445456175616" lon="140.85238123447073"><ele>432.31020092591643</ele><time>2022-08-27T04:36:48Z</time></trkpt><trkpt lat="42.84457151117318" lon="140.85263207827964"><ele>431.09115800913423</ele><time>2022-08-27T04:37:03Z</time></trkpt><trkpt lat="42.844570899483976" lon="140.85288655239646"><ele>429.79918500967324</ele><time>2022-08-27T04:37:19Z</time></trkpt><trkpt lat="42.84458804255228" lon="140.85313606550284"><ele>427.99081331212074</ele><time>2022-08-27T04:37:33Z</time></trkpt><trkpt lat="42.844609470557714" lon="140.8533806829395"><ele>428.3492091819644</ele><time>2022-08-27T04:37:48Z</time></trkpt><trkpt lat="42.844623507758236" lon="140.85362500340187"><ele>427.348584163934</ele><time>2022-08-27T04:38:04Z</time></trkpt><trkpt lat="42.844654867950986" lon="140.85387495441557"><ele>424.4880078714341</ele><time>2022-08-27T04:38:19Z</time></trkpt><trkpt lat="42.84467956519145" lon="140.85412212030351"><ele>423.10571851208806</ele><time>2022-08-27T04:38:34Z</time></trkpt><trkpt lat="42.844723621102354" lon="140.8543601309652"><ele>419.8841734752059</ele><time>2022-08-27T04:38:48Z</time></trkpt><trkpt lat="42.84472788454677" lon="140.85461049781551"><ele>418.8530204370618</ele><time>2022-08-27T04:39:04Z</time></trkpt><trkpt lat="42.84455521459347" lon="140.85471717381176"><ele>419.2012086957693</ele><time>2022-08-27T04:39:21Z</time></trkpt><trkpt lat="42.84437795177268" lon="140.8547873174944"><ele>419.2080353265628</ele><time>2022-08-27T04:39:34Z</time></trkpt></trkseg></trk></gpx>