<?xml version='1.0' encoding='UTF-8'?><gpx creator="YAMAP - https://yamap.com" xsi:schemaLocation="http://www.topografix.com/GPX/1/1 http://www.topografix.com/GPX/1/1/gpx.xsd" version="1.1" xmlns="http://www.topografix.com/GPX/1/1" xmlns:xsi="http://www.w3.org/2001/XMLSchema-instance"><metadata><bounds maxlat="43.447775552089745" maxlon="142.68634501429412" minlat="43.41789192717304" minlon="142.64906734823072"/></metadata><trk><name>十勝岳</name><number>1</number><trkseg><trkpt lat="43.447775552089745" lon="142.6493987628656"><ele>922.2640037536621</ele><time>2022-08-21T03:33:07Z</time></trkpt><trkpt lat="43.44759585687946" lon="142.6494145751311"><ele>928.2116357423365</ele><time>2022-08-21T03:33:19Z</time></trkpt><trkpt lat="43.447411323885085" lon="142.649405928136"><ele>933.1713424446061</ele><time>2022-08-21T03:33:39Z</time></trkpt><trkpt lat="43.44722880300188" lon="142.64937598950195"><ele>934.8451458802447</ele><time>2022-08-21T03:33:59Z</time></trkpt><trkpt lat="43.44705802977984" lon="142.64928700705272"><ele>935.7315725823864</ele><time>2022-08-21T03:34:16Z</time></trkpt><trkpt lat="43.44688660127923" lon="142.6493878308059"><ele>936.5351809291169</ele><time>2022-08-21T03:34:37Z</time></trkpt><trkpt lat="43.44671715501356" lon="142.64949414697466"><ele>938.0175267029554</ele><time>2022-08-21T03:34:57Z</time></trkpt><trkpt lat="43.44656048263175" lon="142.64961695642455"><ele>941.8263944759965</ele><time>2022-08-21T03:35:15Z</time></trkpt><trkpt lat="43.44640792249257" lon="142.6497648252108"><ele>940.480799049139</ele><time>2022-08-21T03:35:32Z</time></trkpt><trkpt lat="43.44623909037391" lon="142.6498933470853"><ele>940.5424920339137</ele><time>2022-08-21T03:35:47Z</time></trkpt><trkpt lat="43.446056277582855" lon="142.64994065815756"><ele>942.7836430976167</ele><time>2022-08-21T03:36:02Z</time></trkpt><trkpt lat="43.44587842566756" lon="142.65003459896354"><ele>944.7042532041669</ele><time>2022-08-21T03:36:16Z</time></trkpt><trkpt lat="43.44569010113718" lon="142.65008132070514"><ele>947.8077103579417</ele><time>2022-08-21T03:36:30Z</time></trkpt><trkpt lat="43.445509074614904" lon="142.65011325445766"><ele>950.4900804515928</ele><time>2022-08-21T03:36:44Z</time></trkpt><trkpt lat="43.4453203143131" lon="142.6501648513119"><ele>952.6490954011679</ele><time>2022-08-21T03:36:59Z</time></trkpt><trkpt lat="43.445154031233" lon="142.65027264161978"><ele>954.2576585812494</ele><time>2022-08-21T03:37:15Z</time></trkpt><trkpt lat="43.44496862182429" lon="142.65022952831526"><ele>958.2541960347444</ele><time>2022-08-21T03:37:31Z</time></trkpt><trkpt lat="43.444785553656786" lon="142.65024710443765"><ele>960.6980788642541</ele><time>2022-08-21T03:37:47Z</time></trkpt><trkpt lat="43.44460586894182" lon="142.65033377634737"><ele>962.5766817731783</ele><time>2022-08-21T03:38:04Z</time></trkpt><trkpt lat="43.44442549771611" lon="142.6504334279214"><ele>965.0085274809971</ele><time>2022-08-21T03:38:20Z</time></trkpt><trkpt lat="43.444266898251705" lon="142.65056784066155"><ele>967.0434915367514</ele><time>2022-08-21T03:38:35Z</time></trkpt><trkpt lat="43.44410893639617" lon="142.65070037479123"><ele>968.1975035192445</ele><time>2022-08-21T03:38:50Z</time></trkpt><trkpt lat="43.443937713770666" lon="142.65079550202975"><ele>969.3060321519151</ele><time>2022-08-21T03:39:07Z</time></trkpt><trkpt lat="43.4437910165705" lon="142.65095442100034"><ele>971.0699757412076</ele><time>2022-08-21T03:39:24Z</time></trkpt><trkpt lat="43.44363171457681" lon="142.65107152310924"><ele>973.8198307938874</ele><time>2022-08-21T03:39:42Z</time></trkpt><trkpt lat="43.44346934341161" lon="142.65118764834338"><ele>978.1362720653415</ele><time>2022-08-21T03:40:07Z</time></trkpt><trkpt lat="43.44330283457912" lon="142.65129161673815"><ele>983.9526029694825</ele><time>2022-08-21T03:40:30Z</time></trkpt><trkpt lat="43.443132051926824" lon="142.6513982776229"><ele>988.1467686174437</ele><time>2022-08-21T03:40:51Z</time></trkpt><trkpt lat="43.44296779251185" lon="142.65150820277873"><ele>992.2347526922822</ele><time>2022-08-21T03:41:18Z</time></trkpt><trkpt lat="43.44286119560439" lon="142.6517192577706"><ele>996.5013860929757</ele><time>2022-08-21T03:41:42Z</time></trkpt><trkpt lat="43.44274738398031" lon="142.65192239546366"><ele>998.0892267050222</ele><time>2022-08-21T03:42:01Z</time></trkpt><trkpt lat="43.442645416484716" lon="142.65212717246558"><ele>999.6188617628068</ele><time>2022-08-21T03:42:19Z</time></trkpt><trkpt lat="43.44255593775773" lon="142.65234748690588"><ele>1004.0001617288217</ele><time>2022-08-21T03:42:40Z</time></trkpt><trkpt lat="43.442481965161655" lon="142.65257719143418"><ele>1005.2333356868476</ele><time>2022-08-21T03:42:59Z</time></trkpt><trkpt lat="43.442364371134516" lon="142.65278356141448"><ele>1008.6983033809811</ele><time>2022-08-21T03:43:21Z</time></trkpt><trkpt lat="43.442246921861326" lon="142.6529837279288"><ele>1011.6839689174667</ele><time>2022-08-21T03:43:45Z</time></trkpt><trkpt lat="43.442128021317856" lon="142.65318307721404"><ele>1016.2300839163363</ele><time>2022-08-21T03:44:04Z</time></trkpt><trkpt lat="43.44202068645592" lon="142.65339004395983"><ele>1016.9798494027928</ele><time>2022-08-21T03:44:21Z</time></trkpt><trkpt lat="43.44191560706935" lon="142.65360441075313"><ele>1017.4339307267219</ele><time>2022-08-21T03:44:39Z</time></trkpt><trkpt lat="43.441827251520465" lon="142.6538248644172"><ele>1020.6545797241852</ele><time>2022-08-21T03:44:55Z</time></trkpt><trkpt lat="43.44172873756059" lon="142.65403299748368"><ele>1025.7366989152506</ele><time>2022-08-21T03:45:16Z</time></trkpt><trkpt lat="43.4416667287395" lon="142.6542655359817"><ele>1029.6282113827765</ele><time>2022-08-21T03:45:40Z</time></trkpt><trkpt lat="43.44163203326946" lon="142.65451390094213"><ele>1032.583279770799</ele><time>2022-08-21T03:45:59Z</time></trkpt><trkpt lat="43.4415459162549" lon="142.65473978722008"><ele>1034.9619503952563</ele><time>2022-08-21T03:46:19Z</time></trkpt><trkpt lat="43.441437719052786" lon="142.65494515125943"><ele>1038.6399671873078</ele><time>2022-08-21T03:46:40Z</time></trkpt><trkpt lat="43.441302525696265" lon="142.65511085025597"><ele>1040.8575095487759</ele><time>2022-08-21T03:46:59Z</time></trkpt><trkpt lat="43.44120615451646" lon="142.65532032717616"><ele>1043.8713521547616</ele><time>2022-08-21T03:47:17Z</time></trkpt><trkpt lat="43.44109545103713" lon="142.6555156775753"><ele>1046.5230060936883</ele><time>2022-08-21T03:47:37Z</time></trkpt><trkpt lat="43.44097783805942" lon="142.6557193367882"><ele>1049.233488989994</ele><time>2022-08-21T03:47:57Z</time></trkpt><trkpt lat="43.440874621874386" lon="142.65593405488673"><ele>1050.662895691581</ele><time>2022-08-21T03:48:15Z</time></trkpt><trkpt lat="43.440776207634734" lon="142.65615439679254"><ele>1052.786964529194</ele><time>2022-08-21T03:48:32Z</time></trkpt><trkpt lat="43.440649512248875" lon="142.65635404776435"><ele>1055.9250983018428</ele><time>2022-08-21T03:48:54Z</time></trkpt><trkpt lat="43.44051815948178" lon="142.65654107351185"><ele>1059.0499479724094</ele><time>2022-08-21T03:49:17Z</time></trkpt><trkpt lat="43.44041347578424" lon="142.65675693389932"><ele>1062.1303847581148</ele><time>2022-08-21T03:49:38Z</time></trkpt><trkpt lat="43.44031033887792" lon="142.6569675607937"><ele>1066.3083127066493</ele><time>2022-08-21T03:50:00Z</time></trkpt><trkpt lat="43.440171001246696" lon="142.65712483577485"><ele>1069.0021696230397</ele><time>2022-08-21T03:50:21Z</time></trkpt><trkpt lat="43.44003245404048" lon="142.65729778304862"><ele>1070.8984688809142</ele><time>2022-08-21T03:50:41Z</time></trkpt><trkpt lat="43.43987464186749" lon="142.6574450110926"><ele>1073.1803650408983</ele><time>2022-08-21T03:51:00Z</time></trkpt><trkpt lat="43.43973030236299" lon="142.65759641236335"><ele>1074.5010666837916</ele><time>2022-08-21T03:51:19Z</time></trkpt><trkpt lat="43.43959478638293" lon="142.6577622524943"><ele>1077.1632653186098</ele><time>2022-08-21T03:51:41Z</time></trkpt><trkpt lat="43.43944807149929" lon="142.65791500969905"><ele>1079.4704508641735</ele><time>2022-08-21T03:52:03Z</time></trkpt><trkpt lat="43.43928636583436" lon="142.65803181048943"><ele>1082.8397311996669</ele><time>2022-08-21T03:52:26Z</time></trkpt><trkpt lat="43.439169070726464" lon="142.65822107406393"><ele>1085.8782085990533</ele><time>2022-08-21T03:52:48Z</time></trkpt><trkpt lat="43.439028712113924" lon="142.65838716449568"><ele>1089.4091907171533</ele><time>2022-08-21T03:53:10Z</time></trkpt><trkpt lat="43.43890483568464" lon="142.65856737777585"><ele>1091.7507230844349</ele><time>2022-08-21T03:53:28Z</time></trkpt><trkpt lat="43.438763584545974" lon="142.65873987544413"><ele>1093.122025971301</ele><time>2022-08-21T03:53:47Z</time></trkpt><trkpt lat="43.43864267215272" lon="142.65893277624212"><ele>1095.2377206636593</ele><time>2022-08-21T03:54:06Z</time></trkpt><trkpt lat="43.43849706232798" lon="142.65908415854395"><ele>1098.7352762911469</ele><time>2022-08-21T03:54:25Z</time></trkpt><trkpt lat="43.43834363502851" lon="142.6592270507031"><ele>1100.039507670328</ele><time>2022-08-21T03:54:45Z</time></trkpt><trkpt lat="43.43818108872021" lon="142.6593458766062"><ele>1103.6306682536379</ele><time>2022-08-21T03:55:05Z</time></trkpt><trkpt lat="43.438029421085986" lon="142.65948716104458"><ele>1107.6312849996611</ele><time>2022-08-21T03:55:27Z</time></trkpt><trkpt lat="43.437897933727925" lon="142.6596676817952"><ele>1110.733414862305</ele><time>2022-08-21T03:55:51Z</time></trkpt><trkpt lat="43.437779540758235" lon="142.6598577014322"><ele>1114.1231775740162</ele><time>2022-08-21T03:56:21Z</time></trkpt><trkpt lat="43.43764783754421" lon="142.6600473589288"><ele>1117.3506882712245</ele><time>2022-08-21T03:56:40Z</time></trkpt><trkpt lat="43.43750520348949" lon="142.66022558139053"><ele>1121.7854223959148</ele><time>2022-08-21T03:56:59Z</time></trkpt><trkpt lat="43.43734517992089" lon="142.66035712049023"><ele>1126.026695491746</ele><time>2022-08-21T03:57:23Z</time></trkpt><trkpt lat="43.43718253911262" lon="142.66046401988532"><ele>1130.6628804514185</ele><time>2022-08-21T03:57:46Z</time></trkpt><trkpt lat="43.43703208784755" lon="142.66061122629193"><ele>1134.6213181372732</ele><time>2022-08-21T03:58:12Z</time></trkpt><trkpt lat="43.436877096042295" lon="142.66074058668804"><ele>1138.8843059157953</ele><time>2022-08-21T03:58:39Z</time></trkpt><trkpt lat="43.4367173320725" lon="142.66086089627015"><ele>1145.2752496348694</ele><time>2022-08-21T03:59:03Z</time></trkpt><trkpt lat="43.436575213838594" lon="142.661015882147"><ele>1150.1686487738043</ele><time>2022-08-21T03:59:30Z</time></trkpt><trkpt lat="43.4364431065535" lon="142.6611969643723"><ele>1155.2484641680494</ele><time>2022-08-21T03:59:53Z</time></trkpt><trkpt lat="43.436292506781605" lon="142.66133870782875"><ele>1160.0081124994904</ele><time>2022-08-21T04:00:16Z</time></trkpt><trkpt lat="43.43617362019061" lon="142.66153015659918"><ele>1165.845639616251</ele><time>2022-08-21T04:00:45Z</time></trkpt><trkpt lat="43.43603298934147" lon="142.66169135433574"><ele>1172.0493803359568</ele><time>2022-08-21T04:01:14Z</time></trkpt><trkpt lat="43.43589418231478" lon="142.66185297002002"><ele>1179.1206870032474</ele><time>2022-08-21T04:01:46Z</time></trkpt><trkpt lat="43.4357564096891" lon="142.66202396356323"><ele>1185.9055547304451</ele><time>2022-08-21T04:02:17Z</time></trkpt><trkpt lat="43.435648388588795" lon="142.66223268740686"><ele>1189.9809328112751</ele><time>2022-08-21T04:02:43Z</time></trkpt><trkpt lat="43.435555257652155" lon="142.66244681472946"><ele>1196.366845949553</ele><time>2022-08-21T04:03:13Z</time></trkpt><trkpt lat="43.435391302586936" lon="142.66256426894202"><ele>1202.4210199732333</ele><time>2022-08-21T04:03:45Z</time></trkpt><trkpt lat="43.43528664153917" lon="142.66276657595867"><ele>1208.3937187409028</ele><time>2022-08-21T04:04:16Z</time></trkpt><trkpt lat="43.43519709285671" lon="142.66298725929906"><ele>1213.3029556777328</ele><time>2022-08-21T04:04:48Z</time></trkpt><trkpt lat="43.43507158027035" lon="142.66317260142662"><ele>1219.3505886234343</ele><time>2022-08-21T04:05:21Z</time></trkpt><trkpt lat="43.43494997371981" lon="142.6633591818785"><ele>1222.9372737295926</ele><time>2022-08-21T04:05:47Z</time></trkpt><trkpt lat="43.43490178332799" lon="142.66359906097867"><ele>1228.3124180994928</ele><time>2022-08-21T04:06:15Z</time></trkpt><trkpt lat="43.43494491252737" lon="142.66384813448673"><ele>1232.173609405756</ele><time>2022-08-21T04:06:40Z</time></trkpt><trkpt lat="43.43499281946731" lon="142.66409587724797"><ele>1236.3416918842122</ele><time>2022-08-21T04:07:02Z</time></trkpt><trkpt lat="43.43502355216898" lon="142.66434447230037"><ele>1240.464006879367</ele><time>2022-08-21T04:07:23Z</time></trkpt><trkpt lat="43.43510129297047" lon="142.66457561588788"><ele>1243.8827089080587</ele><time>2022-08-21T04:07:46Z</time></trkpt><trkpt lat="43.43513107298522" lon="142.664825784583"><ele>1246.7349362717941</ele><time>2022-08-21T04:08:09Z</time></trkpt><trkpt lat="43.43498103538317" lon="142.6649812866862"><ele>1250.9560035001487</ele><time>2022-08-21T04:08:32Z</time></trkpt><trkpt lat="43.43485711630372" lon="142.6651658844507"><ele>1252.4870859058574</ele><time>2022-08-21T04:08:52Z</time></trkpt><trkpt lat="43.434705879265934" lon="142.66530080064797"><ele>1257.596597935073</ele><time>2022-08-21T04:09:16Z</time></trkpt><trkpt lat="43.43454560645711" lon="142.66542881927032"><ele>1264.2771588098258</ele><time>2022-08-21T04:09:43Z</time></trkpt><trkpt lat="43.434427341748815" lon="142.66561500339367"><ele>1269.289683113806</ele><time>2022-08-21T04:10:12Z</time></trkpt><trkpt lat="43.434312616485414" lon="142.66580773376816"><ele>1273.1856808830053</ele><time>2022-08-21T04:10:39Z</time></trkpt><trkpt lat="43.434267623320814" lon="142.6658940856195"><ele>1277.566354393959</ele><time>2022-08-21T04:11:05Z</time></trkpt><trkpt lat="43.43411296951541" lon="142.66602952594815"><ele>1281.6423350777477</ele><time>2022-08-21T04:11:32Z</time></trkpt><trkpt lat="43.43397175924001" lon="142.6661840426576"><ele>1285.9386732243001</ele><time>2022-08-21T04:11:59Z</time></trkpt><trkpt lat="43.433816910712075" lon="142.66633671433783"><ele>1290.0340457325801</ele><time>2022-08-21T04:12:21Z</time></trkpt><trkpt lat="43.43371468728897" lon="142.6665432238139"><ele>1294.2515146024525</ele><time>2022-08-21T04:12:45Z</time></trkpt><trkpt lat="43.433664422568334" lon="142.66678386197694"><ele>1298.0056411009282</ele><time>2022-08-21T04:13:06Z</time></trkpt><trkpt lat="43.433614721371306" lon="142.66702771166067"><ele>1302.9970395462587</ele><time>2022-08-21T04:13:34Z</time></trkpt><trkpt lat="43.43349666417806" lon="142.66722323123403"><ele>1308.6128997886553</ele><time>2022-08-21T04:14:03Z</time></trkpt><trkpt lat="43.43338053972146" lon="142.66741538440073"><ele>1312.892363794148</ele><time>2022-08-21T04:14:33Z</time></trkpt><trkpt lat="43.433239098848176" lon="142.66757016908642"><ele>1318.8726623915136</ele><time>2022-08-21T04:15:04Z</time></trkpt><trkpt lat="43.43309471684866" lon="142.66773633022368"><ele>1322.0181496040896</ele><time>2022-08-21T04:15:36Z</time></trkpt><trkpt lat="43.4329609724448" lon="142.66791111447304"><ele>1326.9321895027533</ele><time>2022-08-21T04:16:05Z</time></trkpt><trkpt lat="43.43283887696383" lon="142.66809984631556"><ele>1331.8479620683938</ele><time>2022-08-21T04:16:35Z</time></trkpt><trkpt lat="43.43268629505054" lon="142.66824090828186"><ele>1336.795042378828</ele><time>2022-08-21T04:16:59Z</time></trkpt><trkpt lat="43.43273916597147" lon="142.6684819677939"><ele>1338.4793919259682</ele><time>2022-08-21T04:17:20Z</time></trkpt><trkpt lat="43.43285498380971" lon="142.66869236665562"><ele>1338.6100475592539</ele><time>2022-08-21T04:17:39Z</time></trkpt><trkpt lat="43.433009145727056" lon="142.66882911463068"><ele>1338.883271690458</ele><time>2022-08-21T04:17:56Z</time></trkpt><trkpt lat="43.43318746390554" lon="142.66888463373556"><ele>1340.4432745920494</ele><time>2022-08-21T04:18:15Z</time></trkpt><trkpt lat="43.4333437492138" lon="142.66901020496258"><ele>1346.710363115184</ele><time>2022-08-21T04:21:02Z</time></trkpt><trkpt lat="43.43329303780608" lon="142.66924794966476"><ele>1354.1089296406135</ele><time>2022-08-21T04:21:49Z</time></trkpt><trkpt lat="43.433167462268926" lon="142.66943560770258"><ele>1360.3963260371238</ele><time>2022-08-21T04:22:23Z</time></trkpt><trkpt lat="43.433156663846034" lon="142.6696850686618"><ele>1369.3946762289852</ele><time>2022-08-21T04:23:08Z</time></trkpt><trkpt lat="43.43318688401455" lon="142.66992900409457"><ele>1378.465612810105</ele><time>2022-08-21T04:23:55Z</time></trkpt><trkpt lat="43.43315160395608" lon="142.67017314526578"><ele>1385.093875712715</ele><time>2022-08-21T04:24:37Z</time></trkpt><trkpt lat="43.43316130195696" lon="142.67042981299377"><ele>1391.7994866371155</ele><time>2022-08-21T04:25:18Z</time></trkpt><trkpt lat="43.43313284590571" lon="142.67067895303802"><ele>1401.0093315420672</ele><time>2022-08-21T04:26:36Z</time></trkpt><trkpt lat="43.43312832239887" lon="142.67092953317157"><ele>1409.3119229432195</ele><time>2022-08-21T04:27:40Z</time></trkpt><trkpt lat="43.43309411671219" lon="142.67117491136707"><ele>1420.704129516147</ele><time>2022-08-21T04:28:19Z</time></trkpt><trkpt lat="43.43315979075773" lon="142.67140666093604"><ele>1426.6500571537763</ele><time>2022-08-21T04:28:58Z</time></trkpt><trkpt lat="43.433093792815086" lon="142.6716424942407"><ele>1436.5915256654844</ele><time>2022-08-21T04:29:40Z</time></trkpt><trkpt lat="43.43300421174828" lon="142.6718583964646"><ele>1442.466853956692</ele><time>2022-08-21T04:30:19Z</time></trkpt><trkpt lat="43.43290595937912" lon="142.67206642086782"><ele>1448.982238061726</ele><time>2022-08-21T04:30:54Z</time></trkpt><trkpt lat="43.43282121315325" lon="142.67228510349815"><ele>1457.5397182609886</ele><time>2022-08-21T04:31:31Z</time></trkpt><trkpt lat="43.43277182765714" lon="142.67252851601964"><ele>1466.0871068304405</ele><time>2022-08-21T04:32:10Z</time></trkpt><trkpt lat="43.43269379339751" lon="142.6727547925693"><ele>1472.2772867800668</ele><time>2022-08-21T04:32:51Z</time></trkpt><trkpt lat="43.43259465802266" lon="142.67296138719854"><ele>1480.6328590717167</ele><time>2022-08-21T04:33:26Z</time></trkpt><trkpt lat="43.432500126869066" lon="142.67317192922874"><ele>1485.6731919124722</ele><time>2022-08-21T04:34:01Z</time></trkpt><trkpt lat="43.43242137519542" lon="142.67339620318873"><ele>1491.4761094041169</ele><time>2022-08-21T04:34:38Z</time></trkpt><trkpt lat="43.43237216201389" lon="142.67363403334437"><ele>1495.4074296988547</ele><time>2022-08-21T04:35:34Z</time></trkpt><trkpt lat="43.43224233450656" lon="142.67380860321256"><ele>1499.591611574404</ele><time>2022-08-21T04:36:13Z</time></trkpt><trkpt lat="43.43214065677563" lon="142.67402420264824"><ele>1505.7683534519747</ele><time>2022-08-21T04:36:43Z</time></trkpt><trkpt lat="43.432024825168334" lon="142.67422366267832"><ele>1510.8159733051434</ele><time>2022-08-21T04:37:11Z</time></trkpt><trkpt lat="43.431914829421196" lon="142.67442872153364"><ele>1515.9901336953044</ele><time>2022-08-21T04:37:50Z</time></trkpt><trkpt lat="43.431780651984475" lon="142.67459916757173"><ele>1522.2041746648028</ele><time>2022-08-21T04:38:19Z</time></trkpt><trkpt lat="43.431643211632256" lon="142.67476433361617"><ele>1528.8577749840915</ele><time>2022-08-21T04:38:46Z</time></trkpt><trkpt lat="43.43151357214821" lon="142.6749568857469"><ele>1534.8446416668594</ele><time>2022-08-21T04:39:45Z</time></trkpt><trkpt lat="43.43138502795268" lon="142.67513211529626"><ele>1544.4158617118374</ele><time>2022-08-21T04:40:38Z</time></trkpt><trkpt lat="43.43124350140514" lon="142.67528537672095"><ele>1550.2670058757067</ele><time>2022-08-21T04:41:19Z</time></trkpt><trkpt lat="43.43112655160745" lon="142.67547799497072"><ele>1557.3164454335347</ele><time>2022-08-21T04:42:03Z</time></trkpt><trkpt lat="43.4310419124437" lon="142.67570099223485"><ele>1564.5823660250753</ele><time>2022-08-21T04:42:44Z</time></trkpt><trkpt lat="43.430949533453514" lon="142.67591519536262"><ele>1569.6712515372783</ele><time>2022-08-21T04:43:18Z</time></trkpt><trkpt lat="43.43089781878243" lon="142.67615384771784"><ele>1575.0925448834896</ele><time>2022-08-21T04:45:20Z</time></trkpt><trkpt lat="43.430790203926506" lon="142.6763549270501"><ele>1580.1674428712577</ele><time>2022-08-21T04:45:54Z</time></trkpt><trkpt lat="43.43067876367341" lon="142.67656391141503"><ele>1589.7033813605085</ele><time>2022-08-21T04:46:44Z</time></trkpt><trkpt lat="43.4305823573573" lon="142.67678210667535"><ele>1598.7404273375869</ele><time>2022-08-21T04:47:42Z</time></trkpt><trkpt lat="43.43043725433932" lon="142.6769375272418"><ele>1605.9067051149905</ele><time>2022-08-21T04:48:22Z</time></trkpt><trkpt lat="43.4303635381688" lon="142.67716829118166"><ele>1616.4370799548924</ele><time>2022-08-21T04:49:06Z</time></trkpt><trkpt lat="43.430248060025" lon="142.67736881848427"><ele>1626.953237610869</ele><time>2022-08-21T04:49:53Z</time></trkpt><trkpt lat="43.430101004909595" lon="142.67751671780204"><ele>1635.0672994321212</ele><time>2022-08-21T04:50:41Z</time></trkpt><trkpt lat="43.42996766224326" lon="142.67768437735427"><ele>1646.586233315058</ele><time>2022-08-21T04:51:29Z</time></trkpt><trkpt lat="43.42990723715824" lon="142.67791882273863"><ele>1655.723197250627</ele><time>2022-08-21T04:52:12Z</time></trkpt><trkpt lat="43.429756081475794" lon="142.6780625044398"><ele>1664.4309927700087</ele><time>2022-08-21T04:54:05Z</time></trkpt><trkpt lat="43.42970272081009" lon="142.67831462500027"><ele>1675.8215841948986</ele><time>2022-08-21T04:54:50Z</time></trkpt><trkpt lat="43.42961826486704" lon="142.67854395514956"><ele>1685.2441316498443</ele><time>2022-08-21T04:55:40Z</time></trkpt><trkpt lat="43.429604871329545" lon="142.67879523069652"><ele>1693.9616017537192</ele><time>2022-08-21T04:56:53Z</time></trkpt><trkpt lat="43.42966478915189" lon="142.6790308532295"><ele>1701.3707289705053</ele><time>2022-08-21T04:57:36Z</time></trkpt><trkpt lat="43.42965063602668" lon="142.67927739529384"><ele>1710.0513584045693</ele><time>2022-08-21T04:58:24Z</time></trkpt><trkpt lat="43.429636924161954" lon="142.67952785642004"><ele>1720.4466050053015</ele><time>2022-08-21T04:59:07Z</time></trkpt><trkpt lat="43.42962335137849" lon="142.6797751032973"><ele>1726.4541655480862</ele><time>2022-08-21T04:59:49Z</time></trkpt><trkpt lat="43.42947756523723" lon="142.6799282685115"><ele>1726.307215235196</ele><time>2022-08-21T05:00:38Z</time></trkpt><trkpt lat="43.42935494076364" lon="142.68011127412598"><ele>1729.2684491686523</ele><time>2022-08-21T05:01:09Z</time></trkpt><trkpt lat="43.429265663059255" lon="142.68033407197134"><ele>1731.370276751928</ele><time>2022-08-21T05:02:13Z</time></trkpt><trkpt lat="43.4291802532516" lon="142.6805557504443"><ele>1733.4143591653556</ele><time>2022-08-21T05:02:28Z</time></trkpt><trkpt lat="43.42909813092704" lon="142.68078115495229"><ele>1733.5943497894332</ele><time>2022-08-21T05:02:46Z</time></trkpt><trkpt lat="43.42902579473762" lon="142.6810252307918"><ele>1733.1500794887543</ele><time>2022-08-21T05:03:05Z</time></trkpt><trkpt lat="43.4289067483011" lon="142.6812360357105"><ele>1734.4900142140687</ele><time>2022-08-21T05:03:19Z</time></trkpt><trkpt lat="43.42878640213942" lon="142.681434945882"><ele>1732.364851293154</ele><time>2022-08-21T05:03:33Z</time></trkpt><trkpt lat="43.42867619789336" lon="142.68163647438746"><ele>1729.683919325471</ele><time>2022-08-21T05:03:52Z</time></trkpt><trkpt lat="43.42855605967315" lon="142.68182681441496"><ele>1730.3218689225614</ele><time>2022-08-21T05:04:10Z</time></trkpt><trkpt lat="43.428437038138476" lon="142.68202083285357"><ele>1734.1756102303043</ele><time>2022-08-21T05:04:28Z</time></trkpt><trkpt lat="43.42835234793872" lon="142.6822454578325"><ele>1739.1566336154938</ele><time>2022-08-21T05:04:49Z</time></trkpt><trkpt lat="43.42828174643765" lon="142.6824851406424"><ele>1744.2433548010886</ele><time>2022-08-21T05:05:09Z</time></trkpt><trkpt lat="43.42820139355275" lon="142.682709820397"><ele>1746.0095201712102</ele><time>2022-08-21T05:05:27Z</time></trkpt><trkpt lat="43.42802162479183" lon="142.68275509388442"><ele>1746.7563585992903</ele><time>2022-08-21T05:05:47Z</time></trkpt><trkpt lat="43.427835156221335" lon="142.68276530610333"><ele>1748.5958369392902</ele><time>2022-08-21T05:06:04Z</time></trkpt><trkpt lat="43.427654048990995" lon="142.6828196549957"><ele>1752.6172451293096</ele><time>2022-08-21T05:06:20Z</time></trkpt><trkpt lat="43.42747323639151" lon="142.68289186183864"><ele>1754.8037502486259</ele><time>2022-08-21T05:08:43Z</time></trkpt><trkpt lat="43.427306784028744" lon="142.68300723345243"><ele>1757.6438273983076</ele><time>2022-08-21T05:09:01Z</time></trkpt><trkpt lat="43.42714654684358" lon="142.68312080758474"><ele>1760.9058444332331</ele><time>2022-08-21T05:09:18Z</time></trkpt><trkpt lat="43.42699561834438" lon="142.68326625393965"><ele>1763.767139612697</ele><time>2022-08-21T05:09:37Z</time></trkpt><trkpt lat="43.426854161620454" lon="142.68342479735017"><ele>1767.394733720459</ele><time>2022-08-21T05:09:56Z</time></trkpt><trkpt lat="43.4267044533828" lon="142.68357969013874"><ele>1770.455750421621</ele><time>2022-08-21T05:10:12Z</time></trkpt><trkpt lat="43.42654397993302" lon="142.68369932320738"><ele>1773.2596960235387</ele><time>2022-08-21T05:10:29Z</time></trkpt><trkpt lat="43.426370246514956" lon="142.68379182811725"><ele>1777.6700193285942</ele><time>2022-08-21T05:10:50Z</time></trkpt><trkpt lat="43.426218231005336" lon="142.68393133521835"><ele>1781.9341609925032</ele><time>2022-08-21T05:11:09Z</time></trkpt><trkpt lat="43.426058470849355" lon="142.68405902701844"><ele>1785.610297950916</ele><time>2022-08-21T05:11:30Z</time></trkpt><trkpt lat="43.425901916012705" lon="142.68418360116172"><ele>1789.9534044945613</ele><time>2022-08-21T05:11:53Z</time></trkpt><trkpt lat="43.425744304991916" lon="142.68431803597406"><ele>1792.7808285774663</ele><time>2022-08-21T05:12:16Z</time></trkpt><trkpt lat="43.425578305808166" lon="142.68444213396998"><ele>1797.8645687308162</ele><time>2022-08-21T05:12:40Z</time></trkpt><trkpt lat="43.425428605061164" lon="142.6846037873488"><ele>1800.7444095481187</ele><time>2022-08-21T05:13:02Z</time></trkpt><trkpt lat="43.42526441311079" lon="142.68472014080524"><ele>1805.7101479889825</ele><time>2022-08-21T05:13:23Z</time></trkpt><trkpt lat="43.425105554363356" lon="142.6848527015006"><ele>1808.1638492858037</ele><time>2022-08-21T05:13:43Z</time></trkpt><trkpt lat="43.42494270527236" lon="142.68496892383524"><ele>1809.7019592849538</ele><time>2022-08-21T05:14:03Z</time></trkpt><trkpt lat="43.42477794991258" lon="142.6850828582285"><ele>1812.9259957671165</ele><time>2022-08-21T05:14:19Z</time></trkpt><trkpt lat="43.42459159993856" lon="142.68512633601156"><ele>1814.328462999314</ele><time>2022-08-21T05:14:36Z</time></trkpt><trkpt lat="43.42441776515234" lon="142.6852137259261"><ele>1816.0322009166703</ele><time>2022-08-21T05:14:53Z</time></trkpt><trkpt lat="43.42423246844912" lon="142.68523883090654"><ele>1817.3531749686226</ele><time>2022-08-21T05:15:10Z</time></trkpt><trkpt lat="43.4240511215401" lon="142.6852423536803"><ele>1817.725079715252</ele><time>2022-08-21T05:15:28Z</time></trkpt><trkpt lat="43.42386427015137" lon="142.6852833294352"><ele>1821.0712221637368</ele><time>2022-08-21T05:16:09Z</time></trkpt><trkpt lat="43.42368033088951" lon="142.68524731443634"><ele>1822.792987019755</ele><time>2022-08-21T05:16:28Z</time></trkpt><trkpt lat="43.42349454123556" lon="142.68522504693135"><ele>1825.2848955588415</ele><time>2022-08-21T05:16:47Z</time></trkpt><trkpt lat="43.42332021221916" lon="142.68515994713212"><ele>1825.0743075553328</ele><time>2022-08-21T05:17:06Z</time></trkpt><trkpt lat="43.42314799094335" lon="142.68508574859396"><ele>1826.5362605080009</ele><time>2022-08-21T05:17:23Z</time></trkpt><trkpt lat="43.422965529171385" lon="142.6850439410632"><ele>1827.9183374522254</ele><time>2022-08-21T05:17:40Z</time></trkpt><trkpt lat="43.42278332061256" lon="142.685014736958"><ele>1831.5935694389045</ele><time>2022-08-21T05:17:59Z</time></trkpt><trkpt lat="43.422603769062675" lon="142.6849700369942"><ele>1833.2637237375602</ele><time>2022-08-21T05:18:44Z</time></trkpt><trkpt lat="43.42242267823439" lon="142.68489684322992"><ele>1835.642123366706</ele><time>2022-08-21T05:19:31Z</time></trkpt><trkpt lat="43.422236289928726" lon="142.68487747245038"><ele>1838.6970332702622</ele><time>2022-08-21T05:19:49Z</time></trkpt><trkpt lat="43.42210203252392" lon="142.68470097066938"><ele>1843.0528402477503</ele><time>2022-08-21T05:20:13Z</time></trkpt><trkpt lat="43.42196537619897" lon="142.68453111498238"><ele>1847.4044097075239</ele><time>2022-08-21T05:20:37Z</time></trkpt><trkpt lat="43.421779630966995" lon="142.68450013054266"><ele>1851.6177813112736</ele><time>2022-08-21T05:21:00Z</time></trkpt><trkpt lat="43.42160394126704" lon="142.68444219513756"><ele>1860.547566938214</ele><time>2022-08-21T05:21:38Z</time></trkpt><trkpt lat="43.42142309885054" lon="142.68440971225746"><ele>1871.4630727684125</ele><time>2022-08-21T05:22:32Z</time></trkpt><trkpt lat="43.42124372392667" lon="142.68443708612887"><ele>1880.20644913055</ele><time>2022-08-21T05:23:19Z</time></trkpt><trkpt lat="43.42106408962819" lon="142.68440243569992"><ele>1893.8234179913998</ele><time>2022-08-21T05:24:31Z</time></trkpt><trkpt lat="43.42092636982288" lon="142.68424254533272"><ele>1903.013197391294</ele><time>2022-08-21T05:25:23Z</time></trkpt><trkpt lat="43.42077787116989" lon="142.6841008921573"><ele>1917.1493387296796</ele><time>2022-08-21T05:26:39Z</time></trkpt><trkpt lat="43.42065999791952" lon="142.68390716213491"><ele>1926.4091900065541</ele><time>2022-08-21T05:27:44Z</time></trkpt><trkpt lat="43.42054877054393" lon="142.68371249353876"><ele>1938.324095693417</ele><time>2022-08-21T05:29:30Z</time></trkpt><trkpt lat="43.42040975983866" lon="142.68355004261343"><ele>1946.0309968739748</ele><time>2022-08-21T05:30:48Z</time></trkpt><trkpt lat="43.42022133939622" lon="142.68355173579988"><ele>1951.8092471770942</ele><time>2022-08-21T05:31:55Z</time></trkpt><trkpt lat="43.42005431903227" lon="142.683650766498"><ele>1957.321272045374</ele><time>2022-08-21T05:32:19Z</time></trkpt><trkpt lat="43.41987719400737" lon="142.6837488620066"><ele>1964.2082375688478</ele><time>2022-08-21T05:32:54Z</time></trkpt><trkpt lat="43.41970835901234" lon="142.6838520202052"><ele>1970.475803727284</ele><time>2022-08-21T05:33:23Z</time></trkpt><trkpt lat="43.41954480851229" lon="142.68395575358673"><ele>1974.6916567254812</ele><time>2022-08-21T05:33:48Z</time></trkpt><trkpt lat="43.41946970661379" lon="142.68419185542132"><ele>1980.2974786041304</ele><time>2022-08-21T05:34:14Z</time></trkpt><trkpt lat="43.419339233980565" lon="142.6843728677995"><ele>1984.6859178720042</ele><time>2022-08-21T05:34:38Z</time></trkpt><trkpt lat="43.41923057095674" lon="142.68457248344194"><ele>1988.0152605241165</ele><time>2022-08-21T05:34:59Z</time></trkpt><trkpt lat="43.419087529494924" lon="142.68472833115194"><ele>1993.4229870615527</ele><time>2022-08-21T05:35:33Z</time></trkpt><trkpt lat="43.41898168537318" lon="142.68493606359095"><ele>1998.7412900961936</ele><time>2022-08-21T05:36:15Z</time></trkpt><trkpt lat="43.418863324424414" lon="142.6851251322452"><ele>2005.982642011717</ele><time>2022-08-21T05:36:46Z</time></trkpt><trkpt lat="43.41871752998073" lon="142.68528535974292"><ele>2012.7348850602284</ele><time>2022-08-21T05:37:29Z</time></trkpt><trkpt lat="43.418590379671244" lon="142.68546291151753"><ele>2020.371459895745</ele><time>2022-08-21T05:38:14Z</time></trkpt><trkpt lat="43.41842707049617" lon="142.68557164297732"><ele>2031.9874480413273</ele><time>2022-08-21T05:39:46Z</time></trkpt><trkpt lat="43.41824443100683" lon="142.68562267527182"><ele>2042.1331023024395</ele><time>2022-08-21T05:41:01Z</time></trkpt><trkpt lat="43.41820472602338" lon="142.68586510643755"><ele>2050.8672667043284</ele><time>2022-08-21T05:41:44Z</time></trkpt><trkpt lat="43.4180700523319" lon="142.6860371366837"><ele>2062.0979959107935</ele><time>2022-08-21T05:42:49Z</time></trkpt><trkpt lat="43.41797027652269" lon="142.68624305876486"><ele>2073.983962743543</ele><time>2022-08-21T05:44:31Z</time></trkpt><trkpt lat="43.41789192717304" lon="142.68634501429412"><ele>2074.500505849719</ele><time>2022-08-21T06:03:08Z</time></trkpt><trkpt lat="43.42979587980553" lon="142.67967165160152"><ele>1728.0233923690394</ele><time>2022-08-21T06:44:06Z</time></trkpt><trkpt lat="43.42979587980553" lon="142.67967165160152"><ele>1728.0233923690394</ele><time>2022-08-21T06:44:07Z</time></trkpt><trkpt lat="43.429642122332275" lon="142.67952620040725"><ele>1720.1752080945298</ele><time>2022-08-21T06:45:10Z</time></trkpt><trkpt lat="43.42959988884957" lon="142.6792848016102"><ele>1712.1068648984656</ele><time>2022-08-21T06:45:30Z</time></trkpt><trkpt lat="43.42963570542761" lon="142.6790384097212"><ele>1700.6236799946055</ele><time>2022-08-21T06:45:50Z</time></trkpt><trkpt lat="43.42963668992374" lon="142.6787849449837"><ele>1692.799782840535</ele><time>2022-08-21T06:46:09Z</time></trkpt><trkpt lat="43.42958329943124" lon="142.6785360109785"><ele>1685.5114565826952</ele><time>2022-08-21T06:46:26Z</time></trkpt><trkpt lat="43.42969944739133" lon="142.67834063648"><ele>1676.5080075468868</ele><time>2022-08-21T06:46:52Z</time></trkpt><trkpt lat="43.42975352624108" lon="142.67809805501759"><ele>1667.732703098096</ele><time>2022-08-21T06:47:17Z</time></trkpt><trkpt lat="43.429913553792716" lon="142.67796915101073"><ele>1658.6468724273145</ele><time>2022-08-21T06:47:56Z</time></trkpt><trkpt lat="43.42995077641925" lon="142.67771991887454"><ele>1648.6420145593584</ele><time>2022-08-21T06:48:29Z</time></trkpt><trkpt lat="43.430094134990426" lon="142.67756482674702"><ele>1638.6783231915906</ele><time>2022-08-21T06:50:43Z</time></trkpt><trkpt lat="43.43024892153657" lon="142.6774369778032"><ele>1630.3084053238854</ele><time>2022-08-21T06:51:01Z</time></trkpt><trkpt lat="43.43029252458761" lon="142.67719238785875"><ele>1617.4924441948533</ele><time>2022-08-21T06:51:28Z</time></trkpt><trkpt lat="43.430420798359634" lon="142.67699666069151"><ele>1610.5457150926813</ele><time>2022-08-21T06:51:49Z</time></trkpt><trkpt lat="43.43056158731795" lon="142.67682537463085"><ele>1601.5720261437818</ele><time>2022-08-21T06:52:11Z</time></trkpt><trkpt lat="43.430613742044294" lon="142.67657361295116"><ele>1592.8958350969478</ele><time>2022-08-21T06:52:35Z</time></trkpt><trkpt lat="43.43076441619656" lon="142.67642641863125"><ele>1585.4439870091155</ele><time>2022-08-21T06:52:56Z</time></trkpt><trkpt lat="43.43084378158791" lon="142.67620335199285"><ele>1579.885995298624</ele><time>2022-08-21T06:53:15Z</time></trkpt><trkpt lat="43.43095296779021" lon="142.67599780121128"><ele>1573.2118667494506</ele><time>2022-08-21T06:53:33Z</time></trkpt><trkpt lat="43.43099464348843" lon="142.6757568314989"><ele>1566.82881906908</ele><time>2022-08-21T06:53:50Z</time></trkpt><trkpt lat="43.43110370264453" lon="142.6755583755889"><ele>1561.2338903136551</ele><time>2022-08-21T06:54:09Z</time></trkpt><trkpt lat="43.43120124940805" lon="142.67534741008492"><ele>1554.196172611788</ele><time>2022-08-21T06:54:36Z</time></trkpt><trkpt lat="43.431324138493665" lon="142.67515208442964"><ele>1545.8684921022505</ele><time>2022-08-21T06:55:02Z</time></trkpt><trkpt lat="43.43148741905176" lon="142.6750355055512"><ele>1540.213072665967</ele><time>2022-08-21T06:55:26Z</time></trkpt><trkpt lat="43.43163009735681" lon="142.67487917847387"><ele>1532.9419833617285</ele><time>2022-08-21T06:55:53Z</time></trkpt><trkpt lat="43.43179964531592" lon="142.67477773383368"><ele>1528.6633014818653</ele><time>2022-08-21T06:56:16Z</time></trkpt><trkpt lat="43.43193539548039" lon="142.67460130110763"><ele>1520.880352595821</ele><time>2022-08-21T06:56:45Z</time></trkpt><trkpt lat="43.432060967755326" lon="142.67441275420828"><ele>1514.8787580914795</ele><time>2022-08-21T06:57:10Z</time></trkpt><trkpt lat="43.432171048100024" lon="142.67419531541674"><ele>1510.0477001778781</ele><time>2022-08-21T06:57:27Z</time></trkpt><trkpt lat="43.43223363693585" lon="142.6739529595408"><ele>1505.759969662875</ele><time>2022-08-21T06:57:48Z</time></trkpt><trkpt lat="43.432357552722046" lon="142.6737737176983"><ele>1500.005850141868</ele><time>2022-08-21T06:58:11Z</time></trkpt><trkpt lat="43.432484684990484" lon="142.67359410014257"><ele>1494.8638753527775</ele><time>2022-08-21T06:58:35Z</time></trkpt><trkpt lat="43.43259726896313" lon="142.67338640405634"><ele>1488.2248242618516</ele><time>2022-08-21T06:59:08Z</time></trkpt><trkpt lat="43.43266430033083" lon="142.67315416147918"><ele>1484.5067633539438</ele><time>2022-08-21T06:59:29Z</time></trkpt><trkpt lat="43.43272617852699" lon="142.67291714587623"><ele>1477.666174262762</ele><time>2022-08-21T06:59:57Z</time></trkpt><trkpt lat="43.43282340193759" lon="142.67269946153948"><ele>1471.3327472833917</ele><time>2022-08-21T07:01:38Z</time></trkpt><trkpt lat="43.43298661152688" lon="142.67259000227708"><ele>1463.3904569391161</ele><time>2022-08-21T07:01:59Z</time></trkpt><trkpt lat="43.43312966865052" lon="142.67242503962757"><ele>1457.0021229526028</ele><time>2022-08-21T07:02:23Z</time></trkpt><trkpt lat="43.43312198129633" lon="142.67217720027676"><ele>1452.4485038369894</ele><time>2022-08-21T07:02:44Z</time></trkpt><trkpt lat="43.433092010499195" lon="142.67192757124744"><ele>1444.2041150117293</ele><time>2022-08-21T07:03:04Z</time></trkpt><trkpt lat="43.43317714421187" lon="142.6716949570075"><ele>1438.0507569555193</ele><time>2022-08-21T07:03:32Z</time></trkpt><trkpt lat="43.4332079512356" lon="142.67144545666946"><ele>1430.0361907659099</ele><time>2022-08-21T07:04:02Z</time></trkpt><trkpt lat="43.43316330339213" lon="142.6712031168885"><ele>1421.3128363033757</ele><time>2022-08-21T07:04:37Z</time></trkpt><trkpt lat="43.433190383533635" lon="142.67095734835053"><ele>1413.2427502218634</ele><time>2022-08-21T07:05:09Z</time></trkpt><trkpt lat="43.433193598195395" lon="142.67070627852988"><ele>1405.8240045588464</ele><time>2022-08-21T07:05:47Z</time></trkpt><trkpt lat="43.433172993569556" lon="142.67046077089392"><ele>1396.6509135151282</ele><time>2022-08-21T07:06:28Z</time></trkpt><trkpt lat="43.43315345388987" lon="142.67021454615286"><ele>1389.5027853287756</ele><time>2022-08-21T07:07:11Z</time></trkpt><trkpt lat="43.43322424762882" lon="142.66997577191114"><ele>1382.7141768997535</ele><time>2022-08-21T07:07:45Z</time></trkpt><trkpt lat="43.43322412688008" lon="142.66972822262062"><ele>1374.204037043266</ele><time>2022-08-21T07:08:26Z</time></trkpt><trkpt lat="43.433268314602465" lon="142.66948805525453"><ele>1365.5364123908803</ele><time>2022-08-21T07:09:09Z</time></trkpt><trkpt lat="43.43329884478236" lon="142.6692411037427"><ele>1356.872241165489</ele><time>2022-08-21T07:10:07Z</time></trkpt><trkpt lat="43.433316134474325" lon="142.66899088462702"><ele>1348.7844634959474</ele><time>2022-08-21T07:10:57Z</time></trkpt><trkpt lat="43.43314360168533" lon="142.66890700989183"><ele>1340.2526721470058</ele><time>2022-08-21T07:11:33Z</time></trkpt><trkpt lat="43.43297194646164" lon="142.66878841457844"><ele>1334.9686874290928</ele><time>2022-08-21T07:11:58Z</time></trkpt><trkpt lat="43.43284126780297" lon="142.6686137583199"><ele>1336.6228750785813</ele><time>2022-08-21T07:12:14Z</time></trkpt><trkpt lat="43.43272771450814" lon="142.66840977255268"><ele>1339.485064365901</ele><time>2022-08-21T07:12:29Z</time></trkpt><trkpt lat="43.43277654058626" lon="142.6681584015369"><ele>1336.2047276524827</ele><time>2022-08-21T07:12:56Z</time></trkpt><trkpt lat="43.43290373475182" lon="142.6679831987434"><ele>1330.8347969949245</ele><time>2022-08-21T07:13:16Z</time></trkpt><trkpt lat="43.43305792167279" lon="142.66785491211357"><ele>1327.0387800587341</ele><time>2022-08-21T07:13:32Z</time></trkpt><trkpt lat="43.4331931295376" lon="142.66768714054865"><ele>1321.3226976925507</ele><time>2022-08-21T07:14:37Z</time></trkpt><trkpt lat="43.43331698669577" lon="142.66748951402315"><ele>1319.1758509129286</ele><time>2022-08-21T07:15:06Z</time></trkpt><trkpt lat="43.43346081946444" lon="142.66733009434668"><ele>1311.2737707970664</ele><time>2022-08-21T07:16:42Z</time></trkpt><trkpt lat="43.4336262771519" lon="142.66722535043584"><ele>1306.3751637497917</ele><time>2022-08-21T07:17:14Z</time></trkpt><trkpt lat="43.43369301630859" lon="142.66699481600233"><ele>1302.3244884731248</ele><time>2022-08-21T07:17:47Z</time></trkpt><trkpt lat="43.433794113898216" lon="142.6667812852752"><ele>1298.001415320672</ele><time>2022-08-21T07:18:14Z</time></trkpt><trkpt lat="43.43379970983096" lon="142.66652684926024"><ele>1293.6175030954182</ele><time>2022-08-21T07:19:08Z</time></trkpt><trkpt lat="43.433872976156366" lon="142.66630120065378"><ele>1289.8932990655303</ele><time>2022-08-21T07:19:39Z</time></trkpt><trkpt lat="43.43391914390581" lon="142.66606169557508"><ele>1285.269372658804</ele><time>2022-08-21T07:20:14Z</time></trkpt><trkpt lat="43.4340440303421" lon="142.66588077570282"><ele>1281.5593369472772</ele><time>2022-08-21T07:20:48Z</time></trkpt><trkpt lat="43.43420530756599" lon="142.66576097671015"><ele>1278.2441466469318</ele><time>2022-08-21T07:21:15Z</time></trkpt><trkpt lat="43.434333399521854" lon="142.66558126412198"><ele>1272.7000243598595</ele><time>2022-08-21T07:21:42Z</time></trkpt><trkpt lat="43.43439753884412" lon="142.6653306812869"><ele>1267.281888176687</ele><time>2022-08-21T07:22:08Z</time></trkpt><trkpt lat="43.43451704755931" lon="142.6651224460105"><ele>1263.1111731911078</ele><time>2022-08-21T07:22:30Z</time></trkpt><trkpt lat="43.43461271725199" lon="142.66489803846702"><ele>1259.4456781344488</ele><time>2022-08-21T07:22:52Z</time></trkpt><trkpt lat="43.434660415538055" lon="142.6646488941584"><ele>1255.4352871989831</ele><time>2022-08-21T07:23:11Z</time></trkpt><trkpt lat="43.43477999462523" lon="142.6644525664384"><ele>1251.1118884691969</ele><time>2022-08-21T07:23:27Z</time></trkpt><trkpt lat="43.434885786988474" lon="142.66423982463363"><ele>1244.422257002443</ele><time>2022-08-21T07:25:59Z</time></trkpt><trkpt lat="43.43494122244954" lon="142.66399999123226"><ele>1238.8543290505186</ele><time>2022-08-21T07:26:28Z</time></trkpt><trkpt lat="43.4349688799921" lon="142.66374856345496"><ele>1233.3302798345685</ele><time>2022-08-21T07:27:10Z</time></trkpt><trkpt lat="43.434925208909654" lon="142.663505698803"><ele>1230.2726602787152</ele><time>2022-08-21T07:27:33Z</time></trkpt><trkpt lat="43.434982556562495" lon="142.66326510599743"><ele>1222.8437737515196</ele><time>2022-08-21T07:28:05Z</time></trkpt><trkpt lat="43.435123254202196" lon="142.6631103867513"><ele>1218.8410997046158</ele><time>2022-08-21T07:28:30Z</time></trkpt><trkpt lat="43.43517515998073" lon="142.66286223740312"><ele>1215.4971168180928</ele><time>2022-08-21T07:28:59Z</time></trkpt><trkpt lat="43.4352868577873" lon="142.66264693053836"><ele>1209.340944558382</ele><time>2022-08-21T07:29:47Z</time></trkpt><trkpt lat="43.43542673648784" lon="142.66248888032302"><ele>1201.8822444248945</ele><time>2022-08-21T07:30:49Z</time></trkpt><trkpt lat="43.435582895837776" lon="142.6623652632969"><ele>1196.4227562732995</ele><time>2022-08-21T07:31:28Z</time></trkpt><trkpt lat="43.435682330988655" lon="142.66214431961308"><ele>1191.8312078230083</ele><time>2022-08-21T07:32:13Z</time></trkpt><trkpt lat="43.435789902128825" lon="142.6619417353307"><ele>1187.89876420144</ele><time>2022-08-21T07:32:50Z</time></trkpt><trkpt lat="43.435953004562876" lon="142.66183325882344"><ele>1181.9132755119354</ele><time>2022-08-21T07:33:28Z</time></trkpt><trkpt lat="43.436094110286774" lon="142.66167746933192"><ele>1175.9486028486863</ele><time>2022-08-21T07:34:06Z</time></trkpt><trkpt lat="43.43619265645118" lon="142.66146708970595"><ele>1168.1914630783722</ele><time>2022-08-21T07:34:43Z</time></trkpt><trkpt lat="43.43635404892367" lon="142.66133650839208"><ele>1162.5312802176923</ele><time>2022-08-21T07:35:25Z</time></trkpt><trkpt lat="43.43646463800113" lon="142.66113047784492"><ele>1158.614730185829</ele><time>2022-08-21T07:35:56Z</time></trkpt><trkpt lat="43.43658577282493" lon="142.66094680033243"><ele>1152.6730614779517</ele><time>2022-08-21T07:36:38Z</time></trkpt><trkpt lat="43.43674107378062" lon="142.66082163177023"><ele>1148.848299848847</ele><time>2022-08-21T07:37:23Z</time></trkpt><trkpt lat="43.4368912478717" lon="142.66068258596303"><ele>1142.0189076727256</ele><time>2022-08-21T07:38:05Z</time></trkpt><trkpt lat="43.43705629811666" lon="142.66056864455544"><ele>1137.40480535198</ele><time>2022-08-21T07:38:36Z</time></trkpt><trkpt lat="43.437205068299036" lon="142.66041149797022"><ele>1132.8444981072098</ele><time>2022-08-21T07:39:12Z</time></trkpt><trkpt lat="43.43737345563596" lon="142.6603050015821"><ele>1129.8057241244242</ele><time>2022-08-21T07:39:38Z</time></trkpt><trkpt lat="43.4375091249964" lon="142.66014155812474"><ele>1124.037337590009</ele><time>2022-08-21T07:40:09Z</time></trkpt><trkpt lat="43.437654618945956" lon="142.65996896308303"><ele>1120.6692148614675</ele><time>2022-08-21T07:40:30Z</time></trkpt><trkpt lat="43.43779151478608" lon="142.6598006038166"><ele>1117.2376770162955</ele><time>2022-08-21T07:40:52Z</time></trkpt><trkpt lat="43.437912499698896" lon="142.65960733224023"><ele>1115.292250786908</ele><time>2022-08-21T07:41:09Z</time></trkpt><trkpt lat="43.43806480166953" lon="142.65946433615096"><ele>1110.814174843952</ele><time>2022-08-21T07:41:31Z</time></trkpt><trkpt lat="43.43818931662148" lon="142.65927248096244"><ele>1107.026977355592</ele><time>2022-08-21T07:41:49Z</time></trkpt><trkpt lat="43.43837425891188" lon="142.65922455478835"><ele>1104.381653983146</ele><time>2022-08-21T07:42:06Z</time></trkpt><trkpt lat="43.438524229208895" lon="142.6590866855201"><ele>1103.4835524018854</ele><time>2022-08-21T07:42:20Z</time></trkpt><trkpt lat="43.43863662453655" lon="142.65887456899924"><ele>1101.445383486338</ele><time>2022-08-21T07:42:37Z</time></trkpt><trkpt lat="43.43876163442938" lon="142.65868620057745"><ele>1099.1237719617784</ele><time>2022-08-21T07:42:53Z</time></trkpt><trkpt lat="43.438885236159805" lon="142.658504037473"><ele>1096.8138223951682</ele><time>2022-08-21T07:43:08Z</time></trkpt><trkpt lat="43.43904108028265" lon="142.65837272105654"><ele>1095.2026668731123</ele><time>2022-08-21T07:43:25Z</time></trkpt><trkpt lat="43.439158485045986" lon="142.65817115416354"><ele>1092.0669482694939</ele><time>2022-08-21T07:43:42Z</time></trkpt><trkpt lat="43.43928990326817" lon="142.65798987932374"><ele>1087.8630161536857</ele><time>2022-08-21T07:43:59Z</time></trkpt><trkpt lat="43.43946234437469" lon="142.65790066767215"><ele>1086.915111114271</ele><time>2022-08-21T07:44:17Z</time></trkpt><trkpt lat="43.43961378606192" lon="142.6577628045988"><ele>1082.8153127627447</ele><time>2022-08-21T07:44:35Z</time></trkpt><trkpt lat="43.43974078392208" lon="142.65758091374298"><ele>1079.067253629677</ele><time>2022-08-21T07:44:53Z</time></trkpt><trkpt lat="43.43989181709687" lon="142.65743684788748"><ele>1074.6086133494973</ele><time>2022-08-21T07:45:15Z</time></trkpt><trkpt lat="43.440041017974856" lon="142.6572980360569"><ele>1074.9276512581855</ele><time>2022-08-21T07:45:31Z</time></trkpt><trkpt lat="43.44017261051037" lon="142.65712772614137"><ele>1072.3844232503325</ele><time>2022-08-21T07:45:51Z</time></trkpt><trkpt lat="43.44031760692977" lon="142.65697054228121"><ele>1069.4712760644034</ele><time>2022-08-21T07:46:10Z</time></trkpt><trkpt lat="43.44044081036363" lon="142.65678342135192"><ele>1065.5892679262906</ele><time>2022-08-21T07:46:31Z</time></trkpt><trkpt lat="43.44051984381802" lon="142.65655955715354"><ele>1063.820247137919</ele><time>2022-08-21T07:46:53Z</time></trkpt><trkpt lat="43.44063070505723" lon="142.6563564215373"><ele>1058.4577817488462</ele><time>2022-08-21T07:47:16Z</time></trkpt><trkpt lat="43.4407429871753" lon="142.6561572050609"><ele>1053.1583972433582</ele><time>2022-08-21T07:49:26Z</time></trkpt><trkpt lat="43.44085371751723" lon="142.65594677188525"><ele>1053.0064717959613</ele><time>2022-08-21T07:49:42Z</time></trkpt><trkpt lat="43.44095758090969" lon="142.65573332901107"><ele>1052.3201017221436</ele><time>2022-08-21T07:49:57Z</time></trkpt><trkpt lat="43.44107564543384" lon="142.65553595377767"><ele>1050.6132875457406</ele><time>2022-08-21T07:50:11Z</time></trkpt><trkpt lat="43.44117935732826" lon="142.65533124274893"><ele>1049.8679615464061</ele><time>2022-08-21T07:50:24Z</time></trkpt><trkpt lat="43.44129388973397" lon="142.65512708232922"><ele>1046.338909293525</ele><time>2022-08-21T07:50:37Z</time></trkpt><trkpt lat="43.44141055406283" lon="142.654937658439"><ele>1043.2677872627974</ele><time>2022-08-21T07:50:55Z</time></trkpt><trkpt lat="43.44153189530083" lon="142.65474984875567"><ele>1040.7697303034365</ele><time>2022-08-21T07:51:16Z</time></trkpt><trkpt lat="43.44162420397074" lon="142.6545355045266"><ele>1035.6541557041928</ele><time>2022-08-21T07:51:35Z</time></trkpt><trkpt lat="43.44169809080832" lon="142.65429817757214"><ele>1031.6854473352432</ele><time>2022-08-21T07:51:53Z</time></trkpt><trkpt lat="43.441749127324094" lon="142.65405807353378"><ele>1026.8943687081337</ele><time>2022-08-21T07:52:17Z</time></trkpt><trkpt lat="43.44186181813947" lon="142.65385428976552"><ele>1021.7231282973662</ele><time>2022-08-21T07:52:45Z</time></trkpt><trkpt lat="43.441906446776635" lon="142.6536099546166"><ele>1019.7358465958387</ele><time>2022-08-21T07:53:07Z</time></trkpt><trkpt lat="43.44203046168047" lon="142.65342544420253"><ele>1020.6415823902935</ele><time>2022-08-21T07:53:22Z</time></trkpt><trkpt lat="43.44213134147088" lon="142.65319696138545"><ele>1019.3207314498723</ele><time>2022-08-21T07:53:39Z</time></trkpt><trkpt lat="43.442247070135096" lon="142.65300574888667"><ele>1015.429117122665</ele><time>2022-08-21T07:54:02Z</time></trkpt><trkpt lat="43.44237014465427" lon="142.65282150061773"><ele>1009.7681277589872</ele><time>2022-08-21T07:54:26Z</time></trkpt><trkpt lat="43.44247361857911" lon="142.6526170737305"><ele>1006.2999269431457</ele><time>2022-08-21T07:54:44Z</time></trkpt><trkpt lat="43.44257105036302" lon="142.65238582214008"><ele>1005.3184947390109</ele><time>2022-08-21T07:55:00Z</time></trkpt><trkpt lat="43.44264830964983" lon="142.65214640162526"><ele>1002.4024518504739</ele><time>2022-08-21T07:55:18Z</time></trkpt><trkpt lat="43.44275911292819" lon="142.65194294717764"><ele>1001.5345491124317</ele><time>2022-08-21T07:55:32Z</time></trkpt><trkpt lat="43.442845612317655" lon="142.65172191103488"><ele>1001.8645317358896</ele><time>2022-08-21T07:55:48Z</time></trkpt><trkpt lat="43.44296856963153" lon="142.6515179294369"><ele>997.4049642048776</ele><time>2022-08-21T07:56:13Z</time></trkpt><trkpt lat="43.44312358007099" lon="142.65138311170702"><ele>995.3961306856945</ele><time>2022-08-21T07:56:49Z</time></trkpt><trkpt lat="43.44329832138823" lon="142.65129582564566"><ele>988.2235677894205</ele><time>2022-08-21T07:57:28Z</time></trkpt><trkpt lat="43.44346977138603" lon="142.65120350181888"><ele>982.3947133151814</ele><time>2022-08-21T07:58:03Z</time></trkpt><trkpt lat="43.443611832885665" lon="142.65104835078813"><ele>976.7490120762959</ele><time>2022-08-21T07:58:40Z</time></trkpt><trkpt lat="43.44378346764129" lon="142.65094190630964"><ele>973.3603515233845</ele><time>2022-08-21T07:59:01Z</time></trkpt><trkpt lat="43.44393425999796" lon="142.650794602203"><ele>973.159229083918</ele><time>2022-08-21T07:59:17Z</time></trkpt><trkpt lat="43.44409558628727" lon="142.65068218590537"><ele>971.3615821162239</ele><time>2022-08-21T07:59:34Z</time></trkpt><trkpt lat="43.444263535117706" lon="142.65056764837263"><ele>969.3834128500894</ele><time>2022-08-21T07:59:53Z</time></trkpt><trkpt lat="43.444420991470324" lon="142.6504420900892"><ele>967.7316023400053</ele><time>2022-08-21T08:00:07Z</time></trkpt><trkpt lat="43.44458742247631" lon="142.65033776020402"><ele>966.0516739720479</ele><time>2022-08-21T08:00:22Z</time></trkpt><trkpt lat="43.4447684783525" lon="142.6502788005221"><ele>963.649403847754</ele><time>2022-08-21T08:00:41Z</time></trkpt><trkpt lat="43.44495506333491" lon="142.65025651451182"><ele>960.0297584077343</ele><time>2022-08-21T08:00:58Z</time></trkpt><trkpt lat="43.44513315588608" lon="142.65017608971607"><ele>957.9534378312528</ele><time>2022-08-21T08:01:16Z</time></trkpt><trkpt lat="43.44532051226404" lon="142.65015431466531"><ele>955.7189588183537</ele><time>2022-08-21T08:01:34Z</time></trkpt><trkpt lat="43.44549892269262" lon="142.6501107911496"><ele>953.2673484161496</ele><time>2022-08-21T08:01:50Z</time></trkpt><trkpt lat="43.445680564292985" lon="142.65005937335678"><ele>950.1699478141963</ele><time>2022-08-21T08:02:06Z</time></trkpt><trkpt lat="43.44585262302428" lon="142.64998133637107"><ele>949.1652917470783</ele><time>2022-08-21T08:02:20Z</time></trkpt><trkpt lat="43.4460260966619" lon="142.6498978827559"><ele>947.5205525849015</ele><time>2022-08-21T08:02:36Z</time></trkpt><trkpt lat="43.44620682103833" lon="142.64988234809323"><ele>946.9369622254744</ele><time>2022-08-21T08:02:52Z</time></trkpt><trkpt lat="43.446380517774784" lon="142.6498004591663"><ele>944.9391047479585</ele><time>2022-08-21T08:03:06Z</time></trkpt><trkpt lat="43.44655224650694" lon="142.64968960848375"><ele>942.8476174557582</ele><time>2022-08-21T08:03:21Z</time></trkpt><trkpt lat="43.44668941925292" lon="142.64951166985492"><ele>942.3082327600569</ele><time>2022-08-21T08:03:36Z</time></trkpt><trkpt lat="43.44686319109258" lon="142.64941333236672"><ele>940.4841041909531</ele><time>2022-08-21T08:03:52Z</time></trkpt><trkpt lat="43.44697639832924" lon="142.64921671358636"><ele>937.8027866715565</ele><time>2022-08-21T08:04:08Z</time></trkpt><trkpt lat="43.44713822911557" lon="142.64910321446297"><ele>933.7925998168066</ele><time>2022-08-21T08:06:16Z</time></trkpt><trkpt lat="43.44732707408332" lon="142.64906734823072"><ele>933.7587893875316</ele><time>2022-08-21T08:06:50Z</time></trkpt></trkseg></trk></gpx>