<?xml version='1.0' encoding='UTF-8'?><gpx creator="YAMAP - https://yamap.com" xsi:schemaLocation="http://www.topografix.com/GPX/1/1 http://www.topografix.com/GPX/1/1/gpx.xsd" version="1.1" xmlns="http://www.topografix.com/GPX/1/1" xmlns:xsi="http://www.w3.org/2001/XMLSchema-instance"><metadata><bounds maxlat="36.16748871302084" maxlon="140.13129212005356" minlat="36.1525080877513" minlon="140.11843671418353"/></metadata><trk><name>宝篋山</name><number>1</number><trkseg><trkpt lat="36.155043425776825" lon="140.12052419438808"><ele>25.905750205740333</ele><time>2021-12-31T19:26:59Z</time></trkpt><trkpt lat="36.15519633577513" lon="140.12065104723905"><ele>29.336943885311484</ele><time>2021-12-31T19:27:18Z</time></trkpt><trkpt lat="36.1553455426427" lon="140.1207788917757"><ele>27.654607502743602</ele><time>2021-12-31T19:27:36Z</time></trkpt><trkpt lat="36.155484425116335" lon="140.1209338065867"><ele>28.047539494000375</ele><time>2021-12-31T19:27:52Z</time></trkpt><trkpt lat="36.15564979564291" lon="140.12102907170961"><ele>27.772813205607235</ele><time>2021-12-31T19:28:10Z</time></trkpt><trkpt lat="36.15575453769642" lon="140.12121012669908"><ele>28.984464136883616</ele><time>2021-12-31T19:28:28Z</time></trkpt><trkpt lat="36.155900410646545" lon="140.12135421541208"><ele>29.852914175018668</ele><time>2021-12-31T19:28:47Z</time></trkpt><trkpt lat="36.156023467263594" lon="140.12153390381175"><ele>31.229871635325253</ele><time>2021-12-31T19:29:05Z</time></trkpt><trkpt lat="36.15613019805713" lon="140.121722128793"><ele>30.148666156455874</ele><time>2021-12-31T19:29:20Z</time></trkpt><trkpt lat="36.15630826146266" lon="140.12178723862868"><ele>30.88660024292767</ele><time>2021-12-31T19:29:37Z</time></trkpt><trkpt lat="36.15647962007618" lon="140.12186611647206"><ele>32.68217512499541</ele><time>2021-12-31T19:29:53Z</time></trkpt><trkpt lat="36.156600731847526" lon="140.12204277653905"><ele>31.107159414328635</ele><time>2021-12-31T19:30:09Z</time></trkpt><trkpt lat="36.15661350609899" lon="140.12227005642518"><ele>34.0705762533471</ele><time>2021-12-31T19:30:27Z</time></trkpt><trkpt lat="36.156711549340365" lon="140.12247128219377"><ele>34.80842636618763</ele><time>2021-12-31T19:30:45Z</time></trkpt><trkpt lat="36.156656908765115" lon="140.1226876028139"><ele>35.09075949434191</ele><time>2021-12-31T19:31:02Z</time></trkpt><trkpt lat="36.15663815695428" lon="140.12291686364168"><ele>41.08031561318785</ele><time>2021-12-31T19:31:37Z</time></trkpt><trkpt lat="36.156697833891336" lon="140.12313653621771"><ele>40.61846451740712</ele><time>2021-12-31T19:31:53Z</time></trkpt><trkpt lat="36.156825546629975" lon="140.1232985293225"><ele>43.60411758441478</ele><time>2021-12-31T19:32:10Z</time></trkpt><trkpt lat="36.15691571132039" lon="140.12349492681008"><ele>46.201434917747974</ele><time>2021-12-31T19:32:29Z</time></trkpt><trkpt lat="36.157104578487726" lon="140.1234989637559"><ele>48.3522121636197</ele><time>2021-12-31T19:32:50Z</time></trkpt><trkpt lat="36.15725773620874" lon="140.12362522761148"><ele>51.683399338275194</ele><time>2021-12-31T19:33:14Z</time></trkpt><trkpt lat="36.157431225076486" lon="140.1237255037165"><ele>55.89556884672493</ele><time>2021-12-31T19:33:34Z</time></trkpt><trkpt lat="36.15758254732783" lon="140.12386378323592"><ele>58.93582952208817</ele><time>2021-12-31T19:34:02Z</time></trkpt><trkpt lat="36.157758221065066" lon="140.12393893126043"><ele>65.06510128173977</ele><time>2021-12-31T19:34:29Z</time></trkpt><trkpt lat="36.157932972557234" lon="140.12402928176618"><ele>67.20506889093667</ele><time>2021-12-31T19:35:05Z</time></trkpt><trkpt lat="36.158087809030626" lon="140.12414980434136"><ele>73.67765149846673</ele><time>2021-12-31T19:35:25Z</time></trkpt><trkpt lat="36.15824779596587" lon="140.12426234225714"><ele>77.50267788209021</ele><time>2021-12-31T19:35:51Z</time></trkpt><trkpt lat="36.15840125856336" lon="140.12438151922717"><ele>80.40749547164887</ele><time>2021-12-31T19:36:15Z</time></trkpt><trkpt lat="36.15855980170872" lon="140.1245047771374"><ele>85.81885295268148</ele><time>2021-12-31T19:36:48Z</time></trkpt><trkpt lat="36.1587531703822" lon="140.1245405715009"><ele>91.70761016197503</ele><time>2021-12-31T19:37:15Z</time></trkpt><trkpt lat="36.15893938561396" lon="140.12454858217572"><ele>93.17674641497433</ele><time>2021-12-31T19:37:41Z</time></trkpt><trkpt lat="36.1589932614053" lon="140.1247716958343"><ele>99.01158399973065</ele><time>2021-12-31T19:38:11Z</time></trkpt><trkpt lat="36.15915633626368" lon="140.124872605687"><ele>102.91067023109645</ele><time>2021-12-31T19:38:44Z</time></trkpt><trkpt lat="36.159291971824906" lon="140.1250246667083"><ele>107.25024023465812</ele><time>2021-12-31T19:39:21Z</time></trkpt><trkpt lat="36.159475242102445" lon="140.1250487613175"><ele>109.22936493810266</ele><time>2021-12-31T19:40:19Z</time></trkpt><trkpt lat="36.15964893347017" lon="140.12513126262292"><ele>110.73197723831981</ele><time>2021-12-31T19:40:45Z</time></trkpt><trkpt lat="36.159819989586076" lon="140.1252166399983"><ele>120.37519454024732</ele><time>2021-12-31T19:41:22Z</time></trkpt><trkpt lat="36.160001223415144" lon="140.12529098376942"><ele>126.77468362264335</ele><time>2021-12-31T19:42:08Z</time></trkpt><trkpt lat="36.16017688583173" lon="140.1252350628903"><ele>132.80432939250022</ele><time>2021-12-31T19:43:01Z</time></trkpt><trkpt lat="36.16030482590175" lon="140.12539894129216"><ele>133.29720822069794</ele><time>2021-12-31T19:44:23Z</time></trkpt><trkpt lat="36.16040913439196" lon="140.12558183291017"><ele>138.12482923083007</ele><time>2021-12-31T19:44:59Z</time></trkpt><trkpt lat="36.16058372946508" lon="140.12565269054758"><ele>147.56845277827233</ele><time>2021-12-31T19:45:34Z</time></trkpt><trkpt lat="36.160745265500175" lon="140.12575510278143"><ele>155.3740831008181</ele><time>2021-12-31T19:46:05Z</time></trkpt><trkpt lat="36.16089845846723" lon="140.12587950376755"><ele>161.83938287198544</ele><time>2021-12-31T19:46:32Z</time></trkpt><trkpt lat="36.16108123109842" lon="140.12588737996512"><ele>162.85294990893453</ele><time>2021-12-31T19:47:12Z</time></trkpt><trkpt lat="36.16126327034178" lon="140.1259128385367"><ele>165.15116713102907</ele><time>2021-12-31T19:47:48Z</time></trkpt><trkpt lat="36.161428584851855" lon="140.1260078644064"><ele>168.32114400248975</ele><time>2021-12-31T19:48:28Z</time></trkpt><trkpt lat="36.16157224937778" lon="140.1261428860376"><ele>171.32592585403472</ele><time>2021-12-31T19:49:17Z</time></trkpt><trkpt lat="36.16161547012148" lon="140.12636322590464"><ele>181.69261214882135</ele><time>2021-12-31T19:49:37Z</time></trkpt><trkpt lat="36.16174493680256" lon="140.1265214026535"><ele>187.39949351828545</ele><time>2021-12-31T19:50:00Z</time></trkpt><trkpt lat="36.16192647387899" lon="140.12652030050913"><ele>193.15633778367192</ele><time>2021-12-31T19:50:36Z</time></trkpt><trkpt lat="36.16207375133028" lon="140.12665196365012"><ele>202.1857150522992</ele><time>2021-12-31T19:51:14Z</time></trkpt><trkpt lat="36.16226216053858" lon="140.12660229834103"><ele>205.6874246178195</ele><time>2021-12-31T19:51:44Z</time></trkpt><trkpt lat="36.16243924141872" lon="140.12654423213962"><ele>203.9073494412005</ele><time>2021-12-31T19:52:34Z</time></trkpt><trkpt lat="36.16253865365788" lon="140.1267400550293"><ele>210.44012917298824</ele><time>2021-12-31T19:53:07Z</time></trkpt><trkpt lat="36.162499243118944" lon="140.12696030253707"><ele>216.51932684518397</ele><time>2021-12-31T19:54:28Z</time></trkpt><trkpt lat="36.16264362319806" lon="140.1271042767898"><ele>216.31968095339835</ele><time>2021-12-31T19:55:21Z</time></trkpt><trkpt lat="36.162807568918495" lon="140.12720098340932"><ele>222.63002645689994</ele><time>2021-12-31T19:56:06Z</time></trkpt><trkpt lat="36.16297624109554" lon="140.12728232588682"><ele>230.64473198913038</ele><time>2021-12-31T19:56:48Z</time></trkpt><trkpt lat="36.16292973488762" lon="140.12749896788844"><ele>235.5171711454168</ele><time>2021-12-31T19:58:40Z</time></trkpt><trkpt lat="36.16284360360518" lon="140.12769842880883"><ele>236.80942093022168</ele><time>2021-12-31T20:09:47Z</time></trkpt><trkpt lat="36.16266282113355" lon="140.12773765334057"><ele>238.92767957784235</ele><time>2021-12-31T20:10:12Z</time></trkpt><trkpt lat="36.16247552579738" lon="140.12772583953316"><ele>243.3057559756562</ele><time>2021-12-31T20:10:39Z</time></trkpt><trkpt lat="36.16228543499577" lon="140.12774537177893"><ele>248.7352832937613</ele><time>2021-12-31T20:11:11Z</time></trkpt><trkpt lat="36.162140838046845" lon="140.1278895421204"><ele>250.18644809909165</ele><time>2021-12-31T20:11:33Z</time></trkpt><trkpt lat="36.16197710074573" lon="140.12800102414175"><ele>252.01648053806275</ele><time>2021-12-31T20:11:52Z</time></trkpt><trkpt lat="36.16184861620688" lon="140.12816798478408"><ele>254.96307496819645</ele><time>2021-12-31T20:12:22Z</time></trkpt><trkpt lat="36.16170638344778" lon="140.1283088198503"><ele>260.24062578659505</ele><time>2021-12-31T20:12:55Z</time></trkpt><trkpt lat="36.16161936270679" lon="140.12850509038125"><ele>262.31892459094524</ele><time>2021-12-31T20:13:22Z</time></trkpt><trkpt lat="36.16148849968865" lon="140.12867517053354"><ele>269.3786271074787</ele><time>2021-12-31T20:13:51Z</time></trkpt><trkpt lat="36.161341961442766" lon="140.12882794529855"><ele>270.84091358818114</ele><time>2021-12-31T20:14:12Z</time></trkpt><trkpt lat="36.16124959505729" lon="140.12902409499523"><ele>274.8252107081935</ele><time>2021-12-31T20:14:34Z</time></trkpt><trkpt lat="36.1612646043451" lon="140.1292493574808"><ele>273.10346561390907</ele><time>2021-12-31T20:14:56Z</time></trkpt><trkpt lat="36.16132618362014" lon="140.12946583447587"><ele>273.68636059667915</ele><time>2021-12-31T20:15:20Z</time></trkpt><trkpt lat="36.16141105546394" lon="140.12966470648593"><ele>278.8567370325327</ele><time>2021-12-31T20:15:50Z</time></trkpt><trkpt lat="36.16143588897032" lon="140.1298898080341"><ele>280.26554118376225</ele><time>2021-12-31T20:16:19Z</time></trkpt><trkpt lat="36.16157879533653" lon="140.13002930191615"><ele>287.96722942590714</ele><time>2021-12-31T20:17:04Z</time></trkpt><trkpt lat="36.16173449038052" lon="140.12991589245192"><ele>297.6906034871936</ele><time>2021-12-31T20:17:50Z</time></trkpt><trkpt lat="36.16190858753464" lon="140.12998923793515"><ele>306.7940313508734</ele><time>2021-12-31T20:19:00Z</time></trkpt><trkpt lat="36.16208830747856" lon="140.12995978379922"><ele>315.08338269684464</ele><time>2021-12-31T20:19:54Z</time></trkpt><trkpt lat="36.16224858621302" lon="140.12983137396853"><ele>322.57284863386303</ele><time>2021-12-31T20:22:23Z</time></trkpt><trkpt lat="36.16242935529679" lon="140.12983914064662"><ele>331.028802911751</ele><time>2021-12-31T20:23:24Z</time></trkpt><trkpt lat="36.1626051287975" lon="140.1297709234613"><ele>343.6970290951431</ele><time>2021-12-31T20:24:26Z</time></trkpt><trkpt lat="36.16278480615026" lon="140.12980647130914"><ele>348.7238819953054</ele><time>2021-12-31T20:25:04Z</time></trkpt><trkpt lat="36.16287709633513" lon="140.13000553084012"><ele>354.4861957821995</ele><time>2021-12-31T20:25:35Z</time></trkpt><trkpt lat="36.16306255484217" lon="140.12997762766005"><ele>354.70808817911893</ele><time>2021-12-31T20:25:59Z</time></trkpt><trkpt lat="36.163208868292145" lon="140.1301169960789"><ele>359.1889631561935</ele><time>2021-12-31T20:26:29Z</time></trkpt><trkpt lat="36.16328183524176" lon="140.13032707831732"><ele>364.0881211925298</ele><time>2021-12-31T20:27:00Z</time></trkpt><trkpt lat="36.163460876087086" lon="140.13030127870076"><ele>370.0964788906276</ele><time>2021-12-31T20:27:33Z</time></trkpt><trkpt lat="36.16363520167429" lon="140.13022794790135"><ele>374.34143813792616</ele><time>2021-12-31T20:28:06Z</time></trkpt><trkpt lat="36.16381299864195" lon="140.1303035030525"><ele>380.563913683407</ele><time>2021-12-31T20:28:36Z</time></trkpt><trkpt lat="36.16387474897094" lon="140.1305151328537"><ele>382.9639378981665</ele><time>2021-12-31T20:29:03Z</time></trkpt><trkpt lat="36.163944402116066" lon="140.13072427198156"><ele>387.6168970661238</ele><time>2021-12-31T20:29:27Z</time></trkpt><trkpt lat="36.16408212089747" lon="140.13088010717738"><ele>389.61852716095746</ele><time>2021-12-31T20:29:50Z</time></trkpt><trkpt lat="36.164249128843174" lon="140.13096842860693"><ele>392.32292304188013</ele><time>2021-12-31T20:30:10Z</time></trkpt><trkpt lat="36.164371374382995" lon="140.13114551614802"><ele>396.3543548146263</ele><time>2021-12-31T20:30:34Z</time></trkpt><trkpt lat="36.16454347699992" lon="140.13123899535375"><ele>398.18518730066717</ele><time>2021-12-31T20:30:59Z</time></trkpt><trkpt lat="36.16471925952785" lon="140.13129212005356"><ele>400.847864237614</ele><time>2021-12-31T20:31:20Z</time></trkpt><trkpt lat="36.16487490798877" lon="140.1311778046204"><ele>404.1434771325439</ele><time>2021-12-31T20:31:43Z</time></trkpt><trkpt lat="36.16494542153111" lon="140.13096346352555"><ele>407.8108310010284</ele><time>2021-12-31T20:32:07Z</time></trkpt><trkpt lat="36.16500780471783" lon="140.1307545202807"><ele>409.8134212223813</ele><time>2021-12-31T20:32:26Z</time></trkpt><trkpt lat="36.165069938458664" lon="140.1305451446969"><ele>413.2437471989542</ele><time>2021-12-31T20:32:50Z</time></trkpt><trkpt lat="36.16522596846748" lon="140.13042298598126"><ele>415.2606326881796</ele><time>2021-12-31T20:33:15Z</time></trkpt><trkpt lat="36.16535318469325" lon="140.13026395631172"><ele>417.3039517533034</ele><time>2021-12-31T20:33:36Z</time></trkpt><trkpt lat="36.165496020254416" lon="140.1301265101226"><ele>419.72848931886256</ele><time>2021-12-31T20:33:58Z</time></trkpt><trkpt lat="36.16567138879357" lon="140.13007492583978"><ele>422.95446938835084</ele><time>2021-12-31T20:34:22Z</time></trkpt><trkpt lat="36.16581373642852" lon="140.13022707394128"><ele>427.1612953664735</ele><time>2021-12-31T20:34:39Z</time></trkpt><trkpt lat="36.16598206837517" lon="140.13034565542125"><ele>432.99485310819</ele><time>2021-12-31T20:34:57Z</time></trkpt><trkpt lat="36.166162693633005" lon="140.13036141223105"><ele>432.19028525799513</ele><time>2021-12-31T20:35:20Z</time></trkpt><trkpt lat="36.166351899295954" lon="140.13038615734547"><ele>433.0245850412175</ele><time>2021-12-31T20:35:39Z</time></trkpt><trkpt lat="36.16652001812831" lon="140.13028801438162"><ele>432.21552511677146</ele><time>2021-12-31T20:36:00Z</time></trkpt><trkpt lat="36.16669709858398" lon="140.13016337683013"><ele>433.03973678778857</ele><time>2021-12-31T20:37:07Z</time></trkpt><trkpt lat="36.16684868269245" lon="140.1300350367859"><ele>435.8992186766118</ele><time>2021-12-31T20:39:10Z</time></trkpt><trkpt lat="36.167027119253795" lon="140.13008774693492"><ele>442.3132382966578</ele><time>2021-12-31T20:39:57Z</time></trkpt><trkpt lat="36.16710856871705" lon="140.12987246168328"><ele>444.9337538527325</ele><time>2021-12-31T20:40:18Z</time></trkpt><trkpt lat="36.16720095071885" lon="140.1296801647565"><ele>449.36815547104925</ele><time>2021-12-31T20:40:40Z</time></trkpt><trkpt lat="36.167356752819096" lon="140.12979707821077"><ele>450.873825667426</ele><time>2021-12-31T20:41:04Z</time></trkpt><trkpt lat="36.16748871302084" lon="140.1299493627124"><ele>459.9230562420562</ele><time>2021-12-31T20:41:48Z</time></trkpt><trkpt lat="36.16738520738417" lon="140.13013791053464"><ele>456.35270639602095</ele><time>2021-12-31T20:43:03Z</time></trkpt><trkpt lat="36.167379170161055" lon="140.12991135886838"><ele>457.79653110262007</ele><time>2021-12-31T21:41:25Z</time></trkpt><trkpt lat="36.167311833058676" lon="140.1297002512079"><ele>448.5778499506414</ele><time>2021-12-31T21:41:42Z</time></trkpt><trkpt lat="36.16718726537032" lon="140.12953287016467"><ele>439.3498445870355</ele><time>2021-12-31T21:41:58Z</time></trkpt><trkpt lat="36.16701536973119" lon="140.12962127024187"><ele>433.09841277077794</ele><time>2021-12-31T21:42:19Z</time></trkpt><trkpt lat="36.166895668190584" lon="140.12985397582005"><ele>429.8233504043892</ele><time>2021-12-31T21:42:27Z</time></trkpt><trkpt lat="36.166790614232276" lon="140.13008910375154"><ele>429.58863445650786</ele><time>2021-12-31T21:42:32Z</time></trkpt><trkpt lat="36.16665796124223" lon="140.1302428093236"><ele>427.59986426401883</ele><time>2021-12-31T21:42:44Z</time></trkpt><trkpt lat="36.16677854053235" lon="140.13041169800928"><ele>435.91342286765575</ele><time>2021-12-31T21:42:52Z</time></trkpt><trkpt lat="36.16694849080589" lon="140.13051424677627"><ele>436.488547523506</ele><time>2021-12-31T21:43:01Z</time></trkpt><trkpt lat="36.1667921955096" lon="140.13038788496016"><ele>431.9431940894574</ele><time>2021-12-31T21:44:15Z</time></trkpt><trkpt lat="36.16675743118545" lon="140.1301599467992"><ele>432.3199504110962</ele><time>2021-12-31T21:44:31Z</time></trkpt><trkpt lat="36.16689161895979" lon="140.12996597733746"><ele>438.00777785666287</ele><time>2021-12-31T21:44:39Z</time></trkpt><trkpt lat="36.167077328541836" lon="140.12991806817092"><ele>443.3882155623287</ele><time>2021-12-31T21:44:53Z</time></trkpt><trkpt lat="36.167176533431494" lon="140.12972700555514"><ele>445.6813867613673</ele><time>2021-12-31T21:44:59Z</time></trkpt><trkpt lat="36.16734854759301" lon="140.1297962297789"><ele>450.1343410713598</ele><time>2021-12-31T21:45:09Z</time></trkpt><trkpt lat="36.16738769951168" lon="140.1300319232254"><ele>454.51706200651824</ele><time>2021-12-31T21:45:29Z</time></trkpt><trkpt lat="36.16739694378469" lon="140.12980696043476"><ele>457.48298902250826</ele><time>2021-12-31T22:01:12Z</time></trkpt><trkpt lat="36.16728784707753" lon="140.12962935324722"><ele>450.36728178244084</ele><time>2021-12-31T22:01:47Z</time></trkpt><trkpt lat="36.16711920236029" lon="140.12952703567714"><ele>443.56381438300014</ele><time>2021-12-31T22:02:26Z</time></trkpt><trkpt lat="36.16697373964485" lon="140.12966797190785"><ele>441.50189002696425</ele><time>2021-12-31T22:02:52Z</time></trkpt><trkpt lat="36.16686043703737" lon="140.1298431086776"><ele>440.83185950666666</ele><time>2021-12-31T22:03:16Z</time></trkpt><trkpt lat="36.16680196830841" lon="140.1300548698977"><ele>437.5929283425212</ele><time>2021-12-31T22:03:32Z</time></trkpt><trkpt lat="36.16668168552615" lon="140.13022115128322"><ele>434.4110837318003</ele><time>2021-12-31T22:03:50Z</time></trkpt><trkpt lat="36.16650308450755" lon="140.1302849662125"><ele>432.9686004323885</ele><time>2021-12-31T22:04:08Z</time></trkpt><trkpt lat="36.166322358811605" lon="140.1303070241752"><ele>433.94371462240815</ele><time>2021-12-31T22:04:26Z</time></trkpt><trkpt lat="36.16614502327334" lon="140.13026703997872"><ele>433.0820883717388</ele><time>2021-12-31T22:04:42Z</time></trkpt><trkpt lat="36.16595546487492" lon="140.130243135812"><ele>431.0718443058431</ele><time>2021-12-31T22:04:58Z</time></trkpt><trkpt lat="36.16578668516046" lon="140.13012727776623"><ele>429.6153049180284</ele><time>2021-12-31T22:05:16Z</time></trkpt><trkpt lat="36.165617177452795" lon="140.13002275170163"><ele>425.09468457009643</ele><time>2021-12-31T22:05:38Z</time></trkpt><trkpt lat="36.165464452814255" lon="140.13015293033115"><ele>423.81103719584644</ele><time>2021-12-31T22:05:52Z</time></trkpt><trkpt lat="36.16530974930408" lon="140.1303037938203"><ele>421.9080400215462</ele><time>2021-12-31T22:06:06Z</time></trkpt><trkpt lat="36.16517958350588" lon="140.1304701897262"><ele>414.0017064670101</ele><time>2021-12-31T22:06:25Z</time></trkpt><trkpt lat="36.16503836005386" lon="140.13064498124885"><ele>414.2742880489677</ele><time>2021-12-31T22:06:42Z</time></trkpt><trkpt lat="36.164986090593416" lon="140.130861711242"><ele>409.15950653515756</ele><time>2021-12-31T22:07:00Z</time></trkpt><trkpt lat="36.16489252367524" lon="140.1310571052544"><ele>408.73267077095807</ele><time>2021-12-31T22:07:15Z</time></trkpt><trkpt lat="36.16474709987612" lon="140.1312059405984"><ele>409.7381257330999</ele><time>2021-12-31T22:07:30Z</time></trkpt><trkpt lat="36.16456488254894" lon="140.13120525939502"><ele>405.3202352505177</ele><time>2021-12-31T22:07:51Z</time></trkpt><trkpt lat="36.16440738298793" lon="140.13109703668434"><ele>401.06728257238865</ele><time>2021-12-31T22:08:14Z</time></trkpt><trkpt lat="36.16428798850481" lon="140.13092327205499"><ele>395.75532068219036</ele><time>2021-12-31T22:08:33Z</time></trkpt><trkpt lat="36.16411694515956" lon="140.13083891363988"><ele>394.6076602982357</ele><time>2021-12-31T22:08:50Z</time></trkpt><trkpt lat="36.16395821942172" lon="140.1307067277505"><ele>389.51864966377616</ele><time>2021-12-31T22:09:10Z</time></trkpt><trkpt lat="36.16391235871024" lon="140.13048866826685"><ele>385.3360833572224</ele><time>2021-12-31T22:09:20Z</time></trkpt><trkpt lat="36.16381522033464" lon="140.1302873347039"><ele>381.26014036871493</ele><time>2021-12-31T22:09:50Z</time></trkpt><trkpt lat="36.16364357653476" lon="140.13020495800595"><ele>379.6783341579139</ele><time>2021-12-31T22:10:10Z</time></trkpt><trkpt lat="36.163466615561546" lon="140.1302531505807"><ele>378.08745818492025</ele><time>2021-12-31T22:10:29Z</time></trkpt><trkpt lat="36.16328873317213" lon="140.1303341443816"><ele>372.15733459591866</ele><time>2021-12-31T22:10:52Z</time></trkpt><trkpt lat="36.16324035546496" lon="140.13011200140036"><ele>362.0631992639974</ele><time>2021-12-31T22:11:13Z</time></trkpt><trkpt lat="36.16308866250593" lon="140.12998193917332"><ele>354.73540935944766</ele><time>2021-12-31T22:11:38Z</time></trkpt><trkpt lat="36.162938672783916" lon="140.12985057159773"><ele>351.02828615531325</ele><time>2021-12-31T22:11:54Z</time></trkpt><trkpt lat="36.162767569235555" lon="140.1297567037282"><ele>350.97715029865503</ele><time>2021-12-31T22:12:33Z</time></trkpt><trkpt lat="36.162577890051644" lon="140.1297686739999"><ele>348.5549592189491</ele><time>2021-12-31T22:13:00Z</time></trkpt><trkpt lat="36.16240082481192" lon="140.12983585655596"><ele>337.54661951214075</ele><time>2021-12-31T22:14:04Z</time></trkpt><trkpt lat="36.162217697885275" lon="140.1298478384843"><ele>327.1686628628522</ele><time>2021-12-31T22:15:02Z</time></trkpt><trkpt lat="36.16204268566292" lon="140.12990243616747"><ele>317.2863114140928</ele><time>2021-12-31T22:15:52Z</time></trkpt><trkpt lat="36.16186056921418" lon="140.12990847863978"><ele>307.9488030439243</ele><time>2021-12-31T22:16:54Z</time></trkpt><trkpt lat="36.16168085463087" lon="140.12993804901907"><ele>298.4505737265572</ele><time>2021-12-31T22:17:42Z</time></trkpt><trkpt lat="36.16150157369108" lon="140.1299617168929"><ele>291.112651379779</ele><time>2021-12-31T22:18:18Z</time></trkpt><trkpt lat="36.16142767584836" lon="140.12975363463417"><ele>281.646255989559</ele><time>2021-12-31T22:18:53Z</time></trkpt><trkpt lat="36.16139942159816" lon="140.12953111759742"><ele>280.1917248116806</ele><time>2021-12-31T22:19:16Z</time></trkpt><trkpt lat="36.16131263494283" lon="140.12933247372268"><ele>274.80682231206447</ele><time>2021-12-31T22:19:38Z</time></trkpt><trkpt lat="36.16126455863845" lon="140.12911287575818"><ele>273.7529714005068</ele><time>2021-12-31T22:19:56Z</time></trkpt><trkpt lat="36.16134012266059" lon="140.128899987688"><ele>271.1618726635352</ele><time>2021-12-31T22:20:15Z</time></trkpt><trkpt lat="36.161481028269684" lon="140.12875646666114"><ele>271.83792305458337</ele><time>2021-12-31T22:20:31Z</time></trkpt><trkpt lat="36.161593797410774" lon="140.1285670018024"><ele>267.66142531484365</ele><time>2021-12-31T22:20:52Z</time></trkpt><trkpt lat="36.16170733345435" lon="140.1283737259162"><ele>264.91315070260316</ele><time>2021-12-31T22:21:10Z</time></trkpt><trkpt lat="36.161878504840665" lon="140.1282706173415"><ele>261.9530271673575</ele><time>2021-12-31T22:21:33Z</time></trkpt><trkpt lat="36.161985049662384" lon="140.12806903339032"><ele>257.75025203078985</ele><time>2021-12-31T22:22:03Z</time></trkpt><trkpt lat="36.162142665130695" lon="140.127948234601"><ele>251.14824089966714</ele><time>2021-12-31T22:22:26Z</time></trkpt><trkpt lat="36.16229009608358" lon="140.12782002977903"><ele>250.6166900852695</ele><time>2021-12-31T22:22:42Z</time></trkpt><trkpt lat="36.16247793566678" lon="140.12776630879742"><ele>246.84718818590045</ele><time>2021-12-31T22:23:02Z</time></trkpt><trkpt lat="36.1626885319298" lon="140.1277807732069"><ele>244.9277131864801</ele><time>2021-12-31T22:23:26Z</time></trkpt><trkpt lat="36.162870706880014" lon="140.12772193098598"><ele>240.57614875305444</ele><time>2021-12-31T22:23:51Z</time></trkpt><trkpt lat="36.162957628380376" lon="140.12752668289502"><ele>237.57539967540652</ele><time>2021-12-31T22:24:12Z</time></trkpt><trkpt lat="36.163007020744644" lon="140.1273023863701"><ele>233.56395329162478</ele><time>2021-12-31T22:24:46Z</time></trkpt><trkpt lat="36.16284748247586" lon="140.1271887456999"><ele>228.70478559471667</ele><time>2021-12-31T22:25:10Z</time></trkpt><trkpt lat="36.16267743521131" lon="140.1271026827525"><ele>220.89329232927412</ele><time>2021-12-31T22:25:43Z</time></trkpt><trkpt lat="36.16254906458752" lon="140.12693792197916"><ele>211.72276367340237</ele><time>2021-12-31T22:26:37Z</time></trkpt><trkpt lat="36.162391158243224" lon="140.1268194042132"><ele>208.75770159531385</ele><time>2021-12-31T22:27:10Z</time></trkpt><trkpt lat="36.16235905470598" lon="140.1265984660976"><ele>202.61412012856454</ele><time>2021-12-31T22:28:16Z</time></trkpt><trkpt lat="36.16218013223681" lon="140.1265403073462"><ele>200.9608811866492</ele><time>2021-12-31T22:28:43Z</time></trkpt><trkpt lat="36.162003114530734" lon="140.12649111542044"><ele>198.72034340165555</ele><time>2021-12-31T22:29:33Z</time></trkpt><trkpt lat="36.16182330034062" lon="140.12651646478116"><ele>184.63857135921717</ele><time>2021-12-31T22:36:35Z</time></trkpt><trkpt lat="36.16164804124886" lon="140.12639372401625"><ele>181.15982082579285</ele><time>2021-12-31T22:36:57Z</time></trkpt><trkpt lat="36.16149894735838" lon="140.12624462682163"><ele>178.3264516107738</ele><time>2021-12-31T22:37:15Z</time></trkpt><trkpt lat="36.16136306453456" lon="140.12609790774746"><ele>170.1256505213678</ele><time>2021-12-31T22:37:37Z</time></trkpt><trkpt lat="36.16120014248861" lon="140.1259178767425"><ele>163.60174931399524</ele><time>2021-12-31T22:37:52Z</time></trkpt><trkpt lat="36.161005856512276" lon="140.1258690010748"><ele>158.2231952995062</ele><time>2021-12-31T22:38:07Z</time></trkpt><trkpt lat="36.16082348201721" lon="140.1258836225122"><ele>153.6945364428684</ele><time>2021-12-31T22:38:18Z</time></trkpt><trkpt lat="36.160690074663215" lon="140.1257202305755"><ele>150.46516390424222</ele><time>2021-12-31T22:40:15Z</time></trkpt><trkpt lat="36.16049687888724" lon="140.12572678549856"><ele>149.7556643197313</ele><time>2021-12-31T22:40:30Z</time></trkpt><trkpt lat="36.16036294803319" lon="140.12557535772305"><ele>136.69234403595328</ele><time>2021-12-31T22:41:32Z</time></trkpt><trkpt lat="36.160261083438115" lon="140.12537939425408"><ele>136.38182307500392</ele><time>2021-12-31T22:42:07Z</time></trkpt><trkpt lat="36.160131136596085" lon="140.12520966412802"><ele>132.95953829027712</ele><time>2021-12-31T22:42:30Z</time></trkpt><trkpt lat="36.15996019745725" lon="140.12528759569216"><ele>124.99013866949826</ele><time>2021-12-31T22:43:15Z</time></trkpt><trkpt lat="36.1597706475861" lon="140.12522642382908"><ele>123.09910055901855</ele><time>2021-12-31T22:43:54Z</time></trkpt><trkpt lat="36.15958471837674" lon="140.12523107085815"><ele>120.31816671136767</ele><time>2021-12-31T22:44:25Z</time></trkpt><trkpt lat="36.15942941544627" lon="140.12511402995406"><ele>118.49828734342009</ele><time>2021-12-31T22:44:46Z</time></trkpt><trkpt lat="36.15923887151759" lon="140.1250750553207"><ele>112.24121942091733</ele><time>2021-12-31T22:45:11Z</time></trkpt><trkpt lat="36.15907981276697" lon="140.12496129135363"><ele>109.24404833093286</ele><time>2021-12-31T22:45:40Z</time></trkpt><trkpt lat="36.158948420353354" lon="140.1248042874654"><ele>102.52743908576667</ele><time>2021-12-31T22:45:58Z</time></trkpt><trkpt lat="36.15881792703912" lon="140.1246453022076"><ele>97.6316847531125</ele><time>2021-12-31T22:46:16Z</time></trkpt><trkpt lat="36.15867176059134" lon="140.12450565429097"><ele>89.66939604002982</ele><time>2021-12-31T22:46:56Z</time></trkpt><trkpt lat="36.15849169093458" lon="140.12446205642348"><ele>91.56310593150556</ele><time>2021-12-31T22:47:31Z</time></trkpt><trkpt lat="36.15834151200809" lon="140.12431574610486"><ele>80.01322029624134</ele><time>2021-12-31T22:48:06Z</time></trkpt><trkpt lat="36.158203601496666" lon="140.12416083331544"><ele>76.48738843016326</ele><time>2021-12-31T22:48:29Z</time></trkpt><trkpt lat="36.15803633662254" lon="140.1240593879069"><ele>73.42342555429786</ele><time>2021-12-31T22:48:43Z</time></trkpt><trkpt lat="36.15786595788873" lon="140.12398229182892"><ele>70.56082867644727</ele><time>2021-12-31T22:49:10Z</time></trkpt><trkpt lat="36.15770799158398" lon="140.12385621655955"><ele>67.29578229784966</ele><time>2021-12-31T22:49:53Z</time></trkpt><trkpt lat="36.15751988960949" lon="140.12378170471803"><ele>63.929861198179424</ele><time>2021-12-31T22:50:04Z</time></trkpt><trkpt lat="36.157360598962256" lon="140.1236457033414"><ele>61.767658460885286</ele><time>2021-12-31T22:50:10Z</time></trkpt><trkpt lat="36.15718804501003" lon="140.12356589710996"><ele>56.93833057861775</ele><time>2021-12-31T22:51:06Z</time></trkpt><trkpt lat="36.15702685654419" lon="140.1234485759017"><ele>52.215027150698006</ele><time>2021-12-31T22:51:29Z</time></trkpt><trkpt lat="36.156859439929136" lon="140.12335247427563"><ele>47.50994017161429</ele><time>2021-12-31T22:52:05Z</time></trkpt><trkpt lat="36.15674742138145" lon="140.1231664450004"><ele>45.737073658034205</ele><time>2021-12-31T22:53:13Z</time></trkpt><trkpt lat="36.15665111691448" lon="140.12296105883192"><ele>43.980042786337435</ele><time>2021-12-31T22:53:35Z</time></trkpt><trkpt lat="36.15662740423979" lon="140.12273931956585"><ele>41.5713620595634</ele><time>2021-12-31T22:53:54Z</time></trkpt><trkpt lat="36.15673611793744" lon="140.12255708760924"><ele>41.00304071139544</ele><time>2021-12-31T22:54:11Z</time></trkpt><trkpt lat="36.156715039165256" lon="140.12233296041083"><ele>41.11811379157007</ele><time>2021-12-31T22:54:27Z</time></trkpt><trkpt lat="36.15660633017369" lon="140.1221530910946"><ele>39.60041051078588</ele><time>2021-12-31T22:54:42Z</time></trkpt><trkpt lat="36.1566085763408" lon="140.12192852625782"><ele>39.430763963609934</ele><time>2021-12-31T22:54:57Z</time></trkpt><trkpt lat="36.156446016391236" lon="140.12181206660088"><ele>36.670896984636784</ele><time>2021-12-31T22:55:15Z</time></trkpt><trkpt lat="36.156271517875126" lon="140.12175261716948"><ele>35.379478382878006</ele><time>2021-12-31T22:55:32Z</time></trkpt><trkpt lat="36.15610021256345" lon="140.12165579747474"><ele>34.46606734022498</ele><time>2021-12-31T22:55:49Z</time></trkpt><trkpt lat="36.156005035215294" lon="140.12145676841544"><ele>33.67764307372272</ele><time>2021-12-31T22:56:06Z</time></trkpt><trkpt lat="36.155869242701236" lon="140.12130653928483"><ele>31.676508780568838</ele><time>2021-12-31T22:56:21Z</time></trkpt><trkpt lat="36.155757771021584" lon="140.1211267643066"><ele>29.728443305939436</ele><time>2021-12-31T22:56:37Z</time></trkpt><trkpt lat="36.155617898831416" lon="140.12097783854287"><ele>29.01328011136502</ele><time>2021-12-31T22:56:55Z</time></trkpt><trkpt lat="36.155465026634594" lon="140.1208599972905"><ele>28.145450967364013</ele><time>2021-12-31T22:57:13Z</time></trkpt><trkpt lat="36.15530853466197" lon="140.12072639210754"><ele>25.696876044385135</ele><time>2021-12-31T22:58:16Z</time></trkpt><trkpt lat="36.155161949402675" lon="140.1205887877981"><ele>26.85031148698181</ele><time>2021-12-31T22:58:32Z</time></trkpt><trkpt lat="36.15499878292758" lon="140.12048911446075"><ele>26.918363094329834</ele><time>2021-12-31T22:58:49Z</time></trkpt><trkpt lat="36.15481847768018" lon="140.12057143991004"><ele>27.942471284419298</ele><time>2021-12-31T22:59:06Z</time></trkpt><trkpt lat="36.15463527682153" lon="140.1206161841779"><ele>28.470415835268795</ele><time>2021-12-31T22:59:23Z</time></trkpt><trkpt lat="36.154449158404965" lon="140.12063867778235"><ele>29.652575409039855</ele><time>2021-12-31T22:59:40Z</time></trkpt><trkpt lat="36.15425751228759" lon="140.12061742929234"><ele>27.92972892895341</ele><time>2021-12-31T23:00:01Z</time></trkpt><trkpt lat="36.15408494914294" lon="140.120686531906"><ele>26.754446567967534</ele><time>2021-12-31T23:00:21Z</time></trkpt><trkpt lat="36.153916643314695" lon="140.12078349458648"><ele>26.862847135402262</ele><time>2021-12-31T23:00:40Z</time></trkpt><trkpt lat="36.15372886736985" lon="140.12080940396328"><ele>26.33151001855731</ele><time>2021-12-31T23:01:02Z</time></trkpt><trkpt lat="36.15354439703818" lon="140.1208150324563"><ele>26.440247178077698</ele><time>2021-12-31T23:01:20Z</time></trkpt><trkpt lat="36.1533626294214" lon="140.1208207363572"><ele>27.846279602497816</ele><time>2021-12-31T23:01:37Z</time></trkpt><trkpt lat="36.15317350669356" lon="140.12082962898265"><ele>26.542401334270835</ele><time>2021-12-31T23:01:59Z</time></trkpt><trkpt lat="36.15299594065271" lon="140.1207627790039"><ele>25.032831844873726</ele><time>2021-12-31T23:02:19Z</time></trkpt><trkpt lat="36.15284312396998" lon="140.12064049939974"><ele>23.858879832550883</ele><time>2021-12-31T23:02:37Z</time></trkpt><trkpt lat="36.15265976985439" lon="140.1205850245796"><ele>23.37138314731419</ele><time>2021-12-31T23:03:03Z</time></trkpt><trkpt lat="36.1525080877513" lon="140.1204569913818"><ele>23.998198434710503</ele><time>2021-12-31T23:03:26Z</time></trkpt><trkpt lat="36.15252636572507" lon="140.12023449152062"><ele>25.589684441685677</ele><time>2021-12-31T23:03:45Z</time></trkpt><trkpt lat="36.15261346529065" lon="140.12003340647698"><ele>24.248702194541693</ele><time>2021-12-31T23:04:06Z</time></trkpt><trkpt lat="36.15269981333578" lon="140.11982358054027"><ele>23.79348731227219</ele><time>2021-12-31T23:04:25Z</time></trkpt><trkpt lat="36.15276815874784" lon="140.11961641056385"><ele>24.321762076579034</ele><time>2021-12-31T23:04:43Z</time></trkpt><trkpt lat="36.1528166571429" lon="140.11940012557653"><ele>24.157547214068472</ele><time>2021-12-31T23:05:03Z</time></trkpt><trkpt lat="36.152829827505165" lon="140.11917239100174"><ele>24.47943673375994</ele><time>2021-12-31T23:05:22Z</time></trkpt><trkpt lat="36.15284190257758" lon="140.11894235545978"><ele>25.438722318038344</ele><time>2021-12-31T23:05:42Z</time></trkpt><trkpt lat="36.152687856801215" lon="140.11880534804737"><ele>26.199754435569048</ele><time>2021-12-31T23:06:02Z</time></trkpt><trkpt lat="36.152673635165634" lon="140.1185699938472"><ele>26.34248868841678</ele><time>2021-12-31T23:06:24Z</time></trkpt><trkpt lat="36.152521449687384" lon="140.11843671418353"><ele>27.911053975112736</ele><time>2021-12-31T23:07:54Z</time></trkpt></trkseg></trk></gpx>