<?xml version='1.0' encoding='UTF-8'?><gpx creator="YAMAP - https://yamap.com" xsi:schemaLocation="http://www.topografix.com/GPX/1/1 http://www.topografix.com/GPX/1/1/gpx.xsd" version="1.1" xmlns="http://www.topografix.com/GPX/1/1" xmlns:xsi="http://www.w3.org/2001/XMLSchema-instance"><metadata><bounds maxlat="42.824363952856984" maxlon="140.80460319403448" minlat="42.783745885866495" minlon="140.8024454336591"/></metadata><trk><name>羊蹄山（蝦夷富士）真狩ルート</name><number>1</number><trkseg><trkpt lat="42.81872285135996" lon="140.80331049264814"><ele>1455.1181514002383</ele><time>2022-02-11T01:03:08Z</time></trkpt><trkpt lat="42.81888911283189" lon="140.80320872384542"><ele>1461.401472297497</ele><time>2022-02-11T01:49:05Z</time></trkpt><trkpt lat="42.819060840788666" lon="140.80328802924817"><ele>1474.7661451390013</ele><time>2022-02-11T01:50:05Z</time></trkpt><trkpt lat="42.81920132411622" lon="140.80344877779328"><ele>1488.7053024442866</ele><time>2022-02-11T01:54:56Z</time></trkpt><trkpt lat="42.81932830587712" lon="140.80362322236041"><ele>1497.2879648581147</ele><time>2022-02-11T01:57:06Z</time></trkpt><trkpt lat="42.819498360765266" lon="140.80353840706846"><ele>1510.652642879635</ele><time>2022-02-11T01:59:46Z</time></trkpt><trkpt lat="42.81964820230402" lon="140.80368193120023"><ele>1515.5083281276748</ele><time>2022-02-11T02:01:03Z</time></trkpt><trkpt lat="42.819833619273076" lon="140.803696281747"><ele>1526.4952091304585</ele><time>2022-02-11T02:02:46Z</time></trkpt><trkpt lat="42.82001857295887" lon="140.8036861406853"><ele>1541.5051401350647</ele><time>2022-02-11T02:04:32Z</time></trkpt><trkpt lat="42.82013088104553" lon="140.8038840636954"><ele>1549.027240718715</ele><time>2022-02-11T02:05:45Z</time></trkpt><trkpt lat="42.820308214930485" lon="140.80382434314"><ele>1563.2731934320182</ele><time>2022-02-11T02:07:18Z</time></trkpt><trkpt lat="42.820442620055104" lon="140.80398817318112"><ele>1569.6582696028054</ele><time>2022-02-11T02:08:26Z</time></trkpt><trkpt lat="42.82063385862381" lon="140.80398877844638"><ele>1585.6030663084239</ele><time>2022-02-11T02:16:06Z</time></trkpt><trkpt lat="42.820811025104966" lon="140.80392776137975"><ele>1597.1483227061108</ele><time>2022-02-11T02:17:30Z</time></trkpt><trkpt lat="42.8209748516144" lon="140.80403305577002"><ele>1605.3026072354987</ele><time>2022-02-11T02:19:54Z</time></trkpt><trkpt lat="42.82114304618941" lon="140.80413371554258"><ele>1616.6289519239217</ele><time>2022-02-11T02:22:29Z</time></trkpt><trkpt lat="42.82128120473875" lon="140.804290661761"><ele>1633.1912888102233</ele><time>2022-02-11T02:24:41Z</time></trkpt><trkpt lat="42.821463634725774" lon="140.80429188322765"><ele>1641.71693681553</ele><time>2022-02-11T02:26:49Z</time></trkpt><trkpt lat="42.82164187574501" lon="140.80432633169156"><ele>1657.5885524563491</ele><time>2022-02-11T02:29:12Z</time></trkpt><trkpt lat="42.82182079045133" lon="140.80435348259084"><ele>1672.052031696774</ele><time>2022-02-11T02:31:04Z</time></trkpt><trkpt lat="42.821997133641034" lon="140.8043035381507"><ele>1676.3669023457915</ele><time>2022-02-11T02:32:54Z</time></trkpt><trkpt lat="42.82217339677132" lon="140.8042234297873"><ele>1700.4847144605592</ele><time>2022-02-11T02:34:49Z</time></trkpt><trkpt lat="42.82230249150489" lon="140.80404821570593"><ele>1713.3956119297072</ele><time>2022-02-11T02:37:09Z</time></trkpt><trkpt lat="42.82239745825114" lon="140.80383449427617"><ele>1720.4922462003306</ele><time>2022-02-11T02:38:03Z</time></trkpt><trkpt lat="42.82243199258629" lon="140.8037331190628"><ele>1725.04643237032</ele><time>2022-02-11T02:47:46Z</time></trkpt><trkpt lat="42.82261548466333" lon="140.8037580059662"><ele>1737.3144713724032</ele><time>2022-02-11T02:55:19Z</time></trkpt><trkpt lat="42.82279776788065" lon="140.80379336154192"><ele>1750.326803361997</ele><time>2022-02-11T02:57:54Z</time></trkpt><trkpt lat="42.82297451600033" lon="140.8038604456262"><ele>1768.0197969935834</ele><time>2022-02-11T02:59:27Z</time></trkpt><trkpt lat="42.82314846308166" lon="140.80394044113078"><ele>1776.3294072709978</ele><time>2022-02-11T03:01:15Z</time></trkpt><trkpt lat="42.823318746228004" lon="140.80402970449123"><ele>1789.428471531719</ele><time>2022-02-11T03:02:36Z</time></trkpt><trkpt lat="42.8234998580217" lon="140.8040048658003"><ele>1797.8286971515045</ele><time>2022-02-11T03:20:36Z</time></trkpt><trkpt lat="42.82366730356367" lon="140.80411861322995"><ele>1808.8254282372072</ele><time>2022-02-11T03:21:31Z</time></trkpt><trkpt lat="42.82383488715899" lon="140.80421524635372"><ele>1820.452373883687</ele><time>2022-02-11T03:22:45Z</time></trkpt><trkpt lat="42.8240110280124" lon="140.80427865840693"><ele>1832.1245540641248</ele><time>2022-02-11T03:23:48Z</time></trkpt><trkpt lat="42.824183034610336" lon="140.80436541786682"><ele>1841.1124048791826</ele><time>2022-02-11T03:24:22Z</time></trkpt><trkpt lat="42.824338258921706" lon="140.8045014861221"><ele>1845.6108612436801</ele><time>2022-02-11T03:24:51Z</time></trkpt><trkpt lat="42.824363952856984" lon="140.804454206938"><ele>1848.8883744329214</ele><time>2022-02-11T03:40:36Z</time></trkpt><trkpt lat="42.824363952856984" lon="140.804454206938"><ele>1848.8883744329214</ele><time>2022-02-11T03:40:36Z</time></trkpt><trkpt lat="42.82436351274602" lon="140.8044525699008"><ele>1848.9607760747895</ele><time>2022-02-11T03:40:37Z</time></trkpt><trkpt lat="42.824194874634294" lon="140.80436158554164"><ele>1843.6083294069394</ele><time>2022-02-11T03:43:38Z</time></trkpt><trkpt lat="42.82402843116193" lon="140.8042649298315"><ele>1835.1373928822577</ele><time>2022-02-11T03:44:29Z</time></trkpt><trkpt lat="42.82385068150315" lon="140.8042260333729"><ele>1823.4128869697452</ele><time>2022-02-11T03:46:06Z</time></trkpt><trkpt lat="42.82370025934793" lon="140.8040849780087"><ele>1810.0464815255255</ele><time>2022-02-11T03:47:23Z</time></trkpt><trkpt lat="42.82352595206962" lon="140.8040194013216"><ele>1799.2033097120002</ele><time>2022-02-11T03:48:27Z</time></trkpt><trkpt lat="42.82332437939206" lon="140.80405411862952"><ele>1787.410793343559</ele><time>2022-02-11T04:14:14Z</time></trkpt><trkpt lat="42.8231467857417" lon="140.80396619886844"><ele>1776.6410937132314</ele><time>2022-02-11T04:14:23Z</time></trkpt><trkpt lat="42.82294092642048" lon="140.80395863686513"><ele>1760.619446608238</ele><time>2022-02-11T04:14:45Z</time></trkpt><trkpt lat="42.82275439493037" lon="140.80391828091035"><ele>1747.9386455211788</ele><time>2022-02-11T04:14:55Z</time></trkpt><trkpt lat="42.82266976865572" lon="140.80414643252053"><ele>1739.0166174834594</ele><time>2022-02-11T04:15:03Z</time></trkpt><trkpt lat="42.82246254982204" lon="140.80412362536157"><ele>1718.8921591630206</ele><time>2022-02-11T04:15:11Z</time></trkpt><trkpt lat="42.822283163684965" lon="140.8040144793611"><ele>1707.6339539820328</ele><time>2022-02-11T04:15:19Z</time></trkpt><trkpt lat="42.82210771292328" lon="140.8041327790991"><ele>1696.3098487285897</ele><time>2022-02-11T04:15:29Z</time></trkpt><trkpt lat="42.82193930165154" lon="140.8040276321624"><ele>1682.3862089039758</ele><time>2022-02-11T04:15:51Z</time></trkpt><trkpt lat="42.82178403118521" lon="140.80383482617538"><ele>1669.097592082806</ele><time>2022-02-11T04:15:58Z</time></trkpt><trkpt lat="42.82158267140078" lon="140.80380958712786"><ele>1653.1927055073902</ele><time>2022-02-11T04:16:06Z</time></trkpt><trkpt lat="42.82150140159495" lon="140.80406797155644"><ele>1647.7321748193353</ele><time>2022-02-11T04:16:12Z</time></trkpt><trkpt lat="42.82131145071466" lon="140.80405560590654"><ele>1634.1824130434543</ele><time>2022-02-11T04:16:18Z</time></trkpt><trkpt lat="42.821223650677865" lon="140.80427820776538"><ele>1627.9212196553126</ele><time>2022-02-11T04:16:22Z</time></trkpt><trkpt lat="42.821043324085075" lon="140.8043030724983"><ele>1619.6216494413093</ele><time>2022-02-11T04:28:21Z</time></trkpt><trkpt lat="42.82089656302642" lon="140.80451789717628"><ele>1611.461952147074</ele><time>2022-02-11T04:28:41Z</time></trkpt><trkpt lat="42.82068181125509" lon="140.8045136498012"><ele>1594.8077547261491</ele><time>2022-02-11T04:28:46Z</time></trkpt><trkpt lat="42.820489817989035" lon="140.80460319403448"><ele>1582.7790925651789</ele><time>2022-02-11T04:28:51Z</time></trkpt><trkpt lat="42.82030161815415" lon="140.80458912740085"><ele>1568.4450749028474</ele><time>2022-02-11T04:28:56Z</time></trkpt><trkpt lat="42.820128171721805" lon="140.80450111625987"><ele>1558.637598220259</ele><time>2022-02-11T04:29:37Z</time></trkpt><trkpt lat="42.81993581075607" lon="140.80457188406385"><ele>1545.631259684451</ele><time>2022-02-11T04:29:43Z</time></trkpt><trkpt lat="42.81974687971917" lon="140.80458819046203"><ele>1532.9152840655297</ele><time>2022-02-11T04:33:41Z</time></trkpt><trkpt lat="42.81956858989403" lon="140.80453355438542"><ele>1520.2445755526423</ele><time>2022-02-11T04:33:45Z</time></trkpt><trkpt lat="42.81938259130611" lon="140.80440070608552"><ele>1507.8620221139863</ele><time>2022-02-11T04:33:49Z</time></trkpt><trkpt lat="42.81920320412996" lon="140.8042977787467"><ele>1496.471958369948</ele><time>2022-02-11T04:33:54Z</time></trkpt><trkpt lat="42.81904033158415" lon="140.80417433627892"><ele>1485.3007364226505</ele><time>2022-02-11T04:33:59Z</time></trkpt><trkpt lat="42.81886730231053" lon="140.80424590140913"><ele>1468.0818877285346</ele><time>2022-02-11T04:34:04Z</time></trkpt><trkpt lat="42.81867715140994" lon="140.8042192397299"><ele>1460.600094693713</ele><time>2022-02-11T04:35:13Z</time></trkpt><trkpt lat="42.81848922822518" lon="140.80424925692586"><ele>1446.7095792433247</ele><time>2022-02-11T04:35:17Z</time></trkpt><trkpt lat="42.81835394385265" lon="140.80407166881562"><ele>1436.9918715739623</ele><time>2022-02-11T04:35:20Z</time></trkpt><trkpt lat="42.81817394997268" lon="140.80402871224803"><ele>1426.0061209471896</ele><time>2022-02-11T04:35:23Z</time></trkpt><trkpt lat="42.818022799905755" lon="140.80419842044142"><ele>1417.817406325601</ele><time>2022-02-11T04:35:45Z</time></trkpt><trkpt lat="42.81783923191507" lon="140.80418880021276"><ele>1404.6732488684356</ele><time>2022-02-11T04:35:49Z</time></trkpt><trkpt lat="42.817605798122045" lon="140.80414775762492"><ele>1389.5973468497396</ele><time>2022-02-11T04:35:53Z</time></trkpt><trkpt lat="42.81742690692805" lon="140.80417492424615"><ele>1378.603256745264</ele><time>2022-02-11T04:36:36Z</time></trkpt><trkpt lat="42.81725705361167" lon="140.80438078381795"><ele>1362.642372588627</ele><time>2022-02-11T04:36:39Z</time></trkpt><trkpt lat="42.817123323035545" lon="140.8042142485677"><ele>1353.1850700974464</ele><time>2022-02-11T04:36:41Z</time></trkpt><trkpt lat="42.816942114075225" lon="140.80417295159944"><ele>1337.9435186460614</ele><time>2022-02-11T04:36:47Z</time></trkpt><trkpt lat="42.8167590651392" lon="140.80425452827225"><ele>1330.2039281567559</ele><time>2022-02-11T04:36:52Z</time></trkpt><trkpt lat="42.81665945713296" lon="140.80399131586395"><ele>1322.9681376302615</ele><time>2022-02-11T04:38:42Z</time></trkpt><trkpt lat="42.81647760290323" lon="140.80372983522642"><ele>1311.67321599368</ele><time>2022-02-11T04:38:45Z</time></trkpt><trkpt lat="42.81626842014129" lon="140.80359529811292"><ele>1303.2520647989586</ele><time>2022-02-11T04:39:07Z</time></trkpt><trkpt lat="42.816064765486914" lon="140.80350264389884"><ele>1290.6128698345274</ele><time>2022-02-11T04:39:11Z</time></trkpt><trkpt lat="42.81586190671804" lon="140.80350217560277"><ele>1280.7367293350399</ele><time>2022-02-11T04:39:14Z</time></trkpt><trkpt lat="42.81567331085908" lon="140.80347762603137"><ele>1265.3229818623513</ele><time>2022-02-11T04:39:18Z</time></trkpt><trkpt lat="42.8154482906455" lon="140.80356663603118"><ele>1247.0014372989535</ele><time>2022-02-11T04:40:53Z</time></trkpt><trkpt lat="42.815190750361516" lon="140.80352638645505"><ele>1230.3658205056563</ele><time>2022-02-11T04:41:05Z</time></trkpt><trkpt lat="42.815065811590976" lon="140.80334522481013"><ele>1223.6422778740525</ele><time>2022-02-11T04:41:39Z</time></trkpt><trkpt lat="42.814871115842216" lon="140.8031729381833"><ele>1206.5867805071175</ele><time>2022-02-11T04:41:42Z</time></trkpt><trkpt lat="42.8147387968084" lon="140.80300270817764"><ele>1202.3250581454486</ele><time>2022-02-11T04:41:44Z</time></trkpt><trkpt lat="42.81456322088769" lon="140.80289624019235"><ele>1193.5298955067992</ele><time>2022-02-11T04:43:37Z</time></trkpt><trkpt lat="42.81440224959963" lon="140.80276628101166"><ele>1186.6004227520898</ele><time>2022-02-11T04:44:54Z</time></trkpt><trkpt lat="42.81421562536109" lon="140.80270658770826"><ele>1175.6508303694427</ele><time>2022-02-11T04:44:57Z</time></trkpt><trkpt lat="42.8139765967123" lon="140.80272524774338"><ele>1161.7676383471116</ele><time>2022-02-11T04:45:00Z</time></trkpt><trkpt lat="42.81377904659339" lon="140.80269444601248"><ele>1147.8718432718888</ele><time>2022-02-11T04:45:03Z</time></trkpt><trkpt lat="42.81358437575242" lon="140.80266119851913"><ele>1138.8171491604298</ele><time>2022-02-11T04:46:09Z</time></trkpt><trkpt lat="42.813383435903845" lon="140.80259647157175"><ele>1128.1224070489407</ele><time>2022-02-11T04:46:26Z</time></trkpt><trkpt lat="42.81315683724739" lon="140.80258168987197"><ele>1115.851457956247</ele><time>2022-02-11T04:46:30Z</time></trkpt><trkpt lat="42.81296300866849" lon="140.8025977777136"><ele>1106.3161974186078</ele><time>2022-02-11T04:46:35Z</time></trkpt><trkpt lat="42.812750988637525" lon="140.8024454336591"><ele>1092.7674829186872</ele><time>2022-02-11T04:46:38Z</time></trkpt><trkpt lat="42.812553962678436" lon="140.8024990949319"><ele>1082.2425773125142</ele><time>2022-02-11T04:46:40Z</time></trkpt><trkpt lat="42.812369410912446" lon="140.80265286425913"><ele>1071.9831963498145</ele><time>2022-02-11T04:46:42Z</time></trkpt><trkpt lat="42.81217353151603" lon="140.80274968376136"><ele>1058.6466926028952</ele><time>2022-02-11T04:46:45Z</time></trkpt><trkpt lat="42.811998402510156" lon="140.80285039327893"><ele>1049.4261481342837</ele><time>2022-02-11T04:47:14Z</time></trkpt><trkpt lat="42.78377019338569" lon="140.80366102060378"><ele>290.9007225036621</ele><time>2022-02-11T05:25:14Z</time></trkpt><trkpt lat="42.78377019338569" lon="140.80366102060378"><ele>290.9007225036621</ele><time>2022-02-11T05:25:14Z</time></trkpt><trkpt lat="42.783745885866495" lon="140.80397676689626"><ele>289.1755027770996</ele><time>2022-02-11T05:25:36Z</time></trkpt><trkpt lat="42.78377010956666" lon="140.8036605176896"><ele>288.37038803100586</ele><time>2022-02-11T05:25:37Z</time></trkpt></trkseg></trk></gpx>