<?xml version='1.0' encoding='UTF-8'?><gpx creator="YAMAP - https://yamap.com" xsi:schemaLocation="http://www.topografix.com/GPX/1/1 http://www.topografix.com/GPX/1/1/gpx.xsd" version="1.1" xmlns="http://www.topografix.com/GPX/1/1" xmlns:xsi="http://www.w3.org/2001/XMLSchema-instance"><metadata><bounds maxlat="37.060958922205344" maxlon="139.38501496782183" minlat="37.02931254281759" minlon="139.34664831239067"/></metadata><trk><name>会津駒ヶ岳・中門岳</name><number>1</number><trkseg><trkpt lat="37.03023739628217" lon="139.3846903090732"><ele>988.6488914489746</ele><time>2022-09-10T00:12:10Z</time></trkpt><trkpt lat="37.030326747369976" lon="139.38490237122343"><ele>1008.9135398864746</ele><time>2022-09-10T00:12:11Z</time></trkpt><trkpt lat="37.03050645727862" lon="139.3849727984443"><ele>1027.3006249461323</ele><time>2022-09-10T00:12:39Z</time></trkpt><trkpt lat="37.03069520541776" lon="139.3848930837345"><ele>1031.894186688587</ele><time>2022-09-10T00:12:55Z</time></trkpt><trkpt lat="37.03086536054549" lon="139.38478413119608"><ele>1032.3950311122462</ele><time>2022-09-10T00:13:10Z</time></trkpt><trkpt lat="37.03101214785965" lon="139.38465157195927"><ele>1032.6981390677392</ele><time>2022-09-10T00:13:25Z</time></trkpt><trkpt lat="37.03119259933029" lon="139.38461234150046"><ele>1032.4976014699787</ele><time>2022-09-10T00:13:37Z</time></trkpt><trkpt lat="37.03137622131923" lon="139.3845910485527"><ele>1035.563272348605</ele><time>2022-09-10T00:13:56Z</time></trkpt><trkpt lat="37.03156824198134" lon="139.38455788953945"><ele>1037.4745315322652</ele><time>2022-09-10T00:14:10Z</time></trkpt><trkpt lat="37.03159671388932" lon="139.38433224807721"><ele>1039.182737174444</ele><time>2022-09-10T00:14:30Z</time></trkpt><trkpt lat="37.03141343688567" lon="139.38429797809823"><ele>1038.8577104415745</ele><time>2022-09-10T00:14:44Z</time></trkpt><trkpt lat="37.0315276375935" lon="139.3841196927336"><ele>1043.5082688396797</ele><time>2022-09-10T00:15:14Z</time></trkpt><trkpt lat="37.031718607424686" lon="139.38412878910788"><ele>1049.0023113535717</ele><time>2022-09-10T00:15:28Z</time></trkpt><trkpt lat="37.0319047275647" lon="139.3841869897431"><ele>1051.2945044860244</ele><time>2022-09-10T00:15:46Z</time></trkpt><trkpt lat="37.03202532151173" lon="139.3840184186656"><ele>1051.1453682743013</ele><time>2022-09-10T00:16:05Z</time></trkpt><trkpt lat="37.03188450356114" lon="139.38386718211336"><ele>1054.5219092275947</ele><time>2022-09-10T00:16:17Z</time></trkpt><trkpt lat="37.0316843866466" lon="139.38387937553088"><ele>1056.3012510687113</ele><time>2022-09-10T00:16:35Z</time></trkpt><trkpt lat="37.03150106245422" lon="139.38389199971795"><ele>1059.206257008016</ele><time>2022-09-10T00:16:51Z</time></trkpt><trkpt lat="37.03130829188838" lon="139.3838763681941"><ele>1062.5303896907717</ele><time>2022-09-10T00:17:07Z</time></trkpt><trkpt lat="37.03113188423643" lon="139.38393872840533"><ele>1064.312770234421</ele><time>2022-09-10T00:17:22Z</time></trkpt><trkpt lat="37.030967595863835" lon="139.38406087550354"><ele>1064.294033382088</ele><time>2022-09-10T00:17:36Z</time></trkpt><trkpt lat="37.03082746909392" lon="139.38422646983562"><ele>1059.6653350517154</ele><time>2022-09-10T00:17:51Z</time></trkpt><trkpt lat="37.03064044934167" lon="139.3842696061485"><ele>1061.050487242639</ele><time>2022-09-10T00:18:05Z</time></trkpt><trkpt lat="37.03046508246595" lon="139.38420374989926"><ele>1064.3059950564057</ele><time>2022-09-10T00:18:21Z</time></trkpt><trkpt lat="37.030285013689436" lon="139.38413409726823"><ele>1069.2083056652918</ele><time>2022-09-10T00:18:38Z</time></trkpt><trkpt lat="37.03010401475798" lon="139.38414024141107"><ele>1070.364887215197</ele><time>2022-09-10T00:18:51Z</time></trkpt><trkpt lat="37.029917364460594" lon="139.38412304457867"><ele>1071.4517330955714</ele><time>2022-09-10T00:19:05Z</time></trkpt><trkpt lat="37.02973258920255" lon="139.38412668268256"><ele>1072.8838700056076</ele><time>2022-09-10T00:19:20Z</time></trkpt><trkpt lat="37.0295898686939" lon="139.3842667664028"><ele>1072.4010932901874</ele><time>2022-09-10T00:19:32Z</time></trkpt><trkpt lat="37.02941238760798" lon="139.38431556864978"><ele>1071.1763496547937</ele><time>2022-09-10T00:19:51Z</time></trkpt><trkpt lat="37.02936149671224" lon="139.3840982722441"><ele>1072.1641636500135</ele><time>2022-09-10T00:20:07Z</time></trkpt><trkpt lat="37.02944254946898" lon="139.38389450739518"><ele>1075.4537340123206</ele><time>2022-09-10T00:20:22Z</time></trkpt><trkpt lat="37.02952952837467" lon="139.3836952658246"><ele>1080.1512328442186</ele><time>2022-09-10T00:20:39Z</time></trkpt><trkpt lat="37.02959797540583" lon="139.3834849002563"><ele>1086.3010196601972</ele><time>2022-09-10T00:20:56Z</time></trkpt><trkpt lat="37.02965117483736" lon="139.3832479268612"><ele>1087.8955108607188</ele><time>2022-09-10T00:21:11Z</time></trkpt><trkpt lat="37.02971877219563" lon="139.3830207771467"><ele>1092.253993684426</ele><time>2022-09-10T00:21:29Z</time></trkpt><trkpt lat="37.02968283718894" lon="139.3827964750821"><ele>1093.2689361367375</ele><time>2022-09-10T00:21:47Z</time></trkpt><trkpt lat="37.02963902929345" lon="139.3825680686944"><ele>1094.648178701289</ele><time>2022-09-10T00:22:01Z</time></trkpt><trkpt lat="37.02980283839902" lon="139.38267412063374"><ele>1096.2506379671395</ele><time>2022-09-10T00:22:50Z</time></trkpt><trkpt lat="37.02982360138803" lon="139.38290148934462"><ele>1097.9215999431908</ele><time>2022-09-10T00:23:03Z</time></trkpt><trkpt lat="37.02982126566042" lon="139.38314197638687"><ele>1098.0731556359679</ele><time>2022-09-10T00:23:18Z</time></trkpt><trkpt lat="37.02980974059604" lon="139.38337569070504"><ele>1098.9735709875822</ele><time>2022-09-10T00:23:33Z</time></trkpt><trkpt lat="37.02980899016054" lon="139.38360350430798"><ele>1098.6806185450405</ele><time>2022-09-10T00:23:46Z</time></trkpt><trkpt lat="37.029956254671646" lon="139.38347361494303"><ele>1109.1552264774218</ele><time>2022-09-10T00:24:29Z</time></trkpt><trkpt lat="37.03002196937582" lon="139.38325919678815"><ele>1116.0146618001163</ele><time>2022-09-10T00:24:57Z</time></trkpt><trkpt lat="37.03015905712489" lon="139.3830829198306"><ele>1127.646244917065</ele><time>2022-09-10T00:25:54Z</time></trkpt><trkpt lat="37.03018626733239" lon="139.3828546756871"><ele>1134.9906929666176</ele><time>2022-09-10T00:26:25Z</time></trkpt><trkpt lat="37.03031587766425" lon="139.38302627236095"><ele>1146.923396507278</ele><time>2022-09-10T00:27:36Z</time></trkpt><trkpt lat="37.03045780188414" lon="139.38288277768288"><ele>1150.6293917577714</ele><time>2022-09-10T00:28:00Z</time></trkpt><trkpt lat="37.030489016726634" lon="139.38265699547316"><ele>1157.3357256641611</ele><time>2022-09-10T00:28:34Z</time></trkpt><trkpt lat="37.03053967826109" lon="139.3824361463164"><ele>1166.8819203451276</ele><time>2022-09-10T00:29:14Z</time></trkpt><trkpt lat="37.030636849334705" lon="139.3822465039641"><ele>1175.1587907345966</ele><time>2022-09-10T00:30:02Z</time></trkpt><trkpt lat="37.03071286408384" lon="139.3820392676741"><ele>1187.4953695330769</ele><time>2022-09-10T00:31:03Z</time></trkpt><trkpt lat="37.03078692107371" lon="139.3818316601836"><ele>1194.7478546630591</ele><time>2022-09-10T00:31:59Z</time></trkpt><trkpt lat="37.030819542057124" lon="139.3816092853454"><ele>1202.0282621858642</ele><time>2022-09-10T00:32:31Z</time></trkpt><trkpt lat="37.0308765336785" lon="139.38136454626698"><ele>1215.445673792623</ele><time>2022-09-10T00:33:23Z</time></trkpt><trkpt lat="37.03090342117558" lon="139.38113552019544"><ele>1223.6686735711992</ele><time>2022-09-10T00:34:24Z</time></trkpt><trkpt lat="37.03086168092233" lon="139.38090367320433"><ele>1228.7611485626549</ele><time>2022-09-10T00:35:08Z</time></trkpt><trkpt lat="37.03086394078241" lon="139.38067491263374"><ele>1244.4474167348817</ele><time>2022-09-10T00:35:51Z</time></trkpt><trkpt lat="37.03082587205302" lon="139.38045052967598"><ele>1245.970941806212</ele><time>2022-09-10T00:36:19Z</time></trkpt><trkpt lat="37.03096305415202" lon="139.38026415800454"><ele>1261.3149780146778</ele><time>2022-09-10T00:37:09Z</time></trkpt><trkpt lat="37.03114313002104" lon="139.3802548242406"><ele>1272.3052446125075</ele><time>2022-09-10T00:39:13Z</time></trkpt><trkpt lat="37.03107875997419" lon="139.38001624180183"><ele>1275.8903903253376</ele><time>2022-09-10T00:39:54Z</time></trkpt><trkpt lat="37.03116072567172" lon="139.37980196512436"><ele>1286.1396354557946</ele><time>2022-09-10T00:40:41Z</time></trkpt><trkpt lat="37.031106425922154" lon="139.37958614879372"><ele>1290.0987892737612</ele><time>2022-09-10T00:41:17Z</time></trkpt><trkpt lat="37.031071458994106" lon="139.37934801626432"><ele>1301.9742128839716</ele><time>2022-09-10T00:42:05Z</time></trkpt><trkpt lat="37.03091707491101" lon="139.37920651155693"><ele>1305.577150103636</ele><time>2022-09-10T00:42:46Z</time></trkpt><trkpt lat="37.031087242900824" lon="139.37912623867174"><ele>1310.746948780492</ele><time>2022-09-10T00:43:25Z</time></trkpt><trkpt lat="37.03100010101024" lon="139.37892536373323"><ele>1322.1650893054903</ele><time>2022-09-10T00:44:16Z</time></trkpt><trkpt lat="37.031077129071654" lon="139.37871364302606"><ele>1328.9592685252428</ele><time>2022-09-10T00:45:14Z</time></trkpt><trkpt lat="37.03097446322294" lon="139.37852153421696"><ele>1341.5864850655198</ele><time>2022-09-10T00:46:24Z</time></trkpt><trkpt lat="37.03085098936032" lon="139.37835596240964"><ele>1343.377247386612</ele><time>2022-09-10T00:46:52Z</time></trkpt><trkpt lat="37.030992572000315" lon="139.37820672034752"><ele>1349.683008549735</ele><time>2022-09-10T00:47:20Z</time></trkpt><trkpt lat="37.03110188238815" lon="139.37802676511163"><ele>1354.6854066159576</ele><time>2022-09-10T00:50:16Z</time></trkpt><trkpt lat="37.0312586944771" lon="139.37787881223258"><ele>1360.772070037201</ele><time>2022-09-10T00:50:48Z</time></trkpt><trkpt lat="37.0314238894853" lon="139.37778400283787"><ele>1366.564070300199</ele><time>2022-09-10T00:51:18Z</time></trkpt><trkpt lat="37.03152532872356" lon="139.37759159277894"><ele>1374.0509783653542</ele><time>2022-09-10T00:51:46Z</time></trkpt><trkpt lat="37.03156699503798" lon="139.37736977424396"><ele>1376.949233416468</ele><time>2022-09-10T00:52:15Z</time></trkpt><trkpt lat="37.03172989145993" lon="139.37747834654937"><ele>1382.8260311400518</ele><time>2022-09-10T00:52:57Z</time></trkpt><trkpt lat="37.03189169131083" lon="139.37737821441388"><ele>1390.8568449225277</ele><time>2022-09-10T00:53:52Z</time></trkpt><trkpt lat="37.03196617242922" lon="139.37717044459438"><ele>1399.2685575969517</ele><time>2022-09-10T00:54:30Z</time></trkpt><trkpt lat="37.03202922576517" lon="139.37695689006415"><ele>1404.6807845681906</ele><time>2022-09-10T00:54:53Z</time></trkpt><trkpt lat="37.03209277295494" lon="139.37674492265822"><ele>1406.9935841299593</ele><time>2022-09-10T00:55:29Z</time></trkpt><trkpt lat="37.03223890506851" lon="139.37687660172045"><ele>1415.390988137573</ele><time>2022-09-10T00:56:28Z</time></trkpt><trkpt lat="37.03235387703644" lon="139.3766926134001"><ele>1426.1001191399992</ele><time>2022-09-10T00:57:12Z</time></trkpt><trkpt lat="37.03252329209" lon="139.37661444208385"><ele>1436.6111025772989</ele><time>2022-09-10T00:58:22Z</time></trkpt><trkpt lat="37.032645771618945" lon="139.37643832564936"><ele>1439.6224515978247</ele><time>2022-09-10T00:58:57Z</time></trkpt><trkpt lat="37.03260741010384" lon="139.3762082155734"><ele>1447.1223220163956</ele><time>2022-09-10T00:59:24Z</time></trkpt><trkpt lat="37.03277559676752" lon="139.37609673463166"><ele>1458.076248889789</ele><time>2022-09-10T01:00:44Z</time></trkpt><trkpt lat="37.03294418652177" lon="139.37599654531456"><ele>1472.0521747963503</ele><time>2022-09-10T01:02:13Z</time></trkpt><trkpt lat="37.03310500131244" lon="139.37614346651273"><ele>1474.0887879105285</ele><time>2022-09-10T01:02:44Z</time></trkpt><trkpt lat="37.033076207385676" lon="139.37591470867363"><ele>1480.413539197296</ele><time>2022-09-10T01:03:10Z</time></trkpt><trkpt lat="37.03305702658703" lon="139.37569041021476"><ele>1484.7456834614277</ele><time>2022-09-10T01:03:42Z</time></trkpt><trkpt lat="37.03303817133905" lon="139.3754544546658"><ele>1490.08172320202</ele><time>2022-09-10T01:04:20Z</time></trkpt><trkpt lat="37.03306706245953" lon="139.37522408086153"><ele>1497.0070859752595</ele><time>2022-09-10T01:05:07Z</time></trkpt><trkpt lat="37.03324475244124" lon="139.37515822452013"><ele>1505.4337244853377</ele><time>2022-09-10T01:06:11Z</time></trkpt><trkpt lat="37.03321232407917" lon="139.37493156027966"><ele>1507.358354140073</ele><time>2022-09-10T01:06:37Z</time></trkpt><trkpt lat="37.033325236268325" lon="139.37474293636404"><ele>1515.0132906427607</ele><time>2022-09-10T01:07:19Z</time></trkpt><trkpt lat="37.03339410869375" lon="139.37453464712507"><ele>1522.9073634967208</ele><time>2022-09-10T01:07:52Z</time></trkpt><trkpt lat="37.03353903144099" lon="139.3743872751948"><ele>1526.8582388889045</ele><time>2022-09-10T01:08:19Z</time></trkpt><trkpt lat="37.03359934221678" lon="139.37416109758746"><ele>1531.8573293546215</ele><time>2022-09-10T01:08:47Z</time></trkpt><trkpt lat="37.03364894650104" lon="139.3739322764907"><ele>1537.4299508957192</ele><time>2022-09-10T01:09:16Z</time></trkpt><trkpt lat="37.03366968966682" lon="139.37368977164274"><ele>1539.7991341194138</ele><time>2022-09-10T01:09:36Z</time></trkpt><trkpt lat="37.03362787574361" lon="139.37347067171834"><ele>1545.1401781849563</ele><time>2022-09-10T01:10:06Z</time></trkpt><trkpt lat="37.033684111451706" lon="139.37324926547998"><ele>1551.0253358883783</ele><time>2022-09-10T01:10:38Z</time></trkpt><trkpt lat="37.03382479651321" lon="139.373401119505"><ele>1556.232588339597</ele><time>2022-09-10T01:11:27Z</time></trkpt><trkpt lat="37.03397652699213" lon="139.37326811442318"><ele>1563.4400059822947</ele><time>2022-09-10T01:12:13Z</time></trkpt><trkpt lat="37.03413133344701" lon="139.37313374447552"><ele>1564.9891266413033</ele><time>2022-09-10T01:12:40Z</time></trkpt><trkpt lat="37.034221173082805" lon="139.37291834684763"><ele>1569.9997590305284</ele><time>2022-09-10T01:13:06Z</time></trkpt><trkpt lat="37.03440532096018" lon="139.3729288748212"><ele>1573.6976077975705</ele><time>2022-09-10T01:13:35Z</time></trkpt><trkpt lat="37.03442784944879" lon="139.37270393702656"><ele>1576.447704270482</ele><time>2022-09-10T01:14:05Z</time></trkpt><trkpt lat="37.034615693908016" lon="139.37267266648095"><ele>1586.1215816596523</ele><time>2022-09-10T01:14:40Z</time></trkpt><trkpt lat="37.03480821473716" lon="139.37267337257222"><ele>1589.4485486811027</ele><time>2022-09-10T01:15:17Z</time></trkpt><trkpt lat="37.034967056362774" lon="139.37256206049128"><ele>1593.7118129404262</ele><time>2022-09-10T01:15:45Z</time></trkpt><trkpt lat="37.03509240136061" lon="139.37238963682302"><ele>1597.6163251111284</ele><time>2022-09-10T01:16:10Z</time></trkpt><trkpt lat="37.035279335471174" lon="139.37236922485113"><ele>1604.1833483232185</ele><time>2022-09-10T01:16:43Z</time></trkpt><trkpt lat="37.0353412899024" lon="139.3721548210554"><ele>1606.183189672418</ele><time>2022-09-10T01:17:07Z</time></trkpt><trkpt lat="37.03549657454552" lon="139.37226997965033"><ele>1613.7466810792685</ele><time>2022-09-10T01:17:55Z</time></trkpt><trkpt lat="37.0356442620085" lon="139.37214113990842"><ele>1620.4902605945244</ele><time>2022-09-10T01:18:37Z</time></trkpt><trkpt lat="37.03570202097657" lon="139.371919354784"><ele>1624.8322416814044</ele><time>2022-09-10T01:19:02Z</time></trkpt><trkpt lat="37.03582537498997" lon="139.37172965430142"><ele>1631.801604675129</ele><time>2022-09-10T01:19:46Z</time></trkpt><trkpt lat="37.03600253944914" lon="139.37167852424614"><ele>1636.2474982775748</ele><time>2022-09-10T01:20:16Z</time></trkpt><trkpt lat="37.03618251605853" lon="139.37166346825572"><ele>1637.501954886131</ele><time>2022-09-10T01:20:40Z</time></trkpt><trkpt lat="37.03635682770729" lon="139.37172248569115"><ele>1644.43900593929</ele><time>2022-09-10T01:24:34Z</time></trkpt><trkpt lat="37.03652701663436" lon="139.3718104648161"><ele>1647.3352227266878</ele><time>2022-09-10T01:25:06Z</time></trkpt><trkpt lat="37.036716556426136" lon="139.37182322822707"><ele>1648.6327491970733</ele><time>2022-09-10T01:25:32Z</time></trkpt><trkpt lat="37.03688714218865" lon="139.3717359877466"><ele>1656.254456911236</ele><time>2022-09-10T01:26:11Z</time></trkpt><trkpt lat="37.03698376292336" lon="139.37154601239342"><ele>1660.042949740775</ele><time>2022-09-10T01:26:39Z</time></trkpt><trkpt lat="37.03712079834955" lon="139.37139232428896"><ele>1663.6986677581444</ele><time>2022-09-10T01:27:09Z</time></trkpt><trkpt lat="37.03726082351287" lon="139.37122469203692"><ele>1669.681795494631</ele><time>2022-09-10T01:27:34Z</time></trkpt><trkpt lat="37.03724582432481" lon="139.37099577943604"><ele>1670.3198506142944</ele><time>2022-09-10T01:27:53Z</time></trkpt><trkpt lat="37.03737857961547" lon="139.3708401311091"><ele>1676.7362659052014</ele><time>2022-09-10T01:28:24Z</time></trkpt><trkpt lat="37.03751581368396" lon="139.3706937594908"><ele>1677.9902808833867</ele><time>2022-09-10T01:28:40Z</time></trkpt><trkpt lat="37.03756442565581" lon="139.37047369643312"><ele>1679.5188720421866</ele><time>2022-09-10T01:29:00Z</time></trkpt><trkpt lat="37.0375856870195" lon="139.3702471803857"><ele>1682.9668971002102</ele><time>2022-09-10T01:29:29Z</time></trkpt><trkpt lat="37.03751020599563" lon="139.37004272872454"><ele>1684.0300680259243</ele><time>2022-09-10T01:29:53Z</time></trkpt><trkpt lat="37.0373437356468" lon="139.36991695364142"><ele>1688.5395684633404</ele><time>2022-09-10T01:30:20Z</time></trkpt><trkpt lat="37.03720428999821" lon="139.36977417258223"><ele>1691.8438536310568</ele><time>2022-09-10T01:30:47Z</time></trkpt><trkpt lat="37.037313754515715" lon="139.36959187041236"><ele>1700.9799728412181</ele><time>2022-09-10T01:31:28Z</time></trkpt><trkpt lat="37.037393386033685" lon="139.3693887095323"><ele>1703.116260536015</ele><time>2022-09-10T01:31:52Z</time></trkpt><trkpt lat="37.03745787048279" lon="139.36917215761883"><ele>1706.8774279793724</ele><time>2022-09-10T01:32:19Z</time></trkpt><trkpt lat="37.03750476231114" lon="139.36895444611787"><ele>1706.2897698516026</ele><time>2022-09-10T01:32:42Z</time></trkpt><trkpt lat="37.037514368928285" lon="139.36872656864438"><ele>1709.2482306621969</ele><time>2022-09-10T01:33:06Z</time></trkpt><trkpt lat="37.037477744805194" lon="139.3685010757754"><ele>1712.1670403005555</ele><time>2022-09-10T01:33:28Z</time></trkpt><trkpt lat="37.037515210189085" lon="139.36827369057139"><ele>1711.9748903457075</ele><time>2022-09-10T01:34:07Z</time></trkpt><trkpt lat="37.03750848850385" lon="139.36804722478786"><ele>1713.6275260541588</ele><time>2022-09-10T01:34:29Z</time></trkpt><trkpt lat="37.03754200627156" lon="139.36782425714426"><ele>1716.695144534111</ele><time>2022-09-10T01:34:49Z</time></trkpt><trkpt lat="37.037529803434595" lon="139.3675894805074"><ele>1720.808057224378</ele><time>2022-09-10T01:35:16Z</time></trkpt><trkpt lat="37.03760775282056" lon="139.36738486522017"><ele>1726.7579751200974</ele><time>2022-09-10T01:35:48Z</time></trkpt><trkpt lat="37.037802814428844" lon="139.36738186560996"><ele>1733.3826518394053</ele><time>2022-09-10T01:36:34Z</time></trkpt><trkpt lat="37.0378284857403" lon="139.367158982742"><ele>1741.2045622467995</ele><time>2022-09-10T01:37:10Z</time></trkpt><trkpt lat="37.037928803796646" lon="139.36697124161876"><ele>1746.2961122412235</ele><time>2022-09-10T01:37:39Z</time></trkpt><trkpt lat="37.03791648104007" lon="139.36674578196468"><ele>1753.6153761046007</ele><time>2022-09-10T01:38:12Z</time></trkpt><trkpt lat="37.03799120141074" lon="139.36654070604953"><ele>1757.8600659566</ele><time>2022-09-10T01:38:46Z</time></trkpt><trkpt lat="37.03805493105383" lon="139.36631934763926"><ele>1767.4588541137055</ele><time>2022-09-10T01:39:28Z</time></trkpt><trkpt lat="37.03799271496966" lon="139.36610500077433"><ele>1774.0636215778068</ele><time>2022-09-10T01:40:07Z</time></trkpt><trkpt lat="37.03788269612509" lon="139.36592321735117"><ele>1780.1109399972484</ele><time>2022-09-10T01:40:46Z</time></trkpt><trkpt lat="37.03793400385579" lon="139.3657074322548"><ele>1786.4668010910973</ele><time>2022-09-10T01:41:23Z</time></trkpt><trkpt lat="37.038050487314756" lon="139.36552299466712"><ele>1792.0268916096538</ele><time>2022-09-10T01:42:01Z</time></trkpt><trkpt lat="37.03813131831199" lon="139.36531752849285"><ele>1798.7408574484289</ele><time>2022-09-10T01:42:32Z</time></trkpt><trkpt lat="37.038078163313266" lon="139.36508643309344"><ele>1801.9157903427258</ele><time>2022-09-10T01:42:55Z</time></trkpt><trkpt lat="37.038064640095754" lon="139.36485321628697"><ele>1805.487590440549</ele><time>2022-09-10T01:43:18Z</time></trkpt><trkpt lat="37.03816181158777" lon="139.36464579665014"><ele>1806.4621940134093</ele><time>2022-09-10T01:43:37Z</time></trkpt><trkpt lat="37.03816647876365" lon="139.36441975184295"><ele>1813.2879859618843</ele><time>2022-09-10T01:44:06Z</time></trkpt><trkpt lat="37.03811809918345" lon="139.36419792800316"><ele>1817.8551636142656</ele><time>2022-09-10T01:44:28Z</time></trkpt><trkpt lat="37.038187971599385" lon="139.36398092914743"><ele>1819.8155055828393</ele><time>2022-09-10T01:44:52Z</time></trkpt><trkpt lat="37.03825260716165" lon="139.3637606099201"><ele>1822.681602647528</ele><time>2022-09-10T01:45:20Z</time></trkpt><trkpt lat="37.03824282489859" lon="139.36352778954245"><ele>1829.3573957718909</ele><time>2022-09-10T01:45:47Z</time></trkpt><trkpt lat="37.038251667390675" lon="139.3632970397731"><ele>1833.7057991325855</ele><time>2022-09-10T01:46:13Z</time></trkpt><trkpt lat="37.038215038659764" lon="139.36307347377218"><ele>1837.9062951188534</ele><time>2022-09-10T01:46:45Z</time></trkpt><trkpt lat="37.03822695421032" lon="139.36284746427143"><ele>1840.26516470965</ele><time>2022-09-10T01:47:12Z</time></trkpt><trkpt lat="37.03827502183398" lon="139.36262715690398"><ele>1846.1215237891302</ele><time>2022-09-10T01:47:36Z</time></trkpt><trkpt lat="37.038341560866215" lon="139.3624067244025"><ele>1849.5654779104516</ele><time>2022-09-10T01:48:05Z</time></trkpt><trkpt lat="37.038419606050326" lon="139.36219878206487"><ele>1853.0148415192962</ele><time>2022-09-10T01:48:26Z</time></trkpt><trkpt lat="37.038507175248" lon="139.36199516520404"><ele>1855.572508619167</ele><time>2022-09-10T01:48:51Z</time></trkpt><trkpt lat="37.03854157529636" lon="139.36176242743252"><ele>1861.417723622173</ele><time>2022-09-10T01:49:20Z</time></trkpt><trkpt lat="37.03867166172251" lon="139.36160321008416"><ele>1865.2232231171802</ele><time>2022-09-10T01:49:53Z</time></trkpt><trkpt lat="37.03871456696563" lon="139.36138079386066"><ele>1868.0292252106592</ele><time>2022-09-10T01:50:13Z</time></trkpt><trkpt lat="37.03875508266422" lon="139.36115052410528"><ele>1876.707650042139</ele><time>2022-09-10T01:50:57Z</time></trkpt><trkpt lat="37.03882156417701" lon="139.3609376014793"><ele>1882.7538388511166</ele><time>2022-09-10T01:51:30Z</time></trkpt><trkpt lat="37.038821234893526" lon="139.3607086199774"><ele>1887.9785978198051</ele><time>2022-09-10T01:52:13Z</time></trkpt><trkpt lat="37.03886008627918" lon="139.36047532914031"><ele>1896.954043470323</ele><time>2022-09-10T01:53:09Z</time></trkpt><trkpt lat="37.038956063188735" lon="139.36028227055797"><ele>1901.6331038558856</ele><time>2022-09-10T01:55:59Z</time></trkpt><trkpt lat="37.03900424669625" lon="139.36006509448785"><ele>1904.2068829331547</ele><time>2022-09-10T01:56:28Z</time></trkpt><trkpt lat="37.03907862895871" lon="139.35985662468963"><ele>1909.632021321915</ele><time>2022-09-10T01:56:54Z</time></trkpt><trkpt lat="37.03916362464077" lon="139.35964742817023"><ele>1911.8360815644264</ele><time>2022-09-10T01:57:17Z</time></trkpt><trkpt lat="37.03912353764181" lon="139.35941629946245"><ele>1916.5484957685694</ele><time>2022-09-10T01:57:43Z</time></trkpt><trkpt lat="37.039203157153835" lon="139.35921466894"><ele>1920.391346713528</ele><time>2022-09-10T01:58:11Z</time></trkpt><trkpt lat="37.039274681039274" lon="139.35900378563747"><ele>1921.5550579288974</ele><time>2022-09-10T01:58:31Z</time></trkpt><trkpt lat="37.03932420804517" lon="139.3587869380331"><ele>1929.9711817288771</ele><time>2022-09-10T01:59:16Z</time></trkpt><trkpt lat="37.03941812185213" lon="139.35859420667265"><ele>1933.5568351373076</ele><time>2022-09-10T01:59:50Z</time></trkpt><trkpt lat="37.039602108786006" lon="139.35863621154255"><ele>1942.2024340312928</ele><time>2022-09-10T02:00:14Z</time></trkpt><trkpt lat="37.039631227490034" lon="139.35840618617567"><ele>1944.7117350855842</ele><time>2022-09-10T02:00:40Z</time></trkpt><trkpt lat="37.039756720353985" lon="139.35822809362793"><ele>1950.3887585550547</ele><time>2022-09-10T02:01:22Z</time></trkpt><trkpt lat="37.03972003582706" lon="139.35799847499288"><ele>1955.6129282759503</ele><time>2022-09-10T02:01:45Z</time></trkpt><trkpt lat="37.039903806043036" lon="139.35798894795107"><ele>1960.5083808656782</ele><time>2022-09-10T02:02:24Z</time></trkpt><trkpt lat="37.040073966017175" lon="139.35789744113882"><ele>1963.7289474550635</ele><time>2022-09-10T02:02:50Z</time></trkpt><trkpt lat="37.04010728113837" lon="139.3576749627791"><ele>1966.9560233969241</ele><time>2022-09-10T02:03:16Z</time></trkpt><trkpt lat="37.040186423006475" lon="139.35747182320293"><ele>1969.1793422158808</ele><time>2022-09-10T02:03:39Z</time></trkpt><trkpt lat="37.04023524742134" lon="139.35725411551715"><ele>1970.7377254096791</ele><time>2022-09-10T02:03:57Z</time></trkpt><trkpt lat="37.04033803941288" lon="139.3570662697872"><ele>1974.043941183947</ele><time>2022-09-10T02:04:21Z</time></trkpt><trkpt lat="37.04036279577775" lon="139.35683564853284"><ele>1975.6258949209005</ele><time>2022-09-10T02:04:49Z</time></trkpt><trkpt lat="37.04045242270152" lon="139.35663321297562"><ele>1976.676013152115</ele><time>2022-09-10T02:05:11Z</time></trkpt><trkpt lat="37.04051550660205" lon="139.35640877259362"><ele>1979.9963156785816</ele><time>2022-09-10T02:05:32Z</time></trkpt><trkpt lat="37.04051561233078" lon="139.35618292727125"><ele>1981.8894471637905</ele><time>2022-09-10T02:05:51Z</time></trkpt><trkpt lat="37.04044268505721" lon="139.35597623426622"><ele>1984.1227953992784</ele><time>2022-09-10T02:06:12Z</time></trkpt><trkpt lat="37.04040568009378" lon="139.3557505285694"><ele>1987.182004290633</ele><time>2022-09-10T02:06:51Z</time></trkpt><trkpt lat="37.040468861008236" lon="139.35553411531046"><ele>1987.6861447133124</ele><time>2022-09-10T02:07:10Z</time></trkpt><trkpt lat="37.0406392120801" lon="139.3554330284981"><ele>1990.818615759723</ele><time>2022-09-10T02:07:32Z</time></trkpt><trkpt lat="37.040805632693996" lon="139.35533170636597"><ele>1993.8741805842146</ele><time>2022-09-10T02:07:53Z</time></trkpt><trkpt lat="37.0409685016576" lon="139.35523181712608"><ele>1996.064499198459</ele><time>2022-09-10T02:08:27Z</time></trkpt><trkpt lat="37.04114034365427" lon="139.35514635839093"><ele>1998.7075792672113</ele><time>2022-09-10T02:08:47Z</time></trkpt><trkpt lat="37.04131159985608" lon="139.35506904015108"><ele>2004.376032261178</ele><time>2022-09-10T02:09:09Z</time></trkpt><trkpt lat="37.04141796116995" lon="139.35488199212006"><ele>2010.0155440950766</ele><time>2022-09-10T02:09:40Z</time></trkpt><trkpt lat="37.04150775802884" lon="139.3546754808684"><ele>2014.0254893554375</ele><time>2022-09-10T02:10:04Z</time></trkpt><trkpt lat="37.04160956613555" lon="139.35448383067538"><ele>2014.5624513756484</ele><time>2022-09-10T02:10:31Z</time></trkpt><trkpt lat="37.04173684800781" lon="139.35432412185506"><ele>2013.7753190128133</ele><time>2022-09-10T02:10:50Z</time></trkpt><trkpt lat="37.04188163331527" lon="139.35417702133634"><ele>2013.3690584581345</ele><time>2022-09-10T02:11:14Z</time></trkpt><trkpt lat="37.042010507680466" lon="139.3540138289042"><ele>2014.8172666756436</ele><time>2022-09-10T02:12:13Z</time></trkpt><trkpt lat="37.042138396569335" lon="139.35384659255342"><ele>2017.5976460361853</ele><time>2022-09-10T02:12:34Z</time></trkpt><trkpt lat="37.04230033673999" lon="139.35374210272144"><ele>2021.8119241055101</ele><time>2022-09-10T02:12:54Z</time></trkpt><trkpt lat="37.042442737551355" lon="139.3536035916906"><ele>2026.3647392084822</ele><time>2022-09-10T02:13:14Z</time></trkpt><trkpt lat="37.042623533551364" lon="139.35358911315814"><ele>2031.3475114665926</ele><time>2022-09-10T02:13:27Z</time></trkpt><trkpt lat="37.04279637423283" lon="139.35351686865727"><ele>2036.352708477527</ele><time>2022-09-10T02:13:48Z</time></trkpt><trkpt lat="37.04295556447251" lon="139.35341130488516"><ele>2039.8105939459056</ele><time>2022-09-10T02:14:15Z</time></trkpt><trkpt lat="37.043099532419255" lon="139.35327145104262"><ele>2044.8434306858107</ele><time>2022-09-10T02:14:45Z</time></trkpt><trkpt lat="37.04322986864646" lon="139.3531088409645"><ele>2048.055096753873</ele><time>2022-09-10T02:15:09Z</time></trkpt><trkpt lat="37.043347005417246" lon="139.35293758070242"><ele>2052.2487695142627</ele><time>2022-09-10T02:15:33Z</time></trkpt><trkpt lat="37.04335162101602" lon="139.35270929547997"><ele>2054.814769241959</ele><time>2022-09-10T02:17:29Z</time></trkpt><trkpt lat="37.04328684104657" lon="139.35249443041064"><ele>2057.9498425060883</ele><time>2022-09-10T02:17:52Z</time></trkpt><trkpt lat="37.04314831798906" lon="139.35234600276"><ele>2059.408140104264</ele><time>2022-09-10T02:18:44Z</time></trkpt><trkpt lat="37.04298271743512" lon="139.3524964718715"><ele>2061.739344170317</ele><time>2022-09-10T02:19:18Z</time></trkpt><trkpt lat="37.04315607481143" lon="139.35268718323218"><ele>2062.3018000992015</ele><time>2022-09-10T02:21:44Z</time></trkpt><trkpt lat="37.0430414211306" lon="139.35249629270302"><ele>2064.499211397022</ele><time>2022-09-10T02:21:54Z</time></trkpt><trkpt lat="37.04321041505458" lon="139.35241751834297"><ele>2058.000291246921</ele><time>2022-09-10T02:26:17Z</time></trkpt><trkpt lat="37.04333112891895" lon="139.3525926573655"><ele>2057.9328856831416</ele><time>2022-09-10T02:26:48Z</time></trkpt><trkpt lat="37.04350694358636" lon="139.3526635482943"><ele>2055.4419095711783</ele><time>2022-09-10T02:27:19Z</time></trkpt><trkpt lat="37.04369163809026" lon="139.3526668335911"><ele>2055.1589113865048</ele><time>2022-09-10T02:27:36Z</time></trkpt><trkpt lat="37.043879340190536" lon="139.3526546384903"><ele>2056.0911628408358</ele><time>2022-09-10T02:27:55Z</time></trkpt><trkpt lat="37.044062674618594" lon="139.35270952259404"><ele>2057.6492109848186</ele><time>2022-09-10T02:28:14Z</time></trkpt><trkpt lat="37.04422795450855" lon="139.3528082479558"><ele>2056.8967670639977</ele><time>2022-09-10T02:28:31Z</time></trkpt><trkpt lat="37.044355899568835" lon="139.35297498868448"><ele>2056.4673935147002</ele><time>2022-09-10T02:28:47Z</time></trkpt><trkpt lat="37.044471374673705" lon="139.3531594096043"><ele>2055.89776142966</ele><time>2022-09-10T02:29:02Z</time></trkpt><trkpt lat="37.044606697083566" lon="139.35331358552764"><ele>2051.8346213381737</ele><time>2022-09-10T02:29:16Z</time></trkpt><trkpt lat="37.0447166332488" lon="139.3534919684883"><ele>2052.072721050121</ele><time>2022-09-10T02:29:30Z</time></trkpt><trkpt lat="37.04486967382646" lon="139.35362656526837"><ele>2049.538352205418</ele><time>2022-09-10T02:29:47Z</time></trkpt><trkpt lat="37.04502234568132" lon="139.35376022822632"><ele>2049.8402561666444</ele><time>2022-09-10T02:30:02Z</time></trkpt><trkpt lat="37.04517605204285" lon="139.35389668083135"><ele>2048.445667703636</ele><time>2022-09-10T02:30:20Z</time></trkpt><trkpt lat="37.045344894063334" lon="139.35400185009684"><ele>2050.195454042405</ele><time>2022-09-10T02:30:37Z</time></trkpt><trkpt lat="37.04553095364873" lon="139.35400865865128"><ele>2054.247005435638</ele><time>2022-09-10T02:31:00Z</time></trkpt><trkpt lat="37.04571665917491" lon="139.3540153950545"><ele>2063.163651874289</ele><time>2022-09-10T02:31:27Z</time></trkpt><trkpt lat="37.04589773829467" lon="139.35396209086255"><ele>2071.1308045750484</ele><time>2022-09-10T02:32:06Z</time></trkpt><trkpt lat="37.04604324161333" lon="139.35381206304814"><ele>2076.756793417968</ele><time>2022-09-10T02:32:37Z</time></trkpt><trkpt lat="37.04617140547918" lon="139.35363881064353"><ele>2078.1642965134233</ele><time>2022-09-10T02:32:58Z</time></trkpt><trkpt lat="37.04627234047701" lon="139.35344037253176"><ele>2081.8972419071943</ele><time>2022-09-10T02:33:17Z</time></trkpt><trkpt lat="37.04629887562374" lon="139.3532049255017"><ele>2084.7577658509836</ele><time>2022-09-10T02:33:38Z</time></trkpt><trkpt lat="37.046386604187425" lon="139.3530020605174"><ele>2086.699048641138</ele><time>2022-09-10T02:34:01Z</time></trkpt><trkpt lat="37.04655099675718" lon="139.35290099661066"><ele>2086.9522202825174</ele><time>2022-09-10T02:34:20Z</time></trkpt><trkpt lat="37.046705985763786" lon="139.35301861956935"><ele>2099.0778398811817</ele><time>2022-09-10T02:35:22Z</time></trkpt><trkpt lat="37.04684886892915" lon="139.3531578175037"><ele>2107.827791744843</ele><time>2022-09-10T02:36:09Z</time></trkpt><trkpt lat="37.046990969231636" lon="139.35331107869342"><ele>2112.801256547682</ele><time>2022-09-10T02:36:42Z</time></trkpt><trkpt lat="37.047134499090724" lon="139.35345287809287"><ele>2119.6426312969998</ele><time>2022-09-10T02:37:09Z</time></trkpt><trkpt lat="37.047241706682286" lon="139.35363973452516"><ele>2125.645540053025</ele><time>2022-09-10T02:37:41Z</time></trkpt><trkpt lat="37.04740438392053" lon="139.35374283749272"><ele>2129.7255077175796</ele><time>2022-09-10T02:38:09Z</time></trkpt><trkpt lat="37.04757995081694" lon="139.35379391881068"><ele>2131.5860037179664</ele><time>2022-09-10T02:38:33Z</time></trkpt><trkpt lat="37.04767153374563" lon="139.35359486670163"><ele>2126.8941974611953</ele><time>2022-09-10T02:45:09Z</time></trkpt><trkpt lat="37.04778488224576" lon="139.35341718612142"><ele>2121.9325153594837</ele><time>2022-09-10T02:45:43Z</time></trkpt><trkpt lat="37.047942383919086" lon="139.35330615539442"><ele>2117.0922076730058</ele><time>2022-09-10T02:46:07Z</time></trkpt><trkpt lat="37.048068481607054" lon="139.35313836744646"><ele>2110.5346501795575</ele><time>2022-09-10T02:46:38Z</time></trkpt><trkpt lat="37.04821654923863" lon="139.35299487809436"><ele>2103.8112077163532</ele><time>2022-09-10T02:47:03Z</time></trkpt><trkpt lat="37.048361942825764" lon="139.3528485523041"><ele>2099.3212022446096</ele><time>2022-09-10T02:47:23Z</time></trkpt><trkpt lat="37.048443796374166" lon="139.3526481434785"><ele>2096.3205478331074</ele><time>2022-09-10T02:47:44Z</time></trkpt><trkpt lat="37.048526499985904" lon="139.35244639200377"><ele>2092.681345563382</ele><time>2022-09-10T02:48:06Z</time></trkpt><trkpt lat="37.048629008820534" lon="139.35225926007223"><ele>2088.3011144921184</ele><time>2022-09-10T02:48:28Z</time></trkpt><trkpt lat="37.04866182224686" lon="139.35203349011218"><ele>2084.203439359553</ele><time>2022-09-10T02:48:46Z</time></trkpt><trkpt lat="37.04881960327403" lon="139.35191372010308"><ele>2084.9633614122868</ele><time>2022-09-10T02:49:02Z</time></trkpt><trkpt lat="37.04895109924993" lon="139.35174495295425"><ele>2085.4622446252033</ele><time>2022-09-10T02:49:19Z</time></trkpt><trkpt lat="37.04906090713909" lon="139.3515536862707"><ele>2084.1604876499623</ele><time>2022-09-10T02:49:36Z</time></trkpt><trkpt lat="37.04919238736184" lon="139.3513804835671"><ele>2084.0054024504498</ele><time>2022-09-10T02:49:57Z</time></trkpt><trkpt lat="37.04930618749241" lon="139.35119652056787"><ele>2082.78739098832</ele><time>2022-09-10T02:50:12Z</time></trkpt><trkpt lat="37.049430027299515" lon="139.3510292976851"><ele>2084.579612115398</ele><time>2022-09-10T02:50:28Z</time></trkpt><trkpt lat="37.049514637719646" lon="139.35083074179917"><ele>2086.3439848767594</ele><time>2022-09-10T02:50:46Z</time></trkpt><trkpt lat="37.049645867281306" lon="139.350655872706"><ele>2088.0848981058225</ele><time>2022-09-10T02:51:05Z</time></trkpt><trkpt lat="37.049798774569936" lon="139.3505328269327"><ele>2088.645341596566</ele><time>2022-09-10T02:51:20Z</time></trkpt><trkpt lat="37.04993589540957" lon="139.35037526052335"><ele>2090.6635488038883</ele><time>2022-09-10T02:51:38Z</time></trkpt><trkpt lat="37.050086398184924" lon="139.35024395821523"><ele>2093.056370935403</ele><time>2022-09-10T02:51:57Z</time></trkpt><trkpt lat="37.05020791291699" lon="139.3500780263496"><ele>2094.505332754925</ele><time>2022-09-10T02:52:15Z</time></trkpt><trkpt lat="37.05032190438474" lon="139.3498833021499"><ele>2095.86468918249</ele><time>2022-09-10T02:52:34Z</time></trkpt><trkpt lat="37.0504602225528" lon="139.34972644796784"><ele>2098.4944103555754</ele><time>2022-09-10T02:52:52Z</time></trkpt><trkpt lat="37.050562229813785" lon="139.3495375527578"><ele>2101.0561657678336</ele><time>2022-09-10T02:53:10Z</time></trkpt><trkpt lat="37.05067195173424" lon="139.34935363294025"><ele>2101.6133323572576</ele><time>2022-09-10T02:53:29Z</time></trkpt><trkpt lat="37.05080691658717" lon="139.34918658264746"><ele>2099.044220453128</ele><time>2022-09-10T02:53:43Z</time></trkpt><trkpt lat="37.05089279003896" lon="139.34898262920225"><ele>2096.9745966130868</ele><time>2022-09-10T02:53:59Z</time></trkpt><trkpt lat="37.05102555975505" lon="139.34881504556574"><ele>2095.3425825722516</ele><time>2022-09-10T02:54:17Z</time></trkpt><trkpt lat="37.05117360329449" lon="139.34867890943664"><ele>2092.77911330387</ele><time>2022-09-10T02:54:34Z</time></trkpt><trkpt lat="37.0513434875548" lon="139.34859725013754"><ele>2090.8207795182243</ele><time>2022-09-10T02:54:50Z</time></trkpt><trkpt lat="37.05151009135328" lon="139.3484787298663"><ele>2086.924324487336</ele><time>2022-09-10T02:55:06Z</time></trkpt><trkpt lat="37.051694238822115" lon="139.34842385432012"><ele>2085.387677812949</ele><time>2022-09-10T02:55:21Z</time></trkpt><trkpt lat="37.051877853667" lon="139.34836987060834"><ele>2084.4082159418613</ele><time>2022-09-10T02:55:37Z</time></trkpt><trkpt lat="37.05205858694974" lon="139.34834731819575"><ele>2081.6934882272035</ele><time>2022-09-10T02:55:51Z</time></trkpt><trkpt lat="37.05224095566079" lon="139.34831798760166"><ele>2083.4546886868775</ele><time>2022-09-10T02:56:08Z</time></trkpt><trkpt lat="37.05242934604734" lon="139.34833786874987"><ele>2082.688286186196</ele><time>2022-09-10T02:56:25Z</time></trkpt><trkpt lat="37.052601237312366" lon="139.3484054296983"><ele>2078.1440080413595</ele><time>2022-09-10T02:56:51Z</time></trkpt><trkpt lat="37.05278583018759" lon="139.34837363116932"><ele>2077.477208962664</ele><time>2022-09-10T02:57:10Z</time></trkpt><trkpt lat="37.05296618552677" lon="139.34835482647927"><ele>2077.4639093969017</ele><time>2022-09-10T02:57:26Z</time></trkpt><trkpt lat="37.053143947432616" lon="139.34831118286564"><ele>2078.040049450472</ele><time>2022-09-10T02:57:44Z</time></trkpt><trkpt lat="37.05332947275039" lon="139.34833943971483"><ele>2077.9623003415763</ele><time>2022-09-10T02:58:11Z</time></trkpt><trkpt lat="37.05351677416252" lon="139.34835099719362"><ele>2076.6250735661015</ele><time>2022-09-10T02:58:27Z</time></trkpt><trkpt lat="37.05370130722087" lon="139.34832230889745"><ele>2077.3922620201483</ele><time>2022-09-10T02:58:43Z</time></trkpt><trkpt lat="37.053889850371654" lon="139.34833991002944"><ele>2078.9056235877797</ele><time>2022-09-10T02:59:02Z</time></trkpt><trkpt lat="37.054063365286794" lon="139.34827125068435"><ele>2081.207422860898</ele><time>2022-09-10T02:59:22Z</time></trkpt><trkpt lat="37.05423495187561" lon="139.34818809799012"><ele>2083.6335711041465</ele><time>2022-09-10T02:59:44Z</time></trkpt><trkpt lat="37.05441177729926" lon="139.34810477528973"><ele>2083.3235340174288</ele><time>2022-09-10T03:00:01Z</time></trkpt><trkpt lat="37.05458939381217" lon="139.348062277178"><ele>2081.7370568756014</ele><time>2022-09-10T03:00:17Z</time></trkpt><trkpt lat="37.05476761075539" lon="139.3479802883746"><ele>2079.269479488954</ele><time>2022-09-10T03:00:32Z</time></trkpt><trkpt lat="37.05490250364789" lon="139.3478225401758"><ele>2077.86693190597</ele><time>2022-09-10T03:00:47Z</time></trkpt><trkpt lat="37.05481062350282" lon="139.34761875002482"><ele>2081.764538757503</ele><time>2022-09-10T03:01:09Z</time></trkpt><trkpt lat="37.05491597054902" lon="139.34743608913672"><ele>2079.2969384379685</ele><time>2022-09-10T03:01:28Z</time></trkpt><trkpt lat="37.055102615231355" lon="139.34743360599114"><ele>2078.0184411080554</ele><time>2022-09-10T03:02:35Z</time></trkpt><trkpt lat="37.055283385207964" lon="139.3474678269489"><ele>2076.1793192746118</ele><time>2022-09-10T03:02:49Z</time></trkpt><trkpt lat="37.05546743063952" lon="139.34743970445194"><ele>2075.095478449948</ele><time>2022-09-10T03:03:03Z</time></trkpt><trkpt lat="37.05559747056308" lon="139.34760240002123"><ele>2074.2760471533984</ele><time>2022-09-10T03:03:21Z</time></trkpt><trkpt lat="37.05570737010655" lon="139.34778099768295"><ele>2071.274049862288</ele><time>2022-09-10T03:03:40Z</time></trkpt><trkpt lat="37.055874626641994" lon="139.34786992694765"><ele>2066.5336989117786</ele><time>2022-09-10T03:04:03Z</time></trkpt><trkpt lat="37.056055080532936" lon="139.3478623476654"><ele>2063.3449405683205</ele><time>2022-09-10T03:04:20Z</time></trkpt><trkpt lat="37.056218669403954" lon="139.3477505917459"><ele>2061.8382500484586</ele><time>2022-09-10T03:04:36Z</time></trkpt><trkpt lat="37.056395121102526" lon="139.3476842513875"><ele>2062.7547079194337</ele><time>2022-09-10T03:04:55Z</time></trkpt><trkpt lat="37.05657892319125" lon="139.34770638298681"><ele>2060.2189769484103</ele><time>2022-09-10T03:05:14Z</time></trkpt><trkpt lat="37.05675395517835" lon="139.3477898931709"><ele>2056.96197083313</ele><time>2022-09-10T03:05:35Z</time></trkpt><trkpt lat="37.056934565919754" lon="139.34777197014742"><ele>2054.9940051957965</ele><time>2022-09-10T03:05:57Z</time></trkpt><trkpt lat="37.057118743196874" lon="139.34776520974688"><ele>2056.5091715129092</ele><time>2022-09-10T03:06:12Z</time></trkpt><trkpt lat="37.057300390529" lon="139.3477168126653"><ele>2054.8101712176576</ele><time>2022-09-10T03:06:29Z</time></trkpt><trkpt lat="37.05745014824482" lon="139.34758315062678"><ele>2053.4313394669443</ele><time>2022-09-10T03:06:45Z</time></trkpt><trkpt lat="37.057526877373874" lon="139.34737767673658"><ele>2052.501576527953</ele><time>2022-09-10T03:07:01Z</time></trkpt><trkpt lat="37.05770403991593" lon="139.347419883065"><ele>2051.702273272909</ele><time>2022-09-10T03:07:20Z</time></trkpt><trkpt lat="37.05783919903183" lon="139.34757642981756"><ele>2050.026129823178</ele><time>2022-09-10T03:07:36Z</time></trkpt><trkpt lat="37.058021884956425" lon="139.34750908295686"><ele>2047.536441781558</ele><time>2022-09-10T03:07:56Z</time></trkpt><trkpt lat="37.05815070528375" lon="139.34733144880795"><ele>2043.286364208907</ele><time>2022-09-10T03:08:13Z</time></trkpt><trkpt lat="37.0583363711698" lon="139.3473456544963"><ele>2041.4602226689458</ele><time>2022-09-10T03:08:32Z</time></trkpt><trkpt lat="37.05851868538246" lon="139.3472850077946"><ele>2042.2251733392477</ele><time>2022-09-10T03:09:48Z</time></trkpt><trkpt lat="37.058645173418554" lon="139.34710656093753"><ele>2040.6552816899493</ele><time>2022-09-10T03:10:06Z</time></trkpt><trkpt lat="37.058816071457144" lon="139.34703432778548"><ele>2042.8016479769722</ele><time>2022-09-10T03:10:21Z</time></trkpt><trkpt lat="37.05898062284843" lon="139.34693483163028"><ele>2044.1898562954739</ele><time>2022-09-10T03:10:36Z</time></trkpt><trkpt lat="37.059147488886545" lon="139.34683845067772"><ele>2046.5125997429714</ele><time>2022-09-10T03:10:51Z</time></trkpt><trkpt lat="37.05929636288216" lon="139.34670982407098"><ele>2047.4049898665398</ele><time>2022-09-10T03:11:07Z</time></trkpt><trkpt lat="37.059476722276784" lon="139.34669836100122"><ele>2047.0769686130807</ele><time>2022-09-10T03:11:25Z</time></trkpt><trkpt lat="37.05966315795336" lon="139.3466962350014"><ele>2049.0368899898604</ele><time>2022-09-10T03:11:45Z</time></trkpt><trkpt lat="37.05982422051677" lon="139.34682451792045"><ele>2054.016846303828</ele><time>2022-09-10T03:12:05Z</time></trkpt><trkpt lat="37.06000998401118" lon="139.34689187250794"><ele>2057.2697113612667</ele><time>2022-09-10T03:12:22Z</time></trkpt><trkpt lat="37.060156570299" lon="139.3470390184177"><ele>2058.223335796967</ele><time>2022-09-10T03:12:39Z</time></trkpt><trkpt lat="37.06034010374839" lon="139.3470585321876"><ele>2058.8051630938426</ele><time>2022-09-10T03:12:56Z</time></trkpt><trkpt lat="37.06052636125878" lon="139.34709427131662"><ele>2058.829530613497</ele><time>2022-09-10T03:13:14Z</time></trkpt><trkpt lat="37.06068535027395" lon="139.34721655507707"><ele>2059.355446455069</ele><time>2022-09-10T03:13:39Z</time></trkpt><trkpt lat="37.06083276681751" lon="139.34734971168174"><ele>2060.1076754666865</ele><time>2022-09-10T03:14:01Z</time></trkpt><trkpt lat="37.060958922205344" lon="139.3471826502869"><ele>2054.913959835656</ele><time>2022-09-10T03:37:39Z</time></trkpt><trkpt lat="37.060821418757136" lon="139.34702739257256"><ele>2055.9418001193553</ele><time>2022-09-10T03:39:40Z</time></trkpt><trkpt lat="37.06063481055685" lon="139.34701446214197"><ele>2057.6637125127017</ele><time>2022-09-10T03:40:07Z</time></trkpt><trkpt lat="37.060452016127904" lon="139.34704322530567"><ele>2057.505145893432</ele><time>2022-09-10T03:41:09Z</time></trkpt><trkpt lat="37.06025792962968" lon="139.34706381078004"><ele>2056.92949983757</ele><time>2022-09-10T03:42:31Z</time></trkpt><trkpt lat="37.06009900597388" lon="139.34694397634237"><ele>2055.323837715201</ele><time>2022-09-10T03:42:49Z</time></trkpt><trkpt lat="37.059944645974404" lon="139.34682794599007"><ele>2054.479790110141</ele><time>2022-09-10T03:43:04Z</time></trkpt><trkpt lat="37.05975952071112" lon="139.34678112362278"><ele>2050.395572444424</ele><time>2022-09-10T03:43:22Z</time></trkpt><trkpt lat="37.05960255160529" lon="139.34665224797723"><ele>2048.6585796540603</ele><time>2022-09-10T03:43:39Z</time></trkpt><trkpt lat="37.059415554093675" lon="139.34664831239067"><ele>2047.1356396926567</ele><time>2022-09-10T03:43:56Z</time></trkpt><trkpt lat="37.05924002886768" lon="139.34670908151273"><ele>2046.1843802342191</ele><time>2022-09-10T03:44:12Z</time></trkpt><trkpt lat="37.05908848270548" lon="139.34683223907209"><ele>2044.882040229626</ele><time>2022-09-10T03:44:28Z</time></trkpt><trkpt lat="37.05892487524052" lon="139.34694138209662"><ele>2043.1929434780031</ele><time>2022-09-10T03:44:44Z</time></trkpt><trkpt lat="37.058750743287625" lon="139.34702574288062"><ele>2041.5234617823735</ele><time>2022-09-10T03:44:59Z</time></trkpt><trkpt lat="37.058596065290075" lon="139.3471509510199"><ele>2040.0391163099557</ele><time>2022-09-10T03:45:15Z</time></trkpt><trkpt lat="37.05845628562912" lon="139.34729827430064"><ele>2040.174850171432</ele><time>2022-09-10T03:45:33Z</time></trkpt><trkpt lat="37.05828124368199" lon="139.3473553455241"><ele>2039.5486119706184</ele><time>2022-09-10T03:45:59Z</time></trkpt><trkpt lat="37.058097118661486" lon="139.34735735127592"><ele>2042.4133844012395</ele><time>2022-09-10T03:46:15Z</time></trkpt><trkpt lat="37.057967905721945" lon="139.34752058827263"><ele>2045.0826770635322</ele><time>2022-09-10T03:46:35Z</time></trkpt><trkpt lat="37.05778047634558" lon="139.3475233904571"><ele>2046.7402689894661</ele><time>2022-09-10T03:46:55Z</time></trkpt><trkpt lat="37.05763161096464" lon="139.347383463805"><ele>2050.2260356564075</ele><time>2022-09-10T03:47:14Z</time></trkpt><trkpt lat="37.05746114283655" lon="139.34746348790028"><ele>2051.132552930154</ele><time>2022-09-10T03:47:34Z</time></trkpt><trkpt lat="37.0573639963398" lon="139.3476624062183"><ele>2052.8011763663962</ele><time>2022-09-10T03:48:26Z</time></trkpt><trkpt lat="37.057183718227876" lon="139.3477143343901"><ele>2052.0215746238828</ele><time>2022-09-10T03:48:43Z</time></trkpt><trkpt lat="37.05699717229217" lon="139.34773888852516"><ele>2051.4540413962677</ele><time>2022-09-10T03:49:58Z</time></trkpt><trkpt lat="37.056807220448235" lon="139.34775414734924"><ele>2052.426376355812</ele><time>2022-09-10T03:50:20Z</time></trkpt><trkpt lat="37.05662810925227" lon="139.34771195127863"><ele>2057.223646006547</ele><time>2022-09-10T03:50:38Z</time></trkpt><trkpt lat="37.05644810354218" lon="139.34767890225703"><ele>2061.1467533493415</ele><time>2022-09-10T03:50:58Z</time></trkpt><trkpt lat="37.05626754888953" lon="139.34772289826438"><ele>2061.169332643971</ele><time>2022-09-10T03:51:16Z</time></trkpt><trkpt lat="37.056103012049604" lon="139.3478176139392"><ele>2061.529693989083</ele><time>2022-09-10T03:51:31Z</time></trkpt><trkpt lat="37.05591831266136" lon="139.3478560273917"><ele>2062.2178301941603</ele><time>2022-09-10T03:51:48Z</time></trkpt><trkpt lat="37.055746100536304" lon="139.34777067970185"><ele>2069.641366507858</ele><time>2022-09-10T03:52:10Z</time></trkpt><trkpt lat="37.05561160595203" lon="139.34761767205967"><ele>2071.3502553999424</ele><time>2022-09-10T03:52:31Z</time></trkpt><trkpt lat="37.055507643183" lon="139.34742946295842"><ele>2071.711998699233</ele><time>2022-09-10T03:52:48Z</time></trkpt><trkpt lat="37.05532444977603" lon="139.34744599220576"><ele>2071.7553673190996</ele><time>2022-09-10T03:53:05Z</time></trkpt><trkpt lat="37.05513961473591" lon="139.3474210900564"><ele>2073.7825499996543</ele><time>2022-09-10T03:53:22Z</time></trkpt><trkpt lat="37.0549527331507" lon="139.34741315257733"><ele>2075.2993358783424</ele><time>2022-09-10T03:53:41Z</time></trkpt><trkpt lat="37.05480824963637" lon="139.34754917109836"><ele>2078.7617654977366</ele><time>2022-09-10T03:53:59Z</time></trkpt><trkpt lat="37.05488056993945" lon="139.34775886501555"><ele>2076.434328378178</ele><time>2022-09-10T03:54:21Z</time></trkpt><trkpt lat="37.05478749738931" lon="139.34795161034435"><ele>2076.1712120668963</ele><time>2022-09-10T03:54:39Z</time></trkpt><trkpt lat="37.05461288988636" lon="139.34802871706592"><ele>2076.9218929130584</ele><time>2022-09-10T03:54:57Z</time></trkpt><trkpt lat="37.054433758589404" lon="139.348082065777"><ele>2079.6621345691383</ele><time>2022-09-10T03:55:16Z</time></trkpt><trkpt lat="37.054262291611565" lon="139.3481539931627"><ele>2079.4073828281835</ele><time>2022-09-10T03:55:33Z</time></trkpt><trkpt lat="37.0540898873708" lon="139.34821992375683"><ele>2081.8759098770097</ele><time>2022-09-10T03:55:59Z</time></trkpt><trkpt lat="37.05392516053992" lon="139.34832228391102"><ele>2075.8961370922625</ele><time>2022-09-10T03:56:38Z</time></trkpt><trkpt lat="37.053734444961016" lon="139.34828816440123"><ele>2074.9422189593315</ele><time>2022-09-10T03:56:52Z</time></trkpt><trkpt lat="37.05355041673667" lon="139.34834294194226"><ele>2073.629283915274</ele><time>2022-09-10T03:57:06Z</time></trkpt><trkpt lat="37.05336042855623" lon="139.34831799826006"><ele>2073.0436712736264</ele><time>2022-09-10T03:57:25Z</time></trkpt><trkpt lat="37.05317815283639" lon="139.34828440004173"><ele>2074.7983612455428</ele><time>2022-09-10T03:57:40Z</time></trkpt><trkpt lat="37.05298825265778" lon="139.34831162313716"><ele>2073.7823142176494</ele><time>2022-09-10T03:58:00Z</time></trkpt><trkpt lat="37.05279870397161" lon="139.34835403720652"><ele>2072.4980765907094</ele><time>2022-09-10T03:58:19Z</time></trkpt><trkpt lat="37.0526182109478" lon="139.3483919953628"><ele>2073.826826785691</ele><time>2022-09-10T03:58:37Z</time></trkpt><trkpt lat="37.052447085180425" lon="139.3483047521182"><ele>2081.169218145311</ele><time>2022-09-10T03:59:04Z</time></trkpt><trkpt lat="37.05226093452301" lon="139.34828217946608"><ele>2081.50592932757</ele><time>2022-09-10T03:59:23Z</time></trkpt><trkpt lat="37.05207830716716" lon="139.34831869764756"><ele>2079.096729074605</ele><time>2022-09-10T03:59:40Z</time></trkpt><trkpt lat="37.05189482600978" lon="139.34833452797398"><ele>2079.8071964178234</ele><time>2022-09-10T03:59:56Z</time></trkpt><trkpt lat="37.051715215895925" lon="139.34838087921278"><ele>2081.6749000856653</ele><time>2022-09-10T04:00:13Z</time></trkpt><trkpt lat="37.05153815479327" lon="139.34844378088567"><ele>2083.8196093402803</ele><time>2022-09-10T04:00:29Z</time></trkpt><trkpt lat="37.051379791013844" lon="139.3485674324432"><ele>2085.2196253687143</ele><time>2022-09-10T04:00:46Z</time></trkpt><trkpt lat="37.051210550285056" lon="139.34865929505196"><ele>2087.0299396291375</ele><time>2022-09-10T04:01:03Z</time></trkpt><trkpt lat="37.05104631111127" lon="139.34875868768685"><ele>2092.408454440534</ele><time>2022-09-10T04:01:23Z</time></trkpt><trkpt lat="37.05091968017581" lon="139.34892995665376"><ele>2094.313010140322</ele><time>2022-09-10T04:01:41Z</time></trkpt><trkpt lat="37.05081486591011" lon="139.34912420766858"><ele>2096.6723306206986</ele><time>2022-09-10T04:01:58Z</time></trkpt><trkpt lat="37.0506956746314" lon="139.34930269704165"><ele>2097.8411308797076</ele><time>2022-09-10T04:02:15Z</time></trkpt><trkpt lat="37.050576306990735" lon="139.349486989583"><ele>2098.6827869135886</ele><time>2022-09-10T04:02:34Z</time></trkpt><trkpt lat="37.050489262020456" lon="139.3496841357336"><ele>2095.5119113819674</ele><time>2022-09-10T04:02:53Z</time></trkpt><trkpt lat="37.05036280322532" lon="139.34984586096328"><ele>2095.4098281040788</ele><time>2022-09-10T04:03:10Z</time></trkpt><trkpt lat="37.050247916647976" lon="139.35002133665466"><ele>2096.1950929220766</ele><time>2022-09-10T04:04:27Z</time></trkpt><trkpt lat="37.05013121101562" lon="139.35020007807435"><ele>2092.211052933708</ele><time>2022-09-10T04:04:42Z</time></trkpt><trkpt lat="37.04997613721202" lon="139.35033314737765"><ele>2091.022555996664</ele><time>2022-09-10T04:04:58Z</time></trkpt><trkpt lat="37.04983609837895" lon="139.35047668191785"><ele>2089.910005471669</ele><time>2022-09-10T04:05:12Z</time></trkpt><trkpt lat="37.04969525313925" lon="139.35062363577563"><ele>2088.2048004716635</ele><time>2022-09-10T04:05:26Z</time></trkpt><trkpt lat="37.04955079158501" lon="139.3507766962914"><ele>2087.3952826941386</ele><time>2022-09-10T04:05:43Z</time></trkpt><trkpt lat="37.04944725318681" lon="139.3509699630277"><ele>2086.788313497789</ele><time>2022-09-10T04:05:59Z</time></trkpt><trkpt lat="37.049337392238954" lon="139.35116618034695"><ele>2084.0584644824266</ele><time>2022-09-10T04:06:14Z</time></trkpt><trkpt lat="37.04922646550213" lon="139.35134398484254"><ele>2082.9144266210496</ele><time>2022-09-10T04:06:29Z</time></trkpt><trkpt lat="37.04910005940428" lon="139.35152228865863"><ele>2082.348714460619</ele><time>2022-09-10T04:06:44Z</time></trkpt><trkpt lat="37.04898342453164" lon="139.35169786079538"><ele>2082.1857968093827</ele><time>2022-09-10T04:06:59Z</time></trkpt><trkpt lat="37.048856766795865" lon="139.35186986014077"><ele>2083.9947886159644</ele><time>2022-09-10T04:07:15Z</time></trkpt><trkpt lat="37.04868793615125" lon="139.35198954297152"><ele>2085.7255545724183</ele><time>2022-09-10T04:07:31Z</time></trkpt><trkpt lat="37.04863052149686" lon="139.35220850082428"><ele>2087.586653043516</ele><time>2022-09-10T04:07:50Z</time></trkpt><trkpt lat="37.04855667518302" lon="139.3524143541277"><ele>2090.118387178518</ele><time>2022-09-10T04:08:10Z</time></trkpt><trkpt lat="37.04837507375625" lon="139.35247763070666"><ele>2091.726321768947</ele><time>2022-09-10T04:08:28Z</time></trkpt><trkpt lat="37.048193629045315" lon="139.35246712310405"><ele>2090.3091203570366</ele><time>2022-09-10T04:08:44Z</time></trkpt><trkpt lat="37.048003940506696" lon="139.35246235836604"><ele>2090.379183803685</ele><time>2022-09-10T04:09:00Z</time></trkpt><trkpt lat="37.04781623849783" lon="139.35243241756916"><ele>2086.782388358377</ele><time>2022-09-10T04:09:22Z</time></trkpt><trkpt lat="37.04763111292498" lon="139.35240257271036"><ele>2085.2458608569577</ele><time>2022-09-10T04:09:43Z</time></trkpt><trkpt lat="37.04745128412403" lon="139.3524479072545"><ele>2082.956986291334</ele><time>2022-09-10T04:10:00Z</time></trkpt><trkpt lat="37.04727254900722" lon="139.35250615501675"><ele>2086.4280583672225</ele><time>2022-09-10T04:10:17Z</time></trkpt><trkpt lat="37.04709598284109" lon="139.3525671251706"><ele>2089.0213739173487</ele><time>2022-09-10T04:10:34Z</time></trkpt><trkpt lat="37.0469411895665" lon="139.35269639751223"><ele>2091.7882124995813</ele><time>2022-09-10T04:10:58Z</time></trkpt><trkpt lat="37.04676692226162" lon="139.35277853675385"><ele>2089.481848746538</ele><time>2022-09-10T04:11:18Z</time></trkpt><trkpt lat="37.046592498681534" lon="139.3528467401347"><ele>2088.0388095835224</ele><time>2022-09-10T04:11:53Z</time></trkpt><trkpt lat="37.04642112196965" lon="139.35293173664078"><ele>2087.7922722632065</ele><time>2022-09-10T04:12:30Z</time></trkpt><trkpt lat="37.04630741725365" lon="139.35310862583557"><ele>2086.3123737461865</ele><time>2022-09-10T04:12:46Z</time></trkpt><trkpt lat="37.0462647671302" lon="139.3533307525952"><ele>2084.6079134522006</ele><time>2022-09-10T04:13:04Z</time></trkpt><trkpt lat="37.04619354881819" lon="139.3535495548813"><ele>2081.309889591299</ele><time>2022-09-10T04:13:21Z</time></trkpt><trkpt lat="37.046075411065296" lon="139.35372770211524"><ele>2077.248782663606</ele><time>2022-09-10T04:13:36Z</time></trkpt><trkpt lat="37.04594290180625" lon="139.35388105922812"><ele>2073.913466189988</ele><time>2022-09-10T04:13:59Z</time></trkpt><trkpt lat="37.045769265743424" lon="139.35395423403924"><ele>2066.3219306524843</ele><time>2022-09-10T04:14:23Z</time></trkpt><trkpt lat="37.045592552280795" lon="139.35400289362607"><ele>2058.343311049044</ele><time>2022-09-10T04:14:53Z</time></trkpt><trkpt lat="37.045410657292344" lon="139.35400927384688"><ele>2052.4628398474306</ele><time>2022-09-10T04:15:18Z</time></trkpt><trkpt lat="37.045234758330835" lon="139.3539297180381"><ele>2052.654699012637</ele><time>2022-09-10T04:15:32Z</time></trkpt><trkpt lat="37.04508729727325" lon="139.3537911307976"><ele>2049.575450583361</ele><time>2022-09-10T04:15:50Z</time></trkpt><trkpt lat="37.04493459118961" lon="139.35364840789632"><ele>2049.828827543184</ele><time>2022-09-10T04:16:06Z</time></trkpt><trkpt lat="37.04477455518408" lon="139.353529245626"><ele>2048.8791226353496</ele><time>2022-09-10T04:16:22Z</time></trkpt><trkpt lat="37.04465470043366" lon="139.3533604783192"><ele>2048.5050930883735</ele><time>2022-09-10T04:16:39Z</time></trkpt><trkpt lat="37.04453468260032" lon="139.3531840034748"><ele>2050.3726407401264</ele><time>2022-09-10T04:16:55Z</time></trkpt><trkpt lat="37.04440736070975" lon="139.35302163067584"><ele>2052.820094661787</ele><time>2022-09-10T04:17:12Z</time></trkpt><trkpt lat="37.04429120891004" lon="139.35283928144574"><ele>2054.7347004562616</ele><time>2022-09-10T04:17:29Z</time></trkpt><trkpt lat="37.044140347934004" lon="139.3526966288614"><ele>2057.702560087666</ele><time>2022-09-10T04:17:46Z</time></trkpt><trkpt lat="37.04396103090914" lon="139.3526461357745"><ele>2056.48715993762</ele><time>2022-09-10T04:18:02Z</time></trkpt><trkpt lat="37.04377203949089" lon="139.35261743285508"><ele>2054.7864350182936</ele><time>2022-09-10T04:18:17Z</time></trkpt><trkpt lat="37.04359181871947" lon="139.35260937162678"><ele>2055.592811020091</ele><time>2022-09-10T04:18:31Z</time></trkpt><trkpt lat="37.04340198961029" lon="139.3526405640239"><ele>2055.3130018962547</ele><time>2022-09-10T04:18:46Z</time></trkpt><trkpt lat="37.04351267710217" lon="139.3528224693518"><ele>2053.1586753902957</ele><time>2022-09-10T04:21:33Z</time></trkpt><trkpt lat="37.04334954974131" lon="139.35270702314492"><ele>2052.8919528266415</ele><time>2022-09-10T04:22:05Z</time></trkpt><trkpt lat="37.043328516634546" lon="139.35293956325634"><ele>2050.202783879824</ele><time>2022-09-10T04:22:48Z</time></trkpt><trkpt lat="37.04320820315849" lon="139.35310875903957"><ele>2047.2621259009466</ele><time>2022-09-10T04:23:11Z</time></trkpt><trkpt lat="37.04306587333362" lon="139.35325266351168"><ele>2041.824555166997</ele><time>2022-09-10T04:23:31Z</time></trkpt><trkpt lat="37.04292287138453" lon="139.35339275296056"><ele>2038.6746962135658</ele><time>2022-09-10T04:23:54Z</time></trkpt><trkpt lat="37.04276640668615" lon="139.35350910844164"><ele>2034.3639468308538</ele><time>2022-09-10T04:24:17Z</time></trkpt><trkpt lat="37.04259103494212" lon="139.3535638399396"><ele>2032.3558834567666</ele><time>2022-09-10T04:24:38Z</time></trkpt><trkpt lat="37.04240643813157" lon="139.35357669730558"><ele>2028.629612150602</ele><time>2022-09-10T04:24:57Z</time></trkpt><trkpt lat="37.04225542873181" lon="139.3537047779538"><ele>2022.762863829732</ele><time>2022-09-10T04:25:23Z</time></trkpt><trkpt lat="37.04211424103333" lon="139.35385408983436"><ele>2016.833291463554</ele><time>2022-09-10T04:25:47Z</time></trkpt><trkpt lat="37.04198779002807" lon="139.35402898445273"><ele>2013.1624729027972</ele><time>2022-09-10T04:26:09Z</time></trkpt><trkpt lat="37.04186116550773" lon="139.35419541002508"><ele>2011.2255142945796</ele><time>2022-09-10T04:26:23Z</time></trkpt><trkpt lat="37.0417170512144" lon="139.3543471664394"><ele>2012.0503196045756</ele><time>2022-09-10T04:26:38Z</time></trkpt><trkpt lat="37.04158340131893" lon="139.35451920836113"><ele>2013.3360107112676</ele><time>2022-09-10T04:26:54Z</time></trkpt><trkpt lat="37.04149641292062" lon="139.35471848871293"><ele>2011.1647651623935</ele><time>2022-09-10T04:28:34Z</time></trkpt><trkpt lat="37.04139093967779" lon="139.3549203638468"><ele>2005.6852615112439</ele><time>2022-09-10T04:28:49Z</time></trkpt><trkpt lat="37.04122918176986" lon="139.35509095199566"><ele>1998.41388295684</ele><time>2022-09-10T04:29:02Z</time></trkpt><trkpt lat="37.041030191230334" lon="139.355180079642"><ele>1997.302253074944</ele><time>2022-09-10T04:29:08Z</time></trkpt><trkpt lat="37.0408732386809" lon="139.35529065184988"><ele>1992.142940456979</ele><time>2022-09-10T04:29:30Z</time></trkpt><trkpt lat="37.040701826849855" lon="139.35536661886948"><ele>1990.4508490087464</ele><time>2022-09-10T04:29:49Z</time></trkpt><trkpt lat="37.04053711682434" lon="139.35547198722887"><ele>1988.8216271474957</ele><time>2022-09-10T04:30:08Z</time></trkpt><trkpt lat="37.04040364531651" lon="139.35564407391334"><ele>1986.429021912627</ele><time>2022-09-10T04:30:26Z</time></trkpt><trkpt lat="37.04042202360647" lon="139.3558693390275"><ele>1985.3857625182718</ele><time>2022-09-10T04:30:41Z</time></trkpt><trkpt lat="37.04048192923596" lon="139.35608935566196"><ele>1980.6375429248437</ele><time>2022-09-10T04:30:59Z</time></trkpt><trkpt lat="37.04049548134737" lon="139.35631869588858"><ele>1978.396787959151</ele><time>2022-09-10T04:31:17Z</time></trkpt><trkpt lat="37.04046161753037" lon="139.3565398965972"><ele>1974.9334237175062</ele><time>2022-09-10T04:31:36Z</time></trkpt><trkpt lat="37.04037545604063" lon="139.35674001028246"><ele>1970.1903848713264</ele><time>2022-09-10T04:31:54Z</time></trkpt><trkpt lat="37.0403334957987" lon="139.3569739285164"><ele>1968.504815645516</ele><time>2022-09-10T04:32:37Z</time></trkpt><trkpt lat="37.040263926968265" lon="139.35718651005155"><ele>1966.081477381289</ele><time>2022-09-10T04:33:02Z</time></trkpt><trkpt lat="37.040168216963146" lon="139.3573798637941"><ele>1967.0343063566834</ele><time>2022-09-10T04:33:18Z</time></trkpt><trkpt lat="37.04010730607836" lon="139.35761489221608"><ele>1963.3429699260741</ele><time>2022-09-10T04:33:37Z</time></trkpt><trkpt lat="37.0400672274523" lon="139.3578384644632"><ele>1959.4095255210996</ele><time>2022-09-10T04:33:58Z</time></trkpt><trkpt lat="37.039918836437565" lon="139.35798183601804"><ele>1955.8537820652127</ele><time>2022-09-10T04:34:30Z</time></trkpt><trkpt lat="37.03977125399232" lon="139.3578402103473"><ele>1957.5377895543352</ele><time>2022-09-10T04:34:50Z</time></trkpt><trkpt lat="37.03972579608794" lon="139.35805967708535"><ele>1950.11565685831</ele><time>2022-09-10T04:35:13Z</time></trkpt><trkpt lat="37.03975157160227" lon="139.35829025849668"><ele>1948.0562892975286</ele><time>2022-09-10T04:35:37Z</time></trkpt><trkpt lat="37.0395979157666" lon="139.35841477585657"><ele>1943.085616549477</ele><time>2022-09-10T04:36:15Z</time></trkpt><trkpt lat="37.03945771889157" lon="139.35855653372568"><ele>1933.705369017087</ele><time>2022-09-10T04:36:59Z</time></trkpt><trkpt lat="37.039300731054624" lon="139.35867569552698"><ele>1929.506999806501</ele><time>2022-09-10T04:37:22Z</time></trkpt><trkpt lat="37.03936168151552" lon="139.3588934144886"><ele>1924.5912115937099</ele><time>2022-09-10T04:37:49Z</time></trkpt><trkpt lat="37.039228332789435" lon="139.35904641149682"><ele>1922.573168611154</ele><time>2022-09-10T04:38:28Z</time></trkpt><trkpt lat="37.039170085031174" lon="139.3592600321238"><ele>1916.9390308856964</ele><time>2022-09-10T04:38:50Z</time></trkpt><trkpt lat="37.03915666123077" lon="139.35948516062024"><ele>1911.6339249368757</ele><time>2022-09-10T04:39:21Z</time></trkpt><trkpt lat="37.03911121225823" lon="139.35970457304362"><ele>1908.5772554427385</ele><time>2022-09-10T04:39:48Z</time></trkpt><trkpt lat="37.03902244659294" lon="139.35991123364266"><ele>1906.4077210556716</ele><time>2022-09-10T04:40:10Z</time></trkpt><trkpt lat="37.03903271478757" lon="139.36014469792283"><ele>1898.8498710161075</ele><time>2022-09-10T04:40:43Z</time></trkpt><trkpt lat="37.03893909753295" lon="139.36036401566906"><ele>1897.9457261925563</ele><time>2022-09-10T04:41:12Z</time></trkpt><trkpt lat="37.03887707583513" lon="139.3605766950974"><ele>1889.9869462996721</ele><time>2022-09-10T04:41:55Z</time></trkpt><trkpt lat="37.038873357869434" lon="139.36080560743554"><ele>1883.6801242874935</ele><time>2022-09-10T04:42:43Z</time></trkpt><trkpt lat="37.03878902086822" lon="139.36101671389477"><ele>1878.2184777725488</ele><time>2022-09-10T04:43:26Z</time></trkpt><trkpt lat="37.0387632892423" lon="139.3612430913627"><ele>1871.5925250910223</ele><time>2022-09-10T04:44:05Z</time></trkpt><trkpt lat="37.03870947983075" lon="139.36146553904672"><ele>1865.2021339712664</ele><time>2022-09-10T04:44:38Z</time></trkpt><trkpt lat="37.03857366600376" lon="139.3616230785517"><ele>1862.198881807737</ele><time>2022-09-10T04:45:05Z</time></trkpt><trkpt lat="37.03855803021858" lon="139.36184856027427"><ele>1858.2759904470295</ele><time>2022-09-10T04:45:34Z</time></trkpt><trkpt lat="37.038440248798125" lon="139.36202555225717"><ele>1852.12683551386</ele><time>2022-09-10T04:45:59Z</time></trkpt><trkpt lat="37.03834331525682" lon="139.36223209968423"><ele>1848.3578315088525</ele><time>2022-09-10T04:46:20Z</time></trkpt><trkpt lat="37.03829216047705" lon="139.3624488486881"><ele>1847.2814047234133</ele><time>2022-09-10T04:46:45Z</time></trkpt><trkpt lat="37.03822484169293" lon="139.36267042120647"><ele>1843.8747225869447</ele><time>2022-09-10T04:47:12Z</time></trkpt><trkpt lat="37.03820065152817" lon="139.36289402396122"><ele>1838.674764148891</ele><time>2022-09-10T04:47:36Z</time></trkpt><trkpt lat="37.03818005066318" lon="139.36311788714536"><ele>1834.3866074830294</ele><time>2022-09-10T04:48:00Z</time></trkpt><trkpt lat="37.03825769889739" lon="139.3633297540018"><ele>1829.2329143229872</ele><time>2022-09-10T04:48:30Z</time></trkpt><trkpt lat="37.03819783420796" lon="139.36355321716277"><ele>1826.7478373488411</ele><time>2022-09-10T04:48:58Z</time></trkpt><trkpt lat="37.03823058419032" lon="139.36377717526665"><ele>1822.0168801667169</ele><time>2022-09-10T04:49:21Z</time></trkpt><trkpt lat="37.03815764632459" lon="139.36399213572537"><ele>1817.1945951916277</ele><time>2022-09-10T04:49:52Z</time></trkpt><trkpt lat="37.038118334681904" lon="139.36421555391337"><ele>1811.8695374783128</ele><time>2022-09-10T04:50:18Z</time></trkpt><trkpt lat="37.03818582901396" lon="139.36443267155647"><ele>1806.8188050556928</ele><time>2022-09-10T04:50:42Z</time></trkpt><trkpt lat="37.0381181858654" lon="139.36464470696288"><ele>1806.5255583291873</ele><time>2022-09-10T04:51:05Z</time></trkpt><trkpt lat="37.038032278725304" lon="139.36484734202148"><ele>1805.1280024750158</ele><time>2022-09-10T04:51:23Z</time></trkpt><trkpt lat="37.03803502481055" lon="139.36507405351173"><ele>1798.988321872428</ele><time>2022-09-10T04:51:47Z</time></trkpt><trkpt lat="37.03811066522379" lon="139.36528183654704"><ele>1792.9196951314807</ele><time>2022-09-10T04:52:15Z</time></trkpt><trkpt lat="37.03803084491823" lon="139.36549007603983"><ele>1788.5170352403075</ele><time>2022-09-10T04:52:44Z</time></trkpt><trkpt lat="37.03790121004331" lon="139.36565537510936"><ele>1784.9805269557983</ele><time>2022-09-10T04:53:21Z</time></trkpt><trkpt lat="37.03786613814722" lon="139.3658793279136"><ele>1776.1254410864785</ele><time>2022-09-10T04:54:01Z</time></trkpt><trkpt lat="37.03793185134017" lon="139.36608922399412"><ele>1768.8613526653498</ele><time>2022-09-10T04:54:27Z</time></trkpt><trkpt lat="37.03801875926209" lon="139.36630663509715"><ele>1761.9633233910426</ele><time>2022-09-10T04:55:08Z</time></trkpt><trkpt lat="37.037967126483856" lon="139.36652631318066"><ele>1756.9409447396174</ele><time>2022-09-10T04:55:58Z</time></trkpt><trkpt lat="37.0378717246255" lon="139.36671893065042"><ele>1749.6446089958772</ele><time>2022-09-10T04:56:29Z</time></trkpt><trkpt lat="37.03785722586875" lon="139.36695287100184"><ele>1746.0200606621802</ele><time>2022-09-10T04:56:59Z</time></trkpt><trkpt lat="37.03780231484924" lon="139.36716810877874"><ele>1735.9230359783396</ele><time>2022-09-10T04:57:35Z</time></trkpt><trkpt lat="37.03765170826327" lon="139.3672935147391"><ele>1726.0361728072166</ele><time>2022-09-10T04:58:31Z</time></trkpt><trkpt lat="37.03759678569022" lon="139.36751215976975"><ele>1718.429863087833</ele><time>2022-09-10T04:59:15Z</time></trkpt><trkpt lat="37.0374988944689" lon="139.36770755629846"><ele>1716.9115159790963</ele><time>2022-09-10T04:59:37Z</time></trkpt><trkpt lat="37.037481476685166" lon="139.3679381059305"><ele>1714.0774339297786</ele><time>2022-09-10T05:00:01Z</time></trkpt><trkpt lat="37.03750625560076" lon="139.36816766874185"><ele>1712.699594611302</ele><time>2022-09-10T05:00:21Z</time></trkpt><trkpt lat="37.03749157729758" lon="139.36839215193592"><ele>1709.4166573956609</ele><time>2022-09-10T05:00:48Z</time></trkpt><trkpt lat="37.03747907639379" lon="139.36861948949743"><ele>1708.7268768604845</ele><time>2022-09-10T05:01:08Z</time></trkpt><trkpt lat="37.03751386585695" lon="139.368840594806"><ele>1708.2543718880042</ele><time>2022-09-10T05:01:26Z</time></trkpt><trkpt lat="37.03743519861358" lon="139.36904991020018"><ele>1704.8009598394856</ele><time>2022-09-10T05:01:49Z</time></trkpt><trkpt lat="37.0374588211958" lon="139.36927528229128"><ele>1702.7064842795953</ele><time>2022-09-10T05:02:20Z</time></trkpt><trkpt lat="37.037327351477764" lon="139.36943013166245"><ele>1701.8503237189725</ele><time>2022-09-10T05:02:35Z</time></trkpt><trkpt lat="37.03726880847394" lon="139.3696442911969"><ele>1696.5829592058435</ele><time>2022-09-10T05:02:51Z</time></trkpt><trkpt lat="37.03724473732709" lon="139.36987129617006"><ele>1688.2476097084582</ele><time>2022-09-10T05:03:34Z</time></trkpt><trkpt lat="37.0374012609833" lon="139.36998597133177"><ele>1686.9175851447508</ele><time>2022-09-10T05:03:50Z</time></trkpt><trkpt lat="37.037534127920566" lon="139.3701446593479"><ele>1678.5615108804777</ele><time>2022-09-10T05:04:19Z</time></trkpt><trkpt lat="37.037522539857754" lon="139.3703708823774"><ele>1675.516116595827</ele><time>2022-09-10T05:04:35Z</time></trkpt><trkpt lat="37.03751672532081" lon="139.37060065564287"><ele>1676.4992271484807</ele><time>2022-09-10T05:04:49Z</time></trkpt><trkpt lat="37.03740392975548" lon="139.37078943972173"><ele>1675.2652112552896</ele><time>2022-09-10T05:05:07Z</time></trkpt><trkpt lat="37.03723411433862" lon="139.37086786599588"><ele>1670.2350262096152</ele><time>2022-09-10T05:05:28Z</time></trkpt><trkpt lat="37.03719865630216" lon="139.3710893159477"><ele>1667.1862189751118</ele><time>2022-09-10T05:05:47Z</time></trkpt><trkpt lat="37.03712524745048" lon="139.37129725650192"><ele>1663.67832127586</ele><time>2022-09-10T05:06:07Z</time></trkpt><trkpt lat="37.036968477888145" lon="139.37142565974065"><ele>1657.0047922413796</ele><time>2022-09-10T05:06:40Z</time></trkpt><trkpt lat="37.03688708400086" lon="139.37162687822143"><ele>1653.5714424345642</ele><time>2022-09-10T05:06:58Z</time></trkpt><trkpt lat="37.03680991914798" lon="139.37183570909036"><ele>1650.9554034369066</ele><time>2022-09-10T05:07:24Z</time></trkpt><trkpt lat="37.03663091967462" lon="139.37179154176445"><ele>1648.751345636323</ele><time>2022-09-10T05:07:47Z</time></trkpt><trkpt lat="37.03645045541538" lon="139.37175200332283"><ele>1641.2965099979192</ele><time>2022-09-10T05:08:13Z</time></trkpt><trkpt lat="37.03627547854539" lon="139.37165766936866"><ele>1641.7630558237433</ele><time>2022-09-10T05:09:47Z</time></trkpt><trkpt lat="37.036087966391506" lon="139.3716320650216"><ele>1632.8367637451738</ele><time>2022-09-10T05:10:09Z</time></trkpt><trkpt lat="37.03591210949355" lon="139.37169808540304"><ele>1628.660271210596</ele><time>2022-09-10T05:10:31Z</time></trkpt><trkpt lat="37.035732531219594" lon="139.3717425574554"><ele>1623.4926674161106</ele><time>2022-09-10T05:10:58Z</time></trkpt><trkpt lat="37.03562920754852" lon="139.37194523768477"><ele>1618.0721348188818</ele><time>2022-09-10T05:11:17Z</time></trkpt><trkpt lat="37.03561121544335" lon="139.3721728489431"><ele>1612.9456200823188</ele><time>2022-09-10T05:11:38Z</time></trkpt><trkpt lat="37.03542627917305" lon="139.37223073674352"><ele>1610.2794652581215</ele><time>2022-09-10T05:12:14Z</time></trkpt><trkpt lat="37.03527574254461" lon="139.37235495764665"><ele>1597.0199060589075</ele><time>2022-09-10T05:13:00Z</time></trkpt><trkpt lat="37.035095051311885" lon="139.3723437958916"><ele>1596.3516061063856</ele><time>2022-09-10T05:13:26Z</time></trkpt><trkpt lat="37.0349666510557" lon="139.37250806046325"><ele>1590.7749737389386</ele><time>2022-09-10T05:13:48Z</time></trkpt><trkpt lat="37.03481530618284" lon="139.37265114548504"><ele>1587.44355149474</ele><time>2022-09-10T05:14:09Z</time></trkpt><trkpt lat="37.0346318878625" lon="139.3725938530481"><ele>1582.0854157228023</ele><time>2022-09-10T05:14:34Z</time></trkpt><trkpt lat="37.03445330789023" lon="139.37263623308021"><ele>1577.5650928653777</ele><time>2022-09-10T05:14:59Z</time></trkpt><trkpt lat="37.03444469192549" lon="139.37287523608984"><ele>1567.6203350732103</ele><time>2022-09-10T05:15:30Z</time></trkpt><trkpt lat="37.03426298690944" lon="139.37285928484496"><ele>1567.9940476138145</ele><time>2022-09-10T05:15:56Z</time></trkpt><trkpt lat="37.03413781027252" lon="139.37303446438352"><ele>1562.8152169343084</ele><time>2022-09-10T05:16:13Z</time></trkpt><trkpt lat="37.03402321553076" lon="139.37321030713832"><ele>1559.9532220298424</ele><time>2022-09-10T05:16:34Z</time></trkpt><trkpt lat="37.03391418852092" lon="139.37339885592164"><ele>1555.9948337078094</ele><time>2022-09-10T05:16:59Z</time></trkpt><trkpt lat="37.0337949957528" lon="139.37322271419876"><ele>1549.4455690328032</ele><time>2022-09-10T05:17:44Z</time></trkpt><trkpt lat="37.033643775627006" lon="139.37335077226308"><ele>1545.200399056077</ele><time>2022-09-10T05:18:21Z</time></trkpt><trkpt lat="37.03362000339776" lon="139.37358265361271"><ele>1538.595119590871</ele><time>2022-09-10T05:18:55Z</time></trkpt><trkpt lat="37.03363618609513" lon="139.37381754723043"><ele>1533.2729590330273</ele><time>2022-09-10T05:19:18Z</time></trkpt><trkpt lat="37.03358680792993" lon="139.37404323739312"><ele>1531.6236932622269</ele><time>2022-09-10T05:19:41Z</time></trkpt><trkpt lat="37.03354893557586" lon="139.37427806746024"><ele>1523.878487540409</ele><time>2022-09-10T05:20:07Z</time></trkpt><trkpt lat="37.03341378156662" lon="139.37443926081667"><ele>1519.5559676978737</ele><time>2022-09-10T05:20:37Z</time></trkpt><trkpt lat="37.03329625790257" lon="139.37461898919236"><ele>1516.7130388449878</ele><time>2022-09-10T05:21:04Z</time></trkpt><trkpt lat="37.03329811523585" lon="139.37484396396593"><ele>1511.449043485336</ele><time>2022-09-10T05:21:26Z</time></trkpt><trkpt lat="37.03321323229814" lon="139.375044607178"><ele>1502.2472030138597</ele><time>2022-09-10T05:22:04Z</time></trkpt><trkpt lat="37.0331941550943" lon="139.3752686972237"><ele>1500.1837167320773</ele><time>2022-09-10T05:22:33Z</time></trkpt><trkpt lat="37.033057653648385" lon="139.37542140592325"><ele>1491.3222631691024</ele><time>2022-09-10T05:23:29Z</time></trkpt><trkpt lat="37.03302379777103" lon="139.3756433102975"><ele>1482.9109524451196</ele><time>2022-09-10T05:24:14Z</time></trkpt><trkpt lat="37.033069358124536" lon="139.37586709286705"><ele>1479.2472084090114</ele><time>2022-09-10T05:24:34Z</time></trkpt><trkpt lat="37.03308310674113" lon="139.37609440396534"><ele>1474.313744675368</ele><time>2022-09-10T05:24:56Z</time></trkpt><trkpt lat="37.03293258124855" lon="139.3759671601356"><ele>1469.5382782639936</ele><time>2022-09-10T05:25:20Z</time></trkpt><trkpt lat="37.032863418333825" lon="139.3761806595611"><ele>1458.0499547515064</ele><time>2022-09-10T05:26:00Z</time></trkpt><trkpt lat="37.032725687556805" lon="139.37603560437407"><ele>1456.3062800103799</ele><time>2022-09-10T05:26:28Z</time></trkpt><trkpt lat="37.03260147162834" lon="139.37620364491642"><ele>1442.3059836886823</ele><time>2022-09-10T05:27:13Z</time></trkpt><trkpt lat="37.03262496788989" lon="139.37642715850387"><ele>1437.090408922173</ele><time>2022-09-10T05:27:27Z</time></trkpt><trkpt lat="37.03247749269353" lon="139.37656842903667"><ele>1432.7459451695904</ele><time>2022-09-10T05:27:59Z</time></trkpt><trkpt lat="37.03232919482003" lon="139.37671732718553"><ele>1423.8164731040597</ele><time>2022-09-10T05:28:56Z</time></trkpt><trkpt lat="37.03213806421598" lon="139.37668870311217"><ele>1411.8308068094775</ele><time>2022-09-10T05:29:46Z</time></trkpt><trkpt lat="37.032018136456955" lon="139.3768571272056"><ele>1406.9743807725608</ele><time>2022-09-10T05:30:20Z</time></trkpt><trkpt lat="37.031950532261654" lon="139.37708247201437"><ele>1399.0110503546894</ele><time>2022-09-10T05:30:42Z</time></trkpt><trkpt lat="37.031930015711964" lon="139.37731569218982"><ele>1395.9976327354088</ele><time>2022-09-10T05:31:04Z</time></trkpt><trkpt lat="37.03175767180193" lon="139.37739909604522"><ele>1386.2342782700434</ele><time>2022-09-10T05:31:45Z</time></trkpt><trkpt lat="37.031582935488345" lon="139.37732028980443"><ele>1381.9486215813085</ele><time>2022-09-10T05:32:29Z</time></trkpt><trkpt lat="37.031515326424625" lon="139.37754343771303"><ele>1375.0759658990428</ele><time>2022-09-10T05:32:59Z</time></trkpt><trkpt lat="37.0314236446081" lon="139.37773987700746"><ele>1368.7533497465774</ele><time>2022-09-10T05:33:19Z</time></trkpt><trkpt lat="37.03125283911355" lon="139.3778228811786"><ele>1363.0307754389942</ele><time>2022-09-10T05:34:57Z</time></trkpt><trkpt lat="37.031110460777526" lon="139.37796080476593"><ele>1360.1718803774565</ele><time>2022-09-10T05:35:18Z</time></trkpt><trkpt lat="37.03099118740288" lon="139.37813950070398"><ele>1354.5899768555537</ele><time>2022-09-10T05:35:36Z</time></trkpt><trkpt lat="37.030862279992725" lon="139.37829752746535"><ele>1348.2816955605522</ele><time>2022-09-10T05:35:52Z</time></trkpt><trkpt lat="37.030910054410725" lon="139.37852279894972"><ele>1341.0127892047167</ele><time>2022-09-10T05:36:16Z</time></trkpt><trkpt lat="37.03105566874791" lon="139.3786554411426"><ele>1333.8426760518923</ele><time>2022-09-10T05:36:55Z</time></trkpt><trkpt lat="37.031010700822755" lon="139.37887788486523"><ele>1325.4081843504682</ele><time>2022-09-10T05:37:40Z</time></trkpt><trkpt lat="37.03103684149574" lon="139.37910313989977"><ele>1318.090199493803</ele><time>2022-09-10T05:38:23Z</time></trkpt><trkpt lat="37.030926697476225" lon="139.37928465514977"><ele>1304.3066826565191</ele><time>2022-09-10T05:39:14Z</time></trkpt><trkpt lat="37.0310734801167" lon="139.37941602150906"><ele>1302.8609755123034</ele><time>2022-09-10T05:39:31Z</time></trkpt><trkpt lat="37.031096951926955" lon="139.379644301078"><ele>1294.9242827175185</ele><time>2022-09-10T05:40:14Z</time></trkpt><trkpt lat="37.03110258692098" lon="139.37987619658176"><ele>1282.8909056130797</ele><time>2022-09-10T05:40:48Z</time></trkpt><trkpt lat="37.03108129250408" lon="139.38011336749219"><ele>1272.0634512156248</ele><time>2022-09-10T05:41:17Z</time></trkpt><trkpt lat="37.031076806601796" lon="139.38033936341984"><ele>1265.43327033706</ele><time>2022-09-10T05:41:44Z</time></trkpt><trkpt lat="37.03093787464528" lon="139.38019151923035"><ele>1265.644156606868</ele><time>2022-09-10T05:42:21Z</time></trkpt><trkpt lat="37.03088866577909" lon="139.38041172735146"><ele>1255.948404153809</ele><time>2022-09-10T05:42:49Z</time></trkpt><trkpt lat="37.03085207105671" lon="139.38063807029374"><ele>1241.4296593898907</ele><time>2022-09-10T05:43:55Z</time></trkpt><trkpt lat="37.030845048949345" lon="139.3808665350301"><ele>1232.7621223125607</ele><time>2022-09-10T05:44:35Z</time></trkpt><trkpt lat="37.03089150050487" lon="139.38109254436785"><ele>1226.1465281192213</ele><time>2022-09-10T05:45:07Z</time></trkpt><trkpt lat="37.03085613001292" lon="139.38133009603635"><ele>1217.7033499022946</ele><time>2022-09-10T05:45:57Z</time></trkpt><trkpt lat="37.03082402397211" lon="139.3815669582724"><ele>1207.1959629403427</ele><time>2022-09-10T05:46:55Z</time></trkpt><trkpt lat="37.0307542078176" lon="139.38177551638518"><ele>1194.7684390926734</ele><time>2022-09-10T05:48:07Z</time></trkpt><trkpt lat="37.0306810568943" lon="139.38198102164216"><ele>1185.6164596872404</ele><time>2022-09-10T05:48:55Z</time></trkpt><trkpt lat="37.03059802723938" lon="139.3821843746691"><ele>1175.7043165666983</ele><time>2022-09-10T05:49:56Z</time></trkpt><trkpt lat="37.030545425565116" lon="139.38241259136188"><ele>1165.7465053247288</ele><time>2022-09-10T05:50:48Z</time></trkpt><trkpt lat="37.030449645630014" lon="139.38260806539174"><ele>1155.934939536266</ele><time>2022-09-10T05:51:41Z</time></trkpt><trkpt lat="37.03042924931308" lon="139.38283142506344"><ele>1148.0724286809564</ele><time>2022-09-10T05:52:13Z</time></trkpt><trkpt lat="37.0302663330562" lon="139.382709192748"><ele>1143.7744687376544</ele><time>2022-09-10T05:53:28Z</time></trkpt><trkpt lat="37.030149844439734" lon="139.38288640210322"><ele>1134.7607414470986</ele><time>2022-09-10T05:54:11Z</time></trkpt><trkpt lat="37.03011893520313" lon="139.3831144965952"><ele>1125.5336548397318</ele><time>2022-09-10T05:54:50Z</time></trkpt><trkpt lat="37.02999445499502" lon="139.3832770384276"><ele>1111.181442453526</ele><time>2022-09-10T05:55:51Z</time></trkpt><trkpt lat="37.02992103257205" lon="139.38348608868833"><ele>1106.3723559509963</ele><time>2022-09-10T05:56:31Z</time></trkpt><trkpt lat="37.02978101306072" lon="139.3836294534043"><ele>1096.8975147334859</ele><time>2022-09-10T05:57:23Z</time></trkpt><trkpt lat="37.02983776164327" lon="139.3834032313303"><ele>1094.3001007083803</ele><time>2022-09-10T05:58:23Z</time></trkpt><trkpt lat="37.02983690271345" lon="139.38316526366373"><ele>1098.3400465743616</ele><time>2022-09-10T05:58:40Z</time></trkpt><trkpt lat="37.02984884809924" lon="139.38293818366603"><ele>1100.2442931318656</ele><time>2022-09-10T05:58:56Z</time></trkpt><trkpt lat="37.02981745704222" lon="139.38271378617569"><ele>1101.1157337613404</ele><time>2022-09-10T05:59:12Z</time></trkpt><trkpt lat="37.02978075037721" lon="139.3824905110052"><ele>1099.0537860477343</ele><time>2022-09-10T05:59:29Z</time></trkpt><trkpt lat="37.0296484426233" lon="139.38264999881446"><ele>1092.732705249451</ele><time>2022-09-10T06:00:10Z</time></trkpt><trkpt lat="37.029690636570884" lon="139.38287475341886"><ele>1088.228711269796</ele><time>2022-09-10T06:00:26Z</time></trkpt><trkpt lat="37.02968100650608" lon="139.38310522681877"><ele>1088.0119385514408</ele><time>2022-09-10T06:00:39Z</time></trkpt><trkpt lat="37.029616969030634" lon="139.38331541855464"><ele>1086.9260383863002</ele><time>2022-09-10T06:00:55Z</time></trkpt><trkpt lat="37.02956104052734" lon="139.38353521581118"><ele>1083.5505801578984</ele><time>2022-09-10T06:01:08Z</time></trkpt><trkpt lat="37.02944381705233" lon="139.3837107189318"><ele>1082.9430102985352</ele><time>2022-09-10T06:01:19Z</time></trkpt><trkpt lat="37.029349080230304" lon="139.38391396720965"><ele>1080.1445516338572</ele><time>2022-09-10T06:01:32Z</time></trkpt><trkpt lat="37.02931254281759" lon="139.38413777105748"><ele>1076.8631365336478</ele><time>2022-09-10T06:01:46Z</time></trkpt><trkpt lat="37.02938539298463" lon="139.38436072520204"><ele>1074.1719531081617</ele><time>2022-09-10T06:01:59Z</time></trkpt><trkpt lat="37.029568473897584" lon="139.38439889013694"><ele>1072.5066477069631</ele><time>2022-09-10T06:02:13Z</time></trkpt><trkpt lat="37.029711926453416" lon="139.384259138284"><ele>1071.9611148023978</ele><time>2022-09-10T06:02:26Z</time></trkpt><trkpt lat="37.02987705780956" lon="139.3841550515286"><ele>1069.605157598853</ele><time>2022-09-10T06:02:39Z</time></trkpt><trkpt lat="37.03006919916398" lon="139.38415663904274"><ele>1071.0054279165342</ele><time>2022-09-10T06:02:54Z</time></trkpt><trkpt lat="37.03024989780068" lon="139.38421442658804"><ele>1071.1265718797222</ele><time>2022-09-10T06:03:06Z</time></trkpt><trkpt lat="37.03043626742962" lon="139.3842393464884"><ele>1070.9861894603819</ele><time>2022-09-10T06:03:19Z</time></trkpt><trkpt lat="37.030617258107746" lon="139.38429008700047"><ele>1068.3440123945475</ele><time>2022-09-10T06:03:34Z</time></trkpt><trkpt lat="37.03080426064578" lon="139.38431331646885"><ele>1063.5104500036687</ele><time>2022-09-10T06:03:50Z</time></trkpt><trkpt lat="37.030930774293864" lon="139.38414761262675"><ele>1061.5223738923669</ele><time>2022-09-10T06:04:04Z</time></trkpt><trkpt lat="37.03108120282275" lon="139.38400547545723"><ele>1064.0310729891062</ele><time>2022-09-10T06:04:18Z</time></trkpt><trkpt lat="37.03125404534664" lon="139.3839308637064"><ele>1066.252640467137</ele><time>2022-09-10T06:04:30Z</time></trkpt><trkpt lat="37.03144284969564" lon="139.3839168342239"><ele>1064.2167933657765</ele><time>2022-09-10T06:04:43Z</time></trkpt><trkpt lat="37.03162786514345" lon="139.38391178975675"><ele>1061.9276424618438</ele><time>2022-09-10T06:04:59Z</time></trkpt><trkpt lat="37.03181784087074" lon="139.38391866544612"><ele>1060.453553814441</ele><time>2022-09-10T06:05:10Z</time></trkpt><trkpt lat="37.031999100453795" lon="139.38394133030948"><ele>1056.546406042762</ele><time>2022-09-10T06:05:28Z</time></trkpt><trkpt lat="37.031928403806376" lon="139.38415780292297"><ele>1049.5023210560903</ele><time>2022-09-10T06:05:42Z</time></trkpt><trkpt lat="37.0317473711452" lon="139.38411025760595"><ele>1046.3385411966592</ele><time>2022-09-10T06:05:56Z</time></trkpt><trkpt lat="37.0315569877261" lon="139.38408306667966"><ele>1046.3318557078019</ele><time>2022-09-10T06:06:09Z</time></trkpt><trkpt lat="37.03137983335631" lon="139.38413041059025"><ele>1045.5038106078282</ele><time>2022-09-10T06:06:20Z</time></trkpt><trkpt lat="37.031326849495855" lon="139.38436065387302"><ele>1044.1932497192174</ele><time>2022-09-10T06:06:33Z</time></trkpt><trkpt lat="37.031508398598795" lon="139.38437585347765"><ele>1040.8081494281068</ele><time>2022-09-10T06:06:46Z</time></trkpt><trkpt lat="37.03167934007632" lon="139.38446543011156"><ele>1039.9592080144212</ele><time>2022-09-10T06:07:01Z</time></trkpt><trkpt lat="37.03151962116587" lon="139.38457474810363"><ele>1036.8155319932848</ele><time>2022-09-10T06:07:12Z</time></trkpt><trkpt lat="37.0313207117147" lon="139.38458213356265"><ele>1033.1636208193377</ele><time>2022-09-10T06:07:27Z</time></trkpt><trkpt lat="37.03113182056224" lon="139.38463532707667"><ele>1031.8665203461424</ele><time>2022-09-10T06:07:40Z</time></trkpt><trkpt lat="37.030965060525766" lon="139.38472057643426"><ele>1031.014841339551</ele><time>2022-09-10T06:07:54Z</time></trkpt><trkpt lat="37.03080774909656" lon="139.38483273998622"><ele>1029.3559006676078</ele><time>2022-09-10T06:08:06Z</time></trkpt><trkpt lat="37.03063236056907" lon="139.38495092829518"><ele>1028.9044076828286</ele><time>2022-09-10T06:08:21Z</time></trkpt><trkpt lat="37.030454219478344" lon="139.38501496782183"><ele>1027.3120605628937</ele><time>2022-09-10T06:08:36Z</time></trkpt></trkseg></trk></gpx>