<?xml version='1.0' encoding='UTF-8'?><gpx creator="YAMAP - https://yamap.com" xsi:schemaLocation="http://www.topografix.com/GPX/1/1 http://www.topografix.com/GPX/1/1/gpx.xsd" version="1.1" xmlns="http://www.topografix.com/GPX/1/1" xmlns:xsi="http://www.w3.org/2001/XMLSchema-instance"><metadata><bounds maxlat="43.77450764521133" maxlon="144.71933671233091" minlat="43.75591452321788" minlon="144.68523807100522"/></metadata><trk><name>斜里岳</name><number>1</number><trkseg><trkpt lat="43.77450764521133" lon="144.68607809571822"><ele>684.8328516380861</ele><time>2022-08-22T23:25:00Z</time></trkpt><trkpt lat="43.774381875720515" lon="144.68625855536408"><ele>683.3905767733231</ele><time>2022-08-22T23:25:13Z</time></trkpt><trkpt lat="43.77434593730548" lon="144.68632480696655"><ele>685.8694500504062</ele><time>2022-08-22T23:27:38Z</time></trkpt><trkpt lat="43.7742356773123" lon="144.68612040284154"><ele>689.7614098899066</ele><time>2022-08-22T23:27:57Z</time></trkpt><trkpt lat="43.774153765832715" lon="144.6858872358086"><ele>688.0987757472321</ele><time>2022-08-22T23:28:15Z</time></trkpt><trkpt lat="43.774029174514745" lon="144.68570409629643"><ele>689.9163362858817</ele><time>2022-08-22T23:28:30Z</time></trkpt><trkpt lat="43.773913520295345" lon="144.685510545095"><ele>691.3469682512805</ele><time>2022-08-22T23:28:55Z</time></trkpt><trkpt lat="43.77378954975084" lon="144.68532558399966"><ele>690.8498643515632</ele><time>2022-08-22T23:29:08Z</time></trkpt><trkpt lat="43.77361009442585" lon="144.68523807100522"><ele>688.2643248112872</ele><time>2022-08-22T23:29:24Z</time></trkpt><trkpt lat="43.77343358881676" lon="144.68534611152398"><ele>683.2299118582159</ele><time>2022-08-22T23:29:42Z</time></trkpt><trkpt lat="43.773266245886184" lon="144.68544669285788"><ele>682.0022140238434</ele><time>2022-08-22T23:29:57Z</time></trkpt><trkpt lat="43.77310554647203" lon="144.68556578572765"><ele>677.5671516135335</ele><time>2022-08-22T23:30:14Z</time></trkpt><trkpt lat="43.7729696922357" lon="144.68574140266855"><ele>678.2425211407244</ele><time>2022-08-22T23:30:31Z</time></trkpt><trkpt lat="43.77279960466434" lon="144.68584104292316"><ele>679.7433041613549</ele><time>2022-08-22T23:30:45Z</time></trkpt><trkpt lat="43.77265455632633" lon="144.68600396291947"><ele>677.3051911229268</ele><time>2022-08-22T23:31:00Z</time></trkpt><trkpt lat="43.7724656466269" lon="144.68602853453197"><ele>676.6929988982156</ele><time>2022-08-22T23:31:25Z</time></trkpt><trkpt lat="43.77230653970635" lon="144.68614473894226"><ele>674.5002424130216</ele><time>2022-08-22T23:31:40Z</time></trkpt><trkpt lat="43.77212633206627" lon="144.68619594968234"><ele>670.1600153585896</ele><time>2022-08-22T23:31:54Z</time></trkpt><trkpt lat="43.771946860187604" lon="144.68626885394193"><ele>670.8720688577741</ele><time>2022-08-22T23:32:07Z</time></trkpt><trkpt lat="43.771762003930306" lon="144.68632200565514"><ele>669.4307193839923</ele><time>2022-08-22T23:32:20Z</time></trkpt><trkpt lat="43.771582326006474" lon="144.6864250763338"><ele>669.6500024246052</ele><time>2022-08-22T23:32:33Z</time></trkpt><trkpt lat="43.77141880116977" lon="144.68655129778523"><ele>667.637525879778</ele><time>2022-08-22T23:32:47Z</time></trkpt><trkpt lat="43.77128565165895" lon="144.68672082599372"><ele>668.3667314099148</ele><time>2022-08-22T23:32:59Z</time></trkpt><trkpt lat="43.77112526373149" lon="144.68687828556216"><ele>672.1770492019132</ele><time>2022-08-22T23:33:16Z</time></trkpt><trkpt lat="43.77098705797508" lon="144.6870432560953"><ele>673.6304841851816</ele><time>2022-08-22T23:33:29Z</time></trkpt><trkpt lat="43.77085102939795" lon="144.68721414316389"><ele>672.9516143035144</ele><time>2022-08-22T23:33:43Z</time></trkpt><trkpt lat="43.770694734173084" lon="144.68735899843213"><ele>674.6279344279319</ele><time>2022-08-22T23:33:57Z</time></trkpt><trkpt lat="43.7705192547785" lon="144.68742481120023"><ele>675.385425131768</ele><time>2022-08-22T23:34:12Z</time></trkpt><trkpt lat="43.770339583487804" lon="144.68748533463247"><ele>676.9295046562329</ele><time>2022-08-22T23:34:26Z</time></trkpt><trkpt lat="43.77015798771079" lon="144.68754843898984"><ele>677.3905988316983</ele><time>2022-08-22T23:34:39Z</time></trkpt><trkpt lat="43.76998035229178" lon="144.68761132017588"><ele>677.5102425236255</ele><time>2022-08-22T23:34:53Z</time></trkpt><trkpt lat="43.76980695393903" lon="144.68771389604396"><ele>674.4594633877277</ele><time>2022-08-22T23:35:07Z</time></trkpt><trkpt lat="43.76963430043457" lon="144.6877968578996"><ele>675.5029088212177</ele><time>2022-08-22T23:35:20Z</time></trkpt><trkpt lat="43.769464318807074" lon="144.68790641674087"><ele>674.8757068598643</ele><time>2022-08-22T23:35:34Z</time></trkpt><trkpt lat="43.769289027817514" lon="144.687991175523"><ele>675.5826246859506</ele><time>2022-08-22T23:35:46Z</time></trkpt><trkpt lat="43.769115998394106" lon="144.68806707446757"><ele>676.3519470086321</ele><time>2022-08-22T23:35:58Z</time></trkpt><trkpt lat="43.76894756780338" lon="144.68817510216138"><ele>674.870490450412</ele><time>2022-08-22T23:36:13Z</time></trkpt><trkpt lat="43.76879338624621" lon="144.68833834936595"><ele>673.2101576495916</ele><time>2022-08-22T23:36:27Z</time></trkpt><trkpt lat="43.76862424972097" lon="144.68845047895383"><ele>677.7241485174745</ele><time>2022-08-22T23:36:40Z</time></trkpt><trkpt lat="43.76849992293386" lon="144.68863553254386"><ele>674.4267064081505</ele><time>2022-08-22T23:36:53Z</time></trkpt><trkpt lat="43.76832579045846" lon="144.68875084529225"><ele>673.5370571603999</ele><time>2022-08-22T23:37:06Z</time></trkpt><trkpt lat="43.76814949372096" lon="144.68882520944538"><ele>672.7826908230782</ele><time>2022-08-22T23:37:22Z</time></trkpt><trkpt lat="43.7679765770554" lon="144.68894382023194"><ele>672.7698948923498</ele><time>2022-08-22T23:37:37Z</time></trkpt><trkpt lat="43.76780877243331" lon="144.68905161292264"><ele>671.5392421260476</ele><time>2022-08-22T23:37:51Z</time></trkpt><trkpt lat="43.76764585597136" lon="144.68917731050672"><ele>673.4251940911636</ele><time>2022-08-22T23:38:03Z</time></trkpt><trkpt lat="43.767503194086316" lon="144.68935949499675"><ele>670.2726101549342</ele><time>2022-08-22T23:38:18Z</time></trkpt><trkpt lat="43.76736069494999" lon="144.68952417252694"><ele>669.1480647632852</ele><time>2022-08-22T23:38:32Z</time></trkpt><trkpt lat="43.767227038963085" lon="144.68970940392"><ele>671.5678370688111</ele><time>2022-08-22T23:38:46Z</time></trkpt><trkpt lat="43.76715334668362" lon="144.6899500038554"><ele>673.0207537524402</ele><time>2022-08-22T23:39:06Z</time></trkpt><trkpt lat="43.76701282562286" lon="144.6901322998736"><ele>677.7385985953733</ele><time>2022-08-22T23:39:32Z</time></trkpt><trkpt lat="43.76697878102777" lon="144.6903879687633"><ele>681.9458009079099</ele><time>2022-08-22T23:39:54Z</time></trkpt><trkpt lat="43.76693656069829" lon="144.6906484613718"><ele>685.6385561050847</ele><time>2022-08-22T23:40:31Z</time></trkpt><trkpt lat="43.76696054649157" lon="144.69090608966192"><ele>683.7989280857146</ele><time>2022-08-22T23:40:51Z</time></trkpt><trkpt lat="43.76694221034891" lon="144.6911650515955"><ele>687.5329527296126</ele><time>2022-08-22T23:41:08Z</time></trkpt><trkpt lat="43.76697881374043" lon="144.69141019871518"><ele>689.2621409362182</ele><time>2022-08-22T23:41:27Z</time></trkpt><trkpt lat="43.767018858888974" lon="144.69166229644753"><ele>694.7537532187998</ele><time>2022-08-22T23:41:51Z</time></trkpt><trkpt lat="43.76706224968109" lon="144.69190521777713"><ele>693.9330774210393</ele><time>2022-08-22T23:42:07Z</time></trkpt><trkpt lat="43.76706657414659" lon="144.6921563488337"><ele>702.8012736625969</ele><time>2022-08-22T23:42:25Z</time></trkpt><trkpt lat="43.767033807597706" lon="144.692408830136"><ele>703.6867984198034</ele><time>2022-08-22T23:42:44Z</time></trkpt><trkpt lat="43.766959589117" lon="144.69264670996472"><ele>707.276514380239</ele><time>2022-08-22T23:43:07Z</time></trkpt><trkpt lat="43.76689158773407" lon="144.69288296017592"><ele>709.9711144687608</ele><time>2022-08-22T23:43:25Z</time></trkpt><trkpt lat="43.766715312599466" lon="144.69298281516134"><ele>708.9987485697493</ele><time>2022-08-22T23:43:49Z</time></trkpt><trkpt lat="43.76660184414907" lon="144.69318302806425"><ele>706.1939452672377</ele><time>2022-08-22T23:46:22Z</time></trkpt><trkpt lat="43.76647542981797" lon="144.6933801927432"><ele>713.714143935591</ele><time>2022-08-22T23:46:43Z</time></trkpt><trkpt lat="43.76634633021241" lon="144.69355921236485"><ele>712.8610073961318</ele><time>2022-08-22T23:47:06Z</time></trkpt><trkpt lat="43.76622261451291" lon="144.69374640592875"><ele>716.920205113478</ele><time>2022-08-22T23:47:25Z</time></trkpt><trkpt lat="43.76614179840663" lon="144.6939797879371"><ele>720.2773463781923</ele><time>2022-08-22T23:47:52Z</time></trkpt><trkpt lat="43.76602433484842" lon="144.69417119205505"><ele>718.2320436211303</ele><time>2022-08-22T23:49:08Z</time></trkpt><trkpt lat="43.765877043204796" lon="144.69431576915136"><ele>720.0981529522687</ele><time>2022-08-22T23:50:49Z</time></trkpt><trkpt lat="43.76575609042595" lon="144.6945091473615"><ele>721.7670778892934</ele><time>2022-08-22T23:51:33Z</time></trkpt><trkpt lat="43.76581169180089" lon="144.69475560277283"><ele>726.2925939010456</ele><time>2022-08-22T23:51:51Z</time></trkpt><trkpt lat="43.76570741309711" lon="144.69496051277653"><ele>727.950246764347</ele><time>2022-08-22T23:52:20Z</time></trkpt><trkpt lat="43.76553114032216" lon="144.69501928499287"><ele>730.8930707667023</ele><time>2022-08-22T23:53:24Z</time></trkpt><trkpt lat="43.765358974303325" lon="144.69510589968738"><ele>734.052717288956</ele><time>2022-08-22T23:54:06Z</time></trkpt><trkpt lat="43.76518043354613" lon="144.6951402755253"><ele>740.1831311136484</ele><time>2022-08-22T23:55:06Z</time></trkpt><trkpt lat="43.765005803728144" lon="144.69521408491224"><ele>734.8352986071259</ele><time>2022-08-22T23:55:57Z</time></trkpt><trkpt lat="43.764875550011894" lon="144.69539261815424"><ele>741.6876246472821</ele><time>2022-08-22T23:56:26Z</time></trkpt><trkpt lat="43.76479370609603" lon="144.6956314015729"><ele>742.299533970654</ele><time>2022-08-22T23:56:50Z</time></trkpt><trkpt lat="43.76469595673607" lon="144.6958429222574"><ele>741.8419978721067</ele><time>2022-08-22T23:57:38Z</time></trkpt><trkpt lat="43.7645972272867" lon="144.69605930812943"><ele>748.2442931383848</ele><time>2022-08-22T23:58:54Z</time></trkpt><trkpt lat="43.764440055605036" lon="144.6961874888969"><ele>751.8161903722212</ele><time>2022-08-22T23:59:16Z</time></trkpt><trkpt lat="43.764268790664346" lon="144.6962703116449"><ele>754.8823646055534</ele><time>2022-08-23T00:00:02Z</time></trkpt><trkpt lat="43.76414533552652" lon="144.69646094228526"><ele>753.0433648684993</ele><time>2022-08-23T00:00:24Z</time></trkpt><trkpt lat="43.76401337436367" lon="144.6966315153024"><ele>758.7141139227897</ele><time>2022-08-23T00:01:10Z</time></trkpt><trkpt lat="43.76395391306472" lon="144.69686903996066"><ele>760.4408945068717</ele><time>2022-08-23T00:01:59Z</time></trkpt><trkpt lat="43.76389590984797" lon="144.69710535979405"><ele>762.5241112755612</ele><time>2022-08-23T00:03:41Z</time></trkpt><trkpt lat="43.76389056750058" lon="144.69736161518307"><ele>769.2548830378801</ele><time>2022-08-23T00:06:38Z</time></trkpt><trkpt lat="43.76387656886507" lon="144.69761166020558"><ele>771.050698267296</ele><time>2022-08-23T00:07:23Z</time></trkpt><trkpt lat="43.76381561660764" lon="144.69785088793282"><ele>773.1103513585404</ele><time>2022-08-23T00:08:14Z</time></trkpt><trkpt lat="43.76374739881842" lon="144.69808071138507"><ele>780.3176995925605</ele><time>2022-08-23T00:08:54Z</time></trkpt><trkpt lat="43.76377087542357" lon="144.69832807640748"><ele>780.9387164600194</ele><time>2022-08-23T00:09:45Z</time></trkpt><trkpt lat="43.763661033236566" lon="144.6985284722927"><ele>785.5506288986653</ele><time>2022-08-23T00:10:28Z</time></trkpt><trkpt lat="43.763545700097474" lon="144.69872461614844"><ele>790.4499693540856</ele><time>2022-08-23T00:11:07Z</time></trkpt><trkpt lat="43.763460856540235" lon="144.69895349065789"><ele>791.1071797488257</ele><time>2022-08-23T00:11:29Z</time></trkpt><trkpt lat="43.76339583920761" lon="144.6991940010023"><ele>798.5025067785755</ele><time>2022-08-23T00:11:56Z</time></trkpt><trkpt lat="43.76329152908862" lon="144.6994066449334"><ele>797.7752916319296</ele><time>2022-08-23T00:12:21Z</time></trkpt><trkpt lat="43.76317545112343" lon="144.69960852261093"><ele>801.1027305405587</ele><time>2022-08-23T00:12:58Z</time></trkpt><trkpt lat="43.763092330582666" lon="144.69983364487015"><ele>806.4199841348454</ele><time>2022-08-23T00:13:29Z</time></trkpt><trkpt lat="43.7629762362673" lon="144.70002681360492"><ele>807.5721311820671</ele><time>2022-08-23T00:16:42Z</time></trkpt><trkpt lat="43.76281854556333" lon="144.70014676535558"><ele>815.1912335176021</ele><time>2022-08-23T00:17:20Z</time></trkpt><trkpt lat="43.76267559683022" lon="144.7002978125982"><ele>815.9222783949226</ele><time>2022-08-23T00:17:49Z</time></trkpt><trkpt lat="43.76250341304378" lon="144.7003799067128"><ele>825.7054731436074</ele><time>2022-08-23T00:18:33Z</time></trkpt><trkpt lat="43.76237588811404" lon="144.70057095763744"><ele>827.5054070828483</ele><time>2022-08-23T00:19:32Z</time></trkpt><trkpt lat="43.76225786302872" lon="144.70076555799994"><ele>837.582115214318</ele><time>2022-08-23T00:20:38Z</time></trkpt><trkpt lat="43.762181908064655" lon="144.7009949016732"><ele>844.5479872487485</ele><time>2022-08-23T00:21:31Z</time></trkpt><trkpt lat="43.762053761661555" lon="144.7011733191407"><ele>850.2535885833204</ele><time>2022-08-23T00:22:19Z</time></trkpt><trkpt lat="43.76189113295425" lon="144.7012850232767"><ele>857.3552595609799</ele><time>2022-08-23T00:23:00Z</time></trkpt><trkpt lat="43.76176015821877" lon="144.70147010460926"><ele>861.3811123510823</ele><time>2022-08-23T00:23:35Z</time></trkpt><trkpt lat="43.76171689223879" lon="144.7017118206952"><ele>870.1781860860065</ele><time>2022-08-23T00:24:24Z</time></trkpt><trkpt lat="43.76172147130267" lon="144.70196364234357"><ele>881.7744322419167</ele><time>2022-08-23T00:25:55Z</time></trkpt><trkpt lat="43.76167562017898" lon="144.70220519752735"><ele>890.6382128605619</ele><time>2022-08-23T00:26:36Z</time></trkpt><trkpt lat="43.76172950501696" lon="144.70244336491345"><ele>894.3015149794519</ele><time>2022-08-23T00:27:15Z</time></trkpt><trkpt lat="43.7616875233417" lon="144.70268766075426"><ele>894.1787493564188</ele><time>2022-08-23T00:28:22Z</time></trkpt><trkpt lat="43.76175581503518" lon="144.7029271337969"><ele>903.6462877746671</ele><time>2022-08-23T00:29:14Z</time></trkpt><trkpt lat="43.76166170114297" lon="144.70314138004915"><ele>909.4720397004858</ele><time>2022-08-23T00:30:36Z</time></trkpt><trkpt lat="43.761631888341405" lon="144.70338958220296"><ele>913.4458401696756</ele><time>2022-08-23T00:31:10Z</time></trkpt><trkpt lat="43.7614875091127" lon="144.70355132538998"><ele>911.3650802653283</ele><time>2022-08-23T00:31:49Z</time></trkpt><trkpt lat="43.76138893258025" lon="144.70376812929487"><ele>913.3020453592762</ele><time>2022-08-23T00:34:52Z</time></trkpt><trkpt lat="43.76135951895118" lon="144.70401406852613"><ele>915.5418191468343</ele><time>2022-08-23T00:35:39Z</time></trkpt><trkpt lat="43.7613678588749" lon="144.7042639633746"><ele>918.9117422988638</ele><time>2022-08-23T00:36:26Z</time></trkpt><trkpt lat="43.761231213426164" lon="144.70443469623117"><ele>926.677994181402</ele><time>2022-08-23T00:39:53Z</time></trkpt><trkpt lat="43.76117796320136" lon="144.7046803096913"><ele>926.3144070375711</ele><time>2022-08-23T00:40:44Z</time></trkpt><trkpt lat="43.76119291409752" lon="144.70468034998018"><ele>926.9636547407135</ele><time>2022-08-23T00:47:59Z</time></trkpt><trkpt lat="43.76118349672889" lon="144.70493187224935"><ele>939.4195474162698</ele><time>2022-08-23T00:50:30Z</time></trkpt><trkpt lat="43.7610930008965" lon="144.7051507571195"><ele>945.0567068150267</ele><time>2022-08-23T00:51:25Z</time></trkpt><trkpt lat="43.7610030649683" lon="144.70537142591002"><ele>951.4650142751634</ele><time>2022-08-23T00:55:57Z</time></trkpt><trkpt lat="43.760854171106686" lon="144.70553548776715"><ele>958.5536935823038</ele><time>2022-08-23T00:58:07Z</time></trkpt><trkpt lat="43.7607417186744" lon="144.7057367332405"><ele>973.0375140812248</ele><time>2022-08-23T01:01:20Z</time></trkpt><trkpt lat="43.76072198397853" lon="144.70599032414643"><ele>983.2733650514856</ele><time>2022-08-23T01:02:01Z</time></trkpt><trkpt lat="43.76070344578297" lon="144.70628014052082"><ele>1002.8742427835241</ele><time>2022-08-23T01:04:39Z</time></trkpt><trkpt lat="43.76067123270485" lon="144.70653282019023"><ele>1002.7471118466929</ele><time>2022-08-23T01:05:45Z</time></trkpt><trkpt lat="43.76050727247293" lon="144.70642798202599"><ele>1002.2889440078288</ele><time>2022-08-23T01:06:34Z</time></trkpt><trkpt lat="43.76035292628638" lon="144.70656840223157"><ele>1002.2019083891064</ele><time>2022-08-23T01:07:34Z</time></trkpt><trkpt lat="43.76021819829362" lon="144.70673773199144"><ele>1005.9376353658736</ele><time>2022-08-23T01:08:54Z</time></trkpt><trkpt lat="43.760105016622724" lon="144.70693975705152"><ele>1018.8272757390514</ele><time>2022-08-23T01:09:52Z</time></trkpt><trkpt lat="43.7599198412297" lon="144.7069566461652"><ele>1023.4008826417848</ele><time>2022-08-23T01:20:28Z</time></trkpt><trkpt lat="43.75978179889491" lon="144.707122969543"><ele>1035.072905415669</ele><time>2022-08-23T01:21:35Z</time></trkpt><trkpt lat="43.7597139476888" lon="144.70735509117122"><ele>1041.6114554135129</ele><time>2022-08-23T01:22:58Z</time></trkpt><trkpt lat="43.75964366712785" lon="144.70759001256616"><ele>1045.04055913724</ele><time>2022-08-23T01:24:21Z</time></trkpt><trkpt lat="43.75951003320559" lon="144.7077606348077"><ele>1044.3327396037057</ele><time>2022-08-23T01:25:12Z</time></trkpt><trkpt lat="43.759355654473076" lon="144.707899973264"><ele>1055.520932437852</ele><time>2022-08-23T01:26:12Z</time></trkpt><trkpt lat="43.75925383330295" lon="144.7081142165844"><ele>1062.1523749679327</ele><time>2022-08-23T01:27:25Z</time></trkpt><trkpt lat="43.75930770337387" lon="144.70836336338232"><ele>1079.1126278024167</ele><time>2022-08-23T01:28:33Z</time></trkpt><trkpt lat="43.75916150147732" lon="144.70851436950886"><ele>1073.9897552123293</ele><time>2022-08-23T01:30:47Z</time></trkpt><trkpt lat="43.75915250693925" lon="144.708768948829"><ele>1080.4593800846487</ele><time>2022-08-23T01:31:55Z</time></trkpt><trkpt lat="43.75920107421888" lon="144.7090242757256"><ele>1088.5749296871945</ele><time>2022-08-23T01:33:11Z</time></trkpt><trkpt lat="43.75915516052193" lon="144.70926530352176"><ele>1088.9989507645369</ele><time>2022-08-23T01:34:38Z</time></trkpt><trkpt lat="43.75923949197314" lon="144.70948587434302"><ele>1098.1763581978157</ele><time>2022-08-23T01:36:12Z</time></trkpt><trkpt lat="43.75920109002493" lon="144.7097345065872"><ele>1112.8835130212829</ele><time>2022-08-23T01:39:32Z</time></trkpt><trkpt lat="43.75923703181309" lon="144.70997886082952"><ele>1119.7056246297434</ele><time>2022-08-23T01:41:32Z</time></trkpt><trkpt lat="43.75921925137486" lon="144.71024326422008"><ele>1120.7854226855561</ele><time>2022-08-23T01:42:43Z</time></trkpt><trkpt lat="43.75926287096603" lon="144.71048977842437"><ele>1131.5857345256954</ele><time>2022-08-23T01:45:04Z</time></trkpt><trkpt lat="43.75927635580526" lon="144.71074287523103"><ele>1144.823581549339</ele><time>2022-08-23T01:46:44Z</time></trkpt><trkpt lat="43.75927944672087" lon="144.7109970537903"><ele>1150.6078005824238</ele><time>2022-08-23T01:48:06Z</time></trkpt><trkpt lat="43.759315792760134" lon="144.71124189038193"><ele>1153.5048410687596</ele><time>2022-08-23T01:48:49Z</time></trkpt><trkpt lat="43.75933156858836" lon="144.711492348842"><ele>1162.6831047823653</ele><time>2022-08-23T01:49:26Z</time></trkpt><trkpt lat="43.75930881356754" lon="144.7117457433384"><ele>1168.0637678252533</ele><time>2022-08-23T01:49:58Z</time></trkpt><trkpt lat="43.759214439323" lon="144.71197589083042"><ele>1176.6772761503235</ele><time>2022-08-23T01:50:45Z</time></trkpt><trkpt lat="43.75914573781356" lon="144.71221114643953"><ele>1176.5659984340891</ele><time>2022-08-23T01:51:16Z</time></trkpt><trkpt lat="43.759159274875614" lon="144.71246424984196"><ele>1178.431369648315</ele><time>2022-08-23T01:51:48Z</time></trkpt><trkpt lat="43.75923485440957" lon="144.71269620924457"><ele>1185.6523669352755</ele><time>2022-08-23T01:52:28Z</time></trkpt><trkpt lat="43.75925497652632" lon="144.7129476829022"><ele>1185.0142598636448</ele><time>2022-08-23T01:53:11Z</time></trkpt><trkpt lat="43.75923937643011" lon="144.713197482457"><ele>1190.767294130288</ele><time>2022-08-23T01:53:50Z</time></trkpt><trkpt lat="43.75935378319786" lon="144.7133956490098"><ele>1198.5463902978227</ele><time>2022-08-23T01:54:18Z</time></trkpt><trkpt lat="43.75949758370377" lon="144.71354783778438"><ele>1196.3144437540323</ele><time>2022-08-23T01:55:29Z</time></trkpt><trkpt lat="43.75964231531596" lon="144.71369839473414"><ele>1207.0270293951035</ele><time>2022-08-23T01:55:59Z</time></trkpt><trkpt lat="43.759742927106764" lon="144.71390471318077"><ele>1206.1692411163822</ele><time>2022-08-23T01:56:55Z</time></trkpt><trkpt lat="43.75969881905008" lon="144.7141485355192"><ele>1212.4293801607564</ele><time>2022-08-23T01:57:39Z</time></trkpt><trkpt lat="43.75964907315679" lon="144.7143936240176"><ele>1220.6153999911621</ele><time>2022-08-23T01:58:11Z</time></trkpt><trkpt lat="43.759644176841675" lon="144.71464495861562"><ele>1218.1731889657676</ele><time>2022-08-23T01:58:41Z</time></trkpt><trkpt lat="43.75969801692031" lon="144.71490371301854"><ele>1227.046768112108</ele><time>2022-08-23T01:59:17Z</time></trkpt><trkpt lat="43.75966717482525" lon="144.7151507981776"><ele>1227.7250260971487</ele><time>2022-08-23T01:59:51Z</time></trkpt><trkpt lat="43.75968640814077" lon="144.7154006441415"><ele>1231.1845211740583</ele><time>2022-08-23T02:00:40Z</time></trkpt><trkpt lat="43.759752933655946" lon="144.71563288797108"><ele>1236.0248348759487</ele><time>2022-08-23T02:01:13Z</time></trkpt><trkpt lat="43.75989948370474" lon="144.71580580223758"><ele>1235.6951794559136</ele><time>2022-08-23T02:01:44Z</time></trkpt><trkpt lat="43.75993357099091" lon="144.7160581276751"><ele>1246.7200078014284</ele><time>2022-08-23T02:02:15Z</time></trkpt><trkpt lat="43.7599784725884" lon="144.71630094001216"><ele>1251.5256660552695</ele><time>2022-08-23T02:02:50Z</time></trkpt><trkpt lat="43.76003732474685" lon="144.71654131430182"><ele>1258.7405686657876</ele><time>2022-08-23T02:03:22Z</time></trkpt><trkpt lat="43.76021526094486" lon="144.7166018488759"><ele>1262.413835725747</ele><time>2022-08-23T02:04:02Z</time></trkpt><trkpt lat="43.7603491200238" lon="144.71676901759585"><ele>1273.0921103404835</ele><time>2022-08-23T02:05:17Z</time></trkpt><trkpt lat="43.760468728730295" lon="144.71697050230478"><ele>1282.3572539631277</ele><time>2022-08-23T02:06:14Z</time></trkpt><trkpt lat="43.76064222359072" lon="144.71704912507576"><ele>1292.0532098682597</ele><time>2022-08-23T02:07:03Z</time></trkpt><trkpt lat="43.76078968123483" lon="144.71721260765875"><ele>1296.2766926558688</ele><time>2022-08-23T02:07:51Z</time></trkpt><trkpt lat="43.76087284081886" lon="144.7174546015488"><ele>1305.992101861164</ele><time>2022-08-23T02:08:56Z</time></trkpt><trkpt lat="43.76096202343531" lon="144.71768066887304"><ele>1308.0516104921699</ele><time>2022-08-23T02:09:34Z</time></trkpt><trkpt lat="43.76105483806764" lon="144.7178995884396"><ele>1315.3800178430974</ele><time>2022-08-23T02:10:15Z</time></trkpt><trkpt lat="43.76123440339024" lon="144.71791920402765"><ele>1327.294357742183</ele><time>2022-08-23T02:10:57Z</time></trkpt><trkpt lat="43.76141142037378" lon="144.717973804134"><ele>1325.4643132751808</ele><time>2022-08-23T02:11:35Z</time></trkpt><trkpt lat="43.76159458816788" lon="144.71800044410605"><ele>1335.0459943702444</ele><time>2022-08-23T02:12:18Z</time></trkpt><trkpt lat="43.761731688458084" lon="144.7181624375141"><ele>1343.8389866137877</ele><time>2022-08-23T02:15:13Z</time></trkpt><trkpt lat="43.761850864953566" lon="144.71835091291075"><ele>1349.6135899657384</ele><time>2022-08-23T02:15:47Z</time></trkpt><trkpt lat="43.76198305151024" lon="144.7185257379474"><ele>1359.96568770241</ele><time>2022-08-23T02:16:29Z</time></trkpt><trkpt lat="43.76213379101443" lon="144.71866433946983"><ele>1368.3353065103292</ele><time>2022-08-23T02:17:17Z</time></trkpt><trkpt lat="43.762281207640726" lon="144.71880880993066"><ele>1374.0302904201671</ele><time>2022-08-23T02:18:03Z</time></trkpt><trkpt lat="43.76244394704745" lon="144.71893872391288"><ele>1375.8059877781197</ele><time>2022-08-23T02:18:51Z</time></trkpt><trkpt lat="43.762601731843226" lon="144.71908847019554"><ele>1395.3912267237902</ele><time>2022-08-23T02:19:59Z</time></trkpt><trkpt lat="43.76276053575644" lon="144.71921052984843"><ele>1403.4527329755947</ele><time>2022-08-23T02:21:00Z</time></trkpt><trkpt lat="43.76293266441977" lon="144.71913748280926"><ele>1420.4247272619978</ele><time>2022-08-23T02:30:01Z</time></trkpt><trkpt lat="43.76304785595937" lon="144.71933671233091"><ele>1426.1688527688384</ele><time>2022-08-23T02:30:22Z</time></trkpt><trkpt lat="43.76319666222017" lon="144.71918651698675"><ele>1430.341181350872</ele><time>2022-08-23T02:42:49Z</time></trkpt><trkpt lat="43.76328936494742" lon="144.7189524488537"><ele>1432.5614940617234</ele><time>2022-08-23T02:43:32Z</time></trkpt><trkpt lat="43.76336218046646" lon="144.71872021203987"><ele>1448.2771009830758</ele><time>2022-08-23T02:44:47Z</time></trkpt><trkpt lat="43.76338588495192" lon="144.71846390989955"><ele>1455.5968812201172</ele><time>2022-08-23T02:45:16Z</time></trkpt><trkpt lat="43.76344880675784" lon="144.7182261093147"><ele>1459.0945174302906</ele><time>2022-08-23T02:46:15Z</time></trkpt><trkpt lat="43.763633723298824" lon="144.71815695655076"><ele>1473.4226749371737</ele><time>2022-08-23T02:47:13Z</time></trkpt><trkpt lat="43.76381895759099" lon="144.7181217978263"><ele>1484.1797459544614</ele><time>2022-08-23T02:49:35Z</time></trkpt><trkpt lat="43.76398415524476" lon="144.7180188048676"><ele>1489.9620017670095</ele><time>2022-08-23T02:50:05Z</time></trkpt><trkpt lat="43.76414188722439" lon="144.7178958179046"><ele>1501.6870815698057</ele><time>2022-08-23T02:50:49Z</time></trkpt><trkpt lat="43.764310919457735" lon="144.71781006358256"><ele>1507.1426194384694</ele><time>2022-08-23T02:52:36Z</time></trkpt><trkpt lat="43.764492352829514" lon="144.7177836381698"><ele>1496.7914351569489</ele><time>2022-08-23T02:52:53Z</time></trkpt><trkpt lat="43.76467056769411" lon="144.71781830764058"><ele>1492.944358878769</ele><time>2022-08-23T02:54:31Z</time></trkpt><trkpt lat="43.764835544550785" lon="144.71771148483475"><ele>1495.9304317552596</ele><time>2022-08-23T02:54:46Z</time></trkpt><trkpt lat="43.7650267921748" lon="144.7177104688043"><ele>1491.095702059567</ele><time>2022-08-23T02:55:21Z</time></trkpt><trkpt lat="43.765212370482786" lon="144.71774758822403"><ele>1506.524460265413</ele><time>2022-08-23T02:56:07Z</time></trkpt><trkpt lat="43.76537841581541" lon="144.7178828344526"><ele>1520.5284379562363</ele><time>2022-08-23T02:58:53Z</time></trkpt><trkpt lat="43.76555882243659" lon="144.71793588998446"><ele>1530.3217211635783</ele><time>2022-08-23T02:59:13Z</time></trkpt><trkpt lat="43.765734896995234" lon="144.7178769212851"><ele>1528.125987320207</ele><time>2022-08-23T03:00:29Z</time></trkpt><trkpt lat="43.76555637243707" lon="144.71794900367283"><ele>1530.6998544540256</ele><time>2022-08-23T03:05:01Z</time></trkpt><trkpt lat="43.765381807536535" lon="144.71786913915165"><ele>1520.302689800039</ele><time>2022-08-23T03:06:18Z</time></trkpt><trkpt lat="43.765202265329094" lon="144.71783479114208"><ele>1513.0989819541574</ele><time>2022-08-23T03:07:16Z</time></trkpt><trkpt lat="43.76503627428538" lon="144.71773390052763"><ele>1500.414633099921</ele><time>2022-08-23T03:08:59Z</time></trkpt><trkpt lat="43.76486085867417" lon="144.71767628931804"><ele>1501.20130206272</ele><time>2022-08-23T03:09:46Z</time></trkpt><trkpt lat="43.764696694671656" lon="144.71778616789396"><ele>1503.3710380736738</ele><time>2022-08-23T03:10:05Z</time></trkpt><trkpt lat="43.76450961772426" lon="144.7178076008862"><ele>1501.7510824846104</ele><time>2022-08-23T03:10:26Z</time></trkpt><trkpt lat="43.76432921458625" lon="144.71780829883497"><ele>1500.7861283151433</ele><time>2022-08-23T03:10:51Z</time></trkpt><trkpt lat="43.76414650945326" lon="144.71785027622374"><ele>1500.951222862117</ele><time>2022-08-23T03:11:09Z</time></trkpt><trkpt lat="43.76400228335533" lon="144.71800125437375"><ele>1493.3635467942804</ele><time>2022-08-23T03:11:56Z</time></trkpt><trkpt lat="43.76382930729794" lon="144.71807179509003"><ele>1484.3333872519433</ele><time>2022-08-23T03:12:25Z</time></trkpt><trkpt lat="43.763651209075924" lon="144.71812359851884"><ele>1482.9844498168677</ele><time>2022-08-23T03:13:29Z</time></trkpt><trkpt lat="43.763465227146575" lon="144.71814300750015"><ele>1467.847047779709</ele><time>2022-08-23T03:17:26Z</time></trkpt><trkpt lat="43.76343413575078" lon="144.71839523106075"><ele>1458.2256388999522</ele><time>2022-08-23T03:17:51Z</time></trkpt><trkpt lat="43.763356456953005" lon="144.71863766258952"><ele>1449.156503959559</ele><time>2022-08-23T03:18:19Z</time></trkpt><trkpt lat="43.76331014119089" lon="144.71888226376737"><ele>1443.5307792332023</ele><time>2022-08-23T03:18:43Z</time></trkpt><trkpt lat="43.76324829292282" lon="144.71911781853441"><ele>1435.9417554466054</ele><time>2022-08-23T03:19:14Z</time></trkpt><trkpt lat="43.76308828554685" lon="144.71923948464755"><ele>1430.5730333700776</ele><time>2022-08-23T03:20:03Z</time></trkpt><trkpt lat="43.76295286598234" lon="144.71906916512367"><ele>1411.3127607228234</ele><time>2022-08-23T03:21:15Z</time></trkpt><trkpt lat="43.76278687507601" lon="144.71919058735682"><ele>1405.6957633197308</ele><time>2022-08-23T03:24:45Z</time></trkpt><trkpt lat="43.7626498209442" lon="144.7190260125784"><ele>1396.2232062099501</ele><time>2022-08-23T03:25:22Z</time></trkpt><trkpt lat="43.76247060906316" lon="144.7189529960093"><ele>1393.9701839787886</ele><time>2022-08-23T03:25:59Z</time></trkpt><trkpt lat="43.762284652470605" lon="144.71887779649776"><ele>1385.430081417784</ele><time>2022-08-23T03:27:16Z</time></trkpt><trkpt lat="43.7621622915915" lon="144.71869077380313"><ele>1374.0542989848182</ele><time>2022-08-23T03:27:51Z</time></trkpt><trkpt lat="43.762013035649495" lon="144.7185358988407"><ele>1366.3801961736754</ele><time>2022-08-23T03:28:31Z</time></trkpt><trkpt lat="43.761896056576816" lon="144.71834208698644"><ele>1352.6007604496554</ele><time>2022-08-23T03:29:10Z</time></trkpt><trkpt lat="43.761761850645605" lon="144.71817652447223"><ele>1354.7611805982888</ele><time>2022-08-23T03:29:34Z</time></trkpt><trkpt lat="43.76166027400956" lon="144.7179695337954"><ele>1346.6523695746437</ele><time>2022-08-23T03:30:09Z</time></trkpt><trkpt lat="43.76147833240679" lon="144.7179709165486"><ele>1335.4621788226068</ele><time>2022-08-23T03:30:50Z</time></trkpt><trkpt lat="43.76130028701325" lon="144.71790599231608"><ele>1327.1584627190605</ele><time>2022-08-23T03:31:26Z</time></trkpt><trkpt lat="43.76111755039696" lon="144.71789668205344"><ele>1321.4087605569512</ele><time>2022-08-23T03:32:03Z</time></trkpt><trkpt lat="43.76098536534429" lon="144.71771584788087"><ele>1311.5227582631633</ele><time>2022-08-23T03:32:41Z</time></trkpt><trkpt lat="43.7608932095448" lon="144.7174977424722"><ele>1311.8469046205282</ele><time>2022-08-23T03:33:10Z</time></trkpt><trkpt lat="43.76080763171904" lon="144.717265440209"><ele>1305.257156535983</ele><time>2022-08-23T03:33:49Z</time></trkpt><trkpt lat="43.76068542997638" lon="144.71706097847928"><ele>1297.0429633203894</ele><time>2022-08-23T03:34:37Z</time></trkpt><trkpt lat="43.76051385721618" lon="144.71698244244791"><ele>1289.0464350432158</ele><time>2022-08-23T03:35:14Z</time></trkpt><trkpt lat="43.760377384522734" lon="144.71680559629797"><ele>1279.7265881365165</ele><time>2022-08-23T03:35:59Z</time></trkpt><trkpt lat="43.76024124346616" lon="144.7166306394677"><ele>1274.9012146918103</ele><time>2022-08-23T03:36:46Z</time></trkpt><trkpt lat="43.7600883653002" lon="144.71648723425852"><ele>1265.0951773449779</ele><time>2022-08-23T03:37:40Z</time></trkpt><trkpt lat="43.759989247262446" lon="144.7162609666259"><ele>1253.9213655367494</ele><time>2022-08-23T03:38:33Z</time></trkpt><trkpt lat="43.759933913561916" lon="144.71601572713286"><ele>1244.6167830768973</ele><time>2022-08-23T03:39:24Z</time></trkpt><trkpt lat="43.75989661739284" lon="144.71577146708114"><ele>1246.6370185641572</ele><time>2022-08-23T03:40:01Z</time></trkpt><trkpt lat="43.75976320867196" lon="144.71559901519035"><ele>1238.996048410423</ele><time>2022-08-23T03:40:37Z</time></trkpt><trkpt lat="43.75967824696696" lon="144.7153715180142"><ele>1231.8411672869697</ele><time>2022-08-23T03:41:07Z</time></trkpt><trkpt lat="43.759640815745485" lon="144.71512066922656"><ele>1228.793745264411</ele><time>2022-08-23T03:41:40Z</time></trkpt><trkpt lat="43.75945172786788" lon="144.7151393564585"><ele>1234.7434385986999</ele><time>2022-08-23T03:53:35Z</time></trkpt><trkpt lat="43.75927850470832" lon="144.715066318061"><ele>1239.2823813501745</ele><time>2022-08-23T03:53:54Z</time></trkpt><trkpt lat="43.759088216335996" lon="144.7150505576487"><ele>1237.5798702677712</ele><time>2022-08-23T03:54:14Z</time></trkpt><trkpt lat="43.758900129783285" lon="144.7150986203945"><ele>1243.1984837492928</ele><time>2022-08-23T03:54:32Z</time></trkpt><trkpt lat="43.75872838869964" lon="144.71518635077007"><ele>1242.5655883261934</ele><time>2022-08-23T03:55:26Z</time></trkpt><trkpt lat="43.7585819162444" lon="144.71533192380764"><ele>1244.8706391453743</ele><time>2022-08-23T03:55:51Z</time></trkpt><trkpt lat="43.75840105031852" lon="144.7153437515648"><ele>1239.3622331172228</ele><time>2022-08-23T03:56:20Z</time></trkpt><trkpt lat="43.75823309613293" lon="144.71524424837017"><ele>1235.0563713330775</ele><time>2022-08-23T03:56:45Z</time></trkpt><trkpt lat="43.75806122360432" lon="144.71514618728173"><ele>1228.2498667165637</ele><time>2022-08-23T03:57:08Z</time></trkpt><trkpt lat="43.75789175189311" lon="144.71505518292267"><ele>1225.7161518912762</ele><time>2022-08-23T03:57:28Z</time></trkpt><trkpt lat="43.75772210785406" lon="144.7149694742155"><ele>1225.27913903445</ele><time>2022-08-23T03:58:23Z</time></trkpt><trkpt lat="43.75764674331355" lon="144.7147402463539"><ele>1229.1064103310928</ele><time>2022-08-23T03:58:53Z</time></trkpt><trkpt lat="43.75758307213891" lon="144.71449516268413"><ele>1234.8398909103125</ele><time>2022-08-23T03:59:15Z</time></trkpt><trkpt lat="43.757485331751774" lon="144.71428224653292"><ele>1235.4318305468187</ele><time>2022-08-23T03:59:38Z</time></trkpt><trkpt lat="43.75739339723989" lon="144.7140390447195"><ele>1237.7694296864793</ele><time>2022-08-23T04:00:04Z</time></trkpt><trkpt lat="43.75726811189282" lon="144.7138506439708"><ele>1230.0090020829812</ele><time>2022-08-23T04:00:25Z</time></trkpt><trkpt lat="43.7571162606966" lon="144.71371259799446"><ele>1232.0261694313958</ele><time>2022-08-23T04:00:47Z</time></trkpt><trkpt lat="43.756966664835645" lon="144.71357414702834"><ele>1221.3164118034765</ele><time>2022-08-23T04:01:16Z</time></trkpt><trkpt lat="43.756908149219136" lon="144.71333498510327"><ele>1213.7072212528437</ele><time>2022-08-23T04:01:50Z</time></trkpt><trkpt lat="43.75680815004149" lon="144.71312798776634"><ele>1211.4415533663705</ele><time>2022-08-23T04:02:19Z</time></trkpt><trkpt lat="43.75669495508154" lon="144.71293390322708"><ele>1208.181980532594</ele><time>2022-08-23T04:02:52Z</time></trkpt><trkpt lat="43.756635324754264" lon="144.7126928404842"><ele>1203.4590362003073</ele><time>2022-08-23T04:03:27Z</time></trkpt><trkpt lat="43.75666234825985" lon="144.71243713330935"><ele>1203.2951930947602</ele><time>2022-08-23T04:03:55Z</time></trkpt><trkpt lat="43.75668491588352" lon="144.7121889043445"><ele>1204.9765114905313</ele><time>2022-08-23T04:04:18Z</time></trkpt><trkpt lat="43.756721469437274" lon="144.7119420776277"><ele>1203.3259093305096</ele><time>2022-08-23T04:04:40Z</time></trkpt><trkpt lat="43.756787610584865" lon="144.71170618284873"><ele>1202.9132037032396</ele><time>2022-08-23T04:05:04Z</time></trkpt><trkpt lat="43.75686390534132" lon="144.7114743878536"><ele>1204.0425717178732</ele><time>2022-08-23T04:05:25Z</time></trkpt><trkpt lat="43.75695704321751" lon="144.71125583675686"><ele>1205.192395827733</ele><time>2022-08-23T04:05:47Z</time></trkpt><trkpt lat="43.75696158501408" lon="144.71100657444137"><ele>1205.7286527464166</ele><time>2022-08-23T04:06:11Z</time></trkpt><trkpt lat="43.75694910730068" lon="144.71075607933057"><ele>1211.5095091545954</ele><time>2022-08-23T04:06:29Z</time></trkpt><trkpt lat="43.75696813560993" lon="144.71050205100403"><ele>1217.6102912770584</ele><time>2022-08-23T04:06:54Z</time></trkpt><trkpt lat="43.75691338515068" lon="144.71026441833382"><ele>1221.7575898412615</ele><time>2022-08-23T04:07:24Z</time></trkpt><trkpt lat="43.75691714094821" lon="144.71000904435957"><ele>1227.3705194648355</ele><time>2022-08-23T04:08:01Z</time></trkpt><trkpt lat="43.75684185100994" lon="144.70977493178623"><ele>1234.1858870610595</ele><time>2022-08-23T04:09:07Z</time></trkpt><trkpt lat="43.75695199125262" lon="144.70957726812424"><ele>1240.1195526057854</ele><time>2022-08-23T04:09:34Z</time></trkpt><trkpt lat="43.75704323297147" lon="144.7093589125967"><ele>1239.7255152706057</ele><time>2022-08-23T04:10:07Z</time></trkpt><trkpt lat="43.757182658509464" lon="144.70918394081482"><ele>1239.9821295924485</ele><time>2022-08-23T04:10:24Z</time></trkpt><trkpt lat="43.75725734438567" lon="144.70895679052086"><ele>1238.3950043339282</ele><time>2022-08-23T04:10:56Z</time></trkpt><trkpt lat="43.757167681435895" lon="144.70873781425237"><ele>1228.024283110164</ele><time>2022-08-23T04:11:28Z</time></trkpt><trkpt lat="43.75711181739107" lon="144.70848911266393"><ele>1222.6066953847185</ele><time>2022-08-23T04:11:47Z</time></trkpt><trkpt lat="43.757051420744666" lon="144.7082520221468"><ele>1217.3477511983365</ele><time>2022-08-23T04:12:07Z</time></trkpt><trkpt lat="43.757025074694376" lon="144.708006128178"><ele>1213.0442284159362</ele><time>2022-08-23T04:12:28Z</time></trkpt><trkpt lat="43.75698261596386" lon="144.70776256844098"><ele>1210.6371443672106</ele><time>2022-08-23T04:12:44Z</time></trkpt><trkpt lat="43.75684328554438" lon="144.7075995501189"><ele>1204.063831214793</ele><time>2022-08-23T04:13:25Z</time></trkpt><trkpt lat="43.75670482414923" lon="144.7074384054973"><ele>1199.336056851782</ele><time>2022-08-23T04:13:44Z</time></trkpt><trkpt lat="43.75658382877668" lon="144.7072363186191"><ele>1199.1159728867933</ele><time>2022-08-23T04:14:03Z</time></trkpt><trkpt lat="43.756541924691476" lon="144.70698070744842"><ele>1200.353623024188</ele><time>2022-08-23T04:14:24Z</time></trkpt><trkpt lat="43.75657221471531" lon="144.7067191196757"><ele>1198.0819587437436</ele><time>2022-08-23T04:14:46Z</time></trkpt><trkpt lat="43.7564635570297" lon="144.70651579270285"><ele>1197.5845672842115</ele><time>2022-08-23T04:15:04Z</time></trkpt><trkpt lat="43.75635375885443" lon="144.7063116632803"><ele>1193.8094791052863</ele><time>2022-08-23T04:15:29Z</time></trkpt><trkpt lat="43.75627511503063" lon="144.7060840601413"><ele>1196.003017604351</ele><time>2022-08-23T04:15:52Z</time></trkpt><trkpt lat="43.75618841308329" lon="144.70585761899395"><ele>1201.0876285107806</ele><time>2022-08-23T04:16:19Z</time></trkpt><trkpt lat="43.75613696822224" lon="144.7056169865086"><ele>1205.4836912043393</ele><time>2022-08-23T04:16:50Z</time></trkpt><trkpt lat="43.75613122629854" lon="144.705362934726"><ele>1208.1042161444202</ele><time>2022-08-23T04:17:15Z</time></trkpt><trkpt lat="43.756084900638" lon="144.7051188802953"><ele>1214.933603392914</ele><time>2022-08-23T04:17:42Z</time></trkpt><trkpt lat="43.75603630224487" lon="144.7048678225516"><ele>1218.730002321303</ele><time>2022-08-23T04:18:24Z</time></trkpt><trkpt lat="43.755987324046735" lon="144.70462301829832"><ele>1219.7042243164033</ele><time>2022-08-23T04:18:42Z</time></trkpt><trkpt lat="43.755979291296384" lon="144.70436674708378"><ele>1216.1219207113609</ele><time>2022-08-23T04:19:04Z</time></trkpt><trkpt lat="43.75599308196746" lon="144.70411771799667"><ele>1212.2976608704776</ele><time>2022-08-23T04:19:29Z</time></trkpt><trkpt lat="43.75594512982679" lon="144.703877231385"><ele>1213.2650683894753</ele><time>2022-08-23T04:19:48Z</time></trkpt><trkpt lat="43.75593050860145" lon="144.70362730619067"><ele>1213.4573422605172</ele><time>2022-08-23T04:20:12Z</time></trkpt><trkpt lat="43.755934661847036" lon="144.7033744310962"><ele>1216.1406981870532</ele><time>2022-08-23T04:20:50Z</time></trkpt><trkpt lat="43.75591452321788" lon="144.70312401744727"><ele>1218.6792419767007</ele><time>2022-08-23T04:21:15Z</time></trkpt><trkpt lat="43.75595548088588" lon="144.70288067011498"><ele>1225.9676849301904</ele><time>2022-08-23T04:21:51Z</time></trkpt><trkpt lat="43.75593789945597" lon="144.70263333372924"><ele>1228.8669242728502</ele><time>2022-08-23T04:22:16Z</time></trkpt><trkpt lat="43.756024283404955" lon="144.70240825097443"><ele>1231.673333746381</ele><time>2022-08-23T04:28:42Z</time></trkpt><trkpt lat="43.75617164740081" lon="144.70225474723983"><ele>1225.4435363933444</ele><time>2022-08-23T04:29:21Z</time></trkpt><trkpt lat="43.75633318233366" lon="144.702122048433"><ele>1224.5240583922714</ele><time>2022-08-23T04:29:58Z</time></trkpt><trkpt lat="43.75647963181274" lon="144.7019764973877"><ele>1215.0489621255547</ele><time>2022-08-23T04:30:37Z</time></trkpt><trkpt lat="43.756656881955934" lon="144.70193234229828"><ele>1211.879497972317</ele><time>2022-08-23T04:31:17Z</time></trkpt><trkpt lat="43.75676370432247" lon="144.70172191518893"><ele>1202.5368418144062</ele><time>2022-08-23T04:32:23Z</time></trkpt><trkpt lat="43.75686091987533" lon="144.7015059503082"><ele>1195.1290994258597</ele><time>2022-08-23T04:33:05Z</time></trkpt><trkpt lat="43.7569622378582" lon="144.70129935868033"><ele>1183.0685744667426</ele><time>2022-08-23T04:34:05Z</time></trkpt><trkpt lat="43.75707003675824" lon="144.70109532778773"><ele>1174.0917329285294</ele><time>2022-08-23T04:34:48Z</time></trkpt><trkpt lat="43.757164142144475" lon="144.70088039076663"><ele>1163.909954316914</ele><time>2022-08-23T04:36:05Z</time></trkpt><trkpt lat="43.757233265088026" lon="144.7006408029234"><ele>1150.8645488219336</ele><time>2022-08-23T04:37:18Z</time></trkpt><trkpt lat="43.75739274092772" lon="144.70050922209293"><ele>1142.646742472425</ele><time>2022-08-23T04:37:59Z</time></trkpt><trkpt lat="43.75755253361634" lon="144.70039126742515"><ele>1136.3176985708997</ele><time>2022-08-23T04:38:36Z</time></trkpt><trkpt lat="43.757732147530035" lon="144.7003702128427"><ele>1127.95985856466</ele><time>2022-08-23T04:39:05Z</time></trkpt><trkpt lat="43.757911311437375" lon="144.70030181589186"><ele>1122.664339127019</ele><time>2022-08-23T04:39:29Z</time></trkpt><trkpt lat="43.75804342107638" lon="144.70012878627782"><ele>1118.3663212535903</ele><time>2022-08-23T04:39:50Z</time></trkpt><trkpt lat="43.758166746287586" lon="144.6999377530964"><ele>1115.2010686788708</ele><time>2022-08-23T04:40:12Z</time></trkpt><trkpt lat="43.75830219263788" lon="144.69976581346583"><ele>1108.798763686791</ele><time>2022-08-23T04:40:42Z</time></trkpt><trkpt lat="43.758475004887615" lon="144.6996816592723"><ele>1104.2162506766617</ele><time>2022-08-23T04:41:00Z</time></trkpt><trkpt lat="43.75862079155258" lon="144.69952812230719"><ele>1099.2368455762044</ele><time>2022-08-23T04:41:18Z</time></trkpt><trkpt lat="43.758731747908286" lon="144.69933228892455"><ele>1096.6848675888032</ele><time>2022-08-23T04:41:36Z</time></trkpt><trkpt lat="43.758909582809665" lon="144.69926349455878"><ele>1092.7516800221056</ele><time>2022-08-23T04:42:01Z</time></trkpt><trkpt lat="43.75899783890123" lon="144.69904428920103"><ele>1088.817289430648</ele><time>2022-08-23T04:42:32Z</time></trkpt><trkpt lat="43.759095228150436" lon="144.6988268927069"><ele>1078.8214178197086</ele><time>2022-08-23T04:43:02Z</time></trkpt><trkpt lat="43.75920850183781" lon="144.69862314328353"><ele>1075.2867532083765</ele><time>2022-08-23T04:43:27Z</time></trkpt><trkpt lat="43.75937779636017" lon="144.69853285240333"><ele>1068.7358619300649</ele><time>2022-08-23T04:43:53Z</time></trkpt><trkpt lat="43.75955556961091" lon="144.69858309584092"><ele>1058.2478356761858</ele><time>2022-08-23T04:44:42Z</time></trkpt><trkpt lat="43.759711791517624" lon="144.69874301901933"><ele>1046.5636735260487</ele><time>2022-08-23T04:45:58Z</time></trkpt><trkpt lat="43.75987363737066" lon="144.6988685475371"><ele>1022.4271604893729</ele><time>2022-08-23T04:47:54Z</time></trkpt><trkpt lat="43.760056442089066" lon="144.69884388544114"><ele>1015.405708479695</ele><time>2022-08-23T04:48:48Z</time></trkpt><trkpt lat="43.76022785585511" lon="144.6989296977971"><ele>1004.4834096347913</ele><time>2022-08-23T04:50:16Z</time></trkpt><trkpt lat="43.76040536747584" lon="144.69898536108815"><ele>981.7542550303042</ele><time>2022-08-23T04:52:53Z</time></trkpt><trkpt lat="43.760588996602046" lon="144.69905386954446"><ele>976.9813344031572</ele><time>2022-08-23T04:53:47Z</time></trkpt><trkpt lat="43.76074663468749" lon="144.69917831135936"><ele>963.5911555187777</ele><time>2022-08-23T04:54:52Z</time></trkpt><trkpt lat="43.76092275585762" lon="144.69923456833072"><ele>951.3333055637777</ele><time>2022-08-23T04:56:14Z</time></trkpt><trkpt lat="43.76097054198286" lon="144.6994905676637"><ele>946.1419249158353</ele><time>2022-08-23T04:57:18Z</time></trkpt><trkpt lat="43.761151013991984" lon="144.69953231397017"><ele>930.7961930511519</ele><time>2022-08-23T04:58:40Z</time></trkpt><trkpt lat="43.761253116707806" lon="144.69975163751522"><ele>920.287808990106</ele><time>2022-08-23T04:59:40Z</time></trkpt><trkpt lat="43.76121229226673" lon="144.69999572649553"><ele>914.7006094073877</ele><time>2022-08-23T05:00:06Z</time></trkpt><trkpt lat="43.76139440652196" lon="144.6999491991168"><ele>906.5746124470606</ele><time>2022-08-23T05:00:45Z</time></trkpt><trkpt lat="43.76156915500875" lon="144.70001240288255"><ele>894.5926185902208</ele><time>2022-08-23T05:04:22Z</time></trkpt><trkpt lat="43.761752849652225" lon="144.7000296257601"><ele>882.9909884473309</ele><time>2022-08-23T05:05:38Z</time></trkpt><trkpt lat="43.761936936997124" lon="144.70001310785642"><ele>871.3870891202241</ele><time>2022-08-23T05:06:46Z</time></trkpt><trkpt lat="43.76206798536714" lon="144.69983510943536"><ele>868.5990969436243</ele><time>2022-08-23T05:07:38Z</time></trkpt><trkpt lat="43.762255474034674" lon="144.6998825203339"><ele>860.288196801208</ele><time>2022-08-23T05:08:41Z</time></trkpt><trkpt lat="43.76242954436644" lon="144.6999618447859"><ele>847.1795720290393</ele><time>2022-08-23T05:09:47Z</time></trkpt><trkpt lat="43.76260991304321" lon="144.69999397079974"><ele>830.3509365096688</ele><time>2022-08-23T05:11:24Z</time></trkpt><trkpt lat="43.7627510268572" lon="144.70014907609792"><ele>815.1092740669847</ele><time>2022-08-23T05:13:02Z</time></trkpt><trkpt lat="43.76292642010969" lon="144.700090068681"><ele>805.2479565460235</ele><time>2022-08-23T05:14:04Z</time></trkpt><trkpt lat="43.76307770269168" lon="144.69994979589558"><ele>800.489489659667</ele><time>2022-08-23T05:14:30Z</time></trkpt><trkpt lat="43.763151494831206" lon="144.6997211954863"><ele>796.9469986138865</ele><time>2022-08-23T05:15:02Z</time></trkpt><trkpt lat="43.76326284708964" lon="144.6995026304702"><ele>795.858142785728</ele><time>2022-08-23T05:18:05Z</time></trkpt><trkpt lat="43.76338504345542" lon="144.69930914494634"><ele>793.0111054349691</ele><time>2022-08-23T05:18:28Z</time></trkpt><trkpt lat="43.76346245259029" lon="144.69906943289203"><ele>789.2949703224003</ele><time>2022-08-23T05:18:48Z</time></trkpt><trkpt lat="43.763547523051066" lon="144.69882974475541"><ele>786.95622954797</ele><time>2022-08-23T05:19:12Z</time></trkpt><trkpt lat="43.76366371580245" lon="144.6986330448238"><ele>781.2888166569173</ele><time>2022-08-23T05:19:39Z</time></trkpt><trkpt lat="43.76380046000496" lon="144.69846306914638"><ele>780.1675040815026</ele><time>2022-08-23T05:20:21Z</time></trkpt><trkpt lat="43.763765575328804" lon="144.6982103156469"><ele>778.7424752824008</ele><time>2022-08-23T05:20:57Z</time></trkpt><trkpt lat="43.76382946705206" lon="144.6979678903575"><ele>776.7822473347187</ele><time>2022-08-23T05:21:31Z</time></trkpt><trkpt lat="43.763914864124324" lon="144.697734649891"><ele>774.2407363699749</ele><time>2022-08-23T05:22:18Z</time></trkpt><trkpt lat="43.76390804522055" lon="144.69748198447735"><ele>770.0526602007449</ele><time>2022-08-23T05:23:08Z</time></trkpt><trkpt lat="43.763935019837454" lon="144.69723465152697"><ele>766.0197759978473</ele><time>2022-08-23T05:23:39Z</time></trkpt><trkpt lat="43.76396131774667" lon="144.69698524980973"><ele>763.8618947798386</ele><time>2022-08-23T05:24:40Z</time></trkpt><trkpt lat="43.76403544221444" lon="144.6967589193564"><ele>764.5059733623639</ele><time>2022-08-23T05:24:56Z</time></trkpt><trkpt lat="43.76413631223727" lon="144.69654500451193"><ele>757.824298536405</ele><time>2022-08-23T05:26:03Z</time></trkpt><trkpt lat="43.76424744156868" lon="144.69634248327978"><ele>760.2575570689514</ele><time>2022-08-23T05:26:47Z</time></trkpt><trkpt lat="43.76442330905841" lon="144.6962471210248"><ele>751.7435087105259</ele><time>2022-08-23T05:27:12Z</time></trkpt><trkpt lat="43.764567573433204" lon="144.69609677463515"><ele>748.9209474865347</ele><time>2022-08-23T05:27:46Z</time></trkpt><trkpt lat="43.76470943527168" lon="144.69594201489042"><ele>749.7657588524744</ele><time>2022-08-23T05:28:06Z</time></trkpt><trkpt lat="43.7648173909136" lon="144.69573657781845"><ele>745.9956731963903</ele><time>2022-08-23T05:29:34Z</time></trkpt><trkpt lat="43.76487978169544" lon="144.69550260743944"><ele>745.4207999613136</ele><time>2022-08-23T05:29:54Z</time></trkpt><trkpt lat="43.76497918070672" lon="144.69528550552394"><ele>739.3624990750104</ele><time>2022-08-23T05:30:23Z</time></trkpt><trkpt lat="43.765149420289454" lon="144.69520043921955"><ele>735.0729447398335</ele><time>2022-08-23T05:31:56Z</time></trkpt><trkpt lat="43.76533674400037" lon="144.6951947799231"><ele>730.6305654486641</ele><time>2022-08-23T05:32:24Z</time></trkpt><trkpt lat="43.76550339418652" lon="144.6950795302658"><ele>730.9031673781574</ele><time>2022-08-23T05:32:56Z</time></trkpt><trkpt lat="43.76567190479126" lon="144.69497981530404"><ele>728.5613366402686</ele><time>2022-08-23T05:33:55Z</time></trkpt><trkpt lat="43.76581784087797" lon="144.69481790063662"><ele>728.7858744403347</ele><time>2022-08-23T05:34:35Z</time></trkpt><trkpt lat="43.76581304541788" lon="144.69456338666987"><ele>726.5842144703493</ele><time>2022-08-23T05:34:54Z</time></trkpt><trkpt lat="43.76596291946959" lon="144.69441991466695"><ele>723.3159200260416</ele><time>2022-08-23T05:35:45Z</time></trkpt><trkpt lat="43.7660297549982" lon="144.69418054642398"><ele>720.4896726142615</ele><time>2022-08-23T05:37:24Z</time></trkpt><trkpt lat="43.76618220727788" lon="144.6940453609716"><ele>719.238227003254</ele><time>2022-08-23T05:38:03Z</time></trkpt><trkpt lat="43.76623091921141" lon="144.69380105064934"><ele>716.7309647835791</ele><time>2022-08-23T05:38:38Z</time></trkpt><trkpt lat="43.76633860672484" lon="144.69358695469535"><ele>715.3604333801195</ele><time>2022-08-23T05:38:54Z</time></trkpt><trkpt lat="43.766481360443294" lon="144.6934066381648"><ele>712.5664672665298</ele><time>2022-08-23T05:39:09Z</time></trkpt><trkpt lat="43.76661066557759" lon="144.69321600246187"><ele>709.8687357464805</ele><time>2022-08-23T05:39:23Z</time></trkpt><trkpt lat="43.76670239154268" lon="144.69300161446384"><ele>704.6879603806883</ele><time>2022-08-23T05:39:51Z</time></trkpt><trkpt lat="43.766869454334895" lon="144.69289844262542"><ele>709.8759573949501</ele><time>2022-08-23T05:40:26Z</time></trkpt><trkpt lat="43.76695799430841" lon="144.69268210699738"><ele>708.219678722322</ele><time>2022-08-23T05:40:46Z</time></trkpt><trkpt lat="43.76703231048801" lon="144.69243820619664"><ele>704.6042045401409</ele><time>2022-08-23T05:41:06Z</time></trkpt><trkpt lat="43.76705786746079" lon="144.69218022834414"><ele>703.6862710844725</ele><time>2022-08-23T05:41:25Z</time></trkpt><trkpt lat="43.76709550796901" lon="144.6919243440985"><ele>699.7450877288356</ele><time>2022-08-23T05:41:41Z</time></trkpt><trkpt lat="43.76701720710897" lon="144.69169596303175"><ele>696.9098211852834</ele><time>2022-08-23T05:42:35Z</time></trkpt><trkpt lat="43.76698538383437" lon="144.6914417992924"><ele>691.2473300462589</ele><time>2022-08-23T05:42:59Z</time></trkpt><trkpt lat="43.76696177708921" lon="144.69118005457824"><ele>685.9549154210836</ele><time>2022-08-23T05:43:15Z</time></trkpt><trkpt lat="43.76696185194367" lon="144.69092308708204"><ele>686.3755568917841</ele><time>2022-08-23T05:43:30Z</time></trkpt><trkpt lat="43.76701976644842" lon="144.6906832828322"><ele>683.6115691168234</ele><time>2022-08-23T05:43:47Z</time></trkpt><trkpt lat="43.76703911607727" lon="144.69043109234585"><ele>686.4989142790437</ele><time>2022-08-23T05:44:17Z</time></trkpt><trkpt lat="43.76704522801518" lon="144.69017757005523"><ele>680.2449481496587</ele><time>2022-08-23T05:44:38Z</time></trkpt><trkpt lat="43.76716574221561" lon="144.68997993872185"><ele>678.5256806313992</ele><time>2022-08-23T05:45:02Z</time></trkpt><trkpt lat="43.7672441608885" lon="144.6897418800235"><ele>670.7025886354968</ele><time>2022-08-23T05:45:16Z</time></trkpt><trkpt lat="43.76737971518157" lon="144.68955479907717"><ele>670.7144795376807</ele><time>2022-08-23T05:45:36Z</time></trkpt><trkpt lat="43.767523238715356" lon="144.689393142672"><ele>668.8860332341865</ele><time>2022-08-23T05:45:53Z</time></trkpt><trkpt lat="43.76765860747872" lon="144.68922294217103"><ele>669.8017841624096</ele><time>2022-08-23T05:46:09Z</time></trkpt><trkpt lat="43.76781830113803" lon="144.68908184730967"><ele>667.9978512777016</ele><time>2022-08-23T05:46:25Z</time></trkpt><trkpt lat="43.76798840068471" lon="144.68895834054405"><ele>667.671058726497</ele><time>2022-08-23T05:46:41Z</time></trkpt><trkpt lat="43.76815981365172" lon="144.68885887816225"><ele>667.454373841174</ele><time>2022-08-23T05:46:57Z</time></trkpt><trkpt lat="43.76833056174419" lon="144.68875082309103"><ele>670.0109616843984</ele><time>2022-08-23T05:47:14Z</time></trkpt><trkpt lat="43.76849988603726" lon="144.68862688575112"><ele>670.3992793671787</ele><time>2022-08-23T05:47:31Z</time></trkpt><trkpt lat="43.7686561701991" lon="144.68848349634007"><ele>670.5106875961646</ele><time>2022-08-23T05:47:47Z</time></trkpt><trkpt lat="43.768811250467635" lon="144.68834079400298"><ele>671.7294133296236</ele><time>2022-08-23T05:48:03Z</time></trkpt><trkpt lat="43.76896558871496" lon="144.68817809721992"><ele>674.072386897169</ele><time>2022-08-23T05:48:20Z</time></trkpt><trkpt lat="43.769133965691914" lon="144.6880857511207"><ele>671.6534113520756</ele><time>2022-08-23T05:48:34Z</time></trkpt><trkpt lat="43.769308309918664" lon="144.68801223135702"><ele>671.6999038700014</ele><time>2022-08-23T05:48:49Z</time></trkpt><trkpt lat="43.76947904406265" lon="144.687911552171"><ele>671.9308840744197</ele><time>2022-08-23T05:49:04Z</time></trkpt><trkpt lat="43.769647459798264" lon="144.68779247949652"><ele>671.7556396164</ele><time>2022-08-23T05:49:19Z</time></trkpt><trkpt lat="43.76982926842776" lon="144.6877354716248"><ele>673.4590768087655</ele><time>2022-08-23T05:49:35Z</time></trkpt><trkpt lat="43.770003640165854" lon="144.68764817757224"><ele>672.1567501192912</ele><time>2022-08-23T05:49:49Z</time></trkpt><trkpt lat="43.77017985119759" lon="144.68757690913944"><ele>675.879309498705</ele><time>2022-08-23T05:50:06Z</time></trkpt><trkpt lat="43.770363497162286" lon="144.68749213701147"><ele>674.2330699712038</ele><time>2022-08-23T05:50:21Z</time></trkpt><trkpt lat="43.77054431032911" lon="144.68745805932235"><ele>672.9952505640686</ele><time>2022-08-23T05:50:35Z</time></trkpt><trkpt lat="43.77072247306341" lon="144.6873621608472"><ele>672.6587611287832</ele><time>2022-08-23T05:50:50Z</time></trkpt><trkpt lat="43.77088384659767" lon="144.68722601828534"><ele>667.9867486655712</ele><time>2022-08-23T05:51:04Z</time></trkpt><trkpt lat="43.77102578459944" lon="144.6870568761955"><ele>669.5442670732737</ele><time>2022-08-23T05:51:19Z</time></trkpt><trkpt lat="43.77117171311303" lon="144.68689049081235"><ele>666.3377380697057</ele><time>2022-08-23T05:51:33Z</time></trkpt><trkpt lat="43.771307401987805" lon="144.6867260262589"><ele>665.7630295716226</ele><time>2022-08-23T05:51:47Z</time></trkpt><trkpt lat="43.77144099531081" lon="144.68655555599165"><ele>665.8891842626035</ele><time>2022-08-23T05:52:03Z</time></trkpt><trkpt lat="43.77159962475824" lon="144.68643762213964"><ele>665.974137770012</ele><time>2022-08-23T05:52:19Z</time></trkpt><trkpt lat="43.77178272481106" lon="144.68635630068056"><ele>667.1012820759788</ele><time>2022-08-23T05:52:35Z</time></trkpt><trkpt lat="43.771955538978844" lon="144.68627393267403"><ele>668.5841138130054</ele><time>2022-08-23T05:52:50Z</time></trkpt><trkpt lat="43.77213325818219" lon="144.68620353967432"><ele>670.2090544737875</ele><time>2022-08-23T05:53:06Z</time></trkpt><trkpt lat="43.77230850161244" lon="144.68614012354516"><ele>670.7691524922848</ele><time>2022-08-23T05:53:22Z</time></trkpt><trkpt lat="43.77249016638151" lon="144.68606467600011"><ele>671.7269170237705</ele><time>2022-08-23T05:53:37Z</time></trkpt><trkpt lat="43.772672121487204" lon="144.6859912291981"><ele>675.3400719780475</ele><time>2022-08-23T05:54:05Z</time></trkpt><trkpt lat="43.77282801501566" lon="144.68585628063934"><ele>676.9876029500738</ele><time>2022-08-23T05:54:24Z</time></trkpt><trkpt lat="43.772996374515515" lon="144.68572134999894"><ele>679.1782166874036</ele><time>2022-08-23T05:54:42Z</time></trkpt><trkpt lat="43.77315196028932" lon="144.68555400274354"><ele>678.5873271711171</ele><time>2022-08-23T05:55:02Z</time></trkpt><trkpt lat="43.77332042773235" lon="144.6854372991371"><ele>680.4378805803135</ele><time>2022-08-23T05:55:26Z</time></trkpt><trkpt lat="43.773481099318744" lon="144.68531653533478"><ele>681.5559002608061</ele><time>2022-08-23T05:55:47Z</time></trkpt><trkpt lat="43.773664391878846" lon="144.68527557604867"><ele>686.3455324564129</ele><time>2022-08-23T05:56:14Z</time></trkpt><trkpt lat="43.773829984490554" lon="144.68537567276675"><ele>687.9521407457069</ele><time>2022-08-23T05:56:31Z</time></trkpt><trkpt lat="43.77398028018163" lon="144.68553188117076"><ele>688.3391160555184</ele><time>2022-08-23T05:56:48Z</time></trkpt><trkpt lat="43.77407381375294" lon="144.68574635979726"><ele>688.6002583187073</ele><time>2022-08-23T05:57:03Z</time></trkpt><trkpt lat="43.774196509978935" lon="144.68595101192693"><ele>686.2497213315219</ele><time>2022-08-23T05:57:17Z</time></trkpt><trkpt lat="43.774273831623965" lon="144.686175975518"><ele>686.1884710500017</ele><time>2022-08-23T05:57:29Z</time></trkpt><trkpt lat="43.774444086965985" lon="144.68625754787192"><ele>684.7637041611597</ele><time>2022-08-23T05:58:58Z</time></trkpt></trkseg></trk></gpx>