<?xml version='1.0' encoding='UTF-8'?><gpx creator="YAMAP - https://yamap.com" xsi:schemaLocation="http://www.topografix.com/GPX/1/1 http://www.topografix.com/GPX/1/1/gpx.xsd" version="1.1" xmlns="http://www.topografix.com/GPX/1/1" xmlns:xsi="http://www.w3.org/2001/XMLSchema-instance"><metadata><bounds maxlat="36.56251533851619" maxlon="139.1953034447936" minlat="36.53738357833972" minlon="139.16257999314675"/></metadata><trk><name>地蔵岳・北山・篭山・駒ヶ岳・黒檜山・足柄山・陣笠山・薬師岳・出張山・見晴山</name><number>1</number><trkseg><trkpt lat="36.541766545614344" lon="139.16600459607474"><ele>1416.0049287220463</ele><time>2022-06-18T23:43:34Z</time></trkpt><trkpt lat="36.54189929745328" lon="139.1661626092553"><ele>1417.3395537463948</ele><time>2022-06-18T23:43:54Z</time></trkpt><trkpt lat="36.54202272305176" lon="139.16633681183558"><ele>1418.6638017650694</ele><time>2022-06-18T23:44:22Z</time></trkpt><trkpt lat="36.54214361639153" lon="139.16650246973947"><ele>1419.6585706602782</ele><time>2022-06-18T23:44:43Z</time></trkpt><trkpt lat="36.54227243351411" lon="139.16667229549984"><ele>1421.4592408770695</ele><time>2022-06-18T23:45:04Z</time></trkpt><trkpt lat="36.542402649026954" lon="139.16683741675538"><ele>1421.3448215276003</ele><time>2022-06-18T23:45:23Z</time></trkpt><trkpt lat="36.5425321529446" lon="139.167005285189"><ele>1423.0356155866757</ele><time>2022-06-18T23:45:42Z</time></trkpt><trkpt lat="36.54265018209978" lon="139.16717943686314"><ele>1424.7969745816663</ele><time>2022-06-18T23:46:00Z</time></trkpt><trkpt lat="36.54277719890923" lon="139.16735003691485"><ele>1425.4519495544955</ele><time>2022-06-18T23:46:17Z</time></trkpt><trkpt lat="36.5429089802421" lon="139.16751095834047"><ele>1426.9820003472269</ele><time>2022-06-18T23:46:34Z</time></trkpt><trkpt lat="36.54304603171124" lon="139.16766722256278"><ele>1427.7188448244706</ele><time>2022-06-18T23:46:52Z</time></trkpt><trkpt lat="36.54320659874175" lon="139.16779562755764"><ele>1428.9200687538832</ele><time>2022-06-18T23:47:09Z</time></trkpt><trkpt lat="36.54337018260071" lon="139.1679260476164"><ele>1431.5845916857943</ele><time>2022-06-18T23:47:24Z</time></trkpt><trkpt lat="36.543546700041745" lon="139.16803567071543"><ele>1433.451847013086</ele><time>2022-06-18T23:47:40Z</time></trkpt><trkpt lat="36.54374100756525" lon="139.16801906715605"><ele>1434.0730503611267</ele><time>2022-06-18T23:47:57Z</time></trkpt><trkpt lat="36.543862802170935" lon="139.16784287970663"><ele>1435.6472436180338</ele><time>2022-06-18T23:48:34Z</time></trkpt><trkpt lat="36.543924436527284" lon="139.16794466966536"><ele>1438.1217757286504</ele><time>2022-06-18T23:49:38Z</time></trkpt><trkpt lat="36.54381221133022" lon="139.1681227316986"><ele>1437.0581683898345</ele><time>2022-06-18T23:50:19Z</time></trkpt><trkpt lat="36.54383292690338" lon="139.16786840756703"><ele>1437.948217652738</ele><time>2022-06-18T23:52:44Z</time></trkpt><trkpt lat="36.543707252392025" lon="139.16803232314734"><ele>1434.5002546478063</ele><time>2022-06-18T23:53:09Z</time></trkpt><trkpt lat="36.543526391416954" lon="139.1680274007883"><ele>1433.0640145651996</ele><time>2022-06-18T23:53:26Z</time></trkpt><trkpt lat="36.54335450537109" lon="139.16791769616924"><ele>1431.648601476103</ele><time>2022-06-18T23:53:43Z</time></trkpt><trkpt lat="36.54316948494339" lon="139.16785588659744"><ele>1430.3384725507349</ele><time>2022-06-18T23:54:07Z</time></trkpt><trkpt lat="36.54299375400818" lon="139.16777662020075"><ele>1429.514445034787</ele><time>2022-06-18T23:54:22Z</time></trkpt><trkpt lat="36.5428148990387" lon="139.16770465299354"><ele>1430.3030030271038</ele><time>2022-06-18T23:54:39Z</time></trkpt><trkpt lat="36.542654482409475" lon="139.16760204366756"><ele>1428.4493803950027</ele><time>2022-06-18T23:54:57Z</time></trkpt><trkpt lat="36.54249813091369" lon="139.16747619643672"><ele>1427.7426172625273</ele><time>2022-06-18T23:55:13Z</time></trkpt><trkpt lat="36.54232932979438" lon="139.16737387255716"><ele>1427.4633949222043</ele><time>2022-06-18T23:55:56Z</time></trkpt><trkpt lat="36.542164932749806" lon="139.16725090932883"><ele>1426.0151181500405</ele><time>2022-06-18T23:56:14Z</time></trkpt><trkpt lat="36.54199904977509" lon="139.16735024236428"><ele>1427.304337931797</ele><time>2022-06-18T23:56:47Z</time></trkpt><trkpt lat="36.541918111521106" lon="139.16755111174075"><ele>1429.6415161667392</ele><time>2022-06-18T23:57:06Z</time></trkpt><trkpt lat="36.54204388364721" lon="139.16771537630237"><ele>1431.128608959727</ele><time>2022-06-18T23:57:51Z</time></trkpt><trkpt lat="36.54216512676732" lon="139.16788345421577"><ele>1434.653510526754</ele><time>2022-06-18T23:58:11Z</time></trkpt><trkpt lat="36.542265449718435" lon="139.16807248067565"><ele>1437.7785356007516</ele><time>2022-06-18T23:58:29Z</time></trkpt><trkpt lat="36.54240524432016" lon="139.16821632808012"><ele>1438.9244640460238</ele><time>2022-06-18T23:58:46Z</time></trkpt><trkpt lat="36.542518463046974" lon="139.16839492930305"><ele>1441.9463254185393</ele><time>2022-06-18T23:59:04Z</time></trkpt><trkpt lat="36.54259681494343" lon="139.16861614160507"><ele>1446.187356728129</ele><time>2022-06-18T23:59:24Z</time></trkpt><trkpt lat="36.54264939145425" lon="139.16883707937697"><ele>1447.1329580247402</ele><time>2022-06-18T23:59:44Z</time></trkpt><trkpt lat="36.5425931202604" lon="139.16905641119126"><ele>1451.4255822049454</ele><time>2022-06-19T00:00:08Z</time></trkpt><trkpt lat="36.54261768545493" lon="139.1692797881972"><ele>1455.406613657251</ele><time>2022-06-19T00:00:30Z</time></trkpt><trkpt lat="36.54264059036505" lon="139.16950684864625"><ele>1458.2574164671823</ele><time>2022-06-19T00:00:46Z</time></trkpt><trkpt lat="36.54269207914503" lon="139.16973699186974"><ele>1457.6283764364198</ele><time>2022-06-19T00:01:04Z</time></trkpt><trkpt lat="36.54279052896463" lon="139.16992638354853"><ele>1458.7139418479055</ele><time>2022-06-19T00:01:22Z</time></trkpt><trkpt lat="36.54294774711708" lon="139.17004294315703"><ele>1460.1561685279012</ele><time>2022-06-19T00:01:38Z</time></trkpt><trkpt lat="36.54311607931011" lon="139.17013002964836"><ele>1461.3169449428096</ele><time>2022-06-19T00:01:55Z</time></trkpt><trkpt lat="36.5432438110028" lon="139.17030247045815"><ele>1461.4845599466935</ele><time>2022-06-19T00:02:15Z</time></trkpt><trkpt lat="36.543353876199085" lon="139.17049541749773"><ele>1460.835727355443</ele><time>2022-06-19T00:02:37Z</time></trkpt><trkpt lat="36.54344953848513" lon="139.17068841413604"><ele>1468.0176287554204</ele><time>2022-06-19T00:02:58Z</time></trkpt><trkpt lat="36.54353478806724" lon="139.17088977505108"><ele>1472.3030187822878</ele><time>2022-06-19T00:03:19Z</time></trkpt><trkpt lat="36.54363637855994" lon="139.1710754584023"><ele>1474.8137694913894</ele><time>2022-06-19T00:03:40Z</time></trkpt><trkpt lat="36.543687384533364" lon="139.17129557301905"><ele>1476.2332339948043</ele><time>2022-06-19T00:03:58Z</time></trkpt><trkpt lat="36.54358457534804" lon="139.17147984520997"><ele>1484.8166553257033</ele><time>2022-06-19T00:04:31Z</time></trkpt><trkpt lat="36.54355188563829" lon="139.17170671635765"><ele>1490.1156644988805</ele><time>2022-06-19T00:05:11Z</time></trkpt><trkpt lat="36.543494064511115" lon="139.17191921660225"><ele>1500.8241971200332</ele><time>2022-06-19T00:05:54Z</time></trkpt><trkpt lat="36.543379935550306" lon="139.17210099575072"><ele>1504.836814568378</ele><time>2022-06-19T00:06:30Z</time></trkpt><trkpt lat="36.54329493812891" lon="139.172316028127"><ele>1510.6377875199541</ele><time>2022-06-19T00:06:53Z</time></trkpt><trkpt lat="36.543113478794474" lon="139.17234503736438"><ele>1515.825825465843</ele><time>2022-06-19T00:07:33Z</time></trkpt><trkpt lat="36.54301534685308" lon="139.17254531928654"><ele>1519.2490844596177</ele><time>2022-06-19T00:07:57Z</time></trkpt><trkpt lat="36.542945853611776" lon="139.17275737653105"><ele>1526.2128089265898</ele><time>2022-06-19T00:08:24Z</time></trkpt><trkpt lat="36.54290460241393" lon="139.17297751995957"><ele>1532.5916856369004</ele><time>2022-06-19T00:09:03Z</time></trkpt><trkpt lat="36.54285045228019" lon="139.17319460537905"><ele>1541.7107478231192</ele><time>2022-06-19T00:10:08Z</time></trkpt><trkpt lat="36.54276047299586" lon="139.17340125063365"><ele>1552.736609584652</ele><time>2022-06-19T00:10:59Z</time></trkpt><trkpt lat="36.54271235218828" lon="139.17361686474598"><ele>1559.3386833555996</ele><time>2022-06-19T00:11:50Z</time></trkpt><trkpt lat="36.54261881773596" lon="139.17381693067037"><ele>1569.394588507712</ele><time>2022-06-19T00:12:55Z</time></trkpt><trkpt lat="36.54261050268119" lon="139.1740419790505"><ele>1576.2323863701895</ele><time>2022-06-19T00:13:32Z</time></trkpt><trkpt lat="36.542482495936596" lon="139.17421726306046"><ele>1580.950187733397</ele><time>2022-06-19T00:14:07Z</time></trkpt><trkpt lat="36.54237769057822" lon="139.17440489871936"><ele>1583.8227904215455</ele><time>2022-06-19T00:14:38Z</time></trkpt><trkpt lat="36.54226002561427" lon="139.1745764033158"><ele>1587.1294669089839</ele><time>2022-06-19T00:15:09Z</time></trkpt><trkpt lat="36.54212912504838" lon="139.17474287384033"><ele>1593.7331183291972</ele><time>2022-06-19T00:15:43Z</time></trkpt><trkpt lat="36.54200746634011" lon="139.17491325590666"><ele>1599.7905427878723</ele><time>2022-06-19T00:16:17Z</time></trkpt><trkpt lat="36.541865701843584" lon="139.1750604989192"><ele>1608.1256610527635</ele><time>2022-06-19T00:16:58Z</time></trkpt><trkpt lat="36.541717775730504" lon="139.17519947740055"><ele>1614.4532213294879</ele><time>2022-06-19T00:17:50Z</time></trkpt><trkpt lat="36.54153044708268" lon="139.17517882192092"><ele>1624.0588807687163</ele><time>2022-06-19T00:18:42Z</time></trkpt><trkpt lat="36.541386202353095" lon="139.1753189616581"><ele>1631.559038151987</ele><time>2022-06-19T00:19:34Z</time></trkpt><trkpt lat="36.54123887552528" lon="139.17546423427493"><ele>1644.6381710646674</ele><time>2022-06-19T00:20:42Z</time></trkpt><trkpt lat="36.5410645181675" lon="139.17554356133314"><ele>1653.221956482157</ele><time>2022-06-19T00:21:37Z</time></trkpt><trkpt lat="36.54095235320567" lon="139.1757187795827"><ele>1658.3957144562155</ele><time>2022-06-19T00:22:14Z</time></trkpt><trkpt lat="36.54093690348106" lon="139.17594130207064"><ele>1661.709738863632</ele><time>2022-06-19T00:22:38Z</time></trkpt><trkpt lat="36.540828574172494" lon="139.17612893087434"><ele>1664.512403019704</ele><time>2022-06-19T00:23:14Z</time></trkpt><trkpt lat="36.5408236481699" lon="139.17636116724904"><ele>1666.091479937546</ele><time>2022-06-19T00:23:41Z</time></trkpt><trkpt lat="36.54088174836916" lon="139.17657525492052"><ele>1667.6874286886305</ele><time>2022-06-19T00:24:18Z</time></trkpt><trkpt lat="36.54089573704817" lon="139.17666927440473"><ele>1668.0417423229665</ele><time>2022-06-19T00:24:27Z</time></trkpt><trkpt lat="36.54090934773848" lon="139.17689563551997"><ele>1668.2592332065105</ele><time>2022-06-19T00:24:57Z</time></trkpt><trkpt lat="36.54101639107082" lon="139.17708442569582"><ele>1668.4601554637775</ele><time>2022-06-19T00:25:21Z</time></trkpt><trkpt lat="36.541022341231226" lon="139.17731024222468"><ele>1670.1918224114925</ele><time>2022-06-19T00:25:47Z</time></trkpt><trkpt lat="36.541025513770585" lon="139.17733543937032"><ele>1668.8971993830055</ele><time>2022-06-19T00:27:27Z</time></trkpt><trkpt lat="36.54102602537209" lon="139.1775356311732"><ele>1667.5775665529072</ele><time>2022-06-19T00:29:28Z</time></trkpt><trkpt lat="36.54091062740603" lon="139.17771523879568"><ele>1669.816306648776</ele><time>2022-06-19T00:30:39Z</time></trkpt><trkpt lat="36.54076158193289" lon="139.17785464104597"><ele>1663.007904054597</ele><time>2022-06-19T00:31:08Z</time></trkpt><trkpt lat="36.54062749783041" lon="139.17801176179873"><ele>1659.2948990920559</ele><time>2022-06-19T00:31:43Z</time></trkpt><trkpt lat="36.54052132581969" lon="139.17819541456396"><ele>1656.5000656116754</ele><time>2022-06-19T00:32:09Z</time></trkpt><trkpt lat="36.54035115900452" lon="139.17827804778113"><ele>1658.0566461086273</ele><time>2022-06-19T00:32:29Z</time></trkpt><trkpt lat="36.540208588724" lon="139.17842010307228"><ele>1657.3992963023484</ele><time>2022-06-19T00:32:52Z</time></trkpt><trkpt lat="36.540164260746394" lon="139.17863758069893"><ele>1652.5308808302507</ele><time>2022-06-19T00:34:02Z</time></trkpt><trkpt lat="36.54015108826947" lon="139.178411978385"><ele>1655.0430878866464</ele><time>2022-06-19T00:36:11Z</time></trkpt><trkpt lat="36.54004294525901" lon="139.17822067467995"><ele>1652.640768832527</ele><time>2022-06-19T00:36:38Z</time></trkpt><trkpt lat="36.540189632146145" lon="139.17808590894364"><ele>1653.7347629256546</ele><time>2022-06-19T00:37:29Z</time></trkpt><trkpt lat="36.5401298488546" lon="139.17787133693392"><ele>1651.1304522277787</ele><time>2022-06-19T00:37:57Z</time></trkpt><trkpt lat="36.53994112779537" lon="139.17781112821208"><ele>1646.9468393614516</ele><time>2022-06-19T00:38:24Z</time></trkpt><trkpt lat="36.539756522503076" lon="139.17779499485403"><ele>1644.7352787004784</ele><time>2022-06-19T00:38:45Z</time></trkpt><trkpt lat="36.53957577087792" lon="139.17778014721168"><ele>1641.688982839696</ele><time>2022-06-19T00:39:03Z</time></trkpt><trkpt lat="36.53938434637721" lon="139.177792496131"><ele>1637.5868485029787</ele><time>2022-06-19T00:39:20Z</time></trkpt><trkpt lat="36.53919423404554" lon="139.1778124729125"><ele>1636.9348299475387</ele><time>2022-06-19T00:39:37Z</time></trkpt><trkpt lat="36.539003812369806" lon="139.17783609186134"><ele>1635.4614340215921</ele><time>2022-06-19T00:39:56Z</time></trkpt><trkpt lat="36.538816219803245" lon="139.17786176002414"><ele>1632.9773853551596</ele><time>2022-06-19T00:40:15Z</time></trkpt><trkpt lat="36.538897455064294" lon="139.1780630657658"><ele>1624.6656200345606</ele><time>2022-06-19T00:41:00Z</time></trkpt><trkpt lat="36.538748767697435" lon="139.17819045490032"><ele>1620.7354873614386</ele><time>2022-06-19T00:41:23Z</time></trkpt><trkpt lat="36.538915199655634" lon="139.17829428777088"><ele>1616.8009951002896</ele><time>2022-06-19T00:41:55Z</time></trkpt><trkpt lat="36.53876360087252" lon="139.17842123703338"><ele>1611.5706394836307</ele><time>2022-06-19T00:42:27Z</time></trkpt><trkpt lat="36.53877563071471" lon="139.17864828065345"><ele>1602.4196074325591</ele><time>2022-06-19T00:43:11Z</time></trkpt><trkpt lat="36.53875240987273" lon="139.1788752068473"><ele>1594.0521931927651</ele><time>2022-06-19T00:44:01Z</time></trkpt><trkpt lat="36.53868010286557" lon="139.17909391732758"><ele>1588.8214410440996</ele><time>2022-06-19T00:44:51Z</time></trkpt><trkpt lat="36.53885589358038" lon="139.1791643072751"><ele>1582.4325042776763</ele><time>2022-06-19T00:45:19Z</time></trkpt><trkpt lat="36.53901910232147" lon="139.17926001631216"><ele>1575.0792065374553</ele><time>2022-06-19T00:46:02Z</time></trkpt><trkpt lat="36.53912212683442" lon="139.17945392891522"><ele>1567.6829741140828</ele><time>2022-06-19T00:46:38Z</time></trkpt><trkpt lat="36.539093740112094" lon="139.17967906132512"><ele>1561.6680145310238</ele><time>2022-06-19T00:47:05Z</time></trkpt><trkpt lat="36.539059396549675" lon="139.17990864894782"><ele>1555.265889512375</ele><time>2022-06-19T00:47:49Z</time></trkpt><trkpt lat="36.5391321944828" lon="139.18011508838916"><ele>1546.0783058032393</ele><time>2022-06-19T00:48:27Z</time></trkpt><trkpt lat="36.53897908565423" lon="139.18024187793486"><ele>1536.8240500930697</ele><time>2022-06-19T00:49:26Z</time></trkpt><trkpt lat="36.53901501662228" lon="139.18046368896023"><ele>1531.4601647565141</ele><time>2022-06-19T00:52:35Z</time></trkpt><trkpt lat="36.539086118844985" lon="139.1806698749599"><ele>1529.6286220410839</ele><time>2022-06-19T00:53:06Z</time></trkpt><trkpt lat="36.53897973223569" lon="139.1808632034203"><ele>1521.2689541317523</ele><time>2022-06-19T00:53:40Z</time></trkpt><trkpt lat="36.5388760778367" lon="139.18104946412691"><ele>1516.4407888315618</ele><time>2022-06-19T00:54:06Z</time></trkpt><trkpt lat="36.53877138590378" lon="139.18123176342635"><ele>1507.578857355751</ele><time>2022-06-19T00:54:36Z</time></trkpt><trkpt lat="36.538608415992286" lon="139.18136716026098"><ele>1503.3630564240739</ele><time>2022-06-19T00:55:02Z</time></trkpt><trkpt lat="36.53849666744616" lon="139.18155087678522"><ele>1500.9475984694436</ele><time>2022-06-19T00:55:29Z</time></trkpt><trkpt lat="36.538370936654886" lon="139.1817181192539"><ele>1496.6179180610925</ele><time>2022-06-19T00:55:54Z</time></trkpt><trkpt lat="36.538312149864645" lon="139.18193113334615"><ele>1493.9919032528996</ele><time>2022-06-19T00:56:23Z</time></trkpt><trkpt lat="36.53813046198035" lon="139.181956776152"><ele>1498.600700176321</ele><time>2022-06-19T00:56:41Z</time></trkpt><trkpt lat="36.53795728729054" lon="139.182035083921"><ele>1498.0693557076156</ele><time>2022-06-19T00:57:02Z</time></trkpt><trkpt lat="36.53781668470094" lon="139.18218280923918"><ele>1498.13639725931</ele><time>2022-06-19T00:57:20Z</time></trkpt><trkpt lat="36.53770134792999" lon="139.18237391944248"><ele>1499.8391155470163</ele><time>2022-06-19T00:57:37Z</time></trkpt><trkpt lat="36.537623495469866" lon="139.18257839562006"><ele>1501.2356375390664</ele><time>2022-06-19T00:58:31Z</time></trkpt><trkpt lat="36.537534498000525" lon="139.1827789851711"><ele>1501.7778443265706</ele><time>2022-06-19T00:58:48Z</time></trkpt><trkpt lat="36.537497437918844" lon="139.1830016667563"><ele>1500.4996838234365</ele><time>2022-06-19T00:59:03Z</time></trkpt><trkpt lat="36.53741768234904" lon="139.18321034749204"><ele>1498.3448540456593</ele><time>2022-06-19T00:59:22Z</time></trkpt><trkpt lat="36.53738357833972" lon="139.18343371067962"><ele>1498.080944123678</ele><time>2022-06-19T00:59:38Z</time></trkpt><trkpt lat="36.53739199523338" lon="139.18365765210936"><ele>1495.4869913179427</ele><time>2022-06-19T00:59:55Z</time></trkpt><trkpt lat="36.53744855397379" lon="139.1838718206557"><ele>1494.9695482216775</ele><time>2022-06-19T01:00:10Z</time></trkpt><trkpt lat="36.53758010239552" lon="139.18404728107734"><ele>1493.4240911658853</ele><time>2022-06-19T01:00:27Z</time></trkpt><trkpt lat="36.53770504286626" lon="139.18421813456536"><ele>1493.0474558742717</ele><time>2022-06-19T01:00:44Z</time></trkpt><trkpt lat="36.537841114844525" lon="139.18438309424448"><ele>1493.6466643624008</ele><time>2022-06-19T01:01:00Z</time></trkpt><trkpt lat="36.537970274706566" lon="139.18455820427397"><ele>1492.026947467588</ele><time>2022-06-19T01:01:19Z</time></trkpt><trkpt lat="36.53808605205394" lon="139.18474007661933"><ele>1490.1258496800438</ele><time>2022-06-19T01:01:37Z</time></trkpt><trkpt lat="36.538154099710034" lon="139.18495135310695"><ele>1489.0848494432867</ele><time>2022-06-19T01:01:54Z</time></trkpt><trkpt lat="36.53800947515531" lon="139.18509240238825"><ele>1488.995039312169</ele><time>2022-06-19T01:02:24Z</time></trkpt><trkpt lat="36.53798476887789" lon="139.18531734681943"><ele>1489.1732642827556</ele><time>2022-06-19T01:02:42Z</time></trkpt><trkpt lat="36.537956904214134" lon="139.18554236125732"><ele>1489.6773602254689</ele><time>2022-06-19T01:03:01Z</time></trkpt><trkpt lat="36.53794417288925" lon="139.18577290348063"><ele>1490.3235067827627</ele><time>2022-06-19T01:03:19Z</time></trkpt><trkpt lat="36.53795684112533" lon="139.18599970447704"><ele>1491.0887595508248</ele><time>2022-06-19T01:03:35Z</time></trkpt><trkpt lat="36.537965170531294" lon="139.18622768345858"><ele>1491.4718000516295</ele><time>2022-06-19T01:03:55Z</time></trkpt><trkpt lat="36.537969279277995" lon="139.1864636051235"><ele>1491.9049900276586</ele><time>2022-06-19T01:04:13Z</time></trkpt><trkpt lat="36.53796260457278" lon="139.18669772580083"><ele>1493.6771662160754</ele><time>2022-06-19T01:04:32Z</time></trkpt><trkpt lat="36.53798463813926" lon="139.18692686211386"><ele>1495.2994819348678</ele><time>2022-06-19T01:04:52Z</time></trkpt><trkpt lat="36.538042494707355" lon="139.18715117144805"><ele>1498.6080663092434</ele><time>2022-06-19T01:05:11Z</time></trkpt><trkpt lat="36.53819924014196" lon="139.18726492087157"><ele>1498.294493447058</ele><time>2022-06-19T01:07:31Z</time></trkpt><trkpt lat="36.53838855155477" lon="139.1872802427238"><ele>1494.5522423423827</ele><time>2022-06-19T01:07:54Z</time></trkpt><trkpt lat="36.538568705767986" lon="139.18721629538948"><ele>1488.8414577171206</ele><time>2022-06-19T01:08:19Z</time></trkpt><trkpt lat="36.53867972667882" lon="139.1873981479878"><ele>1484.7643947582692</ele><time>2022-06-19T01:08:53Z</time></trkpt><trkpt lat="36.53884510644635" lon="139.18749868721085"><ele>1485.593189750798</ele><time>2022-06-19T01:09:13Z</time></trkpt><trkpt lat="36.53902370468268" lon="139.187531933854"><ele>1479.9246215308085</ele><time>2022-06-19T01:09:42Z</time></trkpt><trkpt lat="36.53920438111103" lon="139.18757388749927"><ele>1472.5766746578738</ele><time>2022-06-19T01:10:00Z</time></trkpt><trkpt lat="36.53937454404593" lon="139.18766216305116"><ele>1465.681995421648</ele><time>2022-06-19T01:10:21Z</time></trkpt><trkpt lat="36.539517581282176" lon="139.18781802884664"><ele>1465.191518817097</ele><time>2022-06-19T01:10:36Z</time></trkpt><trkpt lat="36.53959197668126" lon="139.18802903268582"><ele>1468.7283441275358</ele><time>2022-06-19T01:10:54Z</time></trkpt><trkpt lat="36.53976492981068" lon="139.18810648155684"><ele>1469.0259062629193</ele><time>2022-06-19T01:11:07Z</time></trkpt><trkpt lat="36.53989302673483" lon="139.18826501129286"><ele>1464.4720970280468</ele><time>2022-06-19T01:11:24Z</time></trkpt><trkpt lat="36.54003728184394" lon="139.18840302148712"><ele>1457.9963442580774</ele><time>2022-06-19T01:11:41Z</time></trkpt><trkpt lat="36.54013871752861" lon="139.1886027341447"><ele>1450.7724534245208</ele><time>2022-06-19T01:11:56Z</time></trkpt><trkpt lat="36.54022273395978" lon="139.18880795542788"><ele>1446.7033235374838</ele><time>2022-06-19T01:12:15Z</time></trkpt><trkpt lat="36.54030530344684" lon="139.18901138622698"><ele>1446.106242847629</ele><time>2022-06-19T01:12:32Z</time></trkpt><trkpt lat="36.54036886641629" lon="139.18922227690183"><ele>1444.0811232030392</ele><time>2022-06-19T01:12:50Z</time></trkpt><trkpt lat="36.54048443977559" lon="139.18941760837643"><ele>1440.5466685062274</ele><time>2022-06-19T01:13:17Z</time></trkpt><trkpt lat="36.54056675336278" lon="139.1896215667884"><ele>1436.2018199358135</ele><time>2022-06-19T01:13:32Z</time></trkpt><trkpt lat="36.54060494584845" lon="139.18984438997802"><ele>1436.191863280721</ele><time>2022-06-19T01:13:46Z</time></trkpt><trkpt lat="36.54064880080114" lon="139.19007545454383"><ele>1429.0961144380271</ele><time>2022-06-19T01:14:07Z</time></trkpt><trkpt lat="36.54066224665404" lon="139.1903073460328"><ele>1426.0524026770145</ele><time>2022-06-19T01:14:23Z</time></trkpt><trkpt lat="36.540716916824664" lon="139.19052412695808"><ele>1423.3076140256599</ele><time>2022-06-19T01:14:40Z</time></trkpt><trkpt lat="36.540783680634064" lon="139.19074562692222"><ele>1420.7729157432914</ele><time>2022-06-19T01:14:58Z</time></trkpt><trkpt lat="36.54081363986196" lon="139.19096605713065"><ele>1417.7753707980737</ele><time>2022-06-19T01:15:10Z</time></trkpt><trkpt lat="36.54083175322302" lon="139.19119510285628"><ele>1415.764316033572</ele><time>2022-06-19T01:15:27Z</time></trkpt><trkpt lat="36.54083341473608" lon="139.1914196581098"><ele>1416.0625118594617</ele><time>2022-06-19T01:15:41Z</time></trkpt><trkpt lat="36.54087088829837" lon="139.19165369519106"><ele>1408.8933006767184</ele><time>2022-06-19T01:16:02Z</time></trkpt><trkpt lat="36.5408914826952" lon="139.1918818671266"><ele>1406.650284845382</ele><time>2022-06-19T01:16:18Z</time></trkpt><trkpt lat="36.54091309490598" lon="139.1921090665032"><ele>1400.550746889785</ele><time>2022-06-19T01:16:42Z</time></trkpt><trkpt lat="36.54092545784938" lon="139.19233484904683"><ele>1398.2243488570675</ele><time>2022-06-19T01:16:58Z</time></trkpt><trkpt lat="36.540925623007816" lon="139.19257231161504"><ele>1395.7036862112582</ele><time>2022-06-19T01:17:15Z</time></trkpt><trkpt lat="36.54091270330807" lon="139.1927486953839"><ele>1393.1606150856242</ele><time>2022-06-19T01:18:06Z</time></trkpt><trkpt lat="36.54096553773548" lon="139.1929730564842"><ele>1391.6467178501189</ele><time>2022-06-19T01:18:30Z</time></trkpt><trkpt lat="36.540921077412726" lon="139.19319702781866"><ele>1390.8669260060415</ele><time>2022-06-19T01:18:46Z</time></trkpt><trkpt lat="36.54110727811269" lon="139.19321633825587"><ele>1391.6900860909373</ele><time>2022-06-19T01:19:43Z</time></trkpt><trkpt lat="36.54128462825875" lon="139.1931753791697"><ele>1391.7291425969452</ele><time>2022-06-19T01:19:58Z</time></trkpt><trkpt lat="36.54135958465612" lon="139.1933797079596"><ele>1393.4731704834849</ele><time>2022-06-19T01:20:49Z</time></trkpt><trkpt lat="36.54135958465612" lon="139.1933797079596"><ele>1393.4731704834849</ele><time>2022-06-19T01:20:49Z</time></trkpt><trkpt lat="36.5414556411809" lon="139.1935749336528"><ele>1402.9584362534806</ele><time>2022-06-19T01:22:16Z</time></trkpt><trkpt lat="36.541618124763964" lon="139.19367511432398"><ele>1412.2638504896313</ele><time>2022-06-19T01:23:52Z</time></trkpt><trkpt lat="36.54178983155256" lon="139.19375717440013"><ele>1412.2839827109128</ele><time>2022-06-19T01:24:59Z</time></trkpt><trkpt lat="36.54195626397822" lon="139.19384378215878"><ele>1412.0373161882162</ele><time>2022-06-19T01:26:26Z</time></trkpt><trkpt lat="36.54202715798305" lon="139.19405468799144"><ele>1414.9010743834078</ele><time>2022-06-19T01:27:04Z</time></trkpt><trkpt lat="36.54204555550622" lon="139.19428420229238"><ele>1421.1160429054871</ele><time>2022-06-19T01:27:44Z</time></trkpt><trkpt lat="36.54217206240813" lon="139.19445532005938"><ele>1419.7622845377773</ele><time>2022-06-19T01:28:05Z</time></trkpt><trkpt lat="36.54233570069181" lon="139.19457908864229"><ele>1419.1053590942174</ele><time>2022-06-19T01:28:20Z</time></trkpt><trkpt lat="36.542491843090474" lon="139.1946999945454"><ele>1421.0575533453375</ele><time>2022-06-19T01:29:21Z</time></trkpt><trkpt lat="36.542671108459935" lon="139.19475698311774"><ele>1426.4714637845755</ele><time>2022-06-19T01:29:52Z</time></trkpt><trkpt lat="36.54282003552637" lon="139.1948919449529"><ele>1432.8485220242292</ele><time>2022-06-19T01:30:18Z</time></trkpt><trkpt lat="36.543006915592805" lon="139.1949397085897"><ele>1435.452175221406</ele><time>2022-06-19T01:30:48Z</time></trkpt><trkpt lat="36.543197390522096" lon="139.19490917759114"><ele>1437.5597527381033</ele><time>2022-06-19T01:31:07Z</time></trkpt><trkpt lat="36.543361265432615" lon="139.19500335105252"><ele>1441.711484390311</ele><time>2022-06-19T01:31:33Z</time></trkpt><trkpt lat="36.543534153098534" lon="139.19507394629093"><ele>1449.8211115794256</ele><time>2022-06-19T01:32:11Z</time></trkpt><trkpt lat="36.54367700528596" lon="139.19521592582578"><ele>1461.6600989867002</ele><time>2022-06-19T01:33:01Z</time></trkpt><trkpt lat="36.54385913734466" lon="139.19527658069117"><ele>1467.8786622807384</ele><time>2022-06-19T01:33:44Z</time></trkpt><trkpt lat="36.544039312035565" lon="139.1953034447936"><ele>1473.7188731767237</ele><time>2022-06-19T01:35:00Z</time></trkpt><trkpt lat="36.544170930914255" lon="139.19514582854842"><ele>1478.853394266218</ele><time>2022-06-19T01:35:29Z</time></trkpt><trkpt lat="36.54427432386107" lon="139.19495730049744"><ele>1484.7995768580586</ele><time>2022-06-19T01:36:00Z</time></trkpt><trkpt lat="36.54437882531144" lon="139.1947683132552"><ele>1485.2718798508868</ele><time>2022-06-19T01:36:23Z</time></trkpt><trkpt lat="36.54451744370411" lon="139.19462244290327"><ele>1484.9994067661464</ele><time>2022-06-19T01:36:45Z</time></trkpt><trkpt lat="36.544682002978575" lon="139.19450512357855"><ele>1483.6771361064166</ele><time>2022-06-19T01:37:15Z</time></trkpt><trkpt lat="36.54484738448022" lon="139.19439550079096"><ele>1484.092101844959</ele><time>2022-06-19T01:37:37Z</time></trkpt><trkpt lat="36.54502085166552" lon="139.19431419675772"><ele>1486.4277545828372</ele><time>2022-06-19T01:38:10Z</time></trkpt><trkpt lat="36.54516442006803" lon="139.19417107450104"><ele>1492.5949242021888</ele><time>2022-06-19T01:38:41Z</time></trkpt><trkpt lat="36.545320698204456" lon="139.19404774103953"><ele>1499.7149588568136</ele><time>2022-06-19T01:39:14Z</time></trkpt><trkpt lat="36.54550450188643" lon="139.19399471096705"><ele>1502.2553503764793</ele><time>2022-06-19T01:39:45Z</time></trkpt><trkpt lat="36.54565640510741" lon="139.1938691305112"><ele>1510.1932198517025</ele><time>2022-06-19T01:40:24Z</time></trkpt><trkpt lat="36.54581352288649" lon="139.19374897254337"><ele>1512.5351923787966</ele><time>2022-06-19T01:40:59Z</time></trkpt><trkpt lat="36.54598847083598" lon="139.19366871901445"><ele>1516.10529417824</ele><time>2022-06-19T01:41:29Z</time></trkpt><trkpt lat="36.54617280804798" lon="139.19364198910768"><ele>1528.0542204547673</ele><time>2022-06-19T01:42:25Z</time></trkpt><trkpt lat="36.546351895892364" lon="139.19367450992615"><ele>1538.930034079589</ele><time>2022-06-19T01:43:25Z</time></trkpt><trkpt lat="36.54653626971364" lon="139.19368858709612"><ele>1549.8861444015056</ele><time>2022-06-19T01:44:57Z</time></trkpt><trkpt lat="36.546702922126705" lon="139.193600867596"><ele>1555.1278046760708</ele><time>2022-06-19T01:46:03Z</time></trkpt><trkpt lat="36.546870990193725" lon="139.1935199688024"><ele>1571.9239308610559</ele><time>2022-06-19T01:47:21Z</time></trkpt><trkpt lat="36.547051177232284" lon="139.1935272591742"><ele>1576.088939839974</ele><time>2022-06-19T01:48:11Z</time></trkpt><trkpt lat="36.547177430490066" lon="139.19336280234108"><ele>1581.1114098355174</ele><time>2022-06-19T01:48:55Z</time></trkpt><trkpt lat="36.547341218483396" lon="139.19325818978217"><ele>1585.580082227476</ele><time>2022-06-19T01:49:29Z</time></trkpt><trkpt lat="36.54749837173303" lon="139.19314646598067"><ele>1588.7855804776773</ele><time>2022-06-19T01:50:41Z</time></trkpt><trkpt lat="36.547647460514234" lon="139.1930210471781"><ele>1602.4048295244575</ele><time>2022-06-19T01:51:29Z</time></trkpt><trkpt lat="36.54782847269619" lon="139.19305241442066"><ele>1605.5466162087396</ele><time>2022-06-19T01:52:10Z</time></trkpt><trkpt lat="36.54799652982356" lon="139.1929687252448"><ele>1613.573597110808</ele><time>2022-06-19T01:53:01Z</time></trkpt><trkpt lat="36.54816158773128" lon="139.19287382151157"><ele>1623.691651403904</ele><time>2022-06-19T01:54:12Z</time></trkpt><trkpt lat="36.54831552784994" lon="139.19274905241176"><ele>1626.416587122716</ele><time>2022-06-19T01:54:43Z</time></trkpt><trkpt lat="36.54849416458318" lon="139.19282201784543"><ele>1629.6933064199984</ele><time>2022-06-19T01:55:33Z</time></trkpt><trkpt lat="36.548656834717384" lon="139.19292163440164"><ele>1632.5649264818057</ele><time>2022-06-19T01:56:00Z</time></trkpt><trkpt lat="36.54882501570657" lon="139.19283351115067"><ele>1639.5614327890798</ele><time>2022-06-19T01:56:46Z</time></trkpt><trkpt lat="36.54900558455614" lon="139.19284300280347"><ele>1643.4818284474313</ele><time>2022-06-19T01:57:22Z</time></trkpt><trkpt lat="36.549144576057905" lon="139.192985549004"><ele>1648.396303015761</ele><time>2022-06-19T01:58:06Z</time></trkpt><trkpt lat="36.54932592283687" lon="139.1929841395793"><ele>1654.3269141726196</ele><time>2022-06-19T01:58:50Z</time></trkpt><trkpt lat="36.54950815368628" lon="139.19301034813807"><ele>1660.8752033514902</ele><time>2022-06-19T01:59:27Z</time></trkpt><trkpt lat="36.54967688090702" lon="139.19308896003696"><ele>1666.9806803530082</ele><time>2022-06-19T02:00:02Z</time></trkpt><trkpt lat="36.54985135695302" lon="139.19316749347632"><ele>1665.2817468745634</ele><time>2022-06-19T02:00:27Z</time></trkpt><trkpt lat="36.55002979926208" lon="139.19322024734808"><ele>1664.6718272035941</ele><time>2022-06-19T02:01:04Z</time></trkpt><trkpt lat="36.550191556609185" lon="139.19332970516098"><ele>1664.0926369996741</ele><time>2022-06-19T02:01:24Z</time></trkpt><trkpt lat="36.55037049473125" lon="139.19340330700112"><ele>1664.8915171846747</ele><time>2022-06-19T02:01:43Z</time></trkpt><trkpt lat="36.55052606381672" lon="139.19353592803216"><ele>1670.741095664911</ele><time>2022-06-19T02:02:27Z</time></trkpt><trkpt lat="36.550701948992945" lon="139.19360300689254"><ele>1671.6509999688715</ele><time>2022-06-19T02:02:56Z</time></trkpt><trkpt lat="36.550850454502154" lon="139.19374750427457"><ele>1678.643725453876</ele><time>2022-06-19T02:04:09Z</time></trkpt><trkpt lat="36.55102777410993" lon="139.1938165565555"><ele>1676.937432711944</ele><time>2022-06-19T02:04:35Z</time></trkpt><trkpt lat="36.55117699258823" lon="139.19395060336592"><ele>1680.3475301079452</ele><time>2022-06-19T02:05:06Z</time></trkpt><trkpt lat="36.551351637009304" lon="139.1940193621877"><ele>1684.0506945475936</ele><time>2022-06-19T02:05:29Z</time></trkpt><trkpt lat="36.55152404218964" lon="139.19409688353932"><ele>1688.3462610840797</ele><time>2022-06-19T02:05:58Z</time></trkpt><trkpt lat="36.551702085232435" lon="139.19413149601033"><ele>1681.8572216145694</ele><time>2022-06-19T02:09:03Z</time></trkpt><trkpt lat="36.551851567181075" lon="139.19399650593957"><ele>1674.5761975208297</ele><time>2022-06-19T02:09:48Z</time></trkpt><trkpt lat="36.55196305325845" lon="139.19381685897827"><ele>1664.6304031629115</ele><time>2022-06-19T02:10:41Z</time></trkpt><trkpt lat="36.55214755687356" lon="139.1937661994101"><ele>1660.232402655296</ele><time>2022-06-19T02:11:29Z</time></trkpt><trkpt lat="36.55230669367103" lon="139.19364634969858"><ele>1653.080076046288</ele><time>2022-06-19T02:12:07Z</time></trkpt><trkpt lat="36.552469881887134" lon="139.19354758226814"><ele>1645.169522526674</ele><time>2022-06-19T02:12:50Z</time></trkpt><trkpt lat="36.55262174760948" lon="139.19341572598498"><ele>1639.3672069059685</ele><time>2022-06-19T02:13:30Z</time></trkpt><trkpt lat="36.55272530449432" lon="139.19322410551376"><ele>1639.8294114964083</ele><time>2022-06-19T02:13:50Z</time></trkpt><trkpt lat="36.552805926285195" lon="139.1930171617795"><ele>1639.8873057076707</ele><time>2022-06-19T02:14:10Z</time></trkpt><trkpt lat="36.55290069919179" lon="139.19291681478316"><ele>1639.1324734017253</ele><time>2022-06-19T02:14:37Z</time></trkpt><trkpt lat="36.553010937382744" lon="139.1927344205106"><ele>1635.7789471708238</ele><time>2022-06-19T02:15:38Z</time></trkpt><trkpt lat="36.553136813899584" lon="139.19256291808483"><ele>1633.0267607197165</ele><time>2022-06-19T02:20:21Z</time></trkpt><trkpt lat="36.55331818477545" lon="139.19246753967758"><ele>1633.567756632343</ele><time>2022-06-19T02:20:42Z</time></trkpt><trkpt lat="36.55347427767927" lon="139.19235282143066"><ele>1634.0290408991277</ele><time>2022-06-19T02:21:10Z</time></trkpt><trkpt lat="36.5536265810541" lon="139.19222567961202"><ele>1635.8894323837012</ele><time>2022-06-19T02:21:32Z</time></trkpt><trkpt lat="36.5538090602996" lon="139.19222852389967"><ele>1631.466652459465</ele><time>2022-06-19T02:22:08Z</time></trkpt><trkpt lat="36.55398430589571" lon="139.19228630286793"><ele>1624.3288757028058</ele><time>2022-06-19T02:22:47Z</time></trkpt><trkpt lat="36.55416553604452" lon="139.19228277833807"><ele>1623.8947136178613</ele><time>2022-06-19T02:23:09Z</time></trkpt><trkpt lat="36.55430052528946" lon="139.19243751663944"><ele>1622.8388531683013</ele><time>2022-06-19T02:23:29Z</time></trkpt><trkpt lat="36.55440883299991" lon="139.1926162464025"><ele>1623.4074403569102</ele><time>2022-06-19T02:23:52Z</time></trkpt><trkpt lat="36.55454872817783" lon="139.1927628072991"><ele>1627.2921394659206</ele><time>2022-06-19T02:24:25Z</time></trkpt><trkpt lat="36.554690102920375" lon="139.19291262052974"><ele>1633.2414389094338</ele><time>2022-06-19T02:25:15Z</time></trkpt><trkpt lat="36.55481669255752" lon="139.1930750602626"><ele>1639.9527569124475</ele><time>2022-06-19T02:25:54Z</time></trkpt><trkpt lat="36.55497646370664" lon="139.19319675645738"><ele>1651.9675468550995</ele><time>2022-06-19T02:26:53Z</time></trkpt><trkpt lat="36.55512218986782" lon="139.19333236257907"><ele>1654.8668089993298</ele><time>2022-06-19T02:27:33Z</time></trkpt><trkpt lat="36.55530330978323" lon="139.19329176120328"><ele>1656.3373216139153</ele><time>2022-06-19T02:27:57Z</time></trkpt><trkpt lat="36.55547983352622" lon="139.19324114957377"><ele>1650.9490082049742</ele><time>2022-06-19T02:28:44Z</time></trkpt><trkpt lat="36.55567097714517" lon="139.1932556434919"><ele>1644.9967458834872</ele><time>2022-06-19T02:29:29Z</time></trkpt><trkpt lat="36.55584999168228" lon="139.19329195157562"><ele>1645.6571053229272</ele><time>2022-06-19T02:29:48Z</time></trkpt><trkpt lat="36.55602511240486" lon="139.1933448814414"><ele>1646.9895663587376</ele><time>2022-06-19T02:30:07Z</time></trkpt><trkpt lat="36.55620429765788" lon="139.19338831933985"><ele>1651.3901508506387</ele><time>2022-06-19T02:30:32Z</time></trkpt><trkpt lat="36.55638902271261" lon="139.19342792165966"><ele>1659.440887607634</ele><time>2022-06-19T02:31:19Z</time></trkpt><trkpt lat="36.55654135526125" lon="139.1935527901956"><ele>1670.0018439004198</ele><time>2022-06-19T02:32:22Z</time></trkpt><trkpt lat="36.556720311974615" lon="139.1935930923584"><ele>1676.1007991880178</ele><time>2022-06-19T02:33:07Z</time></trkpt><trkpt lat="36.55687785891066" lon="139.1937081189349"><ele>1687.919332996942</ele><time>2022-06-19T02:34:09Z</time></trkpt><trkpt lat="36.55704322653472" lon="139.19381523745307"><ele>1696.543057989329</ele><time>2022-06-19T02:35:12Z</time></trkpt><trkpt lat="36.55715072101528" lon="139.1939990845742"><ele>1705.1558415843174</ele><time>2022-06-19T02:36:12Z</time></trkpt><trkpt lat="36.55733417106713" lon="139.19399717246756"><ele>1714.6029489561915</ele><time>2022-06-19T02:37:11Z</time></trkpt><trkpt lat="36.55745374394415" lon="139.19382322927876"><ele>1720.2009076848626</ele><time>2022-06-19T02:39:14Z</time></trkpt><trkpt lat="36.557633544462085" lon="139.1938643840808"><ele>1733.638659258373</ele><time>2022-06-19T02:42:16Z</time></trkpt><trkpt lat="36.5578097450975" lon="139.19381518524355"><ele>1746.9483112348244</ele><time>2022-06-19T02:45:16Z</time></trkpt><trkpt lat="36.557990628039065" lon="139.19384024053784"><ele>1760.5105803012848</ele><time>2022-06-19T02:46:48Z</time></trkpt><trkpt lat="36.5581644034259" lon="139.1939017146204"><ele>1772.5801229123026</ele><time>2022-06-19T02:48:12Z</time></trkpt><trkpt lat="36.55831816551904" lon="139.1940186296803"><ele>1785.0638510026038</ele><time>2022-06-19T02:49:32Z</time></trkpt><trkpt lat="36.55849719257391" lon="139.1939767510912"><ele>1792.5758727928624</ele><time>2022-06-19T02:50:38Z</time></trkpt><trkpt lat="36.558668497741245" lon="139.19389719663633"><ele>1804.3475950174034</ele><time>2022-06-19T02:51:43Z</time></trkpt><trkpt lat="36.558835950741816" lon="139.1938082891387"><ele>1810.270248142071</ele><time>2022-06-19T02:52:41Z</time></trkpt><trkpt lat="36.558983447846586" lon="139.19367902588417"><ele>1814.1504337582737</ele><time>2022-06-19T02:53:26Z</time></trkpt><trkpt lat="36.55910111895131" lon="139.1935056138244"><ele>1819.3069892907515</ele><time>2022-06-19T02:54:06Z</time></trkpt><trkpt lat="36.55925235149532" lon="139.1933822319137"><ele>1820.5655705295503</ele><time>2022-06-19T02:54:44Z</time></trkpt><trkpt lat="36.55943418543367" lon="139.1933643695168"><ele>1821.0828100955114</ele><time>2022-06-19T02:55:20Z</time></trkpt><trkpt lat="36.55962075229939" lon="139.19336194061125"><ele>1821.8078216863796</ele><time>2022-06-19T02:55:44Z</time></trkpt><trkpt lat="36.55980223942945" lon="139.19337675445738"><ele>1823.055316873826</ele><time>2022-06-19T02:56:06Z</time></trkpt><trkpt lat="36.559985745733215" lon="139.19335765310814"><ele>1822.9880160596222</ele><time>2022-06-19T02:56:27Z</time></trkpt><trkpt lat="36.560166588120595" lon="139.19334540089028"><ele>1823.9418923072517</ele><time>2022-06-19T02:57:15Z</time></trkpt><trkpt lat="36.5603392973927" lon="139.19327861729923"><ele>1826.4328436832875</ele><time>2022-06-19T02:57:44Z</time></trkpt><trkpt lat="36.5605182849081" lon="139.1933238214821"><ele>1825.9000840019435</ele><time>2022-06-19T02:59:06Z</time></trkpt><trkpt lat="36.56068795869979" lon="139.19341685974246"><ele>1822.630067310296</ele><time>2022-06-19T02:59:34Z</time></trkpt><trkpt lat="36.56085627609904" lon="139.1935028496467"><ele>1821.7173530524597</ele><time>2022-06-19T03:00:08Z</time></trkpt><trkpt lat="36.561029643606766" lon="139.1935858021375"><ele>1820.8225631350651</ele><time>2022-06-19T03:00:36Z</time></trkpt><trkpt lat="36.56120898937921" lon="139.19361121699606"><ele>1820.6573562119156</ele><time>2022-06-19T03:01:01Z</time></trkpt><trkpt lat="36.56139054002113" lon="139.1936551529027"><ele>1823.1849823575467</ele><time>2022-06-19T03:01:31Z</time></trkpt><trkpt lat="36.561574355190274" lon="139.19363912137672"><ele>1825.2467979984358</ele><time>2022-06-19T03:01:57Z</time></trkpt><trkpt lat="36.56175688216339" lon="139.19362483804468"><ele>1822.5093325302005</ele><time>2022-06-19T03:02:25Z</time></trkpt><trkpt lat="36.56173924252703" lon="139.1936295444731"><ele>1820.313658311963</ele><time>2022-06-19T03:27:47Z</time></trkpt><trkpt lat="36.561554956098114" lon="139.19362652534835"><ele>1822.884906463325</ele><time>2022-06-19T03:28:28Z</time></trkpt><trkpt lat="36.5613678114824" lon="139.19361123100597"><ele>1823.5448447838426</ele><time>2022-06-19T03:28:49Z</time></trkpt><trkpt lat="36.5611800202657" lon="139.19358202112056"><ele>1821.5073569063097</ele><time>2022-06-19T03:29:13Z</time></trkpt><trkpt lat="36.56099167463766" lon="139.1935162958761"><ele>1820.6788512496278</ele><time>2022-06-19T03:29:37Z</time></trkpt><trkpt lat="36.56081774743833" lon="139.19343829915172"><ele>1820.4944918062538</ele><time>2022-06-19T03:30:01Z</time></trkpt><trkpt lat="36.560644339092825" lon="139.19337119908215"><ele>1823.3385570906103</ele><time>2022-06-19T03:30:25Z</time></trkpt><trkpt lat="36.560468675245815" lon="139.1933103591797"><ele>1825.3423313405365</ele><time>2022-06-19T03:30:49Z</time></trkpt><trkpt lat="36.56028857984129" lon="139.19327338807653"><ele>1826.439654873684</ele><time>2022-06-19T03:31:13Z</time></trkpt><trkpt lat="36.56010723134634" lon="139.19326528802378"><ele>1824.1478505767882</ele><time>2022-06-19T03:31:43Z</time></trkpt><trkpt lat="36.55993276725738" lon="139.19333021675112"><ele>1822.8259704681113</ele><time>2022-06-19T03:32:01Z</time></trkpt><trkpt lat="36.559747825932014" lon="139.19333035600204"><ele>1821.4854420339689</ele><time>2022-06-19T03:32:28Z</time></trkpt><trkpt lat="36.5595650319867" lon="139.19332729122007"><ele>1822.936232862994</ele><time>2022-06-19T03:32:43Z</time></trkpt><trkpt lat="36.55937751199574" lon="139.1933389756435"><ele>1821.0481710629538</ele><time>2022-06-19T03:33:03Z</time></trkpt><trkpt lat="36.559446967059166" lon="139.1931326112832"><ele>1817.3611303726211</ele><time>2022-06-19T03:33:44Z</time></trkpt><trkpt lat="36.559543139661834" lon="139.19294058692955"><ele>1811.0578998010606</ele><time>2022-06-19T03:34:25Z</time></trkpt><trkpt lat="36.55958430907784" lon="139.19272096931104"><ele>1801.5112258335575</ele><time>2022-06-19T03:35:18Z</time></trkpt><trkpt lat="36.5595273886503" lon="139.19249680573557"><ele>1789.3326878277585</ele><time>2022-06-19T03:36:41Z</time></trkpt><trkpt lat="36.55947266378128" lon="139.19227666825822"><ele>1778.4343620138243</ele><time>2022-06-19T03:37:55Z</time></trkpt><trkpt lat="36.55941554188604" lon="139.19206323669798"><ele>1768.986187032424</ele><time>2022-06-19T03:39:08Z</time></trkpt><trkpt lat="36.55941797989855" lon="139.19183660915692"><ele>1761.5587925184518</ele><time>2022-06-19T03:39:50Z</time></trkpt><trkpt lat="36.559448789439955" lon="139.1916162905958"><ele>1750.1201470680535</ele><time>2022-06-19T03:40:50Z</time></trkpt><trkpt lat="36.559478622428465" lon="139.191393773864"><ele>1743.6483922740445</ele><time>2022-06-19T03:41:38Z</time></trkpt><trkpt lat="36.559451394057625" lon="139.19117293671255"><ele>1734.122596028261</ele><time>2022-06-19T03:42:47Z</time></trkpt><trkpt lat="36.559544020074355" lon="139.1909802126589"><ele>1724.394260472618</ele><time>2022-06-19T03:45:15Z</time></trkpt><trkpt lat="36.55939980833509" lon="139.19084583361317"><ele>1716.6784048462287</ele><time>2022-06-19T03:45:57Z</time></trkpt><trkpt lat="36.559266784203146" lon="139.19069112526608"><ele>1704.191010741517</ele><time>2022-06-19T03:47:05Z</time></trkpt><trkpt lat="36.559175563306574" lon="139.19049793528475"><ele>1691.6953857205808</ele><time>2022-06-19T03:49:22Z</time></trkpt><trkpt lat="36.559058743807064" lon="139.19031970001342"><ele>1678.0384450023994</ele><time>2022-06-19T03:50:32Z</time></trkpt><trkpt lat="36.55896762868332" lon="139.190126548964"><ele>1663.9701222535223</ele><time>2022-06-19T03:52:06Z</time></trkpt><trkpt lat="36.55897995520406" lon="139.18990226862567"><ele>1654.2553379591554</ele><time>2022-06-19T03:54:19Z</time></trkpt><trkpt lat="36.55888705539697" lon="139.18970814487045"><ele>1635.4741188036278</ele><time>2022-06-19T03:55:56Z</time></trkpt><trkpt lat="36.55885074018824" lon="139.1894803398943"><ele>1627.372786601074</ele><time>2022-06-19T03:56:40Z</time></trkpt><trkpt lat="36.55880921660542" lon="139.18926193673434"><ele>1620.9293814115226</ele><time>2022-06-19T03:57:23Z</time></trkpt><trkpt lat="36.55865301479695" lon="139.18911796301506"><ele>1616.6917665144429</ele><time>2022-06-19T03:57:45Z</time></trkpt><trkpt lat="36.55853860410122" lon="139.18894029887824"><ele>1609.4272413309664</ele><time>2022-06-19T03:58:56Z</time></trkpt><trkpt lat="36.558492577959434" lon="139.18870267337908"><ele>1607.7323635490611</ele><time>2022-06-19T03:59:37Z</time></trkpt><trkpt lat="36.55841625377461" lon="139.18849558567578"><ele>1600.630319494754</ele><time>2022-06-19T04:00:14Z</time></trkpt><trkpt lat="36.55836665675495" lon="139.18827411813723"><ele>1596.0634504342452</ele><time>2022-06-19T04:01:06Z</time></trkpt><trkpt lat="36.55826343274504" lon="139.18808611717176"><ele>1599.0334455603734</ele><time>2022-06-19T04:01:31Z</time></trkpt><trkpt lat="36.558196940805594" lon="139.18787188508398"><ele>1585.3517019711435</ele><time>2022-06-19T04:02:47Z</time></trkpt><trkpt lat="36.55809368585706" lon="139.18768153541646"><ele>1575.7703859042376</ele><time>2022-06-19T04:03:54Z</time></trkpt><trkpt lat="36.55815029628598" lon="139.18746594818154"><ele>1555.675921198912</ele><time>2022-06-19T04:07:26Z</time></trkpt><trkpt lat="36.55813193616194" lon="139.18724197700595"><ele>1556.1036197347566</ele><time>2022-06-19T04:08:43Z</time></trkpt><trkpt lat="36.5580265312917" lon="139.18704893261352"><ele>1551.4325850512832</ele><time>2022-06-19T04:09:55Z</time></trkpt><trkpt lat="36.55792328650882" lon="139.18686470103495"><ele>1543.881521301344</ele><time>2022-06-19T04:10:48Z</time></trkpt><trkpt lat="36.55780667629659" lon="139.1866938306024"><ele>1537.388387718238</ele><time>2022-06-19T04:12:03Z</time></trkpt><trkpt lat="36.55775500532662" lon="139.1864738869565"><ele>1521.2133984826505</ele><time>2022-06-19T04:14:49Z</time></trkpt><trkpt lat="36.55775324503229" lon="139.18624600551564"><ele>1509.0895699430257</ele><time>2022-06-19T04:16:27Z</time></trkpt><trkpt lat="36.557744270987634" lon="139.18602188620443"><ele>1494.394673985429</ele><time>2022-06-19T04:18:37Z</time></trkpt><trkpt lat="36.55764574444666" lon="139.18583099755767"><ele>1487.749355792068</ele><time>2022-06-19T04:19:50Z</time></trkpt><trkpt lat="36.557468355234064" lon="139.18579065975405"><ele>1486.6332480451092</ele><time>2022-06-19T04:20:17Z</time></trkpt><trkpt lat="36.5573889874859" lon="139.18558666156608"><ele>1479.761066132225</ele><time>2022-06-19T04:20:47Z</time></trkpt><trkpt lat="36.55729548639524" lon="139.185387781348"><ele>1480.2734683919698</ele><time>2022-06-19T04:21:27Z</time></trkpt><trkpt lat="36.557217469943836" lon="139.18518634188047"><ele>1478.675912491046</ele><time>2022-06-19T04:22:12Z</time></trkpt><trkpt lat="36.55714822181878" lon="139.18497941258727"><ele>1473.024715877138</ele><time>2022-06-19T04:22:51Z</time></trkpt><trkpt lat="36.55705156588044" lon="139.18477732744284"><ele>1473.344713919796</ele><time>2022-06-19T04:24:07Z</time></trkpt><trkpt lat="36.55710450924101" lon="139.18456343762543"><ele>1465.387477343902</ele><time>2022-06-19T04:25:55Z</time></trkpt><trkpt lat="36.55706257854068" lon="139.18433383916152"><ele>1458.9595155781135</ele><time>2022-06-19T04:27:25Z</time></trkpt><trkpt lat="36.55722801821909" lon="139.18424331207729"><ele>1445.4591179303825</ele><time>2022-06-19T04:28:59Z</time></trkpt><trkpt lat="36.55736015866468" lon="139.18408977162528"><ele>1435.316352026537</ele><time>2022-06-19T04:30:13Z</time></trkpt><trkpt lat="36.55728204882131" lon="139.18387886228524"><ele>1428.1383516276255</ele><time>2022-06-19T04:31:02Z</time></trkpt><trkpt lat="36.55711286421466" lon="139.18379934691814"><ele>1427.7585156271234</ele><time>2022-06-19T04:31:20Z</time></trkpt><trkpt lat="36.55696508782017" lon="139.18365540372912"><ele>1423.9186061015353</ele><time>2022-06-19T04:32:14Z</time></trkpt><trkpt lat="36.55681669011311" lon="139.18346923842046"><ele>1405.629540563561</ele><time>2022-06-19T04:34:03Z</time></trkpt><trkpt lat="36.556752541963924" lon="139.1832592243416"><ele>1398.000797466375</ele><time>2022-06-19T04:35:21Z</time></trkpt><trkpt lat="36.55672936839772" lon="139.1830317071793"><ele>1382.7616629367694</ele><time>2022-06-19T04:36:44Z</time></trkpt><trkpt lat="36.55669185274778" lon="139.1828030816096"><ele>1375.8722984474152</ele><time>2022-06-19T04:37:52Z</time></trkpt><trkpt lat="36.556702352713586" lon="139.18280304007448"><ele>1376.3258087411523</ele><time>2022-06-19T04:38:13Z</time></trkpt><trkpt lat="36.55687904092215" lon="139.1827249479248"><ele>1379.5603125877678</ele><time>2022-06-19T04:39:50Z</time></trkpt><trkpt lat="36.55706706783823" lon="139.18267574253366"><ele>1379.0262452913448</ele><time>2022-06-19T04:40:07Z</time></trkpt><trkpt lat="36.55725382985768" lon="139.18267627994217"><ele>1379.7284896885976</ele><time>2022-06-19T04:40:29Z</time></trkpt><trkpt lat="36.55742212745884" lon="139.1825895429347"><ele>1382.9708393737674</ele><time>2022-06-19T04:40:46Z</time></trkpt><trkpt lat="36.55756208212221" lon="139.18244328268221"><ele>1381.5162257403135</ele><time>2022-06-19T04:40:59Z</time></trkpt><trkpt lat="36.5576719613523" lon="139.18224360870332"><ele>1379.139168982394</ele><time>2022-06-19T04:41:14Z</time></trkpt><trkpt lat="36.557781493129525" lon="139.18205368422383"><ele>1380.22768374905</ele><time>2022-06-19T04:41:28Z</time></trkpt><trkpt lat="36.55787347096685" lon="139.1818480646607"><ele>1381.739079605788</ele><time>2022-06-19T04:41:44Z</time></trkpt><trkpt lat="36.5579736660541" lon="139.1816442210356"><ele>1382.7713466500863</ele><time>2022-06-19T04:41:59Z</time></trkpt><trkpt lat="36.55812633486014" lon="139.1815033306313"><ele>1386.286903928034</ele><time>2022-06-19T04:42:15Z</time></trkpt><trkpt lat="36.558314942419614" lon="139.1814960738315"><ele>1389.9643262010068</ele><time>2022-06-19T04:42:31Z</time></trkpt><trkpt lat="36.558431214924944" lon="139.1816748317273"><ele>1399.7906458191574</ele><time>2022-06-19T04:42:48Z</time></trkpt><trkpt lat="36.558446431656975" lon="139.18190593518187"><ele>1401.2384702712297</ele><time>2022-06-19T04:43:07Z</time></trkpt><trkpt lat="36.558396394644404" lon="139.18212112880107"><ele>1400.61066891253</ele><time>2022-06-19T04:43:25Z</time></trkpt><trkpt lat="36.558295696976195" lon="139.1823198096553"><ele>1400.8638664921746</ele><time>2022-06-19T04:43:42Z</time></trkpt><trkpt lat="36.55818468527991" lon="139.18250370042537"><ele>1400.8476048856974</ele><time>2022-06-19T04:43:55Z</time></trkpt><trkpt lat="36.55811114777109" lon="139.1827244122755"><ele>1400.242472895421</ele><time>2022-06-19T04:44:09Z</time></trkpt><trkpt lat="36.55801608848741" lon="139.18291435151025"><ele>1401.168586973101</ele><time>2022-06-19T04:44:22Z</time></trkpt><trkpt lat="36.55791896539322" lon="139.18311514511228"><ele>1402.8550741747022</ele><time>2022-06-19T04:44:36Z</time></trkpt><trkpt lat="36.55782850097886" lon="139.1833157590266"><ele>1404.0574931418523</ele><time>2022-06-19T04:44:51Z</time></trkpt><trkpt lat="36.55775373147686" lon="139.18352841514374"><ele>1404.5980764599517</ele><time>2022-06-19T04:45:06Z</time></trkpt><trkpt lat="36.55769712065116" lon="139.18375257284217"><ele>1408.6465560561046</ele><time>2022-06-19T04:45:19Z</time></trkpt><trkpt lat="36.557732193109445" lon="139.18398878133448"><ele>1411.5390801904723</ele><time>2022-06-19T04:45:31Z</time></trkpt><trkpt lat="36.55789409050131" lon="139.18411572841083"><ele>1412.9125478575006</ele><time>2022-06-19T04:45:47Z</time></trkpt><trkpt lat="36.558081481140405" lon="139.18406743172477"><ele>1418.0287684500217</ele><time>2022-06-19T04:46:02Z</time></trkpt><trkpt lat="36.55823223998307" lon="139.18394086500294"><ele>1419.45639967639</ele><time>2022-06-19T04:46:16Z</time></trkpt><trkpt lat="36.55832163236174" lon="139.18373789447787"><ele>1414.17913873028</ele><time>2022-06-19T04:46:32Z</time></trkpt><trkpt lat="36.55838951434338" lon="139.18351397140242"><ele>1411.157700621523</ele><time>2022-06-19T04:46:47Z</time></trkpt><trkpt lat="36.558462097729546" lon="139.18329536037308"><ele>1411.7782787326723</ele><time>2022-06-19T04:47:03Z</time></trkpt><trkpt lat="36.55851370152622" lon="139.18307555403752"><ele>1411.5578472455963</ele><time>2022-06-19T04:47:18Z</time></trkpt><trkpt lat="36.55859012259618" lon="139.18286987275772"><ele>1411.4694650936872</ele><time>2022-06-19T04:47:34Z</time></trkpt><trkpt lat="36.558686151172374" lon="139.18266803710364"><ele>1412.986699176021</ele><time>2022-06-19T04:47:49Z</time></trkpt><trkpt lat="36.55874834953897" lon="139.18244207245326"><ele>1415.5491328360513</ele><time>2022-06-19T04:48:05Z</time></trkpt><trkpt lat="36.55882962475736" lon="139.1822346778448"><ele>1414.7966747507453</ele><time>2022-06-19T04:48:20Z</time></trkpt><trkpt lat="36.55892630635863" lon="139.18204075824812"><ele>1417.378100372851</ele><time>2022-06-19T04:48:33Z</time></trkpt><trkpt lat="36.5589969716068" lon="139.18182608249973"><ele>1418.014320442453</ele><time>2022-06-19T04:48:48Z</time></trkpt><trkpt lat="36.5590690924291" lon="139.1816113318379"><ele>1419.4486811831594</ele><time>2022-06-19T04:49:04Z</time></trkpt><trkpt lat="36.55915087896226" lon="139.18140724586576"><ele>1420.9392739692703</ele><time>2022-06-19T04:49:18Z</time></trkpt><trkpt lat="36.55921320954261" lon="139.18119209254345"><ele>1421.33578814473</ele><time>2022-06-19T04:49:33Z</time></trkpt><trkpt lat="36.55935354532315" lon="139.18105052845144"><ele>1429.1271460494027</ele><time>2022-06-19T04:49:48Z</time></trkpt><trkpt lat="36.559478139641485" lon="139.1808836863051"><ele>1433.8495500246063</ele><time>2022-06-19T04:50:06Z</time></trkpt><trkpt lat="36.55962052678913" lon="139.18073469485486"><ele>1433.7238619942218</ele><time>2022-06-19T04:50:55Z</time></trkpt><trkpt lat="36.559726157639304" lon="139.1805320226201"><ele>1433.7720069019124</ele><time>2022-06-19T04:51:11Z</time></trkpt><trkpt lat="36.559786508539624" lon="139.18029997919652"><ele>1434.8743664901704</ele><time>2022-06-19T04:51:25Z</time></trkpt><trkpt lat="36.559720783128036" lon="139.18008907944326"><ele>1436.205185778439</ele><time>2022-06-19T04:51:38Z</time></trkpt><trkpt lat="36.559648835159145" lon="139.17988169544103"><ele>1438.566385854967</ele><time>2022-06-19T04:51:51Z</time></trkpt><trkpt lat="36.559557768881504" lon="139.17968261454862"><ele>1438.4775764318183</ele><time>2022-06-19T04:52:04Z</time></trkpt><trkpt lat="36.55948486666756" lon="139.1794546957103"><ele>1439.4326689476147</ele><time>2022-06-19T04:52:19Z</time></trkpt><trkpt lat="36.559390725298904" lon="139.1792456300158"><ele>1437.7627474293113</ele><time>2022-06-19T04:52:33Z</time></trkpt><trkpt lat="36.55941313979226" lon="139.17901081047654"><ele>1435.7504443200305</ele><time>2022-06-19T04:52:48Z</time></trkpt><trkpt lat="36.559585034496926" lon="139.17892886161718"><ele>1439.660636473447</ele><time>2022-06-19T04:53:03Z</time></trkpt><trkpt lat="36.55977079541417" lon="139.17898475411872"><ele>1449.6170791815966</ele><time>2022-06-19T04:53:18Z</time></trkpt><trkpt lat="36.55996239984087" lon="139.17898822459324"><ele>1454.0512454230338</ele><time>2022-06-19T04:53:36Z</time></trkpt><trkpt lat="36.560155222387166" lon="139.17898866615542"><ele>1456.7170707322657</ele><time>2022-06-19T04:53:50Z</time></trkpt><trkpt lat="36.56033160831028" lon="139.17892356189765"><ele>1456.4081155629829</ele><time>2022-06-19T04:54:04Z</time></trkpt><trkpt lat="36.56051598524856" lon="139.17892051538675"><ele>1454.0216796845198</ele><time>2022-06-19T04:54:16Z</time></trkpt><trkpt lat="36.56069986278873" lon="139.17894687993416"><ele>1461.6492064027116</ele><time>2022-06-19T04:55:18Z</time></trkpt><trkpt lat="36.56088249045802" lon="139.17887880569188"><ele>1459.5184432584792</ele><time>2022-06-19T04:55:34Z</time></trkpt><trkpt lat="36.561069891553345" lon="139.1788797044278"><ele>1459.4251072145998</ele><time>2022-06-19T04:55:56Z</time></trkpt><trkpt lat="36.56125889941998" lon="139.17884552474393"><ele>1461.6351653998718</ele><time>2022-06-19T04:56:17Z</time></trkpt><trkpt lat="36.5613087571943" lon="139.17862220819435"><ele>1466.2673733895645</ele><time>2022-06-19T04:56:40Z</time></trkpt><trkpt lat="36.56146762898826" lon="139.17851116763043"><ele>1469.7216694550589</ele><time>2022-06-19T04:57:05Z</time></trkpt><trkpt lat="36.56159600263264" lon="139.17833937943942"><ele>1475.8099309736863</ele><time>2022-06-19T04:57:23Z</time></trkpt><trkpt lat="36.56163597800985" lon="139.178116693083"><ele>1480.987370959483</ele><time>2022-06-19T04:59:03Z</time></trkpt><trkpt lat="36.56159180224515" lon="139.17789771502777"><ele>1475.8242470603436</ele><time>2022-06-19T04:59:21Z</time></trkpt><trkpt lat="36.56154723108932" lon="139.17768081847416"><ele>1470.8420901903883</ele><time>2022-06-19T04:59:38Z</time></trkpt><trkpt lat="36.561523218121536" lon="139.17745731039395"><ele>1469.8327583037317</ele><time>2022-06-19T04:59:55Z</time></trkpt><trkpt lat="36.56139875613139" lon="139.17729493483986"><ele>1475.063517998904</ele><time>2022-06-19T05:00:15Z</time></trkpt><trkpt lat="36.561438715644634" lon="139.17707349578245"><ele>1470.5857253167778</ele><time>2022-06-19T05:02:15Z</time></trkpt><trkpt lat="36.561511604702424" lon="139.17685408133346"><ele>1470.1745419120416</ele><time>2022-06-19T05:02:32Z</time></trkpt><trkpt lat="36.56157946949473" lon="139.17664663942853"><ele>1471.7272074772045</ele><time>2022-06-19T05:02:49Z</time></trkpt><trkpt lat="36.5616603342478" lon="139.1764396882174"><ele>1471.3955219499767</ele><time>2022-06-19T05:03:04Z</time></trkpt><trkpt lat="36.561700567675146" lon="139.1762218323444"><ele>1477.2318112263456</ele><time>2022-06-19T05:03:23Z</time></trkpt><trkpt lat="36.56175459330476" lon="139.1760058890409"><ele>1482.964857825078</ele><time>2022-06-19T05:04:03Z</time></trkpt><trkpt lat="36.56171829930898" lon="139.1757739816852"><ele>1487.473185358569</ele><time>2022-06-19T05:04:33Z</time></trkpt><trkpt lat="36.56178360022967" lon="139.17556040058025"><ele>1487.2484258003533</ele><time>2022-06-19T05:06:00Z</time></trkpt><trkpt lat="36.56184489987904" lon="139.17534982847593"><ele>1484.199312527664</ele><time>2022-06-19T05:06:25Z</time></trkpt><trkpt lat="36.56195811104398" lon="139.17517067091663"><ele>1484.422788431868</ele><time>2022-06-19T05:06:43Z</time></trkpt><trkpt lat="36.56205040339415" lon="139.17497517110473"><ele>1482.3619941342622</ele><time>2022-06-19T05:06:59Z</time></trkpt><trkpt lat="36.56210951319106" lon="139.17475950739183"><ele>1476.5962078096345</ele><time>2022-06-19T05:07:18Z</time></trkpt><trkpt lat="36.562104176689026" lon="139.17452789543654"><ele>1474.5939789591357</ele><time>2022-06-19T05:07:41Z</time></trkpt><trkpt lat="36.56219775126983" lon="139.17431886888699"><ele>1474.5453687012196</ele><time>2022-06-19T05:08:00Z</time></trkpt><trkpt lat="36.56229207169598" lon="139.17411343636522"><ele>1476.8189845522866</ele><time>2022-06-19T05:08:22Z</time></trkpt><trkpt lat="36.56228991714184" lon="139.17387557094125"><ele>1476.6700401892886</ele><time>2022-06-19T05:08:41Z</time></trkpt><trkpt lat="36.5623061009387" lon="139.1736396436325"><ele>1476.6186274262145</ele><time>2022-06-19T05:09:01Z</time></trkpt><trkpt lat="36.56228963147694" lon="139.1734087773917"><ele>1481.9853467037901</ele><time>2022-06-19T05:09:19Z</time></trkpt><trkpt lat="36.56229301451562" lon="139.17317482209805"><ele>1487.1376269655302</ele><time>2022-06-19T05:09:39Z</time></trkpt><trkpt lat="36.56226023495649" lon="139.1729504291636"><ele>1489.4380195913836</ele><time>2022-06-19T05:09:59Z</time></trkpt><trkpt lat="36.56230351475533" lon="139.1727169103878"><ele>1490.1341563500464</ele><time>2022-06-19T05:10:19Z</time></trkpt><trkpt lat="36.562293891946275" lon="139.17248339869113"><ele>1488.7090852530673</ele><time>2022-06-19T05:10:46Z</time></trkpt><trkpt lat="36.562440081879835" lon="139.17233908194277"><ele>1485.3652444779873</ele><time>2022-06-19T05:11:09Z</time></trkpt><trkpt lat="36.56251533851619" lon="139.17212545780856"><ele>1482.2073588427156</ele><time>2022-06-19T05:11:25Z</time></trkpt><trkpt lat="36.5624947256759" lon="139.17189152322067"><ele>1478.0501610739157</ele><time>2022-06-19T05:11:39Z</time></trkpt><trkpt lat="36.56250329118373" lon="139.17165622491413"><ele>1478.4247638760135</ele><time>2022-06-19T05:11:59Z</time></trkpt><trkpt lat="36.562431292585835" lon="139.17144783385072"><ele>1481.7718353476375</ele><time>2022-06-19T05:12:15Z</time></trkpt><trkpt lat="36.562385532854805" lon="139.1712290643701"><ele>1488.0340989064425</ele><time>2022-06-19T05:12:36Z</time></trkpt><trkpt lat="36.56233676323941" lon="139.17100563308767"><ele>1492.26268116571</ele><time>2022-06-19T05:12:59Z</time></trkpt><trkpt lat="36.56219241837879" lon="139.17086507398062"><ele>1499.192337415181</ele><time>2022-06-19T05:13:29Z</time></trkpt><trkpt lat="36.56209305461596" lon="139.17066991995392"><ele>1509.8025443609804</ele><time>2022-06-19T05:14:30Z</time></trkpt><trkpt lat="36.561961289802575" lon="139.17051011330338"><ele>1517.8591246949509</ele><time>2022-06-19T05:15:21Z</time></trkpt><trkpt lat="36.56190794872943" lon="139.17029624695147"><ele>1519.5523900641128</ele><time>2022-06-19T05:15:49Z</time></trkpt><trkpt lat="36.56182828182602" lon="139.17008921574205"><ele>1518.160315866582</ele><time>2022-06-19T05:16:08Z</time></trkpt><trkpt lat="36.5617112687937" lon="139.1699113033427"><ele>1527.9150361930951</ele><time>2022-06-19T05:19:57Z</time></trkpt><trkpt lat="36.561800212828075" lon="139.1697023994516"><ele>1518.2227457407862</ele><time>2022-06-19T05:23:49Z</time></trkpt><trkpt lat="36.56183930909994" lon="139.16948351203212"><ele>1513.4679641174152</ele><time>2022-06-19T05:24:10Z</time></trkpt><trkpt lat="36.56178100023439" lon="139.16926391150872"><ele>1508.0224651517347</ele><time>2022-06-19T05:24:30Z</time></trkpt><trkpt lat="36.56169065631417" lon="139.1690633596672"><ele>1511.6587344352156</ele><time>2022-06-19T05:24:54Z</time></trkpt><trkpt lat="36.561518803117664" lon="139.16898236646512"><ele>1505.562056452036</ele><time>2022-06-19T05:25:27Z</time></trkpt><trkpt lat="36.561411141952405" lon="139.16878997582702"><ele>1498.3974656714126</ele><time>2022-06-19T05:27:01Z</time></trkpt><trkpt lat="36.5612446711241" lon="139.1686931709815"><ele>1490.8264002408832</ele><time>2022-06-19T05:27:34Z</time></trkpt><trkpt lat="36.5610872216796" lon="139.1685637596016"><ele>1488.2358934981748</ele><time>2022-06-19T05:27:54Z</time></trkpt><trkpt lat="36.56092145073484" lon="139.1684608098928"><ele>1486.697614043951</ele><time>2022-06-19T05:28:10Z</time></trkpt><trkpt lat="36.56076919168437" lon="139.16832561248683"><ele>1482.6439872682095</ele><time>2022-06-19T05:28:38Z</time></trkpt><trkpt lat="36.560588906471054" lon="139.16823126822223"><ele>1476.9834531312808</ele><time>2022-06-19T05:29:04Z</time></trkpt><trkpt lat="36.56041212984116" lon="139.168153187635"><ele>1470.5258457949385</ele><time>2022-06-19T05:29:25Z</time></trkpt><trkpt lat="36.5602350493139" lon="139.1680807316882"><ele>1469.5434027099982</ele><time>2022-06-19T05:29:40Z</time></trkpt><trkpt lat="36.56006542631228" lon="139.16796814055448"><ele>1470.4992979606614</ele><time>2022-06-19T05:29:57Z</time></trkpt><trkpt lat="36.55992000082382" lon="139.16781625171095"><ele>1469.081898077391</ele><time>2022-06-19T05:30:14Z</time></trkpt><trkpt lat="36.55977472135926" lon="139.16768073022905"><ele>1469.4133108370006</ele><time>2022-06-19T05:30:43Z</time></trkpt><trkpt lat="36.55964826093704" lon="139.16750514274008"><ele>1473.429094455205</ele><time>2022-06-19T05:31:01Z</time></trkpt><trkpt lat="36.55951877934266" lon="139.16733867499664"><ele>1469.2104830658063</ele><time>2022-06-19T05:31:18Z</time></trkpt><trkpt lat="36.559421324261514" lon="139.1671476904346"><ele>1461.1485993303359</ele><time>2022-06-19T05:31:40Z</time></trkpt><trkpt lat="36.55931833529594" lon="139.16694091424418"><ele>1459.2745381267741</ele><time>2022-06-19T05:31:55Z</time></trkpt><trkpt lat="36.559225117920164" lon="139.16674379267616"><ele>1458.3788714185357</ele><time>2022-06-19T05:32:09Z</time></trkpt><trkpt lat="36.55914821029533" lon="139.16652969159173"><ele>1458.0107351010665</ele><time>2022-06-19T05:32:27Z</time></trkpt><trkpt lat="36.55905850567903" lon="139.16632614066543"><ele>1459.779289253056</ele><time>2022-06-19T05:32:50Z</time></trkpt><trkpt lat="36.55898340708378" lon="139.1661167773266"><ele>1459.837068761699</ele><time>2022-06-19T05:33:09Z</time></trkpt><trkpt lat="36.558984116803735" lon="139.1658821495448"><ele>1460.7291844002903</ele><time>2022-06-19T05:33:30Z</time></trkpt><trkpt lat="36.55899939883222" lon="139.16565014699108"><ele>1459.9279780089855</ele><time>2022-06-19T05:33:47Z</time></trkpt><trkpt lat="36.5589709081104" lon="139.1654285087947"><ele>1460.736118717119</ele><time>2022-06-19T05:34:03Z</time></trkpt><trkpt lat="36.55887842228878" lon="139.16522051594686"><ele>1463.1894158562645</ele><time>2022-06-19T05:34:26Z</time></trkpt><trkpt lat="36.5587803987432" lon="139.1650286293903"><ele>1465.0436694668606</ele><time>2022-06-19T05:34:42Z</time></trkpt><trkpt lat="36.55863337089648" lon="139.16489270819403"><ele>1466.6809315010905</ele><time>2022-06-19T05:35:14Z</time></trkpt><trkpt lat="36.558459290359416" lon="139.16480132739017"><ele>1460.3367042830214</ele><time>2022-06-19T05:36:13Z</time></trkpt><trkpt lat="36.55827478529937" lon="139.1647585801301"><ele>1457.3386798994616</ele><time>2022-06-19T05:36:28Z</time></trkpt><trkpt lat="36.55809544296949" lon="139.164732002413"><ele>1459.4216485843062</ele><time>2022-06-19T05:36:46Z</time></trkpt><trkpt lat="36.557943707939145" lon="139.16459663451244"><ele>1456.756545853801</ele><time>2022-06-19T05:37:11Z</time></trkpt><trkpt lat="36.5577788627489" lon="139.16449495354289"><ele>1450.7301465198398</ele><time>2022-06-19T05:37:37Z</time></trkpt><trkpt lat="36.55763292128471" lon="139.16436169987279"><ele>1451.1021995572373</ele><time>2022-06-19T05:37:59Z</time></trkpt><trkpt lat="36.5575012753369" lon="139.16419711346208"><ele>1457.391169730574</ele><time>2022-06-19T05:38:25Z</time></trkpt><trkpt lat="36.557500676509" lon="139.16397125552706"><ele>1467.4052923433483</ele><time>2022-06-19T05:39:14Z</time></trkpt><trkpt lat="36.557472925977045" lon="139.1637955887597"><ele>1472.4049552865326</ele><time>2022-06-19T05:40:06Z</time></trkpt><trkpt lat="36.557318012200184" lon="139.16366731253748"><ele>1465.0267740758136</ele><time>2022-06-19T05:41:35Z</time></trkpt><trkpt lat="36.55717151592084" lon="139.16352850898278"><ele>1453.4806216070428</ele><time>2022-06-19T05:42:45Z</time></trkpt><trkpt lat="36.55702518502809" lon="139.16339040006997"><ele>1439.8010616442189</ele><time>2022-06-19T05:43:50Z</time></trkpt><trkpt lat="36.55687325507645" lon="139.16325399601675"><ele>1432.4374184710905</ele><time>2022-06-19T05:44:12Z</time></trkpt><trkpt lat="36.55670267355587" lon="139.16317736862277"><ele>1427.5892326971516</ele><time>2022-06-19T05:44:35Z</time></trkpt><trkpt lat="36.55651775525712" lon="139.1631750249432"><ele>1425.6971665853634</ele><time>2022-06-19T05:45:00Z</time></trkpt><trkpt lat="36.556359490032065" lon="139.16305386054339"><ele>1422.6692775739357</ele><time>2022-06-19T05:45:20Z</time></trkpt><trkpt lat="36.55619377541338" lon="139.16294842841035"><ele>1418.4300861628726</ele><time>2022-06-19T05:45:42Z</time></trkpt><trkpt lat="36.55602777401319" lon="139.16286033314003"><ele>1413.0039145918563</ele><time>2022-06-19T05:46:07Z</time></trkpt><trkpt lat="36.55587221236175" lon="139.16274535497783"><ele>1404.7947408864275</ele><time>2022-06-19T05:47:02Z</time></trkpt><trkpt lat="36.55573898086955" lon="139.16257999314675"><ele>1401.1163205867633</ele><time>2022-06-19T05:47:15Z</time></trkpt><trkpt lat="36.55569258484775" lon="139.16279931744634"><ele>1400.2066903691739</ele><time>2022-06-19T05:47:37Z</time></trkpt><trkpt lat="36.555645464471866" lon="139.16303794984816"><ele>1400.5060790255666</ele><time>2022-06-19T05:47:54Z</time></trkpt><trkpt lat="36.55572170898069" lon="139.16324226699825"><ele>1399.4765361770988</ele><time>2022-06-19T05:48:08Z</time></trkpt><trkpt lat="36.555855260547304" lon="139.16340801525496"><ele>1397.7940622642636</ele><time>2022-06-19T05:48:25Z</time></trkpt><trkpt lat="36.55593432513337" lon="139.16360891171956"><ele>1396.659647054039</ele><time>2022-06-19T05:48:39Z</time></trkpt><trkpt lat="36.55602638411726" lon="139.1638185155098"><ele>1395.6997510557994</ele><time>2022-06-19T05:48:53Z</time></trkpt><trkpt lat="36.55602965241396" lon="139.16404194528533"><ele>1393.2749315369874</ele><time>2022-06-19T05:49:09Z</time></trkpt><trkpt lat="36.55602701013344" lon="139.164274323308"><ele>1389.650122255087</ele><time>2022-06-19T05:49:32Z</time></trkpt><trkpt lat="36.55600310843637" lon="139.16449804843157"><ele>1387.6795755494386</ele><time>2022-06-19T05:49:47Z</time></trkpt><trkpt lat="36.55594254926024" lon="139.1647207339781"><ele>1387.9233524994925</ele><time>2022-06-19T05:50:01Z</time></trkpt><trkpt lat="36.55586033800818" lon="139.16492256086505"><ele>1387.0500473547727</ele><time>2022-06-19T05:50:18Z</time></trkpt><trkpt lat="36.55580947771664" lon="139.16515242155882"><ele>1386.6107938317582</ele><time>2022-06-19T05:50:32Z</time></trkpt><trkpt lat="36.555735167430726" lon="139.1653583675222"><ele>1382.9271410349756</ele><time>2022-06-19T05:50:48Z</time></trkpt><trkpt lat="36.555627567205626" lon="139.1655597427687"><ele>1380.2813218915835</ele><time>2022-06-19T05:51:09Z</time></trkpt><trkpt lat="36.555537095758694" lon="139.16575899689562"><ele>1377.0932256244123</ele><time>2022-06-19T05:51:24Z</time></trkpt><trkpt lat="36.55552715287607" lon="139.16598959326186"><ele>1372.78787950892</ele><time>2022-06-19T05:51:38Z</time></trkpt><trkpt lat="36.55565299065543" lon="139.16617651603204"><ele>1371.9092123713344</ele><time>2022-06-19T05:52:04Z</time></trkpt><trkpt lat="36.555817157077634" lon="139.1663041178887"><ele>1369.4065216630697</ele><time>2022-06-19T05:52:19Z</time></trkpt><trkpt lat="36.55597159277764" lon="139.16643343015994"><ele>1367.84861249011</ele><time>2022-06-19T05:52:33Z</time></trkpt><trkpt lat="36.55614905293643" lon="139.16649047220665"><ele>1368.9067546594888</ele><time>2022-06-19T05:52:49Z</time></trkpt><trkpt lat="36.55632044815426" lon="139.1665817874735"><ele>1370.0611946089193</ele><time>2022-06-19T05:53:05Z</time></trkpt><trkpt lat="36.55648515833922" lon="139.16668602662617"><ele>1368.415538069792</ele><time>2022-06-19T05:53:21Z</time></trkpt><trkpt lat="36.55661924782806" lon="139.16683628852223"><ele>1366.482912523672</ele><time>2022-06-19T05:53:38Z</time></trkpt><trkpt lat="36.556781955860345" lon="139.1669472314734"><ele>1365.5744142308831</ele><time>2022-06-19T05:53:53Z</time></trkpt><trkpt lat="36.55695513632764" lon="139.16700993124556"><ele>1365.9561427114531</ele><time>2022-06-19T05:54:13Z</time></trkpt><trkpt lat="36.55696105006961" lon="139.16712396989726"><ele>1364.1751113375649</ele><time>2022-06-19T05:54:22Z</time></trkpt><trkpt lat="36.55696105006961" lon="139.16712396989726"><ele>1364.1751113375649</ele><time>2022-06-19T05:54:24Z</time></trkpt><trkpt lat="36.55700860641346" lon="139.16734169024164"><ele>1365.234540422447</ele><time>2022-06-19T05:54:38Z</time></trkpt><trkpt lat="36.55705024047611" lon="139.1675660769678"><ele>1365.3648358834907</ele><time>2022-06-19T05:54:54Z</time></trkpt><trkpt lat="36.557083252768244" lon="139.16779159605906"><ele>1365.7919357800856</ele><time>2022-06-19T05:55:10Z</time></trkpt><trkpt lat="36.557079791845666" lon="139.16801658583935"><ele>1364.7080347426236</ele><time>2022-06-19T05:55:26Z</time></trkpt><trkpt lat="36.55706939552905" lon="139.1682518011179"><ele>1361.2969520334154</ele><time>2022-06-19T05:55:44Z</time></trkpt><trkpt lat="36.55699601631189" lon="139.1684644339638"><ele>1364.2108917720616</ele><time>2022-06-19T05:56:00Z</time></trkpt><trkpt lat="36.55688075974808" lon="139.16863771811748"><ele>1360.2470582230017</ele><time>2022-06-19T05:56:16Z</time></trkpt><trkpt lat="36.556753161810875" lon="139.16880465056227"><ele>1362.8591395225376</ele><time>2022-06-19T05:56:30Z</time></trkpt><trkpt lat="36.55667251854721" lon="139.16900562586756"><ele>1361.813145717606</ele><time>2022-06-19T05:56:43Z</time></trkpt><trkpt lat="36.55659764467766" lon="139.16921795021108"><ele>1358.1111706783995</ele><time>2022-06-19T05:57:01Z</time></trkpt><trkpt lat="36.556449529103546" lon="139.16934779122226"><ele>1358.6374289682135</ele><time>2022-06-19T05:57:14Z</time></trkpt><trkpt lat="36.55630481856188" lon="139.16948279859605"><ele>1354.6056056637317</ele><time>2022-06-19T05:57:29Z</time></trkpt><trkpt lat="36.55613443389906" lon="139.16956930257348"><ele>1352.8449331391603</ele><time>2022-06-19T05:57:45Z</time></trkpt><trkpt lat="36.55594499076698" lon="139.16954941643056"><ele>1351.5542692216113</ele><time>2022-06-19T05:58:00Z</time></trkpt><trkpt lat="36.55578994625875" lon="139.1696654503588"><ele>1352.637951688841</ele><time>2022-06-19T05:58:14Z</time></trkpt><trkpt lat="36.55564993960445" lon="139.16981563899034"><ele>1351.6739351525903</ele><time>2022-06-19T05:58:28Z</time></trkpt><trkpt lat="36.5555150564372" lon="139.169971293485"><ele>1345.9864109521732</ele><time>2022-06-19T05:58:45Z</time></trkpt><trkpt lat="36.555446305685514" lon="139.1701907031477"><ele>1342.969019971788</ele><time>2022-06-19T05:59:01Z</time></trkpt><trkpt lat="36.55552804859291" lon="139.17039982694195"><ele>1342.1258548451588</ele><time>2022-06-19T05:59:17Z</time></trkpt><trkpt lat="36.55567738552209" lon="139.1705378781529"><ele>1341.4571379199624</ele><time>2022-06-19T06:00:39Z</time></trkpt><trkpt lat="36.555603282435335" lon="139.17033347843537"><ele>1343.039123418741</ele><time>2022-06-19T06:10:51Z</time></trkpt><trkpt lat="36.555410789818374" lon="139.1703099767732"><ele>1341.564847594127</ele><time>2022-06-19T06:16:00Z</time></trkpt><trkpt lat="36.555240649338245" lon="139.17040923688657"><ele>1342.5892247864977</ele><time>2022-06-19T06:16:24Z</time></trkpt><trkpt lat="36.555074364728455" lon="139.17051812179437"><ele>1345.0327304331586</ele><time>2022-06-19T06:16:42Z</time></trkpt><trkpt lat="36.554923581825754" lon="139.17066378929152"><ele>1347.1130014490336</ele><time>2022-06-19T06:16:57Z</time></trkpt><trkpt lat="36.554766600200026" lon="139.170806384182"><ele>1348.3905686307698</ele><time>2022-06-19T06:17:11Z</time></trkpt><trkpt lat="36.55461688143962" lon="139.17095171327702"><ele>1348.1535741984844</ele><time>2022-06-19T06:17:27Z</time></trkpt><trkpt lat="36.55445295737371" lon="139.17107575967393"><ele>1347.3171693757176</ele><time>2022-06-19T06:17:43Z</time></trkpt><trkpt lat="36.55430930771256" lon="139.1712210623267"><ele>1343.4594733193517</ele><time>2022-06-19T06:18:04Z</time></trkpt><trkpt lat="36.554137812291486" lon="139.17130338341002"><ele>1345.34394857008</ele><time>2022-06-19T06:18:24Z</time></trkpt><trkpt lat="36.553970693529" lon="139.171415048876"><ele>1348.7919565131888</ele><time>2022-06-19T06:18:45Z</time></trkpt><trkpt lat="36.55379194833313" lon="139.17149779557676"><ele>1348.9251656550914</ele><time>2022-06-19T06:19:02Z</time></trkpt><trkpt lat="36.55363495876061" lon="139.1716101941717"><ele>1347.8417029837146</ele><time>2022-06-19T06:19:17Z</time></trkpt><trkpt lat="36.55357810595785" lon="139.17182694880438"><ele>1347.4036829117686</ele><time>2022-06-19T06:19:30Z</time></trkpt><trkpt lat="36.55356294790027" lon="139.17206119428656"><ele>1344.1433720225468</ele><time>2022-06-19T06:19:46Z</time></trkpt><trkpt lat="36.553672711938155" lon="139.17225146954885"><ele>1341.8016843898222</ele><time>2022-06-19T06:20:09Z</time></trkpt><trkpt lat="36.55351208391231" lon="139.17236649300673"><ele>1343.982316317968</ele><time>2022-06-19T06:20:51Z</time></trkpt><trkpt lat="36.55332416296408" lon="139.17237094337185"><ele>1346.2067775474861</ele><time>2022-06-19T06:21:20Z</time></trkpt><trkpt lat="36.55316783714191" lon="139.1722490356674"><ele>1348.1742485892028</ele><time>2022-06-19T06:21:37Z</time></trkpt><trkpt lat="36.55300602076304" lon="139.17213157366237"><ele>1344.5628630379215</ele><time>2022-06-19T06:21:56Z</time></trkpt><trkpt lat="36.55284467476965" lon="139.17202922629855"><ele>1348.1891591716558</ele><time>2022-06-19T06:22:20Z</time></trkpt><trkpt lat="36.5526932221659" lon="139.17189031378143"><ele>1354.0205482821912</ele><time>2022-06-19T06:22:46Z</time></trkpt><trkpt lat="36.55254352605533" lon="139.17175697644325"><ele>1357.1272055562586</ele><time>2022-06-19T06:23:11Z</time></trkpt><trkpt lat="36.552434591051586" lon="139.17157789184944"><ele>1360.4432588508353</ele><time>2022-06-19T06:23:34Z</time></trkpt><trkpt lat="36.55231710568856" lon="139.17139894189356"><ele>1368.6714324075729</ele><time>2022-06-19T06:25:06Z</time></trkpt><trkpt lat="36.552176204173186" lon="139.1712465205137"><ele>1372.4090916374698</ele><time>2022-06-19T06:25:30Z</time></trkpt><trkpt lat="36.55204994531965" lon="139.17107393705945"><ele>1380.7854383820668</ele><time>2022-06-19T06:25:57Z</time></trkpt><trkpt lat="36.55194553969273" lon="139.1708787308989"><ele>1385.9614662351087</ele><time>2022-06-19T06:26:21Z</time></trkpt><trkpt lat="36.5518251261268" lon="139.17070442529155"><ele>1390.7361993063241</ele><time>2022-06-19T06:26:43Z</time></trkpt><trkpt lat="36.551743834054335" lon="139.17049454412611"><ele>1396.065466963686</ele><time>2022-06-19T06:26:59Z</time></trkpt><trkpt lat="36.55173633415569" lon="139.17044009966196"><ele>1400.2704484285787</ele><time>2022-06-19T06:27:21Z</time></trkpt><trkpt lat="36.551814404573754" lon="139.17022828185569"><ele>1403.058022590354</ele><time>2022-06-19T06:27:45Z</time></trkpt><trkpt lat="36.55192905410389" lon="139.17005026451267"><ele>1410.0958161335438</ele><time>2022-06-19T06:28:04Z</time></trkpt><trkpt lat="36.55193330115109" lon="139.1698202284097"><ele>1416.948458868079</ele><time>2022-06-19T06:29:10Z</time></trkpt><trkpt lat="36.55193836838122" lon="139.16959581446514"><ele>1424.1263659400865</ele><time>2022-06-19T06:29:32Z</time></trkpt><trkpt lat="36.55194056238712" lon="139.16936329520723"><ele>1426.5989788286388</ele><time>2022-06-19T06:29:53Z</time></trkpt><trkpt lat="36.55185645424801" lon="139.16915786622175"><ele>1426.8446860648692</ele><time>2022-06-19T06:30:09Z</time></trkpt><trkpt lat="36.551733454925575" lon="139.16898467085304"><ele>1428.1265894863755</ele><time>2022-06-19T06:30:24Z</time></trkpt><trkpt lat="36.551595073521284" lon="139.16883176403627"><ele>1428.5356396017596</ele><time>2022-06-19T06:30:40Z</time></trkpt><trkpt lat="36.55147897790388" lon="139.16864243790357"><ele>1429.365389230661</ele><time>2022-06-19T06:30:59Z</time></trkpt><trkpt lat="36.551333842639586" lon="139.16850651645416"><ele>1431.377754832618</ele><time>2022-06-19T06:31:13Z</time></trkpt><trkpt lat="36.551151134160214" lon="139.16842790799825"><ele>1432.4659347403795</ele><time>2022-06-19T06:31:27Z</time></trkpt><trkpt lat="36.55100087186349" lon="139.16829698812987"><ele>1435.9767796723172</ele><time>2022-06-19T06:31:45Z</time></trkpt><trkpt lat="36.550825836056156" lon="139.16821359147391"><ele>1439.9631227273494</ele><time>2022-06-19T06:32:01Z</time></trkpt><trkpt lat="36.55063716873436" lon="139.16821159202217"><ele>1441.1986911324784</ele><time>2022-06-19T06:32:17Z</time></trkpt><trkpt lat="36.55045599531135" lon="139.1682590776765"><ele>1444.52194639761</ele><time>2022-06-19T06:32:34Z</time></trkpt><trkpt lat="36.550288057031224" lon="139.16834969655113"><ele>1445.763999803923</ele><time>2022-06-19T06:32:48Z</time></trkpt><trkpt lat="36.55012628470543" lon="139.16845183609246"><ele>1447.4159148829058</ele><time>2022-06-19T06:33:04Z</time></trkpt><trkpt lat="36.549960108382294" lon="139.16856682140246"><ele>1449.7207430852577</ele><time>2022-06-19T06:33:23Z</time></trkpt><trkpt lat="36.549808178364906" lon="139.16872126667917"><ele>1452.6172304013744</ele><time>2022-06-19T06:33:40Z</time></trkpt><trkpt lat="36.54963622409228" lon="139.16882225098152"><ele>1453.1671120170504</ele><time>2022-06-19T06:33:58Z</time></trkpt><trkpt lat="36.549452520613244" lon="139.16878221362498"><ele>1454.1356063522398</ele><time>2022-06-19T06:34:42Z</time></trkpt><trkpt lat="36.54926116996977" lon="139.16881084135284"><ele>1456.5163300158456</ele><time>2022-06-19T06:35:02Z</time></trkpt><trkpt lat="36.54908085329958" lon="139.1688438853792"><ele>1457.9575127456337</ele><time>2022-06-19T06:35:19Z</time></trkpt><trkpt lat="36.54890158218777" lon="139.16889995153403"><ele>1457.7135750763118</ele><time>2022-06-19T06:36:09Z</time></trkpt><trkpt lat="36.548739278644476" lon="139.16901552499635"><ele>1456.8258814867586</ele><time>2022-06-19T06:36:26Z</time></trkpt><trkpt lat="36.54855178580846" lon="139.16907479289935"><ele>1455.33850724902</ele><time>2022-06-19T06:36:49Z</time></trkpt><trkpt lat="36.54837460542149" lon="139.16912909852726"><ele>1452.5689700189978</ele><time>2022-06-19T06:37:03Z</time></trkpt><trkpt lat="36.54817539936458" lon="139.16913663388297"><ele>1451.6064100097865</ele><time>2022-06-19T06:37:14Z</time></trkpt><trkpt lat="36.54803135060814" lon="139.169271374658"><ele>1447.426612594165</ele><time>2022-06-19T06:38:13Z</time></trkpt><trkpt lat="36.54785554717485" lon="139.16932220583425"><ele>1441.1605444168672</ele><time>2022-06-19T06:38:55Z</time></trkpt><trkpt lat="36.54772240183778" lon="139.16947437479618"><ele>1436.539784323424</ele><time>2022-06-19T06:39:25Z</time></trkpt><trkpt lat="36.54757435538596" lon="139.169342691228"><ele>1427.4738641818985</ele><time>2022-06-19T06:40:03Z</time></trkpt><trkpt lat="36.54742060405971" lon="139.16922508065483"><ele>1420.7896906137466</ele><time>2022-06-19T06:40:31Z</time></trkpt><trkpt lat="36.54724576646648" lon="139.16916410763434"><ele>1417.7681749565527</ele><time>2022-06-19T06:40:48Z</time></trkpt><trkpt lat="36.54707746661019" lon="139.16906488187627"><ele>1418.8536056019366</ele><time>2022-06-19T06:41:07Z</time></trkpt><trkpt lat="36.54691091490943" lon="139.16897449536222"><ele>1417.4806611165404</ele><time>2022-06-19T06:41:25Z</time></trkpt><trkpt lat="36.54673053526972" lon="139.16890787360583"><ele>1417.6056657833979</ele><time>2022-06-19T06:41:42Z</time></trkpt><trkpt lat="36.54655649843645" lon="139.1688362273962"><ele>1418.9724904168397</ele><time>2022-06-19T06:41:57Z</time></trkpt><trkpt lat="36.54638645212142" lon="139.1687344207242"><ele>1425.5507949106395</ele><time>2022-06-19T06:42:16Z</time></trkpt><trkpt lat="36.54620623128934" lon="139.16872991992892"><ele>1422.373917678371</ele><time>2022-06-19T06:42:37Z</time></trkpt><trkpt lat="36.546031051298165" lon="139.16863729978616"><ele>1423.4146123416722</ele><time>2022-06-19T06:42:59Z</time></trkpt><trkpt lat="36.54589048146637" lon="139.1684942909793"><ele>1423.6149227041751</ele><time>2022-06-19T06:43:17Z</time></trkpt><trkpt lat="36.545704028566405" lon="139.16847479331562"><ele>1422.8116515083238</ele><time>2022-06-19T06:43:41Z</time></trkpt><trkpt lat="36.54552211614996" lon="139.16844987581518"><ele>1426.1751217767596</ele><time>2022-06-19T06:44:01Z</time></trkpt><trkpt lat="36.54534935777769" lon="139.16852007941537"><ele>1427.9030478782952</ele><time>2022-06-19T06:44:24Z</time></trkpt><trkpt lat="36.54516927843416" lon="139.16854867329545"><ele>1427.9377552112564</ele><time>2022-06-19T06:44:43Z</time></trkpt><trkpt lat="36.54500535064675" lon="139.16844873148418"><ele>1428.9507292006165</ele><time>2022-06-19T06:45:01Z</time></trkpt><trkpt lat="36.54482519436402" lon="139.16844023618043"><ele>1429.2364793522283</ele><time>2022-06-19T06:45:19Z</time></trkpt><trkpt lat="36.5446447290576" lon="139.1684727181191"><ele>1431.1931714424863</ele><time>2022-06-19T06:45:38Z</time></trkpt><trkpt lat="36.54446047670325" lon="139.16846497443316"><ele>1430.1987656811252</ele><time>2022-06-19T06:45:58Z</time></trkpt><trkpt lat="36.54427508879606" lon="139.168421212255"><ele>1433.7990404739976</ele><time>2022-06-19T06:46:18Z</time></trkpt><trkpt lat="36.54408868913567" lon="139.16838368597598"><ele>1432.3213343871757</ele><time>2022-06-19T06:46:37Z</time></trkpt><trkpt lat="36.54392614912147" lon="139.16827594386208"><ele>1433.9191722236574</ele><time>2022-06-19T06:46:55Z</time></trkpt><trkpt lat="36.54381214492557" lon="139.1680919987128"><ele>1435.5027498472482</ele><time>2022-06-19T06:47:14Z</time></trkpt><trkpt lat="36.543906015617885" lon="139.1678850798485"><ele>1438.9653504677117</ele><time>2022-06-19T06:48:19Z</time></trkpt><trkpt lat="36.54375059645045" lon="139.16776873097353"><ele>1437.6807665545493</ele><time>2022-06-19T06:49:18Z</time></trkpt><trkpt lat="36.54356543148866" lon="139.16780057557136"><ele>1436.211272701621</ele><time>2022-06-19T06:50:41Z</time></trkpt><trkpt lat="36.54337873127446" lon="139.16779632037256"><ele>1433.4098975975066</ele><time>2022-06-19T06:50:59Z</time></trkpt><trkpt lat="36.543210805940824" lon="139.16770510226505"><ele>1432.5082065667957</ele><time>2022-06-19T06:51:14Z</time></trkpt><trkpt lat="36.543044694629224" lon="139.16758238480296"><ele>1426.9914442086592</ele><time>2022-06-19T06:51:44Z</time></trkpt><trkpt lat="36.542919232445215" lon="139.16740511017562"><ele>1427.430626153946</ele><time>2022-06-19T06:52:02Z</time></trkpt><trkpt lat="36.54278617379237" lon="139.16725206157597"><ele>1428.6685257824138</ele><time>2022-06-19T06:52:17Z</time></trkpt><trkpt lat="36.54266801501416" lon="139.167068061387"><ele>1428.0824619494379</ele><time>2022-06-19T06:52:31Z</time></trkpt><trkpt lat="36.542528989164005" lon="139.16690229742102"><ele>1426.4277530526742</ele><time>2022-06-19T06:52:47Z</time></trkpt><trkpt lat="36.5424054754699" lon="139.1667373755016"><ele>1424.2392691401765</ele><time>2022-06-19T06:53:02Z</time></trkpt><trkpt lat="36.54227869634323" lon="139.16656946014302"><ele>1422.850745582953</ele><time>2022-06-19T06:53:17Z</time></trkpt><trkpt lat="36.54214827414187" lon="139.16641123156825"><ele>1422.1430496871471</ele><time>2022-06-19T06:53:53Z</time></trkpt><trkpt lat="36.542016851429054" lon="139.16625534483492"><ele>1416.9851553440094</ele><time>2022-06-19T06:54:07Z</time></trkpt><trkpt lat="36.54188583089114" lon="139.16607951899402"><ele>1415.3697684938088</ele><time>2022-06-19T06:54:21Z</time></trkpt><trkpt lat="36.54176786925348" lon="139.1658958597081"><ele>1416.7708647344261</ele><time>2022-06-19T06:54:35Z</time></trkpt><trkpt lat="36.54160366002723" lon="139.1657807049872"><ele>1415.639199285768</ele><time>2022-06-19T06:55:20Z</time></trkpt><trkpt lat="36.54141502969577" lon="139.16573610712115"><ele>1417.1179162589833</ele><time>2022-06-19T06:55:36Z</time></trkpt><trkpt lat="36.54123668593831" lon="139.16579580283337"><ele>1415.451651584357</ele><time>2022-06-19T06:56:44Z</time></trkpt><trkpt lat="36.54124271447669" lon="139.16579603658818"><ele>1413.5601932546124</ele><time>2022-06-19T06:57:49Z</time></trkpt></trkseg></trk></gpx>