<?xml version='1.0' encoding='UTF-8'?><gpx creator="YAMAP - https://yamap.com" xsi:schemaLocation="http://www.topografix.com/GPX/1/1 http://www.topografix.com/GPX/1/1/gpx.xsd" version="1.1" xmlns="http://www.topografix.com/GPX/1/1" xmlns:xsi="http://www.w3.org/2001/XMLSchema-instance"><metadata><bounds maxlat="35.75799193510311" maxlon="138.2383018065197" minlat="35.72557312533644" minlon="138.1933056209703"/></metadata><trk><name>双児山・駒津峰・甲斐駒ヶ岳・小仙丈ヶ岳</name><number>1</number><trkseg><trkpt lat="35.74224531090277" lon="138.21359852078473"><ele>2053.3136269478127</ele><time>2022-10-15T21:48:36Z</time></trkpt><trkpt lat="35.742418252998355" lon="138.2137121227591"><ele>2054.2179272975773</ele><time>2022-10-15T21:49:06Z</time></trkpt><trkpt lat="35.74254770138746" lon="138.21386908989743"><ele>2055.2044064132497</ele><time>2022-10-15T21:49:26Z</time></trkpt><trkpt lat="35.742651739591494" lon="138.21406082332467"><ele>2062.526347639039</ele><time>2022-10-15T21:50:02Z</time></trkpt><trkpt lat="35.74270596732344" lon="138.21428126352038"><ele>2071.3139242371544</ele><time>2022-10-15T21:50:33Z</time></trkpt><trkpt lat="35.74288844795775" lon="138.21425924362882"><ele>2078.738522592932</ele><time>2022-10-15T21:51:10Z</time></trkpt><trkpt lat="35.743038294124595" lon="138.21412307477755"><ele>2081.927272569388</ele><time>2022-10-15T21:51:53Z</time></trkpt><trkpt lat="35.7432012523721" lon="138.2142380195037"><ele>2090.031075437553</ele><time>2022-10-15T21:52:57Z</time></trkpt><trkpt lat="35.743262192974576" lon="138.21444745620428"><ele>2096.059788543731</ele><time>2022-10-15T21:53:30Z</time></trkpt><trkpt lat="35.74319708631793" lon="138.21466885662124"><ele>2105.5792532572523</ele><time>2022-10-15T21:54:07Z</time></trkpt><trkpt lat="35.74313545379027" lon="138.21487690376279"><ele>2112.3164706919342</ele><time>2022-10-15T21:54:42Z</time></trkpt><trkpt lat="35.7433239938073" lon="138.2148891488159"><ele>2118.371830606833</ele><time>2022-10-15T21:55:25Z</time></trkpt><trkpt lat="35.743492497609736" lon="138.21479269373222"><ele>2123.1733576506376</ele><time>2022-10-15T21:56:00Z</time></trkpt><trkpt lat="35.74364565145173" lon="138.2146599742729"><ele>2123.8053375529125</ele><time>2022-10-15T21:56:18Z</time></trkpt><trkpt lat="35.743767176197046" lon="138.2144877206676"><ele>2125.7227758374065</ele><time>2022-10-15T21:56:46Z</time></trkpt><trkpt lat="35.74388093373518" lon="138.21430357082372"><ele>2125.2320101372898</ele><time>2022-10-15T21:57:24Z</time></trkpt><trkpt lat="35.74399853143383" lon="138.21448114270794"><ele>2125.9410420665517</ele><time>2022-10-15T21:57:54Z</time></trkpt><trkpt lat="35.74401747578493" lon="138.2147044856376"><ele>2131.156319615431</ele><time>2022-10-15T21:58:14Z</time></trkpt><trkpt lat="35.74404237467831" lon="138.21492413165143"><ele>2138.795521617867</ele><time>2022-10-15T21:58:38Z</time></trkpt><trkpt lat="35.744000602546954" lon="138.21514616118174"><ele>2145.702337713912</ele><time>2022-10-15T21:59:04Z</time></trkpt><trkpt lat="35.74400134197336" lon="138.21537547006855"><ele>2153.124384620227</ele><time>2022-10-15T21:59:30Z</time></trkpt><trkpt lat="35.74397721268507" lon="138.21560383084224"><ele>2161.217931371182</ele><time>2022-10-15T21:59:59Z</time></trkpt><trkpt lat="35.74410701304434" lon="138.21544607911665"><ele>2163.7253638338298</ele><time>2022-10-15T22:00:31Z</time></trkpt><trkpt lat="35.744260781184245" lon="138.21557429299315"><ele>2166.9585070637986</ele><time>2022-10-15T22:01:11Z</time></trkpt><trkpt lat="35.74420910961401" lon="138.21579878353964"><ele>2176.6116979857907</ele><time>2022-10-15T22:01:37Z</time></trkpt><trkpt lat="35.744353178651735" lon="138.21565664764765"><ele>2179.818429386243</ele><time>2022-10-15T22:02:09Z</time></trkpt><trkpt lat="35.744510639979616" lon="138.21553751558332"><ele>2180.645467259921</ele><time>2022-10-15T22:02:33Z</time></trkpt><trkpt lat="35.744659354750866" lon="138.21566589840813"><ele>2179.816398533061</ele><time>2022-10-15T22:04:00Z</time></trkpt><trkpt lat="35.74483717603351" lon="138.21560753885714"><ele>2183.8048169761896</ele><time>2022-10-15T22:04:33Z</time></trkpt><trkpt lat="35.74494841529051" lon="138.21578904667632"><ele>2187.526767506264</ele><time>2022-10-15T22:05:09Z</time></trkpt><trkpt lat="35.74502103910037" lon="138.21599513599028"><ele>2195.4444075087085</ele><time>2022-10-15T22:05:59Z</time></trkpt><trkpt lat="35.7449021266611" lon="138.216169280496"><ele>2202.940749639645</ele><time>2022-10-15T22:06:27Z</time></trkpt><trkpt lat="35.744962378405255" lon="138.21638216460084"><ele>2213.4640040723607</ele><time>2022-10-15T22:07:23Z</time></trkpt><trkpt lat="35.74489948817751" lon="138.21659242039937"><ele>2224.6514084953815</ele><time>2022-10-15T22:07:56Z</time></trkpt><trkpt lat="35.74482334496489" lon="138.21679768111855"><ele>2234.315340141766</ele><time>2022-10-15T22:08:30Z</time></trkpt><trkpt lat="35.74472061872123" lon="138.21699185053043"><ele>2245.5494164191186</ele><time>2022-10-15T22:09:03Z</time></trkpt><trkpt lat="35.744635326425296" lon="138.21718901204324"><ele>2253.115927006118</ele><time>2022-10-15T22:09:34Z</time></trkpt><trkpt lat="35.74451911529425" lon="138.2173607836988"><ele>2264.132684293203</ele><time>2022-10-15T22:10:14Z</time></trkpt><trkpt lat="35.74455901264398" lon="138.2175778909832"><ele>2274.064613330178</ele><time>2022-10-15T22:11:20Z</time></trkpt><trkpt lat="35.74469615917482" lon="138.21772717806428"><ele>2286.0700287744403</ele><time>2022-10-15T22:12:41Z</time></trkpt><trkpt lat="35.74487938450932" lon="138.21769597812403"><ele>2290.787911114283</ele><time>2022-10-15T22:13:11Z</time></trkpt><trkpt lat="35.74485218076175" lon="138.21792293701006"><ele>2300.262377953157</ele><time>2022-10-15T22:14:14Z</time></trkpt><trkpt lat="35.74472944004651" lon="138.21810286368253"><ele>2308.4988155644387</ele><time>2022-10-15T22:14:45Z</time></trkpt><trkpt lat="35.744896558489316" lon="138.218008892725"><ele>2311.962522015907</ele><time>2022-10-15T22:15:14Z</time></trkpt><trkpt lat="35.74509070238465" lon="138.2179880471397"><ele>2315.235631526448</ele><time>2022-10-15T22:15:48Z</time></trkpt><trkpt lat="35.74502783971682" lon="138.21819940645122"><ele>2320.7710226513445</ele><time>2022-10-15T22:16:23Z</time></trkpt><trkpt lat="35.745210316685565" lon="138.2182760328399"><ele>2330.895419355482</ele><time>2022-10-15T22:17:30Z</time></trkpt><trkpt lat="35.74508859533487" lon="138.21843967851206"><ele>2334.15169201605</ele><time>2022-10-15T22:17:49Z</time></trkpt><trkpt lat="35.744967514256906" lon="138.218608884574"><ele>2339.3752221614122</ele><time>2022-10-15T22:18:14Z</time></trkpt><trkpt lat="35.74483861450528" lon="138.21876577206777"><ele>2342.7490293346345</ele><time>2022-10-15T22:18:45Z</time></trkpt><trkpt lat="35.744950119555284" lon="138.21895071262477"><ele>2349.700224463828</ele><time>2022-10-15T22:19:38Z</time></trkpt><trkpt lat="35.74513994409284" lon="138.2189179270384"><ele>2357.5895890034735</ele><time>2022-10-15T22:20:25Z</time></trkpt><trkpt lat="35.74531933156217" lon="138.21894384785352"><ele>2364.344789364375</ele><time>2022-10-15T22:21:02Z</time></trkpt><trkpt lat="35.74550094090198" lon="138.21894712610384"><ele>2370.8814036361873</ele><time>2022-10-15T22:21:58Z</time></trkpt><trkpt lat="35.74556692137567" lon="138.2191679318723"><ele>2378.13774951268</ele><time>2022-10-15T22:22:43Z</time></trkpt><trkpt lat="35.74574019237357" lon="138.2192381043657"><ele>2390.0113293379545</ele><time>2022-10-15T22:23:59Z</time></trkpt><trkpt lat="35.74588188590545" lon="138.21938433492835"><ele>2399.2964946655557</ele><time>2022-10-15T22:25:08Z</time></trkpt><trkpt lat="35.74593877469897" lon="138.21960443518714"><ele>2406.8527711937204</ele><time>2022-10-15T22:25:44Z</time></trkpt><trkpt lat="35.746110617491325" lon="138.2195370891342"><ele>2420.365808915347</ele><time>2022-10-15T22:27:09Z</time></trkpt><trkpt lat="35.74626204124838" lon="138.21966420506413"><ele>2432.354182910174</ele><time>2022-10-15T22:28:34Z</time></trkpt><trkpt lat="35.74623928885134" lon="138.21988608556921"><ele>2439.526538829319</ele><time>2022-10-15T22:28:56Z</time></trkpt><trkpt lat="35.74637936498904" lon="138.21974303683436"><ele>2445.4179846886545</ele><time>2022-10-15T22:29:39Z</time></trkpt><trkpt lat="35.74651980961398" lon="138.2198855257125"><ele>2460.9703326243907</ele><time>2022-10-15T22:31:01Z</time></trkpt><trkpt lat="35.74670400469665" lon="138.21986600363783"><ele>2477.2926171105355</ele><time>2022-10-15T22:32:25Z</time></trkpt><trkpt lat="35.74673322363089" lon="138.22009945828836"><ele>2482.145349356346</ele><time>2022-10-15T22:33:01Z</time></trkpt><trkpt lat="35.746866582049705" lon="138.2199428004959"><ele>2487.1716601140797</ele><time>2022-10-15T22:33:39Z</time></trkpt><trkpt lat="35.74693597463828" lon="138.22014724548418"><ele>2493.651795618236</ele><time>2022-10-15T22:34:17Z</time></trkpt><trkpt lat="35.747112350831244" lon="138.22020101624128"><ele>2497.0984569955617</ele><time>2022-10-15T22:35:08Z</time></trkpt><trkpt lat="35.74726288419013" lon="138.22034596948583"><ele>2502.23838748876</ele><time>2022-10-15T22:35:36Z</time></trkpt><trkpt lat="35.74738070464912" lon="138.22051939168162"><ele>2501.1461496679112</ele><time>2022-10-15T22:36:00Z</time></trkpt><trkpt lat="35.7475429428569" lon="138.22061746324712"><ele>2506.262131017633</ele><time>2022-10-15T22:36:28Z</time></trkpt><trkpt lat="35.747724364202135" lon="138.22067850364968"><ele>2514.357630547136</ele><time>2022-10-15T22:37:00Z</time></trkpt><trkpt lat="35.74781669844588" lon="138.22087540431386"><ele>2523.7202058369294</ele><time>2022-10-15T22:37:50Z</time></trkpt><trkpt lat="35.74799839122364" lon="138.22090617754932"><ele>2529.468110070564</ele><time>2022-10-15T22:38:25Z</time></trkpt><trkpt lat="35.74811786387242" lon="138.221086186895"><ele>2536.932176945731</ele><time>2022-10-15T22:38:56Z</time></trkpt><trkpt lat="35.74829821646833" lon="138.2211308403225"><ele>2545.210235087201</ele><time>2022-10-15T22:39:30Z</time></trkpt><trkpt lat="35.74835869622465" lon="138.22134129158172"><ele>2549.7676049387082</ele><time>2022-10-15T22:39:51Z</time></trkpt><trkpt lat="35.74854403966821" lon="138.22132076323325"><ele>2557.5457112612203</ele><time>2022-10-15T22:40:57Z</time></trkpt><trkpt lat="35.74864829893759" lon="138.2211136726087"><ele>2566.1419372558594</ele><time>2022-10-15T22:41:41Z</time></trkpt><trkpt lat="35.74873418123019" lon="138.22091571272725"><ele>2577.727882246487</ele><time>2022-10-15T22:43:23Z</time></trkpt><trkpt lat="35.74869140796106" lon="138.22069055723387"><ele>2583.4005441386253</ele><time>2022-10-15T22:43:55Z</time></trkpt><trkpt lat="35.748872608513125" lon="138.22073516352899"><ele>2588.9070408046246</ele><time>2022-10-15T22:44:39Z</time></trkpt><trkpt lat="35.74905439745136" lon="138.22077556875638"><ele>2596.637139067054</ele><time>2022-10-15T22:45:17Z</time></trkpt><trkpt lat="35.74901652818318" lon="138.22055030152455"><ele>2600.571702880785</ele><time>2022-10-15T22:46:02Z</time></trkpt><trkpt lat="35.74918893440892" lon="138.2206531326046"><ele>2604.6582470973954</ele><time>2022-10-15T22:46:43Z</time></trkpt><trkpt lat="35.74933777510883" lon="138.22081446895683"><ele>2605.899873700924</ele><time>2022-10-15T22:47:12Z</time></trkpt><trkpt lat="35.74944097639247" lon="138.22100475371036"><ele>2606.0529602207243</ele><time>2022-10-15T22:47:40Z</time></trkpt><trkpt lat="35.74955823591253" lon="138.2211783537552"><ele>2607.930568437092</ele><time>2022-10-15T22:48:08Z</time></trkpt><trkpt lat="35.74962599029439" lon="138.22138701819648"><ele>2605.1120113534853</ele><time>2022-10-15T22:48:50Z</time></trkpt><trkpt lat="35.74979624297528" lon="138.22146353885626"><ele>2608.080831712112</ele><time>2022-10-15T22:49:25Z</time></trkpt><trkpt lat="35.74995667323099" lon="138.2215856559807"><ele>2613.5315457899123</ele><time>2022-10-15T22:49:59Z</time></trkpt><trkpt lat="35.750135002327184" lon="138.221622643725"><ele>2620.017435363494</ele><time>2022-10-15T22:50:33Z</time></trkpt><trkpt lat="35.750269181388944" lon="138.2217731014723"><ele>2625.129674957134</ele><time>2022-10-15T22:51:07Z</time></trkpt><trkpt lat="35.75045488419775" lon="138.2218119563313"><ele>2630.476199663244</ele><time>2022-10-15T22:51:58Z</time></trkpt><trkpt lat="35.75062690939374" lon="138.2218811107355"><ele>2635.6490515070036</ele><time>2022-10-15T22:56:25Z</time></trkpt><trkpt lat="35.75064914889291" lon="138.2221060075121"><ele>2629.932738910429</ele><time>2022-10-15T22:56:57Z</time></trkpt><trkpt lat="35.75068727891839" lon="138.22232433533168"><ele>2627.2341887252405</ele><time>2022-10-15T22:57:14Z</time></trkpt><trkpt lat="35.75075797972133" lon="138.22253297418683"><ele>2625.3077481668442</ele><time>2022-10-15T22:58:00Z</time></trkpt><trkpt lat="35.75086478874166" lon="138.22271179341732"><ele>2622.521506487392</ele><time>2022-10-15T22:58:20Z</time></trkpt><trkpt lat="35.75089398259554" lon="138.22293168564767"><ele>2612.3751707160845</ele><time>2022-10-15T22:58:39Z</time></trkpt><trkpt lat="35.75086166670227" lon="138.22315428691022"><ele>2609.2259542495012</ele><time>2022-10-15T22:59:05Z</time></trkpt><trkpt lat="35.75088926799107" lon="138.22338689265567"><ele>2603.3996805744246</ele><time>2022-10-15T22:59:26Z</time></trkpt><trkpt lat="35.75092516098299" lon="138.22361839230274"><ele>2598.6378140542656</ele><time>2022-10-15T22:59:38Z</time></trkpt><trkpt lat="35.75104660301825" lon="138.22379093933824"><ele>2597.441617571749</ele><time>2022-10-15T22:59:53Z</time></trkpt><trkpt lat="35.75114390654508" lon="138.2239802931144"><ele>2594.0290966611356</ele><time>2022-10-15T23:00:13Z</time></trkpt><trkpt lat="35.75122935359808" lon="138.22418971453445"><ele>2589.009705702774</ele><time>2022-10-15T23:00:40Z</time></trkpt><trkpt lat="35.751281331473876" lon="138.22440841894115"><ele>2581.820675508119</ele><time>2022-10-15T23:01:10Z</time></trkpt><trkpt lat="35.75134724062357" lon="138.22462516076254"><ele>2584.4999791998416</ele><time>2022-10-15T23:01:34Z</time></trkpt><trkpt lat="35.75142722964122" lon="138.2248309421773"><ele>2585.229222137481</ele><time>2022-10-15T23:01:56Z</time></trkpt><trkpt lat="35.751586439573416" lon="138.22495056674546"><ele>2587.426671506837</ele><time>2022-10-15T23:02:23Z</time></trkpt><trkpt lat="35.751739513611035" lon="138.2250836282354"><ele>2586.9415750205517</ele><time>2022-10-15T23:02:40Z</time></trkpt><trkpt lat="35.751833906714495" lon="138.22528248910268"><ele>2585.8234626175836</ele><time>2022-10-15T23:03:03Z</time></trkpt><trkpt lat="35.7519554138951" lon="138.22545262772502"><ele>2588.448205330409</ele><time>2022-10-15T23:03:21Z</time></trkpt><trkpt lat="35.752073850698714" lon="138.22562632918954"><ele>2586.7625474538654</ele><time>2022-10-15T23:03:40Z</time></trkpt><trkpt lat="35.752220519668015" lon="138.22576764202893"><ele>2593.6567607764155</ele><time>2022-10-15T23:04:04Z</time></trkpt><trkpt lat="35.75232468220102" lon="138.22595245312084"><ele>2596.3409134419635</ele><time>2022-10-15T23:04:31Z</time></trkpt><trkpt lat="35.75248278931262" lon="138.22607802395683"><ele>2602.0493778809905</ele><time>2022-10-15T23:05:02Z</time></trkpt><trkpt lat="35.752629178579" lon="138.2262080804097"><ele>2609.410587036982</ele><time>2022-10-15T23:05:36Z</time></trkpt><trkpt lat="35.75277252484253" lon="138.2263436577498"><ele>2617.536519251764</ele><time>2022-10-15T23:06:29Z</time></trkpt><trkpt lat="35.75292147076075" lon="138.22648114298343"><ele>2625.6814702991396</ele><time>2022-10-15T23:07:28Z</time></trkpt><trkpt lat="35.75308309831099" lon="138.226589430364"><ele>2635.018973575905</ele><time>2022-10-15T23:08:08Z</time></trkpt><trkpt lat="35.753263122201005" lon="138.22660534496504"><ele>2640.975813382305</ele><time>2022-10-15T23:08:44Z</time></trkpt><trkpt lat="35.753335872835486" lon="138.22681110123833"><ele>2652.434446003288</ele><time>2022-10-15T23:09:40Z</time></trkpt><trkpt lat="35.75345052773444" lon="138.22698188208741"><ele>2662.6440279921517</ele><time>2022-10-15T23:10:36Z</time></trkpt><trkpt lat="35.75357245935029" lon="138.22714818415494"><ele>2668.974585541524</ele><time>2022-10-15T23:11:31Z</time></trkpt><trkpt lat="35.75369968669046" lon="138.22730508189784"><ele>2681.2892361991107</ele><time>2022-10-15T23:12:37Z</time></trkpt><trkpt lat="35.753731206835866" lon="138.22752322256125"><ele>2691.4088291134685</ele><time>2022-10-15T23:13:40Z</time></trkpt><trkpt lat="35.75378308953161" lon="138.22763243880198"><ele>2697.4312101090327</ele><time>2022-10-15T23:14:44Z</time></trkpt><trkpt lat="35.75378319261678" lon="138.2278566012834"><ele>2710.239528765902</ele><time>2022-10-15T23:15:48Z</time></trkpt><trkpt lat="35.753734422555844" lon="138.22806996310857"><ele>2718.29880157765</ele><time>2022-10-15T23:16:31Z</time></trkpt><trkpt lat="35.753703834288864" lon="138.22829306413837"><ele>2726.8293378567323</ele><time>2022-10-15T23:17:07Z</time></trkpt><trkpt lat="35.75364892714942" lon="138.22850543895845"><ele>2732.0126844961196</ele><time>2022-10-15T23:17:45Z</time></trkpt><trkpt lat="35.75352550426803" lon="138.22867496592704"><ele>2735.431221361272</ele><time>2022-10-15T23:18:19Z</time></trkpt><trkpt lat="35.75340113280463" lon="138.22883530782417"><ele>2738.806360776536</ele><time>2022-10-15T23:18:51Z</time></trkpt><trkpt lat="35.75334080232077" lon="138.22904495709838"><ele>2744.4229100756347</ele><time>2022-10-15T23:19:21Z</time></trkpt><trkpt lat="35.75327966518811" lon="138.22925616050387"><ele>2749.1536097051576</ele><time>2022-10-15T23:19:55Z</time></trkpt><trkpt lat="35.75320815442749" lon="138.2294638072937"><ele>2752.8160686735064</ele><time>2022-10-15T23:20:26Z</time></trkpt><trkpt lat="35.75332090199944" lon="138.22964565303047"><ele>2749.5908172884956</ele><time>2022-10-15T23:21:56Z</time></trkpt><trkpt lat="35.753497590189106" lon="138.22973958526606"><ele>2741.0528921531513</ele><time>2022-10-15T23:22:43Z</time></trkpt><trkpt lat="35.753623356679675" lon="138.22990773744223"><ele>2738.6449463469908</ele><time>2022-10-15T23:23:30Z</time></trkpt><trkpt lat="35.75377206965171" lon="138.23003682401838"><ele>2743.416454545222</ele><time>2022-10-15T23:23:54Z</time></trkpt><trkpt lat="35.75390025023934" lon="138.23019803638502"><ele>2746.7440605852753</ele><time>2022-10-15T23:24:25Z</time></trkpt><trkpt lat="35.75402611428481" lon="138.23035958179014"><ele>2746.205489140004</ele><time>2022-10-15T23:24:52Z</time></trkpt><trkpt lat="35.754205267937266" lon="138.23042247745377"><ele>2749.5680316435173</ele><time>2022-10-15T23:25:34Z</time></trkpt><trkpt lat="35.75438391387411" lon="138.23045267895387"><ele>2747.752367908135</ele><time>2022-10-15T23:26:16Z</time></trkpt><trkpt lat="35.754479355507506" lon="138.2306432912853"><ele>2751.023516310379</ele><time>2022-10-15T23:26:52Z</time></trkpt><trkpt lat="35.75465990620713" lon="138.2307103216106"><ele>2751.4786919821054</ele><time>2022-10-15T23:27:20Z</time></trkpt><trkpt lat="35.754807366558076" lon="138.23084405723714"><ele>2746.213097651489</ele><time>2022-10-15T23:28:07Z</time></trkpt><trkpt lat="35.75494903877117" lon="138.23098088556867"><ele>2737.655856431462</ele><time>2022-10-15T23:28:48Z</time></trkpt><trkpt lat="35.755057128085525" lon="138.23116305640858"><ele>2727.671184459701</ele><time>2022-10-15T23:30:20Z</time></trkpt><trkpt lat="35.75514579006035" lon="138.23135711863415"><ele>2723.127066479996</ele><time>2022-10-15T23:31:03Z</time></trkpt><trkpt lat="35.755169491834216" lon="138.2315927233412"><ele>2722.466428877786</ele><time>2022-10-15T23:31:32Z</time></trkpt><trkpt lat="35.75525371325044" lon="138.23178842980298"><ele>2713.7024473659694</ele><time>2022-10-15T23:32:44Z</time></trkpt><trkpt lat="35.75533081433335" lon="138.2319998588419"><ele>2709.0134720997885</ele><time>2022-10-15T23:33:51Z</time></trkpt><trkpt lat="35.75541324023329" lon="138.2322033017421"><ele>2711.1821015439928</ele><time>2022-10-15T23:34:18Z</time></trkpt><trkpt lat="35.75547043575598" lon="138.23242057147215"><ele>2711.4983008392155</ele><time>2022-10-15T23:35:11Z</time></trkpt><trkpt lat="35.75549933849258" lon="138.23265097231817"><ele>2711.361139781773</ele><time>2022-10-15T23:35:46Z</time></trkpt><trkpt lat="35.755539431681804" lon="138.23286815332992"><ele>2718.5096572367474</ele><time>2022-10-15T23:36:49Z</time></trkpt><trkpt lat="35.755727751664324" lon="138.232900644309"><ele>2712.027840198949</ele><time>2022-10-15T23:37:40Z</time></trkpt><trkpt lat="35.75586632233303" lon="138.23304925065355"><ele>2713.3898592879996</ele><time>2022-10-15T23:42:18Z</time></trkpt><trkpt lat="35.755950539392465" lon="138.23324494084912"><ele>2722.1301093017682</ele><time>2022-10-15T23:42:50Z</time></trkpt><trkpt lat="35.75604277390163" lon="138.23343576547734"><ele>2728.6284881792963</ele><time>2022-10-15T23:43:42Z</time></trkpt><trkpt lat="35.75616529433379" lon="138.23360199367417"><ele>2746.2370256027207</ele><time>2022-10-15T23:46:09Z</time></trkpt><trkpt lat="35.756345598447325" lon="138.23365892294453"><ele>2756.7204676074907</ele><time>2022-10-15T23:48:00Z</time></trkpt><trkpt lat="35.75651765120092" lon="138.2337443300958"><ele>2773.3210970340297</ele><time>2022-10-15T23:49:18Z</time></trkpt><trkpt lat="35.75664549523738" lon="138.2339005505822"><ele>2784.5447130575776</ele><time>2022-10-15T23:50:12Z</time></trkpt><trkpt lat="35.75670431084126" lon="138.2341121151984"><ele>2784.7914511281997</ele><time>2022-10-15T23:50:51Z</time></trkpt><trkpt lat="35.75685972008624" lon="138.234229082405"><ele>2797.6653630221263</ele><time>2022-10-15T23:52:21Z</time></trkpt><trkpt lat="35.756990831957594" lon="138.23438103843063"><ele>2811.1711841197684</ele><time>2022-10-15T23:53:57Z</time></trkpt><trkpt lat="35.75710878987058" lon="138.2345587840545"><ele>2817.45464661438</ele><time>2022-10-15T23:54:52Z</time></trkpt><trkpt lat="35.757203409666374" lon="138.23475450154675"><ele>2823.2690977249295</ele><time>2022-10-15T23:55:30Z</time></trkpt><trkpt lat="35.75724067486725" lon="138.2349775761823"><ele>2833.053800347261</ele><time>2022-10-15T23:56:32Z</time></trkpt><trkpt lat="35.75716211304519" lon="138.23518012279078"><ele>2845.47205629386</ele><time>2022-10-15T23:57:43Z</time></trkpt><trkpt lat="35.757028458469485" lon="138.23533393765655"><ele>2859.7973762694746</ele><time>2022-10-15T23:58:33Z</time></trkpt><trkpt lat="35.7570082205257" lon="138.23555479281674"><ele>2868.3010016474873</ele><time>2022-10-15T23:59:35Z</time></trkpt><trkpt lat="35.75707097064071" lon="138.23576833465418"><ele>2877.705703741871</ele><time>2022-10-16T00:00:40Z</time></trkpt><trkpt lat="35.757148031647816" lon="138.23597683274522"><ele>2886.282454985194</ele><time>2022-10-16T00:01:39Z</time></trkpt><trkpt lat="35.7570910153538" lon="138.236190456214"><ele>2897.3217489821836</ele><time>2022-10-16T00:02:47Z</time></trkpt><trkpt lat="35.75705301685326" lon="138.2364097212013"><ele>2904.6758958837017</ele><time>2022-10-16T00:03:41Z</time></trkpt><trkpt lat="35.7572313908015" lon="138.23644274928265"><ele>2912.6190434508026</ele><time>2022-10-16T00:05:20Z</time></trkpt><trkpt lat="35.75740183689968" lon="138.23636550445892"><ele>2923.6352913798764</ele><time>2022-10-16T00:06:42Z</time></trkpt><trkpt lat="35.75755145941525" lon="138.23649597618834"><ele>2942.8069133814424</ele><time>2022-10-16T00:08:34Z</time></trkpt><trkpt lat="35.75768901031426" lon="138.2366415468067"><ele>2950.089231165126</ele><time>2022-10-16T00:09:51Z</time></trkpt><trkpt lat="35.757870331853624" lon="138.236640267783"><ele>2957.7153143724427</ele><time>2022-10-16T00:10:58Z</time></trkpt><trkpt lat="35.75799193510311" lon="138.23681184662036"><ele>2962.910587553866</ele><time>2022-10-16T00:13:02Z</time></trkpt><trkpt lat="35.7579110440714" lon="138.23702561695399"><ele>2958.42667136807</ele><time>2022-10-16T00:20:58Z</time></trkpt><trkpt lat="35.75783808190855" lon="138.23723370346323"><ele>2952.523167845793</ele><time>2022-10-16T00:21:14Z</time></trkpt><trkpt lat="35.7577822981598" lon="138.23744496880087"><ele>2948.7403479712084</ele><time>2022-10-16T00:21:33Z</time></trkpt><trkpt lat="35.75764976908423" lon="138.23761160658114"><ele>2942.8773684091866</ele><time>2022-10-16T00:22:28Z</time></trkpt><trkpt lat="35.757545136799045" lon="138.23781551145797"><ele>2941.352634554729</ele><time>2022-10-16T00:22:53Z</time></trkpt><trkpt lat="35.757386572618934" lon="138.23770192009567"><ele>2923.012761866674</ele><time>2022-10-16T00:23:23Z</time></trkpt><trkpt lat="35.75722247512586" lon="138.23783929858118"><ele>2917.446944942698</ele><time>2022-10-16T00:23:38Z</time></trkpt><trkpt lat="35.757085310088044" lon="138.2379831506491"><ele>2906.2860410250723</ele><time>2022-10-16T00:24:40Z</time></trkpt><trkpt lat="35.756902498012785" lon="138.23807447499908"><ele>2898.5769804650918</ele><time>2022-10-16T00:25:08Z</time></trkpt><trkpt lat="35.756709215537036" lon="138.2380938044484"><ele>2889.7768314974383</ele><time>2022-10-16T00:25:16Z</time></trkpt><trkpt lat="35.756534379108395" lon="138.2381665175846"><ele>2884.420502876863</ele><time>2022-10-16T00:25:24Z</time></trkpt><trkpt lat="35.75634430161131" lon="138.23824144088906"><ele>2870.0279127573594</ele><time>2022-10-16T00:26:08Z</time></trkpt><trkpt lat="35.75616947091875" lon="138.2383018065197"><ele>2860.92796049919</ele><time>2022-10-16T00:26:25Z</time></trkpt><trkpt lat="35.756056985630806" lon="138.23812706703382"><ele>2849.806692347862</ele><time>2022-10-16T00:26:43Z</time></trkpt><trkpt lat="35.756088036811285" lon="138.23790925676124"><ele>2845.692980038002</ele><time>2022-10-16T00:26:51Z</time></trkpt><trkpt lat="35.75615170861771" lon="138.23769051929278"><ele>2838.7941462714225</ele><time>2022-10-16T00:27:01Z</time></trkpt><trkpt lat="35.75624191335838" lon="138.2374847989409"><ele>2835.70411402639</ele><time>2022-10-16T00:27:16Z</time></trkpt><trkpt lat="35.7563031416165" lon="138.23725576894006"><ele>2833.2835541004315</ele><time>2022-10-16T00:27:33Z</time></trkpt><trkpt lat="35.75628162927994" lon="138.23703487185657"><ele>2835.22280924581</ele><time>2022-10-16T00:27:46Z</time></trkpt><trkpt lat="35.7561832026443" lon="138.2368413326922"><ele>2828.587168960832</ele><time>2022-10-16T00:27:59Z</time></trkpt><trkpt lat="35.756032685571874" lon="138.2367035648052"><ele>2822.6077647861093</ele><time>2022-10-16T00:28:19Z</time></trkpt><trkpt lat="35.75586719425713" lon="138.23660877081187"><ele>2813.1490145567805</ele><time>2022-10-16T00:28:42Z</time></trkpt><trkpt lat="35.755699517014165" lon="138.23651718306357"><ele>2799.436179745011</ele><time>2022-10-16T00:29:04Z</time></trkpt><trkpt lat="35.755534826339" lon="138.2364002495727"><ele>2787.7050037533045</ele><time>2022-10-16T00:29:22Z</time></trkpt><trkpt lat="35.75539642725881" lon="138.23625597333455"><ele>2782.5482072895393</ele><time>2022-10-16T00:29:42Z</time></trkpt><trkpt lat="35.75539097225824" lon="138.23603361727763"><ele>2773.1615018183365</ele><time>2022-10-16T00:30:01Z</time></trkpt><trkpt lat="35.755519007987075" lon="138.23586000857534"><ele>2765.3871627813205</ele><time>2022-10-16T00:30:20Z</time></trkpt><trkpt lat="35.755640936772906" lon="138.2356877014246"><ele>2761.3103508353233</ele><time>2022-10-16T00:30:33Z</time></trkpt><trkpt lat="35.7556412509229" lon="138.23546086105037"><ele>2749.5774931218475</ele><time>2022-10-16T00:31:45Z</time></trkpt><trkpt lat="35.75565960631703" lon="138.23522782687624"><ele>2747.6071384586394</ele><time>2022-10-16T00:32:05Z</time></trkpt><trkpt lat="35.755721192839474" lon="138.23501881262715"><ele>2750.671580086462</ele><time>2022-10-16T00:32:30Z</time></trkpt><trkpt lat="35.75572545835943" lon="138.23479315008507"><ele>2741.8116892045364</ele><time>2022-10-16T00:32:55Z</time></trkpt><trkpt lat="35.75585962677764" lon="138.23463851904245"><ele>2730.9747263845056</ele><time>2022-10-16T00:33:33Z</time></trkpt><trkpt lat="35.75589623589581" lon="138.23441409658344"><ele>2735.6818399811164</ele><time>2022-10-16T00:33:57Z</time></trkpt><trkpt lat="35.755955676030894" lon="138.23419758131993"><ele>2729.8414216134697</ele><time>2022-10-16T00:34:25Z</time></trkpt><trkpt lat="35.755979913777225" lon="138.23396905617457"><ele>2731.909718017094</ele><time>2022-10-16T00:34:52Z</time></trkpt><trkpt lat="35.7559553307329" lon="138.23374170998196"><ele>2730.226488597691</ele><time>2022-10-16T00:35:11Z</time></trkpt><trkpt lat="35.75596924026478" lon="138.2335180781798"><ele>2732.3097896371037</ele><time>2022-10-16T00:36:58Z</time></trkpt><trkpt lat="35.75596299332059" lon="138.23328401722947"><ele>2725.193625802174</ele><time>2022-10-16T00:37:46Z</time></trkpt><trkpt lat="35.755889369745084" lon="138.23307446649576"><ele>2718.2480605933815</ele><time>2022-10-16T00:38:27Z</time></trkpt><trkpt lat="35.75574970986633" lon="138.232933069177"><ele>2714.3361720601097</ele><time>2022-10-16T00:38:56Z</time></trkpt><trkpt lat="35.75556505143861" lon="138.23288481438937"><ele>2713.666778157465</ele><time>2022-10-16T00:39:33Z</time></trkpt><trkpt lat="35.755503610017776" lon="138.23267349983647"><ele>2709.945556918159</ele><time>2022-10-16T00:40:26Z</time></trkpt><trkpt lat="35.75545810900778" lon="138.23244796360046"><ele>2710.7325708270073</ele><time>2022-10-16T00:40:50Z</time></trkpt><trkpt lat="35.75541889840808" lon="138.23222575944408"><ele>2709.6209827605635</ele><time>2022-10-16T00:41:30Z</time></trkpt><trkpt lat="35.75534455734319" lon="138.23201910001555"><ele>2707.964212635532</ele><time>2022-10-16T00:42:01Z</time></trkpt><trkpt lat="35.755256966518594" lon="138.23182037432576"><ele>2714.8595234211534</ele><time>2022-10-16T00:42:51Z</time></trkpt><trkpt lat="35.755176415151745" lon="138.23162144671886"><ele>2720.3322102958336</ele><time>2022-10-16T00:43:50Z</time></trkpt><trkpt lat="35.75516806191874" lon="138.2313979314584"><ele>2720.0410458603874</ele><time>2022-10-16T00:44:41Z</time></trkpt><trkpt lat="35.75506199338326" lon="138.2312158264985"><ele>2729.0506428610533</ele><time>2022-10-16T00:45:26Z</time></trkpt><trkpt lat="35.75497298176389" lon="138.23101428215182"><ele>2736.9991881195456</ele><time>2022-10-16T00:46:52Z</time></trkpt><trkpt lat="35.754828167390926" lon="138.23088227905527"><ele>2744.043169167824</ele><time>2022-10-16T00:47:53Z</time></trkpt><trkpt lat="35.75469894460372" lon="138.23071453582457"><ele>2754.6227145530283</ele><time>2022-10-16T00:48:42Z</time></trkpt><trkpt lat="35.75452837512567" lon="138.23064007605942"><ele>2751.6153303980827</ele><time>2022-10-16T00:49:16Z</time></trkpt><trkpt lat="35.75439460062051" lon="138.2304845888036"><ele>2747.900802009739</ele><time>2022-10-16T00:49:59Z</time></trkpt><trkpt lat="35.75421461395497" lon="138.23042754772356"><ele>2751.0041873306036</ele><time>2022-10-16T00:50:31Z</time></trkpt><trkpt lat="35.754033012171924" lon="138.2303739703966"><ele>2746.1776030259207</ele><time>2022-10-16T00:51:08Z</time></trkpt><trkpt lat="35.753903604963185" lon="138.23020900713448"><ele>2743.43313687481</ele><time>2022-10-16T00:51:33Z</time></trkpt><trkpt lat="35.7537763329743" lon="138.23004822031928"><ele>2741.827462889254</ele><time>2022-10-16T00:52:13Z</time></trkpt><trkpt lat="35.75362819369681" lon="138.2299196305078"><ele>2735.6704264385626</ele><time>2022-10-16T00:52:51Z</time></trkpt><trkpt lat="35.75350517047239" lon="138.2297564629145"><ele>2740.172432498075</ele><time>2022-10-16T00:53:25Z</time></trkpt><trkpt lat="35.75333709585123" lon="138.22966761961268"><ele>2745.136630241759</ele><time>2022-10-16T00:54:18Z</time></trkpt><trkpt lat="35.75317168281979" lon="138.22954602609227"><ele>2749.81864226982</ele><time>2022-10-16T00:54:43Z</time></trkpt><trkpt lat="35.75323690697647" lon="138.2293357382972"><ele>2743.5829337332398</ele><time>2022-10-16T00:57:56Z</time></trkpt><trkpt lat="35.75330941964831" lon="138.2291326806343"><ele>2740.781292258762</ele><time>2022-10-16T00:58:15Z</time></trkpt><trkpt lat="35.753362712904085" lon="138.22892101064443"><ele>2736.8441125405952</ele><time>2022-10-16T00:58:35Z</time></trkpt><trkpt lat="35.75349348844941" lon="138.22876322818496"><ele>2732.8084140662104</ele><time>2022-10-16T00:58:57Z</time></trkpt><trkpt lat="35.75361913103104" lon="138.22859654930778"><ele>2726.696272146888</ele><time>2022-10-16T00:59:19Z</time></trkpt><trkpt lat="35.75368769087804" lon="138.22838384626465"><ele>2723.8037838805467</ele><time>2022-10-16T00:59:43Z</time></trkpt><trkpt lat="35.75369957925844" lon="138.22815556682173"><ele>2719.2790837874636</ele><time>2022-10-16T01:00:10Z</time></trkpt><trkpt lat="35.75377431853688" lon="138.2279542117671"><ele>2709.52956660185</ele><time>2022-10-16T01:00:35Z</time></trkpt><trkpt lat="35.7538167929191" lon="138.22773908564278"><ele>2701.5131238680333</ele><time>2022-10-16T01:02:18Z</time></trkpt><trkpt lat="35.75375695170828" lon="138.22753044593745"><ele>2691.2553393570706</ele><time>2022-10-16T01:03:13Z</time></trkpt><trkpt lat="35.753718220203325" lon="138.22731287541728"><ele>2680.6074464889243</ele><time>2022-10-16T01:03:59Z</time></trkpt><trkpt lat="35.75359937291874" lon="138.22714605148786"><ele>2672.414378091693</ele><time>2022-10-16T01:04:45Z</time></trkpt><trkpt lat="35.753466630626136" lon="138.2269814711895"><ele>2665.4314372641966</ele><time>2022-10-16T01:05:25Z</time></trkpt><trkpt lat="35.75334895031006" lon="138.22680924578435"><ele>2658.51512470562</ele><time>2022-10-16T01:06:09Z</time></trkpt><trkpt lat="35.75322748321125" lon="138.2266375384919"><ele>2648.4703993229195</ele><time>2022-10-16T01:06:42Z</time></trkpt><trkpt lat="35.7530563486106" lon="138.22656131740004"><ele>2640.511242199689</ele><time>2022-10-16T01:07:13Z</time></trkpt><trkpt lat="35.752895807077756" lon="138.22645786912514"><ele>2631.6227676132694</ele><time>2022-10-16T01:07:49Z</time></trkpt><trkpt lat="35.752732127268075" lon="138.22634430290955"><ele>2624.8038014872</ele><time>2022-10-16T01:08:29Z</time></trkpt><trkpt lat="35.75260539875714" lon="138.22617947899838"><ele>2616.0259999828413</ele><time>2022-10-16T01:08:50Z</time></trkpt><trkpt lat="35.752461946006314" lon="138.22603904259708"><ele>2608.5755789699033</ele><time>2022-10-16T01:09:14Z</time></trkpt><trkpt lat="35.752286839508876" lon="138.22593356643034"><ele>2598.3559843366966</ele><time>2022-10-16T01:09:44Z</time></trkpt><trkpt lat="35.75220970358227" lon="138.22571685813867"><ele>2595.5340247042477</ele><time>2022-10-16T01:10:02Z</time></trkpt><trkpt lat="35.75204494407454" lon="138.22559891544518"><ele>2588.43024937436</ele><time>2022-10-16T01:10:37Z</time></trkpt><trkpt lat="35.75192602923044" lon="138.22542585682163"><ele>2586.3499682433903</ele><time>2022-10-16T01:10:52Z</time></trkpt><trkpt lat="35.75184182058354" lon="138.2252293463859"><ele>2583.8142979191616</ele><time>2022-10-16T01:11:13Z</time></trkpt><trkpt lat="35.75171145057356" lon="138.22506759814"><ele>2584.763793631457</ele><time>2022-10-16T01:11:32Z</time></trkpt><trkpt lat="35.75157123199248" lon="138.2249156445702"><ele>2585.5297598745674</ele><time>2022-10-16T01:11:50Z</time></trkpt><trkpt lat="35.75143670122523" lon="138.22476181173994"><ele>2583.754634884186</ele><time>2022-10-16T01:12:19Z</time></trkpt><trkpt lat="35.751361072311425" lon="138.22456084258087"><ele>2583.9153104396537</ele><time>2022-10-16T01:12:42Z</time></trkpt><trkpt lat="35.751268784375846" lon="138.2243699795255"><ele>2585.8791663227603</ele><time>2022-10-16T01:13:13Z</time></trkpt><trkpt lat="35.751223462964575" lon="138.2241525751616"><ele>2590.150414568372</ele><time>2022-10-16T01:13:54Z</time></trkpt><trkpt lat="35.751157777995886" lon="138.22393873001192"><ele>2592.898884783499</ele><time>2022-10-16T01:14:31Z</time></trkpt><trkpt lat="35.75104294360014" lon="138.22376411837965"><ele>2596.0022893203422</ele><time>2022-10-16T01:15:09Z</time></trkpt><trkpt lat="35.75093504478546" lon="138.2235806963463"><ele>2596.3439330216497</ele><time>2022-10-16T01:15:31Z</time></trkpt><trkpt lat="35.750908676251015" lon="138.22335706110957"><ele>2600.6329117650166</ele><time>2022-10-16T01:15:59Z</time></trkpt><trkpt lat="35.75086605569619" lon="138.2231401354365"><ele>2609.167646341026</ele><time>2022-10-16T01:16:49Z</time></trkpt><trkpt lat="35.75088842121719" lon="138.22292023302165"><ele>2612.513739061542</ele><time>2022-10-16T01:17:48Z</time></trkpt><trkpt lat="35.75083982741756" lon="138.22269793565377"><ele>2617.626962378621</ele><time>2022-10-16T01:18:26Z</time></trkpt><trkpt lat="35.750739206258174" lon="138.22251419213174"><ele>2623.5317265093327</ele><time>2022-10-16T01:19:09Z</time></trkpt><trkpt lat="35.75065596280689" lon="138.22230995590192"><ele>2629.2185832159594</ele><time>2022-10-16T01:19:55Z</time></trkpt><trkpt lat="35.75063123103061" lon="138.2220831450705"><ele>2632.082510503009</ele><time>2022-10-16T01:20:42Z</time></trkpt><trkpt lat="35.75059876807781" lon="138.22185775198488"><ele>2635.0902566062286</ele><time>2022-10-16T01:21:24Z</time></trkpt><trkpt lat="35.75042412685441" lon="138.22179911781424"><ele>2636.53136610426</ele><time>2022-10-16T01:22:34Z</time></trkpt><trkpt lat="35.750242886408884" lon="138.22176302729923"><ele>2631.6250462653115</ele><time>2022-10-16T01:23:24Z</time></trkpt><trkpt lat="35.75010668372005" lon="138.2216181213797"><ele>2622.1708531975746</ele><time>2022-10-16T01:23:48Z</time></trkpt><trkpt lat="35.749933663895455" lon="138.2215538271864"><ele>2615.6846068222076</ele><time>2022-10-16T01:24:17Z</time></trkpt><trkpt lat="35.7497666989494" lon="138.22146189785994"><ele>2608.147783782333</ele><time>2022-10-16T01:24:43Z</time></trkpt><trkpt lat="35.74961220741935" lon="138.22134058478684"><ele>2606.965061761439</ele><time>2022-10-16T01:25:16Z</time></trkpt><trkpt lat="35.74953019507492" lon="138.2211418207448"><ele>2605.7098771510646</ele><time>2022-10-16T01:25:53Z</time></trkpt><trkpt lat="35.74940391343045" lon="138.22097254087777"><ele>2607.2283967165276</ele><time>2022-10-16T01:26:14Z</time></trkpt><trkpt lat="35.74928225158959" lon="138.22079416981205"><ele>2604.908798852004</ele><time>2022-10-16T01:26:36Z</time></trkpt><trkpt lat="35.749156375198595" lon="138.22062994338856"><ele>2604.908327673562</ele><time>2022-10-16T01:26:56Z</time></trkpt><trkpt lat="35.748993570598685" lon="138.2207361407954"><ele>2597.7096000192687</ele><time>2022-10-16T01:27:53Z</time></trkpt><trkpt lat="35.7488133874833" lon="138.22070215434613"><ele>2590.7001866614446</ele><time>2022-10-16T01:28:14Z</time></trkpt><trkpt lat="35.748723422565625" lon="138.22089933139694"><ele>2582.42321384605</ele><time>2022-10-16T01:28:59Z</time></trkpt><trkpt lat="35.74876998667395" lon="138.22111613147243"><ele>2575.903259973973</ele><time>2022-10-16T01:29:26Z</time></trkpt><trkpt lat="35.74859153301018" lon="138.22116034277227"><ele>2571.346143618226</ele><time>2022-10-16T01:30:11Z</time></trkpt><trkpt lat="35.74859652619327" lon="138.22138837945877"><ele>2565.8939229976386</ele><time>2022-10-16T01:30:40Z</time></trkpt><trkpt lat="35.74844072691234" lon="138.22125616088684"><ele>2558.3201745757833</ele><time>2022-10-16T01:31:14Z</time></trkpt><trkpt lat="35.74828040408023" lon="138.22114888937494"><ele>2546.70408483129</ele><time>2022-10-16T01:32:11Z</time></trkpt><trkpt lat="35.748112947176246" lon="138.22101682566012"><ele>2542.9975776504725</ele><time>2022-10-16T01:32:26Z</time></trkpt><trkpt lat="35.74796678385448" lon="138.2208694390326"><ele>2536.166150079109</ele><time>2022-10-16T01:32:59Z</time></trkpt><trkpt lat="35.74781110371422" lon="138.22075168466037"><ele>2524.0015161968768</ele><time>2022-10-16T01:33:43Z</time></trkpt><trkpt lat="35.747632651037165" lon="138.22066929776838"><ele>2517.2183556910604</ele><time>2022-10-16T01:34:24Z</time></trkpt><trkpt lat="35.74747166633974" lon="138.2205467597588"><ele>2509.8243393795565</ele><time>2022-10-16T01:34:53Z</time></trkpt><trkpt lat="35.74733054798109" lon="138.22038803819822"><ele>2503.022350004874</ele><time>2022-10-16T01:35:33Z</time></trkpt><trkpt lat="35.747180943080245" lon="138.2202625976167"><ele>2498.5250742081553</ele><time>2022-10-16T01:40:48Z</time></trkpt><trkpt lat="35.74703011518902" lon="138.22012884365324"><ele>2498.1943943314254</ele><time>2022-10-16T01:41:28Z</time></trkpt><trkpt lat="35.74687190112426" lon="138.2200184497857"><ele>2488.976534202695</ele><time>2022-10-16T01:42:03Z</time></trkpt><trkpt lat="35.746733624470686" lon="138.2198761453604"><ele>2480.7845842018723</ele><time>2022-10-16T01:42:42Z</time></trkpt><trkpt lat="35.74655524502987" lon="138.21984224295932"><ele>2469.377091304399</ele><time>2022-10-16T01:43:29Z</time></trkpt><trkpt lat="35.74644105407046" lon="138.21966231034747"><ele>2451.6653007837012</ele><time>2022-10-16T01:44:25Z</time></trkpt><trkpt lat="35.7462876376266" lon="138.21978789224363"><ele>2452.744717319496</ele><time>2022-10-16T01:44:55Z</time></trkpt><trkpt lat="35.74627486006475" lon="138.2195662274247"><ele>2434.392929861322</ele><time>2022-10-16T01:45:43Z</time></trkpt><trkpt lat="35.74609798418904" lon="138.21962966823827"><ele>2432.2131294580176</ele><time>2022-10-16T01:46:18Z</time></trkpt><trkpt lat="35.74594475742479" lon="138.2195002999639"><ele>2414.5066463947296</ele><time>2022-10-16T01:47:43Z</time></trkpt><trkpt lat="35.74585096248844" lon="138.21930615629472"><ele>2403.6372415116057</ele><time>2022-10-16T01:48:15Z</time></trkpt><trkpt lat="35.74568708643355" lon="138.21919891442965"><ele>2393.802846520208</ele><time>2022-10-16T01:49:11Z</time></trkpt><trkpt lat="35.74556817239431" lon="138.21903098889734"><ele>2382.2754395613447</ele><time>2022-10-16T01:50:03Z</time></trkpt><trkpt lat="35.74538978724177" lon="138.21897196755356"><ele>2371.330420647748</ele><time>2022-10-16T01:50:47Z</time></trkpt><trkpt lat="35.74521654011556" lon="138.2188756285013"><ele>2360.43545593787</ele><time>2022-10-16T01:51:34Z</time></trkpt><trkpt lat="35.745039248672114" lon="138.2189203213769"><ele>2357.9217210588977</ele><time>2022-10-16T01:52:09Z</time></trkpt><trkpt lat="35.74485412515409" lon="138.2188822186509"><ele>2349.7767022484913</ele><time>2022-10-16T01:52:47Z</time></trkpt><trkpt lat="35.744941376244896" lon="138.21867653224962"><ele>2341.986909998581</ele><time>2022-10-16T01:53:24Z</time></trkpt><trkpt lat="35.74504192224486" lon="138.21848193099348"><ele>2338.0695646684617</ele><time>2022-10-16T01:53:47Z</time></trkpt><trkpt lat="35.74515365909295" lon="138.21830800450684"><ele>2329.7241530651227</ele><time>2022-10-16T01:54:12Z</time></trkpt><trkpt lat="35.74497224879347" lon="138.21830958683557"><ele>2328.0524192806333</ele><time>2022-10-16T01:54:47Z</time></trkpt><trkpt lat="35.745050507244365" lon="138.21809879453858"><ele>2318.3710458045825</ele><time>2022-10-16T01:55:19Z</time></trkpt><trkpt lat="35.744883580606086" lon="138.21800339861682"><ele>2307.995059426874</ele><time>2022-10-16T01:56:08Z</time></trkpt><trkpt lat="35.744913530602346" lon="138.21777284996242"><ele>2294.7868886049837</ele><time>2022-10-16T01:57:11Z</time></trkpt><trkpt lat="35.74474019839728" lon="138.21769819328497"><ele>2284.761911796406</ele><time>2022-10-16T01:58:03Z</time></trkpt><trkpt lat="35.74455293129498" lon="138.2176930402369"><ele>2279.5778421675786</ele><time>2022-10-16T01:58:36Z</time></trkpt><trkpt lat="35.74447937919051" lon="138.21748449635794"><ele>2266.453708744608</ele><time>2022-10-16T01:59:47Z</time></trkpt><trkpt lat="35.74458249711508" lon="138.2172802920874"><ele>2260.53164038714</ele><time>2022-10-16T02:00:22Z</time></trkpt><trkpt lat="35.74469162210825" lon="138.21709231040217"><ele>2251.9583796821535</ele><time>2022-10-16T02:00:59Z</time></trkpt><trkpt lat="35.74478920481579" lon="138.2168996375669"><ele>2243.3455148460343</ele><time>2022-10-16T02:01:28Z</time></trkpt><trkpt lat="35.74489116935979" lon="138.21670081396996"><ele>2235.2220926936716</ele><time>2022-10-16T02:01:58Z</time></trkpt><trkpt lat="35.74492597291012" lon="138.21647974624145"><ele>2225.9756607040763</ele><time>2022-10-16T02:02:32Z</time></trkpt><trkpt lat="35.74490831943626" lon="138.2162569169124"><ele>2211.6246657613665</ele><time>2022-10-16T02:03:18Z</time></trkpt><trkpt lat="35.7449363706111" lon="138.2160333218481"><ele>2203.611229884438</ele><time>2022-10-16T02:03:55Z</time></trkpt><trkpt lat="35.74494410778801" lon="138.21581230842096"><ele>2191.6859153173864</ele><time>2022-10-16T02:04:35Z</time></trkpt><trkpt lat="35.74477552570483" lon="138.21570671110737"><ele>2186.145900191739</ele><time>2022-10-16T02:04:57Z</time></trkpt><trkpt lat="35.744648437331456" lon="138.21554563527332"><ele>2178.176480639726</ele><time>2022-10-16T02:05:38Z</time></trkpt><trkpt lat="35.744467750691214" lon="138.21555516417877"><ele>2178.9738126369193</ele><time>2022-10-16T02:05:58Z</time></trkpt><trkpt lat="35.74429744683411" lon="138.21563148200428"><ele>2178.589035158977</ele><time>2022-10-16T02:06:18Z</time></trkpt><trkpt lat="35.74427308384503" lon="138.21539643919314"><ele>2166.837721486576</ele><time>2022-10-16T02:07:08Z</time></trkpt><trkpt lat="35.744091999577535" lon="138.21549179763497"><ele>2161.6685462864116</ele><time>2022-10-16T02:07:34Z</time></trkpt><trkpt lat="35.74402351817443" lon="138.21528640084043"><ele>2152.5103513030335</ele><time>2022-10-16T02:08:14Z</time></trkpt><trkpt lat="35.744037312310574" lon="138.21505811318698"><ele>2143.8572036083788</ele><time>2022-10-16T02:08:37Z</time></trkpt><trkpt lat="35.74401493613292" lon="138.21483827088818"><ele>2138.7686224821955</ele><time>2022-10-16T02:08:58Z</time></trkpt><trkpt lat="35.74401081835204" lon="138.21461429499232"><ele>2132.028081873432</ele><time>2022-10-16T02:09:25Z</time></trkpt><trkpt lat="35.74396700474493" lon="138.21438528730877"><ele>2130.0447558816522</ele><time>2022-10-16T02:09:47Z</time></trkpt><trkpt lat="35.74379512353466" lon="138.21445620168936"><ele>2123.28687339928</ele><time>2022-10-16T02:10:28Z</time></trkpt><trkpt lat="35.74366101259452" lon="138.21462345277314"><ele>2126.27122559119</ele><time>2022-10-16T02:10:44Z</time></trkpt><trkpt lat="35.74349389830663" lon="138.21472747678416"><ele>2124.7804272668436</ele><time>2022-10-16T02:11:00Z</time></trkpt><trkpt lat="35.74332415007844" lon="138.21483743492536"><ele>2119.7348141493276</ele><time>2022-10-16T02:11:24Z</time></trkpt><trkpt lat="35.743151980893934" lon="138.2149042062702"><ele>2112.892156918533</ele><time>2022-10-16T02:11:44Z</time></trkpt><trkpt lat="35.74317794682913" lon="138.21468520067504"><ele>2103.3635110082105</ele><time>2022-10-16T02:12:14Z</time></trkpt><trkpt lat="35.74325226547813" lon="138.21447635955718"><ele>2103.9086319059134</ele><time>2022-10-16T02:12:31Z</time></trkpt><trkpt lat="35.74322003749123" lon="138.21424926502908"><ele>2097.0879947543144</ele><time>2022-10-16T02:12:51Z</time></trkpt><trkpt lat="35.74309550402292" lon="138.2140888472667"><ele>2085.076563064009</ele><time>2022-10-16T02:13:30Z</time></trkpt><trkpt lat="35.74294203987299" lon="138.21422204443206"><ele>2079.525880912319</ele><time>2022-10-16T02:14:02Z</time></trkpt><trkpt lat="35.742760148623134" lon="138.2142473846954"><ele>2074.288701602258</ele><time>2022-10-16T02:14:30Z</time></trkpt><trkpt lat="35.74266942031558" lon="138.21405641121788"><ele>2065.1730030989274</ele><time>2022-10-16T02:15:00Z</time></trkpt><trkpt lat="35.742585680689224" lon="138.21386030697465"><ele>2059.312153819017</ele><time>2022-10-16T02:15:18Z</time></trkpt><trkpt lat="35.74246102055436" lon="138.21369304651785"><ele>2051.7391082020476</ele><time>2022-10-16T02:15:43Z</time></trkpt><trkpt lat="35.74230802233836" lon="138.21355693375526"><ele>2048.2639300320297</ele><time>2022-10-16T02:16:01Z</time></trkpt><trkpt lat="35.742339392312374" lon="138.21333636332116"><ele>2054.111471169628</ele><time>2022-10-16T02:17:22Z</time></trkpt><trkpt lat="35.74255905583117" lon="138.21341279906986"><ele>2043.6121521219611</ele><time>2022-10-16T02:17:37Z</time></trkpt><trkpt lat="35.742371449003485" lon="138.21328765895285"><ele>2053.692212710157</ele><time>2022-10-16T02:17:45Z</time></trkpt><trkpt lat="35.74220837482889" lon="138.2133841960794"><ele>2054.465833891183</ele><time>2022-10-16T02:18:44Z</time></trkpt><trkpt lat="35.74226529147506" lon="138.21316547993226"><ele>2063.5211386196315</ele><time>2022-10-16T02:20:01Z</time></trkpt><trkpt lat="35.74210711500859" lon="138.2130570985874"><ele>2068.0452702166513</ele><time>2022-10-16T02:20:28Z</time></trkpt><trkpt lat="35.74199085661946" lon="138.21287472750322"><ele>2076.11501883436</ele><time>2022-10-16T02:21:18Z</time></trkpt><trkpt lat="35.742116354686914" lon="138.2126931386373"><ele>2077.619937347248</ele><time>2022-10-16T02:21:41Z</time></trkpt><trkpt lat="35.74212796773582" lon="138.21246930078792"><ele>2079.923493052833</ele><time>2022-10-16T02:22:02Z</time></trkpt><trkpt lat="35.7420735566661" lon="138.2122573620689"><ele>2085.1729037640616</ele><time>2022-10-16T02:22:26Z</time></trkpt><trkpt lat="35.74193792749141" lon="138.21210292378012"><ele>2087.8552043139935</ele><time>2022-10-16T02:22:55Z</time></trkpt><trkpt lat="35.74184077265466" lon="138.21190949807934"><ele>2092.841382233426</ele><time>2022-10-16T02:23:16Z</time></trkpt><trkpt lat="35.74166336061013" lon="138.21199544881966"><ele>2097.165530987084</ele><time>2022-10-16T02:23:37Z</time></trkpt><trkpt lat="35.7416440660487" lon="138.21222790484882"><ele>2104.3058347636834</ele><time>2022-10-16T02:23:59Z</time></trkpt><trkpt lat="35.74153834276823" lon="138.21242354945974"><ele>2108.100729001686</ele><time>2022-10-16T02:24:26Z</time></trkpt><trkpt lat="35.7413762880449" lon="138.21252085018787"><ele>2113.4858003463596</ele><time>2022-10-16T02:24:46Z</time></trkpt><trkpt lat="35.74139389436492" lon="138.21229103662952"><ele>2118.527286321856</ele><time>2022-10-16T02:25:23Z</time></trkpt><trkpt lat="35.74125511163876" lon="138.21214862990175"><ele>2121.3488933425397</ele><time>2022-10-16T02:25:42Z</time></trkpt><trkpt lat="35.74113076713559" lon="138.21230940915717"><ele>2126.8251175479963</ele><time>2022-10-16T02:25:58Z</time></trkpt><trkpt lat="35.74095627801681" lon="138.21225391162858"><ele>2135.443897736259</ele><time>2022-10-16T02:26:41Z</time></trkpt><trkpt lat="35.74077231664336" lon="138.2122563864267"><ele>2143.4942112918943</ele><time>2022-10-16T02:27:15Z</time></trkpt><trkpt lat="35.74058968479958" lon="138.21228019006077"><ele>2152.0490323724225</ele><time>2022-10-16T02:27:49Z</time></trkpt><trkpt lat="35.74039788351317" lon="138.21225181409739"><ele>2153.944264289923</ele><time>2022-10-16T02:28:18Z</time></trkpt><trkpt lat="35.740251001507" lon="138.21211732116186"><ele>2157.666610187851</ele><time>2022-10-16T02:28:36Z</time></trkpt><trkpt lat="35.740100415283564" lon="138.21198896024706"><ele>2157.4221658045426</ele><time>2022-10-16T02:28:54Z</time></trkpt><trkpt lat="35.73995067923375" lon="138.21185409157385"><ele>2163.1026501413435</ele><time>2022-10-16T02:29:12Z</time></trkpt><trkpt lat="35.739799137900214" lon="138.21171748233218"><ele>2166.3227204391733</ele><time>2022-10-16T02:29:28Z</time></trkpt><trkpt lat="35.73965816592985" lon="138.21155993815665"><ele>2176.83397375606</ele><time>2022-10-16T02:30:05Z</time></trkpt><trkpt lat="35.739500304281435" lon="138.2114493777221"><ele>2175.7387802591547</ele><time>2022-10-16T02:30:23Z</time></trkpt><trkpt lat="35.73938148820015" lon="138.21127017807092"><ele>2173.909830581397</ele><time>2022-10-16T02:30:41Z</time></trkpt><trkpt lat="35.73929896337164" lon="138.2110718261028"><ele>2179.6234511565417</ele><time>2022-10-16T02:31:07Z</time></trkpt><trkpt lat="35.73912967994572" lon="138.21098986944682"><ele>2182.2068261913955</ele><time>2022-10-16T02:31:21Z</time></trkpt><trkpt lat="35.73897763512962" lon="138.2108637100774"><ele>2185.4513557441533</ele><time>2022-10-16T02:31:40Z</time></trkpt><trkpt lat="35.73886051847378" lon="138.21068812370646"><ele>2188.4897532323375</ele><time>2022-10-16T02:32:04Z</time></trkpt><trkpt lat="35.738737172738944" lon="138.21052639978035"><ele>2189.034758143127</ele><time>2022-10-16T02:32:20Z</time></trkpt><trkpt lat="35.738648855839116" lon="138.21032710289072"><ele>2191.180687904358</ele><time>2022-10-16T02:32:41Z</time></trkpt><trkpt lat="35.73853923953962" lon="138.2101439666964"><ele>2193.6399882854894</ele><time>2022-10-16T02:32:57Z</time></trkpt><trkpt lat="35.738451131986736" lon="138.20994705759634"><ele>2196.965865430422</ele><time>2022-10-16T02:33:17Z</time></trkpt><trkpt lat="35.7383789517947" lon="138.20973788085072"><ele>2204.0476693063974</ele><time>2022-10-16T02:33:40Z</time></trkpt><trkpt lat="35.73832977337516" lon="138.20950370794168"><ele>2206.183146082796</ele><time>2022-10-16T02:34:03Z</time></trkpt><trkpt lat="35.73834093867287" lon="138.2092796005376"><ele>2208.43555518426</ele><time>2022-10-16T02:34:32Z</time></trkpt><trkpt lat="35.738284856445205" lon="138.20905063542548"><ele>2204.3164921272546</ele><time>2022-10-16T02:34:49Z</time></trkpt><trkpt lat="35.73814915557647" lon="138.2088862674805"><ele>2198.2296298341826</ele><time>2022-10-16T02:35:05Z</time></trkpt><trkpt lat="35.7380087829072" lon="138.2087290940567"><ele>2198.0887713273987</ele><time>2022-10-16T02:35:17Z</time></trkpt><trkpt lat="35.737823834827076" lon="138.20872077492746"><ele>2196.589179675095</ele><time>2022-10-16T02:35:33Z</time></trkpt><trkpt lat="35.737642539056615" lon="138.20869074589558"><ele>2197.2504438199103</ele><time>2022-10-16T02:35:52Z</time></trkpt><trkpt lat="35.73753664516033" lon="138.20849740339085"><ele>2195.890909081325</ele><time>2022-10-16T02:36:11Z</time></trkpt><trkpt lat="35.73740082180094" lon="138.20833595179093"><ele>2194.664307873696</ele><time>2022-10-16T02:36:28Z</time></trkpt><trkpt lat="35.73730251561253" lon="138.20812291693403"><ele>2191.8872719155625</ele><time>2022-10-16T02:36:45Z</time></trkpt><trkpt lat="35.73719234991939" lon="138.2079436498476"><ele>2189.7013427410275</ele><time>2022-10-16T02:36:58Z</time></trkpt><trkpt lat="35.73701614979012" lon="138.207874765122"><ele>2184.7277825092897</ele><time>2022-10-16T02:37:20Z</time></trkpt><trkpt lat="35.73685924202333" lon="138.20776452394514"><ele>2184.7892163004726</ele><time>2022-10-16T02:37:33Z</time></trkpt><trkpt lat="35.736693916608736" lon="138.20766950746554"><ele>2183.6941562388092</ele><time>2022-10-16T02:37:53Z</time></trkpt><trkpt lat="35.73653605849678" lon="138.20754020023966"><ele>2179.8464250788093</ele><time>2022-10-16T02:38:08Z</time></trkpt><trkpt lat="35.736368303997345" lon="138.20745912856296"><ele>2184.467168139294</ele><time>2022-10-16T02:38:26Z</time></trkpt><trkpt lat="35.73620826424374" lon="138.20734289909285"><ele>2187.3504204843193</ele><time>2022-10-16T02:38:50Z</time></trkpt><trkpt lat="35.736049168685966" lon="138.20723784380246"><ele>2192.050509629771</ele><time>2022-10-16T02:39:22Z</time></trkpt><trkpt lat="35.7358845959156" lon="138.2071311579123"><ele>2196.2619617665187</ele><time>2022-10-16T02:39:51Z</time></trkpt><trkpt lat="35.73573475880897" lon="138.20698683338642"><ele>2206.2731667011976</ele><time>2022-10-16T02:48:40Z</time></trkpt><trkpt lat="35.735561134623524" lon="138.2069130825738"><ele>2211.267232029699</ele><time>2022-10-16T02:49:21Z</time></trkpt><trkpt lat="35.73547932016768" lon="138.20671320045585"><ele>2219.3963874373585</ele><time>2022-10-16T02:50:07Z</time></trkpt><trkpt lat="35.73538165245545" lon="138.20652483924184"><ele>2223.0009528221563</ele><time>2022-10-16T02:50:47Z</time></trkpt><trkpt lat="35.735335630379105" lon="138.2063067807043"><ele>2232.5037041166797</ele><time>2022-10-16T02:51:27Z</time></trkpt><trkpt lat="35.73524032916632" lon="138.20611884693972"><ele>2240.960549412295</ele><time>2022-10-16T02:52:02Z</time></trkpt><trkpt lat="35.73522957267704" lon="138.20588906391285"><ele>2249.743341363035</ele><time>2022-10-16T02:53:02Z</time></trkpt><trkpt lat="35.73512672974628" lon="138.20570597367194"><ele>2262.6510521424934</ele><time>2022-10-16T02:54:26Z</time></trkpt><trkpt lat="35.73518022707537" lon="138.20548912145776"><ele>2265.9472440965474</ele><time>2022-10-16T02:55:14Z</time></trkpt><trkpt lat="35.73527054833962" lon="138.20529778598737"><ele>2273.9591109985486</ele><time>2022-10-16T02:55:46Z</time></trkpt><trkpt lat="35.73527290833065" lon="138.20507660078732"><ele>2278.40523498971</ele><time>2022-10-16T02:56:25Z</time></trkpt><trkpt lat="35.73512850053173" lon="138.20491628621778"><ele>2294.937051696703</ele><time>2022-10-16T02:57:33Z</time></trkpt><trkpt lat="35.73495959058265" lon="138.20500886235197"><ele>2296.7137502040714</ele><time>2022-10-16T02:58:32Z</time></trkpt><trkpt lat="35.73484951667516" lon="138.20481329624954"><ele>2313.581030313857</ele><time>2022-10-16T03:00:05Z</time></trkpt><trkpt lat="35.73468686212351" lon="138.20471728901953"><ele>2324.0974229313433</ele><time>2022-10-16T03:01:28Z</time></trkpt><trkpt lat="35.73472392460814" lon="138.20449773532758"><ele>2331.3161134272814</ele><time>2022-10-16T03:02:49Z</time></trkpt><trkpt lat="35.73461184496578" lon="138.2043166523047"><ele>2340.220831598155</ele><time>2022-10-16T03:03:41Z</time></trkpt><trkpt lat="35.73462745732487" lon="138.20409073552995"><ele>2345.6147849047557</ele><time>2022-10-16T03:11:47Z</time></trkpt><trkpt lat="35.73458755419259" lon="138.2038702726416"><ele>2357.0937244733796</ele><time>2022-10-16T03:12:35Z</time></trkpt><trkpt lat="35.73472704284003" lon="138.20372389396005"><ele>2365.8766967579722</ele><time>2022-10-16T03:14:02Z</time></trkpt><trkpt lat="35.734753648307674" lon="138.20350518032583"><ele>2371.443424344994</ele><time>2022-10-16T03:14:55Z</time></trkpt><trkpt lat="35.73476945059474" lon="138.20328276065806"><ele>2387.2655459679663</ele><time>2022-10-16T03:16:30Z</time></trkpt><trkpt lat="35.73471475946638" lon="138.20307007314273"><ele>2398.8282350832596</ele><time>2022-10-16T03:18:51Z</time></trkpt><trkpt lat="35.734559732006275" lon="138.20293085617024"><ele>2410.361626205966</ele><time>2022-10-16T03:19:25Z</time></trkpt><trkpt lat="35.734731809405574" lon="138.2028630330208"><ele>2419.788306054659</ele><time>2022-10-16T03:20:38Z</time></trkpt><trkpt lat="35.73467370210357" lon="138.20264926389353"><ele>2422.443745017983</ele><time>2022-10-16T03:21:08Z</time></trkpt><trkpt lat="35.73450468086413" lon="138.20255832765145"><ele>2426.3900654269382</ele><time>2022-10-16T03:21:33Z</time></trkpt><trkpt lat="35.73433153680864" lon="138.2024403558683"><ele>2434.37769452855</ele><time>2022-10-16T03:22:13Z</time></trkpt><trkpt lat="35.734187794416265" lon="138.20230286107005"><ele>2443.1396320536733</ele><time>2022-10-16T03:22:57Z</time></trkpt><trkpt lat="35.73409670796497" lon="138.20211211678696"><ele>2450.334244775586</ele><time>2022-10-16T03:23:46Z</time></trkpt><trkpt lat="35.7339341858571" lon="138.20201506511847"><ele>2454.9631636012346</ele><time>2022-10-16T03:24:21Z</time></trkpt><trkpt lat="35.73378302670455" lon="138.2018489915081"><ele>2464.6299283010885</ele><time>2022-10-16T03:24:52Z</time></trkpt><trkpt lat="35.73361640277548" lon="138.20171373842697"><ele>2474.2640495337546</ele><time>2022-10-16T03:25:31Z</time></trkpt><trkpt lat="35.73348780234269" lon="138.20155608279597"><ele>2482.610096422024</ele><time>2022-10-16T03:26:20Z</time></trkpt><trkpt lat="35.73337016448016" lon="138.20138853193814"><ele>2486.2401710785925</ele><time>2022-10-16T03:26:59Z</time></trkpt><trkpt lat="35.73326142828223" lon="138.201206059634"><ele>2494.73205139488</ele><time>2022-10-16T03:27:43Z</time></trkpt><trkpt lat="35.73311980697344" lon="138.20106544594194"><ele>2501.583640084602</ele><time>2022-10-16T03:28:59Z</time></trkpt><trkpt lat="35.732996495009075" lon="138.2008988728391"><ele>2503.0773208048195</ele><time>2022-10-16T03:29:41Z</time></trkpt><trkpt lat="35.73290988810261" lon="138.20070505399968"><ele>2507.220586036332</ele><time>2022-10-16T03:30:20Z</time></trkpt><trkpt lat="35.73300195917289" lon="138.20050212393667"><ele>2517.558207287453</ele><time>2022-10-16T03:32:19Z</time></trkpt><trkpt lat="35.73284410258009" lon="138.2003725076216"><ele>2519.794408712536</ele><time>2022-10-16T03:32:45Z</time></trkpt><trkpt lat="35.732679446315075" lon="138.2002682592623"><ele>2520.8412801502272</ele><time>2022-10-16T03:33:05Z</time></trkpt><trkpt lat="35.73252310919248" lon="138.20015120907664"><ele>2525.46769218985</ele><time>2022-10-16T03:33:27Z</time></trkpt><trkpt lat="35.73235503647492" lon="138.20005791224457"><ele>2522.2345619359985</ele><time>2022-10-16T03:35:46Z</time></trkpt><trkpt lat="35.732169444854094" lon="138.20007752311417"><ele>2535.5630527678877</ele><time>2022-10-16T03:38:15Z</time></trkpt><trkpt lat="35.7319967211211" lon="138.20001430767888"><ele>2545.7713993359357</ele><time>2022-10-16T03:39:02Z</time></trkpt><trkpt lat="35.731820710374194" lon="138.19993559858258"><ele>2548.052237083204</ele><time>2022-10-16T03:39:30Z</time></trkpt><trkpt lat="35.73167198798818" lon="138.19978479841782"><ele>2553.7172981062904</ele><time>2022-10-16T03:40:09Z</time></trkpt><trkpt lat="35.731510638803684" lon="138.1996723145715"><ele>2562.6908595720306</ele><time>2022-10-16T03:41:01Z</time></trkpt><trkpt lat="35.73133957567913" lon="138.19959844851292"><ele>2568.32556939777</ele><time>2022-10-16T03:42:05Z</time></trkpt><trkpt lat="35.73118649330932" lon="138.1994730060247"><ele>2569.5258244005963</ele><time>2022-10-16T03:42:33Z</time></trkpt><trkpt lat="35.73107660851016" lon="138.19929618303442"><ele>2577.7985203564167</ele><time>2022-10-16T03:43:22Z</time></trkpt><trkpt lat="35.73091125576438" lon="138.19939641364775"><ele>2583.6295531494543</ele><time>2022-10-16T03:44:20Z</time></trkpt><trkpt lat="35.73073424008823" lon="138.19934404079672"><ele>2592.2829095376655</ele><time>2022-10-16T03:45:13Z</time></trkpt><trkpt lat="35.730565720082254" lon="138.19925215357358"><ele>2602.3886989960447</ele><time>2022-10-16T03:46:37Z</time></trkpt><trkpt lat="35.730419525846294" lon="138.1991203550511"><ele>2611.660699832253</ele><time>2022-10-16T03:47:30Z</time></trkpt><trkpt lat="35.73026260564964" lon="138.1989970026576"><ele>2624.292598674074</ele><time>2022-10-16T03:49:11Z</time></trkpt><trkpt lat="35.73010139079554" lon="138.1988840290246"><ele>2633.935341509059</ele><time>2022-10-16T03:55:19Z</time></trkpt><trkpt lat="35.72993134012522" lon="138.19880682344512"><ele>2643.6512605259195</ele><time>2022-10-16T03:57:08Z</time></trkpt><trkpt lat="35.72979506044493" lon="138.19866016380715"><ele>2657.156219982542</ele><time>2022-10-16T03:58:29Z</time></trkpt><trkpt lat="35.7296636236907" lon="138.19850173263492"><ele>2665.146226826124</ele><time>2022-10-16T03:59:30Z</time></trkpt><trkpt lat="35.72951802403409" lon="138.19836660187252"><ele>2668.827514884062</ele><time>2022-10-16T04:00:04Z</time></trkpt><trkpt lat="35.729342967648314" lon="138.19828914693005"><ele>2673.069424321875</ele><time>2022-10-16T04:00:38Z</time></trkpt><trkpt lat="35.72919365533267" lon="138.19816310019195"><ele>2680.750630666502</ele><time>2022-10-16T04:01:21Z</time></trkpt><trkpt lat="35.72901199456462" lon="138.19817079926727"><ele>2688.765404540114</ele><time>2022-10-16T04:02:14Z</time></trkpt><trkpt lat="35.728851391657706" lon="138.1980674036465"><ele>2692.363659230992</ele><time>2022-10-16T04:02:53Z</time></trkpt><trkpt lat="35.72867711572516" lon="138.19799744759797"><ele>2699.7514924034476</ele><time>2022-10-16T04:03:44Z</time></trkpt><trkpt lat="35.72851248587296" lon="138.1979029980787"><ele>2705.7443077024072</ele><time>2022-10-16T04:04:26Z</time></trkpt><trkpt lat="35.728338359647005" lon="138.19784202247928"><ele>2715.8900291910395</ele><time>2022-10-16T04:05:30Z</time></trkpt><trkpt lat="35.728164613638675" lon="138.19776297699127"><ele>2724.718792406842</ele><time>2022-10-16T04:06:34Z</time></trkpt><trkpt lat="35.728104981000534" lon="138.19754612068627"><ele>2729.5620584553108</ele><time>2022-10-16T04:07:10Z</time></trkpt><trkpt lat="35.72792701434378" lon="138.19748160276177"><ele>2741.1718777446076</ele><time>2022-10-16T04:08:29Z</time></trkpt><trkpt lat="35.727746292480845" lon="138.19748138502976"><ele>2751.3493833178654</ele><time>2022-10-16T04:09:43Z</time></trkpt><trkpt lat="35.72766340134661" lon="138.19728268234616"><ele>2757.718646825291</ele><time>2022-10-16T04:10:36Z</time></trkpt><trkpt lat="35.727485742579375" lon="138.1972261570271"><ele>2765.3106874581426</ele><time>2022-10-16T04:11:23Z</time></trkpt><trkpt lat="35.72733461904662" lon="138.19710168558152"><ele>2768.38488981314</ele><time>2022-10-16T04:15:08Z</time></trkpt><trkpt lat="35.72728433075011" lon="138.196885522391"><ele>2774.2162017505616</ele><time>2022-10-16T04:15:57Z</time></trkpt><trkpt lat="35.7273017793859" lon="138.1966639367054"><ele>2787.2186006261036</ele><time>2022-10-16T04:17:15Z</time></trkpt><trkpt lat="35.72712446441969" lon="138.19662298761227"><ele>2796.131422878243</ele><time>2022-10-16T04:18:29Z</time></trkpt><trkpt lat="35.72695124686591" lon="138.19654301354745"><ele>2809.081886812113</ele><time>2022-10-16T04:21:21Z</time></trkpt><trkpt lat="35.72679155797602" lon="138.1964369294196"><ele>2825.457194966264</ele><time>2022-10-16T04:22:34Z</time></trkpt><trkpt lat="35.7266369335972" lon="138.19631915118632"><ele>2831.465428577736</ele><time>2022-10-16T04:23:17Z</time></trkpt><trkpt lat="35.726499241913224" lon="138.19617592816877"><ele>2834.9237613296136</ele><time>2022-10-16T04:24:10Z</time></trkpt><trkpt lat="35.72637541526497" lon="138.1960062051691"><ele>2837.825235348195</ele><time>2022-10-16T04:26:25Z</time></trkpt><trkpt lat="35.726297172253176" lon="138.19580006803193"><ele>2840.0160321742296</ele><time>2022-10-16T04:26:51Z</time></trkpt><trkpt lat="35.726205400605735" lon="138.19559955644303"><ele>2842.3054234338924</ele><time>2022-10-16T04:27:14Z</time></trkpt><trkpt lat="35.726125009357325" lon="138.1953992919367"><ele>2841.962154854089</ele><time>2022-10-16T04:27:30Z</time></trkpt><trkpt lat="35.726099989139804" lon="138.19517231683008"><ele>2843.4631306817755</ele><time>2022-10-16T04:27:44Z</time></trkpt><trkpt lat="35.726103724397674" lon="138.1949469743204"><ele>2843.9264714196324</ele><time>2022-10-16T04:28:01Z</time></trkpt><trkpt lat="35.726029940822364" lon="138.19474258757634"><ele>2843.2862965594977</ele><time>2022-10-16T04:28:20Z</time></trkpt><trkpt lat="35.725909786969446" lon="138.19457154810715"><ele>2844.79433489684</ele><time>2022-10-16T04:28:41Z</time></trkpt><trkpt lat="35.72580077915136" lon="138.19439445932315"><ele>2849.318622305058</ele><time>2022-10-16T04:29:05Z</time></trkpt><trkpt lat="35.72574220289291" lon="138.19418184701587"><ele>2852.4120152704418</ele><time>2022-10-16T04:29:26Z</time></trkpt><trkpt lat="35.72569964521674" lon="138.19396088547143"><ele>2856.8975820178166</ele><time>2022-10-16T04:29:50Z</time></trkpt><trkpt lat="35.72562163674609" lon="138.1937537208757"><ele>2859.4059661561623</ele><time>2022-10-16T04:30:19Z</time></trkpt><trkpt lat="35.72563549728187" lon="138.19352953279747"><ele>2866.565240593627</ele><time>2022-10-16T04:32:09Z</time></trkpt><trkpt lat="35.72560641546999" lon="138.1933056209703"><ele>2869.0813336391</ele><time>2022-10-16T04:32:35Z</time></trkpt><trkpt lat="35.72559888053572" lon="138.19331665010216"><ele>2870.351023590192</ele><time>2022-10-16T04:34:16Z</time></trkpt><trkpt lat="35.72557312533644" lon="138.19344303758655"><ele>2885.8528527040035</ele><time>2022-10-16T04:45:32Z</time></trkpt><trkpt lat="35.72563625097114" lon="138.19365528033399"><ele>2876.1744643598795</ele><time>2022-10-16T05:05:20Z</time></trkpt><trkpt lat="35.72565346449695" lon="138.19388051782045"><ele>2872.3563140230253</ele><time>2022-10-16T05:05:39Z</time></trkpt><trkpt lat="35.725721429813845" lon="138.19408660663484"><ele>2860.5462846104056</ele><time>2022-10-16T05:06:09Z</time></trkpt><trkpt lat="35.72573070080702" lon="138.19430927898543"><ele>2854.6667273156345</ele><time>2022-10-16T05:06:33Z</time></trkpt><trkpt lat="35.725813787580165" lon="138.19451124408934"><ele>2854.9616266591474</ele><time>2022-10-16T05:06:54Z</time></trkpt><trkpt lat="35.725862327538515" lon="138.19472532207377"><ele>2855.550283782184</ele><time>2022-10-16T05:07:17Z</time></trkpt><trkpt lat="35.72592136061139" lon="138.19493411137785"><ele>2865.5607003951445</ele><time>2022-10-16T05:07:57Z</time></trkpt><trkpt lat="35.72595188660103" lon="138.19516527990353"><ele>2868.1659630397335</ele><time>2022-10-16T05:08:41Z</time></trkpt><trkpt lat="35.72594060690533" lon="138.1953921379469"><ele>2864.129692704417</ele><time>2022-10-16T05:08:58Z</time></trkpt><trkpt lat="35.72596782536731" lon="138.1956199192928"><ele>2865.2514227880165</ele><time>2022-10-16T05:09:13Z</time></trkpt><trkpt lat="35.72607284534373" lon="138.19580274998071"><ele>2870.0787127623335</ele><time>2022-10-16T05:09:59Z</time></trkpt><trkpt lat="35.726226616763526" lon="138.19593380367252"><ele>2844.4734012503177</ele><time>2022-10-16T05:24:08Z</time></trkpt><trkpt lat="35.72638251488426" lon="138.19604591907685"><ele>2835.6532352557406</ele><time>2022-10-16T05:24:46Z</time></trkpt><trkpt lat="35.72651819536501" lon="138.19619514170427"><ele>2830.8885961081833</ele><time>2022-10-16T05:25:13Z</time></trkpt><trkpt lat="35.726659075410154" lon="138.1963360718052"><ele>2823.9040091885254</ele><time>2022-10-16T05:25:45Z</time></trkpt><trkpt lat="35.72680093644807" lon="138.19647452769587"><ele>2818.0926908198744</ele><time>2022-10-16T05:26:05Z</time></trkpt><trkpt lat="35.72697777917395" lon="138.19652959154678"><ele>2804.7438295213506</ele><time>2022-10-16T05:27:03Z</time></trkpt><trkpt lat="35.72713636422394" lon="138.1966431863732"><ele>2795.5237449770793</ele><time>2022-10-16T05:27:41Z</time></trkpt><trkpt lat="35.727310624070675" lon="138.19669996980943"><ele>2783.524391889572</ele><time>2022-10-16T05:28:32Z</time></trkpt><trkpt lat="35.72729135084698" lon="138.19692018527968"><ele>2773.2315694205463</ele><time>2022-10-16T05:29:18Z</time></trkpt><trkpt lat="35.727343513263065" lon="138.197136800678"><ele>2767.5617333231494</ele><time>2022-10-16T05:29:47Z</time></trkpt><trkpt lat="35.727507400378954" lon="138.19722868045346"><ele>2768.3510686103255</ele><time>2022-10-16T05:30:13Z</time></trkpt><trkpt lat="35.727668365226904" lon="138.19734593949457"><ele>2760.3196723759174</ele><time>2022-10-16T05:30:57Z</time></trkpt><trkpt lat="35.7278453728035" lon="138.1974289327779"><ele>2747.591795168817</ele><time>2022-10-16T05:31:41Z</time></trkpt><trkpt lat="35.72802179610287" lon="138.19748736367623"><ele>2734.4939767206088</ele><time>2022-10-16T05:32:50Z</time></trkpt><trkpt lat="35.728144024772014" lon="138.19766940464427"><ele>2731.2118781451136</ele><time>2022-10-16T05:33:16Z</time></trkpt><trkpt lat="35.728269533141294" lon="138.19783322367226"><ele>2720.1660266723484</ele><time>2022-10-16T05:33:55Z</time></trkpt><trkpt lat="35.72844644551128" lon="138.19787751198982"><ele>2714.244087703526</ele><time>2022-10-16T05:34:35Z</time></trkpt><trkpt lat="35.72861597797883" lon="138.19796713526532"><ele>2704.557614080608</ele><time>2022-10-16T05:35:14Z</time></trkpt><trkpt lat="35.72879183758307" lon="138.19805106668883"><ele>2697.156296497211</ele><time>2022-10-16T05:35:53Z</time></trkpt><trkpt lat="35.72895252555552" lon="138.19815956590114"><ele>2691.3089496940374</ele><time>2022-10-16T05:36:21Z</time></trkpt><trkpt lat="35.729127405027576" lon="138.19821464740258"><ele>2688.680703344755</ele><time>2022-10-16T05:36:44Z</time></trkpt><trkpt lat="35.729309908701715" lon="138.19826295789838"><ele>2678.7947954535484</ele><time>2022-10-16T05:37:20Z</time></trkpt><trkpt lat="35.7294827166872" lon="138.19834450788696"><ele>2666.3268713187426</ele><time>2022-10-16T05:37:53Z</time></trkpt><trkpt lat="35.72963565898555" lon="138.19846349504223"><ele>2662.6589576583356</ele><time>2022-10-16T05:38:15Z</time></trkpt><trkpt lat="35.729748375134484" lon="138.1986366581623"><ele>2657.3362617688254</ele><time>2022-10-16T05:38:48Z</time></trkpt><trkpt lat="35.729887146077225" lon="138.1987788111623"><ele>2644.2833565492183</ele><time>2022-10-16T05:39:56Z</time></trkpt><trkpt lat="35.73004641104236" lon="138.19888318855223"><ele>2637.9120794832706</ele><time>2022-10-16T05:40:45Z</time></trkpt><trkpt lat="35.73020744327246" lon="138.19898350454432"><ele>2625.9843719461933</ele><time>2022-10-16T05:41:40Z</time></trkpt><trkpt lat="35.73035705369033" lon="138.19912523027438"><ele>2616.6323018623516</ele><time>2022-10-16T05:42:21Z</time></trkpt><trkpt lat="35.730528038109185" lon="138.1992133801171"><ele>2605.682853824459</ele><time>2022-10-16T05:43:05Z</time></trkpt><trkpt lat="35.73067880019109" lon="138.19935042753139"><ele>2595.6383753977716</ele><time>2022-10-16T05:43:49Z</time></trkpt><trkpt lat="35.73085638091526" lon="138.19940259262327"><ele>2587.0534066241235</ele><time>2022-10-16T05:44:24Z</time></trkpt><trkpt lat="35.73101395894364" lon="138.19929110343648"><ele>2577.7544412547722</ele><time>2022-10-16T05:45:17Z</time></trkpt><trkpt lat="35.73112098778013" lon="138.1994691571224"><ele>2573.4402219271287</ele><time>2022-10-16T05:45:46Z</time></trkpt><trkpt lat="35.73127994926747" lon="138.19958231855543"><ele>2571.9574174741283</ele><time>2022-10-16T05:46:03Z</time></trkpt><trkpt lat="35.7314446844772" lon="138.19970232959628"><ele>2565.529802155681</ele><time>2022-10-16T05:46:27Z</time></trkpt><trkpt lat="35.73161463394419" lon="138.19978683531687"><ele>2555.2815654668957</ele><time>2022-10-16T05:47:07Z</time></trkpt><trkpt lat="35.73178169881249" lon="138.19991909682784"><ele>2549.3067554831505</ele><time>2022-10-16T05:47:37Z</time></trkpt><trkpt lat="35.73195654588055" lon="138.20000905989102"><ele>2543.6625962574035</ele><time>2022-10-16T05:48:03Z</time></trkpt><trkpt lat="35.73213365042523" lon="138.20009683605645"><ele>2536.1442108144984</ele><time>2022-10-16T05:48:33Z</time></trkpt><trkpt lat="35.73233121521015" lon="138.20010796135008"><ele>2526.428201401606</ele><time>2022-10-16T05:49:10Z</time></trkpt><trkpt lat="35.73251016174467" lon="138.20014762457734"><ele>2524.7549742553383</ele><time>2022-10-16T05:49:27Z</time></trkpt><trkpt lat="35.73267127651089" lon="138.20026640828306"><ele>2522.351137121208</ele><time>2022-10-16T05:49:42Z</time></trkpt><trkpt lat="35.73272207176038" lon="138.20029008217074"><ele>2523.9157575704157</ele><time>2022-10-16T05:49:47Z</time></trkpt><trkpt lat="35.73289428204131" lon="138.20037233884082"><ele>2523.835457712412</ele><time>2022-10-16T05:50:06Z</time></trkpt><trkpt lat="35.73279224344276" lon="138.20055868424078"><ele>2512.750565073453</ele><time>2022-10-16T05:51:16Z</time></trkpt><trkpt lat="35.73286768404921" lon="138.20077870058665"><ele>2505.4432788742706</ele><time>2022-10-16T05:51:43Z</time></trkpt><trkpt lat="35.73298625808938" lon="138.20095589677211"><ele>2500.866003717296</ele><time>2022-10-16T05:52:14Z</time></trkpt><trkpt lat="35.733102578668515" lon="138.20112848399143"><ele>2494.869915478863</ele><time>2022-10-16T05:52:42Z</time></trkpt><trkpt lat="35.73324023766054" lon="138.20128841144273"><ele>2491.6509407851845</ele><time>2022-10-16T05:53:14Z</time></trkpt><trkpt lat="35.73335205851077" lon="138.20147740061742"><ele>2486.0243811998516</ele><time>2022-10-16T05:53:38Z</time></trkpt><trkpt lat="35.73349547155033" lon="138.20162230810857"><ele>2479.319453860633</ele><time>2022-10-16T05:54:21Z</time></trkpt><trkpt lat="35.73360994074404" lon="138.2018074128932"><ele>2474.738722935319</ele><time>2022-10-16T05:54:52Z</time></trkpt><trkpt lat="35.733766146977516" lon="138.2019260179324"><ele>2465.2248897878453</ele><time>2022-10-16T05:55:16Z</time></trkpt><trkpt lat="35.73392061791519" lon="138.202063049221"><ele>2460.6998493866995</ele><time>2022-10-16T05:55:44Z</time></trkpt><trkpt lat="35.73408202016167" lon="138.20217183757657"><ele>2448.590967291966</ele><time>2022-10-16T05:56:15Z</time></trkpt><trkpt lat="35.73418810500655" lon="138.20236111832213"><ele>2440.841248523444</ele><time>2022-10-16T05:56:56Z</time></trkpt><trkpt lat="35.734364700358604" lon="138.20246829113222"><ele>2430.8691888209432</ele><time>2022-10-16T05:57:33Z</time></trkpt><trkpt lat="35.734529324343136" lon="138.20257233899042"><ele>2426.677585176192</ele><time>2022-10-16T05:57:58Z</time></trkpt><trkpt lat="35.73467451026006" lon="138.20270423970135"><ele>2419.9963050596416</ele><time>2022-10-16T05:58:26Z</time></trkpt><trkpt lat="35.73450289924771" lon="138.20278699343123"><ele>2417.2453761147335</ele><time>2022-10-16T05:59:27Z</time></trkpt><trkpt lat="35.734572150248276" lon="138.20299426000526"><ele>2409.544126844965</ele><time>2022-10-16T06:00:03Z</time></trkpt><trkpt lat="35.73469199767428" lon="138.2031633057919"><ele>2401.483937382698</ele><time>2022-10-16T06:00:35Z</time></trkpt><trkpt lat="35.7348555051093" lon="138.20326682060306"><ele>2390.9204821866006</ele><time>2022-10-16T06:01:07Z</time></trkpt><trkpt lat="35.73472286278338" lon="138.20342003326334"><ele>2380.351474583149</ele><time>2022-10-16T06:02:12Z</time></trkpt><trkpt lat="35.73467226203281" lon="138.2036501279677"><ele>2371.2348563652486</ele><time>2022-10-16T06:03:01Z</time></trkpt><trkpt lat="35.73448795897116" lon="138.20368694000146"><ele>2361.9385017771274</ele><time>2022-10-16T06:03:53Z</time></trkpt><trkpt lat="35.73452763214112" lon="138.2039042803997"><ele>2356.9596009599045</ele><time>2022-10-16T06:04:10Z</time></trkpt><trkpt lat="35.73463462610311" lon="138.2040955754194"><ele>2350.290336886421</ele><time>2022-10-16T06:04:33Z</time></trkpt><trkpt lat="35.734584784344456" lon="138.20431090145723"><ele>2337.962227396667</ele><time>2022-10-16T06:05:09Z</time></trkpt><trkpt lat="35.734659089346366" lon="138.20451956459723"><ele>2333.4519037380815</ele><time>2022-10-16T06:05:38Z</time></trkpt><trkpt lat="35.73463818964361" lon="138.20475396862068"><ele>2323.931840309873</ele><time>2022-10-16T06:06:18Z</time></trkpt><trkpt lat="35.734803657746895" lon="138.2048470772607"><ele>2316.8444798253477</ele><time>2022-10-16T06:06:51Z</time></trkpt><trkpt lat="35.73496752699307" lon="138.2049647457251"><ele>2308.222656166181</ele><time>2022-10-16T06:07:31Z</time></trkpt><trkpt lat="35.73514852183939" lon="138.2049886926037"><ele>2293.333758223802</ele><time>2022-10-16T06:08:35Z</time></trkpt><trkpt lat="35.735257038911605" lon="138.20516936858476"><ele>2278.387046329677</ele><time>2022-10-16T06:09:23Z</time></trkpt><trkpt lat="35.73522414688165" lon="138.20540249329304"><ele>2274.611082795076</ele><time>2022-10-16T06:09:46Z</time></trkpt><trkpt lat="35.73512170484045" lon="138.20558927174415"><ele>2271.837137675844</ele><time>2022-10-16T06:10:13Z</time></trkpt><trkpt lat="35.735117371356225" lon="138.20581269014667"><ele>2257.930566920899</ele><time>2022-10-16T06:11:04Z</time></trkpt><trkpt lat="35.73522050074956" lon="138.2060137335824"><ele>2247.7322289301082</ele><time>2022-10-16T06:11:39Z</time></trkpt><trkpt lat="35.7352769461294" lon="138.2062367122287"><ele>2237.7097180569544</ele><time>2022-10-16T06:12:24Z</time></trkpt><trkpt lat="35.7353671937882" lon="138.20643606028568"><ele>2227.730430616997</ele><time>2022-10-16T06:12:53Z</time></trkpt><trkpt lat="35.7354527742476" lon="138.2066356099199"><ele>2228.5239145308733</ele><time>2022-10-16T06:13:14Z</time></trkpt><trkpt lat="35.735505564119826" lon="138.20685756990719"><ele>2206.233931946568</ele><time>2022-10-16T06:13:43Z</time></trkpt><trkpt lat="35.73563084521716" lon="138.20701870567433"><ele>2201.8283926518634</ele><time>2022-10-16T06:14:17Z</time></trkpt><trkpt lat="35.73580247865021" lon="138.2071025021878"><ele>2200.8201072160155</ele><time>2022-10-16T06:14:31Z</time></trkpt><trkpt lat="35.73598551313509" lon="138.20715247844853"><ele>2201.4128142232075</ele><time>2022-10-16T06:14:47Z</time></trkpt><trkpt lat="35.7361111211007" lon="138.2073170337079"><ele>2188.5384927885607</ele><time>2022-10-16T06:15:15Z</time></trkpt><trkpt lat="35.73628418458458" lon="138.2074127613479"><ele>2183.7299745893106</ele><time>2022-10-16T06:15:42Z</time></trkpt><trkpt lat="35.736440818546" lon="138.20752312822162"><ele>2182.8875516196713</ele><time>2022-10-16T06:15:59Z</time></trkpt><trkpt lat="35.73656375501263" lon="138.20773446327814"><ele>2179.229353621602</ele><time>2022-10-16T06:16:46Z</time></trkpt><trkpt lat="35.73667207863633" lon="138.20793101853363"><ele>2176.4193536322564</ele><time>2022-10-16T06:17:10Z</time></trkpt><trkpt lat="35.736737415092044" lon="138.20814902458733"><ele>2178.6472635390237</ele><time>2022-10-16T06:17:20Z</time></trkpt><trkpt lat="35.73672158407749" lon="138.2083780986585"><ele>2175.251512932591</ele><time>2022-10-16T06:17:48Z</time></trkpt><trkpt lat="35.73674464450169" lon="138.20860263881642"><ele>2173.328965678811</ele><time>2022-10-16T06:18:06Z</time></trkpt><trkpt lat="35.736708070586594" lon="138.20881957382127"><ele>2173.3683412522078</ele><time>2022-10-16T06:18:21Z</time></trkpt><trkpt lat="35.73679018275374" lon="138.20901953920583"><ele>2171.3114935681224</ele><time>2022-10-16T06:18:46Z</time></trkpt><trkpt lat="35.73687238393996" lon="138.2092596427935"><ele>2171.281481888145</ele><time>2022-10-16T06:19:08Z</time></trkpt><trkpt lat="35.73703550817915" lon="138.20937479686978"><ele>2165.7294847220182</ele><time>2022-10-16T06:19:28Z</time></trkpt><trkpt lat="35.73718921152348" lon="138.20949744196434"><ele>2164.3967225551605</ele><time>2022-10-16T06:19:50Z</time></trkpt><trkpt lat="35.73726730438544" lon="138.20970154948864"><ele>2166.6500284392387</ele><time>2022-10-16T06:20:05Z</time></trkpt><trkpt lat="35.73729206360343" lon="138.20994222293686"><ele>2161.0558520490304</ele><time>2022-10-16T06:20:27Z</time></trkpt><trkpt lat="35.73736256335599" lon="138.21014703420548"><ele>2155.3312310269102</ele><time>2022-10-16T06:20:54Z</time></trkpt><trkpt lat="35.73746555286996" lon="138.2103313318374"><ele>2155.8244146713987</ele><time>2022-10-16T06:21:09Z</time></trkpt><trkpt lat="35.73752456958014" lon="138.2105447847954"><ele>2152.7212194213644</ele><time>2022-10-16T06:21:37Z</time></trkpt><trkpt lat="35.7375475347357" lon="138.21077912881245"><ele>2149.727714996785</ele><time>2022-10-16T06:22:03Z</time></trkpt><trkpt lat="35.73766965254174" lon="138.21094610349095"><ele>2148.0350275561213</ele><time>2022-10-16T06:22:21Z</time></trkpt><trkpt lat="35.73773470513319" lon="138.2111611965989"><ele>2145.950319234282</ele><time>2022-10-16T06:22:40Z</time></trkpt><trkpt lat="35.73789913922656" lon="138.21126496061078"><ele>2144.171329832636</ele><time>2022-10-16T06:22:59Z</time></trkpt><trkpt lat="35.73804719574141" lon="138.21140983311588"><ele>2141.120756400749</ele><time>2022-10-16T06:23:14Z</time></trkpt><trkpt lat="35.73812238600631" lon="138.2116196187133"><ele>2136.467914550565</ele><time>2022-10-16T06:23:38Z</time></trkpt><trkpt lat="35.73818841041627" lon="138.2118357749982"><ele>2131.372150852345</ele><time>2022-10-16T06:24:02Z</time></trkpt><trkpt lat="35.73825168128822" lon="138.21204734010564"><ele>2127.040283043869</ele><time>2022-10-16T06:24:26Z</time></trkpt><trkpt lat="35.73843059419288" lon="138.21213291041101"><ele>2122.9679973265156</ele><time>2022-10-16T06:24:49Z</time></trkpt><trkpt lat="35.73858733697715" lon="138.21225055997797"><ele>2116.076430662535</ele><time>2022-10-16T06:25:21Z</time></trkpt><trkpt lat="35.7387639482185" lon="138.2123433059335"><ele>2117.706637745723</ele><time>2022-10-16T06:25:45Z</time></trkpt><trkpt lat="35.738845877873" lon="138.21255501664052"><ele>2117.0217444198206</ele><time>2022-10-16T06:26:21Z</time></trkpt><trkpt lat="35.738910077848665" lon="138.212762456692"><ele>2112.7939875787124</ele><time>2022-10-16T06:26:41Z</time></trkpt><trkpt lat="35.73905861983345" lon="138.2129073333018"><ele>2107.507299966179</ele><time>2022-10-16T06:27:08Z</time></trkpt><trkpt lat="35.73922805018584" lon="138.21299085612"><ele>2104.2694106344134</ele><time>2022-10-16T06:27:26Z</time></trkpt><trkpt lat="35.739416257686045" lon="138.21300246167743"><ele>2104.3722778167576</ele><time>2022-10-16T06:27:52Z</time></trkpt><trkpt lat="35.73955885215341" lon="138.2131517484935"><ele>2103.1205537701026</ele><time>2022-10-16T06:28:18Z</time></trkpt><trkpt lat="35.73968351693311" lon="138.21332162244977"><ele>2101.300894966349</ele><time>2022-10-16T06:28:40Z</time></trkpt><trkpt lat="35.73982137587314" lon="138.21346410676793"><ele>2098.978289508261</ele><time>2022-10-16T06:29:05Z</time></trkpt><trkpt lat="35.73997104453616" lon="138.21358947475687"><ele>2096.042260491289</ele><time>2022-10-16T06:29:19Z</time></trkpt><trkpt lat="35.740126323511255" lon="138.21371553313602"><ele>2089.5229759979993</ele><time>2022-10-16T06:29:39Z</time></trkpt><trkpt lat="35.74030895811492" lon="138.2137485930102"><ele>2089.0089834909886</ele><time>2022-10-16T06:29:57Z</time></trkpt><trkpt lat="35.74044961994192" lon="138.21389514995442"><ele>2084.1221499415115</ele><time>2022-10-16T06:30:19Z</time></trkpt><trkpt lat="35.74063516207045" lon="138.21390853735636"><ele>2085.655821344815</ele><time>2022-10-16T06:30:37Z</time></trkpt><trkpt lat="35.74081401285569" lon="138.2139879232526"><ele>2077.5240616379306</ele><time>2022-10-16T06:31:02Z</time></trkpt><trkpt lat="35.74093562149252" lon="138.21415223690394"><ele>2071.2815616782755</ele><time>2022-10-16T06:31:29Z</time></trkpt><trkpt lat="35.741125627490135" lon="138.21415833608555"><ele>2063.435708841309</ele><time>2022-10-16T06:31:58Z</time></trkpt><trkpt lat="35.741316164138794" lon="138.21413746874055"><ele>2056.844424586743</ele><time>2022-10-16T06:32:21Z</time></trkpt><trkpt lat="35.74150537737694" lon="138.2140967796017"><ele>2054.093663033098</ele><time>2022-10-16T06:32:41Z</time></trkpt><trkpt lat="35.74169278419955" lon="138.2140786553277"><ele>2051.9736638301983</ele><time>2022-10-16T06:33:03Z</time></trkpt><trkpt lat="35.741862391801696" lon="138.21397879366424"><ele>2053.7424316275865</ele><time>2022-10-16T06:33:32Z</time></trkpt><trkpt lat="35.74200619720385" lon="138.21383998728237"><ele>2054.9939579246566</ele><time>2022-10-16T06:33:47Z</time></trkpt><trkpt lat="35.74214667335" lon="138.213691961812"><ele>2054.670122283511</ele><time>2022-10-16T06:34:03Z</time></trkpt><trkpt lat="35.74223570520409" lon="138.21349068975172"><ele>2054.1177179906517</ele><time>2022-10-16T06:34:24Z</time></trkpt></trkseg></trk></gpx>