<?xml version='1.0' encoding='UTF-8'?><gpx creator="YAMAP - https://yamap.com" xsi:schemaLocation="http://www.topografix.com/GPX/1/1 http://www.topografix.com/GPX/1/1/gpx.xsd" version="1.1" xmlns="http://www.topografix.com/GPX/1/1" xmlns:xsi="http://www.w3.org/2001/XMLSchema-instance"><metadata><bounds maxlat="44.11046785958353" maxlon="145.12895911695452" minlat="44.07577282690474" minlon="145.08823818728666"/></metadata><trk><name>羅臼岳</name><number>1</number><trkseg><trkpt lat="44.11034043389902" lon="145.08830294339614"><ele>218.86234673392028</ele><time>2022-08-23T22:03:41Z</time></trkpt><trkpt lat="44.11029211036471" lon="145.08855407599356"><ele>220.8671244289726</ele><time>2022-08-23T22:03:58Z</time></trkpt><trkpt lat="44.11033028243542" lon="145.08880154370823"><ele>217.6529421089217</ele><time>2022-08-23T22:04:16Z</time></trkpt><trkpt lat="44.11035634990244" lon="145.08907155663093"><ele>215.61494898144156</ele><time>2022-08-23T22:04:39Z</time></trkpt><trkpt lat="44.11017368646717" lon="145.08909076128467"><ele>220.0209367731586</ele><time>2022-08-23T22:05:09Z</time></trkpt><trkpt lat="44.110032269484606" lon="145.08924935052517"><ele>226.66641487833112</ele><time>2022-08-23T22:06:37Z</time></trkpt><trkpt lat="44.10990754397608" lon="145.0894327110487"><ele>228.2388097634539</ele><time>2022-08-23T22:06:51Z</time></trkpt><trkpt lat="44.10980812822225" lon="145.08964956019568"><ele>231.6067431261763</ele><time>2022-08-23T22:07:07Z</time></trkpt><trkpt lat="44.109800356504394" lon="145.08990188253102"><ele>231.36024713795632</ele><time>2022-08-23T22:07:22Z</time></trkpt><trkpt lat="44.109809299826935" lon="145.09015547312384"><ele>230.28869083803147</ele><time>2022-08-23T22:07:37Z</time></trkpt><trkpt lat="44.10966835213232" lon="145.09031113749737"><ele>232.65594844240695</ele><time>2022-08-23T22:08:16Z</time></trkpt><trkpt lat="44.10949820654743" lon="145.09041221151017"><ele>235.64337281882763</ele><time>2022-08-23T22:08:33Z</time></trkpt><trkpt lat="44.10939466820692" lon="145.09019626012784"><ele>239.5943284658715</ele><time>2022-08-23T22:12:21Z</time></trkpt><trkpt lat="44.109238749099966" lon="145.09006043541007"><ele>244.2377007054165</ele><time>2022-08-23T22:12:44Z</time></trkpt><trkpt lat="44.10907873446745" lon="145.0899371459353"><ele>248.99569846875966</ele><time>2022-08-23T22:13:08Z</time></trkpt><trkpt lat="44.108908437897966" lon="145.0898456630323"><ele>253.37632183078676</ele><time>2022-08-23T22:13:26Z</time></trkpt><trkpt lat="44.10873015590509" lon="145.08989884433117"><ele>261.2548656919971</ele><time>2022-08-23T22:13:45Z</time></trkpt><trkpt lat="44.108649798607196" lon="145.09012534069223"><ele>259.75455288030207</ele><time>2022-08-23T22:14:11Z</time></trkpt><trkpt lat="44.10867676559052" lon="145.08987480572165"><ele>264.02921842131764</ele><time>2022-08-23T22:14:51Z</time></trkpt><trkpt lat="44.108737009449975" lon="145.08962819773828"><ele>265.0208272533491</ele><time>2022-08-23T22:15:20Z</time></trkpt><trkpt lat="44.10886617868909" lon="145.08944591301312"><ele>270.6038720784709</ele><time>2022-08-23T22:15:50Z</time></trkpt><trkpt lat="44.10900616199588" lon="145.08927831798962"><ele>271.9153097094968</ele><time>2022-08-23T22:16:13Z</time></trkpt><trkpt lat="44.10914913577038" lon="145.08912487013396"><ele>274.1448682527989</ele><time>2022-08-23T22:16:34Z</time></trkpt><trkpt lat="44.1089664587128" lon="145.0891281376973"><ele>282.35276418738067</ele><time>2022-08-23T22:16:56Z</time></trkpt><trkpt lat="44.108787223131955" lon="145.08917278810327"><ele>288.1125481557101</ele><time>2022-08-23T22:17:31Z</time></trkpt><trkpt lat="44.10861217650747" lon="145.08923175063282"><ele>288.3513808073476</ele><time>2022-08-23T22:18:01Z</time></trkpt><trkpt lat="44.10843010427031" lon="145.08927708185507"><ele>295.67735418491066</ele><time>2022-08-23T22:18:41Z</time></trkpt><trkpt lat="44.10824093325277" lon="145.08934120361934"><ele>302.6556960903108</ele><time>2022-08-23T22:19:18Z</time></trkpt><trkpt lat="44.108136536627555" lon="145.08912305974968"><ele>306.77491190005094</ele><time>2022-08-23T22:20:26Z</time></trkpt><trkpt lat="44.10799772115036" lon="145.08894212544124"><ele>309.7657725699246</ele><time>2022-08-23T22:20:44Z</time></trkpt><trkpt lat="44.107818414958516" lon="145.08889229522754"><ele>312.40478506404907</ele><time>2022-08-23T22:21:05Z</time></trkpt><trkpt lat="44.107641762665395" lon="145.08884316004844"><ele>316.69607550278306</ele><time>2022-08-23T22:21:30Z</time></trkpt><trkpt lat="44.10759061800218" lon="145.08908728252308"><ele>323.9131794022396</ele><time>2022-08-23T22:22:08Z</time></trkpt><trkpt lat="44.10773469710319" lon="145.08924153651645"><ele>324.9920546412468</ele><time>2022-08-23T22:22:29Z</time></trkpt><trkpt lat="44.107628396744595" lon="145.08945885354123"><ele>333.75616645719856</ele><time>2022-08-23T22:23:15Z</time></trkpt><trkpt lat="44.10752296738862" lon="145.08966240179234"><ele>339.1113550607115</ele><time>2022-08-23T22:23:46Z</time></trkpt><trkpt lat="44.10738330612443" lon="145.08983298017202"><ele>343.7384136207402</ele><time>2022-08-23T22:24:13Z</time></trkpt><trkpt lat="44.10722288937371" lon="145.08994695425807"><ele>350.34534246101975</ele><time>2022-08-23T22:24:36Z</time></trkpt><trkpt lat="44.107064443238365" lon="145.0900975093523"><ele>353.44031929410994</ele><time>2022-08-23T22:25:03Z</time></trkpt><trkpt lat="44.10691803980034" lon="145.09024859074535"><ele>359.7461605798453</ele><time>2022-08-23T22:25:34Z</time></trkpt><trkpt lat="44.106809962337664" lon="145.0904545392924"><ele>362.8223516345024</ele><time>2022-08-23T22:26:02Z</time></trkpt><trkpt lat="44.10669423383438" lon="145.09065494506893"><ele>367.37200169544667</ele><time>2022-08-23T22:26:29Z</time></trkpt><trkpt lat="44.10659747955241" lon="145.0908743248614"><ele>370.89911998063326</ele><time>2022-08-23T22:26:54Z</time></trkpt><trkpt lat="44.10649447219752" lon="145.0910877721317"><ele>371.62791226711124</ele><time>2022-08-23T22:27:20Z</time></trkpt><trkpt lat="44.10643082254684" lon="145.09132254741675"><ele>375.91079664230347</ele><time>2022-08-23T22:27:53Z</time></trkpt><trkpt lat="44.106408362171344" lon="145.09157235906446"><ele>379.7837533913553</ele><time>2022-08-23T22:30:05Z</time></trkpt><trkpt lat="44.10642663392575" lon="145.091822130722"><ele>386.811566256918</ele><time>2022-08-23T22:30:42Z</time></trkpt><trkpt lat="44.10638423643687" lon="145.09207351516622"><ele>392.6975738713518</ele><time>2022-08-23T22:31:28Z</time></trkpt><trkpt lat="44.10633019866042" lon="145.09231396775166"><ele>395.7901132730767</ele><time>2022-08-23T22:31:55Z</time></trkpt><trkpt lat="44.106257400400736" lon="145.092553461995"><ele>396.25338981393725</ele><time>2022-08-23T22:32:15Z</time></trkpt><trkpt lat="44.1061689792487" lon="145.09278489645916"><ele>397.77932666707784</ele><time>2022-08-23T22:32:37Z</time></trkpt><trkpt lat="44.106105407382316" lon="145.09302581678412"><ele>403.6172901429236</ele><time>2022-08-23T22:33:02Z</time></trkpt><trkpt lat="44.10602641597055" lon="145.09325645204305"><ele>407.04589673131704</ele><time>2022-08-23T22:33:25Z</time></trkpt><trkpt lat="44.10600681440013" lon="145.09350978101352"><ele>409.35006083827466</ele><time>2022-08-23T22:33:50Z</time></trkpt><trkpt lat="44.105956620580386" lon="145.09375896751217"><ele>412.6697227554396</ele><time>2022-08-23T22:34:15Z</time></trkpt><trkpt lat="44.10585972980806" lon="145.0939789330166"><ele>421.1841156119481</ele><time>2022-08-23T22:34:52Z</time></trkpt><trkpt lat="44.10582348566126" lon="145.09423665576264"><ele>426.3736501811072</ele><time>2022-08-23T22:35:26Z</time></trkpt><trkpt lat="44.10579597813164" lon="145.09449297552945"><ele>434.0288138790056</ele><time>2022-08-23T22:36:03Z</time></trkpt><trkpt lat="44.10573823230089" lon="145.0947322924469"><ele>435.7272653868422</ele><time>2022-08-23T22:36:33Z</time></trkpt><trkpt lat="44.10570869270454" lon="145.09447899663414"><ele>436.67585115134716</ele><time>2022-08-23T22:37:14Z</time></trkpt><trkpt lat="44.10560579929735" lon="145.09468670068532"><ele>442.83646585512906</ele><time>2022-08-23T22:38:05Z</time></trkpt><trkpt lat="44.10553636450188" lon="145.09492158321413"><ele>450.05943289678544</ele><time>2022-08-23T22:38:42Z</time></trkpt><trkpt lat="44.10544733133088" lon="145.0951389803689"><ele>452.66869030334055</ele><time>2022-08-23T22:39:24Z</time></trkpt><trkpt lat="44.10534083945768" lon="145.09534127575694"><ele>456.8834781618789</ele><time>2022-08-23T22:40:05Z</time></trkpt><trkpt lat="44.105190114214224" lon="145.09547918742658"><ele>462.0893053803593</ele><time>2022-08-23T22:40:42Z</time></trkpt><trkpt lat="44.10502433513132" lon="145.09558449986957"><ele>463.13155820406973</ele><time>2022-08-23T22:41:27Z</time></trkpt><trkpt lat="44.104922000724365" lon="145.09579783884976"><ele>470.7268576743081</ele><time>2022-08-23T22:42:04Z</time></trkpt><trkpt lat="44.104792851446774" lon="145.09598618970475"><ele>476.5415116082877</ele><time>2022-08-23T22:42:46Z</time></trkpt><trkpt lat="44.104709111984306" lon="145.09621730401378"><ele>481.864923292771</ele><time>2022-08-23T22:43:23Z</time></trkpt><trkpt lat="44.104633963668945" lon="145.09644482321926"><ele>487.13904525898397</ele><time>2022-08-23T22:44:07Z</time></trkpt><trkpt lat="44.104768247629444" lon="145.09661291247568"><ele>496.3808429921046</ele><time>2022-08-23T22:45:50Z</time></trkpt><trkpt lat="44.10466984394293" lon="145.09683015056996"><ele>502.73761306516826</ele><time>2022-08-23T22:46:33Z</time></trkpt><trkpt lat="44.10455524087926" lon="145.09704100602295"><ele>507.36190930288285</ele><time>2022-08-23T22:47:07Z</time></trkpt><trkpt lat="44.10442563950204" lon="145.0972306836893"><ele>514.5849505532533</ele><time>2022-08-23T22:47:37Z</time></trkpt><trkpt lat="44.104307963526416" lon="145.09742956677815"><ele>519.437043431215</ele><time>2022-08-23T22:48:21Z</time></trkpt><trkpt lat="44.10416858353572" lon="145.097600540865"><ele>529.4620488239452</ele><time>2022-08-23T22:49:21Z</time></trkpt><trkpt lat="44.104023990631724" lon="145.09776307115555"><ele>536.7932852907106</ele><time>2022-08-23T22:50:15Z</time></trkpt><trkpt lat="44.10384184075" lon="145.09778306955977"><ele>541.4178938055411</ele><time>2022-08-23T22:50:45Z</time></trkpt><trkpt lat="44.103673133591926" lon="145.09787973917486"><ele>541.2371798371896</ele><time>2022-08-23T22:51:11Z</time></trkpt><trkpt lat="44.10355346882397" lon="145.0980714651332"><ele>543.9861423755065</ele><time>2022-08-23T22:51:35Z</time></trkpt><trkpt lat="44.1035465964754" lon="145.09832510728742"><ele>548.1143242325634</ele><time>2022-08-23T22:51:57Z</time></trkpt><trkpt lat="44.1035266264827" lon="145.0985765989636"><ele>552.6759789986536</ele><time>2022-08-23T22:52:23Z</time></trkpt><trkpt lat="44.10341483698854" lon="145.09877509569836"><ele>559.5819457862526</ele><time>2022-08-23T22:52:56Z</time></trkpt><trkpt lat="44.10339258674395" lon="145.09902545435466"><ele>566.3521388815716</ele><time>2022-08-23T22:53:27Z</time></trkpt><trkpt lat="44.103359237867394" lon="145.09927534204866"><ele>572.3868422061205</ele><time>2022-08-23T22:54:04Z</time></trkpt><trkpt lat="44.103322606322834" lon="145.0995238939646"><ele>577.929231910035</ele><time>2022-08-23T22:55:10Z</time></trkpt><trkpt lat="44.10331676480392" lon="145.0995412482208"><ele>577.8035707809031</ele><time>2022-08-23T22:55:11Z</time></trkpt><trkpt lat="44.10325199530063" lon="145.09978338315062"><ele>582.2364023029804</ele><time>2022-08-23T22:55:49Z</time></trkpt><trkpt lat="44.10322378226675" lon="145.09953584528347"><ele>583.8475448125973</ele><time>2022-08-23T22:56:20Z</time></trkpt><trkpt lat="44.10315934766532" lon="145.0992973684764"><ele>582.2834655595943</ele><time>2022-08-23T22:56:44Z</time></trkpt><trkpt lat="44.10298400939698" lon="145.09922153146502"><ele>586.289292418398</ele><time>2022-08-23T22:57:07Z</time></trkpt><trkpt lat="44.10309652980858" lon="145.09942318451417"><ele>589.5324332332239</ele><time>2022-08-23T22:57:46Z</time></trkpt><trkpt lat="44.103045828175034" lon="145.09966325001153"><ele>596.2394011355937</ele><time>2022-08-23T22:58:20Z</time></trkpt><trkpt lat="44.1029199412487" lon="145.09985165893357"><ele>604.4590241480619</ele><time>2022-08-23T22:58:55Z</time></trkpt><trkpt lat="44.10276296836313" lon="145.09998004535612"><ele>611.3058978980407</ele><time>2022-08-23T22:59:33Z</time></trkpt><trkpt lat="44.102635190659484" lon="145.1001766200507"><ele>612.0902314502746</ele><time>2022-08-23T23:00:00Z</time></trkpt><trkpt lat="44.10247513653052" lon="145.100306738557"><ele>614.9638205794618</ele><time>2022-08-23T23:00:24Z</time></trkpt><trkpt lat="44.102316751426656" lon="145.1004262450358"><ele>614.9700726279989</ele><time>2022-08-23T23:00:48Z</time></trkpt><trkpt lat="44.102197502778296" lon="145.1006277453771"><ele>617.6793307512999</ele><time>2022-08-23T23:01:10Z</time></trkpt><trkpt lat="44.1020869486709" lon="145.10082909355916"><ele>620.8073293482885</ele><time>2022-08-23T23:01:39Z</time></trkpt><trkpt lat="44.10198460055607" lon="145.10103460530692"><ele>624.7355488045141</ele><time>2022-08-23T23:02:08Z</time></trkpt><trkpt lat="44.10199916228537" lon="145.10128914089256"><ele>631.0705804564059</ele><time>2022-08-23T23:02:34Z</time></trkpt><trkpt lat="44.10188596549359" lon="145.1014834696478"><ele>634.8277966668829</ele><time>2022-08-23T23:03:38Z</time></trkpt><trkpt lat="44.101719428815095" lon="145.10138101321817"><ele>637.946126547642</ele><time>2022-08-23T23:04:07Z</time></trkpt><trkpt lat="44.10153257539907" lon="145.10141715600938"><ele>636.5587060665712</ele><time>2022-08-23T23:04:31Z</time></trkpt><trkpt lat="44.101420604848535" lon="145.1016133975375"><ele>633.7286982741207</ele><time>2022-08-23T23:04:58Z</time></trkpt><trkpt lat="44.101310176453666" lon="145.10181514131006"><ele>644.2592165162787</ele><time>2022-08-23T23:05:36Z</time></trkpt><trkpt lat="44.10125202692182" lon="145.10206809256357"><ele>648.3175895400345</ele><time>2022-08-23T23:07:24Z</time></trkpt><trkpt lat="44.10116525777368" lon="145.1022877063492"><ele>654.3494823053479</ele><time>2022-08-23T23:07:57Z</time></trkpt><trkpt lat="44.1010372509604" lon="145.10246826819045"><ele>656.7523265881464</ele><time>2022-08-23T23:08:25Z</time></trkpt><trkpt lat="44.10087906425267" lon="145.10260029513836"><ele>660.1720458585769</ele><time>2022-08-23T23:08:55Z</time></trkpt><trkpt lat="44.10071869497139" lon="145.10271575507022"><ele>671.8460484445095</ele><time>2022-08-23T23:09:50Z</time></trkpt><trkpt lat="44.100678500287984" lon="145.1026980206305"><ele>674.825771085918</ele><time>2022-08-23T23:11:30Z</time></trkpt><trkpt lat="44.100531695602086" lon="145.1028443094053"><ele>676.4476737566292</ele><time>2022-08-23T23:13:54Z</time></trkpt><trkpt lat="44.100385022922254" lon="145.1029893897308"><ele>678.6310541033745</ele><time>2022-08-23T23:14:20Z</time></trkpt><trkpt lat="44.100251290548364" lon="145.1031645887617"><ele>679.9272427661344</ele><time>2022-08-23T23:14:50Z</time></trkpt><trkpt lat="44.1001091504982" lon="145.1033208353013"><ele>687.2771138809621</ele><time>2022-08-23T23:15:15Z</time></trkpt><trkpt lat="44.09996090301156" lon="145.10348256906758"><ele>687.8062151847407</ele><time>2022-08-23T23:15:46Z</time></trkpt><trkpt lat="44.099833070047254" lon="145.10366180138018"><ele>695.079492607154</ele><time>2022-08-23T23:16:26Z</time></trkpt><trkpt lat="44.09977926004857" lon="145.1039002667396"><ele>701.2289637317881</ele><time>2022-08-23T23:17:25Z</time></trkpt><trkpt lat="44.09964159844292" lon="145.1040777089541"><ele>705.447317738086</ele><time>2022-08-23T23:18:06Z</time></trkpt><trkpt lat="44.09953006120864" lon="145.10427833541073"><ele>715.0325263608247</ele><time>2022-08-23T23:19:16Z</time></trkpt><trkpt lat="44.09940198730076" lon="145.10445828192547"><ele>719.103700789623</ele><time>2022-08-23T23:19:54Z</time></trkpt><trkpt lat="44.099262277566865" lon="145.10461861525198"><ele>724.1447263238952</ele><time>2022-08-23T23:20:35Z</time></trkpt><trkpt lat="44.099076189542984" lon="145.104567606133"><ele>725.9256722275168</ele><time>2022-08-23T23:21:04Z</time></trkpt><trkpt lat="44.09891103666866" lon="145.10445424968086"><ele>729.1412820415571</ele><time>2022-08-23T23:21:27Z</time></trkpt><trkpt lat="44.098758015822625" lon="145.10460745660686"><ele>731.6584722977132</ele><time>2022-08-23T23:21:53Z</time></trkpt><trkpt lat="44.098586869725544" lon="145.10469153455074"><ele>735.5016034077853</ele><time>2022-08-23T23:22:24Z</time></trkpt><trkpt lat="44.09843100830343" lon="145.1048205474275"><ele>740.7680887160823</ele><time>2022-08-23T23:22:58Z</time></trkpt><trkpt lat="44.09828042812781" lon="145.10496453187758"><ele>744.7917105443776</ele><time>2022-08-23T23:23:33Z</time></trkpt><trkpt lat="44.09817638662502" lon="145.10517248310038"><ele>749.0040240306407</ele><time>2022-08-23T23:24:07Z</time></trkpt><trkpt lat="44.098070453046844" lon="145.10538104721985"><ele>749.0820691864938</ele><time>2022-08-23T23:24:39Z</time></trkpt><trkpt lat="44.097922994672295" lon="145.10552824819484"><ele>751.9705668529496</ele><time>2022-08-23T23:25:04Z</time></trkpt><trkpt lat="44.09774945648127" lon="145.10559950198683"><ele>754.240618522279</ele><time>2022-08-23T23:25:47Z</time></trkpt><trkpt lat="44.0975764693569" lon="145.1056784784623"><ele>758.8372374232858</ele><time>2022-08-23T23:26:14Z</time></trkpt><trkpt lat="44.0974016422379" lon="145.10576996436114"><ele>761.8917556814849</ele><time>2022-08-23T23:26:50Z</time></trkpt><trkpt lat="44.09723948201107" lon="145.1058877374953"><ele>766.5127365607768</ele><time>2022-08-23T23:27:16Z</time></trkpt><trkpt lat="44.09706076529246" lon="145.10596044819687"><ele>768.7556064529344</ele><time>2022-08-23T23:28:09Z</time></trkpt><trkpt lat="44.09688599258589" lon="145.10602930071568"><ele>770.1499504353851</ele><time>2022-08-23T23:28:41Z</time></trkpt><trkpt lat="44.09670553469545" lon="145.1060407668194"><ele>773.6246377509087</ele><time>2022-08-23T23:29:38Z</time></trkpt><trkpt lat="44.096525543864416" lon="145.1060642205868"><ele>779.11938952934</ele><time>2022-08-23T23:30:22Z</time></trkpt><trkpt lat="44.09637500255409" lon="145.10621242495287"><ele>780.839815444313</ele><time>2022-08-23T23:31:00Z</time></trkpt><trkpt lat="44.09622675542243" lon="145.1063542588815"><ele>782.0179680781439</ele><time>2022-08-23T23:31:35Z</time></trkpt><trkpt lat="44.09606168577299" lon="145.10647929575725"><ele>782.4892476983368</ele><time>2022-08-23T23:32:11Z</time></trkpt><trkpt lat="44.09589139630567" lon="145.10658075725024"><ele>783.6231610747054</ele><time>2022-08-23T23:32:38Z</time></trkpt><trkpt lat="44.09570729241865" lon="145.10662658108473"><ele>783.408267439343</ele><time>2022-08-23T23:33:07Z</time></trkpt><trkpt lat="44.09552556256432" lon="145.10664827927587"><ele>784.4239319087937</ele><time>2022-08-23T23:34:03Z</time></trkpt><trkpt lat="44.095369966262076" lon="145.10678397393048"><ele>782.9772541802377</ele><time>2022-08-23T23:34:30Z</time></trkpt><trkpt lat="44.09537623103639" lon="145.1068243475038"><ele>783.3919978523627</ele><time>2022-08-23T23:34:43Z</time></trkpt><trkpt lat="44.09522545096623" lon="145.10667865594144"><ele>786.7347686514258</ele><time>2022-08-23T23:37:53Z</time></trkpt><trkpt lat="44.09505171177797" lon="145.10657981852853"><ele>796.2380219427869</ele><time>2022-08-23T23:38:30Z</time></trkpt><trkpt lat="44.094878259176234" lon="145.10650842213136"><ele>798.0266030821949</ele><time>2022-08-23T23:39:00Z</time></trkpt><trkpt lat="44.09469673545807" lon="145.1064922163648"><ele>802.1239560004324</ele><time>2022-08-23T23:39:28Z</time></trkpt><trkpt lat="44.09451230233305" lon="145.1064889868003"><ele>803.9439786933362</ele><time>2022-08-23T23:39:59Z</time></trkpt><trkpt lat="44.09433216221515" lon="145.1065077874728"><ele>807.1703808736056</ele><time>2022-08-23T23:40:30Z</time></trkpt><trkpt lat="44.09420571978801" lon="145.1066855637594"><ele>807.5618225336075</ele><time>2022-08-23T23:40:58Z</time></trkpt><trkpt lat="44.09408355500328" lon="145.10687702720188"><ele>808.0762554164976</ele><time>2022-08-23T23:41:30Z</time></trkpt><trkpt lat="44.09398578870328" lon="145.10709426131575"><ele>809.7817682521418</ele><time>2022-08-23T23:42:02Z</time></trkpt><trkpt lat="44.093881459968706" lon="145.10729825114925"><ele>812.9514942849055</ele><time>2022-08-23T23:42:33Z</time></trkpt><trkpt lat="44.09378644979032" lon="145.1075187621026"><ele>815.2126790061593</ele><time>2022-08-23T23:43:00Z</time></trkpt><trkpt lat="44.0936517877785" lon="145.10770902605137"><ele>818.4118377147242</ele><time>2022-08-23T23:43:25Z</time></trkpt><trkpt lat="44.09354481326378" lon="145.10791191226"><ele>817.5287200789899</ele><time>2022-08-23T23:43:55Z</time></trkpt><trkpt lat="44.09342624088117" lon="145.108109402208"><ele>819.6711631650105</ele><time>2022-08-23T23:44:28Z</time></trkpt><trkpt lat="44.09333813087106" lon="145.10833118067103"><ele>821.3922478212044</ele><time>2022-08-23T23:44:57Z</time></trkpt><trkpt lat="44.093198186996354" lon="145.10849310416165"><ele>823.7596119428053</ele><time>2022-08-23T23:45:31Z</time></trkpt><trkpt lat="44.09307267312881" lon="145.1086840899135"><ele>824.4698203848675</ele><time>2022-08-23T23:46:04Z</time></trkpt><trkpt lat="44.0930026802181" lon="145.10891909418933"><ele>827.3359382962808</ele><time>2022-08-23T23:46:33Z</time></trkpt><trkpt lat="44.0929136063242" lon="145.1091368258218"><ele>829.0003277705982</ele><time>2022-08-23T23:47:05Z</time></trkpt><trkpt lat="44.09280898288387" lon="145.10934090478847"><ele>829.7951003927737</ele><time>2022-08-23T23:47:37Z</time></trkpt><trkpt lat="44.09270149432104" lon="145.10955522523278"><ele>832.2760974243283</ele><time>2022-08-23T23:48:08Z</time></trkpt><trkpt lat="44.09262206179915" lon="145.10979269327328"><ele>833.4418581072241</ele><time>2022-08-23T23:48:37Z</time></trkpt><trkpt lat="44.092525627989595" lon="145.11001304522227"><ele>834.1529828952625</ele><time>2022-08-23T23:49:09Z</time></trkpt><trkpt lat="44.092426706015225" lon="145.11022629342594"><ele>835.4919996680692</ele><time>2022-08-23T23:49:36Z</time></trkpt><trkpt lat="44.09234149305785" lon="145.1104576691417"><ele>836.1436092322692</ele><time>2022-08-23T23:50:06Z</time></trkpt><trkpt lat="44.09229155437382" lon="145.11069961887677"><ele>837.091329485178</ele><time>2022-08-23T23:50:33Z</time></trkpt><trkpt lat="44.09218598125855" lon="145.1109152521108"><ele>839.7032704846933</ele><time>2022-08-23T23:50:59Z</time></trkpt><trkpt lat="44.092088578024814" lon="145.11112580278157"><ele>840.4279323983938</ele><time>2022-08-23T23:51:33Z</time></trkpt><trkpt lat="44.09201228568135" lon="145.11135595373423"><ele>842.9260183377191</ele><time>2022-08-23T23:51:57Z</time></trkpt><trkpt lat="44.091938349700285" lon="145.1116048565172"><ele>843.9292389815673</ele><time>2022-08-23T23:52:24Z</time></trkpt><trkpt lat="44.09185633745284" lon="145.11182742959892"><ele>845.7150922333822</ele><time>2022-08-23T23:52:54Z</time></trkpt><trkpt lat="44.09178502513358" lon="145.11206337277852"><ele>847.1245062025264</ele><time>2022-08-23T23:53:22Z</time></trkpt><trkpt lat="44.091761083619296" lon="145.1123143770997"><ele>850.0080078057945</ele><time>2022-08-23T23:53:54Z</time></trkpt><trkpt lat="44.09174644568214" lon="145.11256967482603"><ele>852.1168177649379</ele><time>2022-08-23T23:54:22Z</time></trkpt><trkpt lat="44.091636112888835" lon="145.11276994866972"><ele>853.3706174856052</ele><time>2022-08-23T23:54:54Z</time></trkpt><trkpt lat="44.091531532223755" lon="145.1129852978238"><ele>854.8182477233931</ele><time>2022-08-23T23:55:21Z</time></trkpt><trkpt lat="44.091493785439305" lon="145.1132303374166"><ele>857.138369760476</ele><time>2022-08-23T23:55:48Z</time></trkpt><trkpt lat="44.091384843275954" lon="145.11344276197988"><ele>861.3410253403708</ele><time>2022-08-23T23:56:27Z</time></trkpt><trkpt lat="44.091305383572944" lon="145.11367095260903"><ele>869.3237103372812</ele><time>2022-08-23T23:57:08Z</time></trkpt><trkpt lat="44.0912444548548" lon="145.11391571365303"><ele>872.3120467681438</ele><time>2022-08-23T23:57:44Z</time></trkpt><trkpt lat="44.09113690138642" lon="145.1141170025176"><ele>878.6037455452606</ele><time>2022-08-23T23:58:22Z</time></trkpt><trkpt lat="44.09102431028317" lon="145.11431584187696"><ele>883.0075408127159</ele><time>2022-08-23T23:59:04Z</time></trkpt><trkpt lat="44.09088745640035" lon="145.11447897499588"><ele>887.5490777939558</ele><time>2022-08-23T23:59:42Z</time></trkpt><trkpt lat="44.09083100885389" lon="145.1147168549706"><ele>893.5063171694055</ele><time>2022-08-24T00:00:56Z</time></trkpt><trkpt lat="44.09094091707385" lon="145.1149188284563"><ele>899.5595145504922</ele><time>2022-08-24T00:01:25Z</time></trkpt><trkpt lat="44.09102810377105" lon="145.11514368691314"><ele>899.1456392863765</ele><time>2022-08-24T00:02:03Z</time></trkpt><trkpt lat="44.09112981264373" lon="145.1153619531199"><ele>901.8582572648302</ele><time>2022-08-24T00:02:56Z</time></trkpt><trkpt lat="44.09124971012264" lon="145.1155492045917"><ele>900.1396100232378</ele><time>2022-08-24T00:04:08Z</time></trkpt><trkpt lat="44.09135753177504" lon="145.11574927232834"><ele>905.3294555321336</ele><time>2022-08-24T00:04:44Z</time></trkpt><trkpt lat="44.0911820703173" lon="145.11568447864244"><ele>917.42457355652</ele><time>2022-08-24T00:14:04Z</time></trkpt><trkpt lat="44.09100171952612" lon="145.11566515531433"><ele>923.8597192429006</ele><time>2022-08-24T00:14:43Z</time></trkpt><trkpt lat="44.09083542459064" lon="145.11556680916047"><ele>927.8481919029728</ele><time>2022-08-24T00:15:28Z</time></trkpt><trkpt lat="44.09074493021006" lon="145.11535011990358"><ele>928.9120994368568</ele><time>2022-08-24T00:16:12Z</time></trkpt><trkpt lat="44.09056642675454" lon="145.11530437988517"><ele>936.2268791338429</ele><time>2022-08-24T00:16:47Z</time></trkpt><trkpt lat="44.09068436009379" lon="145.11549824443367"><ele>939.836944013834</ele><time>2022-08-24T00:17:35Z</time></trkpt><trkpt lat="44.090767534526286" lon="145.1157284979084"><ele>943.1196127589792</ele><time>2022-08-24T00:18:11Z</time></trkpt><trkpt lat="44.090873644468004" lon="145.11593289399585"><ele>945.6017633154988</ele><time>2022-08-24T00:19:06Z</time></trkpt><trkpt lat="44.090976367803044" lon="145.11615510904733"><ele>950.2899187151343</ele><time>2022-08-24T00:19:38Z</time></trkpt><trkpt lat="44.09098313893407" lon="145.11641267126436"><ele>955.0698039578274</ele><time>2022-08-24T00:20:19Z</time></trkpt><trkpt lat="44.090849322335195" lon="145.11658884128593"><ele>955.2955263685435</ele><time>2022-08-24T00:21:03Z</time></trkpt><trkpt lat="44.090686110440586" lon="145.11647223617652"><ele>966.8301819907501</ele><time>2022-08-24T00:22:05Z</time></trkpt><trkpt lat="44.090501416356126" lon="145.11642644191676"><ele>973.3139360332862</ele><time>2022-08-24T00:22:48Z</time></trkpt><trkpt lat="44.09036611440367" lon="145.11625041688384"><ele>978.9657859960571</ele><time>2022-08-24T00:23:29Z</time></trkpt><trkpt lat="44.09022162970837" lon="145.11641363180524"><ele>986.5460846768692</ele><time>2022-08-24T00:24:05Z</time></trkpt><trkpt lat="44.090040622664105" lon="145.1163755564782"><ele>989.6236431654543</ele><time>2022-08-24T00:24:50Z</time></trkpt><trkpt lat="44.089914830418934" lon="145.11655479710694"><ele>999.7513037705794</ele><time>2022-08-24T00:26:10Z</time></trkpt><trkpt lat="44.08983643218115" lon="145.11677996761"><ele>1001.862198844552</ele><time>2022-08-24T00:26:43Z</time></trkpt><trkpt lat="44.08966383145671" lon="145.11685980734126"><ele>1007.4991539958864</ele><time>2022-08-24T00:27:22Z</time></trkpt><trkpt lat="44.08944566006209" lon="145.11688618619732"><ele>1014.5523810889572</ele><time>2022-08-24T00:28:12Z</time></trkpt><trkpt lat="44.08927506456958" lon="145.1169734325739"><ele>1020.1594972219318</ele><time>2022-08-24T00:29:05Z</time></trkpt><trkpt lat="44.089122571265214" lon="145.11711269480298"><ele>1024.7153407121077</ele><time>2022-08-24T00:29:46Z</time></trkpt><trkpt lat="44.08894204045513" lon="145.11713702432982"><ele>1029.7195269642398</ele><time>2022-08-24T00:30:24Z</time></trkpt><trkpt lat="44.08882168168751" lon="145.1173326706601"><ele>1033.0155592635274</ele><time>2022-08-24T00:31:04Z</time></trkpt><trkpt lat="44.08868980373526" lon="145.11751575789907"><ele>1034.8383832667023</ele><time>2022-08-24T00:31:32Z</time></trkpt><trkpt lat="44.08859645810608" lon="145.11773617389585"><ele>1036.2563047809526</ele><time>2022-08-24T00:32:03Z</time></trkpt><trkpt lat="44.088552604071694" lon="145.11798079289838"><ele>1040.8303704941645</ele><time>2022-08-24T00:32:56Z</time></trkpt><trkpt lat="44.08858554252521" lon="145.11823150476746"><ele>1042.3871457492933</ele><time>2022-08-24T00:34:24Z</time></trkpt><trkpt lat="44.08841467772756" lon="145.11833482980475"><ele>1046.6756217619404</ele><time>2022-08-24T00:35:21Z</time></trkpt><trkpt lat="44.088457287616635" lon="145.1185932780321"><ele>1054.658718239516</ele><time>2022-08-24T00:36:03Z</time></trkpt><trkpt lat="44.088305321730004" lon="145.1187521987896"><ele>1060.581271391362</ele><time>2022-08-24T00:36:47Z</time></trkpt><trkpt lat="44.088157027767465" lon="145.11891226686777"><ele>1067.1353882448748</ele><time>2022-08-24T00:37:26Z</time></trkpt><trkpt lat="44.08803807576678" lon="145.1191087634468"><ele>1070.6819398384541</ele><time>2022-08-24T00:38:03Z</time></trkpt><trkpt lat="44.08794117984001" lon="145.1193228761197"><ele>1074.5381856430322</ele><time>2022-08-24T00:38:39Z</time></trkpt><trkpt lat="44.087896417790994" lon="145.11956653656134"><ele>1077.2955811200663</ele><time>2022-08-24T00:39:09Z</time></trkpt><trkpt lat="44.0877715339931" lon="145.1197560227904"><ele>1079.7610516510904</ele><time>2022-08-24T00:39:36Z</time></trkpt><trkpt lat="44.08766296097881" lon="145.11996127269396"><ele>1082.5303538860753</ele><time>2022-08-24T00:40:04Z</time></trkpt><trkpt lat="44.08752294563602" lon="145.1201234896734"><ele>1085.0563168926165</ele><time>2022-08-24T00:40:34Z</time></trkpt><trkpt lat="44.08741340097679" lon="145.12032411484228"><ele>1088.2338786907494</ele><time>2022-08-24T00:41:01Z</time></trkpt><trkpt lat="44.087279582713236" lon="145.1205043903346"><ele>1091.005723245442</ele><time>2022-08-24T00:41:33Z</time></trkpt><trkpt lat="44.08712485073965" lon="145.12063673856565"><ele>1093.2421431122348</ele><time>2022-08-24T00:42:02Z</time></trkpt><trkpt lat="44.086947154187186" lon="145.12068751066533"><ele>1099.605145137757</ele><time>2022-08-24T00:42:38Z</time></trkpt><trkpt lat="44.08678510974279" lon="145.12080415500353"><ele>1102.9683211697266</ele><time>2022-08-24T00:43:06Z</time></trkpt><trkpt lat="44.086605877600626" lon="145.12085981404942"><ele>1106.2550986493006</ele><time>2022-08-24T00:43:42Z</time></trkpt><trkpt lat="44.08642617193205" lon="145.12090048110724"><ele>1111.7851027958095</ele><time>2022-08-24T00:44:21Z</time></trkpt><trkpt lat="44.08633505082175" lon="145.12112137590435"><ele>1118.0839349273592</ele><time>2022-08-24T00:44:58Z</time></trkpt><trkpt lat="44.086260251285765" lon="145.12134897858974"><ele>1118.2922355476767</ele><time>2022-08-24T00:45:29Z</time></trkpt><trkpt lat="44.08619247327223" lon="145.12158745241166"><ele>1122.626621119678</ele><time>2022-08-24T00:46:11Z</time></trkpt><trkpt lat="44.086035886993336" lon="145.12172962910958"><ele>1124.141989053227</ele><time>2022-08-24T00:46:34Z</time></trkpt><trkpt lat="44.085886513423624" lon="145.1218703114441"><ele>1125.0761132324114</ele><time>2022-08-24T00:47:11Z</time></trkpt><trkpt lat="44.0857642195222" lon="145.12206048992576"><ele>1128.4931873837486</ele><time>2022-08-24T00:47:37Z</time></trkpt><trkpt lat="44.0856169814268" lon="145.12220634171337"><ele>1130.7388164643198</ele><time>2022-08-24T00:49:50Z</time></trkpt><trkpt lat="44.08546234447772" lon="145.12233735676756"><ele>1135.8316682083532</ele><time>2022-08-24T00:51:34Z</time></trkpt><trkpt lat="44.08529280575306" lon="145.12242713529469"><ele>1141.38174221199</ele><time>2022-08-24T00:52:10Z</time></trkpt><trkpt lat="44.08513844788457" lon="145.12256072568636"><ele>1145.302158919163</ele><time>2022-08-24T00:52:42Z</time></trkpt><trkpt lat="44.084967912904006" lon="145.12264616028054"><ele>1150.6458468986675</ele><time>2022-08-24T00:53:23Z</time></trkpt><trkpt lat="44.08482305932846" lon="145.12279630774515"><ele>1156.450101295486</ele><time>2022-08-24T00:54:03Z</time></trkpt><trkpt lat="44.08466563652835" lon="145.1229191281808"><ele>1163.6051286226138</ele><time>2022-08-24T00:55:27Z</time></trkpt><trkpt lat="44.08450122234301" lon="145.12303126974385"><ele>1168.3440003879368</ele><time>2022-08-24T00:56:18Z</time></trkpt><trkpt lat="44.0843624982606" lon="145.1231910301067"><ele>1174.6605752725154</ele><time>2022-08-24T00:56:51Z</time></trkpt><trkpt lat="44.08423212351366" lon="145.12336829523542"><ele>1182.4456682996824</ele><time>2022-08-24T00:57:32Z</time></trkpt><trkpt lat="44.08415860631783" lon="145.12359772914323"><ele>1185.5008381735533</ele><time>2022-08-24T00:58:15Z</time></trkpt><trkpt lat="44.08403144304885" lon="145.12378395594183"><ele>1194.078472489491</ele><time>2022-08-24T00:58:58Z</time></trkpt><trkpt lat="44.083851927546085" lon="145.12375649850998"><ele>1202.8960175672546</ele><time>2022-08-24T00:59:56Z</time></trkpt><trkpt lat="44.08370949481899" lon="145.1239265670782"><ele>1215.6101041259244</ele><time>2022-08-24T01:01:57Z</time></trkpt><trkpt lat="44.08358739409608" lon="145.1241102311958"><ele>1224.6678170682862</ele><time>2022-08-24T01:02:48Z</time></trkpt><trkpt lat="44.08341038442855" lon="145.12418435313606"><ele>1239.7151571325958</ele><time>2022-08-24T01:04:06Z</time></trkpt><trkpt lat="44.08326127557192" lon="145.1243390443374"><ele>1244.5182976899669</ele><time>2022-08-24T01:04:51Z</time></trkpt><trkpt lat="44.08314491614639" lon="145.12453111268078"><ele>1252.1181084662676</ele><time>2022-08-24T01:05:35Z</time></trkpt><trkpt lat="44.08300322229698" lon="145.1246906849192"><ele>1261.146755065769</ele><time>2022-08-24T01:06:37Z</time></trkpt><trkpt lat="44.08291790527323" lon="145.12491382117452"><ele>1271.5394922718406</ele><time>2022-08-24T01:08:54Z</time></trkpt><trkpt lat="44.082848353585064" lon="145.12515379702188"><ele>1277.3245796253905</ele><time>2022-08-24T01:09:37Z</time></trkpt><trkpt lat="44.08284501242892" lon="145.12540797493392"><ele>1282.8658188087866</ele><time>2022-08-24T01:10:16Z</time></trkpt><trkpt lat="44.08277612975961" lon="145.12563882575566"><ele>1291.1663342043757</ele><time>2022-08-24T01:10:55Z</time></trkpt><trkpt lat="44.08269603052822" lon="145.12586358732574"><ele>1294.9596910066903</ele><time>2022-08-24T01:11:37Z</time></trkpt><trkpt lat="44.08265876522281" lon="145.12611124706882"><ele>1302.1691844565794</ele><time>2022-08-24T01:12:16Z</time></trkpt><trkpt lat="44.082562032290035" lon="145.12632671900002"><ele>1309.4358882009983</ele><time>2022-08-24T01:13:03Z</time></trkpt><trkpt lat="44.08245363802521" lon="145.12653274266523"><ele>1315.469083472155</ele><time>2022-08-24T01:13:38Z</time></trkpt><trkpt lat="44.082358034871085" lon="145.12675238361427"><ele>1322.3795655034482</ele><time>2022-08-24T01:14:11Z</time></trkpt><trkpt lat="44.082281713123294" lon="145.1269827688947"><ele>1324.0753293856978</ele><time>2022-08-24T01:15:01Z</time></trkpt><trkpt lat="44.082206201154975" lon="145.12722012692237"><ele>1326.071602134034</ele><time>2022-08-24T01:15:37Z</time></trkpt><trkpt lat="44.08211690948849" lon="145.12743808499738"><ele>1331.2118978146464</ele><time>2022-08-24T01:16:26Z</time></trkpt><trkpt lat="44.08199865292808" lon="145.12763277500827"><ele>1335.4186479132622</ele><time>2022-08-24T01:16:54Z</time></trkpt><trkpt lat="44.0819073224275" lon="145.1278541428933"><ele>1336.8232982438058</ele><time>2022-08-24T01:17:23Z</time></trkpt><trkpt lat="44.081835181705955" lon="145.12809278684492"><ele>1339.8889999287203</ele><time>2022-08-24T01:18:18Z</time></trkpt><trkpt lat="44.08179596715307" lon="145.12833724435032"><ele>1341.600651929155</ele><time>2022-08-24T01:19:09Z</time></trkpt><trkpt lat="44.08164727281012" lon="145.12847933776538"><ele>1343.6173863979056</ele><time>2022-08-24T01:19:54Z</time></trkpt><trkpt lat="44.08152450012924" lon="145.12866981208862"><ele>1343.2529047261924</ele><time>2022-08-24T01:21:21Z</time></trkpt><trkpt lat="44.08137829300683" lon="145.12882911614233"><ele>1343.2812033686787</ele><time>2022-08-24T01:21:45Z</time></trkpt><trkpt lat="44.081216580252075" lon="145.12894921984991"><ele>1344.7333047688007</ele><time>2022-08-24T01:22:18Z</time></trkpt><trkpt lat="44.08103354987663" lon="145.1289103451265"><ele>1346.647279927507</ele><time>2022-08-24T01:23:24Z</time></trkpt><trkpt lat="44.080847707710696" lon="145.12889818987136"><ele>1346.516666740179</ele><time>2022-08-24T01:23:50Z</time></trkpt><trkpt lat="44.080661815412924" lon="145.12887280223816"><ele>1348.7123594786972</ele><time>2022-08-24T01:24:16Z</time></trkpt><trkpt lat="44.08047980198198" lon="145.1288406949045"><ele>1349.4234795439988</ele><time>2022-08-24T01:24:41Z</time></trkpt><trkpt lat="44.08030156190573" lon="145.12877413351646"><ele>1352.9537091851234</ele><time>2022-08-24T01:25:09Z</time></trkpt><trkpt lat="44.08012302532718" lon="145.12873243720549"><ele>1355.039854919538</ele><time>2022-08-24T01:25:40Z</time></trkpt><trkpt lat="44.079939741979636" lon="145.1287408252406"><ele>1358.0344616714865</ele><time>2022-08-24T01:26:09Z</time></trkpt><trkpt lat="44.07978021193929" lon="145.12861982918955"><ele>1361.4858639556915</ele><time>2022-08-24T01:26:50Z</time></trkpt><trkpt lat="44.07964807625219" lon="145.12844593648"><ele>1367.8003716049716</ele><time>2022-08-24T01:27:24Z</time></trkpt><trkpt lat="44.07950402043358" lon="145.12829232025504"><ele>1375.750672986731</ele><time>2022-08-24T01:28:10Z</time></trkpt><trkpt lat="44.07934942782689" lon="145.12815093668195"><ele>1387.3233247296885</ele><time>2022-08-24T01:28:58Z</time></trkpt><trkpt lat="44.079177694170575" lon="145.128071843967"><ele>1390.5043239761144</ele><time>2022-08-24T01:29:32Z</time></trkpt><trkpt lat="44.079081263441175" lon="145.1278604534289"><ele>1395.1565510295331</ele><time>2022-08-24T01:30:07Z</time></trkpt><trkpt lat="44.07900340550726" lon="145.12763213084042"><ele>1401.055557818152</ele><time>2022-08-24T01:32:18Z</time></trkpt><trkpt lat="44.078846089090696" lon="145.12750418455016"><ele>1405.5487930327654</ele><time>2022-08-24T01:32:52Z</time></trkpt><trkpt lat="44.078719183908326" lon="145.12732620534481"><ele>1410.6755936518312</ele><time>2022-08-24T01:33:22Z</time></trkpt><trkpt lat="44.07858649305836" lon="145.12715243519204"><ele>1413.8422039244324</ele><time>2022-08-24T01:34:31Z</time></trkpt><trkpt lat="44.07848116636118" lon="145.12694254929613"><ele>1418.3413140960038</ele><time>2022-08-24T01:35:02Z</time></trkpt><trkpt lat="44.07836267134548" lon="145.1267466791455"><ele>1422.5421909326687</ele><time>2022-08-24T01:35:32Z</time></trkpt><trkpt lat="44.07828719950238" lon="145.12651738352915"><ele>1426.1729578208178</ele><time>2022-08-24T01:36:02Z</time></trkpt><trkpt lat="44.07822762510587" lon="145.12627839897036"><ele>1430.1639598626643</ele><time>2022-08-24T01:36:28Z</time></trkpt><trkpt lat="44.07807458422508" lon="145.12613236884465"><ele>1433.5552836842835</ele><time>2022-08-24T01:36:55Z</time></trkpt><trkpt lat="44.07797724321523" lon="145.12591544477576"><ele>1440.4065384045243</ele><time>2022-08-24T01:37:34Z</time></trkpt><trkpt lat="44.0778966695196" lon="145.12568703476032"><ele>1444.9019774515182</ele><time>2022-08-24T01:38:04Z</time></trkpt><trkpt lat="44.077846242093514" lon="145.12544533698906"><ele>1448.543962026015</ele><time>2022-08-24T01:38:38Z</time></trkpt><trkpt lat="44.07771979544056" lon="145.12525952695236"><ele>1455.2868890464306</ele><time>2022-08-24T01:39:18Z</time></trkpt><trkpt lat="44.07760199734145" lon="145.12545982180256"><ele>1456.1647721081972</ele><time>2022-08-24T01:39:49Z</time></trkpt><trkpt lat="44.07744636612559" lon="145.12561019730842"><ele>1463.662068917416</ele><time>2022-08-24T01:40:42Z</time></trkpt><trkpt lat="44.077302876632174" lon="145.12545635541116"><ele>1479.149709825404</ele><time>2022-08-24T01:43:36Z</time></trkpt><trkpt lat="44.07716890392887" lon="145.12528883173755"><ele>1490.6008843705058</ele><time>2022-08-24T01:45:47Z</time></trkpt><trkpt lat="44.07699254557653" lon="145.12522904314014"><ele>1502.4327790737152</ele><time>2022-08-24T01:47:04Z</time></trkpt><trkpt lat="44.07681251377226" lon="145.1252436278114"><ele>1509.0140730021521</ele><time>2022-08-24T01:48:59Z</time></trkpt><trkpt lat="44.07665772267825" lon="145.1250979064983"><ele>1512.6804571105167</ele><time>2022-08-24T01:49:57Z</time></trkpt><trkpt lat="44.076571109024606" lon="145.12486693501913"><ele>1515.928913295269</ele><time>2022-08-24T01:50:38Z</time></trkpt><trkpt lat="44.07639565488785" lon="145.12480912633723"><ele>1517.2707282714546</ele><time>2022-08-24T01:51:09Z</time></trkpt><trkpt lat="44.07621432410568" lon="145.12476552173797"><ele>1519.384543885477</ele><time>2022-08-24T01:51:43Z</time></trkpt><trkpt lat="44.076233754713975" lon="145.12451643046492"><ele>1531.3008547816426</ele><time>2022-08-24T01:53:24Z</time></trkpt><trkpt lat="44.07624905119884" lon="145.1242657612421"><ele>1546.0339654153213</ele><time>2022-08-24T01:54:45Z</time></trkpt><trkpt lat="44.07625840973838" lon="145.12401356912915"><ele>1557.5114048765972</ele><time>2022-08-24T01:56:44Z</time></trkpt><trkpt lat="44.07621178806416" lon="145.1237660421455"><ele>1571.97546197474</ele><time>2022-08-24T01:59:28Z</time></trkpt><trkpt lat="44.07613244684361" lon="145.1238151360259"><ele>1574.7555741509423</ele><time>2022-08-24T02:05:16Z</time></trkpt><trkpt lat="44.0760452161948" lon="145.12359135690514"><ele>1584.15732068941</ele><time>2022-08-24T02:13:47Z</time></trkpt><trkpt lat="44.075958179699114" lon="145.12337227849903"><ele>1589.6207212023437</ele><time>2022-08-24T02:14:44Z</time></trkpt><trkpt lat="44.075816076560564" lon="145.12321501195927"><ele>1600.050940958783</ele><time>2022-08-24T02:16:31Z</time></trkpt><trkpt lat="44.07578221297549" lon="145.12296919255908"><ele>1612.0107543524355</ele><time>2022-08-24T02:18:21Z</time></trkpt><trkpt lat="44.07582722581179" lon="145.12272426487547"><ele>1626.7558235852048</ele><time>2022-08-24T02:20:07Z</time></trkpt><trkpt lat="44.07589182019229" lon="145.122488770098"><ele>1639.446314137429</ele><time>2022-08-24T02:22:13Z</time></trkpt><trkpt lat="44.075967301486536" lon="145.12225485416428"><ele>1654.2131504453719</ele><time>2022-08-24T02:25:02Z</time></trkpt><trkpt lat="44.075789489409566" lon="145.12229819118969"><ele>1652.932404953055</ele><time>2022-08-24T02:34:08Z</time></trkpt><trkpt lat="44.07586553685943" lon="145.1224713759903"><ele>1632.1085852235556</ele><time>2022-08-24T02:47:00Z</time></trkpt><trkpt lat="44.075806319965636" lon="145.12270795780444"><ele>1625.498686624691</ele><time>2022-08-24T02:51:58Z</time></trkpt><trkpt lat="44.07577282690474" lon="145.12295489758904"><ele>1611.7017690576613</ele><time>2022-08-24T02:54:17Z</time></trkpt><trkpt lat="44.075793608246535" lon="145.12320727280166"><ele>1601.0220530703664</ele><time>2022-08-24T02:56:00Z</time></trkpt><trkpt lat="44.075938921918464" lon="145.1233784636965"><ele>1592.8513379367068</ele><time>2022-08-24T02:57:19Z</time></trkpt><trkpt lat="44.07604992056695" lon="145.12357855291663"><ele>1581.9385757744312</ele><time>2022-08-24T02:58:00Z</time></trkpt><trkpt lat="44.07613736431484" lon="145.12380304843353"><ele>1578.2746957689524</ele><time>2022-08-24T02:58:55Z</time></trkpt><trkpt lat="44.076321056653065" lon="145.12384027318126"><ele>1569.7530940594152</ele><time>2022-08-24T03:00:53Z</time></trkpt><trkpt lat="44.07629971907887" lon="145.1240921535341"><ele>1559.1357009662315</ele><time>2022-08-24T03:26:38Z</time></trkpt><trkpt lat="44.076207307029726" lon="145.1243065628378"><ele>1545.177924032323</ele><time>2022-08-24T03:28:02Z</time></trkpt><trkpt lat="44.07620992612876" lon="145.1245567854007"><ele>1530.4055076371878</ele><time>2022-08-24T03:29:04Z</time></trkpt><trkpt lat="44.07627496918548" lon="145.12479243855867"><ele>1517.2363107921556</ele><time>2022-08-24T03:30:08Z</time></trkpt><trkpt lat="44.0764511379673" lon="145.12484471002185"><ele>1518.286213643849</ele><time>2022-08-24T03:30:28Z</time></trkpt><trkpt lat="44.07658975087764" lon="145.12502223561077"><ele>1514.3424635957927</ele><time>2022-08-24T03:30:56Z</time></trkpt><trkpt lat="44.07671197799632" lon="145.12522429762612"><ele>1511.9989283075556</ele><time>2022-08-24T03:31:20Z</time></trkpt><trkpt lat="44.07689271450971" lon="145.12525754068446"><ele>1507.60159065295</ele><time>2022-08-24T03:31:44Z</time></trkpt><trkpt lat="44.07707190106865" lon="145.12523426172137"><ele>1499.1470003547147</ele><time>2022-08-24T03:32:15Z</time></trkpt><trkpt lat="44.07723715540619" lon="145.12533635078165"><ele>1488.1004059398547</ele><time>2022-08-24T03:33:03Z</time></trkpt><trkpt lat="44.077335117419565" lon="145.12555083955405"><ele>1476.9170792326331</ele><time>2022-08-24T03:34:21Z</time></trkpt><trkpt lat="44.07751937824348" lon="145.1255179627019"><ele>1463.8434207532555</ele><time>2022-08-24T03:35:29Z</time></trkpt><trkpt lat="44.07765267820815" lon="145.12533962287642"><ele>1460.6635526278988</ele><time>2022-08-24T03:35:58Z</time></trkpt><trkpt lat="44.07782060840929" lon="145.12545269919718"><ele>1449.4749965080991</ele><time>2022-08-24T03:41:02Z</time></trkpt><trkpt lat="44.07787980753207" lon="145.12570322684326"><ele>1443.3531107222661</ele><time>2022-08-24T03:41:23Z</time></trkpt><trkpt lat="44.07794908303324" lon="145.12594086818223"><ele>1437.7592327939346</ele><time>2022-08-24T03:41:43Z</time></trkpt><trkpt lat="44.07805643246906" lon="145.12615048225442"><ele>1434.5279660113156</ele><time>2022-08-24T03:41:58Z</time></trkpt><trkpt lat="44.07818407391772" lon="145.12632842753806"><ele>1429.756530418992</ele><time>2022-08-24T03:42:19Z</time></trkpt><trkpt lat="44.07826046067147" lon="145.12656112961645"><ele>1425.1468389313668</ele><time>2022-08-24T03:42:36Z</time></trkpt><trkpt lat="44.078350463423924" lon="145.12679377631585"><ele>1420.192671646364</ele><time>2022-08-24T03:42:54Z</time></trkpt><trkpt lat="44.078456601998155" lon="145.12699622537338"><ele>1417.616862966679</ele><time>2022-08-24T03:43:08Z</time></trkpt><trkpt lat="44.078581134221714" lon="145.12717916644766"><ele>1413.6935639837757</ele><time>2022-08-24T03:43:24Z</time></trkpt><trkpt lat="44.07870289002625" lon="145.12736501582066"><ele>1411.2943062772974</ele><time>2022-08-24T03:43:42Z</time></trkpt><trkpt lat="44.07884058660652" lon="145.1275326704552"><ele>1406.410846912302</ele><time>2022-08-24T03:44:02Z</time></trkpt><trkpt lat="44.07899331007962" lon="145.12766552893885"><ele>1401.0890766456723</ele><time>2022-08-24T03:44:29Z</time></trkpt><trkpt lat="44.07906746506517" lon="145.1278997265279"><ele>1395.5876345355064</ele><time>2022-08-24T03:44:58Z</time></trkpt><trkpt lat="44.07918434977017" lon="145.12809925135906"><ele>1393.3069144720212</ele><time>2022-08-24T03:45:26Z</time></trkpt><trkpt lat="44.07935863227177" lon="145.1281704788341"><ele>1387.2262666961178</ele><time>2022-08-24T03:46:01Z</time></trkpt><trkpt lat="44.07949095960275" lon="145.1283442220181"><ele>1378.7062002252787</ele><time>2022-08-24T03:46:40Z</time></trkpt><trkpt lat="44.079643415307174" lon="145.12848554338308"><ele>1372.8873934438452</ele><time>2022-08-24T03:47:19Z</time></trkpt><trkpt lat="44.079781761432685" lon="145.12865219661828"><ele>1364.0507691623643</ele><time>2022-08-24T03:47:57Z</time></trkpt><trkpt lat="44.07994504606324" lon="145.12875941934706"><ele>1358.4100419059396</ele><time>2022-08-24T03:48:26Z</time></trkpt><trkpt lat="44.080129671693854" lon="145.12876973416638"><ele>1356.9055665489286</ele><time>2022-08-24T03:48:51Z</time></trkpt><trkpt lat="44.080309982347316" lon="145.12881736514063"><ele>1352.5762437963858</ele><time>2022-08-24T03:49:21Z</time></trkpt><trkpt lat="44.08049005574331" lon="145.1288681878844"><ele>1349.4138963222504</ele><time>2022-08-24T03:49:43Z</time></trkpt><trkpt lat="44.080672352271705" lon="145.12890578189013"><ele>1349.9919899422675</ele><time>2022-08-24T03:50:01Z</time></trkpt><trkpt lat="44.08086309259213" lon="145.1289337644116"><ele>1347.984016912058</ele><time>2022-08-24T03:50:19Z</time></trkpt><trkpt lat="44.08105347825063" lon="145.12895911695452"><ele>1346.0748859485611</ele><time>2022-08-24T03:50:35Z</time></trkpt><trkpt lat="44.08123571733934" lon="145.12895907368167"><ele>1344.0049940915778</ele><time>2022-08-24T03:51:26Z</time></trkpt><trkpt lat="44.081395474584376" lon="145.1288336642107"><ele>1345.0379650238901</ele><time>2022-08-24T03:51:44Z</time></trkpt><trkpt lat="44.081537264011104" lon="145.12866896569324"><ele>1345.11706008669</ele><time>2022-08-24T03:51:58Z</time></trkpt><trkpt lat="44.08166698587758" lon="145.12848155248938"><ele>1344.4655506890267</ele><time>2022-08-24T03:52:13Z</time></trkpt><trkpt lat="44.08178742812424" lon="145.12829523458282"><ele>1342.1065642740577</ele><time>2022-08-24T03:52:28Z</time></trkpt><trkpt lat="44.08186164896371" lon="145.12806340007415"><ele>1340.3618494579569</ele><time>2022-08-24T03:52:56Z</time></trkpt><trkpt lat="44.081942047771605" lon="145.1278196602818"><ele>1339.010634510778</ele><time>2022-08-24T03:53:17Z</time></trkpt><trkpt lat="44.082053736824285" lon="145.12762201279398"><ele>1334.925095366314</ele><time>2022-08-24T03:53:35Z</time></trkpt><trkpt lat="44.0821592831315" lon="145.12741766954105"><ele>1333.177343110554</ele><time>2022-08-24T03:53:57Z</time></trkpt><trkpt lat="44.08222619216413" lon="145.12718072807533"><ele>1328.8531066989526</ele><time>2022-08-24T03:54:20Z</time></trkpt><trkpt lat="44.08229416305679" lon="145.12694825286061"><ele>1324.1017613392323</ele><time>2022-08-24T03:54:45Z</time></trkpt><trkpt lat="44.08239861497968" lon="145.1267428307928"><ele>1321.679764393717</ele><time>2022-08-24T03:55:18Z</time></trkpt><trkpt lat="44.08249107938725" lon="145.12652176581835"><ele>1318.9343439070508</ele><time>2022-08-24T03:55:55Z</time></trkpt><trkpt lat="44.082589142609336" lon="145.12631161288053"><ele>1308.350736118853</ele><time>2022-08-24T03:56:34Z</time></trkpt><trkpt lat="44.082671602123774" lon="145.12608662160503"><ele>1303.9260745737702</ele><time>2022-08-24T03:57:10Z</time></trkpt><trkpt lat="44.08273641070451" lon="145.12585363138155"><ele>1293.988844389096</ele><time>2022-08-24T03:57:29Z</time></trkpt><trkpt lat="44.08281551706627" lon="145.12562895564068"><ele>1290.8265505218878</ele><time>2022-08-24T03:57:51Z</time></trkpt><trkpt lat="44.08288087093068" lon="145.12538716532174"><ele>1285.9190320791677</ele><time>2022-08-24T03:58:13Z</time></trkpt><trkpt lat="44.08291574573951" lon="145.12513771934888"><ele>1276.0446157949045</ele><time>2022-08-24T03:58:59Z</time></trkpt><trkpt lat="44.08298930710734" lon="145.12490546097573"><ele>1269.0968808885664</ele><time>2022-08-24T03:59:35Z</time></trkpt><trkpt lat="44.083080748671016" lon="145.12468594048312"><ele>1260.574181277305</ele><time>2022-08-24T04:00:10Z</time></trkpt><trkpt lat="44.08319335839147" lon="145.12448677707485"><ele>1249.1853387784213</ele><time>2022-08-24T04:00:50Z</time></trkpt><trkpt lat="44.08331776513661" lon="145.12430429709534"><ele>1239.6291031641886</ele><time>2022-08-24T04:01:25Z</time></trkpt><trkpt lat="44.08349456294945" lon="145.12424674968034"><ele>1234.8746186997741</ele><time>2022-08-24T04:02:23Z</time></trkpt><trkpt lat="44.08364379564323" lon="145.12410207852795"><ele>1226.7949541509151</ele><time>2022-08-24T04:03:16Z</time></trkpt><trkpt lat="44.083769621579975" lon="145.12391586069566"><ele>1213.8719760030508</ele><time>2022-08-24T04:04:00Z</time></trkpt><trkpt lat="44.08393661690435" lon="145.12382092690575"><ele>1201.53062060941</ele><time>2022-08-24T04:05:18Z</time></trkpt><trkpt lat="44.08412594678142" lon="145.12376291588197"><ele>1191.4195557311177</ele><time>2022-08-24T04:06:05Z</time></trkpt><trkpt lat="44.08421714370214" lon="145.12353296862162"><ele>1184.1434417953715</ele><time>2022-08-24T04:06:35Z</time></trkpt><trkpt lat="44.08433490710488" lon="145.1233310956488"><ele>1179.5973594440147</ele><time>2022-08-24T04:07:03Z</time></trkpt><trkpt lat="44.084482905412735" lon="145.12318095851356"><ele>1174.2940079374239</ele><time>2022-08-24T04:07:23Z</time></trkpt><trkpt lat="44.08462413883195" lon="145.12301234977085"><ele>1164.0189392780885</ele><time>2022-08-24T04:08:09Z</time></trkpt><trkpt lat="44.08477933779344" lon="145.12288177963603"><ele>1160.6381145352498</ele><time>2022-08-24T04:08:43Z</time></trkpt><trkpt lat="44.08493109783482" lon="145.122745187424"><ele>1152.2980097169057</ele><time>2022-08-24T04:09:12Z</time></trkpt><trkpt lat="44.08509049288476" lon="145.12261411048425"><ele>1147.2839166382328</ele><time>2022-08-24T04:11:36Z</time></trkpt><trkpt lat="44.08524097821959" lon="145.12247174448387"><ele>1140.305662584491</ele><time>2022-08-24T04:11:54Z</time></trkpt><trkpt lat="44.08540615969287" lon="145.12236740796064"><ele>1138.4261035481468</ele><time>2022-08-24T04:12:14Z</time></trkpt><trkpt lat="44.0855671953691" lon="145.12224867252348"><ele>1129.3626190796494</ele><time>2022-08-24T04:12:32Z</time></trkpt><trkpt lat="44.085720818954336" lon="145.1221082261081"><ele>1130.180968769826</ele><time>2022-08-24T04:12:58Z</time></trkpt><trkpt lat="44.08586895001415" lon="145.12195347016942"><ele>1131.7656945884228</ele><time>2022-08-24T04:13:22Z</time></trkpt><trkpt lat="44.086019289117445" lon="145.12181072065277"><ele>1129.5585715174675</ele><time>2022-08-24T04:13:40Z</time></trkpt><trkpt lat="44.086167070027514" lon="145.12164333297568"><ele>1121.429651785642</ele><time>2022-08-24T04:13:57Z</time></trkpt><trkpt lat="44.086243935948836" lon="145.1214171108991"><ele>1117.5801868876442</ele><time>2022-08-24T04:14:25Z</time></trkpt><trkpt lat="44.08633477842821" lon="145.1211990135345"><ele>1117.93335828837</ele><time>2022-08-24T04:14:50Z</time></trkpt><trkpt lat="44.08641810529765" lon="145.12096978742443"><ele>1115.4686720250174</ele><time>2022-08-24T04:15:16Z</time></trkpt><trkpt lat="44.08659116377186" lon="145.12088614580404"><ele>1109.4342451393604</ele><time>2022-08-24T04:15:51Z</time></trkpt><trkpt lat="44.08677352770452" lon="145.1208382016967"><ele>1102.9321758355945</ele><time>2022-08-24T04:16:24Z</time></trkpt><trkpt lat="44.08694233109722" lon="145.12072977860387"><ele>1099.7989277495071</ele><time>2022-08-24T04:16:53Z</time></trkpt><trkpt lat="44.0871190342921" lon="145.1206548688911"><ele>1094.6392905339599</ele><time>2022-08-24T04:17:29Z</time></trkpt><trkpt lat="44.08728010635846" lon="145.12053585095137"><ele>1094.7641996424645</ele><time>2022-08-24T04:17:54Z</time></trkpt><trkpt lat="44.08740685404055" lon="145.12033794414464"><ele>1088.8794682072476</ele><time>2022-08-24T04:18:23Z</time></trkpt><trkpt lat="44.08753066203713" lon="145.120150536034"><ele>1088.939459494315</ele><time>2022-08-24T04:18:50Z</time></trkpt><trkpt lat="44.08766189030172" lon="145.11997564809192"><ele>1086.540954336524</ele><time>2022-08-24T04:19:17Z</time></trkpt><trkpt lat="44.0877836367389" lon="145.11978999530467"><ele>1085.5609621182084</ele><time>2022-08-24T04:19:38Z</time></trkpt><trkpt lat="44.08790082824714" lon="145.11957594380124"><ele>1079.6634571142495</ele><time>2022-08-24T04:19:57Z</time></trkpt><trkpt lat="44.08795830461691" lon="145.1193385493898"><ele>1075.4057662617415</ele><time>2022-08-24T04:20:18Z</time></trkpt><trkpt lat="44.08803988919859" lon="145.11911585097627"><ele>1068.541212445125</ele><time>2022-08-24T04:20:45Z</time></trkpt><trkpt lat="44.08817250541128" lon="145.11892965451423"><ele>1065.5384476780891</ele><time>2022-08-24T04:21:16Z</time></trkpt><trkpt lat="44.08830603347827" lon="145.11874914955658"><ele>1059.4867824111134</ele><time>2022-08-24T04:21:47Z</time></trkpt><trkpt lat="44.0884426052589" lon="145.11858357712632"><ele>1055.3153295889497</ele><time>2022-08-24T04:22:31Z</time></trkpt><trkpt lat="44.08843303737315" lon="145.11833070097111"><ele>1048.8374931914732</ele><time>2022-08-24T04:23:10Z</time></trkpt><trkpt lat="44.08854257597423" lon="145.11812568554828"><ele>1044.3976149046794</ele><time>2022-08-24T04:23:56Z</time></trkpt><trkpt lat="44.0885041525738" lon="145.1178773082609"><ele>1040.0896028801799</ele><time>2022-08-24T04:24:36Z</time></trkpt><trkpt lat="44.08862694620483" lon="145.11769439061072"><ele>1038.2887917980552</ele><time>2022-08-24T04:25:15Z</time></trkpt><trkpt lat="44.088748523526135" lon="145.11750894600618"><ele>1040.3624637275934</ele><time>2022-08-24T04:25:38Z</time></trkpt><trkpt lat="44.088842530814844" lon="145.11728805635082"><ele>1032.8157849814743</ele><time>2022-08-24T04:25:57Z</time></trkpt><trkpt lat="44.089000311048665" lon="145.11714583666242"><ele>1029.934828756377</ele><time>2022-08-24T04:26:24Z</time></trkpt><trkpt lat="44.08917691233028" lon="145.11709317058916"><ele>1024.3851792607456</ele><time>2022-08-24T04:26:57Z</time></trkpt><trkpt lat="44.08933669083476" lon="145.11697483300313"><ele>1026.3625512486324</ele><time>2022-08-24T04:27:29Z</time></trkpt><trkpt lat="44.089502659758594" lon="145.11686671416444"><ele>1015.8149326285347</ele><time>2022-08-24T04:28:04Z</time></trkpt><trkpt lat="44.08968513649922" lon="145.11687363654733"><ele>1009.5147148398682</ele><time>2022-08-24T04:28:37Z</time></trkpt><trkpt lat="44.08984825010724" lon="145.11672412330284"><ele>1002.557856798172</ele><time>2022-08-24T04:29:09Z</time></trkpt><trkpt lat="44.08992330879489" lon="145.1164896393826"><ele>998.8939381837845</ele><time>2022-08-24T04:29:36Z</time></trkpt><trkpt lat="44.090091367985195" lon="145.11639188150946"><ele>991.2177476063371</ele><time>2022-08-24T04:30:41Z</time></trkpt><trkpt lat="44.09027273367706" lon="145.11633288658635"><ele>982.402935160324</ele><time>2022-08-24T04:31:11Z</time></trkpt><trkpt lat="44.09045218528971" lon="145.11635520558053"><ele>979.5703267501667</ele><time>2022-08-24T04:31:49Z</time></trkpt><trkpt lat="44.09061873473655" lon="145.11645050937315"><ele>970.3915506573394</ele><time>2022-08-24T04:32:21Z</time></trkpt><trkpt lat="44.09080182412511" lon="145.11645532157925"><ele>965.109414906241</ele><time>2022-08-24T04:32:48Z</time></trkpt><trkpt lat="44.09097752027715" lon="145.1163976699833"><ele>953.0016111759469</ele><time>2022-08-24T04:33:58Z</time></trkpt><trkpt lat="44.09096397911364" lon="145.11614603918298"><ele>948.7187676718459</ele><time>2022-08-24T04:34:32Z</time></trkpt><trkpt lat="44.09091156217179" lon="145.11589087043947"><ele>949.2732630744576</ele><time>2022-08-24T04:35:07Z</time></trkpt><trkpt lat="44.0907525117558" lon="145.11577182707424"><ele>942.1963479723781</ele><time>2022-08-24T04:35:39Z</time></trkpt><trkpt lat="44.09068242750808" lon="145.1155388133081"><ele>944.9128364101052</ele><time>2022-08-24T04:36:11Z</time></trkpt><trkpt lat="44.09057618935458" lon="145.11533234931755"><ele>930.1431272495538</ele><time>2022-08-24T04:36:39Z</time></trkpt><trkpt lat="44.09075940145552" lon="145.1153583881491"><ele>922.7331584673375</ele><time>2022-08-24T04:37:13Z</time></trkpt><trkpt lat="44.09088302444699" lon="145.1155428224302"><ele>925.1741076773033</ele><time>2022-08-24T04:37:47Z</time></trkpt><trkpt lat="44.091058408813055" lon="145.1156201447331"><ele>917.1131237857044</ele><time>2022-08-24T04:38:15Z</time></trkpt><trkpt lat="44.091215618362995" lon="145.1157442142716"><ele>912.6123138703406</ele><time>2022-08-24T04:38:40Z</time></trkpt><trkpt lat="44.09132594604554" lon="145.11595121806798"><ele>909.984453516081</ele><time>2022-08-24T04:39:11Z</time></trkpt><trkpt lat="44.091408385607664" lon="145.11571850319677"><ele>908.718443095684</ele><time>2022-08-24T04:39:35Z</time></trkpt><trkpt lat="44.091327241617776" lon="145.11549261742"><ele>904.4082091581076</ele><time>2022-08-24T04:40:03Z</time></trkpt><trkpt lat="44.091171568531486" lon="145.1153514116719"><ele>899.8446290465072</ele><time>2022-08-24T04:40:36Z</time></trkpt><trkpt lat="44.09107537115926" lon="145.11513439976395"><ele>901.0931468913332</ele><time>2022-08-24T04:41:13Z</time></trkpt><trkpt lat="44.09097383286209" lon="145.1149213727601"><ele>900.3689287612215</ele><time>2022-08-24T04:41:32Z</time></trkpt><trkpt lat="44.09089062314313" lon="145.11469928311934"><ele>898.2608210723847</ele><time>2022-08-24T04:41:51Z</time></trkpt><trkpt lat="44.090947801894245" lon="145.11445678434652"><ele>883.4741797763854</ele><time>2022-08-24T04:42:37Z</time></trkpt><trkpt lat="44.091066245697874" lon="145.11426636321102"><ele>880.834891221486</ele><time>2022-08-24T04:42:56Z</time></trkpt><trkpt lat="44.09118977700189" lon="145.11407840512211"><ele>875.1094650281593</ele><time>2022-08-24T04:43:15Z</time></trkpt><trkpt lat="44.091258399848684" lon="145.11384383196068"><ele>872.8509656293318</ele><time>2022-08-24T04:43:35Z</time></trkpt><trkpt lat="44.091335233633835" lon="145.11361508713813"><ele>866.7763780849054</ele><time>2022-08-24T04:43:56Z</time></trkpt><trkpt lat="44.091409406857174" lon="145.1133804934396"><ele>861.9984694225714</ele><time>2022-08-24T04:44:15Z</time></trkpt><trkpt lat="44.09151597875735" lon="145.1131602997151"><ele>856.2612829320133</ele><time>2022-08-24T04:44:46Z</time></trkpt><trkpt lat="44.09159027503039" lon="145.11291937953555"><ele>855.7911705793813</ele><time>2022-08-24T04:45:04Z</time></trkpt><trkpt lat="44.09168622662651" lon="145.11270737970136"><ele>852.7931564832106</ele><time>2022-08-24T04:45:21Z</time></trkpt><trkpt lat="44.09174409336298" lon="145.11245176149598"><ele>852.1849177666008</ele><time>2022-08-24T04:45:41Z</time></trkpt><trkpt lat="44.09175875165076" lon="145.11219936648018"><ele>849.3998746825382</ele><time>2022-08-24T04:45:58Z</time></trkpt><trkpt lat="44.091835813156386" lon="145.11197240719247"><ele>849.4804756222293</ele><time>2022-08-24T04:46:17Z</time></trkpt><trkpt lat="44.0919240921521" lon="145.1117534081293"><ele>846.1630728086457</ele><time>2022-08-24T04:46:38Z</time></trkpt><trkpt lat="44.09195978892246" lon="145.11149056675941"><ele>839.9148988667876</ele><time>2022-08-24T04:46:57Z</time></trkpt><trkpt lat="44.092067235263144" lon="145.1112709431363"><ele>843.495825487189</ele><time>2022-08-24T04:47:14Z</time></trkpt><trkpt lat="44.09213998052518" lon="145.11103403103093"><ele>840.6881555328146</ele><time>2022-08-24T04:47:33Z</time></trkpt><trkpt lat="44.09222228113291" lon="145.11080809016042"><ele>837.9386008838192</ele><time>2022-08-24T04:47:53Z</time></trkpt><trkpt lat="44.092314502356814" lon="145.11057026470507"><ele>833.1858952315524</ele><time>2022-08-24T04:48:14Z</time></trkpt><trkpt lat="44.09239217127206" lon="145.1103311354401"><ele>836.3429270042107</ele><time>2022-08-24T04:48:34Z</time></trkpt><trkpt lat="44.09247019189723" lon="145.1101060277246"><ele>835.7695710109547</ele><time>2022-08-24T04:48:51Z</time></trkpt><trkpt lat="44.0925761016294" lon="145.1099025736403"><ele>837.4940617028624</ele><time>2022-08-24T04:49:12Z</time></trkpt><trkpt lat="44.09265796432007" lon="145.10967952472834"><ele>836.2694807788357</ele><time>2022-08-24T04:49:33Z</time></trkpt><trkpt lat="44.0927672153972" lon="145.10946267811784"><ele>833.3801240306348</ele><time>2022-08-24T04:49:52Z</time></trkpt><trkpt lat="44.09285482272315" lon="145.10924022559615"><ele>828.3460611179471</ele><time>2022-08-24T04:50:10Z</time></trkpt><trkpt lat="44.09296010960453" lon="145.10902711683892"><ele>831.9509292207658</ele><time>2022-08-24T04:50:31Z</time></trkpt><trkpt lat="44.09304523106355" lon="145.10879666558444"><ele>826.5667923511937</ele><time>2022-08-24T04:50:52Z</time></trkpt><trkpt lat="44.093166992862" lon="145.10858508430758"><ele>824.6504986155778</ele><time>2022-08-24T04:51:13Z</time></trkpt><trkpt lat="44.093298040208666" lon="145.10840486933355"><ele>822.1342294532806</ele><time>2022-08-24T04:51:33Z</time></trkpt><trkpt lat="44.09341190286947" lon="145.10819720619705"><ele>823.0151319373399</ele><time>2022-08-24T04:51:55Z</time></trkpt><trkpt lat="44.09351928492703" lon="145.10799499027178"><ele>821.9842198854312</ele><time>2022-08-24T04:52:17Z</time></trkpt><trkpt lat="44.09361991330023" lon="145.1077800519703"><ele>816.5463300142437</ele><time>2022-08-24T04:52:38Z</time></trkpt><trkpt lat="44.09373853692131" lon="145.10759147398167"><ele>814.0346571328118</ele><time>2022-08-24T04:53:00Z</time></trkpt><trkpt lat="44.09383415415371" lon="145.10737055560543"><ele>813.5323095871136</ele><time>2022-08-24T04:53:28Z</time></trkpt><trkpt lat="44.093953499821346" lon="145.1071756194076"><ele>806.4963438808918</ele><time>2022-08-24T04:54:09Z</time></trkpt><trkpt lat="44.094061971568074" lon="145.10697119743392"><ele>807.0088857784867</ele><time>2022-08-24T04:54:33Z</time></trkpt><trkpt lat="44.0941824549449" lon="145.10677118927836"><ele>807.5223983684555</ele><time>2022-08-24T04:54:56Z</time></trkpt><trkpt lat="44.09431486217313" lon="145.10658806740472"><ele>805.4396164696664</ele><time>2022-08-24T04:55:16Z</time></trkpt><trkpt lat="44.09449199127892" lon="145.10653776073585"><ele>805.1838523810729</ele><time>2022-08-24T04:55:37Z</time></trkpt><trkpt lat="44.09467593403849" lon="145.1065321956733"><ele>802.8035672837868</ele><time>2022-08-24T04:55:54Z</time></trkpt><trkpt lat="44.09486138574425" lon="145.1065706044082"><ele>802.4120690077543</ele><time>2022-08-24T04:56:14Z</time></trkpt><trkpt lat="44.09504242223608" lon="145.10660130691355"><ele>797.6029459424317</ele><time>2022-08-24T04:56:34Z</time></trkpt><trkpt lat="44.09520895897115" lon="145.10669961018178"><ele>789.1593323685229</ele><time>2022-08-24T04:56:55Z</time></trkpt><trkpt lat="44.09539477723942" lon="145.1067225195359"><ele>788.4065126823261</ele><time>2022-08-24T04:57:17Z</time></trkpt><trkpt lat="44.09557459665691" lon="145.10670383581032"><ele>788.0701711187139</ele><time>2022-08-24T04:57:39Z</time></trkpt><trkpt lat="44.095766956639494" lon="145.10666762486628"><ele>785.9488293621689</ele><time>2022-08-24T04:57:54Z</time></trkpt><trkpt lat="44.09594175948087" lon="145.10658731429652"><ele>785.2820358276367</ele><time>2022-08-24T04:58:12Z</time></trkpt><trkpt lat="44.096115665046334" lon="145.10649542859272"><ele>783.7707633348182</ele><time>2022-08-24T04:58:28Z</time></trkpt><trkpt lat="44.09627354191432" lon="145.1063741212968"><ele>785.0911763962358</ele><time>2022-08-24T04:58:47Z</time></trkpt><trkpt lat="44.09641946254301" lon="145.10622368583677"><ele>782.4496274217963</ele><time>2022-08-24T04:59:08Z</time></trkpt><trkpt lat="44.096584331665746" lon="145.10610245796767"><ele>775.5511485310271</ele><time>2022-08-24T04:59:28Z</time></trkpt><trkpt lat="44.09676866044824" lon="145.10607833336059"><ele>772.7232552943751</ele><time>2022-08-24T04:59:46Z</time></trkpt><trkpt lat="44.0969546247071" lon="145.10605537375494"><ele>768.5960410768166</ele><time>2022-08-24T05:00:06Z</time></trkpt><trkpt lat="44.09713549932035" lon="145.1060118208896"><ele>763.6764212762937</ele><time>2022-08-24T05:00:20Z</time></trkpt><trkpt lat="44.09730889048754" lon="145.10591868602927"><ele>765.9292746232823</ele><time>2022-08-24T05:00:35Z</time></trkpt><trkpt lat="44.09747470907151" lon="145.10580960433575"><ele>762.9979061745107</ele><time>2022-08-24T05:00:51Z</time></trkpt><trkpt lat="44.09765746573861" lon="145.10573786281998"><ele>763.5632023774087</ele><time>2022-08-24T05:01:09Z</time></trkpt><trkpt lat="44.09782824874396" lon="145.1056462163568"><ele>758.4790890058503</ele><time>2022-08-24T05:01:23Z</time></trkpt><trkpt lat="44.09799750526499" lon="145.10551445181386"><ele>754.1777922259644</ele><time>2022-08-24T05:01:36Z</time></trkpt><trkpt lat="44.09812504351222" lon="145.1053323186936"><ele>750.7641074769199</ele><time>2022-08-24T05:01:51Z</time></trkpt><trkpt lat="44.098230058936245" lon="145.10512775350566"><ele>746.1748304255307</ele><time>2022-08-24T05:02:07Z</time></trkpt><trkpt lat="44.09836168097942" lon="145.10494093306937"><ele>744.7903926596045</ele><time>2022-08-24T05:02:21Z</time></trkpt><trkpt lat="44.09851527642899" lon="145.10476873513937"><ele>738.4916876628995</ele><time>2022-08-24T05:02:41Z</time></trkpt><trkpt lat="44.098693639163166" lon="145.1046980399286"><ele>738.1469430057332</ele><time>2022-08-24T05:02:59Z</time></trkpt><trkpt lat="44.098850902423706" lon="145.10457208262275"><ele>731.8990285107866</ele><time>2022-08-24T05:03:14Z</time></trkpt><trkpt lat="44.09903619330286" lon="145.10457058421005"><ele>725.5743100605905</ele><time>2022-08-24T05:03:32Z</time></trkpt><trkpt lat="44.09921242225219" lon="145.10463312895658"><ele>725.3681181389838</ele><time>2022-08-24T05:03:49Z</time></trkpt><trkpt lat="44.09937317073317" lon="145.10449486944879"><ele>721.5936710489914</ele><time>2022-08-24T05:04:09Z</time></trkpt><trkpt lat="44.09951265953464" lon="145.10431525284298"><ele>714.522130436264</ele><time>2022-08-24T05:04:31Z</time></trkpt><trkpt lat="44.09964096673165" lon="145.10412439640166"><ele>710.6943970005959</ele><time>2022-08-24T05:05:02Z</time></trkpt><trkpt lat="44.09978315973569" lon="145.10395087928651"><ele>701.5294309584424</ele><time>2022-08-24T05:05:33Z</time></trkpt><trkpt lat="44.09984073339123" lon="145.1037088460907"><ele>695.6765558579937</ele><time>2022-08-24T05:06:10Z</time></trkpt><trkpt lat="44.09995602432075" lon="145.10351279197516"><ele>688.4071297477931</ele><time>2022-08-24T05:06:36Z</time></trkpt><trkpt lat="44.10010564686209" lon="145.10336698010653"><ele>686.3843608992174</ele><time>2022-08-24T05:06:56Z</time></trkpt><trkpt lat="44.100225690676595" lon="145.1031750110468"><ele>680.3286285214126</ele><time>2022-08-24T05:07:17Z</time></trkpt><trkpt lat="44.10036510544394" lon="145.10301301752483"><ele>678.4658206291497</ele><time>2022-08-24T05:10:44Z</time></trkpt><trkpt lat="44.10052191101294" lon="145.10287166812728"><ele>675.9102310827002</ele><time>2022-08-24T05:11:03Z</time></trkpt><trkpt lat="44.10067906004807" lon="145.10273157658494"><ele>670.6386712836102</ele><time>2022-08-24T05:11:23Z</time></trkpt><trkpt lat="44.1008550081911" lon="145.10267560991207"><ele>662.1967126466334</ele><time>2022-08-24T05:11:58Z</time></trkpt><trkpt lat="44.1010143113553" lon="145.1025501491944"><ele>656.1550011243671</ele><time>2022-08-24T05:12:25Z</time></trkpt><trkpt lat="44.10115263493623" lon="145.10238362828002"><ele>651.0587553009391</ele><time>2022-08-24T05:12:43Z</time></trkpt><trkpt lat="44.10123709721475" lon="145.10214646218552"><ele>652.501955313608</ele><time>2022-08-24T05:13:06Z</time></trkpt><trkpt lat="44.101310940021136" lon="145.10190720453514"><ele>645.6930835722014</ele><time>2022-08-24T05:13:26Z</time></trkpt><trkpt lat="44.10140197244778" lon="145.10167940984178"><ele>640.3481442155316</ele><time>2022-08-24T05:16:08Z</time></trkpt><trkpt lat="44.10151708973929" lon="145.10148676190408"><ele>637.7016948675737</ele><time>2022-08-24T05:16:49Z</time></trkpt><trkpt lat="44.101696920616384" lon="145.10144219260386"><ele>639.4779428457841</ele><time>2022-08-24T05:17:06Z</time></trkpt><trkpt lat="44.10187563405633" lon="145.10147268318113"><ele>633.3420989969745</ele><time>2022-08-24T05:17:32Z</time></trkpt><trkpt lat="44.10198282987619" lon="145.1012702888579"><ele>626.8091374244541</ele><time>2022-08-24T05:18:10Z</time></trkpt><trkpt lat="44.102020625127366" lon="145.1010155989491"><ele>620.262170324102</ele><time>2022-08-24T05:18:34Z</time></trkpt><trkpt lat="44.10214220618696" lon="145.10081409037787"><ele>614.6619894355536</ele><time>2022-08-24T05:19:00Z</time></trkpt><trkpt lat="44.10224175626838" lon="145.10060492371738"><ele>615.9662262741476</ele><time>2022-08-24T05:19:18Z</time></trkpt><trkpt lat="44.10238352711589" lon="145.10044884480857"><ele>613.2247433466837</ele><time>2022-08-24T05:19:34Z</time></trkpt><trkpt lat="44.10254025730989" lon="145.10030590110742"><ele>612.3506435379386</ele><time>2022-08-24T05:19:53Z</time></trkpt><trkpt lat="44.102691522658674" lon="145.10015659182355"><ele>608.9020491177216</ele><time>2022-08-24T05:20:09Z</time></trkpt><trkpt lat="44.10284155360059" lon="145.09999624416463"><ele>602.970600743778</ele><time>2022-08-24T05:20:28Z</time></trkpt><trkpt lat="44.102977173368714" lon="145.09981711807296"><ele>597.3116521630436</ele><time>2022-08-24T05:20:50Z</time></trkpt><trkpt lat="44.1030533454755" lon="145.09958505730094"><ele>590.1084150355309</ele><time>2022-08-24T05:21:16Z</time></trkpt><trkpt lat="44.10301557263106" lon="145.09933913232823"><ele>587.944006328471</ele><time>2022-08-24T05:21:45Z</time></trkpt><trkpt lat="44.10319544802715" lon="145.09936879123563"><ele>581.8887782422826</ele><time>2022-08-24T05:22:49Z</time></trkpt><trkpt lat="44.103225893386856" lon="145.09962873995778"><ele>579.9963684473187</ele><time>2022-08-24T05:23:24Z</time></trkpt><trkpt lat="44.103337582961096" lon="145.0994309658466"><ele>571.259368549101</ele><time>2022-08-24T05:24:05Z</time></trkpt><trkpt lat="44.103391846441895" lon="145.09918521327586"><ele>566.6730851875618</ele><time>2022-08-24T05:24:33Z</time></trkpt><trkpt lat="44.10344165369894" lon="145.09894163379758"><ele>561.0342747047544</ele><time>2022-08-24T05:24:52Z</time></trkpt><trkpt lat="44.103500917622384" lon="145.09869526848388"><ele>553.11750294175</ele><time>2022-08-24T05:25:17Z</time></trkpt><trkpt lat="44.10353911494882" lon="145.09844755061482"><ele>550.9080125829205</ele><time>2022-08-24T05:25:35Z</time></trkpt><trkpt lat="44.1035554777251" lon="145.09817080753533"><ele>546.6831045392901</ele><time>2022-08-24T05:25:49Z</time></trkpt><trkpt lat="44.103656683589335" lon="145.09795684093925"><ele>543.8188499445096</ele><time>2022-08-24T05:26:02Z</time></trkpt><trkpt lat="44.10381547973024" lon="145.09782846824518"><ele>539.963826995343</ele><time>2022-08-24T05:26:18Z</time></trkpt><trkpt lat="44.103996573110585" lon="145.09776591109446"><ele>539.4045790378004</ele><time>2022-08-24T05:26:36Z</time></trkpt><trkpt lat="44.104161853319304" lon="145.0976471454789"><ele>529.3691675858572</ele><time>2022-08-24T05:27:15Z</time></trkpt><trkpt lat="44.10430748118763" lon="145.09747354057654"><ele>522.3531140992418</ele><time>2022-08-24T05:27:55Z</time></trkpt><trkpt lat="44.1044269358334" lon="145.09728606437366"><ele>516.3303754264489</ele><time>2022-08-24T05:28:32Z</time></trkpt><trkpt lat="44.10455001114044" lon="145.09709840866427"><ele>510.6459313519299</ele><time>2022-08-24T05:31:21Z</time></trkpt><trkpt lat="44.10466298757759" lon="145.0968799602476"><ele>503.4507774487138</ele><time>2022-08-24T05:31:54Z</time></trkpt><trkpt lat="44.10474622846596" lon="145.09665554181947"><ele>497.5105675300583</ele><time>2022-08-24T05:32:25Z</time></trkpt><trkpt lat="44.10465747844323" lon="145.09642801254458"><ele>489.7671735845506</ele><time>2022-08-24T05:33:56Z</time></trkpt><trkpt lat="44.10470976928973" lon="145.0961805340933"><ele>481.72134974133223</ele><time>2022-08-24T05:34:27Z</time></trkpt><trkpt lat="44.104814020134434" lon="145.09596962688636"><ele>473.15158488880843</ele><time>2022-08-24T05:34:47Z</time></trkpt><trkpt lat="44.10492743031067" lon="145.09577253378748"><ele>470.036119739525</ele><time>2022-08-24T05:35:16Z</time></trkpt><trkpt lat="44.10508395537123" lon="145.0956154753958"><ele>463.7348949369043</ele><time>2022-08-24T05:35:34Z</time></trkpt><trkpt lat="44.105252961931384" lon="145.0955173135791"><ele>462.64193857461214</ele><time>2022-08-24T05:36:03Z</time></trkpt><trkpt lat="44.10538401972152" lon="145.09533986529448"><ele>456.3776809340343</ele><time>2022-08-24T05:36:22Z</time></trkpt><trkpt lat="44.10547582748673" lon="145.0951249821099"><ele>451.26815638132393</ele><time>2022-08-24T05:37:03Z</time></trkpt><trkpt lat="44.10559028314616" lon="145.0949238324341"><ele>448.569089227356</ele><time>2022-08-24T05:37:34Z</time></trkpt><trkpt lat="44.105651010955576" lon="145.09468184602085"><ele>440.8876209957525</ele><time>2022-08-24T05:37:54Z</time></trkpt><trkpt lat="44.10582827417241" lon="145.09463046532164"><ele>433.68493181746453</ele><time>2022-08-24T05:38:50Z</time></trkpt><trkpt lat="44.10584161027256" lon="145.09437757498827"><ele>426.11504006944597</ele><time>2022-08-24T05:39:13Z</time></trkpt><trkpt lat="44.10590171896713" lon="145.09412922709467"><ele>421.3335913810879</ele><time>2022-08-24T05:39:33Z</time></trkpt><trkpt lat="44.10595741264294" lon="145.09388663601467"><ele>417.70916279032826</ele><time>2022-08-24T05:39:57Z</time></trkpt><trkpt lat="44.10602095440495" lon="145.0936420275741"><ele>411.4229164198041</ele><time>2022-08-24T05:40:13Z</time></trkpt><trkpt lat="44.10601693708456" lon="145.0933908572491"><ele>408.9366759620607</ele><time>2022-08-24T05:40:30Z</time></trkpt><trkpt lat="44.1060641085067" lon="145.09313175631334"><ele>405.0780803123489</ele><time>2022-08-24T05:40:48Z</time></trkpt><trkpt lat="44.10612963123179" lon="145.0928957818637"><ele>401.70906961429864</ele><time>2022-08-24T05:41:07Z</time></trkpt><trkpt lat="44.10622280216518" lon="145.09267095185155"><ele>397.90312129445374</ele><time>2022-08-24T05:41:24Z</time></trkpt><trkpt lat="44.106321752180975" lon="145.09243450586123"><ele>396.24157714657485</ele><time>2022-08-24T05:41:39Z</time></trkpt><trkpt lat="44.10639121782847" lon="145.09218050551297"><ele>395.3501312825829</ele><time>2022-08-24T05:42:06Z</time></trkpt><trkpt lat="44.106426365852855" lon="145.09192431653506"><ele>391.1315389452502</ele><time>2022-08-24T05:42:38Z</time></trkpt><trkpt lat="44.10643816400525" lon="145.09167217735248"><ele>384.3728898204863</ele><time>2022-08-24T05:43:45Z</time></trkpt><trkpt lat="44.106407824710075" lon="145.09142064243667"><ele>378.94489307980984</ele><time>2022-08-24T05:44:10Z</time></trkpt><trkpt lat="44.106467739204625" lon="145.091183679815"><ele>372.5701296646148</ele><time>2022-08-24T05:44:28Z</time></trkpt><trkpt lat="44.10657884363896" lon="145.09096596896288"><ele>370.5276370914653</ele><time>2022-08-24T05:44:43Z</time></trkpt><trkpt lat="44.106715639859836" lon="145.09077845867608"><ele>371.7754038600251</ele><time>2022-08-24T05:45:00Z</time></trkpt><trkpt lat="44.10684864057203" lon="145.0905647153839"><ele>362.21223570685834</ele><time>2022-08-24T05:45:19Z</time></trkpt><trkpt lat="44.10693385230002" lon="145.09032843744328"><ele>360.08192183822393</ele><time>2022-08-24T05:45:37Z</time></trkpt><trkpt lat="44.10709038478121" lon="145.090199750857"><ele>353.17965039331466</ele><time>2022-08-24T05:45:57Z</time></trkpt><trkpt lat="44.10722541140427" lon="145.09002196522917"><ele>350.3589112125337</ele><time>2022-08-24T05:46:21Z</time></trkpt><trkpt lat="44.107408527152366" lon="145.08994595923932"><ele>342.0196528090164</ele><time>2022-08-24T05:46:38Z</time></trkpt><trkpt lat="44.10756890564066" lon="145.08978906665862"><ele>339.2934900484979</ele><time>2022-08-24T05:46:52Z</time></trkpt><trkpt lat="44.10765858061634" lon="145.08956577626253"><ele>330.9711944684386</ele><time>2022-08-24T05:47:11Z</time></trkpt><trkpt lat="44.10768638676567" lon="145.0893074844446"><ele>328.98061781097203</ele><time>2022-08-24T05:47:27Z</time></trkpt><trkpt lat="44.107769002701026" lon="145.08908418388162"><ele>321.47083269432187</ele><time>2022-08-24T05:47:56Z</time></trkpt><trkpt lat="44.10758414921566" lon="145.0889721802097"><ele>321.24268701300025</ele><time>2022-08-24T05:48:10Z</time></trkpt><trkpt lat="44.10775168520664" lon="145.08887934909555"><ele>314.03174653835595</ele><time>2022-08-24T05:48:39Z</time></trkpt><trkpt lat="44.107933459335854" lon="145.08892463856102"><ele>314.65277968999</ele><time>2022-08-24T05:48:55Z</time></trkpt><trkpt lat="44.10807283468945" lon="145.0890911519782"><ele>309.30519157648087</ele><time>2022-08-24T05:49:10Z</time></trkpt><trkpt lat="44.10814365790517" lon="145.08933524730782"><ele>306.76346508134156</ele><time>2022-08-24T05:49:33Z</time></trkpt><trkpt lat="44.10831986875155" lon="145.0894020337252"><ele>298.7876371424645</ele><time>2022-08-24T05:50:01Z</time></trkpt><trkpt lat="44.1084909075122" lon="145.0893147895795"><ele>292.6053662998602</ele><time>2022-08-24T05:50:26Z</time></trkpt><trkpt lat="44.108671665856036" lon="145.08929903087576"><ele>286.1113432459533</ele><time>2022-08-24T05:50:53Z</time></trkpt><trkpt lat="44.10884481679162" lon="145.08922361224685"><ele>283.971336199902</ele><time>2022-08-24T05:51:14Z</time></trkpt><trkpt lat="44.109027831128834" lon="145.089181275358"><ele>278.8111863285303</ele><time>2022-08-24T05:51:36Z</time></trkpt><trkpt lat="44.10895577369359" lon="145.08941385315597"><ele>269.8436813224107</ele><time>2022-08-24T05:52:10Z</time></trkpt><trkpt lat="44.108816680783185" lon="145.08957935435592"><ele>269.24576742295176</ele><time>2022-08-24T05:52:33Z</time></trkpt><trkpt lat="44.10874630073642" lon="145.08981880268271"><ele>263.92122869566083</ele><time>2022-08-24T05:52:51Z</time></trkpt><trkpt lat="44.10866930367139" lon="145.0900626740333"><ele>258.5379436351359</ele><time>2022-08-24T05:53:11Z</time></trkpt><trkpt lat="44.1088438604521" lon="145.08990799144738"><ele>256.2448058128357</ele><time>2022-08-24T05:53:46Z</time></trkpt><trkpt lat="44.10903383911843" lon="145.08997679852192"><ele>251.04827451892197</ele><time>2022-08-24T05:54:06Z</time></trkpt><trkpt lat="44.10922452789916" lon="145.0899969177387"><ele>244.69946848787367</ele><time>2022-08-24T05:54:23Z</time></trkpt><trkpt lat="44.109369540641566" lon="145.09017030788235"><ele>240.57901956606656</ele><time>2022-08-24T05:54:44Z</time></trkpt><trkpt lat="44.10950916953612" lon="145.0903509188737"><ele>237.01505821943283</ele><time>2022-08-24T05:55:06Z</time></trkpt><trkpt lat="44.1094757224448" lon="145.09061783868194"><ele>235.80443902686238</ele><time>2022-08-24T05:55:37Z</time></trkpt><trkpt lat="44.109619599762986" lon="145.09045405200362"><ele>234.94841369241476</ele><time>2022-08-24T05:57:05Z</time></trkpt><trkpt lat="44.10978346671611" lon="145.0903439438285"><ele>233.64944514725357</ele><time>2022-08-24T05:57:20Z</time></trkpt><trkpt lat="44.10986035200981" lon="145.09009241403976"><ele>231.84509924985468</ele><time>2022-08-24T05:57:35Z</time></trkpt><trkpt lat="44.1098571980371" lon="145.08983224988927"><ele>230.33783132210374</ele><time>2022-08-24T05:57:52Z</time></trkpt><trkpt lat="44.10989805508914" lon="145.08953819070794"><ele>230.6749887559563</ele><time>2022-08-24T05:58:11Z</time></trkpt><trkpt lat="44.11002287215567" lon="145.089357836142"><ele>224.73151831142604</ele><time>2022-08-24T05:58:33Z</time></trkpt><trkpt lat="44.11016350851158" lon="145.08919414477438"><ele>221.80811529699713</ele><time>2022-08-24T05:58:52Z</time></trkpt><trkpt lat="44.11028773772737" lon="145.0889902578478"><ele>213.99459868390113</ele><time>2022-08-24T05:59:17Z</time></trkpt><trkpt lat="44.11031942594573" lon="145.0887326247696"><ele>217.08413644041866</ele><time>2022-08-24T05:59:35Z</time></trkpt><trkpt lat="44.11040149172432" lon="145.08848946849088"><ele>214.40847729425877</ele><time>2022-08-24T05:59:49Z</time></trkpt><trkpt lat="44.11046785958353" lon="145.08823818728666"><ele>214.46766794100404</ele><time>2022-08-24T06:00:03Z</time></trkpt></trkseg></trk></gpx>