<?xml version='1.0' encoding='UTF-8'?><gpx creator="YAMAP - https://yamap.com" xsi:schemaLocation="http://www.topografix.com/GPX/1/1 http://www.topografix.com/GPX/1/1/gpx.xsd" version="1.1" xmlns="http://www.topografix.com/GPX/1/1" xmlns:xsi="http://www.w3.org/2001/XMLSchema-instance"><metadata><bounds maxlat="35.39487301003133" maxlon="138.75202597204074" minlat="35.36646769221158" minlon="138.73149073021293"/></metadata><trk><name>経ヶ岳</name><number>1</number><trkseg><trkpt lat="35.39418423270087" lon="138.73149073021293"><ele>2307.445163777098</ele><time>2022-07-01T21:38:15Z</time></trkpt><trkpt lat="35.394214263884244" lon="138.73171084506308"><ele>2309.7855221228674</ele><time>2022-07-01T21:38:45Z</time></trkpt><trkpt lat="35.39426855145622" lon="138.7319355700362"><ele>2312.257421437651</ele><time>2022-07-01T21:39:05Z</time></trkpt><trkpt lat="35.394296452366454" lon="138.73215813018183"><ele>2312.966565258801</ele><time>2022-07-01T21:39:22Z</time></trkpt><trkpt lat="35.394316987029065" lon="138.73239135402207"><ele>2314.0488397181034</ele><time>2022-07-01T21:39:41Z</time></trkpt><trkpt lat="35.39436686975615" lon="138.73260650064702"><ele>2311.775560176</ele><time>2022-07-01T21:39:58Z</time></trkpt><trkpt lat="35.39435354005425" lon="138.73282819482768"><ele>2310.9101344151422</ele><time>2022-07-01T21:40:16Z</time></trkpt><trkpt lat="35.39453593555608" lon="138.7328756988049"><ele>2311.134668406099</ele><time>2022-07-01T21:40:58Z</time></trkpt><trkpt lat="35.39471725317705" lon="138.73294122531846"><ele>2307.4498522998765</ele><time>2022-07-01T21:41:24Z</time></trkpt><trkpt lat="35.394803993437" lon="138.73249207636223"><ele>2311.8382301526144</ele><time>2022-07-01T21:42:03Z</time></trkpt><trkpt lat="35.39486270505679" lon="138.73284244987204"><ele>2301.36091238074</ele><time>2022-07-01T21:42:19Z</time></trkpt><trkpt lat="35.394693353376276" lon="138.7327356791432"><ele>2300.0374925481156</ele><time>2022-07-01T21:43:00Z</time></trkpt><trkpt lat="35.39487301003133" lon="138.73270862602723"><ele>2299.850001647137</ele><time>2022-07-01T21:44:18Z</time></trkpt><trkpt lat="35.394776583758784" lon="138.7328962911821"><ele>2300.3399969041348</ele><time>2022-07-01T21:45:18Z</time></trkpt><trkpt lat="35.394601393718695" lon="138.73282917409298"><ele>2308.4439066331834</ele><time>2022-07-01T21:47:10Z</time></trkpt><trkpt lat="35.394458074008384" lon="138.73296597343472"><ele>2311.3508561188355</ele><time>2022-07-01T21:47:40Z</time></trkpt><trkpt lat="35.39437336896412" lon="138.73316983278366"><ele>2309.5760750696063</ele><time>2022-07-01T21:48:01Z</time></trkpt><trkpt lat="35.39421456846105" lon="138.7332790950311"><ele>2314.81568598561</ele><time>2022-07-01T21:48:21Z</time></trkpt><trkpt lat="35.39406912989815" lon="138.73341312297126"><ele>2313.901620858349</ele><time>2022-07-01T21:48:41Z</time></trkpt><trkpt lat="35.39390840550979" lon="138.73353569472798"><ele>2315.3031702246517</ele><time>2022-07-01T21:49:37Z</time></trkpt><trkpt lat="35.393747262090095" lon="138.73363563174271"><ele>2316.9990919185802</ele><time>2022-07-01T21:49:58Z</time></trkpt><trkpt lat="35.39355735144686" lon="138.73368622928598"><ele>2315.7900724941865</ele><time>2022-07-01T21:50:21Z</time></trkpt><trkpt lat="35.39338330144" lon="138.73380093307566"><ele>2322.3004610287026</ele><time>2022-07-01T21:50:40Z</time></trkpt><trkpt lat="35.39321328658778" lon="138.73390472236528"><ele>2323.1207463312894</ele><time>2022-07-01T21:50:59Z</time></trkpt><trkpt lat="35.393085336248056" lon="138.73406028788216"><ele>2322.616086659953</ele><time>2022-07-01T21:51:14Z</time></trkpt><trkpt lat="35.39294536300935" lon="138.73420948576975"><ele>2321.4277186905965</ele><time>2022-07-01T21:51:31Z</time></trkpt><trkpt lat="35.39280566519985" lon="138.73435040366107"><ele>2321.5236604381353</ele><time>2022-07-01T21:51:48Z</time></trkpt><trkpt lat="35.392640116756795" lon="138.73446740357736"><ele>2320.8298340607435</ele><time>2022-07-01T21:52:05Z</time></trkpt><trkpt lat="35.392516771996014" lon="138.73463543441287"><ele>2318.1949632680044</ele><time>2022-07-01T21:52:20Z</time></trkpt><trkpt lat="35.39246594289492" lon="138.73480996994536"><ele>2319.6197372479364</ele><time>2022-07-01T21:52:35Z</time></trkpt><trkpt lat="35.3924073954896" lon="138.73501945558485"><ele>2317.46367588453</ele><time>2022-07-01T21:52:53Z</time></trkpt><trkpt lat="35.392391775261835" lon="138.7352457366598"><ele>2315.2711500441656</ele><time>2022-07-01T21:53:09Z</time></trkpt><trkpt lat="35.39224757815041" lon="138.7353872525996"><ele>2312.9496116722003</ele><time>2022-07-01T21:53:24Z</time></trkpt><trkpt lat="35.392122530826484" lon="138.73555273580217"><ele>2311.647921648808</ele><time>2022-07-01T21:53:39Z</time></trkpt><trkpt lat="35.392031807855396" lon="138.73575322100567"><ele>2311.169859386049</ele><time>2022-07-01T21:53:55Z</time></trkpt><trkpt lat="35.39189930657262" lon="138.73592421284044"><ele>2310.1706804335117</ele><time>2022-07-01T21:54:13Z</time></trkpt><trkpt lat="35.391814649298134" lon="138.73612204851264"><ele>2310.0128878178075</ele><time>2022-07-01T21:54:30Z</time></trkpt><trkpt lat="35.391732916969815" lon="138.73632378272495"><ele>2310.3767721196637</ele><time>2022-07-01T21:54:47Z</time></trkpt><trkpt lat="35.39163433781728" lon="138.73652323080296"><ele>2311.176374208182</ele><time>2022-07-01T21:55:05Z</time></trkpt><trkpt lat="35.391552526918026" lon="138.73672124125008"><ele>2312.090704413131</ele><time>2022-07-01T21:55:22Z</time></trkpt><trkpt lat="35.39148867987747" lon="138.7369356611002"><ele>2312.056495524943</ele><time>2022-07-01T21:55:38Z</time></trkpt><trkpt lat="35.39142877953075" lon="138.73714513636295"><ele>2312.7275309367105</ele><time>2022-07-01T21:55:54Z</time></trkpt><trkpt lat="35.391368413687495" lon="138.73736858972472"><ele>2312.0298460889608</ele><time>2022-07-01T21:56:09Z</time></trkpt><trkpt lat="35.39130571356269" lon="138.73758064445647"><ele>2311.3259371975437</ele><time>2022-07-01T21:56:25Z</time></trkpt><trkpt lat="35.39124206295373" lon="138.73779374765635"><ele>2310.877770139836</ele><time>2022-07-01T21:56:40Z</time></trkpt><trkpt lat="35.391179639323596" lon="138.73801207742122"><ele>2309.3140832697973</ele><time>2022-07-01T21:56:55Z</time></trkpt><trkpt lat="35.39109782844764" lon="138.73822033027628"><ele>2307.2564532635733</ele><time>2022-07-01T21:57:12Z</time></trkpt><trkpt lat="35.39103140474803" lon="138.73843144410984"><ele>2306.3332943841815</ele><time>2022-07-01T21:57:27Z</time></trkpt><trkpt lat="35.39096210446096" lon="138.73864342761752"><ele>2305.2386625055224</ele><time>2022-07-01T21:57:41Z</time></trkpt><trkpt lat="35.3908920404857" lon="138.73884861151592"><ele>2304.401942830533</ele><time>2022-07-01T21:57:55Z</time></trkpt><trkpt lat="35.39081407071941" lon="138.73906476478564"><ele>2302.3627421855927</ele><time>2022-07-01T21:58:11Z</time></trkpt><trkpt lat="35.39074359290296" lon="138.73928616760875"><ele>2300.665265937336</ele><time>2022-07-01T21:58:26Z</time></trkpt><trkpt lat="35.390687290098974" lon="138.73950209784135"><ele>2299.6076901331544</ele><time>2022-07-01T21:58:39Z</time></trkpt><trkpt lat="35.39065574074783" lon="138.73973367624566"><ele>2297.6754867760465</ele><time>2022-07-01T21:58:53Z</time></trkpt><trkpt lat="35.3905896055697" lon="138.73994628739487"><ele>2297.1699725808576</ele><time>2022-07-01T21:59:07Z</time></trkpt><trkpt lat="35.390507210336985" lon="138.74015045133683"><ele>2295.3089066576213</ele><time>2022-07-01T21:59:22Z</time></trkpt><trkpt lat="35.3904274354388" lon="138.74035031733732"><ele>2292.6975006088614</ele><time>2022-07-01T21:59:36Z</time></trkpt><trkpt lat="35.39042440090764" lon="138.74058556017357"><ele>2291.4177318401635</ele><time>2022-07-01T21:59:50Z</time></trkpt><trkpt lat="35.3904532510102" lon="138.7408156103032"><ele>2290.3129350924864</ele><time>2022-07-01T22:00:04Z</time></trkpt><trkpt lat="35.39047641263136" lon="138.74104318006042"><ele>2289.260162943974</ele><time>2022-07-01T22:00:18Z</time></trkpt><trkpt lat="35.39038266480483" lon="138.7412372898"><ele>2287.485323241912</ele><time>2022-07-01T22:00:31Z</time></trkpt><trkpt lat="35.390343370125954" lon="138.74146592738478"><ele>2283.7731783883646</ele><time>2022-07-01T22:00:48Z</time></trkpt><trkpt lat="35.39026607645095" lon="138.74167591663635"><ele>2283.831649981439</ele><time>2022-07-01T22:01:04Z</time></trkpt><trkpt lat="35.39015079703463" lon="138.7418482633516"><ele>2285.309249463491</ele><time>2022-07-01T22:01:21Z</time></trkpt><trkpt lat="35.39000654614845" lon="138.7419803323979"><ele>2286.889411061071</ele><time>2022-07-01T22:01:39Z</time></trkpt><trkpt lat="35.3898802197081" lon="138.74214257474674"><ele>2289.962915875949</ele><time>2022-07-01T22:02:00Z</time></trkpt><trkpt lat="35.3897018930012" lon="138.7421938855554"><ele>2293.5137238856405</ele><time>2022-07-01T22:02:21Z</time></trkpt><trkpt lat="35.3895124082003" lon="138.7421993325748"><ele>2296.220134848729</ele><time>2022-07-01T22:02:38Z</time></trkpt><trkpt lat="35.389348049801605" lon="138.74229095172527"><ele>2297.4811538262293</ele><time>2022-07-01T22:02:53Z</time></trkpt><trkpt lat="35.38918757028643" lon="138.74242006281668"><ele>2299.678665147163</ele><time>2022-07-01T22:03:11Z</time></trkpt><trkpt lat="35.389006910051364" lon="138.74240652928478"><ele>2298.5254413280636</ele><time>2022-07-01T22:03:37Z</time></trkpt><trkpt lat="35.38885637947811" lon="138.7425331138403"><ele>2302.881418715231</ele><time>2022-07-01T22:03:58Z</time></trkpt><trkpt lat="35.38869078032697" lon="138.74262589389588"><ele>2304.087627004832</ele><time>2022-07-01T22:04:18Z</time></trkpt><trkpt lat="35.38852874828437" lon="138.7427329783401"><ele>2306.4347882596776</ele><time>2022-07-01T22:04:37Z</time></trkpt><trkpt lat="35.38841843121931" lon="138.74291366264464"><ele>2310.7000141479075</ele><time>2022-07-01T22:07:52Z</time></trkpt><trkpt lat="35.388254227444655" lon="138.74302744982572"><ele>2314.142823025584</ele><time>2022-07-01T22:08:17Z</time></trkpt><trkpt lat="35.388161916955674" lon="138.7432184394382"><ele>2317.6437291884795</ele><time>2022-07-01T22:08:42Z</time></trkpt><trkpt lat="35.387986876799864" lon="138.7432921979314"><ele>2321.5103628020734</ele><time>2022-07-01T22:09:10Z</time></trkpt><trkpt lat="35.387817825484035" lon="138.74339436812545"><ele>2323.904327002354</ele><time>2022-07-01T22:09:37Z</time></trkpt><trkpt lat="35.387686175879196" lon="138.7435478797434"><ele>2326.6343286680058</ele><time>2022-07-01T22:10:08Z</time></trkpt><trkpt lat="35.387553918529186" lon="138.74370709507946"><ele>2331.726824053563</ele><time>2022-07-01T22:10:37Z</time></trkpt><trkpt lat="35.387390600330825" lon="138.74380922750396"><ele>2335.04244899936</ele><time>2022-07-01T22:11:04Z</time></trkpt><trkpt lat="35.3872219907174" lon="138.74389201861916"><ele>2339.67584894225</ele><time>2022-07-01T22:11:29Z</time></trkpt><trkpt lat="35.38706515266669" lon="138.7440193253775"><ele>2341.8811706528068</ele><time>2022-07-01T22:11:53Z</time></trkpt><trkpt lat="35.386909626978024" lon="138.74414271181223"><ele>2345.5883478960022</ele><time>2022-07-01T22:12:17Z</time></trkpt><trkpt lat="35.38677885163407" lon="138.74430851627613"><ele>2347.9437805712223</ele><time>2022-07-01T22:12:42Z</time></trkpt><trkpt lat="35.38664277814928" lon="138.74446740796256"><ele>2350.8820382794365</ele><time>2022-07-01T22:13:06Z</time></trkpt><trkpt lat="35.38650080388103" lon="138.74462103737702"><ele>2354.4471937045455</ele><time>2022-07-01T22:13:30Z</time></trkpt><trkpt lat="35.38634427668399" lon="138.74473165523395"><ele>2358.7960850475356</ele><time>2022-07-01T22:13:53Z</time></trkpt><trkpt lat="35.386197237992306" lon="138.7448591028794"><ele>2360.5066380528733</ele><time>2022-07-01T22:14:16Z</time></trkpt><trkpt lat="35.386058425093324" lon="138.74501277739628"><ele>2364.1337780896574</ele><time>2022-07-01T22:14:34Z</time></trkpt><trkpt lat="35.38607461198832" lon="138.74523973571402"><ele>2365.7442577378824</ele><time>2022-07-01T22:14:56Z</time></trkpt><trkpt lat="35.3860094424672" lon="138.7454492275549"><ele>2369.867647732608</ele><time>2022-07-01T22:15:19Z</time></trkpt><trkpt lat="35.38593140187471" lon="138.74564981009257"><ele>2375.673318983987</ele><time>2022-07-01T22:15:52Z</time></trkpt><trkpt lat="35.38579771403581" lon="138.74583364855837"><ele>2383.2548499526456</ele><time>2022-07-01T22:16:26Z</time></trkpt><trkpt lat="35.38571846232688" lon="138.74604081392008"><ele>2386.1965795317665</ele><time>2022-07-01T22:16:53Z</time></trkpt><trkpt lat="35.385684484560194" lon="138.7462688931201"><ele>2386.8991685975343</ele><time>2022-07-01T22:17:15Z</time></trkpt><trkpt lat="35.38568359540589" lon="138.74649398695033"><ele>2390.6562282154337</ele><time>2022-07-01T22:17:34Z</time></trkpt><trkpt lat="35.385604941449664" lon="138.74669254327884"><ele>2392.965283255093</ele><time>2022-07-01T22:17:59Z</time></trkpt><trkpt lat="35.38552048705415" lon="138.74689205608942"><ele>2399.206934642978</ele><time>2022-07-01T22:18:24Z</time></trkpt><trkpt lat="35.38540244740447" lon="138.7470596760634"><ele>2401.763632180169</ele><time>2022-07-01T22:18:46Z</time></trkpt><trkpt lat="35.385356337992455" lon="138.7472750923771"><ele>2401.5713825644925</ele><time>2022-07-01T22:19:08Z</time></trkpt><trkpt lat="35.385292917138166" lon="138.74748497619615"><ele>2401.2491522319615</ele><time>2022-07-01T22:19:30Z</time></trkpt><trkpt lat="35.38512046523371" lon="138.7475596653199"><ele>2400.6598109789193</ele><time>2022-07-01T22:21:02Z</time></trkpt><trkpt lat="35.38501367657044" lon="138.74737680232465"><ele>2405.46146864444</ele><time>2022-07-01T22:21:39Z</time></trkpt><trkpt lat="35.384936835364016" lon="138.7471713709598"><ele>2412.8343860609457</ele><time>2022-07-01T22:22:24Z</time></trkpt><trkpt lat="35.38484774707509" lon="138.74697462228892"><ele>2418.793404017575</ele><time>2022-07-01T22:23:00Z</time></trkpt><trkpt lat="35.384688996370286" lon="138.7470789642101"><ele>2427.647528820671</ele><time>2022-07-01T22:23:47Z</time></trkpt><trkpt lat="35.3845867253135" lon="138.7468940865283"><ele>2432.833901652135</ele><time>2022-07-01T22:24:34Z</time></trkpt><trkpt lat="35.38445128466443" lon="138.74704706332935"><ele>2443.360947046429</ele><time>2022-07-01T22:25:20Z</time></trkpt><trkpt lat="35.38434756952718" lon="138.74723476206438"><ele>2442.592104327865</ele><time>2022-07-01T22:25:45Z</time></trkpt><trkpt lat="35.38417002789571" lon="138.7471957477164"><ele>2445.571261591278</ele><time>2022-07-01T22:27:41Z</time></trkpt><trkpt lat="35.38398567291653" lon="138.74721673972118"><ele>2451.3053829614073</ele><time>2022-07-01T22:28:17Z</time></trkpt><trkpt lat="35.38379931326376" lon="138.74723980358445"><ele>2455.5357402767986</ele><time>2022-07-01T22:28:51Z</time></trkpt><trkpt lat="35.38361655600958" lon="138.7472545741132"><ele>2459.78445040714</ele><time>2022-07-01T22:29:18Z</time></trkpt><trkpt lat="35.38342751394555" lon="138.74727406110568"><ele>2464.105708620511</ele><time>2022-07-01T22:29:46Z</time></trkpt><trkpt lat="35.38324487449502" lon="138.7472943276779"><ele>2468.5886192778125</ele><time>2022-07-01T22:30:14Z</time></trkpt><trkpt lat="35.383060457656846" lon="138.74730374123345"><ele>2473.4698791708797</ele><time>2022-07-01T22:30:43Z</time></trkpt><trkpt lat="35.383052269074625" lon="138.74708257586624"><ele>2477.517135848291</ele><time>2022-07-01T22:32:25Z</time></trkpt><trkpt lat="35.38312140740408" lon="138.74687449886784"><ele>2482.880507708527</ele><time>2022-07-01T22:33:40Z</time></trkpt><trkpt lat="35.382933856820834" lon="138.74686798903318"><ele>2489.2675496274605</ele><time>2022-07-01T22:34:30Z</time></trkpt><trkpt lat="35.382752171305576" lon="138.74692160404058"><ele>2493.0941497134045</ele><time>2022-07-01T22:35:04Z</time></trkpt><trkpt lat="35.38271376525094" lon="138.74670341827286"><ele>2497.9178379355</ele><time>2022-07-01T22:35:45Z</time></trkpt><trkpt lat="35.38273917301344" lon="138.74648363111532"><ele>2503.5197070697322</ele><time>2022-07-01T22:36:18Z</time></trkpt><trkpt lat="35.382573603552125" lon="138.74657984239062"><ele>2511.301841367036</ele><time>2022-07-01T22:37:07Z</time></trkpt><trkpt lat="35.38242984208265" lon="138.7467250992515"><ele>2515.0430595837533</ele><time>2022-07-01T22:37:39Z</time></trkpt><trkpt lat="35.38227218374309" lon="138.74683551148442"><ele>2517.9740093480796</ele><time>2022-07-01T22:38:17Z</time></trkpt><trkpt lat="35.38209400248156" lon="138.74688755551168"><ele>2523.5515422848985</ele><time>2022-07-01T22:38:56Z</time></trkpt><trkpt lat="35.38191076801329" lon="138.7469173543827"><ele>2528.837685362436</ele><time>2022-07-01T22:39:34Z</time></trkpt><trkpt lat="35.381945697582424" lon="138.7467000721805"><ele>2536.3086014976725</ele><time>2022-07-01T22:41:06Z</time></trkpt><trkpt lat="35.38175944204102" lon="138.74669684859015"><ele>2542.672112638131</ele><time>2022-07-01T22:41:57Z</time></trkpt><trkpt lat="35.38168733740925" lon="138.74649313443132"><ele>2549.641838652082</ele><time>2022-07-01T22:42:59Z</time></trkpt><trkpt lat="35.38171919877063" lon="138.74627209479232"><ele>2554.402270304039</ele><time>2022-07-01T22:43:37Z</time></trkpt><trkpt lat="35.381550027214985" lon="138.74634903984227"><ele>2563.0263241855428</ele><time>2022-07-01T22:44:20Z</time></trkpt><trkpt lat="35.38137144014775" lon="138.7464134608263"><ele>2565.269404126331</ele><time>2022-07-01T22:45:51Z</time></trkpt><trkpt lat="35.381389195912696" lon="138.7461877153514"><ele>2569.555498772301</ele><time>2022-07-01T22:46:30Z</time></trkpt><trkpt lat="35.38142828464313" lon="138.74596221370052"><ele>2575.035229812376</ele><time>2022-07-01T22:47:12Z</time></trkpt><trkpt lat="35.38124765382432" lon="138.74597849826165"><ele>2580.96716658026</ele><time>2022-07-01T22:48:05Z</time></trkpt><trkpt lat="35.3810709909372" lon="138.7460516223533"><ele>2585.387226343155</ele><time>2022-07-01T22:48:44Z</time></trkpt><trkpt lat="35.38092268352213" lon="138.74608487005102"><ele>2589.2025589551777</ele><time>2022-07-01T22:56:20Z</time></trkpt><trkpt lat="35.38100710864198" lon="138.74588981699372"><ele>2591.173241094686</ele><time>2022-07-01T23:00:30Z</time></trkpt><trkpt lat="35.38107613535698" lon="138.7456804705034"><ele>2595.797096923925</ele><time>2022-07-01T23:00:59Z</time></trkpt><trkpt lat="35.380928145362" lon="138.74555309492314"><ele>2606.8573388103396</ele><time>2022-07-01T23:02:20Z</time></trkpt><trkpt lat="35.38073836570622" lon="138.7455811378288"><ele>2610.5542546594515</ele><time>2022-07-01T23:03:04Z</time></trkpt><trkpt lat="35.38070727594552" lon="138.74535840275212"><ele>2616.3308574007824</ele><time>2022-07-01T23:05:57Z</time></trkpt><trkpt lat="35.380555735797145" lon="138.74523804778477"><ele>2625.016490433365</ele><time>2022-07-01T23:07:06Z</time></trkpt><trkpt lat="35.38036580951542" lon="138.7452177223795"><ele>2629.0515068126842</ele><time>2022-07-01T23:07:40Z</time></trkpt><trkpt lat="35.38019248778091" lon="138.7453012622918"><ele>2633.2969273170456</ele><time>2022-07-01T23:08:11Z</time></trkpt><trkpt lat="35.380209029112315" lon="138.7450804803575"><ele>2637.6139041809365</ele><time>2022-07-01T23:09:02Z</time></trkpt><trkpt lat="35.38003440810447" lon="138.74514249589464"><ele>2643.2452321816236</ele><time>2022-07-01T23:09:48Z</time></trkpt><trkpt lat="35.37990904864527" lon="138.7449830296332"><ele>2657.7416908871382</ele><time>2022-07-01T23:11:03Z</time></trkpt><trkpt lat="35.37973164653619" lon="138.7449324062463"><ele>2660.439294672571</ele><time>2022-07-01T23:11:51Z</time></trkpt><trkpt lat="35.379836153855834" lon="138.74475149401198"><ele>2663.514421620406</ele><time>2022-07-01T23:12:21Z</time></trkpt><trkpt lat="35.37966300049896" lon="138.74468927863708"><ele>2669.8870409289375</ele><time>2022-07-01T23:13:22Z</time></trkpt><trkpt lat="35.37959181160048" lon="138.74448223592722"><ele>2678.3514656554908</ele><time>2022-07-01T23:15:06Z</time></trkpt><trkpt lat="35.37964127023682" lon="138.74426701067287"><ele>2681.3928086105734</ele><time>2022-07-01T23:15:44Z</time></trkpt><trkpt lat="35.379471195276125" lon="138.7443496534443"><ele>2689.123421465978</ele><time>2022-07-01T23:16:19Z</time></trkpt><trkpt lat="35.37929566994072" lon="138.74428667344247"><ele>2692.9223744878545</ele><time>2022-07-01T23:17:12Z</time></trkpt><trkpt lat="35.37911207249697" lon="138.74432138157368"><ele>2697.5505360942334</ele><time>2022-07-01T23:17:56Z</time></trkpt><trkpt lat="35.37901268026822" lon="138.74451357574821"><ele>2704.461480733007</ele><time>2022-07-01T23:25:16Z</time></trkpt><trkpt lat="35.378856273850396" lon="138.7446273967379"><ele>2702.6818663533777</ele><time>2022-07-01T23:25:40Z</time></trkpt><trkpt lat="35.37867697606607" lon="138.74458728292288"><ele>2706.550424542278</ele><time>2022-07-01T23:26:50Z</time></trkpt><trkpt lat="35.37874280180747" lon="138.74437001784293"><ele>2719.1431555543095</ele><time>2022-07-01T23:28:23Z</time></trkpt><trkpt lat="35.37886551598531" lon="138.74420226124712"><ele>2719.0457634218037</ele><time>2022-07-01T23:28:49Z</time></trkpt><trkpt lat="35.378758013011144" lon="138.744015847486"><ele>2719.261097746901</ele><time>2022-07-01T23:32:49Z</time></trkpt><trkpt lat="35.378574171022535" lon="138.74404318985546"><ele>2730.7207404840738</ele><time>2022-07-01T23:34:15Z</time></trkpt><trkpt lat="35.37839001183704" lon="138.74406235962456"><ele>2741.4200863027945</ele><time>2022-07-01T23:35:55Z</time></trkpt><trkpt lat="35.37842709848532" lon="138.7438469457651"><ele>2745.4365438017994</ele><time>2022-07-01T23:36:41Z</time></trkpt><trkpt lat="35.37834490667152" lon="138.74365108046817"><ele>2752.2272738730535</ele><time>2022-07-01T23:37:56Z</time></trkpt><trkpt lat="35.37816680265127" lon="138.7435982396554"><ele>2761.993069461547</ele><time>2022-07-01T23:39:40Z</time></trkpt><trkpt lat="35.378005670578204" lon="138.74371631853995"><ele>2770.5733644170687</ele><time>2022-07-01T23:41:54Z</time></trkpt><trkpt lat="35.37783270441909" lon="138.7438038948021"><ele>2777.217320313677</ele><time>2022-07-01T23:42:49Z</time></trkpt><trkpt lat="35.37766379292398" lon="138.74371688163544"><ele>2784.7841772902757</ele><time>2022-07-01T23:44:22Z</time></trkpt><trkpt lat="35.37776071445328" lon="138.7435235494267"><ele>2793.2489707367495</ele><time>2022-07-01T23:45:16Z</time></trkpt><trkpt lat="35.377590064579366" lon="138.74345259807438"><ele>2802.874674713239</ele><time>2022-07-01T23:46:39Z</time></trkpt><trkpt lat="35.37741151505153" lon="138.74349107295387"><ele>2806.893775263801</ele><time>2022-07-01T23:47:52Z</time></trkpt><trkpt lat="35.377427237468346" lon="138.74326727169696"><ele>2818.2295949691907</ele><time>2022-07-01T23:49:51Z</time></trkpt><trkpt lat="35.377460122530394" lon="138.74304399647153"><ele>2820.908962131478</ele><time>2022-07-01T23:50:31Z</time></trkpt><trkpt lat="35.377284325164005" lon="138.74299295690474"><ele>2830.819209610112</ele><time>2022-07-01T23:51:53Z</time></trkpt><trkpt lat="35.37710197020641" lon="138.74300853545037"><ele>2842.8250219514593</ele><time>2022-07-01T23:54:07Z</time></trkpt><trkpt lat="35.37697574098568" lon="138.74284372155654"><ele>2854.170327595435</ele><time>2022-07-01T23:55:49Z</time></trkpt><trkpt lat="35.376794933962564" lon="138.7428058953505"><ele>2868.0858523743227</ele><time>2022-07-01T23:57:30Z</time></trkpt><trkpt lat="35.376629519604776" lon="138.74289693933312"><ele>2872.2427114155143</ele><time>2022-07-01T23:58:21Z</time></trkpt><trkpt lat="35.37645657300628" lon="138.7428239062325"><ele>2876.044705811888</ele><time>2022-07-02T00:03:33Z</time></trkpt><trkpt lat="35.37627731619269" lon="138.74277398255717"><ele>2890.331233743578</ele><time>2022-07-02T00:05:44Z</time></trkpt><trkpt lat="35.376097135019585" lon="138.74278926350996"><ele>2900.634649740532</ele><time>2022-07-02T00:07:24Z</time></trkpt><trkpt lat="35.3759343812477" lon="138.7429002007754"><ele>2909.985804167576</ele><time>2022-07-02T00:08:39Z</time></trkpt><trkpt lat="35.37579809655845" lon="138.74305440125"><ele>2911.6332582831383</ele><time>2022-07-02T00:09:09Z</time></trkpt><trkpt lat="35.37563607618647" lon="138.74295635847417"><ele>2921.0434039011598</ele><time>2022-07-02T00:19:30Z</time></trkpt><trkpt lat="35.375466497064835" lon="138.74287608712228"><ele>2927.244522269815</ele><time>2022-07-02T00:21:00Z</time></trkpt><trkpt lat="35.3752934081156" lon="138.7429437022272"><ele>2933.3945480659604</ele><time>2022-07-02T00:21:52Z</time></trkpt><trkpt lat="35.37511186603437" lon="138.74294229243432"><ele>2944.8145788246766</ele><time>2022-07-02T00:23:13Z</time></trkpt><trkpt lat="35.37511099592076" lon="138.74272209615202"><ele>2952.4653885075822</ele><time>2022-07-02T00:24:30Z</time></trkpt><trkpt lat="35.37500904756243" lon="138.74254055257802"><ele>2962.9375109691173</ele><time>2022-07-02T00:26:42Z</time></trkpt><trkpt lat="35.37486107252381" lon="138.74241380348857"><ele>2970.659054157324</ele><time>2022-07-02T00:28:06Z</time></trkpt><trkpt lat="35.374684195412875" lon="138.742457084498"><ele>2978.4409643122926</ele><time>2022-07-02T00:29:30Z</time></trkpt><trkpt lat="35.37452538955327" lon="138.74234742467314"><ele>2987.3675619913265</ele><time>2022-07-02T00:30:31Z</time></trkpt><trkpt lat="35.37446768170794" lon="138.74213900222148"><ele>3000.246706693433</ele><time>2022-07-02T00:31:58Z</time></trkpt><trkpt lat="35.3743558049025" lon="138.74196444389523"><ele>3007.09176322259</ele><time>2022-07-02T00:34:11Z</time></trkpt><trkpt lat="35.37428351781121" lon="138.74176164402482"><ele>3020.1873307675123</ele><time>2022-07-02T00:35:46Z</time></trkpt><trkpt lat="35.374240101566876" lon="138.74154715914938"><ele>3028.622435165569</ele><time>2022-07-02T00:37:55Z</time></trkpt><trkpt lat="35.374084400444154" lon="138.7414338256967"><ele>3040.5318449335173</ele><time>2022-07-02T00:40:40Z</time></trkpt><trkpt lat="35.37394046194521" lon="138.741573012523"><ele>3042.202272533439</ele><time>2022-07-02T00:55:19Z</time></trkpt><trkpt lat="35.373814927896674" lon="138.74141513572"><ele>3046.6917475508526</ele><time>2022-07-02T00:56:06Z</time></trkpt><trkpt lat="35.37380009113944" lon="138.7411928850856"><ele>3058.3599863797426</ele><time>2022-07-02T00:57:47Z</time></trkpt><trkpt lat="35.373678978859296" lon="138.74102951005483"><ele>3068.318973348476</ele><time>2022-07-02T00:59:38Z</time></trkpt><trkpt lat="35.373499315116966" lon="138.74100239534576"><ele>3077.1134454840794</ele><time>2022-07-02T01:01:20Z</time></trkpt><trkpt lat="35.37334245398446" lon="138.741116843805"><ele>3081.391661577858</ele><time>2022-07-02T01:02:12Z</time></trkpt><trkpt lat="35.37316104242279" lon="138.74114826809577"><ele>3084.1216356931254</ele><time>2022-07-02T01:04:24Z</time></trkpt><trkpt lat="35.37300132991189" lon="138.74103702454957"><ele>3097.1718919230625</ele><time>2022-07-02T01:06:05Z</time></trkpt><trkpt lat="35.37288526959803" lon="138.74086419526347"><ele>3105.1480801561847</ele><time>2022-07-02T01:07:39Z</time></trkpt><trkpt lat="35.37291264874531" lon="138.74063816880926"><ele>3106.5933177080005</ele><time>2022-07-02T01:08:26Z</time></trkpt><trkpt lat="35.37291528829934" lon="138.74041356473703"><ele>3114.9353944920003</ele><time>2022-07-02T01:09:24Z</time></trkpt><trkpt lat="35.372880605065795" lon="138.74018829633692"><ele>3119.871721816249</ele><time>2022-07-02T01:10:22Z</time></trkpt><trkpt lat="35.37270303848242" lon="138.7402317861761"><ele>3131.1179618276656</ele><time>2022-07-02T01:12:04Z</time></trkpt><trkpt lat="35.37254780321948" lon="138.7403481321567"><ele>3135.8532041888684</ele><time>2022-07-02T01:13:08Z</time></trkpt><trkpt lat="35.37244077274962" lon="138.7401664066663"><ele>3144.120337589644</ele><time>2022-07-02T01:14:35Z</time></trkpt><trkpt lat="35.3724442872341" lon="138.7399173603428"><ele>3145.277410276234</ele><time>2022-07-02T01:15:27Z</time></trkpt><trkpt lat="35.37232123694833" lon="138.7400819262117"><ele>3154.252861795947</ele><time>2022-07-02T01:16:55Z</time></trkpt><trkpt lat="35.37214803448825" lon="138.74001193101242"><ele>3161.555317494087</ele><time>2022-07-02T01:18:42Z</time></trkpt><trkpt lat="35.37215484644988" lon="138.73978120749126"><ele>3164.5246976166964</ele><time>2022-07-02T01:19:39Z</time></trkpt><trkpt lat="35.372006850872936" lon="138.73990887853074"><ele>3173.6272369045764</ele><time>2022-07-02T01:20:34Z</time></trkpt><trkpt lat="35.37183802232517" lon="138.73982763766583"><ele>3183.0504674697295</ele><time>2022-07-02T01:22:25Z</time></trkpt><trkpt lat="35.37167583979706" lon="138.73993494295846"><ele>3190.5621449369937</ele><time>2022-07-02T01:23:18Z</time></trkpt><trkpt lat="35.37160985227752" lon="138.73972718367312"><ele>3206.582535497844</ele><time>2022-07-02T01:25:33Z</time></trkpt><trkpt lat="35.37163725591208" lon="138.7396722647781"><ele>3210.20850850828</ele><time>2022-07-02T01:32:48Z</time></trkpt><trkpt lat="35.37167465072776" lon="138.73969728920454"><ele>3205.093422697857</ele><time>2022-07-02T01:41:27Z</time></trkpt><trkpt lat="35.37167504642727" lon="138.7394720835436"><ele>3204.9692690744996</ele><time>2022-07-02T01:44:55Z</time></trkpt><trkpt lat="35.37162035685202" lon="138.73925817454355"><ele>3205.080260050483</ele><time>2022-07-02T01:45:29Z</time></trkpt><trkpt lat="35.37154790591734" lon="138.7390533635667"><ele>3212.150892966427</ele><time>2022-07-02T01:46:09Z</time></trkpt><trkpt lat="35.371370290985254" lon="138.73911229758002"><ele>3224.682465837337</ele><time>2022-07-02T01:47:48Z</time></trkpt><trkpt lat="35.37129571681937" lon="138.73890840142374"><ele>3230.3668454345316</ele><time>2022-07-02T01:48:48Z</time></trkpt><trkpt lat="35.37125857652953" lon="138.7386890501586"><ele>3236.5962762758136</ele><time>2022-07-02T01:49:28Z</time></trkpt><trkpt lat="35.371133828657804" lon="138.73886447390848"><ele>3243.455793535337</ele><time>2022-07-02T01:50:28Z</time></trkpt><trkpt lat="35.371089382951325" lon="138.73907859171035"><ele>3251.539707195945</ele><time>2022-07-02T01:51:29Z</time></trkpt><trkpt lat="35.37103460098442" lon="138.73928902345932"><ele>3252.4353706566617</ele><time>2022-07-02T01:51:59Z</time></trkpt><trkpt lat="35.3708543461449" lon="138.73928265788666"><ele>3254.714403326623</ele><time>2022-07-02T01:53:02Z</time></trkpt><trkpt lat="35.370690945185146" lon="138.73939397621965"><ele>3263.000554561615</ele><time>2022-07-02T01:54:03Z</time></trkpt><trkpt lat="35.370642221114146" lon="138.7391777031308"><ele>3266.9541113022715</ele><time>2022-07-02T01:55:03Z</time></trkpt><trkpt lat="35.37062348870529" lon="138.73895789700973"><ele>3272.209008971229</ele><time>2022-07-02T01:55:50Z</time></trkpt><trkpt lat="35.37048057860905" lon="138.7390966729018"><ele>3277.662173348479</ele><time>2022-07-02T01:56:35Z</time></trkpt><trkpt lat="35.370302613585125" lon="138.73904457672413"><ele>3291.392591076903</ele><time>2022-07-02T02:05:38Z</time></trkpt><trkpt lat="35.37014776462838" lon="138.7391610511818"><ele>3297.486516606994</ele><time>2022-07-02T02:06:27Z</time></trkpt><trkpt lat="35.37003186294273" lon="138.73898442419934"><ele>3308.01797827892</ele><time>2022-07-02T02:07:58Z</time></trkpt><trkpt lat="35.37000970208323" lon="138.73876551840766"><ele>3314.5464386204258</ele><time>2022-07-02T02:08:51Z</time></trkpt><trkpt lat="35.369828632727696" lon="138.7387537915183"><ele>3323.859390515834</ele><time>2022-07-02T02:17:13Z</time></trkpt><trkpt lat="35.369719766593676" lon="138.73857338716076"><ele>3336.366071960889</ele><time>2022-07-02T02:18:52Z</time></trkpt><trkpt lat="35.369535569806054" lon="138.73859773049566"><ele>3343.4584074430168</ele><time>2022-07-02T02:20:00Z</time></trkpt><trkpt lat="35.36939505311261" lon="138.73874064065262"><ele>3349.5950871612877</ele><time>2022-07-02T02:21:06Z</time></trkpt><trkpt lat="35.369366933103194" lon="138.73896179435465"><ele>3356.915264601819</ele><time>2022-07-02T02:21:48Z</time></trkpt><trkpt lat="35.3693474211859" lon="138.73899276155183"><ele>3360.0942788524553</ele><time>2022-07-02T02:28:52Z</time></trkpt><trkpt lat="35.36922296728468" lon="138.7391569528815"><ele>3362.526100351475</ele><time>2022-07-02T02:40:21Z</time></trkpt><trkpt lat="35.369224538956296" lon="138.73893351543202"><ele>3367.2942006131634</ele><time>2022-07-02T02:41:21Z</time></trkpt><trkpt lat="35.36904580573533" lon="138.7389621428815"><ele>3373.4578072428703</ele><time>2022-07-02T02:42:45Z</time></trkpt><trkpt lat="35.368926221086596" lon="138.73879695191832"><ele>3380.5252067111433</ele><time>2022-07-02T02:43:29Z</time></trkpt><trkpt lat="35.36884204573828" lon="138.7385999011512"><ele>3388.3312223311514</ele><time>2022-07-02T02:44:54Z</time></trkpt><trkpt lat="35.36873986119993" lon="138.7384148344921"><ele>3399.5790310567245</ele><time>2022-07-02T02:46:23Z</time></trkpt><trkpt lat="35.36870662101815" lon="138.73819844586717"><ele>3407.5502778189257</ele><time>2022-07-02T02:48:02Z</time></trkpt><trkpt lat="35.36852638472696" lon="138.73818071000812"><ele>3413.975846549496</ele><time>2022-07-02T02:48:52Z</time></trkpt><trkpt lat="35.36836756370587" lon="138.7380683922757"><ele>3420.0444420194253</ele><time>2022-07-02T02:49:37Z</time></trkpt><trkpt lat="35.36821296431693" lon="138.73795463751307"><ele>3425.0442891018465</ele><time>2022-07-02T02:50:26Z</time></trkpt><trkpt lat="35.36837205110516" lon="138.7378484436178"><ele>3429.8030612720177</ele><time>2022-07-02T02:51:16Z</time></trkpt><trkpt lat="35.36826656179975" lon="138.7376690014185"><ele>3440.1087048845366</ele><time>2022-07-02T02:52:46Z</time></trkpt><trkpt lat="35.36836194026213" lon="138.73747879069685"><ele>3446.9219543458894</ele><time>2022-07-02T02:53:49Z</time></trkpt><trkpt lat="35.36817830818469" lon="138.73746307178075"><ele>3456.932221112773</ele><time>2022-07-02T02:54:57Z</time></trkpt><trkpt lat="35.36811361747306" lon="138.73744659883397"><ele>3458.8626992767677</ele><time>2022-07-02T02:59:10Z</time></trkpt><trkpt lat="35.367932137378396" lon="138.73742900488085"><ele>3457.6725055295974</ele><time>2022-07-02T03:02:16Z</time></trkpt><trkpt lat="35.36775874783154" lon="138.7373512935035"><ele>3459.676725759171</ele><time>2022-07-02T03:02:51Z</time></trkpt><trkpt lat="35.36788691960094" lon="138.73718909453973"><ele>3467.3378184540197</ele><time>2022-07-02T03:04:16Z</time></trkpt><trkpt lat="35.36803954454294" lon="138.7370667783534"><ele>3471.0136403972283</ele><time>2022-07-02T03:05:32Z</time></trkpt><trkpt lat="35.367862510984644" lon="138.73701321490847"><ele>3478.9086591750383</ele><time>2022-07-02T03:06:14Z</time></trkpt><trkpt lat="35.36801204353078" lon="138.73688025359317"><ele>3480.8202051166445</ele><time>2022-07-02T03:07:26Z</time></trkpt><trkpt lat="35.36784047348809" lon="138.7368064024147"><ele>3487.7489345259964</ele><time>2022-07-02T03:09:51Z</time></trkpt><trkpt lat="35.36780406539981" lon="138.7365893749454"><ele>3496.3681834200397</ele><time>2022-07-02T03:11:40Z</time></trkpt><trkpt lat="35.36763488205054" lon="138.73651162166863"><ele>3503.4118009880185</ele><time>2022-07-02T03:15:13Z</time></trkpt><trkpt lat="35.367593821674944" lon="138.73629569298149"><ele>3513.828173553571</ele><time>2022-07-02T03:16:55Z</time></trkpt><trkpt lat="35.36749582415395" lon="138.7361098488611"><ele>3522.985329187475</ele><time>2022-07-02T03:18:51Z</time></trkpt><trkpt lat="35.36731942414983" lon="138.73606175766017"><ele>3531.6336987391114</ele><time>2022-07-02T03:24:20Z</time></trkpt><trkpt lat="35.367236510761145" lon="138.7359228321006"><ele>3533.3830270282924</ele><time>2022-07-02T03:25:19Z</time></trkpt><trkpt lat="35.367101619784" lon="138.73577383840325"><ele>3545.086404786445</ele><time>2022-07-02T03:27:19Z</time></trkpt><trkpt lat="35.36721388124238" lon="138.735594448729"><ele>3548.4110117591918</ele><time>2022-07-02T03:28:55Z</time></trkpt><trkpt lat="35.367031310707276" lon="138.73557232417426"><ele>3557.8101768363267</ele><time>2022-07-02T03:30:06Z</time></trkpt><trkpt lat="35.36710795006702" lon="138.73537289419403"><ele>3559.4759054081514</ele><time>2022-07-02T03:30:53Z</time></trkpt><trkpt lat="35.36692909058105" lon="138.7353389311757"><ele>3569.185805457644</ele><time>2022-07-02T03:32:08Z</time></trkpt><trkpt lat="35.36703890872151" lon="138.73515127458788"><ele>3573.636062771082</ele><time>2022-07-02T03:34:59Z</time></trkpt><trkpt lat="35.36685897718977" lon="138.73513457620675"><ele>3582.611870540306</ele><time>2022-07-02T03:36:23Z</time></trkpt><trkpt lat="35.36686748148527" lon="138.7349085803687"><ele>3588.8763823425397</ele><time>2022-07-02T03:37:38Z</time></trkpt><trkpt lat="35.366688795016465" lon="138.73487598910557"><ele>3596.479980723001</ele><time>2022-07-02T03:39:57Z</time></trkpt><trkpt lat="35.36671277041509" lon="138.73465689958954"><ele>3608.384915161878</ele><time>2022-07-02T03:41:31Z</time></trkpt><trkpt lat="35.366527243530136" lon="138.73463718069036"><ele>3614.0834272569045</ele><time>2022-07-02T03:49:03Z</time></trkpt><trkpt lat="35.366546621326194" lon="138.7344164627971"><ele>3619.205472580157</ele><time>2022-07-02T03:51:05Z</time></trkpt><trkpt lat="35.36656130275446" lon="138.73438530061236"><ele>3621.1785926232114</ele><time>2022-07-02T04:13:23Z</time></trkpt><trkpt lat="35.36646769221158" lon="138.73457978535822"><ele>3617.658702507615</ele><time>2022-07-02T04:16:25Z</time></trkpt><trkpt lat="35.36663830447" lon="138.73466042634277"><ele>3606.455615773797</ele><time>2022-07-02T04:17:22Z</time></trkpt><trkpt lat="35.366680156016535" lon="138.73487707892673"><ele>3595.8251344701275</ele><time>2022-07-02T04:18:24Z</time></trkpt><trkpt lat="35.36686216575792" lon="138.73488810711734"><ele>3587.862587472424</ele><time>2022-07-02T04:19:06Z</time></trkpt><trkpt lat="35.366823223725405" lon="138.73510785298583"><ele>3584.2983443317935</ele><time>2022-07-02T04:19:49Z</time></trkpt><trkpt lat="35.36700275283214" lon="138.73513235900145"><ele>3578.0680261552334</ele><time>2022-07-02T04:20:26Z</time></trkpt><trkpt lat="35.36708854416631" lon="138.73532875728569"><ele>3564.1533673284575</ele><time>2022-07-02T04:22:46Z</time></trkpt><trkpt lat="35.367044351659324" lon="138.73554366368813"><ele>3557.9833764238283</ele><time>2022-07-02T04:23:40Z</time></trkpt><trkpt lat="35.36722931252777" lon="138.73554574862567"><ele>3553.1647533858195</ele><time>2022-07-02T04:24:18Z</time></trkpt><trkpt lat="35.36712220028747" lon="138.73573184602986"><ele>3544.63374081254</ele><time>2022-07-02T04:24:40Z</time></trkpt><trkpt lat="35.367300351355304" lon="138.73577353448945"><ele>3539.679622961208</ele><time>2022-07-02T04:25:17Z</time></trkpt><trkpt lat="35.36721765474505" lon="138.7359738131108"><ele>3534.371808978729</ele><time>2022-07-02T04:25:55Z</time></trkpt><trkpt lat="35.367388938293786" lon="138.73606171355868"><ele>3526.3275004839525</ele><time>2022-07-02T04:26:23Z</time></trkpt><trkpt lat="35.367499394156454" lon="138.73624078275634"><ele>3518.019325869158</ele><time>2022-07-02T04:27:15Z</time></trkpt><trkpt lat="35.367578748170516" lon="138.73644449976064"><ele>3509.248149103485</ele><time>2022-07-02T04:28:24Z</time></trkpt><trkpt lat="35.367741071921124" lon="138.73654752139564"><ele>3500.2551840739325</ele><time>2022-07-02T04:28:55Z</time></trkpt><trkpt lat="35.367741376250756" lon="138.7367710253007"><ele>3492.3485660348088</ele><time>2022-07-02T04:29:43Z</time></trkpt><trkpt lat="35.367922210898456" lon="138.7367915916088"><ele>3483.7777245733887</ele><time>2022-07-02T04:30:25Z</time></trkpt><trkpt lat="35.36790791664751" lon="138.73701919452813"><ele>3477.3764169765636</ele><time>2022-07-02T04:31:40Z</time></trkpt><trkpt lat="35.36782984982236" lon="138.73722058888058"><ele>3467.1619273880497</ele><time>2022-07-02T04:32:52Z</time></trkpt><trkpt lat="35.367924257208074" lon="138.73741933691764"><ele>3459.5044440478086</ele><time>2022-07-02T04:34:11Z</time></trkpt><trkpt lat="35.36810770293593" lon="138.73744520883957"><ele>3460.509526718408</ele><time>2022-07-02T04:34:52Z</time></trkpt><trkpt lat="35.36792163570333" lon="138.73743951642692"><ele>3459.3361682398245</ele><time>2022-07-02T04:36:51Z</time></trkpt><trkpt lat="35.36775791191182" lon="138.73734414374906"><ele>3462.684071267955</ele><time>2022-07-02T04:37:22Z</time></trkpt><trkpt lat="35.367591201864826" lon="138.73743079326883"><ele>3458.7040672879666</ele><time>2022-07-02T04:37:59Z</time></trkpt><trkpt lat="35.367441217472894" lon="138.73755566684673"><ele>3454.0319266989827</ele><time>2022-07-02T04:38:30Z</time></trkpt><trkpt lat="35.367323004157775" lon="138.73772840958276"><ele>3451.958610679023</ele><time>2022-07-02T04:38:53Z</time></trkpt><trkpt lat="35.36717719083785" lon="138.73788009607438"><ele>3452.027676844038</ele><time>2022-07-02T04:39:16Z</time></trkpt><trkpt lat="35.36701606507766" lon="138.73798853418756"><ele>3450.454744139686</ele><time>2022-07-02T04:39:37Z</time></trkpt><trkpt lat="35.36684628436553" lon="138.73808285968929"><ele>3451.280301849358</ele><time>2022-07-02T04:40:02Z</time></trkpt><trkpt lat="35.367021281103966" lon="138.73816923505868"><ele>3443.7031621849164</ele><time>2022-07-02T04:40:42Z</time></trkpt><trkpt lat="35.367202655253685" lon="138.73816329377254"><ele>3438.0524812042713</ele><time>2022-07-02T04:41:25Z</time></trkpt><trkpt lat="35.367393380604234" lon="138.73818287052504"><ele>3430.7686858288944</ele><time>2022-07-02T04:42:08Z</time></trkpt><trkpt lat="35.367576268604765" lon="138.73819417290645"><ele>3427.266676518135</ele><time>2022-07-02T04:42:49Z</time></trkpt><trkpt lat="35.36776807363547" lon="138.73820002638766"><ele>3416.550858905539</ele><time>2022-07-02T04:44:00Z</time></trkpt><trkpt lat="35.367923021095116" lon="138.73831590591544"><ele>3412.9906727531925</ele><time>2022-07-02T04:44:42Z</time></trkpt><trkpt lat="35.368073787266304" lon="138.73846980945467"><ele>3402.0154116954654</ele><time>2022-07-02T04:45:14Z</time></trkpt><trkpt lat="35.36821164007119" lon="138.73862773459396"><ele>3400.2423874083906</ele><time>2022-07-02T04:46:08Z</time></trkpt><trkpt lat="35.36833387407272" lon="138.73879715218732"><ele>3392.74158333987</ele><time>2022-07-02T04:46:54Z</time></trkpt><trkpt lat="35.368470800093036" lon="138.73896272053742"><ele>3381.634774445556</ele><time>2022-07-02T04:47:36Z</time></trkpt><trkpt lat="35.36861199804871" lon="138.73911905812594"><ele>3374.9885402256623</ele><time>2022-07-02T04:48:12Z</time></trkpt><trkpt lat="35.368781650514315" lon="138.73903352469324"><ele>3384.630587779917</ele><time>2022-07-02T04:50:58Z</time></trkpt><trkpt lat="35.368962939793334" lon="138.7390108345305"><ele>3384.325978294015</ele><time>2022-07-02T04:51:39Z</time></trkpt><trkpt lat="35.36910631417427" lon="138.73886294000167"><ele>3376.554416849278</ele><time>2022-07-02T04:52:15Z</time></trkpt><trkpt lat="35.369177368222594" lon="138.73865391500735"><ele>3371.4927359949797</ele><time>2022-07-02T04:53:52Z</time></trkpt><trkpt lat="35.36911162627563" lon="138.73887127531836"><ele>3373.776605258696</ele><time>2022-07-02T05:01:55Z</time></trkpt><trkpt lat="35.36896332217374" lon="138.73900029303783"><ele>3379.25809700042</ele><time>2022-07-02T05:03:16Z</time></trkpt><trkpt lat="35.36889145747826" lon="138.73899698975748"><ele>3380.3041544035077</ele><time>2022-07-02T05:04:45Z</time></trkpt><trkpt lat="35.36871104222295" lon="138.73902442475273"><ele>3376.6005805749446</ele><time>2022-07-02T05:19:34Z</time></trkpt><trkpt lat="35.368767671757055" lon="138.73924022686404"><ele>3363.9881174135953</ele><time>2022-07-02T05:21:05Z</time></trkpt><trkpt lat="35.3689084552314" lon="138.7393812608805"><ele>3358.454376410693</ele><time>2022-07-02T05:21:25Z</time></trkpt><trkpt lat="35.36874853012507" lon="138.7394828873757"><ele>3351.9175875196233</ele><time>2022-07-02T05:22:00Z</time></trkpt><trkpt lat="35.36859309663592" lon="138.73959719577968"><ele>3347.0457292636856</ele><time>2022-07-02T05:22:43Z</time></trkpt><trkpt lat="35.36864289091318" lon="138.73980918184202"><ele>3338.369526250288</ele><time>2022-07-02T05:23:33Z</time></trkpt><trkpt lat="35.368805612704676" lon="138.73990756150206"><ele>3333.23859486077</ele><time>2022-07-02T05:24:15Z</time></trkpt><trkpt lat="35.368957689680876" lon="138.74003304574677"><ele>3328.42367745284</ele><time>2022-07-02T05:24:47Z</time></trkpt><trkpt lat="35.36911977912358" lon="138.74013088298395"><ele>3322.5135824186727</ele><time>2022-07-02T05:25:18Z</time></trkpt><trkpt lat="35.3690618780015" lon="138.74033993184733"><ele>3310.955450458452</ele><time>2022-07-02T05:26:38Z</time></trkpt><trkpt lat="35.368891024116806" lon="138.74042876199786"><ele>3306.483985782601</ele><time>2022-07-02T05:27:25Z</time></trkpt><trkpt lat="35.368859508369496" lon="138.74064694273446"><ele>3298.398862544447</ele><time>2022-07-02T05:28:28Z</time></trkpt><trkpt lat="35.368942255484974" lon="138.740847767552"><ele>3289.420174368657</ele><time>2022-07-02T05:29:29Z</time></trkpt><trkpt lat="35.369087212648566" lon="138.74098516797991"><ele>3283.8346794880927</ele><time>2022-07-02T05:30:17Z</time></trkpt><trkpt lat="35.36925931560061" lon="138.7410708323536"><ele>3278.9972478104755</ele><time>2022-07-02T05:31:05Z</time></trkpt><trkpt lat="35.36940679212978" lon="138.74120962409097"><ele>3275.3381296014413</ele><time>2022-07-02T05:31:40Z</time></trkpt><trkpt lat="35.36958944383602" lon="138.74119581746777"><ele>3273.7019834117964</ele><time>2022-07-02T05:32:06Z</time></trkpt><trkpt lat="35.36976602129463" lon="138.74112443804495"><ele>3267.0080204550177</ele><time>2022-07-02T05:32:51Z</time></trkpt><trkpt lat="35.36994530211239" lon="138.74106873460215"><ele>3264.4734478779137</ele><time>2022-07-02T05:33:26Z</time></trkpt><trkpt lat="35.370133092494704" lon="138.7410474339853"><ele>3264.7252831058577</ele><time>2022-07-02T05:34:11Z</time></trkpt><trkpt lat="35.37031430593286" lon="138.74103960318365"><ele>3252.0230072895065</ele><time>2022-07-02T05:35:01Z</time></trkpt><trkpt lat="35.37049414006114" lon="138.74102085796758"><ele>3244.132233131677</ele><time>2022-07-02T05:35:36Z</time></trkpt><trkpt lat="35.37064966485317" lon="138.74089271963976"><ele>3236.7524251276627</ele><time>2022-07-02T05:36:18Z</time></trkpt><trkpt lat="35.37074282908847" lon="138.7410031809545"><ele>3235.6481853434816</ele><time>2022-07-02T05:38:08Z</time></trkpt><trkpt lat="35.37064380694141" lon="138.74119093377556"><ele>3236.268026689999</ele><time>2022-07-02T05:41:23Z</time></trkpt><trkpt lat="35.37056705228325" lon="138.74139572630864"><ele>3230.42251691781</ele><time>2022-07-02T05:41:59Z</time></trkpt><trkpt lat="35.370433147557584" lon="138.74155481861487"><ele>3227.1564751043916</ele><time>2022-07-02T05:42:38Z</time></trkpt><trkpt lat="35.370295100371905" lon="138.74169700729755"><ele>3223.738277557306</ele><time>2022-07-02T05:43:05Z</time></trkpt><trkpt lat="35.37047681470062" lon="138.7416693185374"><ele>3221.2121316371486</ele><time>2022-07-02T05:43:37Z</time></trkpt><trkpt lat="35.370661476512566" lon="138.74162977877728"><ele>3216.7075326656923</ele><time>2022-07-02T05:44:14Z</time></trkpt><trkpt lat="35.370837749280504" lon="138.74157921073808"><ele>3205.779683366418</ele><time>2022-07-02T05:44:50Z</time></trkpt><trkpt lat="35.37102570550259" lon="138.74158116326572"><ele>3199.9812935423106</ele><time>2022-07-02T05:45:24Z</time></trkpt><trkpt lat="35.37093217085676" lon="138.7417756007801"><ele>3197.0902257021517</ele><time>2022-07-02T05:46:18Z</time></trkpt><trkpt lat="35.37083702813583" lon="138.7419666699298"><ele>3191.4012465924025</ele><time>2022-07-02T05:46:59Z</time></trkpt><trkpt lat="35.37071078949494" lon="138.74212808950102"><ele>3186.4770748419687</ele><time>2022-07-02T05:47:35Z</time></trkpt><trkpt lat="35.37058767514842" lon="138.74229276850733"><ele>3181.4888051291928</ele><time>2022-07-02T05:48:10Z</time></trkpt><trkpt lat="35.37076331214009" lon="138.74237864949575"><ele>3169.897123724222</ele><time>2022-07-02T05:49:24Z</time></trkpt><trkpt lat="35.370949779795296" lon="138.74235649597878"><ele>3164.7492075059563</ele><time>2022-07-02T05:50:03Z</time></trkpt><trkpt lat="35.37112696818913" lon="138.74230120034483"><ele>3160.490505966358</ele><time>2022-07-02T05:50:33Z</time></trkpt><trkpt lat="35.37106543950531" lon="138.7425091280657"><ele>3157.6864443244413</ele><time>2022-07-02T06:11:12Z</time></trkpt><trkpt lat="35.370949827922615" lon="138.74268378817496"><ele>3155.002665187232</ele><time>2022-07-02T06:11:41Z</time></trkpt><trkpt lat="35.37084143816287" lon="138.74286164192418"><ele>3151.0816611042246</ele><time>2022-07-02T06:12:12Z</time></trkpt><trkpt lat="35.3707167255924" lon="138.74302221334102"><ele>3148.0292605590075</ele><time>2022-07-02T06:12:41Z</time></trkpt><trkpt lat="35.370895685419356" lon="138.7430554359736"><ele>3137.0389130571857</ele><time>2022-07-02T06:13:37Z</time></trkpt><trkpt lat="35.371076401101924" lon="138.74299632348635"><ele>3134.5418769950047</ele><time>2022-07-02T06:14:01Z</time></trkpt><trkpt lat="35.371256936401146" lon="138.74293519370372"><ele>3130.495940569788</ele><time>2022-07-02T06:14:23Z</time></trkpt><trkpt lat="35.37143776113972" lon="138.74289193903206"><ele>3126.8571167988703</ele><time>2022-07-02T06:14:48Z</time></trkpt><trkpt lat="35.37162495770238" lon="138.74284269595626"><ele>3121.3426981074736</ele><time>2022-07-02T06:15:13Z</time></trkpt><trkpt lat="35.37179613174071" lon="138.74276896718862"><ele>3117.1613794295117</ele><time>2022-07-02T06:15:35Z</time></trkpt><trkpt lat="35.371705588105065" lon="138.74296083290008"><ele>3118.5961499717087</ele><time>2022-07-02T06:16:03Z</time></trkpt><trkpt lat="35.37157206464512" lon="138.74311106254018"><ele>3115.4837767621502</ele><time>2022-07-02T06:16:26Z</time></trkpt><trkpt lat="35.371452791745824" lon="138.74328704041847"><ele>3115.304553913884</ele><time>2022-07-02T06:16:51Z</time></trkpt><trkpt lat="35.37133120463357" lon="138.74345456094602"><ele>3108.6784118674695</ele><time>2022-07-02T06:17:18Z</time></trkpt><trkpt lat="35.37150924352651" lon="138.74351438331638"><ele>3098.7082628328353</ele><time>2022-07-02T06:18:11Z</time></trkpt><trkpt lat="35.3716904713206" lon="138.7434692007893"><ele>3092.307708845474</ele><time>2022-07-02T06:18:39Z</time></trkpt><trkpt lat="35.37187144419099" lon="138.7434333728709"><ele>3088.469815160148</ele><time>2022-07-02T06:19:05Z</time></trkpt><trkpt lat="35.37205603076969" lon="138.74338609717972"><ele>3083.802797987126</ele><time>2022-07-02T06:19:34Z</time></trkpt><trkpt lat="35.37222732236883" lon="138.7433166420111"><ele>3079.6407629214227</ele><time>2022-07-02T06:20:03Z</time></trkpt><trkpt lat="35.37218277260099" lon="138.7435392999255"><ele>3078.428846212104</ele><time>2022-07-02T06:20:51Z</time></trkpt><trkpt lat="35.37207860939675" lon="138.7437235962876"><ele>3074.65492626559</ele><time>2022-07-02T06:21:27Z</time></trkpt><trkpt lat="35.37196846141517" lon="138.7439028819714"><ele>3067.693020492792</ele><time>2022-07-02T06:22:07Z</time></trkpt><trkpt lat="35.37186954788981" lon="138.74409219690463"><ele>3061.16217870079</ele><time>2022-07-02T06:22:41Z</time></trkpt><trkpt lat="35.37176674052558" lon="138.744274128862"><ele>3056.4502197476104</ele><time>2022-07-02T06:23:17Z</time></trkpt><trkpt lat="35.37192351593818" lon="138.7443916741907"><ele>3044.5656766872853</ele><time>2022-07-02T06:24:47Z</time></trkpt><trkpt lat="35.37210625473637" lon="138.74440304698385"><ele>3038.1538750715554</ele><time>2022-07-02T06:25:35Z</time></trkpt><trkpt lat="35.372287945949616" lon="138.7444472620094"><ele>3031.7429753420874</ele><time>2022-07-02T06:26:17Z</time></trkpt><trkpt lat="35.37246981547096" lon="138.74447552217407"><ele>3024.6155156577006</ele><time>2022-07-02T06:26:58Z</time></trkpt><trkpt lat="35.372648485248924" lon="138.7445225353132"><ele>3018.1436751578003</ele><time>2022-07-02T06:27:42Z</time></trkpt><trkpt lat="35.37282933575128" lon="138.74457731018285"><ele>3013.453888874501</ele><time>2022-07-02T06:28:15Z</time></trkpt><trkpt lat="35.372764469697586" lon="138.74478975448312"><ele>3004.335617467761</ele><time>2022-07-02T06:29:46Z</time></trkpt><trkpt lat="35.3726702526654" lon="138.74498475635002"><ele>2999.643992633559</ele><time>2022-07-02T06:31:09Z</time></trkpt><trkpt lat="35.37256749148918" lon="138.74516753027177"><ele>2995.216197730042</ele><time>2022-07-02T06:31:43Z</time></trkpt><trkpt lat="35.37274126622294" lon="138.74523556870253"><ele>2985.469458519481</ele><time>2022-07-02T06:32:41Z</time></trkpt><trkpt lat="35.372924402023685" lon="138.7452302187485"><ele>2980.5977075072005</ele><time>2022-07-02T06:33:18Z</time></trkpt><trkpt lat="35.37310347535491" lon="138.74520258863188"><ele>2976.0403251433745</ele><time>2022-07-02T06:34:14Z</time></trkpt><trkpt lat="35.373282802333016" lon="138.74522823369622"><ele>2971.019957013428</ele><time>2022-07-02T06:34:53Z</time></trkpt><trkpt lat="35.373464616826446" lon="138.74526191279898"><ele>2965.9464858761057</ele><time>2022-07-02T06:35:29Z</time></trkpt><trkpt lat="35.37364116804141" lon="138.745306547926"><ele>2960.5888780709356</ele><time>2022-07-02T06:36:00Z</time></trkpt><trkpt lat="35.373823279411404" lon="138.74535178484578"><ele>2955.400762804784</ele><time>2022-07-02T06:36:29Z</time></trkpt><trkpt lat="35.37397256960355" lon="138.74531414911843"><ele>2949.326893108897</ele><time>2022-07-02T06:37:30Z</time></trkpt><trkpt lat="35.37385659953051" lon="138.74549246480754"><ele>2947.60545843374</ele><time>2022-07-02T06:48:45Z</time></trkpt><trkpt lat="35.37374226624319" lon="138.74566615331122"><ele>2940.880784646608</ele><time>2022-07-02T06:49:11Z</time></trkpt><trkpt lat="35.37363774277022" lon="138.7458483668211"><ele>2934.399517958984</ele><time>2022-07-02T06:49:38Z</time></trkpt><trkpt lat="35.37382440957089" lon="138.74582850123085"><ele>2928.942684471607</ele><time>2022-07-02T06:50:12Z</time></trkpt><trkpt lat="35.37400063527569" lon="138.74587709535814"><ele>2924.9149523796514</ele><time>2022-07-02T06:50:40Z</time></trkpt><trkpt lat="35.37418543672072" lon="138.74583815129597"><ele>2919.853351949714</ele><time>2022-07-02T06:51:02Z</time></trkpt><trkpt lat="35.37406818520237" lon="138.746007511115"><ele>2920.180170385167</ele><time>2022-07-02T06:51:44Z</time></trkpt><trkpt lat="35.37394820742157" lon="138.7461720415417"><ele>2913.6260056700557</ele><time>2022-07-02T06:52:54Z</time></trkpt><trkpt lat="35.374115760143376" lon="138.74627032982565"><ele>2903.29151468724</ele><time>2022-07-02T06:54:04Z</time></trkpt><trkpt lat="35.37429740217611" lon="138.7462834172027"><ele>2897.9287623278797</ele><time>2022-07-02T06:54:38Z</time></trkpt><trkpt lat="35.37429658776047" lon="138.74650934407939"><ele>2891.6476846551523</ele><time>2022-07-02T06:55:47Z</time></trkpt><trkpt lat="35.37418607545986" lon="138.74668969026075"><ele>2887.4343134183437</ele><time>2022-07-02T06:56:35Z</time></trkpt><trkpt lat="35.374327285792646" lon="138.74683737546792"><ele>2877.142934760079</ele><time>2022-07-02T06:58:01Z</time></trkpt><trkpt lat="35.37450897468577" lon="138.74684302209343"><ele>2869.444001671858</ele><time>2022-07-02T06:58:44Z</time></trkpt><trkpt lat="35.37469458491443" lon="138.74682001092145"><ele>2864.1233794447035</ele><time>2022-07-02T06:59:18Z</time></trkpt><trkpt lat="35.37460637260469" lon="138.74701295981365"><ele>2861.836794635281</ele><time>2022-07-02T07:00:01Z</time></trkpt><trkpt lat="35.374494734449385" lon="138.74718732105958"><ele>2857.3671968877316</ele><time>2022-07-02T07:00:51Z</time></trkpt><trkpt lat="35.37464060445508" lon="138.7473233751049"><ele>2846.31877476722</ele><time>2022-07-02T07:02:22Z</time></trkpt><trkpt lat="35.37482772869022" lon="138.74731061180196"><ele>2840.876565311104</ele><time>2022-07-02T07:03:01Z</time></trkpt><trkpt lat="35.37488779032252" lon="138.74729959844115"><ele>2839.381754644215</ele><time>2022-07-02T07:03:12Z</time></trkpt><trkpt lat="35.37483028583121" lon="138.74750934674498"><ele>2834.2541865399107</ele><time>2022-07-02T07:04:01Z</time></trkpt><trkpt lat="35.3747158006707" lon="138.74768051604056"><ele>2829.9164465218782</ele><time>2022-07-02T07:04:42Z</time></trkpt><trkpt lat="35.37484884047707" lon="138.74783386051945"><ele>2818.982439168729</ele><time>2022-07-02T07:06:19Z</time></trkpt><trkpt lat="35.3750331562787" lon="138.74779095028194"><ele>2813.0437294729054</ele><time>2022-07-02T07:07:01Z</time></trkpt><trkpt lat="35.374982823935" lon="138.74800275097485"><ele>2809.284781899303</ele><time>2022-07-02T07:07:53Z</time></trkpt><trkpt lat="35.37487445145324" lon="138.74817962496004"><ele>2804.7562129283324</ele><time>2022-07-02T07:08:40Z</time></trkpt><trkpt lat="35.3750393215156" lon="138.74827156996875"><ele>2794.342424074188</ele><time>2022-07-02T07:09:53Z</time></trkpt><trkpt lat="35.37522453646263" lon="138.74825337241782"><ele>2789.918872790411</ele><time>2022-07-02T07:10:30Z</time></trkpt><trkpt lat="35.37517329535239" lon="138.74847170431207"><ele>2782.824485283345</ele><time>2022-07-02T07:11:36Z</time></trkpt><trkpt lat="35.375070152383934" lon="138.74865736467848"><ele>2778.241280004382</ele><time>2022-07-02T07:12:19Z</time></trkpt><trkpt lat="35.37494640202352" lon="138.74882829134285"><ele>2775.426290890202</ele><time>2022-07-02T07:12:51Z</time></trkpt><trkpt lat="35.37492486220691" lon="138.74883658763267"><ele>2772.385650274344</ele><time>2022-07-02T07:15:05Z</time></trkpt><trkpt lat="35.37510941647655" lon="138.7488408332644"><ele>2771.4583542803302</ele><time>2022-07-02T07:22:54Z</time></trkpt><trkpt lat="35.37529140874117" lon="138.74886062579282"><ele>2765.633963882923</ele><time>2022-07-02T07:23:22Z</time></trkpt><trkpt lat="35.37547426996666" lon="138.74884506319987"><ele>2762.140572298318</ele><time>2022-07-02T07:23:46Z</time></trkpt><trkpt lat="35.37538346416482" lon="138.74904534418224"><ele>2752.311766570434</ele><time>2022-07-02T07:24:35Z</time></trkpt><trkpt lat="35.375286584560676" lon="138.7492332582014"><ele>2746.650083946064</ele><time>2022-07-02T07:24:59Z</time></trkpt><trkpt lat="35.37545118590602" lon="138.74933998664125"><ele>2741.0844949837774</ele><time>2022-07-02T07:25:39Z</time></trkpt><trkpt lat="35.37563709044037" lon="138.74931681540832"><ele>2734.5236330218613</ele><time>2022-07-02T07:26:04Z</time></trkpt><trkpt lat="35.37570973942378" lon="138.7495200764321"><ele>2725.941984965466</ele><time>2022-07-02T07:26:57Z</time></trkpt><trkpt lat="35.37558082234549" lon="138.7496748467862"><ele>2722.1527689453214</ele><time>2022-07-02T07:27:24Z</time></trkpt><trkpt lat="35.375724065271676" lon="138.74981308558466"><ele>2710.038873322308</ele><time>2022-07-02T07:28:08Z</time></trkpt><trkpt lat="35.37591376530085" lon="138.74983868441876"><ele>2705.007946227677</ele><time>2022-07-02T07:28:34Z</time></trkpt><trkpt lat="35.376096351122726" lon="138.74985199547328"><ele>2700.392848480493</ele><time>2022-07-02T07:28:56Z</time></trkpt><trkpt lat="35.37596118870538" lon="138.75000503554872"><ele>2695.029133745469</ele><time>2022-07-02T07:29:37Z</time></trkpt><trkpt lat="35.375843092761585" lon="138.75017353923712"><ele>2691.5604545166716</ele><time>2022-07-02T07:30:07Z</time></trkpt><trkpt lat="35.376016175157545" lon="138.7502547173258"><ele>2683.515680786222</ele><time>2022-07-02T07:30:52Z</time></trkpt><trkpt lat="35.37620255589048" lon="138.75026393558923"><ele>2678.1790916882455</ele><time>2022-07-02T07:31:18Z</time></trkpt><trkpt lat="35.37613953551792" lon="138.7504742168813"><ele>2671.5270764762536</ele><time>2022-07-02T07:32:14Z</time></trkpt><trkpt lat="35.37601782513971" lon="138.75064082729594"><ele>2666.6618012422696</ele><time>2022-07-02T07:32:45Z</time></trkpt><trkpt lat="35.37615580947968" lon="138.75078525710106"><ele>2658.2833944875747</ele><time>2022-07-02T07:33:54Z</time></trkpt><trkpt lat="35.376338602482114" lon="138.75079934307985"><ele>2652.545560230501</ele><time>2022-07-02T07:34:33Z</time></trkpt><trkpt lat="35.37652295042932" lon="138.75082221126792"><ele>2647.691349539906</ele><time>2022-07-02T07:34:54Z</time></trkpt><trkpt lat="35.376653816773604" lon="138.75066941319508"><ele>2649.4386163363233</ele><time>2022-07-02T07:35:26Z</time></trkpt><trkpt lat="35.37653219561011" lon="138.7508386218739"><ele>2651.1094448268414</ele><time>2022-07-02T07:40:38Z</time></trkpt><trkpt lat="35.37639976819722" lon="138.75099268875277"><ele>2642.7852227548137</ele><time>2022-07-02T07:43:07Z</time></trkpt><trkpt lat="35.37630296636452" lon="138.75117933390135"><ele>2638.509415499866</ele><time>2022-07-02T07:43:34Z</time></trkpt><trkpt lat="35.37619317952836" lon="138.75135890056848"><ele>2633.424275428988</ele><time>2022-07-02T07:43:58Z</time></trkpt><trkpt lat="35.376366308848084" lon="138.75142992240893"><ele>2626.6617921674624</ele><time>2022-07-02T07:44:33Z</time></trkpt><trkpt lat="35.37654980991129" lon="138.751434003518"><ele>2621.463887862861</ele><time>2022-07-02T07:45:02Z</time></trkpt><trkpt lat="35.3767309306301" lon="138.75138767035673"><ele>2615.841094063595</ele><time>2022-07-02T07:45:23Z</time></trkpt><trkpt lat="35.37662316535204" lon="138.75157062763202"><ele>2610.670451142825</ele><time>2022-07-02T07:45:47Z</time></trkpt><trkpt lat="35.37653925070091" lon="138.7517666290003"><ele>2605.48874248378</ele><time>2022-07-02T07:46:13Z</time></trkpt><trkpt lat="35.376443681069304" lon="138.75195553822735"><ele>2601.0566467233</ele><time>2022-07-02T07:46:36Z</time></trkpt><trkpt lat="35.376627195044556" lon="138.75199450541808"><ele>2593.470557802357</ele><time>2022-07-02T07:47:32Z</time></trkpt><trkpt lat="35.37681101055088" lon="138.7520025082092"><ele>2587.7007839819416</ele><time>2022-07-02T07:48:05Z</time></trkpt><trkpt lat="35.37699477446116" lon="138.75202537604912"><ele>2581.8598487377167</ele><time>2022-07-02T07:48:39Z</time></trkpt><trkpt lat="35.377175180795504" lon="138.75202294238045"><ele>2576.568011648953</ele><time>2022-07-02T07:49:22Z</time></trkpt><trkpt lat="35.37735772573396" lon="138.75202597204074"><ele>2570.14217373915</ele><time>2022-07-02T07:49:54Z</time></trkpt><trkpt lat="35.377550242984704" lon="138.7519917522664"><ele>2568.7464992608875</ele><time>2022-07-02T07:50:13Z</time></trkpt><trkpt lat="35.37769919507212" lon="138.75185896492042"><ele>2563.194575444795</ele><time>2022-07-02T07:50:34Z</time></trkpt><trkpt lat="35.37781937698257" lon="138.75167859044265"><ele>2558.6855283705518</ele><time>2022-07-02T07:50:56Z</time></trkpt><trkpt lat="35.37791555864912" lon="138.75147495028088"><ele>2554.092523421161</ele><time>2022-07-02T07:51:13Z</time></trkpt><trkpt lat="35.378049429221996" lon="138.75131244729516"><ele>2553.99622430373</ele><time>2022-07-02T07:51:39Z</time></trkpt><trkpt lat="35.37822721647448" lon="138.7512448246143"><ele>2550.1964831622317</ele><time>2022-07-02T07:52:11Z</time></trkpt><trkpt lat="35.37836624805981" lon="138.75110070481492"><ele>2544.238123504445</ele><time>2022-07-02T07:52:41Z</time></trkpt><trkpt lat="35.37851383966951" lon="138.75096955942936"><ele>2538.445692313835</ele><time>2022-07-02T07:53:13Z</time></trkpt><trkpt lat="35.37866376131186" lon="138.75084026446817"><ele>2533.9050835771486</ele><time>2022-07-02T07:53:45Z</time></trkpt><trkpt lat="35.378809231357685" lon="138.7507104056732"><ele>2529.6229340499267</ele><time>2022-07-02T07:54:18Z</time></trkpt><trkpt lat="35.37895233964308" lon="138.75056935166853"><ele>2527.398869164288</ele><time>2022-07-02T07:54:40Z</time></trkpt><trkpt lat="35.37908366973975" lon="138.7504182659413"><ele>2523.7015619343147</ele><time>2022-07-02T07:55:05Z</time></trkpt><trkpt lat="35.379219007910386" lon="138.75026352796456"><ele>2520.2587114572525</ele><time>2022-07-02T07:55:36Z</time></trkpt><trkpt lat="35.379378822067366" lon="138.75015376457898"><ele>2514.166502491571</ele><time>2022-07-02T07:56:12Z</time></trkpt><trkpt lat="35.379540816328905" lon="138.75026173455225"><ele>2505.2957420442253</ele><time>2022-07-02T07:57:25Z</time></trkpt><trkpt lat="35.3797103479456" lon="138.75017896477095"><ele>2498.067166192457</ele><time>2022-07-02T07:58:01Z</time></trkpt><trkpt lat="35.37989243396864" lon="138.750160077754"><ele>2492.2593759270385</ele><time>2022-07-02T07:58:30Z</time></trkpt><trkpt lat="35.38006976965326" lon="138.750112329221"><ele>2485.2003942308947</ele><time>2022-07-02T07:59:24Z</time></trkpt><trkpt lat="35.38024924481692" lon="138.75007630565253"><ele>2479.128665531054</ele><time>2022-07-02T08:00:06Z</time></trkpt><trkpt lat="35.38042605849941" lon="138.75000852165806"><ele>2473.4596668304875</ele><time>2022-07-02T08:00:37Z</time></trkpt><trkpt lat="35.38057427669889" lon="138.7498660258674"><ele>2470.0673479894176</ele><time>2022-07-02T08:00:45Z</time></trkpt><trkpt lat="35.380707779811615" lon="138.7496971431213"><ele>2469.5325811086223</ele><time>2022-07-02T08:01:14Z</time></trkpt><trkpt lat="35.380882271063065" lon="138.74960435733323"><ele>2468.3605865025893</ele><time>2022-07-02T08:01:31Z</time></trkpt><trkpt lat="35.38105652452727" lon="138.749526221396"><ele>2467.3040017355233</ele><time>2022-07-02T08:01:48Z</time></trkpt><trkpt lat="35.38119728813012" lon="138.74937721762257"><ele>2463.632178897038</ele><time>2022-07-02T08:02:24Z</time></trkpt><trkpt lat="35.38136407257473" lon="138.74948206583247"><ele>2455.6802476560697</ele><time>2022-07-02T08:03:18Z</time></trkpt><trkpt lat="35.38154959308974" lon="138.749363745482"><ele>2454.036917067133</ele><time>2022-07-02T08:03:23Z</time></trkpt><trkpt lat="35.38170336393815" lon="138.74922868442985"><ele>2453.6981608802453</ele><time>2022-07-02T08:03:29Z</time></trkpt><trkpt lat="35.38183048680128" lon="138.7490703827155"><ele>2450.463509082794</ele><time>2022-07-02T08:04:15Z</time></trkpt><trkpt lat="35.38201845197072" lon="138.74906358135954"><ele>2452.3894492918625</ele><time>2022-07-02T08:04:34Z</time></trkpt><trkpt lat="35.38220374933368" lon="138.74899586872664"><ele>2447.478049413301</ele><time>2022-07-02T08:04:50Z</time></trkpt><trkpt lat="35.38236017800326" lon="138.74887556109812"><ele>2445.0311182150617</ele><time>2022-07-02T08:05:08Z</time></trkpt><trkpt lat="35.382517612060994" lon="138.74876707619038"><ele>2444.62836381793</ele><time>2022-07-02T08:05:31Z</time></trkpt><trkpt lat="35.38266832985109" lon="138.74863349016084"><ele>2443.8829766009003</ele><time>2022-07-02T08:05:52Z</time></trkpt><trkpt lat="35.38280389311449" lon="138.748486456631"><ele>2444.9046073257923</ele><time>2022-07-02T08:06:13Z</time></trkpt><trkpt lat="35.382962148163486" lon="138.74835487769005"><ele>2445.204564370215</ele><time>2022-07-02T08:06:28Z</time></trkpt><trkpt lat="35.38307009560939" lon="138.748170334559"><ele>2446.2355292486027</ele><time>2022-07-02T08:06:44Z</time></trkpt><trkpt lat="35.38310687210325" lon="138.74810401855592"><ele>2447.7779031144455</ele><time>2022-07-02T08:06:52Z</time></trkpt><trkpt lat="35.38324328046723" lon="138.74794564621618"><ele>2447.5239233048633</ele><time>2022-07-02T08:07:15Z</time></trkpt><trkpt lat="35.38340646746672" lon="138.74782271752048"><ele>2448.779464751482</ele><time>2022-07-02T08:07:35Z</time></trkpt><trkpt lat="35.383569317533144" lon="138.74770683116571"><ele>2447.324655117467</ele><time>2022-07-02T08:07:57Z</time></trkpt><trkpt lat="35.383738993839366" lon="138.74761223930332"><ele>2446.0394302178174</ele><time>2022-07-02T08:08:16Z</time></trkpt><trkpt lat="35.38390816345971" lon="138.74753486984034"><ele>2447.0990797737613</ele><time>2022-07-02T08:08:32Z</time></trkpt><trkpt lat="35.38592022381293" lon="138.74616044586406"><ele>2371.8086891174316</ele><time>2022-07-02T08:18:42Z</time></trkpt><trkpt lat="35.38599455591618" lon="138.7459399542265"><ele>2371.6148418411613</ele><time>2022-07-02T08:19:01Z</time></trkpt><trkpt lat="35.3857513559894" lon="138.74585710453167"><ele>2371.073465431109</ele><time>2022-07-02T08:19:13Z</time></trkpt><trkpt lat="35.38592458565289" lon="138.7457700471066"><ele>2376.639845300466</ele><time>2022-07-02T08:19:36Z</time></trkpt><trkpt lat="35.386006223400884" lon="138.74555809142768"><ele>2373.7520117238164</ele><time>2022-07-02T08:20:38Z</time></trkpt><trkpt lat="35.38606063282653" lon="138.74533116487137"><ele>2367.2254814123735</ele><time>2022-07-02T08:21:33Z</time></trkpt><trkpt lat="35.386052272625065" lon="138.7451076809004"><ele>2365.0163582572713</ele><time>2022-07-02T08:22:27Z</time></trkpt><trkpt lat="35.386145345961786" lon="138.74491348653126"><ele>2361.999401230365</ele><time>2022-07-02T08:22:55Z</time></trkpt><trkpt lat="35.38629774212595" lon="138.74478844957727"><ele>2358.9368388745934</ele><time>2022-07-02T08:23:21Z</time></trkpt><trkpt lat="35.38644202516695" lon="138.74464835616484"><ele>2354.3565636733547</ele><time>2022-07-02T08:23:46Z</time></trkpt><trkpt lat="35.386597508472846" lon="138.74452708952592"><ele>2352.049150674604</ele><time>2022-07-02T08:24:10Z</time></trkpt><trkpt lat="35.38673700350994" lon="138.74436886883342"><ele>2348.2596992617473</ele><time>2022-07-02T08:24:37Z</time></trkpt><trkpt lat="35.38686531743799" lon="138.7442138418322"><ele>2345.91417265404</ele><time>2022-07-02T08:25:03Z</time></trkpt><trkpt lat="35.387006866017806" lon="138.74407170967189"><ele>2344.7929844688624</ele><time>2022-07-02T08:25:24Z</time></trkpt><trkpt lat="35.38716268570776" lon="138.74396013113233"><ele>2340.397992728278</ele><time>2022-07-02T08:25:51Z</time></trkpt><trkpt lat="35.38731348506069" lon="138.74383809542653"><ele>2338.0816934425384</ele><time>2022-07-02T08:26:15Z</time></trkpt><trkpt lat="35.387486381353206" lon="138.7437643778703"><ele>2334.79123214446</ele><time>2022-07-02T08:26:44Z</time></trkpt><trkpt lat="35.387628343566035" lon="138.74361806929622"><ele>2330.761580192484</ele><time>2022-07-02T08:27:56Z</time></trkpt><trkpt lat="35.38777814356113" lon="138.74347550028497"><ele>2326.0710096796975</ele><time>2022-07-02T08:28:21Z</time></trkpt><trkpt lat="35.387926262295345" lon="138.74332971755862"><ele>2322.4624198880047</ele><time>2022-07-02T08:28:55Z</time></trkpt><trkpt lat="35.38812058196458" lon="138.7432477308912"><ele>2321.0852850386873</ele><time>2022-07-02T08:29:30Z</time></trkpt><trkpt lat="35.38824836729464" lon="138.74307599686992"><ele>2317.000874019228</ele><time>2022-07-02T08:29:59Z</time></trkpt><trkpt lat="35.38839903803463" lon="138.74294436910557"><ele>2311.5610234299675</ele><time>2022-07-02T08:30:18Z</time></trkpt><trkpt lat="35.38853103693393" lon="138.74277373343375"><ele>2307.278336789459</ele><time>2022-07-02T08:30:49Z</time></trkpt><trkpt lat="35.388695360046334" lon="138.7426467580304"><ele>2303.071064095944</ele><time>2022-07-02T08:31:12Z</time></trkpt><trkpt lat="35.3888601460608" lon="138.7425210542402"><ele>2299.6204405408353</ele><time>2022-07-02T08:31:31Z</time></trkpt><trkpt lat="35.38902530889742" lon="138.7424273399752"><ele>2296.4945756495</ele><time>2022-07-02T08:31:50Z</time></trkpt><trkpt lat="35.389199345804506" lon="138.74231937043112"><ele>2294.249433000572</ele><time>2022-07-02T08:32:11Z</time></trkpt><trkpt lat="35.38937522793848" lon="138.74225416558366"><ele>2293.896739578806</ele><time>2022-07-02T08:32:33Z</time></trkpt><trkpt lat="35.38957495172078" lon="138.74220277242637"><ele>2295.916656654328</ele><time>2022-07-02T08:32:50Z</time></trkpt><trkpt lat="35.389758761444696" lon="138.7422443689541"><ele>2294.5691947480664</ele><time>2022-07-02T08:33:18Z</time></trkpt><trkpt lat="35.389928207365955" lon="138.742148927369"><ele>2289.062902980484</ele><time>2022-07-02T08:33:34Z</time></trkpt><trkpt lat="35.39005799268447" lon="138.74199216741542"><ele>2288.55872988794</ele><time>2022-07-02T08:33:49Z</time></trkpt><trkpt lat="35.39019705600037" lon="138.7418388350875"><ele>2282.562627245672</ele><time>2022-07-02T08:34:29Z</time></trkpt><trkpt lat="35.39032598578278" lon="138.74166759916378"><ele>2281.3532430985942</ele><time>2022-07-02T08:34:38Z</time></trkpt><trkpt lat="35.39036700854647" lon="138.74145041834618"><ele>2281.95094531402</ele><time>2022-07-02T08:35:13Z</time></trkpt><trkpt lat="35.39039534054318" lon="138.74122042640056"><ele>2283.1237251413986</ele><time>2022-07-02T08:35:38Z</time></trkpt><trkpt lat="35.39050371779339" lon="138.74102986247752"><ele>2283.5057797404006</ele><time>2022-07-02T08:36:02Z</time></trkpt><trkpt lat="35.39046858592538" lon="138.74080398220536"><ele>2282.44343710877</ele><time>2022-07-02T08:36:25Z</time></trkpt><trkpt lat="35.39042199870938" lon="138.74058541269838"><ele>2284.4670862797648</ele><time>2022-07-02T08:36:54Z</time></trkpt><trkpt lat="35.3904759972493" lon="138.74036932315383"><ele>2286.2359880981967</ele><time>2022-07-02T08:37:18Z</time></trkpt><trkpt lat="35.39055683379746" lon="138.7401629901198"><ele>2289.034317314625</ele><time>2022-07-02T08:37:41Z</time></trkpt><trkpt lat="35.390633271206326" lon="138.73995624625138"><ele>2290.1682142429054</ele><time>2022-07-02T08:38:03Z</time></trkpt><trkpt lat="35.390681329452185" lon="138.73973526653822"><ele>2293.0323736499995</ele><time>2022-07-02T08:39:30Z</time></trkpt><trkpt lat="35.39072373033787" lon="138.73951861666293"><ele>2294.3966387789696</ele><time>2022-07-02T08:39:35Z</time></trkpt><trkpt lat="35.39080427505571" lon="138.73932140991135"><ele>2298.2094856789336</ele><time>2022-07-02T08:39:39Z</time></trkpt><trkpt lat="35.390862176316304" lon="138.73910795114244"><ele>2301.655285480432</ele><time>2022-07-02T08:39:44Z</time></trkpt><trkpt lat="35.390920156478494" lon="138.7388961370193"><ele>2301.33821397461</ele><time>2022-07-02T08:40:17Z</time></trkpt><trkpt lat="35.39098305854168" lon="138.73868241162307"><ele>2302.5916643617675</ele><time>2022-07-02T08:40:44Z</time></trkpt><trkpt lat="35.391050742572396" lon="138.73846986563962"><ele>2304.6465521985665</ele><time>2022-07-02T08:41:10Z</time></trkpt><trkpt lat="35.39111695781841" lon="138.73826366000947"><ele>2303.4237582655624</ele><time>2022-07-02T08:41:32Z</time></trkpt><trkpt lat="35.391191495402" lon="138.73805566707847"><ele>2306.0373006910086</ele><time>2022-07-02T08:41:58Z</time></trkpt><trkpt lat="35.39125903171675" lon="138.7378508974057"><ele>2308.199962845072</ele><time>2022-07-02T08:42:21Z</time></trkpt><trkpt lat="35.391323919122485" lon="138.7376397283859"><ele>2307.343427484855</ele><time>2022-07-02T08:42:44Z</time></trkpt><trkpt lat="35.39138958958756" lon="138.73742341919328"><ele>2309.714987033047</ele><time>2022-07-02T08:43:06Z</time></trkpt><trkpt lat="35.39144677218869" lon="138.73721461656234"><ele>2310.0235060025007</ele><time>2022-07-02T08:43:25Z</time></trkpt><trkpt lat="35.391515780550684" lon="138.7370076597179"><ele>2311.6105976048857</ele><time>2022-07-02T08:43:44Z</time></trkpt><trkpt lat="35.391570200960224" lon="138.73679396396446"><ele>2311.210585241206</ele><time>2022-07-02T08:44:05Z</time></trkpt><trkpt lat="35.391631680727464" lon="138.73658043411533"><ele>2311.9446237329394</ele><time>2022-07-02T08:44:21Z</time></trkpt><trkpt lat="35.39172284041087" lon="138.73637728527885"><ele>2311.9042943529785</ele><time>2022-07-02T08:44:47Z</time></trkpt><trkpt lat="35.391827451985755" lon="138.73618435520632"><ele>2312.479311221279</ele><time>2022-07-02T08:45:06Z</time></trkpt><trkpt lat="35.391905691732624" lon="138.73598498970736"><ele>2309.373085513711</ele><time>2022-07-02T08:45:26Z</time></trkpt><trkpt lat="35.39200396571489" lon="138.73579052059767"><ele>2308.589802455157</ele><time>2022-07-02T08:45:47Z</time></trkpt><trkpt lat="35.392129977079186" lon="138.73563143073739"><ele>2308.6457057800144</ele><time>2022-07-02T08:46:07Z</time></trkpt><trkpt lat="35.392241657563524" lon="138.7354505450222"><ele>2310.2441665567458</ele><time>2022-07-02T08:46:28Z</time></trkpt><trkpt lat="35.39238584845511" lon="138.73530555837107"><ele>2313.897285615094</ele><time>2022-07-02T08:47:02Z</time></trkpt><trkpt lat="35.39244084489341" lon="138.7350873159724"><ele>2315.0562916556373</ele><time>2022-07-02T08:47:24Z</time></trkpt><trkpt lat="35.392470268522615" lon="138.73486716008088"><ele>2318.1831368021667</ele><time>2022-07-02T08:47:46Z</time></trkpt><trkpt lat="35.39252494868794" lon="138.7346465415728"><ele>2319.419246313162</ele><time>2022-07-02T08:48:07Z</time></trkpt><trkpt lat="35.39264586563838" lon="138.73448069239586"><ele>2320.1155855813995</ele><time>2022-07-02T08:48:26Z</time></trkpt><trkpt lat="35.3927973066613" lon="138.73436140928624"><ele>2320.936440827325</ele><time>2022-07-02T08:48:48Z</time></trkpt><trkpt lat="35.39295527503626" lon="138.73423223846754"><ele>2320.392494325526</ele><time>2022-07-02T08:49:10Z</time></trkpt><trkpt lat="35.39309538451884" lon="138.73407826300544"><ele>2320.9557338478044</ele><time>2022-07-02T08:49:33Z</time></trkpt><trkpt lat="35.39322906047578" lon="138.73392865893388"><ele>2317.9764843489975</ele><time>2022-07-02T08:49:55Z</time></trkpt><trkpt lat="35.39338655143868" lon="138.73380074354125"><ele>2317.6698695113882</ele><time>2022-07-02T08:50:16Z</time></trkpt><trkpt lat="35.39356137236107" lon="138.7336999440353"><ele>2318.4093932751566</ele><time>2022-07-02T08:50:45Z</time></trkpt><trkpt lat="35.393741106212694" lon="138.73365756261566"><ele>2316.8027510037646</ele><time>2022-07-02T08:51:47Z</time></trkpt><trkpt lat="35.39390246145878" lon="138.7335515236276"><ele>2315.4074301114306</ele><time>2022-07-02T08:52:11Z</time></trkpt><trkpt lat="35.39406486467297" lon="138.73344037214994"><ele>2310.78444190789</ele><time>2022-07-02T08:52:38Z</time></trkpt><trkpt lat="35.394169880786414" lon="138.73325823892264"><ele>2312.1467615980655</ele><time>2022-07-02T08:52:57Z</time></trkpt><trkpt lat="35.39421040313393" lon="138.73303946845397"><ele>2309.513118849136</ele><time>2022-07-02T08:53:17Z</time></trkpt><trkpt lat="35.39415322742694" lon="138.73282228308688"><ele>2310.3772792657837</ele><time>2022-07-02T08:57:06Z</time></trkpt><trkpt lat="35.39410467777658" lon="138.7326103009996"><ele>2308.3213524632156</ele><time>2022-07-02T08:57:12Z</time></trkpt><trkpt lat="35.394051915213794" lon="138.73239285839801"><ele>2312.646380711347</ele><time>2022-07-02T08:58:04Z</time></trkpt><trkpt lat="35.39419367053893" lon="138.73225517680586"><ele>2307.847074612044</ele><time>2022-07-02T08:59:38Z</time></trkpt><trkpt lat="35.3943558611512" lon="138.7321590480155"><ele>2309.8252293020487</ele><time>2022-07-02T08:59:52Z</time></trkpt><trkpt lat="35.39430499982771" lon="138.73192917929782"><ele>2309.4566288767383</ele><time>2022-07-02T09:00:01Z</time></trkpt><trkpt lat="35.39424567744379" lon="138.73168569676983"><ele>2308.778007367626</ele><time>2022-07-02T09:00:07Z</time></trkpt></trkseg></trk></gpx>