<?xml version='1.0' encoding='UTF-8'?><gpx creator="YAMAP - https://yamap.com" xsi:schemaLocation="http://www.topografix.com/GPX/1/1 http://www.topografix.com/GPX/1/1/gpx.xsd" version="1.1" xmlns="http://www.topografix.com/GPX/1/1" xmlns:xsi="http://www.w3.org/2001/XMLSchema-instance"><metadata><bounds maxlat="34.185498878391634" maxlon="136.10947061342756" minlat="34.17021581246561" minlon="136.0890946832198"/></metadata><trk><name>大台ヶ原山（日出ヶ岳）</name><number>1</number><trkseg><trkpt lat="34.18045934455838" lon="136.09746011264636"><ele>1579.1740572648123</ele><time>2022-05-02T02:06:07Z</time></trkpt><trkpt lat="34.180527697153295" lon="136.0972516582498"><ele>1574.6646740036085</ele><time>2022-05-02T02:08:02Z</time></trkpt><trkpt lat="34.18054931444729" lon="136.09703566786246"><ele>1575.1578580103815</ele><time>2022-05-02T02:08:20Z</time></trkpt><trkpt lat="34.18044681869762" lon="136.09684428046052"><ele>1576.058228585869</ele><time>2022-05-02T02:09:09Z</time></trkpt><trkpt lat="34.18042657028395" lon="136.0966168917915"><ele>1578.6545174876228</ele><time>2022-05-02T02:09:39Z</time></trkpt><trkpt lat="34.1803675046834" lon="136.0963901388146"><ele>1578.047122200951</ele><time>2022-05-02T02:09:58Z</time></trkpt><trkpt lat="34.1803676054688" lon="136.09616960179474"><ele>1577.9738968731835</ele><time>2022-05-02T02:10:13Z</time></trkpt><trkpt lat="34.1803663434732" lon="136.09594251094697"><ele>1576.635713136755</ele><time>2022-05-02T02:10:31Z</time></trkpt><trkpt lat="34.18039685129229" lon="136.09572357832283"><ele>1575.6819035513327</ele><time>2022-05-02T02:10:52Z</time></trkpt><trkpt lat="34.18039772559375" lon="136.09549950316378"><ele>1575.2192068696022</ele><time>2022-05-02T02:11:10Z</time></trkpt><trkpt lat="34.180354143930444" lon="136.09526855487937"><ele>1573.9011981263757</ele><time>2022-05-02T02:11:27Z</time></trkpt><trkpt lat="34.180313758779214" lon="136.09505435957198"><ele>1576.2855658298358</ele><time>2022-05-02T02:11:49Z</time></trkpt><trkpt lat="34.180259966323135" lon="136.09481524946636"><ele>1579.8068693391979</ele><time>2022-05-02T02:12:09Z</time></trkpt><trkpt lat="34.18035677138785" lon="136.09461809456232"><ele>1578.7832117360085</ele><time>2022-05-02T02:13:01Z</time></trkpt><trkpt lat="34.1803824358959" lon="136.09439918960018"><ele>1578.2821843577549</ele><time>2022-05-02T02:13:15Z</time></trkpt><trkpt lat="34.18042721041751" lon="136.09416923949243"><ele>1582.3064801618457</ele><time>2022-05-02T02:15:18Z</time></trkpt><trkpt lat="34.18041309233108" lon="136.0939512541472"><ele>1583.7963365092874</ele><time>2022-05-02T02:15:32Z</time></trkpt><trkpt lat="34.18045298805384" lon="136.09373604501675"><ele>1581.1749514974654</ele><time>2022-05-02T02:16:41Z</time></trkpt><trkpt lat="34.18046242401578" lon="136.09350871698098"><ele>1581.1586033357307</ele><time>2022-05-02T02:17:01Z</time></trkpt><trkpt lat="34.18052686688098" lon="136.0933016904074"><ele>1578.521039458923</ele><time>2022-05-02T02:17:25Z</time></trkpt><trkpt lat="34.180549619705225" lon="136.09307458730424"><ele>1572.8030856242403</ele><time>2022-05-02T02:17:46Z</time></trkpt><trkpt lat="34.18063815550653" lon="136.0928748052166"><ele>1567.7680056216195</ele><time>2022-05-02T02:18:12Z</time></trkpt><trkpt lat="34.18071799841881" lon="136.09267462055794"><ele>1564.1813508002087</ele><time>2022-05-02T02:18:39Z</time></trkpt><trkpt lat="34.18077575407298" lon="136.0924685897329"><ele>1561.7975451126695</ele><time>2022-05-02T02:19:03Z</time></trkpt><trkpt lat="34.18069881938636" lon="136.09225919749247"><ele>1558.2798970034346</ele><time>2022-05-02T02:19:33Z</time></trkpt><trkpt lat="34.18076215767387" lon="136.09204666963095"><ele>1554.7636122861877</ele><time>2022-05-02T02:20:42Z</time></trkpt><trkpt lat="34.18082897158989" lon="136.091837573945"><ele>1550.626533407718</ele><time>2022-05-02T02:21:17Z</time></trkpt><trkpt lat="34.18101676969663" lon="136.09184919173006"><ele>1546.800023732707</ele><time>2022-05-02T02:21:48Z</time></trkpt><trkpt lat="34.1811886781231" lon="136.0917432351957"><ele>1543.3649378782138</ele><time>2022-05-02T02:22:12Z</time></trkpt><trkpt lat="34.18134074466408" lon="136.09160979635425"><ele>1540.6151781026274</ele><time>2022-05-02T02:22:45Z</time></trkpt><trkpt lat="34.18150055053907" lon="136.0914907788908"><ele>1535.693935425952</ele><time>2022-05-02T02:23:19Z</time></trkpt><trkpt lat="34.18168824963227" lon="136.0914587377696"><ele>1532.745326959528</ele><time>2022-05-02T02:23:42Z</time></trkpt><trkpt lat="34.18173166060188" lon="136.0912360137562"><ele>1532.536863161251</ele><time>2022-05-02T02:24:11Z</time></trkpt><trkpt lat="34.18164853560062" lon="136.0910290026747"><ele>1530.381869492121</ele><time>2022-05-02T02:25:00Z</time></trkpt><trkpt lat="34.18160094967379" lon="136.09081274968415"><ele>1526.60568464268</ele><time>2022-05-02T02:25:54Z</time></trkpt><trkpt lat="34.181489506914694" lon="136.0906366687684"><ele>1525.823942411691</ele><time>2022-05-02T02:26:22Z</time></trkpt><trkpt lat="34.18134947603675" lon="136.09048078917158"><ele>1521.0222189659253</ele><time>2022-05-02T02:26:45Z</time></trkpt><trkpt lat="34.181195524690146" lon="136.0903588048622"><ele>1509.0835958607495</ele><time>2022-05-02T02:27:23Z</time></trkpt><trkpt lat="34.181050202484414" lon="136.0902236837528"><ele>1503.000197804533</ele><time>2022-05-02T02:27:50Z</time></trkpt><trkpt lat="34.18092647082969" lon="136.09004702002062"><ele>1491.1311014723033</ele><time>2022-05-02T02:28:53Z</time></trkpt><trkpt lat="34.18076277357847" lon="136.0899312460715"><ele>1482.593499914743</ele><time>2022-05-02T02:29:34Z</time></trkpt><trkpt lat="34.18062084303563" lon="136.08978426407225"><ele>1481.7707917634398</ele><time>2022-05-02T02:30:09Z</time></trkpt><trkpt lat="34.180477036378555" lon="136.0896508383169"><ele>1482.6207801373675</ele><time>2022-05-02T02:30:29Z</time></trkpt><trkpt lat="34.18029754368704" lon="136.0895840435232"><ele>1483.8590972078964</ele><time>2022-05-02T02:30:46Z</time></trkpt><trkpt lat="34.180249926670975" lon="136.08979741593984"><ele>1487.4404992386699</ele><time>2022-05-02T02:31:06Z</time></trkpt><trkpt lat="34.18009364452722" lon="136.08991858900617"><ele>1488.830910791643</ele><time>2022-05-02T02:31:28Z</time></trkpt><trkpt lat="34.179917385323115" lon="136.08998744847526"><ele>1488.0271493513137</ele><time>2022-05-02T02:31:50Z</time></trkpt><trkpt lat="34.17982544383888" lon="136.09019095153147"><ele>1489.6150866532698</ele><time>2022-05-02T02:32:10Z</time></trkpt><trkpt lat="34.17970355561074" lon="136.0903714809784"><ele>1492.3873715652153</ele><time>2022-05-02T02:32:30Z</time></trkpt><trkpt lat="34.179512303292995" lon="136.09037928584354"><ele>1490.5897533576936</ele><time>2022-05-02T02:32:51Z</time></trkpt><trkpt lat="34.179347885651374" lon="136.0904800770236"><ele>1488.666070642881</ele><time>2022-05-02T02:33:26Z</time></trkpt><trkpt lat="34.179173858361025" lon="136.09053850593574"><ele>1488.118555101566</ele><time>2022-05-02T02:34:27Z</time></trkpt><trkpt lat="34.1789911848699" lon="136.09057155781036"><ele>1487.751605658792</ele><time>2022-05-02T02:35:05Z</time></trkpt><trkpt lat="34.178810636639014" lon="136.09062256939905"><ele>1483.910812352784</ele><time>2022-05-02T02:35:30Z</time></trkpt><trkpt lat="34.17863280442997" lon="136.0905776884916"><ele>1473.6947393147275</ele><time>2022-05-02T02:36:21Z</time></trkpt><trkpt lat="34.17849454391115" lon="136.0907169968775"><ele>1463.4157687621191</ele><time>2022-05-02T02:37:19Z</time></trkpt><trkpt lat="34.17833447849983" lon="136.09061278385485"><ele>1449.3200208256021</ele><time>2022-05-02T02:38:30Z</time></trkpt><trkpt lat="34.17825813568434" lon="136.09040782375942"><ele>1439.7321872888133</ele><time>2022-05-02T02:39:22Z</time></trkpt><trkpt lat="34.17810325704582" lon="136.09052773293803"><ele>1436.4197064777836</ele><time>2022-05-02T02:39:57Z</time></trkpt><trkpt lat="34.17793359306491" lon="136.09045203215666"><ele>1435.9466243050992</ele><time>2022-05-02T02:40:49Z</time></trkpt><trkpt lat="34.177997697422185" lon="136.09065520443238"><ele>1435.2455719988793</ele><time>2022-05-02T02:42:07Z</time></trkpt><trkpt lat="34.17802573762408" lon="136.09042834381648"><ele>1431.4368176683784</ele><time>2022-05-02T02:46:59Z</time></trkpt><trkpt lat="34.177943367302326" lon="136.09022713322685"><ele>1431.226017942652</ele><time>2022-05-02T02:48:17Z</time></trkpt><trkpt lat="34.17775787981453" lon="136.0902599873704"><ele>1438.2827980853617</ele><time>2022-05-02T02:52:40Z</time></trkpt><trkpt lat="34.177677170968686" lon="136.0900619992818"><ele>1446.6943076653406</ele><time>2022-05-02T02:55:13Z</time></trkpt><trkpt lat="34.17756876373133" lon="136.0898774730136"><ele>1450.28627904132</ele><time>2022-05-02T02:56:01Z</time></trkpt><trkpt lat="34.17761319860054" lon="136.08966192926732"><ele>1459.666943654418</ele><time>2022-05-02T02:57:19Z</time></trkpt><trkpt lat="34.17761013748569" lon="136.08944024437676"><ele>1464.6585695622489</ele><time>2022-05-02T02:59:50Z</time></trkpt><trkpt lat="34.1776577362836" lon="136.08922460859114"><ele>1465.3026987863705</ele><time>2022-05-02T03:00:32Z</time></trkpt><trkpt lat="34.17750922354631" lon="136.0890946832198"><ele>1468.9342995528132</ele><time>2022-05-02T03:01:14Z</time></trkpt><trkpt lat="34.17732564263418" lon="136.0891322188786"><ele>1476.2453825725242</ele><time>2022-05-02T03:01:50Z</time></trkpt><trkpt lat="34.17723416401878" lon="136.0893192780228"><ele>1478.4079832872376</ele><time>2022-05-02T03:02:27Z</time></trkpt><trkpt lat="34.17708991658416" lon="136.08945636505575"><ele>1480.2254425194114</ele><time>2022-05-02T03:03:04Z</time></trkpt><trkpt lat="34.17695179685137" lon="136.0896017019697"><ele>1480.7020082790405</ele><time>2022-05-02T03:03:56Z</time></trkpt><trkpt lat="34.1768571788605" lon="136.08979693394178"><ele>1488.8370530195534</ele><time>2022-05-02T03:04:54Z</time></trkpt><trkpt lat="34.17671994293813" lon="136.08994728036512"><ele>1494.0543846506625</ele><time>2022-05-02T03:05:32Z</time></trkpt><trkpt lat="34.17659167047695" lon="136.0901054517084"><ele>1495.8788533881307</ele><time>2022-05-02T03:06:04Z</time></trkpt><trkpt lat="34.17646160752432" lon="136.0902574510795"><ele>1495.4980168268085</ele><time>2022-05-02T03:10:07Z</time></trkpt><trkpt lat="34.176378927017765" lon="136.09046079372018"><ele>1497.824157172814</ele><time>2022-05-02T03:10:28Z</time></trkpt><trkpt lat="34.17623520199725" lon="136.09059282115942"><ele>1498.4579645991325</ele><time>2022-05-02T03:10:56Z</time></trkpt><trkpt lat="34.17610817679776" lon="136.0907500153052"><ele>1500.5685292845592</ele><time>2022-05-02T03:11:29Z</time></trkpt><trkpt lat="34.17605811693979" lon="136.09096145331736"><ele>1505.8197013335302</ele><time>2022-05-02T03:11:57Z</time></trkpt><trkpt lat="34.17602636220073" lon="136.09120150262336"><ele>1508.2033540271223</ele><time>2022-05-02T03:12:31Z</time></trkpt><trkpt lat="34.175892953463865" lon="136.09134951277755"><ele>1513.4661586256698</ele><time>2022-05-02T03:14:02Z</time></trkpt><trkpt lat="34.17582344098851" lon="136.09155830692103"><ele>1517.978124473244</ele><time>2022-05-02T03:14:29Z</time></trkpt><trkpt lat="34.17572710695163" lon="136.09174470978093"><ele>1519.2322297329083</ele><time>2022-05-02T03:15:01Z</time></trkpt><trkpt lat="34.17556731861075" lon="136.09188579072364"><ele>1520.3566801352426</ele><time>2022-05-02T03:15:54Z</time></trkpt><trkpt lat="34.17545833724571" lon="136.0920666197047"><ele>1521.4728716220707</ele><time>2022-05-02T03:16:39Z</time></trkpt><trkpt lat="34.17530222548254" lon="136.09219002471448"><ele>1523.9699986353517</ele><time>2022-05-02T03:17:17Z</time></trkpt><trkpt lat="34.17513251153661" lon="136.09228454611676"><ele>1528.9059266429394</ele><time>2022-05-02T03:18:05Z</time></trkpt><trkpt lat="34.174961635428836" lon="136.09242311767173"><ele>1530.938859205693</ele><time>2022-05-02T03:18:44Z</time></trkpt><trkpt lat="34.17482306873682" lon="136.09257301236937"><ele>1530.345872676</ele><time>2022-05-02T03:19:31Z</time></trkpt><trkpt lat="34.1746996936971" lon="136.0927355379418"><ele>1528.57107697241</ele><time>2022-05-02T03:20:16Z</time></trkpt><trkpt lat="34.17451742878747" lon="136.09279039163593"><ele>1527.392107446678</ele><time>2022-05-02T03:20:42Z</time></trkpt><trkpt lat="34.17433479871306" lon="136.09283815286219"><ele>1530.5833735363558</ele><time>2022-05-02T03:21:27Z</time></trkpt><trkpt lat="34.17416981503487" lon="136.09294201353683"><ele>1534.433813543059</ele><time>2022-05-02T03:22:33Z</time></trkpt><trkpt lat="34.173988926784006" lon="136.093027488457"><ele>1542.2641129083931</ele><time>2022-05-02T03:23:58Z</time></trkpt><trkpt lat="34.173838660521675" lon="136.09316060230773"><ele>1546.5630147019401</ele><time>2022-05-02T03:24:56Z</time></trkpt><trkpt lat="34.173672504364085" lon="136.0932481732413"><ele>1552.149325747043</ele><time>2022-05-02T03:25:53Z</time></trkpt><trkpt lat="34.17347670832766" lon="136.09318427681765"><ele>1556.5950950654224</ele><time>2022-05-02T03:27:31Z</time></trkpt><trkpt lat="34.1732997015884" lon="136.09322965806496"><ele>1563.9525213865563</ele><time>2022-05-02T03:29:25Z</time></trkpt><trkpt lat="34.17311543319438" lon="136.0932556660376"><ele>1571.7757986877114</ele><time>2022-05-02T03:31:00Z</time></trkpt><trkpt lat="34.172924565139525" lon="136.0932234856651"><ele>1580.501978800632</ele><time>2022-05-02T03:32:34Z</time></trkpt><trkpt lat="34.172744276492985" lon="136.09323198405113"><ele>1587.3475925000384</ele><time>2022-05-02T03:33:30Z</time></trkpt><trkpt lat="34.17256470792386" lon="136.0932839718827"><ele>1589.787061514333</ele><time>2022-05-02T03:34:48Z</time></trkpt><trkpt lat="34.17238127019332" lon="136.09333945974444"><ele>1594.2204285115004</ele><time>2022-05-02T03:39:07Z</time></trkpt><trkpt lat="34.172230441159606" lon="136.0934761087795"><ele>1597.9447431424633</ele><time>2022-05-02T03:39:50Z</time></trkpt><trkpt lat="34.172045002308536" lon="136.09345531819514"><ele>1601.2239547045901</ele><time>2022-05-02T03:40:26Z</time></trkpt><trkpt lat="34.17188390412108" lon="136.09356184218674"><ele>1602.8415354238823</ele><time>2022-05-02T03:41:05Z</time></trkpt><trkpt lat="34.171784586744" lon="136.0937483135607"><ele>1599.1565081328154</ele><time>2022-05-02T03:41:53Z</time></trkpt><trkpt lat="34.17164794574849" lon="136.0938939003415"><ele>1601.6679340312257</ele><time>2022-05-02T03:42:23Z</time></trkpt><trkpt lat="34.17155715826191" lon="136.09408339600773"><ele>1604.2062708567828</ele><time>2022-05-02T03:42:54Z</time></trkpt><trkpt lat="34.171387771067515" lon="136.09399393876802"><ele>1609.469282549806</ele><time>2022-05-02T03:44:32Z</time></trkpt><trkpt lat="34.17120723648821" lon="136.0939794001355"><ele>1602.172150443308</ele><time>2022-05-02T03:45:20Z</time></trkpt><trkpt lat="34.17102936827874" lon="136.09392792748804"><ele>1596.822324196808</ele><time>2022-05-02T03:46:17Z</time></trkpt><trkpt lat="34.17089431946136" lon="136.09378130328318"><ele>1592.7305073635653</ele><time>2022-05-02T03:46:41Z</time></trkpt><trkpt lat="34.17075142251771" lon="136.09364611268546"><ele>1590.2007876820862</ele><time>2022-05-02T03:47:36Z</time></trkpt><trkpt lat="34.17065041723453" lon="136.0934607712901"><ele>1586.223256824538</ele><time>2022-05-02T03:48:12Z</time></trkpt><trkpt lat="34.170591502798956" lon="136.09325495800107"><ele>1586.0297699216753</ele><time>2022-05-02T03:48:47Z</time></trkpt><trkpt lat="34.170557459729764" lon="136.09303975505097"><ele>1581.9793107286096</ele><time>2022-05-02T03:49:23Z</time></trkpt><trkpt lat="34.17047706073316" lon="136.09284467738715"><ele>1577.814452400431</ele><time>2022-05-02T03:50:01Z</time></trkpt><trkpt lat="34.17038404635548" lon="136.09265678095295"><ele>1577.2650612639263</ele><time>2022-05-02T03:51:06Z</time></trkpt><trkpt lat="34.17031272725201" lon="136.09245446398776"><ele>1575.7564408164471</ele><time>2022-05-02T03:51:30Z</time></trkpt><trkpt lat="34.17028871502578" lon="136.09223687927027"><ele>1576.5727201364934</ele><time>2022-05-02T03:52:06Z</time></trkpt><trkpt lat="34.17024618493073" lon="136.09202013075267"><ele>1572.023459023796</ele><time>2022-05-02T03:52:55Z</time></trkpt><trkpt lat="34.1702786968874" lon="136.09180579535987"><ele>1574.0670063085854</ele><time>2022-05-02T03:53:37Z</time></trkpt><trkpt lat="34.17041161222256" lon="136.09165700002055"><ele>1565.1901660924777</ele><time>2022-05-02T03:55:06Z</time></trkpt><trkpt lat="34.17021583598368" lon="136.09200545912142"><ele>1581.537446941249</ele><time>2022-05-02T04:24:37Z</time></trkpt><trkpt lat="34.17021581246561" lon="136.09200509600566"><ele>1581.5771015509963</ele><time>2022-05-02T04:24:37Z</time></trkpt><trkpt lat="34.18522268988694" lon="136.109155263816"><ele>1703.6928091002628</ele><time>2022-05-02T06:05:57Z</time></trkpt><trkpt lat="34.18522268988694" lon="136.109155263816"><ele>1703.6928091002628</ele><time>2022-05-02T06:05:57Z</time></trkpt><trkpt lat="34.185498878391634" lon="136.10947061342756"><ele>1696.3319625854492</ele><time>2022-05-02T06:06:30Z</time></trkpt><trkpt lat="34.185244403811346" lon="136.10942509969334"><ele>1688.5216598510742</ele><time>2022-05-02T06:06:32Z</time></trkpt><trkpt lat="34.1851256019967" lon="136.10925094154396"><ele>1705.3877251641825</ele><time>2022-05-02T06:07:33Z</time></trkpt><trkpt lat="34.184954884893514" lon="136.10916517762863"><ele>1695.3842821065336</ele><time>2022-05-02T06:08:05Z</time></trkpt><trkpt lat="34.18477385996122" lon="136.10917825261012"><ele>1689.6748211178929</ele><time>2022-05-02T06:08:24Z</time></trkpt><trkpt lat="34.18462090675118" lon="136.10905916328656"><ele>1686.558564615436</ele><time>2022-05-02T06:08:47Z</time></trkpt><trkpt lat="34.18444964279575" lon="136.10914173832484"><ele>1683.0641858903691</ele><time>2022-05-02T06:09:11Z</time></trkpt><trkpt lat="34.1842842228696" lon="136.10905039103898"><ele>1674.0841946545988</ele><time>2022-05-02T06:10:00Z</time></trkpt><trkpt lat="34.184104408254726" lon="136.10897101452184"><ele>1665.6635307855904</ele><time>2022-05-02T06:10:37Z</time></trkpt><trkpt lat="34.183947326514016" lon="136.10885276388794"><ele>1657.801519567147</ele><time>2022-05-02T06:11:16Z</time></trkpt><trkpt lat="34.18382430591644" lon="136.10901321492443"><ele>1652.7117149997503</ele><time>2022-05-02T06:11:44Z</time></trkpt><trkpt lat="34.18363330173337" lon="136.1090646404638"><ele>1650.3180675311014</ele><time>2022-05-02T06:11:59Z</time></trkpt><trkpt lat="34.18346047893799" lon="136.10916245437764"><ele>1648.0297422492877</ele><time>2022-05-02T06:12:20Z</time></trkpt><trkpt lat="34.18342119848643" lon="136.10894471332335"><ele>1647.0581074329093</ele><time>2022-05-02T06:12:38Z</time></trkpt><trkpt lat="34.18346568314783" lon="136.10873015246173"><ele>1640.9773262431845</ele><time>2022-05-02T06:13:01Z</time></trkpt><trkpt lat="34.18355863384334" lon="136.10853903191335"><ele>1638.979817127809</ele><time>2022-05-02T06:13:41Z</time></trkpt><trkpt lat="34.18366627460861" lon="136.1083547136919"><ele>1639.2980218417943</ele><time>2022-05-02T06:14:00Z</time></trkpt><trkpt lat="34.183801539194164" lon="136.10819682867742"><ele>1636.8548883292824</ele><time>2022-05-02T06:14:21Z</time></trkpt><trkpt lat="34.18396878452851" lon="136.1080864982572"><ele>1634.3432547878474</ele><time>2022-05-02T06:14:47Z</time></trkpt><trkpt lat="34.18381964055812" lon="136.10796113724177"><ele>1631.7341533144936</ele><time>2022-05-02T06:15:32Z</time></trkpt><trkpt lat="34.18363616629271" lon="136.1079254773905"><ele>1627.1254092706367</ele><time>2022-05-02T06:15:58Z</time></trkpt><trkpt lat="34.18357759835742" lon="136.10771079395414"><ele>1618.5587636111304</ele><time>2022-05-02T06:16:31Z</time></trkpt><trkpt lat="34.18363632621003" lon="136.10749767678485"><ele>1616.3247473873198</ele><time>2022-05-02T06:16:56Z</time></trkpt><trkpt lat="34.1838112302746" lon="136.10742557803573"><ele>1614.6538190459833</ele><time>2022-05-02T06:17:17Z</time></trkpt><trkpt lat="34.18391530697552" lon="136.10723553850997"><ele>1610.481586234644</ele><time>2022-05-02T06:17:42Z</time></trkpt><trkpt lat="34.184032101300836" lon="136.1070666068076"><ele>1608.4202255886048</ele><time>2022-05-02T06:18:04Z</time></trkpt><trkpt lat="34.18413372739054" lon="136.10687265858746"><ele>1604.6492192763835</ele><time>2022-05-02T06:18:46Z</time></trkpt><trkpt lat="34.18423287576797" lon="136.10668415841408"><ele>1602.6503143757582</ele><time>2022-05-02T06:19:05Z</time></trkpt><trkpt lat="34.18433210885567" lon="136.10650103612448"><ele>1602.340066661127</ele><time>2022-05-02T06:19:23Z</time></trkpt><trkpt lat="34.18420929060149" lon="136.1063411848672"><ele>1595.6111814538017</ele><time>2022-05-02T06:20:10Z</time></trkpt><trkpt lat="34.184247064586415" lon="136.10612050072703"><ele>1590.468712233007</ele><time>2022-05-02T06:20:48Z</time></trkpt><trkpt lat="34.1842868476812" lon="136.1059057941049"><ele>1591.9196547595784</ele><time>2022-05-02T06:21:17Z</time></trkpt><trkpt lat="34.18432327489636" lon="136.10590101575488"><ele>1592.3890800010413</ele><time>2022-05-02T06:21:33Z</time></trkpt><trkpt lat="34.18432687602124" lon="136.10590278995377"><ele>1592.360147530213</ele><time>2022-05-02T06:21:34Z</time></trkpt><trkpt lat="34.184390970276006" lon="136.1056839890912"><ele>1594.1929441681132</ele><time>2022-05-02T06:23:02Z</time></trkpt><trkpt lat="34.18441800386903" lon="136.10545517686617"><ele>1595.1041119862348</ele><time>2022-05-02T06:23:23Z</time></trkpt><trkpt lat="34.18448399826743" lon="136.10524510051613"><ele>1592.537386839278</ele><time>2022-05-02T06:23:42Z</time></trkpt><trkpt lat="34.18452397641337" lon="136.10502641608656"><ele>1594.8299119509757</ele><time>2022-05-02T06:23:58Z</time></trkpt><trkpt lat="34.18464543709263" lon="136.10486226749438"><ele>1593.932494607754</ele><time>2022-05-02T06:24:23Z</time></trkpt><trkpt lat="34.18461599751484" lon="136.10464494826948"><ele>1597.2019572202116</ele><time>2022-05-02T06:24:44Z</time></trkpt><trkpt lat="34.18451371324593" lon="136.10446575154043"><ele>1595.176189784892</ele><time>2022-05-02T06:25:07Z</time></trkpt><trkpt lat="34.18449455514031" lon="136.1042484141272"><ele>1593.494071203284</ele><time>2022-05-02T06:25:26Z</time></trkpt><trkpt lat="34.184498692060764" lon="136.10402962583714"><ele>1592.981835179031</ele><time>2022-05-02T06:25:42Z</time></trkpt><trkpt lat="34.184500500588754" lon="136.1038121801656"><ele>1593.8139487719163</ele><time>2022-05-02T06:25:59Z</time></trkpt><trkpt lat="34.18450491228481" lon="136.10359170259244"><ele>1592.3402051627636</ele><time>2022-05-02T06:26:24Z</time></trkpt><trkpt lat="34.184545879022814" lon="136.10337368333367"><ele>1589.689478226006</ele><time>2022-05-02T06:26:41Z</time></trkpt><trkpt lat="34.18462506524232" lon="136.10317637933252"><ele>1590.0924101676792</ele><time>2022-05-02T06:27:00Z</time></trkpt><trkpt lat="34.184718874145126" lon="136.10297881981037"><ele>1590.4517268054187</ele><time>2022-05-02T06:27:19Z</time></trkpt><trkpt lat="34.18484641357155" lon="136.10281932558948"><ele>1589.6162397153676</ele><time>2022-05-02T06:27:40Z</time></trkpt><trkpt lat="34.18501095734086" lon="136.10266341714106"><ele>1594.1871859394014</ele><time>2022-05-02T06:27:58Z</time></trkpt><trkpt lat="34.1850320566105" lon="136.1024447402013"><ele>1590.9459600728005</ele><time>2022-05-02T06:28:21Z</time></trkpt><trkpt lat="34.185122677826136" lon="136.10224983860286"><ele>1590.691842244938</ele><time>2022-05-02T06:28:45Z</time></trkpt><trkpt lat="34.18520156540072" lon="136.10204698335426"><ele>1589.496323847212</ele><time>2022-05-02T06:29:08Z</time></trkpt><trkpt lat="34.1852984117375" lon="136.10186382662383"><ele>1589.9145500920713</ele><time>2022-05-02T06:29:31Z</time></trkpt><trkpt lat="34.1852503755552" lon="136.10164664383427"><ele>1591.213977101259</ele><time>2022-05-02T06:29:54Z</time></trkpt><trkpt lat="34.18526198064997" lon="136.10142607911516"><ele>1590.4424587683752</ele><time>2022-05-02T06:30:11Z</time></trkpt><trkpt lat="34.185199715951036" lon="136.10121378877545"><ele>1595.6710052713752</ele><time>2022-05-02T06:30:37Z</time></trkpt><trkpt lat="34.185018474951434" lon="136.10117094838822"><ele>1589.9054809482768</ele><time>2022-05-02T06:31:04Z</time></trkpt><trkpt lat="34.18489174763764" lon="136.10101262058458"><ele>1590.0421184087172</ele><time>2022-05-02T06:31:22Z</time></trkpt><trkpt lat="34.18473520348379" lon="136.10089785176436"><ele>1588.1494558611885</ele><time>2022-05-02T06:31:39Z</time></trkpt><trkpt lat="34.18458265103706" lon="136.10103749170136"><ele>1585.0338373966515</ele><time>2022-05-02T06:32:07Z</time></trkpt><trkpt lat="34.18444087328403" lon="136.10119212779247"><ele>1586.9706134023145</ele><time>2022-05-02T06:32:26Z</time></trkpt><trkpt lat="34.18430278577551" lon="136.10134687752702"><ele>1585.6905913399532</ele><time>2022-05-02T06:32:47Z</time></trkpt><trkpt lat="34.18415695013091" lon="136.10147666664648"><ele>1586.2921714670956</ele><time>2022-05-02T06:33:05Z</time></trkpt><trkpt lat="34.18398488820338" lon="136.10155160103824"><ele>1588.6198265040293</ele><time>2022-05-02T06:33:25Z</time></trkpt><trkpt lat="34.18381547551207" lon="136.101646008538"><ele>1584.951481020078</ele><time>2022-05-02T06:33:45Z</time></trkpt><trkpt lat="34.1836909308752" lon="136.10181865099668"><ele>1584.789760792628</ele><time>2022-05-02T06:34:04Z</time></trkpt><trkpt lat="34.18351642405254" lon="136.10188925280755"><ele>1587.722257917747</ele><time>2022-05-02T06:34:27Z</time></trkpt><trkpt lat="34.18340097038133" lon="136.1017107240132"><ele>1588.9669552799314</ele><time>2022-05-02T06:34:43Z</time></trkpt><trkpt lat="34.18334421363962" lon="136.10150470360634"><ele>1591.2427680585533</ele><time>2022-05-02T06:35:02Z</time></trkpt><trkpt lat="34.183244571972914" lon="136.10131190179175"><ele>1592.9075113954023</ele><time>2022-05-02T06:35:19Z</time></trkpt><trkpt lat="34.183135281864686" lon="136.10113132705584"><ele>1594.0820990586653</ele><time>2022-05-02T06:35:35Z</time></trkpt><trkpt lat="34.18302885089204" lon="136.10094802724262"><ele>1592.0659863920882</ele><time>2022-05-02T06:35:55Z</time></trkpt><trkpt lat="34.18293559417592" lon="136.1007602391406"><ele>1591.860780815594</ele><time>2022-05-02T06:36:19Z</time></trkpt><trkpt lat="34.18280287050613" lon="136.10060156621685"><ele>1592.7549626445398</ele><time>2022-05-02T06:36:38Z</time></trkpt><trkpt lat="34.182615435542516" lon="136.10063445271692"><ele>1589.781552051194</ele><time>2022-05-02T06:36:56Z</time></trkpt><trkpt lat="34.1824400652233" lon="136.10069308908976"><ele>1590.3589227665216</ele><time>2022-05-02T06:37:15Z</time></trkpt><trkpt lat="34.18225826923907" lon="136.10066323119503"><ele>1590.8610467799008</ele><time>2022-05-02T06:37:35Z</time></trkpt><trkpt lat="34.1821670038991" lon="136.10047601428704"><ele>1590.2646299581975</ele><time>2022-05-02T06:37:54Z</time></trkpt><trkpt lat="34.18216300319018" lon="136.100254352511"><ele>1592.841493631713</ele><time>2022-05-02T06:38:10Z</time></trkpt><trkpt lat="34.18198684218788" lon="136.1001841666419"><ele>1592.5047083310783</ele><time>2022-05-02T06:38:43Z</time></trkpt><trkpt lat="34.18180411234824" lon="136.10021169280233"><ele>1590.9120499705896</ele><time>2022-05-02T06:39:01Z</time></trkpt><trkpt lat="34.181667804686924" lon="136.10006538383362"><ele>1591.5248979283497</ele><time>2022-05-02T06:39:17Z</time></trkpt><trkpt lat="34.18160487228403" lon="136.0998544361491"><ele>1590.2755764527246</ele><time>2022-05-02T06:39:34Z</time></trkpt><trkpt lat="34.1815415568279" lon="136.0996473422384"><ele>1592.4783237408847</ele><time>2022-05-02T06:40:01Z</time></trkpt><trkpt lat="34.181477134920755" lon="136.0994307696836"><ele>1591.3638429157436</ele><time>2022-05-02T06:40:22Z</time></trkpt><trkpt lat="34.18136014578413" lon="136.09925202598166"><ele>1593.63906355761</ele><time>2022-05-02T06:40:39Z</time></trkpt><trkpt lat="34.181287176504505" lon="136.09904607072738"><ele>1592.260727809742</ele><time>2022-05-02T06:40:58Z</time></trkpt><trkpt lat="34.181184869206454" lon="136.09885330724597"><ele>1592.2365245632827</ele><time>2022-05-02T06:41:16Z</time></trkpt><trkpt lat="34.1810474758003" lon="136.0986947342601"><ele>1588.057383700274</ele><time>2022-05-02T06:41:45Z</time></trkpt><trkpt lat="34.18090922062115" lon="136.09855425445988"><ele>1587.3996555088088</ele><time>2022-05-02T06:42:00Z</time></trkpt><trkpt lat="34.18084705114548" lon="136.09834115090308"><ele>1585.1519074104726</ele><time>2022-05-02T06:42:22Z</time></trkpt><trkpt lat="34.18070986558199" lon="136.09819825934727"><ele>1583.7367717800662</ele><time>2022-05-02T06:42:44Z</time></trkpt><trkpt lat="34.18056987879882" lon="136.09805257006775"><ele>1584.3309410130605</ele><time>2022-05-02T06:43:24Z</time></trkpt><trkpt lat="34.18044601778759" lon="136.09787994958663"><ele>1583.520445054397</ele><time>2022-05-02T06:43:41Z</time></trkpt><trkpt lat="34.180274278431035" lon="136.09779882079846"><ele>1579.5717202117667</ele><time>2022-05-02T06:44:31Z</time></trkpt><trkpt lat="34.18009007408212" lon="136.0978428727067"><ele>1582.586676955223</ele><time>2022-05-02T06:44:52Z</time></trkpt><trkpt lat="34.17996229191859" lon="136.09768356476124"><ele>1583.0594855993986</ele><time>2022-05-02T06:45:10Z</time></trkpt><trkpt lat="34.17991769689246" lon="136.09746920304696"><ele>1583.7685667425394</ele><time>2022-05-02T06:45:28Z</time></trkpt><trkpt lat="34.17992276513191" lon="136.09754437162766"><ele>1577.9185389811173</ele><time>2022-05-02T06:47:20Z</time></trkpt><trkpt lat="34.17992143303832" lon="136.09754763417547"><ele>1578.2032275944948</ele><time>2022-05-02T06:47:21Z</time></trkpt><trkpt lat="34.18010166224705" lon="136.09760082460082"><ele>1576.0962404599413</ele><time>2022-05-02T06:51:43Z</time></trkpt><trkpt lat="34.180290516734715" lon="136.09762516874986"><ele>1576.3355328263715</ele><time>2022-05-02T06:52:09Z</time></trkpt><trkpt lat="34.18045471048025" lon="136.09751751936886"><ele>1576.9530184371397</ele><time>2022-05-02T06:52:29Z</time></trkpt><trkpt lat="34.18036488291096" lon="136.09770682995975"><ele>1578.3820996237919</ele><time>2022-05-02T06:55:00Z</time></trkpt><trkpt lat="34.18025254127898" lon="136.09788433075747"><ele>1581.2189455572516</ele><time>2022-05-02T06:55:15Z</time></trkpt><trkpt lat="34.1802758546395" lon="136.09766574006986"><ele>1574.2136828610674</ele><time>2022-05-02T06:56:23Z</time></trkpt><trkpt lat="34.180544977561496" lon="136.09814987723408"><ele>1575.7776356218383</ele><time>2022-05-02T06:57:23Z</time></trkpt><trkpt lat="34.180285430771775" lon="136.09810579190489"><ele>1576.2719596540555</ele><time>2022-05-02T06:57:35Z</time></trkpt><trkpt lat="34.180361078112405" lon="136.09835597259342"><ele>1577.9251308571547</ele><time>2022-05-02T06:57:54Z</time></trkpt><trkpt lat="34.18024422336077" lon="136.0985294704029"><ele>1581.0739512369037</ele><time>2022-05-02T06:57:59Z</time></trkpt><trkpt lat="34.180163940762576" lon="136.09830284271766"><ele>1583.0253096222878</ele><time>2022-05-02T06:58:04Z</time></trkpt><trkpt lat="34.180303363607116" lon="136.0981507245955"><ele>1578.252581003122</ele><time>2022-05-02T06:59:23Z</time></trkpt><trkpt lat="34.18016737839387" lon="136.09799606405656"><ele>1575.3064525658265</ele><time>2022-05-02T06:59:46Z</time></trkpt><trkpt lat="34.180151800933466" lon="136.0979787821797"><ele>1574.4376487368718</ele><time>2022-05-02T06:59:55Z</time></trkpt><trkpt lat="34.180331619378" lon="136.09800978245443"><ele>1574.7300532720983</ele><time>2022-05-02T07:00:32Z</time></trkpt><trkpt lat="34.18014503732096" lon="136.0980132520125"><ele>1573.8293963875622</ele><time>2022-05-02T07:00:51Z</time></trkpt><trkpt lat="34.18031455945195" lon="136.09785114642528"><ele>1576.395508932881</ele><time>2022-05-02T07:02:11Z</time></trkpt><trkpt lat="34.18014069799484" lon="136.0977715108375"><ele>1584.4331663679332</ele><time>2022-05-02T07:02:21Z</time></trkpt><trkpt lat="34.18003295579921" lon="136.09797863523636"><ele>1581.8375937193632</ele><time>2022-05-02T07:02:44Z</time></trkpt><trkpt lat="34.18024342632615" lon="136.0979242717883"><ele>1574.8391514811665</ele><time>2022-05-02T07:03:40Z</time></trkpt><trkpt lat="34.180481128704685" lon="136.09802552789336"><ele>1581.3185310456902</ele><time>2022-05-02T07:04:39Z</time></trkpt><trkpt lat="34.18015764116199" lon="136.0979611235929"><ele>1585.2376072946936</ele><time>2022-05-02T07:05:13Z</time></trkpt><trkpt lat="34.180500078978184" lon="136.09753713024415"><ele>1581.887294769287</ele><time>2022-05-02T07:11:02Z</time></trkpt></trkseg></trk></gpx>