<?xml version='1.0' encoding='UTF-8'?><gpx creator="YAMAP - https://yamap.com" xsi:schemaLocation="http://www.topografix.com/GPX/1/1 http://www.topografix.com/GPX/1/1/gpx.xsd" version="1.1" xmlns="http://www.topografix.com/GPX/1/1" xmlns:xsi="http://www.w3.org/2001/XMLSchema-instance"><metadata><bounds maxlat="42.889806027554215" maxlon="140.47590143409045" minlat="42.85208459016201" minlon="140.45419543284282"/></metadata><trk><name>目国内岳・雷電山-2022-02-12</name><number>1</number><trkseg><trkpt lat="42.85210003560707" lon="140.45437592700247"><ele>168.8489150898531</ele><time>2022-02-11T21:41:52Z</time></trkpt><trkpt lat="42.852285223620164" lon="140.454319920684"><ele>173.41194141376764</ele><time>2022-02-11T22:02:42Z</time></trkpt><trkpt lat="42.852454009731225" lon="140.45442648547512"><ele>174.69887048844248</ele><time>2022-02-11T22:03:11Z</time></trkpt><trkpt lat="42.85261463773004" lon="140.45454314202416"><ele>174.33113566413522</ele><time>2022-02-11T22:03:39Z</time></trkpt><trkpt lat="42.85279747242156" lon="140.45456510517022"><ele>176.4619870055467</ele><time>2022-02-11T22:04:08Z</time></trkpt><trkpt lat="42.85298428077398" lon="140.45454813012512"><ele>178.0776310749352</ele><time>2022-02-11T22:04:44Z</time></trkpt><trkpt lat="42.85316859805057" lon="140.45452144635178"><ele>181.31967005506158</ele><time>2022-02-11T22:05:08Z</time></trkpt><trkpt lat="42.853358399099015" lon="140.45449086635986"><ele>183.43827003240585</ele><time>2022-02-11T22:06:10Z</time></trkpt><trkpt lat="42.85353928366256" lon="140.4544626135596"><ele>184.32175165880471</ele><time>2022-02-11T22:06:34Z</time></trkpt><trkpt lat="42.85372171652947" lon="140.45441755664282"><ele>187.2377505293116</ele><time>2022-02-11T22:07:16Z</time></trkpt><trkpt lat="42.85390124338864" lon="140.45439852341121"><ele>187.6118166707456</ele><time>2022-02-11T22:07:50Z</time></trkpt><trkpt lat="42.854087518393484" lon="140.45435574402416"><ele>190.49423197843134</ele><time>2022-02-11T22:08:36Z</time></trkpt><trkpt lat="42.854274448225745" lon="140.45432841566307"><ele>191.43253010418266</ele><time>2022-02-11T22:08:59Z</time></trkpt><trkpt lat="42.85445483040999" lon="140.45428737739286"><ele>193.77910065092146</ele><time>2022-02-11T22:09:21Z</time></trkpt><trkpt lat="42.85464137401645" lon="140.4542466243528"><ele>194.85111862793565</ele><time>2022-02-11T22:09:46Z</time></trkpt><trkpt lat="42.85482616633472" lon="140.4542300753261"><ele>197.1019447259605</ele><time>2022-02-11T22:10:08Z</time></trkpt><trkpt lat="42.85500934391767" lon="140.45420847699359"><ele>198.50567466951907</ele><time>2022-02-11T22:10:31Z</time></trkpt><trkpt lat="42.855194737867386" lon="140.45419543284282"><ele>200.55273099057376</ele><time>2022-02-11T22:10:54Z</time></trkpt><trkpt lat="42.8553806514661" lon="140.4542000793273"><ele>201.15958011057228</ele><time>2022-02-11T22:11:22Z</time></trkpt><trkpt lat="42.85556399038929" lon="140.45421458851837"><ele>202.54494500439614</ele><time>2022-02-11T22:11:59Z</time></trkpt><trkpt lat="42.855746627697435" lon="140.45424993401303"><ele>204.37425622250885</ele><time>2022-02-11T22:12:23Z</time></trkpt><trkpt lat="42.85592825399799" lon="140.4542911098727"><ele>204.70682297367603</ele><time>2022-02-11T22:12:50Z</time></trkpt><trkpt lat="42.856113744678474" lon="140.45429609934766"><ele>206.57314195949584</ele><time>2022-02-11T22:13:14Z</time></trkpt><trkpt lat="42.856298762745595" lon="140.45430164544368"><ele>210.44428273197263</ele><time>2022-02-11T22:13:40Z</time></trkpt><trkpt lat="42.8564698804679" lon="140.4543261339954"><ele>212.97194824460894</ele><time>2022-02-11T22:14:10Z</time></trkpt><trkpt lat="42.856657714289106" lon="140.4543588091666"><ele>213.80781964678317</ele><time>2022-02-11T22:17:53Z</time></trkpt><trkpt lat="42.85683996195759" lon="140.45440278424667"><ele>214.97975831944495</ele><time>2022-02-11T22:18:16Z</time></trkpt><trkpt lat="42.85702928388588" lon="140.4544298667255"><ele>217.0311438292265</ele><time>2022-02-11T22:18:39Z</time></trkpt><trkpt lat="42.857207033201014" lon="140.4544733476414"><ele>220.77643811050802</ele><time>2022-02-11T22:19:02Z</time></trkpt><trkpt lat="42.857395294955374" lon="140.45447100323364"><ele>222.87533329892904</ele><time>2022-02-11T22:19:31Z</time></trkpt><trkpt lat="42.857578293258904" lon="140.4544448936433"><ele>225.7183927698061</ele><time>2022-02-11T22:19:52Z</time></trkpt><trkpt lat="42.857758764276596" lon="140.45441886237123"><ele>227.07495309785008</ele><time>2022-02-11T22:20:12Z</time></trkpt><trkpt lat="42.85794719059748" lon="140.45439907537093"><ele>229.44383449759334</ele><time>2022-02-11T22:20:41Z</time></trkpt><trkpt lat="42.858128637881386" lon="140.45437954116184"><ele>232.89201826229692</ele><time>2022-02-11T22:21:02Z</time></trkpt><trkpt lat="42.85830882533214" lon="140.4543735748626"><ele>234.4104320956394</ele><time>2022-02-11T22:21:29Z</time></trkpt><trkpt lat="42.85849217547843" lon="140.45436482141344"><ele>235.65463703870773</ele><time>2022-02-11T22:22:08Z</time></trkpt><trkpt lat="42.85867096130617" lon="140.45439434296986"><ele>235.4544381564483</ele><time>2022-02-11T22:28:51Z</time></trkpt><trkpt lat="42.858857640923375" lon="140.45436402480485"><ele>239.3504810705781</ele><time>2022-02-11T22:29:13Z</time></trkpt><trkpt lat="42.85903793920483" lon="140.45431052666072"><ele>242.25381311401725</ele><time>2022-02-11T22:29:36Z</time></trkpt><trkpt lat="42.85922553549224" lon="140.45429791323537"><ele>243.28953827079386</ele><time>2022-02-11T22:29:59Z</time></trkpt><trkpt lat="42.8594081617536" lon="140.4542877182619"><ele>245.72202955558896</ele><time>2022-02-11T22:30:23Z</time></trkpt><trkpt lat="42.85958982898434" lon="140.4543386767358"><ele>247.48990213032812</ele><time>2022-02-11T22:30:43Z</time></trkpt><trkpt lat="42.85977702131971" lon="140.45439161227006"><ele>250.18062631599605</ele><time>2022-02-11T22:31:06Z</time></trkpt><trkpt lat="42.85995334773486" lon="140.45445792566352"><ele>253.78477529156953</ele><time>2022-02-11T22:31:26Z</time></trkpt><trkpt lat="42.86012615033329" lon="140.45456253242025"><ele>255.02425514906645</ele><time>2022-02-11T22:31:51Z</time></trkpt><trkpt lat="42.86030541354076" lon="140.4546492213819"><ele>257.1028062514961</ele><time>2022-02-11T22:32:16Z</time></trkpt><trkpt lat="42.86047830984532" lon="140.45473060943237"><ele>258.6451020138338</ele><time>2022-02-11T22:32:41Z</time></trkpt><trkpt lat="42.8606516622714" lon="140.45481173157384"><ele>260.0996890729293</ele><time>2022-02-11T22:33:03Z</time></trkpt><trkpt lat="42.86081890305593" lon="140.45491086114964"><ele>261.82333690021187</ele><time>2022-02-11T22:33:27Z</time></trkpt><trkpt lat="42.86098653440304" lon="140.45503030965307"><ele>266.8253132980317</ele><time>2022-02-11T22:37:40Z</time></trkpt><trkpt lat="42.8611708648196" lon="140.45497866764202"><ele>266.00704706273973</ele><time>2022-02-11T22:38:05Z</time></trkpt><trkpt lat="42.86135234225919" lon="140.45495356552027"><ele>266.4316656170413</ele><time>2022-02-11T22:38:31Z</time></trkpt><trkpt lat="42.86153551785158" lon="140.45491804290143"><ele>269.06842390913516</ele><time>2022-02-11T22:38:58Z</time></trkpt><trkpt lat="42.861715122365936" lon="140.45487632127669"><ele>271.6535446392372</ele><time>2022-02-11T22:39:26Z</time></trkpt><trkpt lat="42.86189519418082" lon="140.45485273556724"><ele>274.48137630242854</ele><time>2022-02-11T22:39:52Z</time></trkpt><trkpt lat="42.86203078977283" lon="140.45468671562682"><ele>278.37116756103933</ele><time>2022-02-11T22:40:20Z</time></trkpt><trkpt lat="42.8622131132109" lon="140.4546347397723"><ele>278.3076093774289</ele><time>2022-02-11T22:40:45Z</time></trkpt><trkpt lat="42.862392448565515" lon="140.45457652641772"><ele>282.1631189594045</ele><time>2022-02-11T22:41:15Z</time></trkpt><trkpt lat="42.86257481157374" lon="140.45457521379197"><ele>286.7264362666756</ele><time>2022-02-11T22:42:00Z</time></trkpt><trkpt lat="42.86276468338161" lon="140.45458300822372"><ele>285.9247050024569</ele><time>2022-02-11T22:42:19Z</time></trkpt><trkpt lat="42.86294973308182" lon="140.45464092366254"><ele>289.16965525224805</ele><time>2022-02-11T22:42:45Z</time></trkpt><trkpt lat="42.86311709813357" lon="140.4547375931756"><ele>294.0923731420189</ele><time>2022-02-11T22:46:05Z</time></trkpt><trkpt lat="42.863297897113256" lon="140.45480547201902"><ele>296.1669656559825</ele><time>2022-02-11T22:46:29Z</time></trkpt><trkpt lat="42.86348024133823" lon="140.45485425792666"><ele>299.81281523033977</ele><time>2022-02-11T22:46:50Z</time></trkpt><trkpt lat="42.86366627199024" lon="140.4548946826141"><ele>301.75983470492065</ele><time>2022-02-11T22:47:27Z</time></trkpt><trkpt lat="42.863840265805884" lon="140.45496871920074"><ele>304.89432531315833</ele><time>2022-02-11T22:47:56Z</time></trkpt><trkpt lat="42.864017025083" lon="140.45501604349454"><ele>305.65775191318244</ele><time>2022-02-11T22:48:32Z</time></trkpt><trkpt lat="42.86419065341854" lon="140.45510720313808"><ele>306.13798526022583</ele><time>2022-02-11T22:49:02Z</time></trkpt><trkpt lat="42.8643787125999" lon="140.45514792321165"><ele>315.5058283098042</ele><time>2022-02-11T22:49:27Z</time></trkpt><trkpt lat="42.86455026174879" lon="140.4552391895718"><ele>319.22738866880536</ele><time>2022-02-11T22:49:58Z</time></trkpt><trkpt lat="42.86472104161048" lon="140.4553343947373"><ele>319.411681542173</ele><time>2022-02-11T22:50:29Z</time></trkpt><trkpt lat="42.864900713161624" lon="140.45540287345773"><ele>322.43369570188224</ele><time>2022-02-11T22:51:01Z</time></trkpt><trkpt lat="42.865078244349995" lon="140.45548661990495"><ele>322.2787248492241</ele><time>2022-02-11T22:51:32Z</time></trkpt><trkpt lat="42.865254507818356" lon="140.45556239816017"><ele>323.4784300914034</ele><time>2022-02-11T22:51:54Z</time></trkpt><trkpt lat="42.865427037536364" lon="140.45565916512487"><ele>325.59371989034116</ele><time>2022-02-11T22:52:20Z</time></trkpt><trkpt lat="42.865606764548325" lon="140.45571672839284"><ele>327.30880315136164</ele><time>2022-02-11T22:52:46Z</time></trkpt><trkpt lat="42.86578757316528" lon="140.45573312408928"><ele>329.62139765173197</ele><time>2022-02-11T22:53:09Z</time></trkpt><trkpt lat="42.8659619861902" lon="140.455808804775"><ele>330.3889904525131</ele><time>2022-02-11T22:53:35Z</time></trkpt><trkpt lat="42.866131837051476" lon="140.45589441701262"><ele>336.6552801858634</ele><time>2022-02-11T22:54:01Z</time></trkpt><trkpt lat="42.866271658575464" lon="140.45605450843044"><ele>339.6520687304437</ele><time>2022-02-11T22:54:34Z</time></trkpt><trkpt lat="42.86643852918196" lon="140.45614782915285"><ele>341.087088258937</ele><time>2022-02-11T22:55:03Z</time></trkpt><trkpt lat="42.866628987574416" lon="140.45619740238007"><ele>347.6312836110592</ele><time>2022-02-11T22:55:41Z</time></trkpt><trkpt lat="42.866765303603636" lon="140.4563579348687"><ele>349.75134603120387</ele><time>2022-02-11T22:56:16Z</time></trkpt><trkpt lat="42.866891565503295" lon="140.4565389396158"><ele>351.3455418404192</ele><time>2022-02-11T22:56:48Z</time></trkpt><trkpt lat="42.86706617388189" lon="140.456613223548"><ele>351.12646085675806</ele><time>2022-02-11T23:00:53Z</time></trkpt><trkpt lat="42.86725124289634" lon="140.4566345815288"><ele>355.63825996313244</ele><time>2022-02-11T23:01:22Z</time></trkpt><trkpt lat="42.867424210117704" lon="140.45671289368022"><ele>356.51026189140975</ele><time>2022-02-11T23:01:56Z</time></trkpt><trkpt lat="42.86759982514629" lon="140.45677910713877"><ele>361.69406805280596</ele><time>2022-02-11T23:02:24Z</time></trkpt><trkpt lat="42.8677577111894" lon="140.45691285781692"><ele>365.82446584571153</ele><time>2022-02-11T23:02:53Z</time></trkpt><trkpt lat="42.86792971825963" lon="140.45698598421757"><ele>370.8217128030956</ele><time>2022-02-11T23:03:16Z</time></trkpt><trkpt lat="42.86808588927327" lon="140.4571187098612"><ele>372.2493344116956</ele><time>2022-02-11T23:03:49Z</time></trkpt><trkpt lat="42.86825458416596" lon="140.4572232826947"><ele>378.56126093212515</ele><time>2022-02-11T23:04:15Z</time></trkpt><trkpt lat="42.86842336868063" lon="140.45731997474945"><ele>380.7640764089301</ele><time>2022-02-11T23:04:47Z</time></trkpt><trkpt lat="42.868566731943176" lon="140.45747154499585"><ele>383.56885848008096</ele><time>2022-02-11T23:05:19Z</time></trkpt><trkpt lat="42.86870800015504" lon="140.45762327855425"><ele>386.21780715323985</ele><time>2022-02-11T23:05:51Z</time></trkpt><trkpt lat="42.86887523848004" lon="140.45772030898672"><ele>392.52356604952365</ele><time>2022-02-11T23:06:15Z</time></trkpt><trkpt lat="42.869032283701515" lon="140.4578491760956"><ele>393.16086201462895</ele><time>2022-02-11T23:06:49Z</time></trkpt><trkpt lat="42.86920104611566" lon="140.45795096441594"><ele>397.92265463154763</ele><time>2022-02-11T23:07:19Z</time></trkpt><trkpt lat="42.86937125946637" lon="140.4580491865829"><ele>399.91001007240266</ele><time>2022-02-11T23:08:17Z</time></trkpt><trkpt lat="42.86951446453251" lon="140.45822404174484"><ele>401.76125920563936</ele><time>2022-02-11T23:08:47Z</time></trkpt><trkpt lat="42.86950271008513" lon="140.4584694670217"><ele>407.8758014552295</ele><time>2022-02-11T23:09:47Z</time></trkpt><trkpt lat="42.86951448309546" lon="140.45871371411036"><ele>413.1562176272273</ele><time>2022-02-11T23:10:26Z</time></trkpt><trkpt lat="42.86955361025588" lon="140.4587264769277"><ele>414.5559145305306</ele><time>2022-02-11T23:10:47Z</time></trkpt><trkpt lat="42.869641607949326" lon="140.45894314450686"><ele>417.88407352752984</ele><time>2022-02-11T23:11:41Z</time></trkpt><trkpt lat="42.86975856421087" lon="140.45913133614337"><ele>421.97007911186665</ele><time>2022-02-11T23:12:28Z</time></trkpt><trkpt lat="42.869908330086815" lon="140.45928145173102"><ele>427.24329138174653</ele><time>2022-02-11T23:13:00Z</time></trkpt><trkpt lat="42.8700514783861" lon="140.45944099681117"><ele>429.8996279593557</ele><time>2022-02-11T23:13:33Z</time></trkpt><trkpt lat="42.87021509827763" lon="140.45955105639544"><ele>434.45941289979964</ele><time>2022-02-11T23:14:10Z</time></trkpt><trkpt lat="42.87039304516862" lon="140.45960352929492"><ele>438.7724385699257</ele><time>2022-02-11T23:14:50Z</time></trkpt><trkpt lat="42.87056990525881" lon="140.4596507786163"><ele>442.01959767751396</ele><time>2022-02-11T23:15:19Z</time></trkpt><trkpt lat="42.87070034335328" lon="140.45982198924116"><ele>444.86233097407967</ele><time>2022-02-11T23:16:00Z</time></trkpt><trkpt lat="42.870845689691144" lon="140.45997306031796"><ele>452.8953469945118</ele><time>2022-02-11T23:16:33Z</time></trkpt><trkpt lat="42.87096937182149" lon="140.46016377960333"><ele>458.98078911565244</ele><time>2022-02-11T23:17:22Z</time></trkpt><trkpt lat="42.871087158616" lon="140.4603509474368"><ele>461.44872544147074</ele><time>2022-02-11T23:17:59Z</time></trkpt><trkpt lat="42.871206185847605" lon="140.46055009344852"><ele>467.17447431292385</ele><time>2022-02-11T23:18:38Z</time></trkpt><trkpt lat="42.87132480258715" lon="140.46074507065114"><ele>471.1274111242965</ele><time>2022-02-11T23:19:19Z</time></trkpt><trkpt lat="42.87149189027992" lon="140.4608362378955"><ele>475.2485565515235</ele><time>2022-02-11T23:19:50Z</time></trkpt><trkpt lat="42.87166474397975" lon="140.46091203601628"><ele>479.98907965794206</ele><time>2022-02-11T23:20:29Z</time></trkpt><trkpt lat="42.87185068694833" lon="140.46099866744217"><ele>487.44760509580374</ele><time>2022-02-11T23:21:09Z</time></trkpt><trkpt lat="42.872021459680454" lon="140.46108128972477"><ele>492.65659495349973</ele><time>2022-02-11T23:21:41Z</time></trkpt><trkpt lat="42.87217904955519" lon="140.4612028930598"><ele>496.1523270588368</ele><time>2022-02-11T23:22:32Z</time></trkpt><trkpt lat="42.8723553199335" lon="140.46125518129622"><ele>499.45794853940606</ele><time>2022-02-11T23:23:15Z</time></trkpt><trkpt lat="42.87253696041303" lon="140.4612881290379"><ele>504.37610212061554</ele><time>2022-02-11T23:24:01Z</time></trkpt><trkpt lat="42.87271993515231" lon="140.46134895071557"><ele>508.24702367186546</ele><time>2022-02-11T23:24:42Z</time></trkpt><trkpt lat="42.87289783883517" lon="140.46139381601023"><ele>514.667397102341</ele><time>2022-02-11T23:25:47Z</time></trkpt><trkpt lat="42.87306252298881" lon="140.4615057389237"><ele>519.7422251366079</ele><time>2022-02-11T23:26:25Z</time></trkpt><trkpt lat="42.87323443670749" lon="140.46158840406702"><ele>525.2154845604673</ele><time>2022-02-11T23:27:31Z</time></trkpt><trkpt lat="42.8734151838909" lon="140.46162067361183"><ele>530.5715296370909</ele><time>2022-02-11T23:28:33Z</time></trkpt><trkpt lat="42.873443852197276" lon="140.4616396332787"><ele>531.577059943229</ele><time>2022-02-11T23:29:24Z</time></trkpt><trkpt lat="42.87360423483886" lon="140.46176813052614"><ele>534.7222337219864</ele><time>2022-02-11T23:32:21Z</time></trkpt><trkpt lat="42.87378699880834" lon="140.46182330570468"><ele>539.9603172196075</ele><time>2022-02-11T23:32:57Z</time></trkpt><trkpt lat="42.87396023457769" lon="140.4618988735859"><ele>544.3942055348307</ele><time>2022-02-11T23:33:38Z</time></trkpt><trkpt lat="42.8741396620979" lon="140.46193068741886"><ele>548.427949228324</ele><time>2022-02-11T23:34:21Z</time></trkpt><trkpt lat="42.874325462455545" lon="140.46194137810986"><ele>553.8832472898066</ele><time>2022-02-11T23:34:57Z</time></trkpt><trkpt lat="42.87450928490553" lon="140.4619720821825"><ele>557.1905078757554</ele><time>2022-02-11T23:35:38Z</time></trkpt><trkpt lat="42.87468093068585" lon="140.4620635413477"><ele>562.6262120325118</ele><time>2022-02-11T23:36:21Z</time></trkpt><trkpt lat="42.874830550291676" lon="140.46222586884377"><ele>564.0331127746031</ele><time>2022-02-11T23:36:59Z</time></trkpt><trkpt lat="42.87497362163207" lon="140.46237746379265"><ele>569.9503659987822</ele><time>2022-02-11T23:37:32Z</time></trkpt><trkpt lat="42.87511202275253" lon="140.46254302710628"><ele>573.2656108522788</ele><time>2022-02-11T23:38:20Z</time></trkpt><trkpt lat="42.87526411192255" lon="140.46267548440767"><ele>576.8192186979577</ele><time>2022-02-11T23:38:56Z</time></trkpt><trkpt lat="42.87537784871912" lon="140.46286781668996"><ele>583.05979740154</ele><time>2022-02-11T23:39:41Z</time></trkpt><trkpt lat="42.875506713255795" lon="140.46303948287957"><ele>587.8956758501008</ele><time>2022-02-11T23:40:30Z</time></trkpt><trkpt lat="42.875632483722605" lon="140.46321589236686"><ele>594.6703450800851</ele><time>2022-02-11T23:41:17Z</time></trkpt><trkpt lat="42.87570507619186" lon="140.46344091305482"><ele>598.9226349415258</ele><time>2022-02-11T23:42:02Z</time></trkpt><trkpt lat="42.87584070204463" lon="140.46360852256285"><ele>601.0812506768852</ele><time>2022-02-11T23:42:44Z</time></trkpt><trkpt lat="42.87597538245333" lon="140.46378244668838"><ele>607.9059786759317</ele><time>2022-02-11T23:43:43Z</time></trkpt><trkpt lat="42.87612198503129" lon="140.46393393265728"><ele>607.8073262730613</ele><time>2022-02-11T23:44:25Z</time></trkpt><trkpt lat="42.8762492607701" lon="140.464107838744"><ele>613.4098939336836</ele><time>2022-02-11T23:45:06Z</time></trkpt><trkpt lat="42.87636753494779" lon="140.4643089893066"><ele>620.4733053650707</ele><time>2022-02-11T23:46:18Z</time></trkpt><trkpt lat="42.87649966726454" lon="140.4644780616897"><ele>624.576909981668</ele><time>2022-02-11T23:46:49Z</time></trkpt><trkpt lat="42.87650827692886" lon="140.4645493345538"><ele>626.6968872537836</ele><time>2022-02-11T23:48:01Z</time></trkpt><trkpt lat="42.87666296712423" lon="140.46467508704762"><ele>630.6192306457087</ele><time>2022-02-11T23:49:36Z</time></trkpt><trkpt lat="42.87682488733691" lon="140.46478526200534"><ele>630.3858641395345</ele><time>2022-02-11T23:50:11Z</time></trkpt><trkpt lat="42.876966373517185" lon="140.4649512619319"><ele>632.6038786713034</ele><time>2022-02-11T23:50:40Z</time></trkpt><trkpt lat="42.87713660210513" lon="140.46506488298198"><ele>636.4580849073827</ele><time>2022-02-11T23:51:16Z</time></trkpt><trkpt lat="42.87729227651642" lon="140.46519424876726"><ele>639.7109073577449</ele><time>2022-02-11T23:51:49Z</time></trkpt><trkpt lat="42.877471396115" lon="140.46525393964123"><ele>641.881260285154</ele><time>2022-02-11T23:52:21Z</time></trkpt><trkpt lat="42.87759874904796" lon="140.46544186624575"><ele>645.8888343516737</ele><time>2022-02-11T23:52:56Z</time></trkpt><trkpt lat="42.87769707824939" lon="140.4656477203702"><ele>649.3435144228861</ele><time>2022-02-11T23:53:26Z</time></trkpt><trkpt lat="42.877739985645505" lon="140.46588596452398"><ele>657.1873318767175</ele><time>2022-02-11T23:54:17Z</time></trkpt><trkpt lat="42.8777617636721" lon="140.4661297802654"><ele>663.4596385732293</ele><time>2022-02-11T23:55:17Z</time></trkpt><trkpt lat="42.87761928416258" lon="140.46627989638304"><ele>666.6006408557296</ele><time>2022-02-11T23:56:00Z</time></trkpt><trkpt lat="42.87764410754656" lon="140.46652607853522"><ele>671.5889117084444</ele><time>2022-02-11T23:56:45Z</time></trkpt><trkpt lat="42.877656697348336" lon="140.46677402923928"><ele>673.4340700823814</ele><time>2022-02-11T23:57:37Z</time></trkpt><trkpt lat="42.877751462370085" lon="140.46699025374377"><ele>676.5917718540877</ele><time>2022-02-11T23:58:06Z</time></trkpt><trkpt lat="42.87784823536802" lon="140.46720083682192"><ele>678.6850774539635</ele><time>2022-02-11T23:58:37Z</time></trkpt><trkpt lat="42.8779403494544" lon="140.46742909632522"><ele>680.906696876511</ele><time>2022-02-11T23:59:05Z</time></trkpt><trkpt lat="42.878009558861805" lon="140.46766009202463"><ele>680.7709792302921</ele><time>2022-02-11T23:59:32Z</time></trkpt><trkpt lat="42.87812782364143" lon="140.4678537288556"><ele>680.9533411189914</ele><time>2022-02-12T00:00:03Z</time></trkpt><trkpt lat="42.878311268670885" lon="140.4679100792604"><ele>677.3650584025308</ele><time>2022-02-12T00:00:31Z</time></trkpt><trkpt lat="42.87848895031665" lon="140.46795578004406"><ele>679.902284450829</ele><time>2022-02-12T00:00:59Z</time></trkpt><trkpt lat="42.87866210908848" lon="140.46803062212547"><ele>680.6711760405451</ele><time>2022-02-12T00:01:22Z</time></trkpt><trkpt lat="42.878839945696924" lon="140.46808558969866"><ele>681.1649106508121</ele><time>2022-02-12T00:01:46Z</time></trkpt><trkpt lat="42.87891179733463" lon="140.4681033653776"><ele>679.5482171894982</ele><time>2022-02-12T00:07:36Z</time></trkpt><trkpt lat="42.878887854100434" lon="140.46811776992976"><ele>681.649733315222</ele><time>2022-02-12T00:10:42Z</time></trkpt><trkpt lat="42.87907391887288" lon="140.46811650728222"><ele>682.1099951947108</ele><time>2022-02-12T00:14:33Z</time></trkpt><trkpt lat="42.879261544682066" lon="140.46810623998178"><ele>684.2854847209528</ele><time>2022-02-12T00:14:53Z</time></trkpt><trkpt lat="42.87945623028057" lon="140.46816112649557"><ele>676.2376560028642</ele><time>2022-02-12T00:15:18Z</time></trkpt><trkpt lat="42.879635425564246" lon="140.4681062426587"><ele>675.4677903912961</ele><time>2022-02-12T00:15:39Z</time></trkpt><trkpt lat="42.87981971627938" lon="140.46807087424475"><ele>673.8662301506847</ele><time>2022-02-12T00:15:57Z</time></trkpt><trkpt lat="42.880002780482315" lon="140.46808079789884"><ele>672.0977028636262</ele><time>2022-02-12T00:16:14Z</time></trkpt><trkpt lat="42.8801851545355" lon="140.46814431591451"><ele>671.4828501921147</ele><time>2022-02-12T00:16:33Z</time></trkpt><trkpt lat="42.88036438037706" lon="140.46819465119293"><ele>671.4806436505169</ele><time>2022-02-12T00:18:16Z</time></trkpt><trkpt lat="42.88054139306569" lon="140.46814144800246"><ele>672.1037641633302</ele><time>2022-02-12T00:20:33Z</time></trkpt><trkpt lat="42.88071863239956" lon="140.4680640221679"><ele>675.2918631006032</ele><time>2022-02-12T00:21:05Z</time></trkpt><trkpt lat="42.880894543934424" lon="140.46799809211365"><ele>676.9503673315048</ele><time>2022-02-12T00:21:37Z</time></trkpt><trkpt lat="42.88107605605481" lon="140.4679809952038"><ele>679.0592313343659</ele><time>2022-02-12T00:22:24Z</time></trkpt><trkpt lat="42.88125290119269" lon="140.4678966786289"><ele>683.6388053735718</ele><time>2022-02-12T00:22:56Z</time></trkpt><trkpt lat="42.881430079096496" lon="140.46783612916468"><ele>687.0626458730549</ele><time>2022-02-12T00:23:23Z</time></trkpt><trkpt lat="42.881604946602636" lon="140.46775793747963"><ele>689.9625875651836</ele><time>2022-02-12T00:23:51Z</time></trkpt><trkpt lat="42.881777968948775" lon="140.46768905629236"><ele>693.962533602491</ele><time>2022-02-12T00:24:20Z</time></trkpt><trkpt lat="42.88194605212221" lon="140.4675944690646"><ele>699.1270621772856</ele><time>2022-02-12T00:24:53Z</time></trkpt><trkpt lat="42.88213079165902" lon="140.46755108247046"><ele>702.8600943582132</ele><time>2022-02-12T00:25:33Z</time></trkpt><trkpt lat="42.882311536776626" lon="140.46750634786432"><ele>707.8646283466369</ele><time>2022-02-12T00:26:14Z</time></trkpt><trkpt lat="42.88248713924516" lon="140.467449590615"><ele>711.7797997342423</ele><time>2022-02-12T00:26:53Z</time></trkpt><trkpt lat="42.88266878567633" lon="140.4674162732742"><ele>716.4646379090846</ele><time>2022-02-12T00:27:30Z</time></trkpt><trkpt lat="42.882847752134715" lon="140.46735413407973"><ele>721.1135049909353</ele><time>2022-02-12T00:28:07Z</time></trkpt><trkpt lat="42.88290704417238" lon="140.46732469458664"><ele>724.5932005736977</ele><time>2022-02-12T00:30:24Z</time></trkpt><trkpt lat="42.883073576469876" lon="140.46722601733833"><ele>726.2456841999665</ele><time>2022-02-12T00:31:20Z</time></trkpt><trkpt lat="42.88324127200112" lon="140.46713653826993"><ele>729.7651616921648</ele><time>2022-02-12T00:31:49Z</time></trkpt><trkpt lat="42.88342060564374" lon="140.4670758769326"><ele>731.3053728118539</ele><time>2022-02-12T00:32:31Z</time></trkpt><trkpt lat="42.88359586680384" lon="140.46700733542153"><ele>733.3090675286949</ele><time>2022-02-12T00:32:57Z</time></trkpt><trkpt lat="42.883778490866604" lon="140.4669711655964"><ele>735.9463328840211</ele><time>2022-02-12T00:33:25Z</time></trkpt><trkpt lat="42.88396127881509" lon="140.46697372335507"><ele>739.2328134831041</ele><time>2022-02-12T00:33:55Z</time></trkpt><trkpt lat="42.88414535616843" lon="140.46698293603305"><ele>748.1892988318577</ele><time>2022-02-12T00:34:38Z</time></trkpt><trkpt lat="42.88432205139936" lon="140.46703697883873"><ele>754.334764316678</ele><time>2022-02-12T00:35:36Z</time></trkpt><trkpt lat="42.88420642614017" lon="140.46723027485396"><ele>754.620546111837</ele><time>2022-02-12T00:36:30Z</time></trkpt><trkpt lat="42.884381221094294" lon="140.46729364132634"><ele>760.9909331062809</ele><time>2022-02-12T00:37:23Z</time></trkpt><trkpt lat="42.88428677153124" lon="140.46750681203457"><ele>766.1053728479892</ele><time>2022-02-12T00:38:09Z</time></trkpt><trkpt lat="42.88447170120867" lon="140.46752335164865"><ele>769.0502320695668</ele><time>2022-02-12T00:38:39Z</time></trkpt><trkpt lat="42.884651856647956" lon="140.46755842278336"><ele>774.0957948518917</ele><time>2022-02-12T00:39:24Z</time></trkpt><trkpt lat="42.884829123559975" lon="140.4675158386488"><ele>776.4111216515303</ele><time>2022-02-12T00:39:56Z</time></trkpt><trkpt lat="42.88499254175106" lon="140.46762523110485"><ele>779.5226860828698</ele><time>2022-02-12T00:43:31Z</time></trkpt><trkpt lat="42.88516137060666" lon="140.46773966039237"><ele>783.8824348328635</ele><time>2022-02-12T00:44:04Z</time></trkpt><trkpt lat="42.88532121041115" lon="140.4678591861268"><ele>785.6209086989984</ele><time>2022-02-12T00:44:32Z</time></trkpt><trkpt lat="42.885470613423415" lon="140.46799930033572"><ele>790.563069473952</ele><time>2022-02-12T00:45:06Z</time></trkpt><trkpt lat="42.88562956789217" lon="140.46812948414822"><ele>793.2919630939141</ele><time>2022-02-12T00:45:43Z</time></trkpt><trkpt lat="42.88578894189542" lon="140.46825186598244"><ele>797.1067096898332</ele><time>2022-02-12T00:46:19Z</time></trkpt><trkpt lat="42.88594585013402" lon="140.4683744760727"><ele>801.0011308137327</ele><time>2022-02-12T00:46:52Z</time></trkpt><trkpt lat="42.88611790661432" lon="140.46844775420368"><ele>807.1632702965289</ele><time>2022-02-12T00:47:29Z</time></trkpt><trkpt lat="42.886289649938306" lon="140.46854679103893"><ele>811.0887391138822</ele><time>2022-02-12T00:48:05Z</time></trkpt><trkpt lat="42.88646312718871" lon="140.46863984734517"><ele>813.1788907460868</ele><time>2022-02-12T00:48:40Z</time></trkpt><trkpt lat="42.88662678337596" lon="140.46874310435"><ele>815.5484528923407</ele><time>2022-02-12T00:49:07Z</time></trkpt><trkpt lat="42.88676864492041" lon="140.46889576088344"><ele>816.0444358615205</ele><time>2022-02-12T00:49:44Z</time></trkpt><trkpt lat="42.88687794026329" lon="140.46910055912252"><ele>819.0860986597836</ele><time>2022-02-12T00:50:14Z</time></trkpt><trkpt lat="42.886937068168976" lon="140.46933218414594"><ele>821.7270368393511</ele><time>2022-02-12T00:52:27Z</time></trkpt><trkpt lat="42.886970098407936" lon="140.4695764652306"><ele>822.6091670980677</ele><time>2022-02-12T00:52:47Z</time></trkpt><trkpt lat="42.88698912700721" lon="140.46983718641076"><ele>823.9114177199081</ele><time>2022-02-12T00:53:09Z</time></trkpt><trkpt lat="42.886967346210405" lon="140.4700868353043"><ele>824.9439072059467</ele><time>2022-02-12T00:53:31Z</time></trkpt><trkpt lat="42.88700179853202" lon="140.47032899901214"><ele>830.5766190905124</ele><time>2022-02-12T00:54:02Z</time></trkpt><trkpt lat="42.887105434558705" lon="140.47053129279544"><ele>834.8473109537736</ele><time>2022-02-12T01:04:36Z</time></trkpt><trkpt lat="42.887204596735735" lon="140.47074205750127"><ele>839.6544000264257</ele><time>2022-02-12T01:05:08Z</time></trkpt><trkpt lat="42.88728340161031" lon="140.4709654863838"><ele>846.51384569332</ele><time>2022-02-12T01:05:45Z</time></trkpt><trkpt lat="42.88740926429991" lon="140.47114947254482"><ele>849.9673538571224</ele><time>2022-02-12T01:06:15Z</time></trkpt><trkpt lat="42.887552263082206" lon="140.47130487804733"><ele>850.1575978808105</ele><time>2022-02-12T01:06:45Z</time></trkpt><trkpt lat="42.88770571705174" lon="140.47144780654398"><ele>851.9297986403108</ele><time>2022-02-12T01:07:29Z</time></trkpt><trkpt lat="42.88778662200823" lon="140.47167330301335"><ele>855.6259512715042</ele><time>2022-02-12T01:08:02Z</time></trkpt><trkpt lat="42.887886402297134" lon="140.4718831700284"><ele>859.4980881689116</ele><time>2022-02-12T01:08:33Z</time></trkpt><trkpt lat="42.887969860071394" lon="140.47210412861267"><ele>862.8451879089698</ele><time>2022-02-12T01:09:08Z</time></trkpt><trkpt lat="42.88805697459802" lon="140.47232209037242"><ele>865.8316732617095</ele><time>2022-02-12T01:09:43Z</time></trkpt><trkpt lat="42.888147745176006" lon="140.4725428569686"><ele>872.4691183408722</ele><time>2022-02-12T01:10:19Z</time></trkpt><trkpt lat="42.88822327014893" lon="140.4727703414407"><ele>871.9706518333405</ele><time>2022-02-12T01:10:51Z</time></trkpt><trkpt lat="42.88826582926795" lon="140.47301541250172"><ele>876.0775388376787</ele><time>2022-02-12T01:11:26Z</time></trkpt><trkpt lat="42.88831365107261" lon="140.47325671992203"><ele>878.6170529145747</ele><time>2022-02-12T01:11:54Z</time></trkpt><trkpt lat="42.88832147339259" lon="140.47350427458062"><ele>880.0764631759375</ele><time>2022-02-12T01:13:32Z</time></trkpt><trkpt lat="42.888327433858656" lon="140.4737497654691"><ele>883.8001547055319</ele><time>2022-02-12T01:14:04Z</time></trkpt><trkpt lat="42.888373533285055" lon="140.47398853092955"><ele>889.7763467403129</ele><time>2022-02-12T01:14:35Z</time></trkpt><trkpt lat="42.88840348139267" lon="140.4742313868733"><ele>891.1172127639875</ele><time>2022-02-12T01:15:08Z</time></trkpt><trkpt lat="42.88842813472581" lon="140.47448311550554"><ele>893.3571013584733</ele><time>2022-02-12T01:15:44Z</time></trkpt><trkpt lat="42.888466434368105" lon="140.47473005238376"><ele>897.1638969648629</ele><time>2022-02-12T01:16:22Z</time></trkpt><trkpt lat="42.88847149998149" lon="140.47498352584645"><ele>899.3520803190768</ele><time>2022-02-12T01:17:03Z</time></trkpt><trkpt lat="42.88852899511107" lon="140.47521692048747"><ele>905.0415942911059</ele><time>2022-02-12T01:17:41Z</time></trkpt><trkpt lat="42.88858906557002" lon="140.47544845760956"><ele>905.2529709674418</ele><time>2022-02-12T01:18:17Z</time></trkpt><trkpt lat="42.888668174475576" lon="140.47566899089836"><ele>909.2328893523663</ele><time>2022-02-12T01:18:46Z</time></trkpt><trkpt lat="42.88873190232981" lon="140.47590143409045"><ele>908.4675666261464</ele><time>2022-02-12T01:35:06Z</time></trkpt><trkpt lat="42.88855673320393" lon="140.47583864478267"><ele>909.732392758131</ele><time>2022-02-12T01:35:32Z</time></trkpt><trkpt lat="42.888383947902994" lon="140.47574939686046"><ele>916.7204785626382</ele><time>2022-02-12T01:36:01Z</time></trkpt><trkpt lat="42.88821403776239" lon="140.47566048630569"><ele>923.2043863814324</ele><time>2022-02-12T01:36:36Z</time></trkpt><trkpt lat="42.88804530662053" lon="140.4755732227014"><ele>928.8157546892762</ele><time>2022-02-12T01:37:06Z</time></trkpt><trkpt lat="42.88788708990972" lon="140.47544768906275"><ele>936.3399860523641</ele><time>2022-02-12T01:37:40Z</time></trkpt><trkpt lat="42.887729495583464" lon="140.4753234141305"><ele>940.6476175058633</ele><time>2022-02-12T01:39:22Z</time></trkpt><trkpt lat="42.88756448089039" lon="140.47521742027135"><ele>948.0116456290707</ele><time>2022-02-12T01:39:45Z</time></trkpt><trkpt lat="42.88743044423752" lon="140.47505180598063"><ele>953.6715786224231</ele><time>2022-02-12T01:40:18Z</time></trkpt><trkpt lat="42.88736425632119" lon="140.47528531087633"><ele>958.9201077278703</ele><time>2022-02-12T01:41:08Z</time></trkpt><trkpt lat="42.88727688671452" lon="140.47550418707115"><ele>965.798351008445</ele><time>2022-02-12T01:41:39Z</time></trkpt><trkpt lat="42.887120535144746" lon="140.47558092834456"><ele>971.1752795679495</ele><time>2022-02-12T01:46:25Z</time></trkpt><trkpt lat="42.88732069386342" lon="140.475593065428"><ele>963.6309468504041</ele><time>2022-02-12T02:15:08Z</time></trkpt><trkpt lat="42.88745442495439" lon="140.47541915487324"><ele>959.8790907207876</ele><time>2022-02-12T02:15:44Z</time></trkpt><trkpt lat="42.887614439634504" lon="140.47521714171003"><ele>948.0080876480788</ele><time>2022-02-12T02:15:49Z</time></trkpt><trkpt lat="42.88780775270629" lon="140.47512453781036"><ele>935.1447068145499</ele><time>2022-02-12T02:16:11Z</time></trkpt><trkpt lat="42.887977807233405" lon="140.4750400535579"><ele>924.3367002308369</ele><time>2022-02-12T02:16:16Z</time></trkpt><trkpt lat="42.88815503649856" lon="140.47514280498046"><ele>916.98820091784</ele><time>2022-02-12T02:16:19Z</time></trkpt><trkpt lat="42.888273352152716" lon="140.47494675464895"><ele>906.7059901328757</ele><time>2022-02-12T02:16:22Z</time></trkpt><trkpt lat="42.88850915960011" lon="140.47493002909334"><ele>897.6310457587242</ele><time>2022-02-12T02:16:25Z</time></trkpt><trkpt lat="42.888687733860486" lon="140.4748054412613"><ele>889.8075208356604</ele><time>2022-02-12T02:16:52Z</time></trkpt><trkpt lat="42.88877534154661" lon="140.4745808564329"><ele>883.1551620578393</ele><time>2022-02-12T02:16:55Z</time></trkpt><trkpt lat="42.88877913985968" lon="140.47427807153588"><ele>872.9089712975547</ele><time>2022-02-12T02:16:59Z</time></trkpt><trkpt lat="42.88899502883144" lon="140.4741161723594"><ele>866.147947347723</ele><time>2022-02-12T02:17:02Z</time></trkpt><trkpt lat="42.889177197948676" lon="140.47398528579862"><ele>855.5748204831034</ele><time>2022-02-12T02:17:05Z</time></trkpt><trkpt lat="42.8892796403867" lon="140.4736696748503"><ele>840.4157175887376</ele><time>2022-02-12T02:17:10Z</time></trkpt><trkpt lat="42.889413569494444" lon="140.47346461045092"><ele>834.6410583518445</ele><time>2022-02-12T02:17:13Z</time></trkpt><trkpt lat="42.88959322997422" lon="140.47356278991825"><ele>826.272707878612</ele><time>2022-02-12T02:17:17Z</time></trkpt><trkpt lat="42.889713720008274" lon="140.4733758961298"><ele>816.3488629898056</ele><time>2022-02-12T02:18:33Z</time></trkpt><trkpt lat="42.88976286121046" lon="140.47307830201703"><ele>813.4312786469236</ele><time>2022-02-12T02:20:30Z</time></trkpt><trkpt lat="42.889806027554215" lon="140.47280095575047"><ele>809.2419047718868</ele><time>2022-02-12T02:20:34Z</time></trkpt><trkpt lat="42.88974289455963" lon="140.4725139141873"><ele>804.8098200466484</ele><time>2022-02-12T02:20:39Z</time></trkpt><trkpt lat="42.88968266544531" lon="140.47228106480594"><ele>803.2977324994281</ele><time>2022-02-12T02:20:45Z</time></trkpt><trkpt lat="42.889604055566046" lon="140.47203607818292"><ele>801.9860852090642</ele><time>2022-02-12T02:20:52Z</time></trkpt><trkpt lat="42.88955037780972" lon="140.4718314261266"><ele>800.4414141401649</ele><time>2022-02-12T02:21:11Z</time></trkpt><trkpt lat="42.8895683515855" lon="140.47183375144309"><ele>798.4237806899473</ele><time>2022-02-12T02:22:51Z</time></trkpt><trkpt lat="42.8895882378323" lon="140.472077877209"><ele>796.5456863837317</ele><time>2022-02-12T02:46:49Z</time></trkpt><trkpt lat="42.88967792331269" lon="140.47229994259408"><ele>804.0795671222731</ele><time>2022-02-12T02:47:18Z</time></trkpt><trkpt lat="42.88964724653768" lon="140.4725436525442"><ele>804.306102482602</ele><time>2022-02-12T02:47:57Z</time></trkpt><trkpt lat="42.88963055667299" lon="140.47278756045338"><ele>806.3793441597372</ele><time>2022-02-12T02:48:44Z</time></trkpt><trkpt lat="42.88945498715884" lon="140.47270678937102"><ele>814.7103928430006</ele><time>2022-02-12T02:49:14Z</time></trkpt><trkpt lat="42.88927388120631" lon="140.47270901594428"><ele>822.312429591082</ele><time>2022-02-12T02:50:21Z</time></trkpt><trkpt lat="42.88933655581821" lon="140.47294004027674"><ele>827.6220499183983</ele><time>2022-02-12T02:51:24Z</time></trkpt><trkpt lat="42.8893878347508" lon="140.47318032354983"><ele>829.9944121828303</ele><time>2022-02-12T02:51:55Z</time></trkpt><trkpt lat="42.88935747388289" lon="140.4734360953118"><ele>835.6760070780292</ele><time>2022-02-12T02:52:42Z</time></trkpt><trkpt lat="42.88931756997115" lon="140.473676070142"><ele>839.7534809680656</ele><time>2022-02-12T02:53:23Z</time></trkpt><trkpt lat="42.88924023309764" lon="140.4739008405087"><ele>847.0102462219074</ele><time>2022-02-12T02:54:33Z</time></trkpt><trkpt lat="42.88911537722624" lon="140.47408986937808"><ele>857.1348035763949</ele><time>2022-02-12T02:56:07Z</time></trkpt><trkpt lat="42.88897247754119" lon="140.47424691021223"><ele>861.2292764438316</ele><time>2022-02-12T02:56:51Z</time></trkpt><trkpt lat="42.88880744649298" lon="140.47435865551256"><ele>868.8715699482709</ele><time>2022-02-12T02:57:38Z</time></trkpt><trkpt lat="42.88863529791988" lon="140.47428443095512"><ele>873.8041206607595</ele><time>2022-02-12T02:58:18Z</time></trkpt><trkpt lat="42.888475043883325" lon="140.4741628353836"><ele>878.5311181470752</ele><time>2022-02-12T02:58:52Z</time></trkpt><trkpt lat="42.88844252854083" lon="140.47440691637723"><ele>889.216618786566</ele><time>2022-02-12T03:05:35Z</time></trkpt><trkpt lat="42.88848332350524" lon="140.47465813497888"><ele>893.1610356010497</ele><time>2022-02-12T03:06:02Z</time></trkpt><trkpt lat="42.888510531580216" lon="140.4749061004897"><ele>896.8818254228681</ele><time>2022-02-12T03:06:31Z</time></trkpt><trkpt lat="42.888511084672984" lon="140.47515547416583"><ele>896.9723907504231</ele><time>2022-02-12T03:07:53Z</time></trkpt><trkpt lat="42.88859175326129" lon="140.47538215589262"><ele>901.5609995191917</ele><time>2022-02-12T03:08:18Z</time></trkpt><trkpt lat="42.88867209696002" lon="140.4756151412267"><ele>904.6614239476621</ele><time>2022-02-12T03:08:42Z</time></trkpt><trkpt lat="42.888722274215134" lon="140.47585664707904"><ele>905.8851174283773</ele><time>2022-02-12T03:09:07Z</time></trkpt><trkpt lat="42.88854458397274" lon="140.47579882705014"><ele>910.887318206951</ele><time>2022-02-12T03:10:01Z</time></trkpt><trkpt lat="42.88837519140988" lon="140.47570334819054"><ele>919.1222075084224</ele><time>2022-02-12T03:10:41Z</time></trkpt><trkpt lat="42.88819933275635" lon="140.4756349950594"><ele>922.9806257709861</ele><time>2022-02-12T03:11:13Z</time></trkpt><trkpt lat="42.88802940413858" lon="140.4755507210983"><ele>927.8287926772609</ele><time>2022-02-12T03:11:49Z</time></trkpt><trkpt lat="42.887878229146374" lon="140.47540856458758"><ele>934.9817290510982</ele><time>2022-02-12T03:12:21Z</time></trkpt><trkpt lat="42.8877158589414" lon="140.47527641763787"><ele>939.9833511710167</ele><time>2022-02-12T03:13:03Z</time></trkpt><trkpt lat="42.887550085436665" lon="140.47516100815938"><ele>946.7677301606163</ele><time>2022-02-12T03:13:40Z</time></trkpt><trkpt lat="42.88740130864211" lon="140.4750130408925"><ele>952.4135698890314</ele><time>2022-02-12T03:14:22Z</time></trkpt><trkpt lat="42.88737292830294" lon="140.4752592029251"><ele>955.6743977125734</ele><time>2022-02-12T03:14:52Z</time></trkpt><trkpt lat="42.88729163733974" lon="140.47548115096998"><ele>961.6332617243752</ele><time>2022-02-12T03:15:22Z</time></trkpt><trkpt lat="42.88712192852083" lon="140.47556276122646"><ele>970.224853027612</ele><time>2022-02-12T03:15:59Z</time></trkpt><trkpt lat="42.88724506716052" lon="140.47536357115965"><ele>967.5281723178923</ele><time>2022-02-12T03:40:18Z</time></trkpt><trkpt lat="42.88730822346045" lon="140.47509768327384"><ele>960.7236745264381</ele><time>2022-02-12T03:40:23Z</time></trkpt><trkpt lat="42.88735635352699" lon="140.4748542128204"><ele>956.6310938186944</ele><time>2022-02-12T03:40:27Z</time></trkpt><trkpt lat="42.88744600161093" lon="140.47460310879663"><ele>947.1348764086142</ele><time>2022-02-12T03:40:32Z</time></trkpt><trkpt lat="42.887622524023584" lon="140.47444910941107"><ele>934.1884902762249</ele><time>2022-02-12T03:42:39Z</time></trkpt><trkpt lat="42.887655407884615" lon="140.47420015936194"><ele>927.3759920569137</ele><time>2022-02-12T03:42:44Z</time></trkpt><trkpt lat="42.88772007243152" lon="140.4739432552298"><ele>921.6934119714424</ele><time>2022-02-12T03:42:47Z</time></trkpt><trkpt lat="42.887777839695865" lon="140.47366013067173"><ele>918.3236570702866</ele><time>2022-02-12T03:42:51Z</time></trkpt><trkpt lat="42.88791936580253" lon="140.47341906903526"><ele>904.70643175859</ele><time>2022-02-12T03:42:56Z</time></trkpt><trkpt lat="42.88800091361588" lon="140.4731326914415"><ele>892.7186558684334</ele><time>2022-02-12T03:42:59Z</time></trkpt><trkpt lat="42.88809508979266" lon="140.47283608216688"><ele>881.2651362372562</ele><time>2022-02-12T03:43:28Z</time></trkpt><trkpt lat="42.888056842544614" lon="140.472558702298"><ele>874.4564580908045</ele><time>2022-02-12T03:43:32Z</time></trkpt><trkpt lat="42.88811536230342" lon="140.4722460071962"><ele>863.1106037180871</ele><time>2022-02-12T03:43:35Z</time></trkpt><trkpt lat="42.88806477711123" lon="140.47198843468493"><ele>855.13517444022</ele><time>2022-02-12T03:43:38Z</time></trkpt><trkpt lat="42.888059011851695" lon="140.47169714871464"><ele>847.5598415546119</ele><time>2022-02-12T03:43:41Z</time></trkpt><trkpt lat="42.887979065890804" lon="140.4714527618466"><ele>841.4505116427317</ele><time>2022-02-12T03:43:44Z</time></trkpt><trkpt lat="42.88788747321632" lon="140.47121909316263"><ele>837.6385108716786</ele><time>2022-02-12T03:43:47Z</time></trkpt><trkpt lat="42.887871879642404" lon="140.47092739310258"><ele>829.2160991812125</ele><time>2022-02-12T03:44:32Z</time></trkpt><trkpt lat="42.887786329009764" lon="140.47066279781077"><ele>825.6406640810892</ele><time>2022-02-12T03:44:37Z</time></trkpt><trkpt lat="42.88767200504411" lon="140.47037719212608"><ele>820.389216077514</ele><time>2022-02-12T03:44:41Z</time></trkpt><trkpt lat="42.887554395918805" lon="140.47015009994288"><ele>818.8232167549431</ele><time>2022-02-12T03:44:45Z</time></trkpt><trkpt lat="42.88758564165666" lon="140.46987859418755"><ele>812.673227019608</ele><time>2022-02-12T03:44:48Z</time></trkpt><trkpt lat="42.887550287194856" lon="140.46963091208312"><ele>810.3847140017897</ele><time>2022-02-12T03:44:50Z</time></trkpt><trkpt lat="42.88745970061528" lon="140.46936360081193"><ele>807.1490215202793</ele><time>2022-02-12T03:44:53Z</time></trkpt><trkpt lat="42.88741049421549" lon="140.4692551068778"><ele>810.5476923976094</ele><time>2022-02-12T03:45:09Z</time></trkpt><trkpt lat="42.88756678678442" lon="140.4690767394245"><ele>804.3625486306846</ele><time>2022-02-12T03:45:48Z</time></trkpt><trkpt lat="42.88779151450882" lon="140.46918099975758"><ele>796.8821519678459</ele><time>2022-02-12T03:45:51Z</time></trkpt><trkpt lat="42.88799456643784" lon="140.46903186013134"><ele>792.2570580942556</ele><time>2022-02-12T03:45:55Z</time></trkpt><trkpt lat="42.887927983748746" lon="140.46879224398836"><ele>782.4677703101188</ele><time>2022-02-12T03:46:01Z</time></trkpt><trkpt lat="42.887943357682175" lon="140.46852528944063"><ele>778.3746962789446</ele><time>2022-02-12T03:46:05Z</time></trkpt><trkpt lat="42.887906127078296" lon="140.46828095888503"><ele>763.3840547027066</ele><time>2022-02-12T03:46:15Z</time></trkpt><trkpt lat="42.887821430350016" lon="140.46806368308256"><ele>761.320475069806</ele><time>2022-02-12T03:46:41Z</time></trkpt><trkpt lat="42.88776262575755" lon="140.46781296678412"><ele>756.2455747183412</ele><time>2022-02-12T03:47:58Z</time></trkpt><trkpt lat="42.8876233322765" lon="140.46764697105203"><ele>751.3336083749309</ele><time>2022-02-12T03:48:03Z</time></trkpt><trkpt lat="42.88746088709176" lon="140.46750472165863"><ele>746.4261647127569</ele><time>2022-02-12T03:48:11Z</time></trkpt><trkpt lat="42.887312608950346" lon="140.46736305925648"><ele>743.6574905887246</ele><time>2022-02-12T03:48:16Z</time></trkpt><trkpt lat="42.88717099563913" lon="140.4672043065551"><ele>732.3660828629509</ele><time>2022-02-12T03:48:47Z</time></trkpt><trkpt lat="42.88709106740214" lon="140.46698341756982"><ele>721.9543186193332</ele><time>2022-02-12T03:48:58Z</time></trkpt><trkpt lat="42.88695754559815" lon="140.4668063137169"><ele>716.0614380137995</ele><time>2022-02-12T03:49:01Z</time></trkpt><trkpt lat="42.88684143433484" lon="140.46661818697507"><ele>716.5862886747345</ele><time>2022-02-12T03:50:08Z</time></trkpt><trkpt lat="42.8867075954587" lon="140.46640901855568"><ele>709.4143467256799</ele><time>2022-02-12T03:51:11Z</time></trkpt><trkpt lat="42.88656250724172" lon="140.46621121218539"><ele>708.0015002153814</ele><time>2022-02-12T03:51:17Z</time></trkpt><trkpt lat="42.88638434209727" lon="140.4660401729009"><ele>701.0104503203183</ele><time>2022-02-12T03:51:22Z</time></trkpt><trkpt lat="42.88620079390191" lon="140.4658768729757"><ele>696.4564455179498</ele><time>2022-02-12T03:51:26Z</time></trkpt><trkpt lat="42.88605322480776" lon="140.46572804656734"><ele>696.34766196087</ele><time>2022-02-12T03:53:25Z</time></trkpt><trkpt lat="42.8858825954229" lon="140.4655831888929"><ele>691.4978819200769</ele><time>2022-02-12T03:53:30Z</time></trkpt><trkpt lat="42.88570185805201" lon="140.465437095757"><ele>684.3651079498231</ele><time>2022-02-12T03:53:34Z</time></trkpt><trkpt lat="42.8855384858871" lon="140.46532845089914"><ele>686.1952243698761</ele><time>2022-02-12T03:53:42Z</time></trkpt><trkpt lat="42.88539516349957" lon="140.4651716584048"><ele>675.2366310348734</ele><time>2022-02-12T03:54:13Z</time></trkpt><trkpt lat="42.88521446919605" lon="140.46504257875156"><ele>668.2044228762388</ele><time>2022-02-12T03:54:17Z</time></trkpt><trkpt lat="42.88501352120623" lon="140.46488913439865"><ele>660.3783519128338</ele><time>2022-02-12T03:54:21Z</time></trkpt><trkpt lat="42.8848110477627" lon="140.46479984793964"><ele>655.8044524407014</ele><time>2022-02-12T03:54:25Z</time></trkpt><trkpt lat="42.88462384609021" lon="140.4646814211051"><ele>651.3088161442429</ele><time>2022-02-12T03:54:30Z</time></trkpt><trkpt lat="42.88443864820297" lon="140.46455057395346"><ele>643.6040545972064</ele><time>2022-02-12T03:54:34Z</time></trkpt><trkpt lat="42.88427347985489" lon="140.46443702693827"><ele>644.4242168730125</ele><time>2022-02-12T03:55:00Z</time></trkpt><trkpt lat="42.88410760875879" lon="140.46431608690384"><ele>641.7315971152857</ele><time>2022-02-12T03:55:05Z</time></trkpt><trkpt lat="42.88393320140314" lon="140.4641943855887"><ele>637.0175986373797</ele><time>2022-02-12T03:55:10Z</time></trkpt><trkpt lat="42.883757249292096" lon="140.46403518450504"><ele>633.9689329164103</ele><time>2022-02-12T03:55:16Z</time></trkpt><trkpt lat="42.883565665999946" lon="140.46394760754634"><ele>629.8769741039723</ele><time>2022-02-12T03:55:22Z</time></trkpt><trkpt lat="42.88338984209426" lon="140.46387524856738"><ele>626.3571163136512</ele><time>2022-02-12T03:57:04Z</time></trkpt><trkpt lat="42.88317583233726" lon="140.4637617448433"><ele>617.8238814882934</ele><time>2022-02-12T03:57:10Z</time></trkpt><trkpt lat="42.88297236399853" lon="140.46368493635765"><ele>614.3008679440245</ele><time>2022-02-12T03:57:13Z</time></trkpt><trkpt lat="42.88273109603117" lon="140.4636874645861"><ele>609.9438090855256</ele><time>2022-02-12T03:57:17Z</time></trkpt><trkpt lat="42.88253162878615" lon="140.46369505145933"><ele>607.9531457768753</ele><time>2022-02-12T03:57:21Z</time></trkpt><trkpt lat="42.88230680078665" lon="140.4636271733915"><ele>600.5941355107352</ele><time>2022-02-12T03:57:25Z</time></trkpt><trkpt lat="42.882126406359895" lon="140.46365185826537"><ele>601.1045459657907</ele><time>2022-02-12T03:57:53Z</time></trkpt><trkpt lat="42.881930072757235" lon="140.46358228871628"><ele>594.0299236578867</ele><time>2022-02-12T03:57:58Z</time></trkpt><trkpt lat="42.88173730930182" lon="140.46352272402726"><ele>586.5398270003498</ele><time>2022-02-12T03:58:02Z</time></trkpt><trkpt lat="42.88152536467126" lon="140.46357582090607"><ele>584.5301940515637</ele><time>2022-02-12T03:58:06Z</time></trkpt><trkpt lat="42.88130918938378" lon="140.46356609759584"><ele>578.8999064527452</ele><time>2022-02-12T03:58:10Z</time></trkpt><trkpt lat="42.88112734221165" lon="140.463590255202"><ele>576.3163901474327</ele><time>2022-02-12T03:58:15Z</time></trkpt><trkpt lat="42.880922662258364" lon="140.46366797843953"><ele>562.0371073437855</ele><time>2022-02-12T03:59:39Z</time></trkpt><trkpt lat="42.88068903945689" lon="140.46369557089264"><ele>561.1107904333621</ele><time>2022-02-12T03:59:42Z</time></trkpt><trkpt lat="42.880492169117076" lon="140.46373173805793"><ele>556.4823965122923</ele><time>2022-02-12T03:59:46Z</time></trkpt><trkpt lat="42.880262690074204" lon="140.4637070530568"><ele>551.5015574712306</ele><time>2022-02-12T03:59:50Z</time></trkpt><trkpt lat="42.8800851687297" lon="140.46361886971118"><ele>548.5892234081402</ele><time>2022-02-12T03:59:54Z</time></trkpt><trkpt lat="42.879881678759055" lon="140.46354034882103"><ele>546.5423467354849</ele><time>2022-02-12T03:59:59Z</time></trkpt><trkpt lat="42.87969647544046" lon="140.46357176145654"><ele>551.6832896154374</ele><time>2022-02-12T04:06:42Z</time></trkpt><trkpt lat="42.87951930513269" lon="140.46346256158807"><ele>542.4911736771464</ele><time>2022-02-12T04:06:57Z</time></trkpt><trkpt lat="42.879352754338576" lon="140.46359316032942"><ele>538.3780063400045</ele><time>2022-02-12T04:08:06Z</time></trkpt><trkpt lat="42.87929378355343" lon="140.46334787456763"><ele>542.9666343182325</ele><time>2022-02-12T04:10:12Z</time></trkpt><trkpt lat="42.87916225607103" lon="140.46313910854275"><ele>537.8072509337217</ele><time>2022-02-12T04:10:17Z</time></trkpt><trkpt lat="42.87900792198911" lon="140.462982776337"><ele>534.4816393591464</ele><time>2022-02-12T04:10:20Z</time></trkpt><trkpt lat="42.87884831371831" lon="140.46285906270597"><ele>531.5738922422752</ele><time>2022-02-12T04:10:54Z</time></trkpt><trkpt lat="42.878729873761785" lon="140.46266587177968"><ele>528.3446271913126</ele><time>2022-02-12T04:11:54Z</time></trkpt><trkpt lat="42.87861460121861" lon="140.46247657790894"><ele>527.0816998649389</ele><time>2022-02-12T04:13:10Z</time></trkpt><trkpt lat="42.87854767935175" lon="140.46220736048784"><ele>520.0774134183303</ele><time>2022-02-12T04:14:13Z</time></trkpt><trkpt lat="42.8784098603347" lon="140.4620147013532"><ele>509.87688177265227</ele><time>2022-02-12T04:14:19Z</time></trkpt><trkpt lat="42.87833086688852" lon="140.46175811716134"><ele>503.6870795674622</ele><time>2022-02-12T04:14:23Z</time></trkpt><trkpt lat="42.8783977253713" lon="140.4615241764923"><ele>500.56280432641506</ele><time>2022-02-12T04:14:34Z</time></trkpt><trkpt lat="42.8782342771525" lon="140.4613452244794"><ele>496.6191253773868</ele><time>2022-02-12T04:14:59Z</time></trkpt><trkpt lat="42.87806173883367" lon="140.4612651673007"><ele>494.790419976227</ele><time>2022-02-12T04:15:19Z</time></trkpt><trkpt lat="42.877880088629574" lon="140.4613116228387"><ele>494.58426655922085</ele><time>2022-02-12T04:16:26Z</time></trkpt><trkpt lat="42.877707673693614" lon="140.46123554739398"><ele>490.97539859078825</ele><time>2022-02-12T04:16:33Z</time></trkpt><trkpt lat="42.87756247865179" lon="140.4610904007368"><ele>483.11893928516656</ele><time>2022-02-12T04:16:51Z</time></trkpt><trkpt lat="42.8773626248491" lon="140.4610063229523"><ele>483.60674079414457</ele><time>2022-02-12T04:16:59Z</time></trkpt><trkpt lat="42.87718807174868" lon="140.46089989226553"><ele>479.22379610687494</ele><time>2022-02-12T04:17:02Z</time></trkpt><trkpt lat="42.8769922124842" lon="140.46083808320247"><ele>477.0995284905657</ele><time>2022-02-12T04:17:10Z</time></trkpt><trkpt lat="42.87683619240683" lon="140.4607153030549"><ele>473.14114180393517</ele><time>2022-02-12T04:17:17Z</time></trkpt><trkpt lat="42.876654528122316" lon="140.46058637313436"><ele>470.77368821483105</ele><time>2022-02-12T04:17:23Z</time></trkpt><trkpt lat="42.876456126608765" lon="140.46054130407032"><ele>471.24991388898343</ele><time>2022-02-12T04:24:38Z</time></trkpt><trkpt lat="42.8762738702722" lon="140.46044227800886"><ele>472.82432656828314</ele><time>2022-02-12T04:25:16Z</time></trkpt><trkpt lat="42.87610783421399" lon="140.4602442475162"><ele>460.58380310144275</ele><time>2022-02-12T04:25:25Z</time></trkpt><trkpt lat="42.875913295655316" lon="140.4600989242853"><ele>454.9773218203336</ele><time>2022-02-12T04:25:30Z</time></trkpt><trkpt lat="42.875795028619734" lon="140.4598659974516"><ele>456.24845102988183</ele><time>2022-02-12T04:27:46Z</time></trkpt><trkpt lat="42.8756331845024" lon="140.45998201136217"><ele>456.27254059910774</ele><time>2022-02-12T04:29:13Z</time></trkpt><trkpt lat="42.87545315398946" lon="140.45997458944626"><ele>464.0736887771636</ele><time>2022-02-12T04:29:45Z</time></trkpt><trkpt lat="42.87537981152589" lon="140.46020452347258"><ele>467.47141712903976</ele><time>2022-02-12T04:31:04Z</time></trkpt><trkpt lat="42.87519054901999" lon="140.46014566750983"><ele>490.8744654338807</ele><time>2022-02-12T04:35:56Z</time></trkpt><trkpt lat="42.87499509742531" lon="140.46002510040665"><ele>474.70918373111635</ele><time>2022-02-12T04:36:09Z</time></trkpt><trkpt lat="42.87483917095408" lon="140.45988499896302"><ele>473.43133473582566</ele><time>2022-02-12T04:36:12Z</time></trkpt><trkpt lat="42.87468288231901" lon="140.45974309800584"><ele>467.57785327825695</ele><time>2022-02-12T04:36:19Z</time></trkpt><trkpt lat="42.87453952287266" lon="140.45957741520135"><ele>467.46947013866156</ele><time>2022-02-12T04:36:58Z</time></trkpt><trkpt lat="42.874343146764325" lon="140.4594262958228"><ele>461.7048934083432</ele><time>2022-02-12T04:37:02Z</time></trkpt><trkpt lat="42.87414913198313" lon="140.45928211527854"><ele>453.45886784233153</ele><time>2022-02-12T04:37:07Z</time></trkpt><trkpt lat="42.8739601371494" lon="140.45927854839468"><ele>454.7448912365362</ele><time>2022-02-12T04:37:12Z</time></trkpt><trkpt lat="42.873786186901256" lon="140.45918671657375"><ele>451.34366618748754</ele><time>2022-02-12T04:37:46Z</time></trkpt><trkpt lat="42.87361173977509" lon="140.4590726045199"><ele>448.0614928677678</ele><time>2022-02-12T04:37:50Z</time></trkpt><trkpt lat="42.87343022392956" lon="140.4589221193723"><ele>443.0421676626429</ele><time>2022-02-12T04:37:57Z</time></trkpt><trkpt lat="42.873251010573476" lon="140.45883897633934"><ele>441.584331153892</ele><time>2022-02-12T04:38:00Z</time></trkpt><trkpt lat="42.87306475228526" lon="140.45871490953786"><ele>438.6368159670383</ele><time>2022-02-12T04:38:03Z</time></trkpt><trkpt lat="42.87288496905266" lon="140.45858354160785"><ele>441.9718201579526</ele><time>2022-02-12T04:38:16Z</time></trkpt><trkpt lat="42.87269608171597" lon="140.45851795887032"><ele>425.19926492124796</ele><time>2022-02-12T04:38:43Z</time></trkpt><trkpt lat="42.87251094633702" lon="140.45847700884536"><ele>425.0071447324008</ele><time>2022-02-12T04:38:48Z</time></trkpt><trkpt lat="42.87230551074487" lon="140.45834057369765"><ele>423.899782336317</ele><time>2022-02-12T04:38:52Z</time></trkpt><trkpt lat="42.87211698757082" lon="140.4582511391229"><ele>420.49504812806845</ele><time>2022-02-12T04:38:56Z</time></trkpt><trkpt lat="42.87193210774655" lon="140.45819777187185"><ele>416.5905224401504</ele><time>2022-02-12T04:38:59Z</time></trkpt><trkpt lat="42.87177304282922" lon="140.45807880337549"><ele>413.7064950559288</ele><time>2022-02-12T04:39:09Z</time></trkpt><trkpt lat="42.87159159298301" lon="140.45796755387914"><ele>408.4780366430059</ele><time>2022-02-12T04:39:19Z</time></trkpt><trkpt lat="42.87139868381192" lon="140.45781916720452"><ele>403.8227502433583</ele><time>2022-02-12T04:39:28Z</time></trkpt><trkpt lat="42.87122123525082" lon="140.45772629928487"><ele>400.5400033434853</ele><time>2022-02-12T04:40:37Z</time></trkpt><trkpt lat="42.87101550991876" lon="140.45771460262796"><ele>398.5714315697551</ele><time>2022-02-12T04:40:42Z</time></trkpt><trkpt lat="42.870874762799595" lon="140.4578733804974"><ele>405.1385679561645</ele><time>2022-02-12T04:47:32Z</time></trkpt><trkpt lat="42.8707197632334" lon="140.45800193870326"><ele>405.1327949911356</ele><time>2022-02-12T04:48:16Z</time></trkpt><trkpt lat="42.8705405746449" lon="140.45795350368508"><ele>406.9776779729873</ele><time>2022-02-12T04:50:05Z</time></trkpt><trkpt lat="42.87035595266975" lon="140.45788482138235"><ele>400.7215602779761</ele><time>2022-02-12T04:51:07Z</time></trkpt><trkpt lat="42.87017841666549" lon="140.45774411594067"><ele>396.3571133101359</ele><time>2022-02-12T04:51:12Z</time></trkpt><trkpt lat="42.870018962962675" lon="140.4575969680487"><ele>391.97864498291165</ele><time>2022-02-12T04:51:19Z</time></trkpt><trkpt lat="42.86984538217534" lon="140.4574391177827"><ele>388.42108929809183</ele><time>2022-02-12T04:51:27Z</time></trkpt><trkpt lat="42.86966977663695" lon="140.45736785254735"><ele>390.6821641186252</ele><time>2022-02-12T04:51:40Z</time></trkpt><trkpt lat="42.86949052585276" lon="140.45733632106644"><ele>385.88645643834025</ele><time>2022-02-12T04:52:19Z</time></trkpt><trkpt lat="42.86930717367838" lon="140.4572196104571"><ele>381.4892846336588</ele><time>2022-02-12T04:52:22Z</time></trkpt><trkpt lat="42.869125617765086" lon="140.45722196539336"><ele>380.30965155083686</ele><time>2022-02-12T04:52:25Z</time></trkpt><trkpt lat="42.86893745126242" lon="140.4571216573609"><ele>377.618538858369</ele><time>2022-02-12T04:52:31Z</time></trkpt><trkpt lat="42.86873278194573" lon="140.4569937973105"><ele>374.86579793225974</ele><time>2022-02-12T04:52:35Z</time></trkpt><trkpt lat="42.86855419926563" lon="140.45696142585447"><ele>371.4366442738101</ele><time>2022-02-12T04:52:41Z</time></trkpt><trkpt lat="42.86837827656075" lon="140.45687900610267"><ele>365.63199723511934</ele><time>2022-02-12T04:52:45Z</time></trkpt><trkpt lat="42.8681945367962" lon="140.4568635978021"><ele>364.3945911889896</ele><time>2022-02-12T04:52:49Z</time></trkpt><trkpt lat="42.86802343267349" lon="140.45678527560494"><ele>366.68233063910156</ele><time>2022-02-12T04:53:21Z</time></trkpt><trkpt lat="42.86784208473367" lon="140.45675793275603"><ele>365.36649100109935</ele><time>2022-02-12T04:53:31Z</time></trkpt><trkpt lat="42.86763274217063" lon="140.45674479062328"><ele>361.99625276681036</ele><time>2022-02-12T04:53:36Z</time></trkpt><trkpt lat="42.86744422753284" lon="140.45668881776976"><ele>358.0862713251263</ele><time>2022-02-12T04:53:39Z</time></trkpt><trkpt lat="42.86724198782199" lon="140.45670518186606"><ele>357.05394822824746</ele><time>2022-02-12T04:53:42Z</time></trkpt><trkpt lat="42.867068936353135" lon="140.45662094891975"><ele>354.43112734518945</ele><time>2022-02-12T04:53:46Z</time></trkpt><trkpt lat="42.86690360751636" lon="140.4565220528492"><ele>357.2842057738453</ele><time>2022-02-12T04:54:25Z</time></trkpt><trkpt lat="42.86691379244658" lon="140.45650360170094"><ele>355.15006463136524</ele><time>2022-02-12T05:00:06Z</time></trkpt><trkpt lat="42.86675221668142" lon="140.4563633495679"><ele>347.33366198837757</ele><time>2022-02-12T05:10:17Z</time></trkpt><trkpt lat="42.866668007772354" lon="140.45608114049585"><ele>344.57339489553124</ele><time>2022-02-12T05:10:24Z</time></trkpt><trkpt lat="42.86658076816187" lon="140.45583861104325"><ele>341.47182047739625</ele><time>2022-02-12T05:10:29Z</time></trkpt><trkpt lat="42.86641159003931" lon="140.45572505475377"><ele>339.83787970710546</ele><time>2022-02-12T05:10:34Z</time></trkpt><trkpt lat="42.8662269660474" lon="140.45569701413723"><ele>338.16140679083765</ele><time>2022-02-12T05:10:41Z</time></trkpt><trkpt lat="42.866040078889675" lon="140.45565483574958"><ele>333.3513449886814</ele><time>2022-02-12T05:10:46Z</time></trkpt><trkpt lat="42.86585714674015" lon="140.45574716234853"><ele>332.3526832833886</ele><time>2022-02-12T05:10:52Z</time></trkpt><trkpt lat="42.86567527802096" lon="140.4557823902243"><ele>330.7990358825773</ele><time>2022-02-12T05:11:00Z</time></trkpt><trkpt lat="42.8654883553877" lon="140.45572464828606"><ele>330.35067769978195</ele><time>2022-02-12T05:11:05Z</time></trkpt><trkpt lat="42.865297466403206" lon="140.4556716203988"><ele>321.848843655549</ele><time>2022-02-12T05:11:10Z</time></trkpt><trkpt lat="42.865118336562325" lon="140.45557798384303"><ele>319.5143847549334</ele><time>2022-02-12T05:11:14Z</time></trkpt><trkpt lat="42.86492606296101" lon="140.45550058949047"><ele>315.19975070189685</ele><time>2022-02-12T05:11:18Z</time></trkpt><trkpt lat="42.86474360785313" lon="140.45541685489925"><ele>314.3530943086371</ele><time>2022-02-12T05:11:21Z</time></trkpt><trkpt lat="42.86452297587732" lon="140.45527658309325"><ele>311.8480871282518</ele><time>2022-02-12T05:11:25Z</time></trkpt><trkpt lat="42.86435281477406" lon="140.45516150880425"><ele>309.73670141678303</ele><time>2022-02-12T05:11:29Z</time></trkpt><trkpt lat="42.8641786980425" lon="140.45509509463793"><ele>306.79841102287173</ele><time>2022-02-12T05:11:32Z</time></trkpt><trkpt lat="42.863978706258536" lon="140.45503672845842"><ele>305.95812766999006</ele><time>2022-02-12T05:11:35Z</time></trkpt><trkpt lat="42.86377644348866" lon="140.4549938937923"><ele>300.5424323724583</ele><time>2022-02-12T05:11:39Z</time></trkpt><trkpt lat="42.86354717842334" lon="140.45489420573315"><ele>294.8287522047758</ele><time>2022-02-12T05:11:43Z</time></trkpt><trkpt lat="42.8633116144245" lon="140.45482794302774"><ele>295.1666719671339</ele><time>2022-02-12T05:11:46Z</time></trkpt><trkpt lat="42.86311981842855" lon="140.4547345760041"><ele>293.8717402778566</ele><time>2022-02-12T05:11:49Z</time></trkpt><trkpt lat="42.86290858862758" lon="140.4546273676554"><ele>288.76288082730025</ele><time>2022-02-12T05:11:52Z</time></trkpt><trkpt lat="42.86272395520331" lon="140.45458356252294"><ele>282.56773571670055</ele><time>2022-02-12T05:11:56Z</time></trkpt><trkpt lat="42.86254199939495" lon="140.45457412047247"><ele>281.3127182684839</ele><time>2022-02-12T05:11:59Z</time></trkpt><trkpt lat="42.86234754104881" lon="140.4546476819703"><ele>277.14804475195706</ele><time>2022-02-12T05:12:03Z</time></trkpt><trkpt lat="42.86212057561755" lon="140.45469595904893"><ele>277.3362439861521</ele><time>2022-02-12T05:12:06Z</time></trkpt><trkpt lat="42.86195889766587" lon="140.45485913686235"><ele>278.54034142103046</ele><time>2022-02-12T05:12:09Z</time></trkpt><trkpt lat="42.86175965379401" lon="140.45486896041427"><ele>277.0710793277249</ele><time>2022-02-12T05:12:13Z</time></trkpt><trkpt lat="42.86155286946848" lon="140.45489796177762"><ele>273.20253927633166</ele><time>2022-02-12T05:12:17Z</time></trkpt><trkpt lat="42.861289503883626" lon="140.454970823325"><ele>271.85771578457206</ele><time>2022-02-12T05:12:21Z</time></trkpt><trkpt lat="42.86107675510232" lon="140.45501291200378"><ele>268.08854381740093</ele><time>2022-02-12T05:12:25Z</time></trkpt><trkpt lat="42.86089491476027" lon="140.45497917701775"><ele>268.72910288814455</ele><time>2022-02-12T05:12:29Z</time></trkpt><trkpt lat="42.860723329095904" lon="140.45488615729778"><ele>266.1721003046259</ele><time>2022-02-12T05:12:37Z</time></trkpt><trkpt lat="42.8605284350461" lon="140.4547986330929"><ele>261.6632289038971</ele><time>2022-02-12T05:12:44Z</time></trkpt><trkpt lat="42.8603396130251" lon="140.45471904014175"><ele>258.93833814840764</ele><time>2022-02-12T05:12:50Z</time></trkpt><trkpt lat="42.86013247593206" lon="140.45463541481405"><ele>255.76471830811352</ele><time>2022-02-12T05:12:55Z</time></trkpt><trkpt lat="42.8599418342665" lon="140.454535307672"><ele>252.89002787973732</ele><time>2022-02-12T05:12:59Z</time></trkpt><trkpt lat="42.859713653719886" lon="140.454427711014"><ele>250.57503182534128</ele><time>2022-02-12T05:13:03Z</time></trkpt><trkpt lat="42.85950277575122" lon="140.45437056317584"><ele>248.96704222541302</ele><time>2022-02-12T05:13:07Z</time></trkpt><trkpt lat="42.859236781685446" lon="140.45432360216302"><ele>247.2140155499801</ele><time>2022-02-12T05:13:11Z</time></trkpt><trkpt lat="42.859044963309735" lon="140.4544050607843"><ele>244.64015217125416</ele><time>2022-02-12T05:13:15Z</time></trkpt><trkpt lat="42.858853459244855" lon="140.4544090474369"><ele>241.77991107013077</ele><time>2022-02-12T05:13:18Z</time></trkpt><trkpt lat="42.85864322150836" lon="140.45442889034507"><ele>240.22728971019387</ele><time>2022-02-12T05:13:21Z</time></trkpt><trkpt lat="42.85841494054768" lon="140.4544310105031"><ele>235.05416316725314</ele><time>2022-02-12T05:13:25Z</time></trkpt><trkpt lat="42.858178210276655" lon="140.45441799989715"><ele>235.50843986589462</ele><time>2022-02-12T05:13:28Z</time></trkpt><trkpt lat="42.85796629291376" lon="140.45442897685936"><ele>234.14869787264615</ele><time>2022-02-12T05:13:31Z</time></trkpt><trkpt lat="42.85773556340647" lon="140.45446166147744"><ele>230.67670600675046</ele><time>2022-02-12T05:13:35Z</time></trkpt><trkpt lat="42.85753628378362" lon="140.45446817468928"><ele>227.4669759059325</ele><time>2022-02-12T05:13:38Z</time></trkpt><trkpt lat="42.85733888113336" lon="140.45448130115275"><ele>225.17477047722787</ele><time>2022-02-12T05:13:42Z</time></trkpt><trkpt lat="42.857109505593634" lon="140.45447764952618"><ele>223.66821803990752</ele><time>2022-02-12T05:13:47Z</time></trkpt><trkpt lat="42.85689384814657" lon="140.45442555704895"><ele>220.7604525675997</ele><time>2022-02-12T05:13:51Z</time></trkpt><trkpt lat="42.85668760853799" lon="140.4543966142227"><ele>218.80618324503303</ele><time>2022-02-12T05:13:55Z</time></trkpt><trkpt lat="42.856505775778885" lon="140.45435266219513"><ele>216.42473799735308</ele><time>2022-02-12T05:13:58Z</time></trkpt><trkpt lat="42.85630506195925" lon="140.45433582880284"><ele>215.44474167749286</ele><time>2022-02-12T05:14:01Z</time></trkpt><trkpt lat="42.85612294778029" lon="140.45432655194435"><ele>210.71202470269054</ele><time>2022-02-12T05:14:04Z</time></trkpt><trkpt lat="42.85592996211846" lon="140.45436130858013"><ele>210.99948980286717</ele><time>2022-02-12T05:14:07Z</time></trkpt><trkpt lat="42.85569881860574" lon="140.45427428460698"><ele>204.80368447303772</ele><time>2022-02-12T05:14:11Z</time></trkpt><trkpt lat="42.85551739847934" lon="140.4542375601291"><ele>204.8519600694999</ele><time>2022-02-12T05:14:14Z</time></trkpt><trkpt lat="42.85546191040692" lon="140.45423029003706"><ele>206.5701560974121</ele><time>2022-02-12T05:14:15Z</time></trkpt><trkpt lat="42.85523862129778" lon="140.4542188463818"><ele>199.96943774074316</ele><time>2022-02-12T05:14:19Z</time></trkpt><trkpt lat="42.855030428825835" lon="140.45423243738605"><ele>197.98895398434252</ele><time>2022-02-12T05:14:23Z</time></trkpt><trkpt lat="42.85482818341472" lon="140.45425865271562"><ele>194.98780072201043</ele><time>2022-02-12T05:14:27Z</time></trkpt><trkpt lat="42.854620196412256" lon="140.45427525984917"><ele>192.89850637316704</ele><time>2022-02-12T05:14:31Z</time></trkpt><trkpt lat="42.854424480179034" lon="140.45432446525754"><ele>191.88601546175778</ele><time>2022-02-12T05:14:35Z</time></trkpt><trkpt lat="42.854217614466535" lon="140.45436722825352"><ele>191.04505147226155</ele><time>2022-02-12T05:14:39Z</time></trkpt><trkpt lat="42.85400314750225" lon="140.45438155576872"><ele>188.2175223287195</ele><time>2022-02-12T05:14:43Z</time></trkpt><trkpt lat="42.85378975152234" lon="140.45443355961726"><ele>187.17524668667465</ele><time>2022-02-12T05:14:47Z</time></trkpt><trkpt lat="42.853587947049625" lon="140.45447322057888"><ele>185.65577894914895</ele><time>2022-02-12T05:14:51Z</time></trkpt><trkpt lat="42.853384437737354" lon="140.4545100962046"><ele>183.24835266172886</ele><time>2022-02-12T05:14:55Z</time></trkpt><trkpt lat="42.8531840200535" lon="140.45453846672095"><ele>181.25853254180402</ele><time>2022-02-12T05:14:59Z</time></trkpt><trkpt lat="42.85298143905125" lon="140.45455936441834"><ele>178.80334129091352</ele><time>2022-02-12T05:15:03Z</time></trkpt><trkpt lat="42.85214393403668" lon="140.4545327091035"><ele>169.70748523902148</ele><time>2022-02-12T05:21:32Z</time></trkpt><trkpt lat="42.85208459016201" lon="140.4544835911509"><ele>167.7476463317871</ele><time>2022-02-12T05:22:30Z</time></trkpt></trkseg></trk></gpx>