<?xml version='1.0' encoding='UTF-8'?><gpx creator="YAMAP - https://yamap.com" xsi:schemaLocation="http://www.topografix.com/GPX/1/1 http://www.topografix.com/GPX/1/1/gpx.xsd" version="1.1" xmlns="http://www.topografix.com/GPX/1/1" xmlns:xsi="http://www.w3.org/2001/XMLSchema-instance"><metadata><bounds maxlat="43.39645106756589" maxlon="144.0118307271158" minlat="43.374041335040936" minlon="143.96495688123787"/></metadata><trk><name>雌阿寒岳・阿寒富士</name><number>1</number><trkseg><trkpt lat="43.39509730231333" lon="143.9828983695656"><ele>711.4606590270996</ele><time>2022-08-24T23:03:27Z</time></trkpt><trkpt lat="43.39525324328223" lon="143.98276004771319"><ele>712.1225665090606</ele><time>2022-08-24T23:03:49Z</time></trkpt><trkpt lat="43.39544030805257" lon="143.98280600415796"><ele>711.1763623552397</ele><time>2022-08-24T23:04:05Z</time></trkpt><trkpt lat="43.39557794137462" lon="143.98297268270457"><ele>710.2822007313371</ele><time>2022-08-24T23:04:25Z</time></trkpt><trkpt lat="43.395718337977804" lon="143.9831293843548"><ele>709.6501406943426</ele><time>2022-08-24T23:04:42Z</time></trkpt><trkpt lat="43.39585406532507" lon="143.9833129619229"><ele>708.616221871227</ele><time>2022-08-24T23:04:57Z</time></trkpt><trkpt lat="43.39599692512432" lon="143.98347687468578"><ele>707.2501849066466</ele><time>2022-08-24T23:05:14Z</time></trkpt><trkpt lat="43.39613255938653" lon="143.98362377510028"><ele>707.8729562200606</ele><time>2022-08-24T23:05:30Z</time></trkpt><trkpt lat="43.396263363919495" lon="143.98380784511374"><ele>708.6766451150179</ele><time>2022-08-24T23:05:48Z</time></trkpt><trkpt lat="43.39637553666785" lon="143.98400372546888"><ele>708.7662366740406</ele><time>2022-08-24T23:06:04Z</time></trkpt><trkpt lat="43.39645106756589" lon="143.98422930041906"><ele>708.2658218247816</ele><time>2022-08-24T23:06:24Z</time></trkpt><trkpt lat="43.39639902658783" lon="143.98448237522285"><ele>720.4397164694965</ele><time>2022-08-24T23:08:02Z</time></trkpt><trkpt lat="43.396240455638555" lon="143.98460771388963"><ele>721.4270358551294</ele><time>2022-08-24T23:08:17Z</time></trkpt><trkpt lat="43.396153921511804" lon="143.98483064336057"><ele>725.7058816701174</ele><time>2022-08-24T23:08:37Z</time></trkpt><trkpt lat="43.39602765746916" lon="143.98500758105726"><ele>728.3433851888403</ele><time>2022-08-24T23:09:01Z</time></trkpt><trkpt lat="43.39587581089826" lon="143.9851637384918"><ele>728.4664748655632</ele><time>2022-08-24T23:09:25Z</time></trkpt><trkpt lat="43.395745194827235" lon="143.9853341684864"><ele>732.9453593026847</ele><time>2022-08-24T23:09:48Z</time></trkpt><trkpt lat="43.3956981019408" lon="143.98557454511266"><ele>733.97261308413</ele><time>2022-08-24T23:10:10Z</time></trkpt><trkpt lat="43.395640037883716" lon="143.98581376164455"><ele>733.7523154364899</ele><time>2022-08-24T23:10:26Z</time></trkpt><trkpt lat="43.39573531958082" lon="143.98604546605142"><ele>736.9568385025486</ele><time>2022-08-24T23:10:44Z</time></trkpt><trkpt lat="43.39579875622935" lon="143.98628283875564"><ele>742.7033903868869</ele><time>2022-08-24T23:11:02Z</time></trkpt><trkpt lat="43.395744443242094" lon="143.98651907572724"><ele>744.9049746273085</ele><time>2022-08-24T23:11:28Z</time></trkpt><trkpt lat="43.39567481783057" lon="143.98674920600305"><ele>750.0776624344289</ele><time>2022-08-24T23:12:03Z</time></trkpt><trkpt lat="43.39559874975554" lon="143.9869837678232"><ele>751.7580764573067</ele><time>2022-08-24T23:12:22Z</time></trkpt><trkpt lat="43.39545118967387" lon="143.98712548991327"><ele>754.0008370578289</ele><time>2022-08-24T23:12:52Z</time></trkpt><trkpt lat="43.395266494087785" lon="143.98716547136888"><ele>758.4156973799691</ele><time>2022-08-24T23:13:31Z</time></trkpt><trkpt lat="43.395111334289936" lon="143.9873284686719"><ele>764.470007982105</ele><time>2022-08-24T23:14:13Z</time></trkpt><trkpt lat="43.39498112226178" lon="143.98752379316704"><ele>775.5924943117425</ele><time>2022-08-24T23:15:05Z</time></trkpt><trkpt lat="43.394945995375984" lon="143.98778288668956"><ele>789.0934322457761</ele><time>2022-08-24T23:15:57Z</time></trkpt><trkpt lat="43.39495252358059" lon="143.98802960397057"><ele>795.7584203304723</ele><time>2022-08-24T23:16:28Z</time></trkpt><trkpt lat="43.39489874277323" lon="143.9882811391087"><ele>799.3863745303825</ele><time>2022-08-24T23:17:00Z</time></trkpt><trkpt lat="43.39483951697349" lon="143.9885224237492"><ele>806.5955605441704</ele><time>2022-08-24T23:17:41Z</time></trkpt><trkpt lat="43.39468587506336" lon="143.988658339963"><ele>816.1856038859114</ele><time>2022-08-24T23:18:28Z</time></trkpt><trkpt lat="43.394683369481335" lon="143.98891302291375"><ele>820.2639204394072</ele><time>2022-08-24T23:18:50Z</time></trkpt><trkpt lat="43.394561995609806" lon="143.98911443735702"><ele>826.3390613859519</ele><time>2022-08-24T23:19:35Z</time></trkpt><trkpt lat="43.394550766131225" lon="143.98936122505185"><ele>831.7729389667511</ele><time>2022-08-24T23:19:58Z</time></trkpt><trkpt lat="43.394454311519326" lon="143.98959440985553"><ele>833.8530488191172</ele><time>2022-08-24T23:20:17Z</time></trkpt><trkpt lat="43.394605566775624" lon="143.98976403499645"><ele>843.1366995777935</ele><time>2022-08-24T23:21:02Z</time></trkpt><trkpt lat="43.39462290897366" lon="143.99001358850987"><ele>847.4978568907827</ele><time>2022-08-24T23:22:16Z</time></trkpt><trkpt lat="43.3944500639934" lon="143.99011592261928"><ele>849.9365922594443</ele><time>2022-08-24T23:22:58Z</time></trkpt><trkpt lat="43.394295700767834" lon="143.99026641907227"><ele>855.0136141069233</ele><time>2022-08-24T23:23:30Z</time></trkpt><trkpt lat="43.39412818806264" lon="143.9903607542507"><ele>858.7633197531104</ele><time>2022-08-24T23:24:05Z</time></trkpt><trkpt lat="43.393991452405395" lon="143.99053446325803"><ele>864.1978287082165</ele><time>2022-08-24T23:24:34Z</time></trkpt><trkpt lat="43.39386097390076" lon="143.9907092813219"><ele>868.671338642016</ele><time>2022-08-24T23:25:09Z</time></trkpt><trkpt lat="43.393778783140846" lon="143.99093264602072"><ele>873.3989643556997</ele><time>2022-08-24T23:25:40Z</time></trkpt><trkpt lat="43.39370147865055" lon="143.9911326271233"><ele>879.0423837639391</ele><time>2022-08-24T23:26:09Z</time></trkpt><trkpt lat="43.39369542496991" lon="143.99115680695726"><ele>878.965828913264</ele><time>2022-08-24T23:26:11Z</time></trkpt><trkpt lat="43.3935520878405" lon="143.99133024541868"><ele>882.3231312418357</ele><time>2022-08-24T23:26:45Z</time></trkpt><trkpt lat="43.393422403498676" lon="143.99150710369204"><ele>886.7258345754817</ele><time>2022-08-24T23:27:18Z</time></trkpt><trkpt lat="43.39326587362331" lon="143.99164718719913"><ele>891.7811898356304</ele><time>2022-08-24T23:27:50Z</time></trkpt><trkpt lat="43.39310274223758" lon="143.99175490529834"><ele>893.9893485503271</ele><time>2022-08-24T23:28:24Z</time></trkpt><trkpt lat="43.39301413181684" lon="143.99197044930852"><ele>899.1197945717722</ele><time>2022-08-24T23:28:51Z</time></trkpt><trkpt lat="43.39288009173849" lon="143.99213952395448"><ele>904.2562374128029</ele><time>2022-08-24T23:29:19Z</time></trkpt><trkpt lat="43.39278360957018" lon="143.9923527137603"><ele>910.2600086769089</ele><time>2022-08-24T23:29:53Z</time></trkpt><trkpt lat="43.39268496098903" lon="143.99256692047763"><ele>913.1081425603479</ele><time>2022-08-24T23:30:23Z</time></trkpt><trkpt lat="43.392551094801775" lon="143.99275196096323"><ele>917.641915794462</ele><time>2022-08-24T23:30:53Z</time></trkpt><trkpt lat="43.39242124306734" lon="143.99293176001137"><ele>922.12618818786</ele><time>2022-08-24T23:31:16Z</time></trkpt><trkpt lat="43.39233576707481" lon="143.99315027544392"><ele>925.7755259191617</ele><time>2022-08-24T23:31:42Z</time></trkpt><trkpt lat="43.39228401165167" lon="143.9934033965767"><ele>931.9599286420271</ele><time>2022-08-24T23:32:19Z</time></trkpt><trkpt lat="43.3921617063868" lon="143.99359912719123"><ele>938.4077622396871</ele><time>2022-08-24T23:32:50Z</time></trkpt><trkpt lat="43.39206474443283" lon="143.99380808372268"><ele>941.4044939475134</ele><time>2022-08-24T23:33:23Z</time></trkpt><trkpt lat="43.391984980280334" lon="143.9940310427158"><ele>947.4936786666512</ele><time>2022-08-24T23:34:01Z</time></trkpt><trkpt lat="43.39187422670867" lon="143.99422765693623"><ele>953.509516203776</ele><time>2022-08-24T23:34:44Z</time></trkpt><trkpt lat="43.391779515545984" lon="143.99444077348207"><ele>959.9789927499369</ele><time>2022-08-24T23:35:29Z</time></trkpt><trkpt lat="43.391656541839154" lon="143.9946259524483"><ele>964.9038924640045</ele><time>2022-08-24T23:36:11Z</time></trkpt><trkpt lat="43.391531202640955" lon="143.9948175802634"><ele>970.5575366904959</ele><time>2022-08-24T23:36:50Z</time></trkpt><trkpt lat="43.391491402473235" lon="143.99506189916895"><ele>977.3053636122495</ele><time>2022-08-24T23:37:31Z</time></trkpt><trkpt lat="43.391505853494905" lon="143.9953090572599"><ele>980.9810225768015</ele><time>2022-08-24T23:38:11Z</time></trkpt><trkpt lat="43.39154656914698" lon="143.99555206946243"><ele>986.7252063443884</ele><time>2022-08-24T23:38:39Z</time></trkpt><trkpt lat="43.391586033939014" lon="143.99579903121602"><ele>989.1820501405746</ele><time>2022-08-24T23:39:09Z</time></trkpt><trkpt lat="43.39165655781123" lon="143.9960281552489"><ele>993.3478825688362</ele><time>2022-08-24T23:39:38Z</time></trkpt><trkpt lat="43.39169331832067" lon="143.99627837709812"><ele>996.2236559353769</ele><time>2022-08-24T23:40:07Z</time></trkpt><trkpt lat="43.3918010475897" lon="143.99647696874823"><ele>1000.2641190942377</ele><time>2022-08-24T23:40:36Z</time></trkpt><trkpt lat="43.39193513677276" lon="143.99665459558148"><ele>1001.00520465523</ele><time>2022-08-24T23:41:07Z</time></trkpt><trkpt lat="43.39203209041539" lon="143.99686731583736"><ele>1002.4845991255715</ele><time>2022-08-24T23:41:33Z</time></trkpt><trkpt lat="43.39208783562031" lon="143.99711604629923"><ele>1001.9030036237091</ele><time>2022-08-24T23:41:56Z</time></trkpt><trkpt lat="43.392152090190116" lon="143.99734850867605"><ele>1002.8372655771673</ele><time>2022-08-24T23:42:16Z</time></trkpt><trkpt lat="43.39222884246292" lon="143.99758121615807"><ele>1004.4489844702184</ele><time>2022-08-24T23:42:40Z</time></trkpt><trkpt lat="43.392262808267134" lon="143.99783624346333"><ele>1004.4721283400431</ele><time>2022-08-24T23:43:07Z</time></trkpt><trkpt lat="43.39232503929518" lon="143.998069029836"><ele>1000.269683085382</ele><time>2022-08-24T23:43:44Z</time></trkpt><trkpt lat="43.392412915198875" lon="143.99828937922126"><ele>1005.4114372665063</ele><time>2022-08-24T23:44:22Z</time></trkpt><trkpt lat="43.392493864008586" lon="143.99851803753515"><ele>1013.5494698770344</ele><time>2022-08-24T23:45:07Z</time></trkpt><trkpt lat="43.392370030770024" lon="143.9986988163577"><ele>1022.8621254684404</ele><time>2022-08-24T23:45:58Z</time></trkpt><trkpt lat="43.39232414108099" lon="143.99893955118998"><ele>1028.9421861330047</ele><time>2022-08-24T23:46:49Z</time></trkpt><trkpt lat="43.392254512429716" lon="143.99916842669617"><ele>1039.640996914357</ele><time>2022-08-24T23:47:42Z</time></trkpt><trkpt lat="43.39220025611822" lon="143.99941495404892"><ele>1048.228123699315</ele><time>2022-08-24T23:48:32Z</time></trkpt><trkpt lat="43.39204451467967" lon="143.99954649727016"><ele>1054.2985852044076</ele><time>2022-08-24T23:49:09Z</time></trkpt><trkpt lat="43.3920742022978" lon="143.99979773462147"><ele>1064.5641557145864</ele><time>2022-08-24T23:49:55Z</time></trkpt><trkpt lat="43.3921100089706" lon="144.00004331685287"><ele>1071.5115887019783</ele><time>2022-08-24T23:50:38Z</time></trkpt><trkpt lat="43.39194023655836" lon="144.00013039444994"><ele>1077.7651922134683</ele><time>2022-08-24T23:51:24Z</time></trkpt><trkpt lat="43.391760168321134" lon="144.00019017570781"><ele>1082.8021277999505</ele><time>2022-08-24T23:52:09Z</time></trkpt><trkpt lat="43.39162502173992" lon="144.00035348350642"><ele>1092.157605752349</ele><time>2022-08-24T23:53:09Z</time></trkpt><trkpt lat="43.3915574144142" lon="144.00058750383235"><ele>1100.4449815666303</ele><time>2022-08-24T23:54:02Z</time></trkpt><trkpt lat="43.39145855605864" lon="144.00079593821988"><ele>1111.0721583189443</ele><time>2022-08-24T23:55:02Z</time></trkpt><trkpt lat="43.39136323681821" lon="144.00101395591065"><ele>1123.9904897054657</ele><time>2022-08-24T23:56:34Z</time></trkpt><trkpt lat="43.391422495732535" lon="144.00124964626613"><ele>1132.6607396751642</ele><time>2022-08-24T23:57:33Z</time></trkpt><trkpt lat="43.391542631628575" lon="144.00144496973115"><ele>1141.578252817504</ele><time>2022-08-24T23:58:12Z</time></trkpt><trkpt lat="43.39156298603633" lon="144.00169129841925"><ele>1150.2501182705164</ele><time>2022-08-25T00:01:11Z</time></trkpt><trkpt lat="43.391573522307496" lon="144.00194476244107"><ele>1159.6942109419033</ele><time>2022-08-25T00:01:58Z</time></trkpt><trkpt lat="43.39167012973564" lon="144.00215305301705"><ele>1165.195055612363</ele><time>2022-08-25T00:02:40Z</time></trkpt><trkpt lat="43.391701070090775" lon="144.00240156485572"><ele>1172.067602256313</ele><time>2022-08-25T00:03:14Z</time></trkpt><trkpt lat="43.39173171056668" lon="144.00264493548318"><ele>1176.665897011757</ele><time>2022-08-25T00:03:54Z</time></trkpt><trkpt lat="43.39161552607212" lon="144.00283657205182"><ele>1188.5510102426633</ele><time>2022-08-25T00:05:12Z</time></trkpt><trkpt lat="43.39154537275162" lon="144.00306422961063"><ele>1198.7454743292183</ele><time>2022-08-25T00:06:14Z</time></trkpt><trkpt lat="43.39136617020303" lon="144.0030255031816"><ele>1209.6293461071327</ele><time>2022-08-25T00:07:05Z</time></trkpt><trkpt lat="43.391227744111106" lon="144.00286412405015"><ele>1214.547996624373</ele><time>2022-08-25T00:07:35Z</time></trkpt><trkpt lat="43.39115004179331" lon="144.0030972826171"><ele>1220.8931439965963</ele><time>2022-08-25T00:08:18Z</time></trkpt><trkpt lat="43.391184550404866" lon="144.00334351290172"><ele>1228.0353485280648</ele><time>2022-08-25T00:08:51Z</time></trkpt><trkpt lat="43.39127470907142" lon="144.00355730315945"><ele>1231.1363475825638</ele><time>2022-08-25T00:09:23Z</time></trkpt><trkpt lat="43.39121434018472" lon="144.00380148643703"><ele>1236.81587849278</ele><time>2022-08-25T00:10:06Z</time></trkpt><trkpt lat="43.39128060866209" lon="144.0040358146514"><ele>1240.4223019210622</ele><time>2022-08-25T00:10:30Z</time></trkpt><trkpt lat="43.391341809746" lon="144.0042732407557"><ele>1247.3999047381803</ele><time>2022-08-25T00:11:06Z</time></trkpt><trkpt lat="43.39123816113101" lon="144.0044365265541"><ele>1257.208928133361</ele><time>2022-08-25T00:11:59Z</time></trkpt><trkpt lat="43.391053613097014" lon="144.00443006144113"><ele>1263.0761700030416</ele><time>2022-08-25T00:12:34Z</time></trkpt><trkpt lat="43.390898722336175" lon="144.00428928322506"><ele>1269.4176560761407</ele><time>2022-08-25T00:13:02Z</time></trkpt><trkpt lat="43.390735004776424" lon="144.00418647921143"><ele>1275.529993802309</ele><time>2022-08-25T00:13:40Z</time></trkpt><trkpt lat="43.39059598244705" lon="144.00435503590927"><ele>1282.9637491246685</ele><time>2022-08-25T00:14:37Z</time></trkpt><trkpt lat="43.39051164881152" lon="144.00457966873336"><ele>1287.8034983407706</ele><time>2022-08-25T00:15:07Z</time></trkpt><trkpt lat="43.390439484604265" lon="144.0048165741024"><ele>1291.4229911761358</ele><time>2022-08-25T00:15:34Z</time></trkpt><trkpt lat="43.39032909355603" lon="144.00501184691686"><ele>1294.3108659759164</ele><time>2022-08-25T00:15:55Z</time></trkpt><trkpt lat="43.39016615998858" lon="144.0051413800483"><ele>1296.9990323521197</ele><time>2022-08-25T00:16:19Z</time></trkpt><trkpt lat="43.39000291659395" lon="144.00524560570943"><ele>1302.3115498824045</ele><time>2022-08-25T00:16:49Z</time></trkpt><trkpt lat="43.38994666024607" lon="144.00548143745712"><ele>1308.8895515548065</ele><time>2022-08-25T00:17:38Z</time></trkpt><trkpt lat="43.38976456791701" lon="144.0054814593842"><ele>1317.8946229871362</ele><time>2022-08-25T00:18:19Z</time></trkpt><trkpt lat="43.38960993809913" lon="144.00561402183098"><ele>1326.6245188396424</ele><time>2022-08-25T00:19:05Z</time></trkpt><trkpt lat="43.389435560111735" lon="144.0056983914814"><ele>1334.8426174772903</ele><time>2022-08-25T00:20:03Z</time></trkpt><trkpt lat="43.38924725756141" lon="144.00570633619296"><ele>1342.625149170868</ele><time>2022-08-25T00:20:51Z</time></trkpt><trkpt lat="43.38907245906179" lon="144.005768215988"><ele>1348.5043143816292</ele><time>2022-08-25T00:21:32Z</time></trkpt><trkpt lat="43.38889242607979" lon="144.00576239333236"><ele>1355.8613644139841</ele><time>2022-08-25T00:22:12Z</time></trkpt><trkpt lat="43.3887582644527" lon="144.00593453619845"><ele>1365.2300423700362</ele><time>2022-08-25T00:23:04Z</time></trkpt><trkpt lat="43.38857808968878" lon="144.0058895989808"><ele>1375.7453383598477</ele><time>2022-08-25T00:23:56Z</time></trkpt><trkpt lat="43.388396457538995" lon="144.00585703098628"><ele>1382.207929596305</ele><time>2022-08-25T00:24:34Z</time></trkpt><trkpt lat="43.38830829902553" lon="144.00607796334833"><ele>1393.5139201320708</ele><time>2022-08-25T00:25:44Z</time></trkpt><trkpt lat="43.38813977605689" lon="144.0061738437499"><ele>1403.4653346454725</ele><time>2022-08-25T00:26:33Z</time></trkpt><trkpt lat="43.38799922309527" lon="144.0063397059419"><ele>1414.3428380787373</ele><time>2022-08-25T00:27:30Z</time></trkpt><trkpt lat="43.387819323777556" lon="144.00637933980803"><ele>1420.312621805817</ele><time>2022-08-25T00:28:15Z</time></trkpt><trkpt lat="43.3877301208448" lon="144.00659541559835"><ele>1430.6166531704366</ele><time>2022-08-25T00:29:20Z</time></trkpt><trkpt lat="43.38770011694933" lon="144.00684045377523"><ele>1439.5893543893471</ele><time>2022-08-25T00:31:54Z</time></trkpt><trkpt lat="43.38769887248956" lon="144.0070890298708"><ele>1446.6480144783854</ele><time>2022-08-25T00:32:53Z</time></trkpt><trkpt lat="43.387579862011" lon="144.00727808986494"><ele>1453.6808087313548</ele><time>2022-08-25T00:33:35Z</time></trkpt><trkpt lat="43.387416519073" lon="144.0073838294522"><ele>1461.2455668915063</ele><time>2022-08-25T00:34:24Z</time></trkpt><trkpt lat="43.38730456564266" lon="144.0075872189073"><ele>1467.6412994125858</ele><time>2022-08-25T00:34:54Z</time></trkpt><trkpt lat="43.387212392790005" lon="144.00780044265255"><ele>1470.0877411477268</ele><time>2022-08-25T00:35:22Z</time></trkpt><trkpt lat="43.38711087596095" lon="144.00800560231062"><ele>1473.7667774800211</ele><time>2022-08-25T00:35:43Z</time></trkpt><trkpt lat="43.386979750623354" lon="144.00818468394252"><ele>1477.1140275681391</ele><time>2022-08-25T00:36:11Z</time></trkpt><trkpt lat="43.38683527371431" lon="144.00833899445095"><ele>1482.8278177613392</ele><time>2022-08-25T00:38:44Z</time></trkpt><trkpt lat="43.38666176179689" lon="144.00844055175563"><ele>1489.7427100483328</ele><time>2022-08-25T00:39:09Z</time></trkpt><trkpt lat="43.386507670254076" lon="144.00859811407486"><ele>1494.4041507570073</ele><time>2022-08-25T00:39:31Z</time></trkpt><trkpt lat="43.386373084566664" lon="144.0087698880544"><ele>1496.0342154828832</ele><time>2022-08-25T00:39:49Z</time></trkpt><trkpt lat="43.38621622045956" lon="144.00891420516533"><ele>1498.1820408329368</ele><time>2022-08-25T00:45:09Z</time></trkpt><trkpt lat="43.38616464395452" lon="144.00915236917285"><ele>1474.913595667109</ele><time>2022-08-25T01:10:44Z</time></trkpt><trkpt lat="43.38612549157691" lon="144.00940032927303"><ele>1477.795572587289</ele><time>2022-08-25T01:11:02Z</time></trkpt><trkpt lat="43.386088648564275" lon="144.00964525941097"><ele>1477.0528218969703</ele><time>2022-08-25T01:11:19Z</time></trkpt><trkpt lat="43.38603340219842" lon="144.00989748937374"><ele>1475.2636154843494</ele><time>2022-08-25T01:11:33Z</time></trkpt><trkpt lat="43.38596606467212" lon="144.01015665448077"><ele>1474.4244681298733</ele><time>2022-08-25T01:11:43Z</time></trkpt><trkpt lat="43.385897999846584" lon="144.01038584813242"><ele>1470.0855761915445</ele><time>2022-08-25T01:11:50Z</time></trkpt><trkpt lat="43.3857677017092" lon="144.01057601528194"><ele>1467.204953705892</ele><time>2022-08-25T01:12:01Z</time></trkpt><trkpt lat="43.385625145204905" lon="144.01077364177638"><ele>1465.1693938765675</ele><time>2022-08-25T01:12:10Z</time></trkpt><trkpt lat="43.385475816567194" lon="144.01097194477367"><ele>1461.8136194953695</ele><time>2022-08-25T01:12:17Z</time></trkpt><trkpt lat="43.38530950537807" lon="144.01115510697554"><ele>1458.18918909505</ele><time>2022-08-25T01:12:24Z</time></trkpt><trkpt lat="43.38517002507101" lon="144.01132694648064"><ele>1458.0690171569586</ele><time>2022-08-25T01:12:30Z</time></trkpt><trkpt lat="43.38498294572411" lon="144.0114332542015"><ele>1457.0055506881326</ele><time>2022-08-25T01:12:37Z</time></trkpt><trkpt lat="43.38480299647144" lon="144.01150905069812"><ele>1454.0511511424556</ele><time>2022-08-25T01:12:44Z</time></trkpt><trkpt lat="43.38461702718518" lon="144.01161112803518"><ele>1453.2166668502614</ele><time>2022-08-25T01:12:52Z</time></trkpt><trkpt lat="43.3844274618437" lon="144.01171078515816"><ele>1451.3145690578967</ele><time>2022-08-25T01:13:00Z</time></trkpt><trkpt lat="43.38423708119159" lon="144.0117795163925"><ele>1450.233960999176</ele><time>2022-08-25T01:13:08Z</time></trkpt><trkpt lat="43.38404245184546" lon="144.0118307271158"><ele>1447.7322686966509</ele><time>2022-08-25T01:13:16Z</time></trkpt><trkpt lat="43.38384318512545" lon="144.01181753642138"><ele>1446.4326183209196</ele><time>2022-08-25T01:13:24Z</time></trkpt><trkpt lat="43.383650233591524" lon="144.01180419144114"><ele>1441.3443332156166</ele><time>2022-08-25T01:13:34Z</time></trkpt><trkpt lat="43.383494915378655" lon="144.0116649665433"><ele>1436.3191760359332</ele><time>2022-08-25T01:13:54Z</time></trkpt><trkpt lat="43.383339681145706" lon="144.01151191463265"><ele>1431.0906168650836</ele><time>2022-08-25T01:14:14Z</time></trkpt><trkpt lat="43.38316273315998" lon="144.01144643365265"><ele>1419.9995990339667</ele><time>2022-08-25T01:18:03Z</time></trkpt><trkpt lat="43.38300218076585" lon="144.01132734585042"><ele>1413.775423922576</ele><time>2022-08-25T01:18:44Z</time></trkpt><trkpt lat="43.382831698861416" lon="144.01124212596707"><ele>1406.4352351585403</ele><time>2022-08-25T01:19:20Z</time></trkpt><trkpt lat="43.382650298597724" lon="144.01125356675138"><ele>1398.4347263071686</ele><time>2022-08-25T01:20:07Z</time></trkpt><trkpt lat="43.38249759272272" lon="144.0111168273911"><ele>1391.4849432790652</ele><time>2022-08-25T01:20:40Z</time></trkpt><trkpt lat="43.382367219658555" lon="144.01094512519978"><ele>1385.4542554691434</ele><time>2022-08-25T01:21:08Z</time></trkpt><trkpt lat="43.38223541502309" lon="144.01076810260267"><ele>1379.2054602354765</ele><time>2022-08-25T01:22:03Z</time></trkpt><trkpt lat="43.38212124627697" lon="144.01057616168316"><ele>1372.3626846494153</ele><time>2022-08-25T01:23:00Z</time></trkpt><trkpt lat="43.381979051531616" lon="144.01041368719928"><ele>1366.7525359904394</ele><time>2022-08-25T01:23:35Z</time></trkpt><trkpt lat="43.381909655511166" lon="144.01018038808698"><ele>1364.4634186243638</ele><time>2022-08-25T01:24:24Z</time></trkpt><trkpt lat="43.381831520237476" lon="144.00994094520053"><ele>1360.3841912755743</ele><time>2022-08-25T01:24:49Z</time></trkpt><trkpt lat="43.38173876846014" lon="144.00972854362644"><ele>1356.1522446442395</ele><time>2022-08-25T01:25:16Z</time></trkpt><trkpt lat="43.381627095884106" lon="144.00952515792576"><ele>1349.9632899370044</ele><time>2022-08-25T01:27:34Z</time></trkpt><trkpt lat="43.381514903428986" lon="144.00931663908378"><ele>1346.7874638149515</ele><time>2022-08-25T01:27:55Z</time></trkpt><trkpt lat="43.38145116747454" lon="144.00908333207394"><ele>1340.3621549159288</ele><time>2022-08-25T01:28:19Z</time></trkpt><trkpt lat="43.38130173713923" lon="144.00891988575586"><ele>1337.11347970739</ele><time>2022-08-25T01:28:41Z</time></trkpt><trkpt lat="43.38121346242529" lon="144.00870075086272"><ele>1331.4078703420237</ele><time>2022-08-25T01:29:04Z</time></trkpt><trkpt lat="43.381080620714826" lon="144.008529099398"><ele>1325.5564209725708</ele><time>2022-08-25T01:29:26Z</time></trkpt><trkpt lat="43.38090256703744" lon="144.00858270891968"><ele>1321.336448344402</ele><time>2022-08-25T01:30:32Z</time></trkpt><trkpt lat="43.38071902379683" lon="144.00856007597062"><ele>1314.8889496037737</ele><time>2022-08-25T01:30:59Z</time></trkpt><trkpt lat="43.38054572546748" lon="144.00848464634993"><ele>1309.4764265501872</ele><time>2022-08-25T01:31:19Z</time></trkpt><trkpt lat="43.38036191602943" lon="144.0084935816144"><ele>1303.362538174726</ele><time>2022-08-25T01:31:37Z</time></trkpt><trkpt lat="43.38017632807166" lon="144.0084595644492"><ele>1297.506909435615</ele><time>2022-08-25T01:32:04Z</time></trkpt><trkpt lat="43.37999274374728" lon="144.0084230446202"><ele>1293.292507180944</ele><time>2022-08-25T01:32:26Z</time></trkpt><trkpt lat="43.3798124444978" lon="144.00844623561747"><ele>1288.1531235091388</ele><time>2022-08-25T01:32:48Z</time></trkpt><trkpt lat="43.37962553471341" lon="144.00841525966018"><ele>1284.3750563524663</ele><time>2022-08-25T01:33:06Z</time></trkpt><trkpt lat="43.37943572532675" lon="144.0084351106566"><ele>1280.0922990282997</ele><time>2022-08-25T01:33:26Z</time></trkpt><trkpt lat="43.379258765037214" lon="144.0083873744972"><ele>1274.7369059938937</ele><time>2022-08-25T01:33:50Z</time></trkpt><trkpt lat="43.37911195390255" lon="144.00823989050886"><ele>1271.4189667571336</ele><time>2022-08-25T01:34:09Z</time></trkpt><trkpt lat="43.37899973005853" lon="144.00804483906992"><ele>1267.800735924393</ele><time>2022-08-25T01:34:30Z</time></trkpt><trkpt lat="43.37886924325154" lon="144.0082165677274"><ele>1264.830414195545</ele><time>2022-08-25T01:34:50Z</time></trkpt><trkpt lat="43.37869081593251" lon="144.0081221145118"><ele>1260.3400953877717</ele><time>2022-08-25T01:35:15Z</time></trkpt><trkpt lat="43.37852969313232" lon="144.0080115625986"><ele>1257.2413078900427</ele><time>2022-08-25T01:35:41Z</time></trkpt><trkpt lat="43.378363009535086" lon="144.00810558951426"><ele>1257.0259836325422</ele><time>2022-08-25T01:36:02Z</time></trkpt><trkpt lat="43.37818044637385" lon="144.00807645838645"><ele>1254.6786437341943</ele><time>2022-08-25T01:36:22Z</time></trkpt><trkpt lat="43.37801514850879" lon="144.00817942382983"><ele>1254.5337269334123</ele><time>2022-08-25T01:36:45Z</time></trkpt><trkpt lat="43.3778458421284" lon="144.00829508697933"><ele>1254.5881577972323</ele><time>2022-08-25T01:37:03Z</time></trkpt><trkpt lat="43.37766604581249" lon="144.0082778672378"><ele>1258.3944952106103</ele><time>2022-08-25T01:37:22Z</time></trkpt><trkpt lat="43.37748823688379" lon="144.00834136833248"><ele>1263.3855262147263</ele><time>2022-08-25T01:37:52Z</time></trkpt><trkpt lat="43.3773070350099" lon="144.00831744226875"><ele>1273.0010486496612</ele><time>2022-08-25T01:38:46Z</time></trkpt><trkpt lat="43.37715897086828" lon="144.00816904776738"><ele>1284.2796636652201</ele><time>2022-08-25T01:39:44Z</time></trkpt><trkpt lat="43.37702694864582" lon="144.00833850497418"><ele>1290.5468137264252</ele><time>2022-08-25T01:40:19Z</time></trkpt><trkpt lat="43.376850677776275" lon="144.00828439634415"><ele>1302.257173763588</ele><time>2022-08-25T01:41:20Z</time></trkpt><trkpt lat="43.37667116751979" lon="144.00822473530124"><ele>1315.2473884532228</ele><time>2022-08-25T01:42:29Z</time></trkpt><trkpt lat="43.37650247802018" lon="144.00831556125496"><ele>1323.3529265364632</ele><time>2022-08-25T01:43:20Z</time></trkpt><trkpt lat="43.376327003778684" lon="144.0082577055173"><ele>1335.579967867583</ele><time>2022-08-25T01:44:32Z</time></trkpt><trkpt lat="43.37614987124449" lon="144.00821098239945"><ele>1345.4266666397452</ele><time>2022-08-25T01:45:30Z</time></trkpt><trkpt lat="43.37596773023995" lon="144.0082003355133"><ele>1355.678584465757</ele><time>2022-08-25T01:46:26Z</time></trkpt><trkpt lat="43.3757978483686" lon="144.00829158180545"><ele>1363.5677660219371</ele><time>2022-08-25T01:47:11Z</time></trkpt><trkpt lat="43.37566137500534" lon="144.0081230881879"><ele>1377.3524482231587</ele><time>2022-08-25T01:48:15Z</time></trkpt><trkpt lat="43.37547962093949" lon="144.00809775024985"><ele>1386.0375998811796</ele><time>2022-08-25T01:49:09Z</time></trkpt><trkpt lat="43.375412696207" lon="144.00786240526898"><ele>1397.3309418596327</ele><time>2022-08-25T01:50:04Z</time></trkpt><trkpt lat="43.375232149556815" lon="144.00786345574204"><ele>1405.040996875614</ele><time>2022-08-25T01:50:51Z</time></trkpt><trkpt lat="43.37520695933967" lon="144.00761072629035"><ele>1415.2142133330926</ele><time>2022-08-25T01:51:40Z</time></trkpt><trkpt lat="43.375038607686086" lon="144.00751558608079"><ele>1425.8357393946499</ele><time>2022-08-25T01:52:35Z</time></trkpt><trkpt lat="43.37489157401217" lon="144.00735880481477"><ele>1437.275374121964</ele><time>2022-08-25T01:53:30Z</time></trkpt><trkpt lat="43.374768126236376" lon="144.00717855140945"><ele>1445.2940762173384</ele><time>2022-08-25T01:54:10Z</time></trkpt><trkpt lat="43.37460323562204" lon="144.00706608706582"><ele>1452.6734854811803</ele><time>2022-08-25T01:54:52Z</time></trkpt><trkpt lat="43.374442735509504" lon="144.0069428438191"><ele>1457.9985218159854</ele><time>2022-08-25T01:55:21Z</time></trkpt><trkpt lat="43.37434652537474" lon="144.0067333107889"><ele>1463.1135445535183</ele><time>2022-08-25T01:55:52Z</time></trkpt><trkpt lat="43.3742203392105" lon="144.00654976399983"><ele>1471.6485282005742</ele><time>2022-08-25T01:56:28Z</time></trkpt><trkpt lat="43.374041335040936" lon="144.00651629993203"><ele>1476.7519502993673</ele><time>2022-08-25T01:57:09Z</time></trkpt><trkpt lat="43.3742184885695" lon="144.00656339190687"><ele>1471.8646771991625</ele><time>2022-08-25T02:07:06Z</time></trkpt><trkpt lat="43.374336252519846" lon="144.00675351016517"><ele>1464.867918821983</ele><time>2022-08-25T02:07:31Z</time></trkpt><trkpt lat="43.374430687892385" lon="144.00697431656155"><ele>1459.2053772648796</ele><time>2022-08-25T02:07:50Z</time></trkpt><trkpt lat="43.374599499601366" lon="144.00707739905496"><ele>1455.2112853201106</ele><time>2022-08-25T02:08:01Z</time></trkpt><trkpt lat="43.37477162656145" lon="144.00717401095946"><ele>1448.591968103312</ele><time>2022-08-25T02:08:51Z</time></trkpt><trkpt lat="43.37489855145658" lon="144.00736698741778"><ele>1440.770766475238</ele><time>2022-08-25T02:09:19Z</time></trkpt><trkpt lat="43.374921303558764" lon="144.00762917035217"><ele>1430.2310707364231</ele><time>2022-08-25T02:09:37Z</time></trkpt><trkpt lat="43.37510169564031" lon="144.00755205232466"><ele>1422.5611031595618</ele><time>2022-08-25T02:09:56Z</time></trkpt><trkpt lat="43.37518358707696" lon="144.00779645612783"><ele>1410.8406943967566</ele><time>2022-08-25T02:10:30Z</time></trkpt><trkpt lat="43.375363688126306" lon="144.00782809454824"><ele>1398.5404307143763</ele><time>2022-08-25T02:10:50Z</time></trkpt><trkpt lat="43.375416414447564" lon="144.0080890490666"><ele>1389.1184351695701</ele><time>2022-08-25T02:11:04Z</time></trkpt><trkpt lat="43.37559846050259" lon="144.00805238810767"><ele>1379.068413994275</ele><time>2022-08-25T02:11:28Z</time></trkpt><trkpt lat="43.375665092422864" lon="144.00830217612742"><ele>1368.6783523866907</ele><time>2022-08-25T02:11:44Z</time></trkpt><trkpt lat="43.375855488145035" lon="144.008251419993"><ele>1361.0360430264845</ele><time>2022-08-25T02:11:56Z</time></trkpt><trkpt lat="43.376037636368" lon="144.0081773835617"><ele>1353.3458283962682</ele><time>2022-08-25T02:12:06Z</time></trkpt><trkpt lat="43.37622529323509" lon="144.00817371403426"><ele>1342.7520369254053</ele><time>2022-08-25T02:12:21Z</time></trkpt><trkpt lat="43.376396362607366" lon="144.00826330759963"><ele>1330.9314207667485</ele><time>2022-08-25T02:12:48Z</time></trkpt><trkpt lat="43.37658376944826" lon="144.00831281642968"><ele>1319.4970916546881</ele><time>2022-08-25T02:13:10Z</time></trkpt><trkpt lat="43.376754598219044" lon="144.00821325335292"><ele>1310.0402170969173</ele><time>2022-08-25T02:13:26Z</time></trkpt><trkpt lat="43.37688659797211" lon="144.0084090473735"><ele>1296.6054798690602</ele><time>2022-08-25T02:13:47Z</time></trkpt><trkpt lat="43.377052740707526" lon="144.0082851359283"><ele>1289.7642042636871</ele><time>2022-08-25T02:14:03Z</time></trkpt><trkpt lat="43.377225188609586" lon="144.00819483309945"><ele>1279.6573654990643</ele><time>2022-08-25T02:14:18Z</time></trkpt><trkpt lat="43.37736939662775" lon="144.00835647742923"><ele>1270.9985707756132</ele><time>2022-08-25T02:14:34Z</time></trkpt><trkpt lat="43.37755294621414" lon="144.00833928051364"><ele>1262.3792533166707</ele><time>2022-08-25T02:14:51Z</time></trkpt><trkpt lat="43.377730416380054" lon="144.0082756210167"><ele>1258.4808197282255</ele><time>2022-08-25T02:14:59Z</time></trkpt><trkpt lat="43.37792441994486" lon="144.00829856796906"><ele>1257.4214392527938</ele><time>2022-08-25T02:15:06Z</time></trkpt><trkpt lat="43.37804317094217" lon="144.008086333591"><ele>1253.1876167813316</ele><time>2022-08-25T02:15:23Z</time></trkpt><trkpt lat="43.37810426318688" lon="144.00783698219166"><ele>1252.5607572551817</ele><time>2022-08-25T02:19:36Z</time></trkpt><trkpt lat="43.37823135802026" lon="144.007658309271"><ele>1250.428018153645</ele><time>2022-08-25T02:19:55Z</time></trkpt><trkpt lat="43.37833535945711" lon="144.00744793855364"><ele>1250.0106462510303</ele><time>2022-08-25T02:20:17Z</time></trkpt><trkpt lat="43.37842989077609" lon="144.00723283447778"><ele>1247.1755813183263</ele><time>2022-08-25T02:20:40Z</time></trkpt><trkpt lat="43.37853511480789" lon="144.00702192058134"><ele>1247.1785690616816</ele><time>2022-08-25T02:21:03Z</time></trkpt><trkpt lat="43.37857344156144" lon="144.00676857693907"><ele>1244.8633264098316</ele><time>2022-08-25T02:21:23Z</time></trkpt><trkpt lat="43.378689901473315" lon="144.00656264012318"><ele>1244.2565605444834</ele><time>2022-08-25T02:21:40Z</time></trkpt><trkpt lat="43.37877060658451" lon="144.00633587253495"><ele>1243.2918380405754</ele><time>2022-08-25T02:22:00Z</time></trkpt><trkpt lat="43.37882328725732" lon="144.00609452351142"><ele>1241.41411184147</ele><time>2022-08-25T02:22:20Z</time></trkpt><trkpt lat="43.37883269373724" lon="144.00584546901158"><ele>1231.097593717277</ele><time>2022-08-25T02:23:02Z</time></trkpt><trkpt lat="43.37883133317215" lon="144.00558734957653"><ele>1232.6332457615063</ele><time>2022-08-25T02:23:22Z</time></trkpt><trkpt lat="43.37875565181216" lon="144.00536197384739"><ele>1231.4472415586933</ele><time>2022-08-25T02:23:48Z</time></trkpt><trkpt lat="43.37882666800569" lon="144.00512891437253"><ele>1230.8598044514656</ele><time>2022-08-25T02:24:14Z</time></trkpt><trkpt lat="43.37893951407765" lon="144.0049333113662"><ele>1228.7031190339476</ele><time>2022-08-25T02:24:47Z</time></trkpt><trkpt lat="43.379067887180675" lon="144.00475132442963"><ele>1225.82556846831</ele><time>2022-08-25T02:25:08Z</time></trkpt><trkpt lat="43.37912964360384" lon="144.00451167943365"><ele>1225.8071822701022</ele><time>2022-08-25T02:25:26Z</time></trkpt><trkpt lat="43.37918697970258" lon="144.00427703394567"><ele>1220.7073816498742</ele><time>2022-08-25T02:26:02Z</time></trkpt><trkpt lat="43.37921941413931" lon="144.00402157418253"><ele>1216.200747189112</ele><time>2022-08-25T02:26:27Z</time></trkpt><trkpt lat="43.379128170790835" lon="144.00379444586767"><ele>1209.4461165508255</ele><time>2022-08-25T02:26:52Z</time></trkpt><trkpt lat="43.379108272763474" lon="144.00353863778545"><ele>1200.957759393379</ele><time>2022-08-25T02:27:26Z</time></trkpt><trkpt lat="43.37908190585455" lon="144.0032925786757"><ele>1197.2895276816562</ele><time>2022-08-25T02:27:44Z</time></trkpt><trkpt lat="43.379051321740334" lon="144.00304172750072"><ele>1191.1091707516462</ele><time>2022-08-25T02:28:03Z</time></trkpt><trkpt lat="43.379050016737324" lon="144.00278086325298"><ele>1187.1616343772039</ele><time>2022-08-25T02:28:21Z</time></trkpt><trkpt lat="43.37907016963494" lon="144.00252784561155"><ele>1182.7575913835317</ele><time>2022-08-25T02:28:37Z</time></trkpt><trkpt lat="43.37918547950011" lon="144.0023342194768"><ele>1178.7918461766094</ele><time>2022-08-25T02:28:52Z</time></trkpt><trkpt lat="43.37907255393477" lon="144.00213530264807"><ele>1173.0276778806</ele><time>2022-08-25T02:29:11Z</time></trkpt><trkpt lat="43.379181926946444" lon="144.0019342030917"><ele>1163.9653005274013</ele><time>2022-08-25T02:29:36Z</time></trkpt><trkpt lat="43.37923420572385" lon="144.00169163611616"><ele>1158.6461291331798</ele><time>2022-08-25T02:29:56Z</time></trkpt><trkpt lat="43.37914339008089" lon="144.00147329183338"><ele>1155.7716099992394</ele><time>2022-08-25T02:30:13Z</time></trkpt><trkpt lat="43.379037410464235" lon="144.00126092482319"><ele>1147.611542631872</ele><time>2022-08-25T02:30:45Z</time></trkpt><trkpt lat="43.37894487890726" lon="144.00103518544668"><ele>1140.6804142594337</ele><time>2022-08-25T02:31:49Z</time></trkpt><trkpt lat="43.37885504228832" lon="144.00081017082482"><ele>1129.5890969056636</ele><time>2022-08-25T02:32:11Z</time></trkpt><trkpt lat="43.378800531786474" lon="144.00057023826275"><ele>1123.2723241597414</ele><time>2022-08-25T02:32:36Z</time></trkpt><trkpt lat="43.37873845814794" lon="144.0003323164495"><ele>1117.3251606933773</ele><time>2022-08-25T02:33:02Z</time></trkpt><trkpt lat="43.378704441071285" lon="144.00008290603844"><ele>1111.4557143859565</ele><time>2022-08-25T02:33:25Z</time></trkpt><trkpt lat="43.37864264833002" lon="143.99984798027964"><ele>1105.3716952977702</ele><time>2022-08-25T02:33:52Z</time></trkpt><trkpt lat="43.37863060087776" lon="143.99959608198026"><ele>1100.257597626187</ele><time>2022-08-25T02:34:16Z</time></trkpt><trkpt lat="43.378590231718896" lon="143.99935488575326"><ele>1094.0945020606741</ele><time>2022-08-25T02:34:52Z</time></trkpt><trkpt lat="43.37857659599742" lon="143.9991044945457"><ele>1088.540908924304</ele><time>2022-08-25T02:35:30Z</time></trkpt><trkpt lat="43.37863222996688" lon="143.9988681518639"><ele>1082.8348813997582</ele><time>2022-08-25T02:36:07Z</time></trkpt><trkpt lat="43.37863673097707" lon="143.9986146157853"><ele>1079.712890922092</ele><time>2022-08-25T02:36:33Z</time></trkpt><trkpt lat="43.37865264636025" lon="143.99835981438105"><ele>1072.1222104327753</ele><time>2022-08-25T02:37:06Z</time></trkpt><trkpt lat="43.378737650418095" lon="143.99814114809928"><ele>1067.9896331736818</ele><time>2022-08-25T02:37:34Z</time></trkpt><trkpt lat="43.37867766055931" lon="143.99790679891078"><ele>1062.3112336583436</ele><time>2022-08-25T02:37:59Z</time></trkpt><trkpt lat="43.37855409039822" lon="143.99772696589633"><ele>1059.4253491256386</ele><time>2022-08-25T02:38:18Z</time></trkpt><trkpt lat="43.37845507153824" lon="143.99751563657392"><ele>1053.4014465101063</ele><time>2022-08-25T02:38:42Z</time></trkpt><trkpt lat="43.378396649508225" lon="143.99726559204686"><ele>1049.5156312026083</ele><time>2022-08-25T02:39:07Z</time></trkpt><trkpt lat="43.378284198519076" lon="143.99705586309105"><ele>1043.9394382666796</ele><time>2022-08-25T02:39:32Z</time></trkpt><trkpt lat="43.37823635214761" lon="143.99680961356125"><ele>1040.5145313441753</ele><time>2022-08-25T02:39:57Z</time></trkpt><trkpt lat="43.37822606593867" lon="143.99655869630072"><ele>1036.5199533626437</ele><time>2022-08-25T02:40:30Z</time></trkpt><trkpt lat="43.37828888598498" lon="143.99631427356164"><ele>1033.3306690426543</ele><time>2022-08-25T02:41:04Z</time></trkpt><trkpt lat="43.378361422371206" lon="143.99607837706685"><ele>1029.6800800757483</ele><time>2022-08-25T02:41:44Z</time></trkpt><trkpt lat="43.37849534104162" lon="143.9958944950068"><ele>1026.2405738802627</ele><time>2022-08-25T02:43:55Z</time></trkpt><trkpt lat="43.37859618822699" lon="143.99567122033054"><ele>1019.3666478209198</ele><time>2022-08-25T02:44:48Z</time></trkpt><trkpt lat="43.37865006656331" lon="143.99543483297654"><ele>1016.8665935313329</ele><time>2022-08-25T02:45:19Z</time></trkpt><trkpt lat="43.37873466963563" lon="143.99520927936038"><ele>1012.8504110993817</ele><time>2022-08-25T02:46:01Z</time></trkpt><trkpt lat="43.37881487430904" lon="143.9949857168762"><ele>1009.9789599766955</ele><time>2022-08-25T02:46:32Z</time></trkpt><trkpt lat="43.37879968519076" lon="143.99473488184339"><ele>1007.9178416077048</ele><time>2022-08-25T02:47:03Z</time></trkpt><trkpt lat="43.378744426684804" lon="143.99449726353032"><ele>1003.459126197733</ele><time>2022-08-25T02:47:35Z</time></trkpt><trkpt lat="43.37863714039475" lon="143.99428199015045"><ele>999.789992718026</ele><time>2022-08-25T02:48:10Z</time></trkpt><trkpt lat="43.378508032405584" lon="143.9940772179263"><ele>992.1791187087074</ele><time>2022-08-25T02:48:40Z</time></trkpt><trkpt lat="43.378486651007734" lon="143.99382486282443"><ele>986.4109139619395</ele><time>2022-08-25T02:49:15Z</time></trkpt><trkpt lat="43.37845679890735" lon="143.99357738677725"><ele>979.8386178445071</ele><time>2022-08-25T02:49:58Z</time></trkpt><trkpt lat="43.37828305466517" lon="143.99348975479026"><ele>975.5715314839035</ele><time>2022-08-25T02:50:33Z</time></trkpt><trkpt lat="43.378149777071556" lon="143.99330813897672"><ele>965.3021154729649</ele><time>2022-08-25T02:51:38Z</time></trkpt><trkpt lat="43.378210605069505" lon="143.99306676440204"><ele>959.8429594533518</ele><time>2022-08-25T02:52:11Z</time></trkpt><trkpt lat="43.378306098611745" lon="143.99285759904186"><ele>957.0506532443687</ele><time>2022-08-25T02:52:58Z</time></trkpt><trkpt lat="43.378379612971656" lon="143.99262664625334"><ele>952.9255568087101</ele><time>2022-08-25T02:53:25Z</time></trkpt><trkpt lat="43.37844154420984" lon="143.99239460932148"><ele>951.4114670949057</ele><time>2022-08-25T02:53:54Z</time></trkpt><trkpt lat="43.37859230673978" lon="143.99224322611482"><ele>945.3132178997621</ele><time>2022-08-25T02:54:24Z</time></trkpt><trkpt lat="43.3787676417489" lon="143.9921347503691"><ele>945.0387272015214</ele><time>2022-08-25T02:54:50Z</time></trkpt><trkpt lat="43.37893278184284" lon="143.99201095078072"><ele>943.4886929923669</ele><time>2022-08-25T02:55:15Z</time></trkpt><trkpt lat="43.37912768404367" lon="143.99199926906454"><ele>941.2278102552518</ele><time>2022-08-25T02:55:48Z</time></trkpt><trkpt lat="43.37918525548801" lon="143.9917636912245"><ele>937.8470896137878</ele><time>2022-08-25T02:56:15Z</time></trkpt><trkpt lat="43.37936360693418" lon="143.99172030842536"><ele>941.145130882971</ele><time>2022-08-25T02:57:13Z</time></trkpt><trkpt lat="43.379435878578654" lon="143.9914927389622"><ele>930.8257264504209</ele><time>2022-08-25T02:58:15Z</time></trkpt><trkpt lat="43.379449707424506" lon="143.991244045619"><ele>925.9729852387682</ele><time>2022-08-25T02:58:49Z</time></trkpt><trkpt lat="43.379527736213" lon="143.99100110088807"><ele>920.9586239093915</ele><time>2022-08-25T02:59:33Z</time></trkpt><trkpt lat="43.379511767123745" lon="143.99075138300483"><ele>917.0106033273041</ele><time>2022-08-25T03:00:04Z</time></trkpt><trkpt lat="43.37945717029463" lon="143.99051094085797"><ele>909.7717715175822</ele><time>2022-08-25T03:00:33Z</time></trkpt><trkpt lat="43.37943943703488" lon="143.99026318469745"><ele>900.9736738791689</ele><time>2022-08-25T03:01:15Z</time></trkpt><trkpt lat="43.37941647118009" lon="143.99000594611476"><ele>894.7368811443448</ele><time>2022-08-25T03:01:48Z</time></trkpt><trkpt lat="43.37941535911643" lon="143.98975282342965"><ele>891.6073960000649</ele><time>2022-08-25T03:02:44Z</time></trkpt><trkpt lat="43.37956648160953" lon="143.98961206328133"><ele>886.1278097368777</ele><time>2022-08-25T03:03:22Z</time></trkpt><trkpt lat="43.37966345260447" lon="143.98940217790275"><ele>877.1065761679783</ele><time>2022-08-25T03:04:09Z</time></trkpt><trkpt lat="43.379734797217104" lon="143.9891659255363"><ele>866.6737989280373</ele><time>2022-08-25T03:05:04Z</time></trkpt><trkpt lat="43.379820750691444" lon="143.98894351628064"><ele>859.6712250504643</ele><time>2022-08-25T03:06:00Z</time></trkpt><trkpt lat="43.37996634467865" lon="143.98878440008065"><ele>858.424304551445</ele><time>2022-08-25T03:07:38Z</time></trkpt><trkpt lat="43.380114528870166" lon="143.98860742166374"><ele>857.697301890701</ele><time>2022-08-25T03:08:04Z</time></trkpt><trkpt lat="43.38029612551863" lon="143.98854683131168"><ele>856.235053841956</ele><time>2022-08-25T03:08:28Z</time></trkpt><trkpt lat="43.38044481858519" lon="143.9883905815696"><ele>854.2311786273494</ele><time>2022-08-25T03:08:52Z</time></trkpt><trkpt lat="43.380597063069956" lon="143.9882493652407"><ele>842.5184212243184</ele><time>2022-08-25T03:09:46Z</time></trkpt><trkpt lat="43.38075303597637" lon="143.98837814521994"><ele>845.086080590263</ele><time>2022-08-25T03:10:13Z</time></trkpt><trkpt lat="43.380797902426906" lon="143.98813276405056"><ele>855.8795895269141</ele><time>2022-08-25T03:10:32Z</time></trkpt><trkpt lat="43.38076895379871" lon="143.9878701910228"><ele>844.4627337502316</ele><time>2022-08-25T03:11:01Z</time></trkpt><trkpt lat="43.380743305679296" lon="143.98761876698254"><ele>834.7879708474502</ele><time>2022-08-25T03:11:31Z</time></trkpt><trkpt lat="43.38068411938965" lon="143.98738161119283"><ele>829.2124199010432</ele><time>2022-08-25T03:11:52Z</time></trkpt><trkpt lat="43.38057787541648" lon="143.9871780663008"><ele>824.7227728394791</ele><time>2022-08-25T03:12:10Z</time></trkpt><trkpt lat="43.380587286421544" lon="143.9869294090116"><ele>820.3575479341671</ele><time>2022-08-25T03:12:33Z</time></trkpt><trkpt lat="43.38054155823388" lon="143.98668384994366"><ele>814.4124529035762</ele><time>2022-08-25T03:13:02Z</time></trkpt><trkpt lat="43.3805001827582" lon="143.98644135044103"><ele>813.5898105157539</ele><time>2022-08-25T03:13:21Z</time></trkpt><trkpt lat="43.38045371646425" lon="143.98620030676378"><ele>809.5715861348435</ele><time>2022-08-25T03:13:42Z</time></trkpt><trkpt lat="43.380426113223336" lon="143.98594515250016"><ele>808.7478535566479</ele><time>2022-08-25T03:13:59Z</time></trkpt><trkpt lat="43.38034502855231" lon="143.9857098080905"><ele>803.7489137528464</ele><time>2022-08-25T03:14:20Z</time></trkpt><trkpt lat="43.38027186775577" lon="143.98547764060586"><ele>801.4329366637394</ele><time>2022-08-25T03:14:41Z</time></trkpt><trkpt lat="43.380173361258905" lon="143.98526358940356"><ele>802.0345327686518</ele><time>2022-08-25T03:15:06Z</time></trkpt><trkpt lat="43.380017960023636" lon="143.98513209272687"><ele>800.8735111244023</ele><time>2022-08-25T03:15:26Z</time></trkpt><trkpt lat="43.3798702769561" lon="143.9849787248547"><ele>795.3444344252348</ele><time>2022-08-25T03:16:02Z</time></trkpt><trkpt lat="43.37975312105718" lon="143.98478838440116"><ele>790.4409208390862</ele><time>2022-08-25T03:16:22Z</time></trkpt><trkpt lat="43.37974153626474" lon="143.98453688503332"><ele>786.5531544322148</ele><time>2022-08-25T03:16:47Z</time></trkpt><trkpt lat="43.379742955049196" lon="143.98428342389158"><ele>783.9115676376969</ele><time>2022-08-25T03:17:08Z</time></trkpt><trkpt lat="43.37975814550166" lon="143.98402052709548"><ele>783.3754322519526</ele><time>2022-08-25T03:17:44Z</time></trkpt><trkpt lat="43.379734676479195" lon="143.98375786063903"><ele>780.2269202712923</ele><time>2022-08-25T03:18:08Z</time></trkpt><trkpt lat="43.37965738288505" lon="143.98352752896216"><ele>775.4017163207754</ele><time>2022-08-25T03:18:33Z</time></trkpt><trkpt lat="43.379728190500735" lon="143.98329899865345"><ele>771.5767641840503</ele><time>2022-08-25T03:19:10Z</time></trkpt><trkpt lat="43.37970669673092" lon="143.98305292001183"><ele>765.2305032443255</ele><time>2022-08-25T03:19:58Z</time></trkpt><trkpt lat="43.37979547187403" lon="143.98283077088652"><ele>763.7998584881425</ele><time>2022-08-25T03:20:35Z</time></trkpt><trkpt lat="43.37978780782877" lon="143.98258227350428"><ele>761.1845716517419</ele><time>2022-08-25T03:21:04Z</time></trkpt><trkpt lat="43.37980918568142" lon="143.98233115128832"><ele>760.1195531524718</ele><time>2022-08-25T03:21:28Z</time></trkpt><trkpt lat="43.37981068037739" lon="143.98206062652838"><ele>760.3132039019838</ele><time>2022-08-25T03:21:54Z</time></trkpt><trkpt lat="43.37976585429498" lon="143.9818170016689"><ele>756.6103090532124</ele><time>2022-08-25T03:22:13Z</time></trkpt><trkpt lat="43.37981136767986" lon="143.98157462118849"><ele>752.3101917188615</ele><time>2022-08-25T03:22:39Z</time></trkpt><trkpt lat="43.37979145882399" lon="143.98132430056296"><ele>750.3061920339242</ele><time>2022-08-25T03:23:04Z</time></trkpt><trkpt lat="43.37985206045692" lon="143.98108699777202"><ele>747.1917724078521</ele><time>2022-08-25T03:23:25Z</time></trkpt><trkpt lat="43.37993621202978" lon="143.98086000881986"><ele>743.9646780611947</ele><time>2022-08-25T03:23:50Z</time></trkpt><trkpt lat="43.379952325665315" lon="143.98060922514355"><ele>741.0426261797547</ele><time>2022-08-25T03:24:15Z</time></trkpt><trkpt lat="43.3799490074469" lon="143.98035105024152"><ele>739.2858911072835</ele><time>2022-08-25T03:24:35Z</time></trkpt><trkpt lat="43.37989946061127" lon="143.980103559229"><ele>739.8161134552211</ele><time>2022-08-25T03:24:50Z</time></trkpt><trkpt lat="43.3799312884907" lon="143.9798437163194"><ele>735.4211701722816</ele><time>2022-08-25T03:25:11Z</time></trkpt><trkpt lat="43.37993445121109" lon="143.97958758315073"><ele>728.1218232735991</ele><time>2022-08-25T03:25:33Z</time></trkpt><trkpt lat="43.379972738230705" lon="143.9793401473436"><ele>725.5538282431662</ele><time>2022-08-25T03:26:01Z</time></trkpt><trkpt lat="43.380013787549174" lon="143.9790921711382"><ele>719.8253252878785</ele><time>2022-08-25T03:26:24Z</time></trkpt><trkpt lat="43.380099865498536" lon="143.97885603861235"><ele>717.5343264201656</ele><time>2022-08-25T03:26:45Z</time></trkpt><trkpt lat="43.379987258579625" lon="143.97866335073945"><ele>713.7244855286554</ele><time>2022-08-25T03:27:03Z</time></trkpt><trkpt lat="43.38000322719766" lon="143.97839870622548"><ele>712.5050677023828</ele><time>2022-08-25T03:27:21Z</time></trkpt><trkpt lat="43.38001205544602" lon="143.97814675251607"><ele>710.0788212995976</ele><time>2022-08-25T03:27:34Z</time></trkpt><trkpt lat="43.38018023527114" lon="143.97804929441722"><ele>706.8329352652654</ele><time>2022-08-25T03:27:52Z</time></trkpt><trkpt lat="43.38012173902655" lon="143.97781051873838"><ele>699.3705334030092</ele><time>2022-08-25T03:28:08Z</time></trkpt><trkpt lat="43.380184310107694" lon="143.977573725819"><ele>695.964297791943</ele><time>2022-08-25T03:28:31Z</time></trkpt><trkpt lat="43.38010720282352" lon="143.97735038765788"><ele>685.4860480269417</ele><time>2022-08-25T03:29:11Z</time></trkpt><trkpt lat="43.380156868405194" lon="143.97709560099653"><ele>685.0712349722162</ele><time>2022-08-25T03:29:35Z</time></trkpt><trkpt lat="43.38019780226453" lon="143.97684426831654"><ele>681.7588357310742</ele><time>2022-08-25T03:29:58Z</time></trkpt><trkpt lat="43.38019445143539" lon="143.97659634232232"><ele>678.211974915117</ele><time>2022-08-25T03:30:14Z</time></trkpt><trkpt lat="43.38014870174855" lon="143.97634569329665"><ele>681.1745759993792</ele><time>2022-08-25T03:30:27Z</time></trkpt><trkpt lat="43.38022387967297" lon="143.97610334834707"><ele>678.3868406293914</ele><time>2022-08-25T03:30:39Z</time></trkpt><trkpt lat="43.38027796279185" lon="143.97586175255108"><ele>673.5632454855368</ele><time>2022-08-25T03:30:57Z</time></trkpt><trkpt lat="43.380260424479765" lon="143.97561241708883"><ele>670.1043065655977</ele><time>2022-08-25T03:31:55Z</time></trkpt><trkpt lat="43.3802669636817" lon="143.97535706655196"><ele>669.901614356786</ele><time>2022-08-25T03:32:12Z</time></trkpt><trkpt lat="43.38024975726015" lon="143.975109842716"><ele>667.3482640562579</ele><time>2022-08-25T03:32:27Z</time></trkpt><trkpt lat="43.38029280601909" lon="143.97485036336815"><ele>665.5469610095024</ele><time>2022-08-25T03:32:42Z</time></trkpt><trkpt lat="43.38025018121286" lon="143.974599320234"><ele>664.7147074695677</ele><time>2022-08-25T03:32:54Z</time></trkpt><trkpt lat="43.380156610036614" lon="143.9743676008204"><ele>663.3619819656014</ele><time>2022-08-25T03:33:07Z</time></trkpt><trkpt lat="43.38009810926638" lon="143.97411701481658"><ele>662.9975629318506</ele><time>2022-08-25T03:33:22Z</time></trkpt><trkpt lat="43.38018544069826" lon="143.9738987056448"><ele>658.0713030984625</ele><time>2022-08-25T03:33:39Z</time></trkpt><trkpt lat="43.380155411951996" lon="143.97364114335463"><ele>660.210813133046</ele><time>2022-08-25T03:34:00Z</time></trkpt><trkpt lat="43.380084709297115" lon="143.97340294382118"><ele>657.0289718573913</ele><time>2022-08-25T03:34:16Z</time></trkpt><trkpt lat="43.380160944031985" lon="143.97317593340975"><ele>654.0473476368934</ele><time>2022-08-25T03:34:33Z</time></trkpt><trkpt lat="43.38028939384292" lon="143.97299040765097"><ele>652.6456830529496</ele><time>2022-08-25T03:34:46Z</time></trkpt><trkpt lat="43.38031700097739" lon="143.97274617914596"><ele>653.9180051097646</ele><time>2022-08-25T03:34:59Z</time></trkpt><trkpt lat="43.38042789844413" lon="143.97254741929981"><ele>649.6980509124696</ele><time>2022-08-25T03:35:17Z</time></trkpt><trkpt lat="43.38037906025639" lon="143.97230724380597"><ele>641.5346998665482</ele><time>2022-08-25T03:38:45Z</time></trkpt><trkpt lat="43.380306338211255" lon="143.9720740464966"><ele>642.811971497722</ele><time>2022-08-25T03:39:01Z</time></trkpt><trkpt lat="43.380241635566044" lon="143.97183354339427"><ele>642.5938001191244</ele><time>2022-08-25T03:39:20Z</time></trkpt><trkpt lat="43.38015075768169" lon="143.97160460647632"><ele>642.2325501171872</ele><time>2022-08-25T03:39:35Z</time></trkpt><trkpt lat="43.38004933667398" lon="143.97138858835086"><ele>640.5223265765235</ele><time>2022-08-25T03:39:53Z</time></trkpt><trkpt lat="43.379976480012495" lon="143.97114507976568"><ele>641.9613593202084</ele><time>2022-08-25T03:40:09Z</time></trkpt><trkpt lat="43.379883795192455" lon="143.97092948666003"><ele>642.0518391011283</ele><time>2022-08-25T03:40:24Z</time></trkpt><trkpt lat="43.379790151415534" lon="143.97069609539327"><ele>642.1828156253323</ele><time>2022-08-25T03:40:42Z</time></trkpt><trkpt lat="43.379833207765145" lon="143.97045295815218"><ele>640.5676382798702</ele><time>2022-08-25T03:41:11Z</time></trkpt><trkpt lat="43.3800175059046" lon="143.97043457093568"><ele>642.0808314196765</ele><time>2022-08-25T03:41:24Z</time></trkpt><trkpt lat="43.38017050553388" lon="143.97030397942234"><ele>641.6171210389584</ele><time>2022-08-25T03:41:40Z</time></trkpt><trkpt lat="43.380307123309116" lon="143.97012987891873"><ele>639.7245729975402</ele><time>2022-08-25T03:41:57Z</time></trkpt><trkpt lat="43.38047506898987" lon="143.97003221573033"><ele>639.0925746979192</ele><time>2022-08-25T03:42:13Z</time></trkpt><trkpt lat="43.380653253475316" lon="143.96994453163072"><ele>641.0241799335927</ele><time>2022-08-25T03:42:29Z</time></trkpt><trkpt lat="43.38081341075331" lon="143.96982390882283"><ele>640.1238327631727</ele><time>2022-08-25T03:42:46Z</time></trkpt><trkpt lat="43.380989648796096" lon="143.96976611619567"><ele>643.6122965877876</ele><time>2022-08-25T03:43:05Z</time></trkpt><trkpt lat="43.381170477281" lon="143.96974305454978"><ele>643.1036163959652</ele><time>2022-08-25T03:43:20Z</time></trkpt><trkpt lat="43.381349337674614" lon="143.9696788129223"><ele>640.9268353199586</ele><time>2022-08-25T03:43:36Z</time></trkpt><trkpt lat="43.3815103694613" lon="143.969559974871"><ele>640.7404458830133</ele><time>2022-08-25T03:43:50Z</time></trkpt><trkpt lat="43.381612286942904" lon="143.96934884636704"><ele>640.3294844804332</ele><time>2022-08-25T03:44:04Z</time></trkpt><trkpt lat="43.381587478735405" lon="143.96910274465282"><ele>638.8598712719977</ele><time>2022-08-25T03:44:19Z</time></trkpt><trkpt lat="43.38152822240712" lon="143.96886907389973"><ele>641.0307851275429</ele><time>2022-08-25T03:44:32Z</time></trkpt><trkpt lat="43.38147138850831" lon="143.96863483309923"><ele>642.3361840825528</ele><time>2022-08-25T03:44:46Z</time></trkpt><trkpt lat="43.38144290116987" lon="143.96837378433756"><ele>642.9420781256631</ele><time>2022-08-25T03:45:03Z</time></trkpt><trkpt lat="43.38142478820599" lon="143.96812280106798"><ele>643.7236215509474</ele><time>2022-08-25T03:45:18Z</time></trkpt><trkpt lat="43.381443423188074" lon="143.96786453724067"><ele>643.8461192874238</ele><time>2022-08-25T03:45:33Z</time></trkpt><trkpt lat="43.38142893552924" lon="143.9676144125503"><ele>641.203069104813</ele><time>2022-08-25T03:45:49Z</time></trkpt><trkpt lat="43.381464574955764" lon="143.96737205263767"><ele>640.3646341869608</ele><time>2022-08-25T03:46:04Z</time></trkpt><trkpt lat="43.38159065850901" lon="143.96717114188172"><ele>641.3903628410771</ele><time>2022-08-25T03:46:20Z</time></trkpt><trkpt lat="43.38169158865353" lon="143.96694468038436"><ele>641.5966856181622</ele><time>2022-08-25T03:46:34Z</time></trkpt><trkpt lat="43.381822485491114" lon="143.96676057862283"><ele>638.6879370380193</ele><time>2022-08-25T03:46:53Z</time></trkpt><trkpt lat="43.38196843371301" lon="143.9665913819913"><ele>638.6933831209317</ele><time>2022-08-25T03:47:08Z</time></trkpt><trkpt lat="43.3820519638727" lon="143.96636288042535"><ele>638.2807945786044</ele><time>2022-08-25T03:47:25Z</time></trkpt><trkpt lat="43.38211931040772" lon="143.9661221321065"><ele>638.9296836536378</ele><time>2022-08-25T03:47:39Z</time></trkpt><trkpt lat="43.3821577264584" lon="143.96585787057003"><ele>636.8846423514187</ele><time>2022-08-25T03:47:54Z</time></trkpt><trkpt lat="43.3822341786121" lon="143.9656198592277"><ele>639.8937913132831</ele><time>2022-08-25T03:48:08Z</time></trkpt><trkpt lat="43.38235901411111" lon="143.96542181377907"><ele>638.0995683120564</ele><time>2022-08-25T03:48:24Z</time></trkpt><trkpt lat="43.38251718047505" lon="143.9652977284059"><ele>637.7682590968907</ele><time>2022-08-25T03:48:41Z</time></trkpt><trkpt lat="43.38267963734547" lon="143.96518322462856"><ele>639.6081212628633</ele><time>2022-08-25T03:48:57Z</time></trkpt><trkpt lat="43.38260038137238" lon="143.96495688123787"><ele>647.525516952388</ele><time>2022-08-25T03:50:12Z</time></trkpt><trkpt lat="43.3826478198223" lon="143.96521171615112"><ele>645.9265722539276</ele><time>2022-08-25T03:50:41Z</time></trkpt><trkpt lat="43.38283084556742" lon="143.96520874905423"><ele>640.3326720679179</ele><time>2022-08-25T03:58:09Z</time></trkpt><trkpt lat="43.38293467930538" lon="143.96541808823702"><ele>641.7202353635803</ele><time>2022-08-25T03:58:25Z</time></trkpt><trkpt lat="43.38304194036716" lon="143.96563214173455"><ele>642.2517343154177</ele><time>2022-08-25T03:58:39Z</time></trkpt><trkpt lat="43.38320672173374" lon="143.96577021928854"><ele>640.4662324097008</ele><time>2022-08-25T03:58:56Z</time></trkpt><trkpt lat="43.38338657917736" lon="143.96584168611767"><ele>639.6489432146773</ele><time>2022-08-25T03:59:11Z</time></trkpt><trkpt lat="43.38356540424961" lon="143.9658845479674"><ele>639.7350532663986</ele><time>2022-08-25T03:59:25Z</time></trkpt><trkpt lat="43.38375110398129" lon="143.9658764373694"><ele>638.493594955653</ele><time>2022-08-25T03:59:40Z</time></trkpt><trkpt lat="43.38393750792531" lon="143.96584963603493"><ele>637.468890699558</ele><time>2022-08-25T03:59:56Z</time></trkpt><trkpt lat="43.38412732968565" lon="143.96581752194277"><ele>638.8570554079488</ele><time>2022-08-25T04:00:12Z</time></trkpt><trkpt lat="43.38428506635906" lon="143.96569600068935"><ele>637.5124801695347</ele><time>2022-08-25T04:00:27Z</time></trkpt><trkpt lat="43.38444316715577" lon="143.96556298916676"><ele>637.0308659402654</ele><time>2022-08-25T04:00:41Z</time></trkpt><trkpt lat="43.38462612446779" lon="143.9655952509023"><ele>638.8042999068275</ele><time>2022-08-25T04:00:58Z</time></trkpt><trkpt lat="43.3846517749682" lon="143.96584373005487"><ele>634.3641354441643</ele><time>2022-08-25T04:03:24Z</time></trkpt><trkpt lat="43.38481123280346" lon="143.96572765990598"><ele>638.8706349106506</ele><time>2022-08-25T04:04:09Z</time></trkpt><trkpt lat="43.3849918175876" lon="143.96578388501842"><ele>638.531914146617</ele><time>2022-08-25T04:04:30Z</time></trkpt><trkpt lat="43.385151809393" lon="143.9659103972643"><ele>641.3498907787725</ele><time>2022-08-25T04:04:44Z</time></trkpt><trkpt lat="43.385286042420454" lon="143.96608600184135"><ele>642.2059926940128</ele><time>2022-08-25T04:04:59Z</time></trkpt><trkpt lat="43.38542646300412" lon="143.96624735791642"><ele>643.5875814072788</ele><time>2022-08-25T04:05:13Z</time></trkpt><trkpt lat="43.38555737621909" lon="143.9664242558754"><ele>642.8263423154131</ele><time>2022-08-25T04:05:27Z</time></trkpt><trkpt lat="43.38562610138039" lon="143.96665281565618"><ele>640.9987860433757</ele><time>2022-08-25T04:05:41Z</time></trkpt><trkpt lat="43.38569073716576" lon="143.96689227880842"><ele>639.0110874818638</ele><time>2022-08-25T04:05:57Z</time></trkpt><trkpt lat="43.385694974641666" lon="143.96714612695396"><ele>633.6147670820355</ele><time>2022-08-25T04:06:16Z</time></trkpt><trkpt lat="43.3858298347717" lon="143.96732141050282"><ele>635.5212975582108</ele><time>2022-08-25T04:15:48Z</time></trkpt><trkpt lat="43.385905370151505" lon="143.9675508303523"><ele>635.8012943947688</ele><time>2022-08-25T04:16:02Z</time></trkpt><trkpt lat="43.38597879250474" lon="143.96778376418965"><ele>639.3945943014696</ele><time>2022-08-25T04:16:17Z</time></trkpt><trkpt lat="43.3860290991829" lon="143.96803652388434"><ele>640.7542734388262</ele><time>2022-08-25T04:16:33Z</time></trkpt><trkpt lat="43.3861139690551" lon="143.96825691010662"><ele>641.9490707432851</ele><time>2022-08-25T04:16:47Z</time></trkpt><trkpt lat="43.38623796075206" lon="143.9684442290151"><ele>643.0873125642538</ele><time>2022-08-25T04:17:01Z</time></trkpt><trkpt lat="43.38640295430609" lon="143.968565694727"><ele>639.5302691450343</ele><time>2022-08-25T04:17:16Z</time></trkpt><trkpt lat="43.3865807586406" lon="143.96863038688855"><ele>639.9789674216881</ele><time>2022-08-25T04:17:30Z</time></trkpt><trkpt lat="43.386759900739015" lon="143.96866039170325"><ele>641.0329946186393</ele><time>2022-08-25T04:17:45Z</time></trkpt><trkpt lat="43.386945392433056" lon="143.96869048479087"><ele>639.3472908958793</ele><time>2022-08-25T04:18:00Z</time></trkpt><trkpt lat="43.38712759178962" lon="143.9687369242261"><ele>638.5325215477496</ele><time>2022-08-25T04:18:15Z</time></trkpt><trkpt lat="43.38730019484415" lon="143.96881539143158"><ele>637.6349516129121</ele><time>2022-08-25T04:18:32Z</time></trkpt><trkpt lat="43.38746992372889" lon="143.96889995066604"><ele>637.5659737307578</ele><time>2022-08-25T04:18:45Z</time></trkpt><trkpt lat="43.38764656745197" lon="143.96898250353766"><ele>635.9073064755648</ele><time>2022-08-25T04:19:03Z</time></trkpt><trkpt lat="43.38782922482914" lon="143.96906538172823"><ele>636.5245139356703</ele><time>2022-08-25T04:19:18Z</time></trkpt><trkpt lat="43.38801715645866" lon="143.96910186151828"><ele>636.0664930054918</ele><time>2022-08-25T04:19:32Z</time></trkpt><trkpt lat="43.388195393968864" lon="143.9691387448444"><ele>637.2655603084713</ele><time>2022-08-25T04:19:46Z</time></trkpt><trkpt lat="43.388389166959776" lon="143.96915938319395"><ele>633.8760018553585</ele><time>2022-08-25T04:20:01Z</time></trkpt><trkpt lat="43.38857555038405" lon="143.9690943782243"><ele>633.9765958683565</ele><time>2022-08-25T04:20:14Z</time></trkpt><trkpt lat="43.3887506842245" lon="143.96903260841356"><ele>636.3743857862428</ele><time>2022-08-25T04:20:27Z</time></trkpt><trkpt lat="43.388928489869265" lon="143.96896669456092"><ele>639.7507267743349</ele><time>2022-08-25T04:20:42Z</time></trkpt><trkpt lat="43.38909829251863" lon="143.96888457571302"><ele>640.4775072596967</ele><time>2022-08-25T04:20:55Z</time></trkpt><trkpt lat="43.38929196181024" lon="143.96883808953217"><ele>641.0424595978111</ele><time>2022-08-25T04:21:09Z</time></trkpt><trkpt lat="43.389478917321846" lon="143.9688291709158"><ele>642.8369766101241</ele><time>2022-08-25T04:21:25Z</time></trkpt><trkpt lat="43.38966757233761" lon="143.96884308477405"><ele>644.1307817241177</ele><time>2022-08-25T04:21:38Z</time></trkpt><trkpt lat="43.389847317473034" lon="143.96886911970623"><ele>644.0977253532037</ele><time>2022-08-25T04:21:52Z</time></trkpt><trkpt lat="43.39003441844608" lon="143.96890851438252"><ele>645.48095403146</ele><time>2022-08-25T04:22:06Z</time></trkpt><trkpt lat="43.39020531307151" lon="143.969014800548"><ele>646.1989506930113</ele><time>2022-08-25T04:22:22Z</time></trkpt><trkpt lat="43.390240407512685" lon="143.96926153895532"><ele>644.9906581835821</ele><time>2022-08-25T04:22:39Z</time></trkpt><trkpt lat="43.390203378435196" lon="143.96951547088344"><ele>647.9353493927047</ele><time>2022-08-25T04:22:56Z</time></trkpt><trkpt lat="43.390136745015994" lon="143.9697475423283"><ele>649.0350077394396</ele><time>2022-08-25T04:23:10Z</time></trkpt><trkpt lat="43.3900234936398" lon="143.96995931536603"><ele>650.4356206376106</ele><time>2022-08-25T04:23:27Z</time></trkpt><trkpt lat="43.38987082451797" lon="143.970100504263"><ele>651.1760752154514</ele><time>2022-08-25T04:23:47Z</time></trkpt><trkpt lat="43.38974689047497" lon="143.9703068760631"><ele>653.6255462216213</ele><time>2022-08-25T04:24:01Z</time></trkpt><trkpt lat="43.38965668105927" lon="143.97053424398493"><ele>653.8544041346759</ele><time>2022-08-25T04:24:16Z</time></trkpt><trkpt lat="43.38962243844327" lon="143.9707992184156"><ele>655.4998971698806</ele><time>2022-08-25T04:24:31Z</time></trkpt><trkpt lat="43.38965442041251" lon="143.97105426828378"><ele>657.3997037541121</ele><time>2022-08-25T04:24:45Z</time></trkpt><trkpt lat="43.38972983721315" lon="143.97128017736708"><ele>661.4589522760361</ele><time>2022-08-25T04:25:01Z</time></trkpt><trkpt lat="43.3898795592079" lon="143.9714301233054"><ele>662.3912129607052</ele><time>2022-08-25T04:25:13Z</time></trkpt><trkpt lat="43.390052473158896" lon="143.97152837058775"><ele>664.0216677282006</ele><time>2022-08-25T04:25:27Z</time></trkpt><trkpt lat="43.39023866030675" lon="143.97153639523992"><ele>663.7435819730163</ele><time>2022-08-25T04:25:41Z</time></trkpt><trkpt lat="43.39042419177543" lon="143.971544368671"><ele>664.4350081663579</ele><time>2022-08-25T04:25:55Z</time></trkpt><trkpt lat="43.390601688192035" lon="143.97144410355472"><ele>670.5495503759012</ele><time>2022-08-25T04:26:09Z</time></trkpt><trkpt lat="43.390779155796416" lon="143.9715204495169"><ele>667.4000303056091</ele><time>2022-08-25T04:26:25Z</time></trkpt><trkpt lat="43.39097477624003" lon="143.97154573862807"><ele>666.1560119558126</ele><time>2022-08-25T04:26:42Z</time></trkpt><trkpt lat="43.391156775870044" lon="143.97157133255678"><ele>667.4846147708595</ele><time>2022-08-25T04:26:56Z</time></trkpt><trkpt lat="43.391345286697195" lon="143.97158732576213"><ele>671.3632777351886</ele><time>2022-08-25T04:27:12Z</time></trkpt><trkpt lat="43.391528269749195" lon="143.97159317560178"><ele>672.4956898326054</ele><time>2022-08-25T04:27:26Z</time></trkpt><trkpt lat="43.391703864017394" lon="143.97165646018124"><ele>674.3117602393031</ele><time>2022-08-25T04:27:42Z</time></trkpt><trkpt lat="43.39186593164726" lon="143.97177261217675"><ele>674.0862593902275</ele><time>2022-08-25T04:27:56Z</time></trkpt><trkpt lat="43.39200648223638" lon="143.97193415429368"><ele>673.3996858596802</ele><time>2022-08-25T04:28:09Z</time></trkpt><trkpt lat="43.392111664446716" lon="143.97215542623468"><ele>674.6058749528602</ele><time>2022-08-25T04:28:24Z</time></trkpt><trkpt lat="43.39215109495287" lon="143.97239702791072"><ele>676.8543506413698</ele><time>2022-08-25T04:28:38Z</time></trkpt><trkpt lat="43.392141077469994" lon="143.97265363301872"><ele>678.01435809955</ele><time>2022-08-25T04:28:52Z</time></trkpt><trkpt lat="43.392093580240136" lon="143.97289452554793"><ele>678.8982651270926</ele><time>2022-08-25T04:29:06Z</time></trkpt><trkpt lat="43.391995804563116" lon="143.97311113155587"><ele>679.892397784628</ele><time>2022-08-25T04:29:21Z</time></trkpt><trkpt lat="43.39188679059606" lon="143.97331529633738"><ele>680.821431197226</ele><time>2022-08-25T04:29:35Z</time></trkpt><trkpt lat="43.391760336284165" lon="143.97350544301295"><ele>682.8551682373509</ele><time>2022-08-25T04:29:50Z</time></trkpt><trkpt lat="43.39166012810332" lon="143.97372731347386"><ele>683.50027729664</ele><time>2022-08-25T04:30:05Z</time></trkpt><trkpt lat="43.39160533939633" lon="143.97396741047137"><ele>684.794156611897</ele><time>2022-08-25T04:30:19Z</time></trkpt><trkpt lat="43.39158781334121" lon="143.97421853147398"><ele>687.3538940520957</ele><time>2022-08-25T04:30:33Z</time></trkpt><trkpt lat="43.391618278833" lon="143.97446182022333"><ele>688.3710463652387</ele><time>2022-08-25T04:30:47Z</time></trkpt><trkpt lat="43.39167413761478" lon="143.97471028838328"><ele>689.235455612652</ele><time>2022-08-25T04:31:02Z</time></trkpt><trkpt lat="43.39176160761391" lon="143.9749291494207"><ele>691.6379766995087</ele><time>2022-08-25T04:31:16Z</time></trkpt><trkpt lat="43.39186372902855" lon="143.97515112413677"><ele>692.8948963200673</ele><time>2022-08-25T04:31:30Z</time></trkpt><trkpt lat="43.39196955289589" lon="143.97536323967714"><ele>692.8261897210032</ele><time>2022-08-25T04:31:45Z</time></trkpt><trkpt lat="43.39206632243135" lon="143.9755822210327"><ele>695.8219428258017</ele><time>2022-08-25T04:31:59Z</time></trkpt><trkpt lat="43.392181043520566" lon="143.97578705395108"><ele>695.4808892775327</ele><time>2022-08-25T04:32:13Z</time></trkpt><trkpt lat="43.39228317618703" lon="143.9759964337748"><ele>694.5289836833254</ele><time>2022-08-25T04:32:26Z</time></trkpt><trkpt lat="43.39236756347278" lon="143.97621899518165"><ele>698.1962121138349</ele><time>2022-08-25T04:32:39Z</time></trkpt><trkpt lat="43.39246241510582" lon="143.9764489783871"><ele>699.8432375537232</ele><time>2022-08-25T04:32:54Z</time></trkpt><trkpt lat="43.392524554004034" lon="143.97668383030063"><ele>699.1764752501622</ele><time>2022-08-25T04:33:08Z</time></trkpt><trkpt lat="43.39257597750345" lon="143.97693799158026"><ele>699.0830954536796</ele><time>2022-08-25T04:33:23Z</time></trkpt><trkpt lat="43.392624212130436" lon="143.97719860067494"><ele>700.8648742903024</ele><time>2022-08-25T04:33:36Z</time></trkpt><trkpt lat="43.39269063833996" lon="143.97743897420608"><ele>702.1442420808598</ele><time>2022-08-25T04:33:50Z</time></trkpt><trkpt lat="43.39281026467814" lon="143.97764969732802"><ele>701.7211800254881</ele><time>2022-08-25T04:34:04Z</time></trkpt><trkpt lat="43.39294226858402" lon="143.97782199616796"><ele>703.4721874650568</ele><time>2022-08-25T04:34:17Z</time></trkpt><trkpt lat="43.39310139807078" lon="143.97796289516296"><ele>704.9433559579775</ele><time>2022-08-25T04:34:32Z</time></trkpt><trkpt lat="43.39326894165792" lon="143.97807849357787"><ele>706.0464731454849</ele><time>2022-08-25T04:34:47Z</time></trkpt><trkpt lat="43.39343028514487" lon="143.97819262887577"><ele>708.3975830040872</ele><time>2022-08-25T04:35:01Z</time></trkpt><trkpt lat="43.39359640114994" lon="143.97830573679548"><ele>707.8385761464015</ele><time>2022-08-25T04:35:16Z</time></trkpt><trkpt lat="43.393737773197316" lon="143.97847936914306"><ele>708.8312103506178</ele><time>2022-08-25T04:35:32Z</time></trkpt><trkpt lat="43.393853749770024" lon="143.9786977150976"><ele>708.7003745241091</ele><time>2022-08-25T04:35:46Z</time></trkpt><trkpt lat="43.39391529712241" lon="143.97893160319703"><ele>711.434105111286</ele><time>2022-08-25T04:36:00Z</time></trkpt><trkpt lat="43.393951472691406" lon="143.97917955363138"><ele>712.7907050801441</ele><time>2022-08-25T04:36:15Z</time></trkpt><trkpt lat="43.39396987531391" lon="143.97943980152496"><ele>713.4803514229134</ele><time>2022-08-25T04:36:30Z</time></trkpt><trkpt lat="43.39400355796609" lon="143.97968588514678"><ele>715.8631796641275</ele><time>2022-08-25T04:36:44Z</time></trkpt><trkpt lat="43.39401796115389" lon="143.9799400011837"><ele>717.7442192286253</ele><time>2022-08-25T04:36:58Z</time></trkpt><trkpt lat="43.39405392085299" lon="143.98019374408625"><ele>719.974644436501</ele><time>2022-08-25T04:37:12Z</time></trkpt><trkpt lat="43.39410190660927" lon="143.98044131677318"><ele>720.6896147802472</ele><time>2022-08-25T04:37:27Z</time></trkpt><trkpt lat="43.39416759041281" lon="143.98068321248954"><ele>720.2537816958502</ele><time>2022-08-25T04:37:41Z</time></trkpt><trkpt lat="43.39426386960845" lon="143.98090176809697"><ele>719.8524171859026</ele><time>2022-08-25T04:37:54Z</time></trkpt><trkpt lat="43.394375801827564" lon="143.98110470446932"><ele>719.5087781967595</ele><time>2022-08-25T04:38:08Z</time></trkpt><trkpt lat="43.39450073336433" lon="143.98128749980867"><ele>718.8514969982207</ele><time>2022-08-25T04:38:22Z</time></trkpt><trkpt lat="43.39463928154984" lon="143.98145056426645"><ele>717.5827629640698</ele><time>2022-08-25T04:38:36Z</time></trkpt><trkpt lat="43.39479908349543" lon="143.98160143156542"><ele>717.4391102548689</ele><time>2022-08-25T04:38:49Z</time></trkpt><trkpt lat="43.3949356257253" lon="143.98177764576255"><ele>717.4490537131205</ele><time>2022-08-25T04:39:02Z</time></trkpt><trkpt lat="43.39506305088986" lon="143.98195348239972"><ele>716.5881279073656</ele><time>2022-08-25T04:39:15Z</time></trkpt><trkpt lat="43.395201468950624" lon="143.9821341406213"><ele>715.1437127925456</ele><time>2022-08-25T04:39:29Z</time></trkpt><trkpt lat="43.39532121664159" lon="143.98233930703202"><ele>713.9187214644626</ele><time>2022-08-25T04:39:44Z</time></trkpt><trkpt lat="43.395403233652225" lon="143.982574338848"><ele>710.765780704096</ele><time>2022-08-25T04:39:58Z</time></trkpt><trkpt lat="43.39525824031417" lon="143.98272408716718"><ele>711.2169104414061</ele><time>2022-08-25T04:40:13Z</time></trkpt><trkpt lat="43.39507894940495" lon="143.98282497357835"><ele>715.3499064985663</ele><time>2022-08-25T04:40:27Z</time></trkpt><trkpt lat="43.39489283769121" lon="143.98284716760705"><ele>715.0651447596028</ele><time>2022-08-25T04:40:46Z</time></trkpt></trkseg></trk></gpx>