<?xml version='1.0' encoding='UTF-8'?><gpx creator="YAMAP - https://yamap.com" xsi:schemaLocation="http://www.topografix.com/GPX/1/1 http://www.topografix.com/GPX/1/1/gpx.xsd" version="1.1" xmlns="http://www.topografix.com/GPX/1/1" xmlns:xsi="http://www.w3.org/2001/XMLSchema-instance"><metadata><bounds maxlat="36.76521456942659" maxlon="139.49271761878845" minlat="36.74109316645399" minlon="139.48612072518046"/></metadata><trk><name>男体山</name><number>1</number><trkseg><trkpt lat="36.74128754533524" lon="139.48612072518046"><ele>1288.298183441162</ele><time>2023-08-04T22:21:30Z</time></trkpt><trkpt lat="36.74127669077063" lon="139.48637033825693"><ele>1291.1984519958496</ele><time>2023-08-04T22:21:32Z</time></trkpt><trkpt lat="36.74109316645399" lon="139.48627356618007"><ele>1289.2418032241985</ele><time>2023-08-04T22:23:26Z</time></trkpt><trkpt lat="36.74115077679006" lon="139.48649617340874"><ele>1285.252967659384</ele><time>2023-08-04T22:24:08Z</time></trkpt><trkpt lat="36.741220937365405" lon="139.48670721649108"><ele>1284.0485100233927</ele><time>2023-08-04T22:24:26Z</time></trkpt><trkpt lat="36.74130714690387" lon="139.4869039648813"><ele>1284.7566707078367</ele><time>2023-08-04T22:24:42Z</time></trkpt><trkpt lat="36.74149174368806" lon="139.48691678212"><ele>1284.9666496105492</ele><time>2023-08-04T22:25:00Z</time></trkpt><trkpt lat="36.74168345753393" lon="139.48695128378935"><ele>1283.5473936498165</ele><time>2023-08-04T22:26:50Z</time></trkpt><trkpt lat="36.741862031756476" lon="139.48698350062827"><ele>1288.0911669572815</ele><time>2023-08-04T22:29:13Z</time></trkpt><trkpt lat="36.742068324076776" lon="139.4869995319446"><ele>1297.8760763090104</ele><time>2023-08-04T22:29:44Z</time></trkpt><trkpt lat="36.7422401886679" lon="139.48707054372727"><ele>1306.0207052063197</ele><time>2023-08-04T22:30:23Z</time></trkpt><trkpt lat="36.742421002284445" lon="139.4870518234524"><ele>1314.1726792985573</ele><time>2023-08-04T22:31:28Z</time></trkpt><trkpt lat="36.74259429233812" lon="139.48713025996605"><ele>1319.4644531076774</ele><time>2023-08-04T22:32:07Z</time></trkpt><trkpt lat="36.7427727233005" lon="139.48719384064762"><ele>1324.3640198512003</ele><time>2023-08-04T22:32:42Z</time></trkpt><trkpt lat="36.742928965693" lon="139.48732903845823"><ele>1335.1119808238</ele><time>2023-08-04T22:33:54Z</time></trkpt><trkpt lat="36.743043653500585" lon="139.48750828704888"><ele>1337.68864143081</ele><time>2023-08-04T22:34:31Z</time></trkpt><trkpt lat="36.743213550374044" lon="139.48760315460723"><ele>1341.8648590063676</ele><time>2023-08-04T22:35:06Z</time></trkpt><trkpt lat="36.74336737826546" lon="139.48772195492285"><ele>1344.7403282774612</ele><time>2023-08-04T22:36:01Z</time></trkpt><trkpt lat="36.74355453417813" lon="139.48773165824076"><ele>1352.521761550568</ele><time>2023-08-04T22:36:40Z</time></trkpt><trkpt lat="36.74371404601485" lon="139.4878372799129"><ele>1360.523251852952</ele><time>2023-08-04T22:37:24Z</time></trkpt><trkpt lat="36.74388430763651" lon="139.48792808843476"><ele>1366.8091677892953</ele><time>2023-08-04T22:38:05Z</time></trkpt><trkpt lat="36.74404630526963" lon="139.48803567275513"><ele>1374.0366643760353</ele><time>2023-08-04T22:38:51Z</time></trkpt><trkpt lat="36.744228361126005" lon="139.48810574216887"><ele>1382.1018829261884</ele><time>2023-08-04T22:39:38Z</time></trkpt><trkpt lat="36.744415372806664" lon="139.48806642804243"><ele>1388.29689282272</ele><time>2023-08-04T22:40:25Z</time></trkpt><trkpt lat="36.74460204509743" lon="139.48806426801752"><ele>1393.1873861746863</ele><time>2023-08-04T22:41:38Z</time></trkpt><trkpt lat="36.74479247087458" lon="139.48809912138992"><ele>1402.7957570599392</ele><time>2023-08-04T22:42:34Z</time></trkpt><trkpt lat="36.7449792777657" lon="139.48809198357563"><ele>1410.3558352002874</ele><time>2023-08-04T22:43:33Z</time></trkpt><trkpt lat="36.74516468351992" lon="139.48803404978776"><ele>1420.4727760693058</ele><time>2023-08-04T22:44:40Z</time></trkpt><trkpt lat="36.7453496232936" lon="139.48805814013522"><ele>1428.0293051376939</ele><time>2023-08-04T22:50:07Z</time></trkpt><trkpt lat="36.74552883302196" lon="139.48809018488032"><ele>1438.3852052688599</ele><time>2023-08-04T22:51:10Z</time></trkpt><trkpt lat="36.745690982152134" lon="139.48820626954827"><ele>1443.2934012161568</ele><time>2023-08-04T22:52:14Z</time></trkpt><trkpt lat="36.74583984136212" lon="139.48835436269454"><ele>1453.8830360472202</ele><time>2023-08-04T22:53:16Z</time></trkpt><trkpt lat="36.74601734458577" lon="139.48840545392275"><ele>1463.4040689663962</ele><time>2023-08-04T22:54:55Z</time></trkpt><trkpt lat="36.74619244667923" lon="139.48834578269265"><ele>1473.2136823236942</ele><time>2023-08-04T22:56:06Z</time></trkpt><trkpt lat="36.74634908944346" lon="139.48846107731978"><ele>1477.8636590233073</ele><time>2023-08-04T22:57:39Z</time></trkpt><trkpt lat="36.74648793198875" lon="139.4886072903497"><ele>1485.8503083596006</ele><time>2023-08-04T22:58:37Z</time></trkpt><trkpt lat="36.74660354217695" lon="139.488785696294"><ele>1491.8372329333797</ele><time>2023-08-04T23:01:04Z</time></trkpt><trkpt lat="36.746788158040985" lon="139.4888017493842"><ele>1500.7853117091581</ele><time>2023-08-04T23:03:41Z</time></trkpt><trkpt lat="36.74694273356049" lon="139.48893077252993"><ele>1514.2239318750799</ele><time>2023-08-04T23:06:21Z</time></trkpt><trkpt lat="36.74710569261122" lon="139.48903545273006"><ele>1522.6450570393354</ele><time>2023-08-04T23:07:39Z</time></trkpt><trkpt lat="36.747248825039236" lon="139.4891714503373"><ele>1529.5089387921616</ele><time>2023-08-04T23:09:30Z</time></trkpt><trkpt lat="36.747432541077835" lon="139.489186791403"><ele>1539.8362082596868</ele><time>2023-08-04T23:10:40Z</time></trkpt><trkpt lat="36.747582893494915" lon="139.489059150177"><ele>1546.835512360558</ele><time>2023-08-04T23:11:53Z</time></trkpt><trkpt lat="36.74775064949062" lon="139.4891428707369"><ele>1555.3271549148485</ele><time>2023-08-04T23:13:18Z</time></trkpt><trkpt lat="36.747909543883154" lon="139.48926615985567"><ele>1561.1772406622767</ele><time>2023-08-04T23:22:10Z</time></trkpt><trkpt lat="36.74790123745216" lon="139.48950059205367"><ele>1566.5736926579848</ele><time>2023-08-04T23:22:33Z</time></trkpt><trkpt lat="36.74786212277677" lon="139.48972157678784"><ele>1566.217847620137</ele><time>2023-08-04T23:22:54Z</time></trkpt><trkpt lat="36.74783852470334" lon="139.48994835381288"><ele>1565.710723232478</ele><time>2023-08-04T23:23:16Z</time></trkpt><trkpt lat="36.74798436327497" lon="139.4900879927771"><ele>1565.496176498942</ele><time>2023-08-04T23:23:36Z</time></trkpt><trkpt lat="36.74804451976506" lon="139.48987471705792"><ele>1569.2897162567824</ele><time>2023-08-04T23:23:52Z</time></trkpt><trkpt lat="36.748060575239656" lon="139.4896377981141"><ele>1572.5486304983497</ele><time>2023-08-04T23:24:12Z</time></trkpt><trkpt lat="36.748094733794474" lon="139.48941728508987"><ele>1573.5066028870642</ele><time>2023-08-04T23:24:33Z</time></trkpt><trkpt lat="36.74811233822635" lon="139.4891852525293"><ele>1572.3709152564406</ele><time>2023-08-04T23:24:54Z</time></trkpt><trkpt lat="36.748125882609" lon="139.4889570893391"><ele>1573.313818742521</ele><time>2023-08-04T23:25:14Z</time></trkpt><trkpt lat="36.74819944860358" lon="139.48874874017108"><ele>1574.944918455556</ele><time>2023-08-04T23:25:37Z</time></trkpt><trkpt lat="36.74827359958271" lon="139.48895612292242"><ele>1579.4140859767795</ele><time>2023-08-04T23:26:28Z</time></trkpt><trkpt lat="36.74825261448922" lon="139.4891876294684"><ele>1583.9360498506576</ele><time>2023-08-04T23:26:50Z</time></trkpt><trkpt lat="36.74826641637311" lon="139.48941489569455"><ele>1583.6204544007778</ele><time>2023-08-04T23:27:11Z</time></trkpt><trkpt lat="36.748277145820516" lon="139.4896431782561"><ele>1584.210323982872</ele><time>2023-08-04T23:27:29Z</time></trkpt><trkpt lat="36.74830226250833" lon="139.48987379823"><ele>1583.7417110716924</ele><time>2023-08-04T23:27:50Z</time></trkpt><trkpt lat="36.74841455858966" lon="139.49006007478084"><ele>1584.6302236448973</ele><time>2023-08-04T23:28:10Z</time></trkpt><trkpt lat="36.74859135367546" lon="139.49015429578745"><ele>1589.5091421920806</ele><time>2023-08-04T23:28:33Z</time></trkpt><trkpt lat="36.74873253766272" lon="139.49031114430733"><ele>1593.0221553081647</ele><time>2023-08-04T23:28:58Z</time></trkpt><trkpt lat="36.748682918237364" lon="139.4905320024879"><ele>1597.2030183551833</ele><time>2023-08-04T23:29:20Z</time></trkpt><trkpt lat="36.7485609572779" lon="139.49072511534644"><ele>1598.2262973105535</ele><time>2023-08-04T23:29:40Z</time></trkpt><trkpt lat="36.74845525669337" lon="139.4909122819198"><ele>1597.2046452844515</ele><time>2023-08-04T23:30:01Z</time></trkpt><trkpt lat="36.74847999934661" lon="139.49113756584734"><ele>1598.828133915551</ele><time>2023-08-04T23:30:20Z</time></trkpt><trkpt lat="36.748550126589905" lon="139.4913555819325"><ele>1597.9586655097082</ele><time>2023-08-04T23:30:41Z</time></trkpt><trkpt lat="36.74859111811947" lon="139.4915822918574"><ele>1599.7970716515556</ele><time>2023-08-04T23:31:03Z</time></trkpt><trkpt lat="36.74867006545168" lon="139.49178570047096"><ele>1598.3348507229239</ele><time>2023-08-04T23:31:22Z</time></trkpt><trkpt lat="36.74873866502111" lon="139.49199548634536"><ele>1600.6192643847317</ele><time>2023-08-04T23:31:42Z</time></trkpt><trkpt lat="36.74879631953757" lon="139.49221790577235"><ele>1601.9160173721611</ele><time>2023-08-04T23:32:03Z</time></trkpt><trkpt lat="36.748849199074904" lon="139.49244416354702"><ele>1603.827044324018</ele><time>2023-08-04T23:32:23Z</time></trkpt><trkpt lat="36.74889142013443" lon="139.49267742946805"><ele>1605.334870558232</ele><time>2023-08-04T23:32:46Z</time></trkpt><trkpt lat="36.74906279080755" lon="139.4926068720009"><ele>1609.0071044927463</ele><time>2023-08-04T23:33:18Z</time></trkpt><trkpt lat="36.74900730793972" lon="139.49238724514612"><ele>1613.6236654408276</ele><time>2023-08-04T23:33:40Z</time></trkpt><trkpt lat="36.74899862054436" lon="139.49214549989182"><ele>1615.0454839095473</ele><time>2023-08-04T23:34:03Z</time></trkpt><trkpt lat="36.748993237987136" lon="139.49192081331014"><ele>1617.0442611360922</ele><time>2023-08-04T23:34:25Z</time></trkpt><trkpt lat="36.74897426057155" lon="139.49169513036836"><ele>1620.0108749121428</ele><time>2023-08-04T23:34:45Z</time></trkpt><trkpt lat="36.748947590336556" lon="139.4914679993464"><ele>1620.8829114064574</ele><time>2023-08-04T23:35:08Z</time></trkpt><trkpt lat="36.74894448970493" lon="139.49123679845073"><ele>1620.9891160810366</ele><time>2023-08-04T23:35:27Z</time></trkpt><trkpt lat="36.74892783828463" lon="139.49101242704623"><ele>1621.109314309433</ele><time>2023-08-04T23:35:48Z</time></trkpt><trkpt lat="36.74911321586914" lon="139.49099638830944"><ele>1621.3937269225717</ele><time>2023-08-04T23:36:25Z</time></trkpt><trkpt lat="36.7491496504112" lon="139.4912201386581"><ele>1624.7072672378272</ele><time>2023-08-04T23:36:45Z</time></trkpt><trkpt lat="36.74918821233541" lon="139.4914495835941"><ele>1627.9505101367831</ele><time>2023-08-04T23:37:09Z</time></trkpt><trkpt lat="36.74923786086921" lon="139.4916817293923"><ele>1632.2873027808964</ele><time>2023-08-04T23:37:30Z</time></trkpt><trkpt lat="36.749300189734754" lon="139.4918973022061"><ele>1632.834322550334</ele><time>2023-08-04T23:37:50Z</time></trkpt><trkpt lat="36.749376852520065" lon="139.49210164962028"><ele>1636.5915436763316</ele><time>2023-08-04T23:38:11Z</time></trkpt><trkpt lat="36.749441166208776" lon="139.49232213718176"><ele>1638.3771945424378</ele><time>2023-08-04T23:38:31Z</time></trkpt><trkpt lat="36.74949524083176" lon="139.4925360275086"><ele>1637.7149347281083</ele><time>2023-08-04T23:38:52Z</time></trkpt><trkpt lat="36.749624508840746" lon="139.4926958461719"><ele>1638.238012412563</ele><time>2023-08-04T23:39:18Z</time></trkpt><trkpt lat="36.749683867160535" lon="139.49248064781833"><ele>1644.3244270775467</ele><time>2023-08-04T23:39:40Z</time></trkpt><trkpt lat="36.749650011192315" lon="139.49225831033857"><ele>1645.9601096818224</ele><time>2023-08-04T23:40:00Z</time></trkpt><trkpt lat="36.749639055184545" lon="139.49203336099956"><ele>1648.6186902718619</ele><time>2023-08-04T23:40:19Z</time></trkpt><trkpt lat="36.7496231849563" lon="139.49180431758163"><ele>1650.5798199474812</ele><time>2023-08-04T23:40:38Z</time></trkpt><trkpt lat="36.74960435282594" lon="139.49158133157707"><ele>1649.9690298074856</ele><time>2023-08-04T23:40:58Z</time></trkpt><trkpt lat="36.74959154183122" lon="139.49134997252568"><ele>1652.9629348190501</ele><time>2023-08-04T23:41:17Z</time></trkpt><trkpt lat="36.74958850980924" lon="139.4911207235114"><ele>1653.6972670219839</ele><time>2023-08-04T23:41:36Z</time></trkpt><trkpt lat="36.749595087280454" lon="139.4908893341533"><ele>1655.6789245819673</ele><time>2023-08-04T23:41:55Z</time></trkpt><trkpt lat="36.749693089407344" lon="139.49068641138518"><ele>1657.3471639594063</ele><time>2023-08-04T23:42:15Z</time></trkpt><trkpt lat="36.74982736761882" lon="139.49050798845"><ele>1661.4245544336736</ele><time>2023-08-04T23:42:38Z</time></trkpt><trkpt lat="36.74995123826899" lon="139.49033158983218"><ele>1669.2179970685393</ele><time>2023-08-04T23:42:57Z</time></trkpt><trkpt lat="36.749941197913905" lon="139.49010079404468"><ele>1668.1583382254466</ele><time>2023-08-04T23:43:21Z</time></trkpt><trkpt lat="36.74981076776769" lon="139.4899247120836"><ele>1668.8966484786943</ele><time>2023-08-04T23:43:41Z</time></trkpt><trkpt lat="36.74975280389597" lon="139.48970563528604"><ele>1667.3102116240188</ele><time>2023-08-04T23:44:05Z</time></trkpt><trkpt lat="36.749722635623506" lon="139.4894830863015"><ele>1667.7808383405209</ele><time>2023-08-04T23:44:25Z</time></trkpt><trkpt lat="36.749831061853655" lon="139.48929679563892"><ele>1669.1285539241508</ele><time>2023-08-04T23:44:53Z</time></trkpt><trkpt lat="36.75000057347042" lon="139.48940414695988"><ele>1682.6123643685132</ele><time>2023-08-04T23:57:09Z</time></trkpt><trkpt lat="36.750181059705" lon="139.48937449191197"><ele>1690.3971115490422</ele><time>2023-08-04T23:59:26Z</time></trkpt><trkpt lat="36.75032710200347" lon="139.48923842611435"><ele>1703.1755287200212</ele><time>2023-08-05T00:01:11Z</time></trkpt><trkpt lat="36.7503944636019" lon="139.48944890685374"><ele>1706.406681811437</ele><time>2023-08-05T00:02:00Z</time></trkpt><trkpt lat="36.750528797375885" lon="139.48960249786663"><ele>1719.5551642244682</ele><time>2023-08-05T00:03:19Z</time></trkpt><trkpt lat="36.75064048317809" lon="139.48942095952313"><ele>1723.5692878942937</ele><time>2023-08-05T00:04:45Z</time></trkpt><trkpt lat="36.75070914569477" lon="139.48962862105805"><ele>1731.466403696686</ele><time>2023-08-05T00:05:41Z</time></trkpt><trkpt lat="36.75085791843543" lon="139.4894984059673"><ele>1737.488237359561</ele><time>2023-08-05T00:06:53Z</time></trkpt><trkpt lat="36.751001882548756" lon="139.4893605131792"><ele>1744.5389936883003</ele><time>2023-08-05T00:07:36Z</time></trkpt><trkpt lat="36.75110004992977" lon="139.4895519186324"><ele>1756.9208550052717</ele><time>2023-08-05T00:09:15Z</time></trkpt><trkpt lat="36.7513036769032" lon="139.48961735047536"><ele>1766.2821897417307</ele><time>2023-08-05T00:10:51Z</time></trkpt><trkpt lat="36.751486419111785" lon="139.48963465977397"><ele>1780.7846856014803</ele><time>2023-08-05T00:16:22Z</time></trkpt><trkpt lat="36.75164725835997" lon="139.4897479891891"><ele>1783.500580332242</ele><time>2023-08-05T00:17:07Z</time></trkpt><trkpt lat="36.75178771469422" lon="139.48960572510993"><ele>1795.9320199117064</ele><time>2023-08-05T00:18:29Z</time></trkpt><trkpt lat="36.751960955408194" lon="139.48954016019334"><ele>1807.8952804701403</ele><time>2023-08-05T00:26:42Z</time></trkpt><trkpt lat="36.75213617111913" lon="139.4895952148181"><ele>1824.8045754423365</ele><time>2023-08-05T00:28:37Z</time></trkpt><trkpt lat="36.75231245989008" lon="139.48965073652406"><ele>1831.009070768021</ele><time>2023-08-05T00:30:09Z</time></trkpt><trkpt lat="36.752477183703874" lon="139.4897466059471"><ele>1848.430267000571</ele><time>2023-08-05T00:32:01Z</time></trkpt><trkpt lat="36.75253268241414" lon="139.48996117924156"><ele>1856.5635757511482</ele><time>2023-08-05T00:33:02Z</time></trkpt><trkpt lat="36.75270452533733" lon="139.48988122379004"><ele>1863.8546416433528</ele><time>2023-08-05T00:33:57Z</time></trkpt><trkpt lat="36.75287140961001" lon="139.4899671185536"><ele>1871.461380184628</ele><time>2023-08-05T00:35:51Z</time></trkpt><trkpt lat="36.75305038581911" lon="139.49000726955276"><ele>1887.87485850323</ele><time>2023-08-05T00:43:12Z</time></trkpt><trkpt lat="36.75323198295978" lon="139.48998516984315"><ele>1897.863541284576</ele><time>2023-08-05T00:44:48Z</time></trkpt><trkpt lat="36.75325674698713" lon="139.48976147220583"><ele>1905.9536800459027</ele><time>2023-08-05T00:49:10Z</time></trkpt><trkpt lat="36.75328531655626" lon="139.4895365234083"><ele>1912.0853444729</ele><time>2023-08-05T00:51:35Z</time></trkpt><trkpt lat="36.75345762199066" lon="139.48945684213587"><ele>1925.4422098034993</ele><time>2023-08-05T00:54:27Z</time></trkpt><trkpt lat="36.753600568994095" lon="139.48959319528032"><ele>1935.7732270210981</ele><time>2023-08-05T00:56:46Z</time></trkpt><trkpt lat="36.753772783394886" lon="139.4896611204911"><ele>1950.2897988846526</ele><time>2023-08-05T01:00:04Z</time></trkpt><trkpt lat="36.753954991000136" lon="139.4896779039173"><ele>1956.1839239476249</ele><time>2023-08-05T01:02:31Z</time></trkpt><trkpt lat="36.75413100509737" lon="139.489606754768"><ele>1969.2853409927338</ele><time>2023-08-05T01:07:12Z</time></trkpt><trkpt lat="36.754244438519464" lon="139.48978074581743"><ele>1981.853627632372</ele><time>2023-08-05T01:08:34Z</time></trkpt><trkpt lat="36.75442451983351" lon="139.48981489485325"><ele>1992.8071440625936</ele><time>2023-08-05T01:11:16Z</time></trkpt><trkpt lat="36.75459329931721" lon="139.48989540955947"><ele>2006.480301705189</ele><time>2023-08-05T01:14:24Z</time></trkpt><trkpt lat="36.75471371327086" lon="139.48972362961766"><ele>2017.1138570867479</ele><time>2023-08-05T01:18:06Z</time></trkpt><trkpt lat="36.75487151343816" lon="139.48983918262272"><ele>2031.4131633806974</ele><time>2023-08-05T01:26:09Z</time></trkpt><trkpt lat="36.75504611781333" lon="139.4897838248726"><ele>2049.2286366410553</ele><time>2023-08-05T01:29:08Z</time></trkpt><trkpt lat="36.75522771362819" lon="139.48977086856436"><ele>2061.4415635401383</ele><time>2023-08-05T01:32:22Z</time></trkpt><trkpt lat="36.755412521015266" lon="139.48975581555786"><ele>2066.57507577911</ele><time>2023-08-05T01:35:21Z</time></trkpt><trkpt lat="36.75559577336008" lon="139.48979599579917"><ele>2080.345640361309</ele><time>2023-08-05T01:44:40Z</time></trkpt><trkpt lat="36.75578087360033" lon="139.489801771305"><ele>2094.673371111974</ele><time>2023-08-05T01:48:40Z</time></trkpt><trkpt lat="36.75590331134802" lon="139.4896320280417"><ele>2107.18672234565</ele><time>2023-08-05T01:54:56Z</time></trkpt><trkpt lat="36.75602929712345" lon="139.48979724134267"><ele>2119.3685234691948</ele><time>2023-08-05T01:58:57Z</time></trkpt><trkpt lat="36.756206706974424" lon="139.48975672555554"><ele>2131.5632369508967</ele><time>2023-08-05T02:01:26Z</time></trkpt><trkpt lat="36.75638659918934" lon="139.48973356264716"><ele>2144.0848625507206</ele><time>2023-08-05T02:03:38Z</time></trkpt><trkpt lat="36.75657141407588" lon="139.489711469386"><ele>2156.484283453785</ele><time>2023-08-05T02:06:48Z</time></trkpt><trkpt lat="36.75673639041501" lon="139.48982144830708"><ele>2169.943091308698</ele><time>2023-08-05T02:11:59Z</time></trkpt><trkpt lat="36.75690776223754" lon="139.48973590027558"><ele>2179.3357871305197</ele><time>2023-08-05T02:13:45Z</time></trkpt><trkpt lat="36.75703022533714" lon="139.48956042313782"><ele>2186.959738712758</ele><time>2023-08-05T02:16:13Z</time></trkpt><trkpt lat="36.75717913850745" lon="139.4894250569091"><ele>2197.176825253293</ele><time>2023-08-05T02:18:17Z</time></trkpt><trkpt lat="36.757362298234355" lon="139.48941626746375"><ele>2208.987340451218</ele><time>2023-08-05T02:20:56Z</time></trkpt><trkpt lat="36.757432612989916" lon="139.48962320461698"><ele>2216.3354999879375</ele><time>2023-08-05T02:30:32Z</time></trkpt><trkpt lat="36.757613434855294" lon="139.48960154064852"><ele>2228.7901070741937</ele><time>2023-08-05T02:33:24Z</time></trkpt><trkpt lat="36.75779278582763" lon="139.48957876138718"><ele>2241.9174940828234</ele><time>2023-08-05T02:35:29Z</time></trkpt><trkpt lat="36.75782703820923" lon="139.48953616102747"><ele>2246.3509969282895</ele><time>2023-08-05T02:37:06Z</time></trkpt><trkpt lat="36.75799740145808" lon="139.48941914632994"><ele>2249.483818656765</ele><time>2023-08-05T02:40:58Z</time></trkpt><trkpt lat="36.758170979547714" lon="139.48931800357374"><ele>2254.9077593358234</ele><time>2023-08-05T02:41:17Z</time></trkpt><trkpt lat="36.758330256205774" lon="139.48920410828256"><ele>2256.795161832124</ele><time>2023-08-05T02:41:35Z</time></trkpt><trkpt lat="36.758498610730925" lon="139.48909287255864"><ele>2260.107142312452</ele><time>2023-08-05T02:41:59Z</time></trkpt><trkpt lat="36.75866034099136" lon="139.4889791675112"><ele>2263.547181439586</ele><time>2023-08-05T02:42:45Z</time></trkpt><trkpt lat="36.758847676781635" lon="139.48895459589667"><ele>2274.336178089492</ele><time>2023-08-05T02:53:07Z</time></trkpt><trkpt lat="36.75903158544255" lon="139.48900467748774"><ele>2278.2602323833853</ele><time>2023-08-05T02:54:22Z</time></trkpt><trkpt lat="36.759190860321496" lon="139.48912200527965"><ele>2283.132860770449</ele><time>2023-08-05T02:55:14Z</time></trkpt><trkpt lat="36.759372507645764" lon="139.48913268075987"><ele>2290.3763920767233</ele><time>2023-08-05T02:55:59Z</time></trkpt><trkpt lat="36.759549171448995" lon="139.48919189185455"><ele>2297.7670583371073</ele><time>2023-08-05T02:57:29Z</time></trkpt><trkpt lat="36.75973908727989" lon="139.48923419059417"><ele>2302.631420767866</ele><time>2023-08-05T02:58:13Z</time></trkpt><trkpt lat="36.75992664966235" lon="139.48918846952276"><ele>2310.3485554531217</ele><time>2023-08-05T02:59:14Z</time></trkpt><trkpt lat="36.76010634966252" lon="139.48916756284265"><ele>2317.13822559081</ele><time>2023-08-05T03:04:21Z</time></trkpt><trkpt lat="36.76028974885842" lon="139.4891433720522"><ele>2325.6179672488943</ele><time>2023-08-05T03:15:51Z</time></trkpt><trkpt lat="36.76047354032637" lon="139.4891220707049"><ele>2331.4374071499333</ele><time>2023-08-05T03:16:44Z</time></trkpt><trkpt lat="36.76064422810026" lon="139.48904657846796"><ele>2336.340099210851</ele><time>2023-08-05T03:19:18Z</time></trkpt><trkpt lat="36.76082698029257" lon="139.4890906974632"><ele>2346.8488574055955</ele><time>2023-08-05T03:20:20Z</time></trkpt><trkpt lat="36.761003719991635" lon="139.48903024880295"><ele>2353.5406156117097</ele><time>2023-08-05T03:21:24Z</time></trkpt><trkpt lat="36.76118414226804" lon="139.48901431227043"><ele>2361.8959409743547</ele><time>2023-08-05T03:23:41Z</time></trkpt><trkpt lat="36.76137081799116" lon="139.48896560651312"><ele>2369.117626465857</ele><time>2023-08-05T03:24:34Z</time></trkpt><trkpt lat="36.76156104007192" lon="139.48904783876256"><ele>2371.8877360802144</ele><time>2023-08-05T03:25:28Z</time></trkpt><trkpt lat="36.7617354598413" lon="139.4889772391749"><ele>2375.1372337099165</ele><time>2023-08-05T03:26:06Z</time></trkpt><trkpt lat="36.76192164345079" lon="139.4889814805261"><ele>2381.4229016760364</ele><time>2023-08-05T03:26:40Z</time></trkpt><trkpt lat="36.76209515630747" lon="139.48891560771452"><ele>2384.700057361275</ele><time>2023-08-05T03:27:12Z</time></trkpt><trkpt lat="36.76227906850691" lon="139.4889236926386"><ele>2389.0864480659366</ele><time>2023-08-05T03:27:50Z</time></trkpt><trkpt lat="36.762457244860805" lon="139.48889025083767"><ele>2392.426051860675</ele><time>2023-08-05T03:28:35Z</time></trkpt><trkpt lat="36.76255317797583" lon="139.48895722088918"><ele>2402.4645617511123</ele><time>2023-08-05T03:33:55Z</time></trkpt><trkpt lat="36.76271792120756" lon="139.48905870680468"><ele>2403.129762940109</ele><time>2023-08-05T03:41:19Z</time></trkpt><trkpt lat="36.76285937565647" lon="139.48919949813117"><ele>2409.0252092117444</ele><time>2023-08-05T03:41:56Z</time></trkpt><trkpt lat="36.763040995091416" lon="139.48925477795305"><ele>2419.9905506009236</ele><time>2023-08-05T03:42:30Z</time></trkpt><trkpt lat="36.76322854953053" lon="139.48923555861808"><ele>2426.7627458451316</ele><time>2023-08-05T03:43:19Z</time></trkpt><trkpt lat="36.76340469409431" lon="139.4892851165316"><ele>2432.267444632016</ele><time>2023-08-05T03:45:36Z</time></trkpt><trkpt lat="36.76357583122109" lon="139.48935515849928"><ele>2439.361660402268</ele><time>2023-08-05T03:46:56Z</time></trkpt><trkpt lat="36.763725662197984" lon="139.4894814403679"><ele>2448.27738165576</ele><time>2023-08-05T03:47:58Z</time></trkpt><trkpt lat="36.763905907092074" lon="139.48950629344742"><ele>2455.084317849949</ele><time>2023-08-05T03:49:08Z</time></trkpt><trkpt lat="36.76405516185083" lon="139.48963484592747"><ele>2461.283981299959</ele><time>2023-08-05T03:50:02Z</time></trkpt><trkpt lat="36.76424225674589" lon="139.48965429050358"><ele>2468.2972079738975</ele><time>2023-08-05T03:51:17Z</time></trkpt><trkpt lat="36.76440804471842" lon="139.48976164326908"><ele>2473.7379178460687</ele><time>2023-08-05T03:52:14Z</time></trkpt><trkpt lat="36.76454506555324" lon="139.48991733842828"><ele>2480.785593410954</ele><time>2023-08-05T03:52:56Z</time></trkpt><trkpt lat="36.76471422970179" lon="139.49001567792757"><ele>2485.1400277381763</ele><time>2023-08-05T03:54:34Z</time></trkpt><trkpt lat="36.764747346076916" lon="139.49024153501267"><ele>2484.0459684645757</ele><time>2023-08-05T03:57:24Z</time></trkpt><trkpt lat="36.764852393540515" lon="139.49042669521785"><ele>2479.6967924246565</ele><time>2023-08-05T03:57:54Z</time></trkpt><trkpt lat="36.76498383398945" lon="139.4905897755882"><ele>2485.433819297701</ele><time>2023-08-05T03:59:39Z</time></trkpt><trkpt lat="36.76505460326259" lon="139.49079633937015"><ele>2485.839636836201</ele><time>2023-08-05T04:00:25Z</time></trkpt><trkpt lat="36.765056049362705" lon="139.49075139786405"><ele>2486.3707836251706</ele><time>2023-08-05T04:03:22Z</time></trkpt><trkpt lat="36.76521456942659" lon="139.4908609518352"><ele>2485.3106282483786</ele><time>2023-08-05T04:04:11Z</time></trkpt><trkpt lat="36.765048464078795" lon="139.49077179242138"><ele>2482.770487920381</ele><time>2023-08-05T04:05:16Z</time></trkpt><trkpt lat="36.76495126843698" lon="139.49058261855245"><ele>2481.805712994188</ele><time>2023-08-05T04:06:47Z</time></trkpt><trkpt lat="36.76487125519807" lon="139.49037905471138"><ele>2477.147093106061</ele><time>2023-08-05T04:07:39Z</time></trkpt><trkpt lat="36.764731282662616" lon="139.49023351748295"><ele>2481.235097290948</ele><time>2023-08-05T04:09:32Z</time></trkpt><trkpt lat="36.76469691994714" lon="139.49000483931533"><ele>2482.264463290572</ele><time>2023-08-05T04:10:17Z</time></trkpt><trkpt lat="36.76468214184232" lon="139.48977067787766"><ele>2483.681881261058</ele><time>2023-08-05T04:10:35Z</time></trkpt><trkpt lat="36.76479931038591" lon="139.48958762018512"><ele>2479.9744845796376</ele><time>2023-08-05T04:11:13Z</time></trkpt><trkpt lat="36.76493893010536" lon="139.4894359866729"><ele>2475.479452789761</ele><time>2023-08-05T04:11:36Z</time></trkpt><trkpt lat="36.765063894446605" lon="139.4892701254158"><ele>2471.6930082459003</ele><time>2023-08-05T04:11:54Z</time></trkpt><trkpt lat="36.76496059528762" lon="139.4894672597467"><ele>2481.352515297942</ele><time>2023-08-05T04:30:05Z</time></trkpt><trkpt lat="36.76481311841674" lon="139.48960954761762"><ele>2484.688357484527</ele><time>2023-08-05T04:34:29Z</time></trkpt><trkpt lat="36.76471586468979" lon="139.48980225170794"><ele>2484.345496254973</ele><time>2023-08-05T04:39:49Z</time></trkpt><trkpt lat="36.764702016058465" lon="139.49002626599446"><ele>2484.403528438881</ele><time>2023-08-05T04:40:12Z</time></trkpt><trkpt lat="36.764569603907745" lon="139.489864973463"><ele>2482.4181104181334</ele><time>2023-08-05T04:41:31Z</time></trkpt><trkpt lat="36.76441567975909" lon="139.489741056472"><ele>2478.874804271385</ele><time>2023-08-05T04:42:04Z</time></trkpt><trkpt lat="36.76424193312981" lon="139.48964781701835"><ele>2473.87600519415</ele><time>2023-08-05T04:42:34Z</time></trkpt><trkpt lat="36.764063207322465" lon="139.48959709162867"><ele>2469.2179161170498</ele><time>2023-08-05T04:43:16Z</time></trkpt><trkpt lat="36.76390090494896" lon="139.4894890747128"><ele>2460.5914158970118</ele><time>2023-08-05T04:46:58Z</time></trkpt><trkpt lat="36.763718509356416" lon="139.4893396913124"><ele>2451.510695790872</ele><time>2023-08-05T04:48:20Z</time></trkpt><trkpt lat="36.76353765620672" lon="139.4893481631275"><ele>2443.1827218625695</ele><time>2023-08-05T04:49:00Z</time></trkpt><trkpt lat="36.763374888326396" lon="139.48923996912532"><ele>2439.8517611296847</ele><time>2023-08-05T04:49:56Z</time></trkpt><trkpt lat="36.76319221520888" lon="139.48922571521493"><ele>2432.2336807912216</ele><time>2023-08-05T04:50:59Z</time></trkpt><trkpt lat="36.76301571159804" lon="139.48917473256833"><ele>2415.2696112748235</ele><time>2023-08-05T04:52:17Z</time></trkpt><trkpt lat="36.76283902471455" lon="139.48912270578418"><ele>2407.4215303668752</ele><time>2023-08-05T04:53:08Z</time></trkpt><trkpt lat="36.76268878684641" lon="139.4889873901796"><ele>2401.7843375522643</ele><time>2023-08-05T04:54:13Z</time></trkpt><trkpt lat="36.762527515703695" lon="139.48887873424079"><ele>2395.6584309712052</ele><time>2023-08-05T04:55:00Z</time></trkpt><trkpt lat="36.7623419856669" lon="139.48885342942552"><ele>2391.4950999524444</ele><time>2023-08-05T04:55:35Z</time></trkpt><trkpt lat="36.76216211429945" lon="139.48889719258202"><ele>2391.3799433149397</ele><time>2023-08-05T04:56:09Z</time></trkpt><trkpt lat="36.76197652015283" lon="139.4889169925002"><ele>2383.792626091279</ele><time>2023-08-05T04:56:40Z</time></trkpt><trkpt lat="36.76179175036288" lon="139.48895008381697"><ele>2384.212781856768</ele><time>2023-08-05T04:57:02Z</time></trkpt><trkpt lat="36.76162597435835" lon="139.48904679717893"><ele>2379.297318219207</ele><time>2023-08-05T04:57:32Z</time></trkpt><trkpt lat="36.761453988082444" lon="139.48895428753139"><ele>2373.840339690447</ele><time>2023-08-05T04:58:16Z</time></trkpt><trkpt lat="36.76127689496418" lon="139.4890209777153"><ele>2366.8396205604076</ele><time>2023-08-05T04:58:59Z</time></trkpt><trkpt lat="36.76108935096045" lon="139.48900936837015"><ele>2362.0781163806096</ele><time>2023-08-05T04:59:56Z</time></trkpt><trkpt lat="36.76090613787731" lon="139.4890238096207"><ele>2354.7606163835153</ele><time>2023-08-05T05:00:42Z</time></trkpt><trkpt lat="36.76072410875122" lon="139.4890214260633"><ele>2345.3771500885487</ele><time>2023-08-05T05:01:42Z</time></trkpt><trkpt lat="36.760539935187296" lon="139.48903911702294"><ele>2332.860154638998</ele><time>2023-08-05T05:03:17Z</time></trkpt><trkpt lat="36.760365731238814" lon="139.4891008227297"><ele>2328.405990398489</ele><time>2023-08-05T05:04:06Z</time></trkpt><trkpt lat="36.76017925185604" lon="139.4891150155267"><ele>2326.1595111107454</ele><time>2023-08-05T05:04:45Z</time></trkpt><trkpt lat="36.76000059861838" lon="139.48906381366047"><ele>2319.255744879134</ele><time>2023-08-05T05:05:43Z</time></trkpt><trkpt lat="36.75982386581069" lon="139.4891345897704"><ele>2307.5856268899515</ele><time>2023-08-05T05:06:26Z</time></trkpt><trkpt lat="36.75964464747575" lon="139.4891847290044"><ele>2306.8486002841964</ele><time>2023-08-05T05:07:12Z</time></trkpt><trkpt lat="36.75946645283169" lon="139.4891258378944"><ele>2297.820865693502</ele><time>2023-08-05T05:07:50Z</time></trkpt><trkpt lat="36.75928051097885" lon="139.48909386845838"><ele>2291.3395610507578</ele><time>2023-08-05T05:08:28Z</time></trkpt><trkpt lat="36.75910530998807" lon="139.48902791265564"><ele>2283.991396786645</ele><time>2023-08-05T05:09:08Z</time></trkpt><trkpt lat="36.75899293962615" lon="139.48884245492155"><ele>2278.1650819666684</ele><time>2023-08-05T05:09:46Z</time></trkpt><trkpt lat="36.75881505825727" lon="139.48888104557588"><ele>2275.195942360908</ele><time>2023-08-05T05:10:43Z</time></trkpt><trkpt lat="36.75863633691568" lon="139.48892938351258"><ele>2266.799879577011</ele><time>2023-08-05T05:11:57Z</time></trkpt><trkpt lat="36.75848739497494" lon="139.4890699935911"><ele>2264.4715551258996</ele><time>2023-08-05T05:12:30Z</time></trkpt><trkpt lat="36.75831496538392" lon="139.48918554732882"><ele>2260.379273792729</ele><time>2023-08-05T05:13:00Z</time></trkpt><trkpt lat="36.75814994110096" lon="139.4892774500862"><ele>2256.554837779142</ele><time>2023-08-05T05:13:26Z</time></trkpt><trkpt lat="36.757996424454774" lon="139.4894103347286"><ele>2253.8228600705042</ele><time>2023-08-05T05:13:52Z</time></trkpt><trkpt lat="36.75783837362374" lon="139.48952142971746"><ele>2250.049148022197</ele><time>2023-08-05T05:14:26Z</time></trkpt><trkpt lat="36.75765866614621" lon="139.4895502211869"><ele>2239.7314742580056</ele><time>2023-08-05T05:16:58Z</time></trkpt><trkpt lat="36.757479711984956" lon="139.489601262611"><ele>2222.8475457653403</ele><time>2023-08-05T05:20:53Z</time></trkpt><trkpt lat="36.757454489240246" lon="139.4893790057876"><ele>2222.0171422036365</ele><time>2023-08-05T05:23:08Z</time></trkpt><trkpt lat="36.75752688292072" lon="139.48963504102966"><ele>2228.0804017502815</ele><time>2023-08-05T05:26:22Z</time></trkpt><trkpt lat="36.75741365989431" lon="139.48945856533825"><ele>2231.637324902229</ele><time>2023-08-05T05:27:56Z</time></trkpt><trkpt lat="36.757237935006465" lon="139.48951302886755"><ele>2220.8261529766023</ele><time>2023-08-05T05:33:16Z</time></trkpt><trkpt lat="36.757064845905525" lon="139.4894480934513"><ele>2203.116868780926</ele><time>2023-08-05T05:37:46Z</time></trkpt><trkpt lat="36.75694081161554" lon="139.48961059815534"><ele>2190.3371889069676</ele><time>2023-08-05T05:39:24Z</time></trkpt><trkpt lat="36.75677766197865" lon="139.48970743824378"><ele>2182.3011567583308</ele><time>2023-08-05T05:42:06Z</time></trkpt><trkpt lat="36.75659394062089" lon="139.4897372488945"><ele>2167.8185868235305</ele><time>2023-08-05T05:46:01Z</time></trkpt><trkpt lat="36.756423787578505" lon="139.48966116994202"><ele>2172.25354666356</ele><time>2023-08-05T05:50:09Z</time></trkpt><trkpt lat="36.75623210535005" lon="139.48968719195767"><ele>2154.313083825633</ele><time>2023-08-05T05:52:54Z</time></trkpt><trkpt lat="36.75626703636923" lon="139.48973402396854"><ele>2142.4496139446273</ele><time>2023-08-05T05:53:29Z</time></trkpt><trkpt lat="36.756082060020006" lon="139.4897896186154"><ele>2144.5620388789102</ele><time>2023-08-05T05:55:56Z</time></trkpt><trkpt lat="36.756026124249914" lon="139.4895737857841"><ele>2123.318967303261</ele><time>2023-08-05T05:59:22Z</time></trkpt><trkpt lat="36.755907573921654" lon="139.48975851491136"><ele>2117.4851782536134</ele><time>2023-08-05T06:05:10Z</time></trkpt><trkpt lat="36.755739728691694" lon="139.4896734864294"><ele>2117.3154557766393</ele><time>2023-08-05T06:07:45Z</time></trkpt><trkpt lat="36.755581984736594" lon="139.4897820016249"><ele>2095.310506477952</ele><time>2023-08-05T06:12:02Z</time></trkpt><trkpt lat="36.75540492856926" lon="139.489716227577"><ele>2085.8519631465897</ele><time>2023-08-05T06:16:14Z</time></trkpt><trkpt lat="36.75529323276929" lon="139.48953082591382"><ele>2073.744682295248</ele><time>2023-08-05T06:27:37Z</time></trkpt><trkpt lat="36.755289115260965" lon="139.48976153502556"><ele>2077.4108471767977</ele><time>2023-08-05T06:28:58Z</time></trkpt><trkpt lat="36.75511395433037" lon="139.4898208020288"><ele>2065.203213485889</ele><time>2023-08-05T06:30:02Z</time></trkpt><trkpt lat="36.754930936777264" lon="139.48978867896415"><ele>2049.594871656969</ele><time>2023-08-05T06:35:57Z</time></trkpt><trkpt lat="36.754755098162946" lon="139.48973061096316"><ele>2034.1629538005218</ele><time>2023-08-05T06:39:36Z</time></trkpt><trkpt lat="36.754675443247166" lon="139.4899315985918"><ele>2021.3268926246092</ele><time>2023-08-05T06:41:32Z</time></trkpt><trkpt lat="36.75458201737314" lon="139.48973571523493"><ele>2018.3250245274976</ele><time>2023-08-05T06:42:08Z</time></trkpt><trkpt lat="36.75440338191286" lon="139.48969938600453"><ele>2007.3645531693473</ele><time>2023-08-05T06:47:39Z</time></trkpt><trkpt lat="36.75423289995625" lon="139.48961370327933"><ele>1991.8591049304232</ele><time>2023-08-05T06:50:26Z</time></trkpt><trkpt lat="36.7541044472377" lon="139.48945477405758"><ele>1994.4878878584132</ele><time>2023-08-05T06:52:03Z</time></trkpt><trkpt lat="36.75396435043471" lon="139.4895996342777"><ele>1981.200076598674</ele><time>2023-08-05T06:56:44Z</time></trkpt><trkpt lat="36.75378494000235" lon="139.48957457244268"><ele>1958.20971360337</ele><time>2023-08-05T07:02:04Z</time></trkpt><trkpt lat="36.75368909513411" lon="139.48937755809973"><ele>1947.5540949944407</ele><time>2023-08-05T07:05:23Z</time></trkpt><trkpt lat="36.75363026250729" lon="139.4895919587169"><ele>1947.9220588402823</ele><time>2023-08-05T07:06:30Z</time></trkpt><trkpt lat="36.753489977991485" lon="139.4894310923539"><ele>1931.7609599260613</ele><time>2023-08-05T07:12:48Z</time></trkpt><trkpt lat="36.75332856846562" lon="139.48953077815338"><ele>1926.6499300869182</ele><time>2023-08-05T07:14:49Z</time></trkpt><trkpt lat="36.75328193514163" lon="139.48975721135477"><ele>1916.375119401142</ele><time>2023-08-05T07:16:58Z</time></trkpt><trkpt lat="36.75327745730182" lon="139.48998271388282"><ele>1910.4802018515766</ele><time>2023-08-05T07:17:39Z</time></trkpt><trkpt lat="36.75310672738226" lon="139.48989428589408"><ele>1901.3385608419776</ele><time>2023-08-05T07:28:15Z</time></trkpt><trkpt lat="36.75295113640315" lon="139.4897717493148"><ele>1888.8559886161238</ele><time>2023-08-05T07:29:03Z</time></trkpt><trkpt lat="36.75292149523066" lon="139.48999901779226"><ele>1883.663613741286</ele><time>2023-08-05T07:29:23Z</time></trkpt><trkpt lat="36.752763837593214" lon="139.48988836153228"><ele>1876.1161157991737</ele><time>2023-08-05T07:30:00Z</time></trkpt><trkpt lat="36.75258773679962" lon="139.48996578592485"><ele>1861.4090340547264</ele><time>2023-08-05T07:32:10Z</time></trkpt><trkpt lat="36.75251232545385" lon="139.48976169658113"><ele>1857.29027248919</ele><time>2023-08-05T07:33:06Z</time></trkpt><trkpt lat="36.752375576346886" lon="139.4896095107729"><ele>1847.3841110998765</ele><time>2023-08-05T07:36:02Z</time></trkpt><trkpt lat="36.752208692074866" lon="139.48952099640735"><ele>1838.3857160042971</ele><time>2023-08-05T07:37:24Z</time></trkpt><trkpt lat="36.752028536026984" lon="139.48950637524192"><ele>1822.9703217567876</ele><time>2023-08-05T07:39:44Z</time></trkpt><trkpt lat="36.75184711423378" lon="139.48951671340856"><ele>1812.1620216323063</ele><time>2023-08-05T07:42:18Z</time></trkpt><trkpt lat="36.75225256404716" lon="139.48963775258667"><ele>1802.7405668012798</ele><time>2023-08-05T07:44:25Z</time></trkpt><trkpt lat="36.751778458357016" lon="139.48962953725072"><ele>1808.1291813682765</ele><time>2023-08-05T07:44:29Z</time></trkpt><trkpt lat="36.7518810347717" lon="139.48983718513688"><ele>1806.6290186578408</ele><time>2023-08-05T07:55:40Z</time></trkpt><trkpt lat="36.751763855571916" lon="139.489633947612"><ele>1810.1988756759092</ele><time>2023-08-05T07:55:54Z</time></trkpt><trkpt lat="36.751585335126244" lon="139.48969992820406"><ele>1797.6913009155542</ele><time>2023-08-05T07:57:57Z</time></trkpt><trkpt lat="36.751445493168475" lon="139.4895561986471"><ele>1789.309544082731</ele><time>2023-08-05T07:59:16Z</time></trkpt><trkpt lat="36.75124608223958" lon="139.48953595882165"><ele>1775.9287635860965</ele><time>2023-08-05T08:02:18Z</time></trkpt><trkpt lat="36.75108801749083" lon="139.48942644315184"><ele>1765.2662789244205</ele><time>2023-08-05T08:05:48Z</time></trkpt><trkpt lat="36.75090840421019" lon="139.4893730212684"><ele>1757.9286962645128</ele><time>2023-08-05T08:09:19Z</time></trkpt><trkpt lat="36.75076818252209" lon="139.48951708783594"><ele>1738.9815944414586</ele><time>2023-08-05T08:12:27Z</time></trkpt><trkpt lat="36.750596259846105" lon="139.48939014656423"><ele>1728.5150156207383</ele><time>2023-08-05T08:15:11Z</time></trkpt><trkpt lat="36.75048336478021" lon="139.4895664543968"><ele>1726.2773232152686</ele><time>2023-08-05T08:17:17Z</time></trkpt><trkpt lat="36.75033866158264" lon="139.48942479690194"><ele>1715.9286764543504</ele><time>2023-08-05T08:23:05Z</time></trkpt><trkpt lat="36.75034200488357" lon="139.48919541882307"><ele>1707.0435396367684</ele><time>2023-08-05T08:25:29Z</time></trkpt><trkpt lat="36.75017633993923" lon="139.48928438791881"><ele>1698.3744459655136</ele><time>2023-08-05T08:28:37Z</time></trkpt><trkpt lat="36.75008093481641" lon="139.48947850057817"><ele>1691.3378114486113</ele><time>2023-08-05T08:30:33Z</time></trkpt><trkpt lat="36.750014981944595" lon="139.48926284712974"><ele>1688.177254660055</ele><time>2023-08-05T08:32:26Z</time></trkpt><trkpt lat="36.74987085232137" lon="139.48911219236197"><ele>1683.207135617733</ele><time>2023-08-05T08:33:57Z</time></trkpt><trkpt lat="36.74979176268619" lon="139.48931806465555"><ele>1671.5685479678214</ele><time>2023-08-05T08:35:19Z</time></trkpt><trkpt lat="36.749706449209356" lon="139.48952079515885"><ele>1667.5761553877965</ele><time>2023-08-05T08:40:47Z</time></trkpt><trkpt lat="36.74976388456302" lon="139.4897368912135"><ele>1668.9528957996517</ele><time>2023-08-05T08:41:02Z</time></trkpt><trkpt lat="36.74983649436903" lon="139.4899517766912"><ele>1666.1633723126724</ele><time>2023-08-05T08:41:14Z</time></trkpt><trkpt lat="36.74992576427114" lon="139.49014920896704"><ele>1670.6887314468622</ele><time>2023-08-05T08:41:28Z</time></trkpt><trkpt lat="36.74988794560877" lon="139.49037351799993"><ele>1672.718156343326</ele><time>2023-08-05T08:42:01Z</time></trkpt><trkpt lat="36.74976711806243" lon="139.4905411722626"><ele>1668.8666229983792</ele><time>2023-08-05T08:43:00Z</time></trkpt><trkpt lat="36.74963542434128" lon="139.49069716805096"><ele>1665.4709679586813</ele><time>2023-08-05T08:43:33Z</time></trkpt><trkpt lat="36.749549435730195" lon="139.49090004958035"><ele>1661.5426153475419</ele><time>2023-08-05T08:44:00Z</time></trkpt><trkpt lat="36.7495904630592" lon="139.4911260989816"><ele>1657.7470363061875</ele><time>2023-08-05T08:44:40Z</time></trkpt><trkpt lat="36.74959262338634" lon="139.49135638487985"><ele>1660.9279167409986</ele><time>2023-08-05T08:44:56Z</time></trkpt><trkpt lat="36.749564792635795" lon="139.49158217037697"><ele>1658.2647293023765</ele><time>2023-08-05T08:45:23Z</time></trkpt><trkpt lat="36.74960206900116" lon="139.49180506850533"><ele>1655.2818074058741</ele><time>2023-08-05T08:45:47Z</time></trkpt><trkpt lat="36.7496300615198" lon="139.49203024489356"><ele>1654.1152939246967</ele><time>2023-08-05T08:46:13Z</time></trkpt><trkpt lat="36.7496509550843" lon="139.49225470561265"><ele>1653.803648846224</ele><time>2023-08-05T08:46:36Z</time></trkpt><trkpt lat="36.74966529538125" lon="139.4924866467876"><ele>1651.2308418648317</ele><time>2023-08-05T08:47:04Z</time></trkpt><trkpt lat="36.74967793954477" lon="139.49271761878845"><ele>1648.3614677367732</ele><time>2023-08-05T08:47:23Z</time></trkpt><trkpt lat="36.74951076123075" lon="139.4926243092106"><ele>1642.8702202001587</ele><time>2023-08-05T08:47:55Z</time></trkpt><trkpt lat="36.74943107065595" lon="139.49241712921943"><ele>1641.6895858449861</ele><time>2023-08-05T08:48:17Z</time></trkpt><trkpt lat="36.749368541531304" lon="139.49220119032188"><ele>1641.770779248327</ele><time>2023-08-05T08:48:33Z</time></trkpt><trkpt lat="36.749285022061706" lon="139.49200026502783"><ele>1639.8632600186393</ele><time>2023-08-05T08:49:09Z</time></trkpt><trkpt lat="36.74925535200926" lon="139.49176214789307"><ele>1639.1837621573359</ele><time>2023-08-05T08:49:24Z</time></trkpt><trkpt lat="36.74917642945083" lon="139.4915402443978"><ele>1636.8112599076703</ele><time>2023-08-05T08:49:52Z</time></trkpt><trkpt lat="36.7491459427009" lon="139.491303715916"><ele>1633.0636401642114</ele><time>2023-08-05T08:50:34Z</time></trkpt><trkpt lat="36.74907332623416" lon="139.49108914517828"><ele>1629.9988805213943</ele><time>2023-08-05T08:51:05Z</time></trkpt><trkpt lat="36.74897211034983" lon="139.49089518439294"><ele>1626.5975219439715</ele><time>2023-08-05T08:51:36Z</time></trkpt><trkpt lat="36.74889546872469" lon="139.49110181759"><ele>1622.660630471073</ele><time>2023-08-05T08:53:05Z</time></trkpt><trkpt lat="36.748935675056835" lon="139.49132009922985"><ele>1621.829896508716</ele><time>2023-08-05T08:53:34Z</time></trkpt><trkpt lat="36.748993073837894" lon="139.49153943024837"><ele>1623.684344257228</ele><time>2023-08-05T08:53:53Z</time></trkpt><trkpt lat="36.748914663283855" lon="139.4917480809748"><ele>1623.4321406623349</ele><time>2023-08-05T08:55:05Z</time></trkpt><trkpt lat="36.74894258597442" lon="139.49198764863064"><ele>1620.693747437559</ele><time>2023-08-05T08:55:30Z</time></trkpt><trkpt lat="36.74896954920182" lon="139.49222123116112"><ele>1616.723230325617</ele><time>2023-08-05T08:55:56Z</time></trkpt><trkpt lat="36.74898869725872" lon="139.49244584081134"><ele>1615.2440029429272</ele><time>2023-08-05T08:56:21Z</time></trkpt><trkpt lat="36.74900306120809" lon="139.49267059427856"><ele>1614.1990671334788</ele><time>2023-08-05T08:56:48Z</time></trkpt><trkpt lat="36.74884810337649" lon="139.4925480210394"><ele>1606.7006587358192</ele><time>2023-08-05T08:57:40Z</time></trkpt><trkpt lat="36.74881236728535" lon="139.49231637473184"><ele>1609.118616132997</ele><time>2023-08-05T09:00:03Z</time></trkpt><trkpt lat="36.74874754888654" lon="139.49210429571235"><ele>1607.4372935295105</ele><time>2023-08-05T09:00:21Z</time></trkpt><trkpt lat="36.74866064881905" lon="139.49190642752131"><ele>1606.7853463599458</ele><time>2023-08-05T09:00:47Z</time></trkpt><trkpt lat="36.748632379680274" lon="139.49168502224774"><ele>1605.194273661822</ele><time>2023-08-05T09:01:09Z</time></trkpt><trkpt lat="36.74857456112667" lon="139.49146665737712"><ele>1605.7066003205255</ele><time>2023-08-05T09:01:31Z</time></trkpt><trkpt lat="36.74852126649089" lon="139.4912458216503"><ele>1606.5020624669269</ele><time>2023-08-05T09:01:53Z</time></trkpt><trkpt lat="36.74845986369458" lon="139.49102000557056"><ele>1605.1798343863338</ele><time>2023-08-05T09:02:15Z</time></trkpt><trkpt lat="36.7484790653373" lon="139.4907947082962"><ele>1601.1606460716575</ele><time>2023-08-05T09:02:37Z</time></trkpt><trkpt lat="36.74862541530267" lon="139.49062010640313"><ele>1601.0202692141756</ele><time>2023-08-05T09:03:02Z</time></trkpt><trkpt lat="36.74873257306228" lon="139.49043985841269"><ele>1603.718119234778</ele><time>2023-08-05T09:03:23Z</time></trkpt><trkpt lat="36.74874598841705" lon="139.49020481155247"><ele>1605.6942076170817</ele><time>2023-08-05T09:03:47Z</time></trkpt><trkpt lat="36.748568349975585" lon="139.4901302349428"><ele>1601.1414407696575</ele><time>2023-08-05T09:04:10Z</time></trkpt><trkpt lat="36.74839623926368" lon="139.49005406685015"><ele>1593.9907054826617</ele><time>2023-08-05T09:04:32Z</time></trkpt><trkpt lat="36.74826180834136" lon="139.48990205993425"><ele>1587.3769785743207</ele><time>2023-08-05T09:05:01Z</time></trkpt><trkpt lat="36.74827382267238" lon="139.48967543450863"><ele>1587.0759953064844</ele><time>2023-08-05T09:05:22Z</time></trkpt><trkpt lat="36.7482806876399" lon="139.4894473295659"><ele>1590.704960825853</ele><time>2023-08-05T09:05:45Z</time></trkpt><trkpt lat="36.748287936542255" lon="139.4892171027269"><ele>1592.4408487211913</ele><time>2023-08-05T09:06:12Z</time></trkpt><trkpt lat="36.74827139770297" lon="139.48898952468096"><ele>1589.5145089961588</ele><time>2023-08-05T09:06:35Z</time></trkpt><trkpt lat="36.74825877193328" lon="139.4887561405989"><ele>1584.048536868766</ele><time>2023-08-05T09:06:59Z</time></trkpt><trkpt lat="36.74810965894057" lon="139.48889167550584"><ele>1576.6208153665066</ele><time>2023-08-05T09:07:29Z</time></trkpt><trkpt lat="36.748081529946745" lon="139.4891228213418"><ele>1576.5855027027428</ele><time>2023-08-05T09:07:48Z</time></trkpt><trkpt lat="36.74802362107606" lon="139.48935495362772"><ele>1577.9940123241395</ele><time>2023-08-05T09:08:11Z</time></trkpt><trkpt lat="36.74801312949848" lon="139.48958086102957"><ele>1577.3443092945963</ele><time>2023-08-05T09:08:34Z</time></trkpt><trkpt lat="36.74800510325593" lon="139.48980697026366"><ele>1577.1007512575015</ele><time>2023-08-05T09:11:09Z</time></trkpt><trkpt lat="36.74796252756742" lon="139.49003367780952"><ele>1572.900904965587</ele><time>2023-08-05T09:11:34Z</time></trkpt><trkpt lat="36.74783342113755" lon="139.4898636709806"><ele>1565.6260461350903</ele><time>2023-08-05T09:12:14Z</time></trkpt><trkpt lat="36.7478844099859" lon="139.48963080517908"><ele>1568.3524554800242</ele><time>2023-08-05T09:12:38Z</time></trkpt><trkpt lat="36.74790057308072" lon="139.4894073996406"><ele>1568.7237825226039</ele><time>2023-08-05T09:13:03Z</time></trkpt><trkpt lat="36.74781354767022" lon="139.48920621941897"><ele>1563.6200071210042</ele><time>2023-08-05T09:13:32Z</time></trkpt><trkpt lat="36.74766595953253" lon="139.4890441916733"><ele>1561.8074230058119</ele><time>2023-08-05T09:16:44Z</time></trkpt><trkpt lat="36.74748676887675" lon="139.48900664113583"><ele>1555.9135613236576</ele><time>2023-08-05T09:21:03Z</time></trkpt><trkpt lat="36.74755597277945" lon="139.48922889647002"><ele>1554.4682314172387</ele><time>2023-08-05T09:21:39Z</time></trkpt><trkpt lat="36.74743674527277" lon="139.4890417538867"><ele>1554.0145904487</ele><time>2023-08-05T09:21:46Z</time></trkpt><trkpt lat="36.74729007839845" lon="139.48919351905778"><ele>1546.491138190031</ele><time>2023-08-05T09:23:34Z</time></trkpt><trkpt lat="36.7473763720016" lon="139.48898981384625"><ele>1544.856689242646</ele><time>2023-08-05T09:25:30Z</time></trkpt><trkpt lat="36.74718176820533" lon="139.48902905528269"><ele>1534.6848792256787</ele><time>2023-08-05T09:27:25Z</time></trkpt><trkpt lat="36.74702649839206" lon="139.48889574542542"><ele>1530.6225442811847</ele><time>2023-08-05T09:30:39Z</time></trkpt><trkpt lat="36.74683745554164" lon="139.48896416922693"><ele>1523.918368473649</ele><time>2023-08-05T09:35:13Z</time></trkpt><trkpt lat="36.74700653572808" lon="139.4888188823766"><ele>1524.0577702168375</ele><time>2023-08-05T09:35:39Z</time></trkpt><trkpt lat="36.746852864431055" lon="139.4889706694163"><ele>1524.341101913713</ele><time>2023-08-05T09:35:57Z</time></trkpt><trkpt lat="36.74689021668109" lon="139.4887353577604"><ele>1520.4237440377474</ele><time>2023-08-05T09:37:22Z</time></trkpt><trkpt lat="36.74673291953724" lon="139.48861465238073"><ele>1510.5195158887655</ele><time>2023-08-05T09:40:57Z</time></trkpt><trkpt lat="36.746806911248136" lon="139.48883829573901"><ele>1511.0916520124301</ele><time>2023-08-05T09:42:02Z</time></trkpt><trkpt lat="36.746678628805846" lon="139.48867790571487"><ele>1513.6100562335923</ele><time>2023-08-05T09:42:33Z</time></trkpt><trkpt lat="36.74651182256708" lon="139.48876507694004"><ele>1499.2329901522025</ele><time>2023-08-05T09:44:45Z</time></trkpt><trkpt lat="36.746499410013705" lon="139.48854001202628"><ele>1495.361835949123</ele><time>2023-08-05T09:45:45Z</time></trkpt><trkpt lat="36.746385143511404" lon="139.48829246922003"><ele>1488.4365666946396</ele><time>2023-08-05T09:47:20Z</time></trkpt><trkpt lat="36.746324806045386" lon="139.48851680967894"><ele>1482.9150830255821</ele><time>2023-08-05T09:48:20Z</time></trkpt><trkpt lat="36.746206672670475" lon="139.48833513359023"><ele>1477.3467497564852</ele><time>2023-08-05T09:50:41Z</time></trkpt><trkpt lat="36.7460291089911" lon="139.48828655225515"><ele>1472.8387242434546</ele><time>2023-08-05T09:53:38Z</time></trkpt><trkpt lat="36.74598006803058" lon="139.48807080586744"><ele>1467.6363965533674</ele><time>2023-08-05T09:54:20Z</time></trkpt><trkpt lat="36.74605878305457" lon="139.48828796736925"><ele>1466.1641431031749</ele><time>2023-08-05T09:54:25Z</time></trkpt><trkpt lat="36.7459477559971" lon="139.4881111039901"><ele>1465.0424649659544</ele><time>2023-08-05T09:55:54Z</time></trkpt><trkpt lat="36.74577846615816" lon="139.48826026721494"><ele>1458.2400045935065</ele><time>2023-08-05T09:58:10Z</time></trkpt><trkpt lat="36.745606124810784" lon="139.4883663994767"><ele>1450.672312092036</ele><time>2023-08-05T10:00:04Z</time></trkpt><trkpt lat="36.74572016262643" lon="139.4881694854393"><ele>1451.970622830093</ele><time>2023-08-05T10:00:10Z</time></trkpt><trkpt lat="36.74567879800818" lon="139.48839300410495"><ele>1455.6396346287802</ele><time>2023-08-05T10:00:42Z</time></trkpt><trkpt lat="36.74567763446624" lon="139.48815061387413"><ele>1451.3891887571663</ele><time>2023-08-05T10:00:57Z</time></trkpt><trkpt lat="36.74551232138653" lon="139.4880493398645"><ele>1444.6130862291902</ele><time>2023-08-05T10:01:54Z</time></trkpt><trkpt lat="36.745322727866046" lon="139.48805322222717"><ele>1437.2309543536976</ele><time>2023-08-05T10:03:58Z</time></trkpt><trkpt lat="36.745152214409" lon="139.4881436664035"><ele>1429.7611340517178</ele><time>2023-08-05T10:05:14Z</time></trkpt><trkpt lat="36.744934812247436" lon="139.48812313181213"><ele>1423.1635901043192</ele><time>2023-08-05T10:06:18Z</time></trkpt><trkpt lat="36.74473167085378" lon="139.48805444122743"><ele>1414.5510761719197</ele><time>2023-08-05T10:07:29Z</time></trkpt><trkpt lat="36.74490977780437" lon="139.48813788214898"><ele>1413.8401584746316</ele><time>2023-08-05T10:07:42Z</time></trkpt><trkpt lat="36.74467949510295" lon="139.4880553075326"><ele>1414.4116164986044</ele><time>2023-08-05T10:08:14Z</time></trkpt><trkpt lat="36.744491536380764" lon="139.48815226007875"><ele>1405.5885596545413</ele><time>2023-08-05T10:09:15Z</time></trkpt><trkpt lat="36.744343577129484" lon="139.48802020379216"><ele>1397.8283538650721</ele><time>2023-08-05T10:10:14Z</time></trkpt><trkpt lat="36.744246884547614" lon="139.4882222557384"><ele>1393.7366294795647</ele><time>2023-08-05T10:11:09Z</time></trkpt><trkpt lat="36.74407907344424" lon="139.48813062055677"><ele>1388.6110512493178</ele><time>2023-08-05T10:11:45Z</time></trkpt><trkpt lat="36.743910600690285" lon="139.48799531232157"><ele>1379.184948388487</ele><time>2023-08-05T10:12:46Z</time></trkpt><trkpt lat="36.74372819602663" lon="139.48788993611836"><ele>1372.2712419796735</ele><time>2023-08-05T10:13:47Z</time></trkpt><trkpt lat="36.743620622013474" lon="139.48771003984493"><ele>1365.8634142074734</ele><time>2023-08-05T10:14:34Z</time></trkpt><trkpt lat="36.74343970524587" lon="139.4877442235989"><ele>1358.2969216918573</ele><time>2023-08-05T10:15:12Z</time></trkpt><trkpt lat="36.74327462742646" lon="139.48759515136425"><ele>1351.5355225671083</ele><time>2023-08-05T10:15:56Z</time></trkpt><trkpt lat="36.74310798003625" lon="139.4874734253911"><ele>1348.8406238406897</ele><time>2023-08-05T10:16:39Z</time></trkpt><trkpt lat="36.742931318891955" lon="139.4874192253978"><ele>1344.4254222745076</ele><time>2023-08-05T10:17:17Z</time></trkpt><trkpt lat="36.742838103420766" lon="139.48721889345464"><ele>1339.4443206219003</ele><time>2023-08-05T10:18:05Z</time></trkpt><trkpt lat="36.74266272761484" lon="139.48711874667748"><ele>1332.1469866987318</ele><time>2023-08-05T10:18:45Z</time></trkpt><trkpt lat="36.74250532498381" lon="139.4869829651209"><ele>1325.262101015076</ele><time>2023-08-05T10:19:25Z</time></trkpt><trkpt lat="36.742352083995776" lon="139.48683286521245"><ele>1316.4157502949238</ele><time>2023-08-05T10:20:02Z</time></trkpt><trkpt lat="36.74216375230406" lon="139.48692401939144"><ele>1309.6802240880206</ele><time>2023-08-05T10:20:30Z</time></trkpt><trkpt lat="36.74195266418041" lon="139.48695460789546"><ele>1305.1045223893598</ele><time>2023-08-05T10:21:09Z</time></trkpt><trkpt lat="36.74177064497413" lon="139.48692308056056"><ele>1298.1030892916024</ele><time>2023-08-05T10:21:52Z</time></trkpt><trkpt lat="36.741589272615904" lon="139.4868887503616"><ele>1286.0864471476525</ele><time>2023-08-05T10:22:35Z</time></trkpt><trkpt lat="36.74140633737553" lon="139.4868751405376"><ele>1284.9069390268996</ele><time>2023-08-05T10:24:42Z</time></trkpt><trkpt lat="36.74124863469986" lon="139.48699286969213"><ele>1280.3485552929342</ele><time>2023-08-05T10:26:39Z</time></trkpt></trkseg></trk></gpx>