<?xml version='1.0' encoding='UTF-8'?><gpx creator="YAMAP - https://yamap.com" xsi:schemaLocation="http://www.topografix.com/GPX/1/1 http://www.topografix.com/GPX/1/1/gpx.xsd" version="1.1" xmlns="http://www.topografix.com/GPX/1/1" xmlns:xsi="http://www.w3.org/2001/XMLSchema-instance"><metadata><bounds maxlat="37.41060845537318" maxlon="139.12368019284438" minlat="37.39060445692161" minlon="139.0724888072713"/></metadata><trk><name>長峰・大岳</name><number>1</number><trkseg><trkpt lat="37.39060445692161" lon="139.0724888072713"><ele>401.59602739848197</ele><time>2023-02-03T21:56:39Z</time></trkpt><trkpt lat="37.390747139627194" lon="139.07263322521092"><ele>401.67398876696825</ele><time>2023-02-03T22:08:05Z</time></trkpt><trkpt lat="37.390932378559135" lon="139.0727022161178"><ele>401.8425232414156</ele><time>2023-02-03T22:08:25Z</time></trkpt><trkpt lat="37.39111384067167" lon="139.0727542433898"><ele>402.8037018580362</ele><time>2023-02-03T22:08:47Z</time></trkpt><trkpt lat="37.39128615161704" lon="139.07282747024627"><ele>404.22622327692807</ele><time>2023-02-03T22:09:09Z</time></trkpt><trkpt lat="37.39146893848442" lon="139.07287507508187"><ele>405.0624471148476</ele><time>2023-02-03T22:09:33Z</time></trkpt><trkpt lat="37.3916368830475" lon="139.0729646392597"><ele>406.1532489573583</ele><time>2023-02-03T22:09:54Z</time></trkpt><trkpt lat="37.39175914639098" lon="139.0731481677524"><ele>409.81169959530234</ele><time>2023-02-03T22:10:20Z</time></trkpt><trkpt lat="37.39184939966604" lon="139.07335094506058"><ele>411.3740738136694</ele><time>2023-02-03T22:10:47Z</time></trkpt><trkpt lat="37.391928382800565" lon="139.0735575852787"><ele>412.25577940698713</ele><time>2023-02-03T22:11:07Z</time></trkpt><trkpt lat="37.39203385101038" lon="139.07375061207944"><ele>411.5895013632253</ele><time>2023-02-03T22:11:31Z</time></trkpt><trkpt lat="37.39209510701062" lon="139.0739738672739"><ele>410.7834201073274</ele><time>2023-02-03T22:11:52Z</time></trkpt><trkpt lat="37.392169310800966" lon="139.07418391170185"><ele>411.13577595725656</ele><time>2023-02-03T22:12:13Z</time></trkpt><trkpt lat="37.39226650659078" lon="139.07437739975907"><ele>413.20380037650466</ele><time>2023-02-03T22:12:32Z</time></trkpt><trkpt lat="37.392344524525505" lon="139.07458138154323"><ele>414.25265131518245</ele><time>2023-02-03T22:12:54Z</time></trkpt><trkpt lat="37.392388516456684" lon="139.07480038425354"><ele>415.94441854022443</ele><time>2023-02-03T22:13:16Z</time></trkpt><trkpt lat="37.39249348131109" lon="139.07499395547612"><ele>418.2090500863269</ele><time>2023-02-03T22:13:48Z</time></trkpt><trkpt lat="37.39264445525067" lon="139.075120234864"><ele>420.67559921741486</ele><time>2023-02-03T22:14:13Z</time></trkpt><trkpt lat="37.39279663670893" lon="139.07524390120037"><ele>421.39741753134876</ele><time>2023-02-03T22:14:31Z</time></trkpt><trkpt lat="37.39295841493383" lon="139.07535093467612"><ele>421.47234698664397</ele><time>2023-02-03T22:14:59Z</time></trkpt><trkpt lat="37.39309336964432" lon="139.0755135926267"><ele>423.09105755575</ele><time>2023-02-03T22:15:27Z</time></trkpt><trkpt lat="37.39328008401555" lon="139.07558804574055"><ele>421.7766534956172</ele><time>2023-02-03T22:15:49Z</time></trkpt><trkpt lat="37.39345547616308" lon="139.07565745324027"><ele>422.7775210412219</ele><time>2023-02-03T22:16:14Z</time></trkpt><trkpt lat="37.393619613190864" lon="139.07579818088945"><ele>423.3443641718477</ele><time>2023-02-03T22:17:24Z</time></trkpt><trkpt lat="37.39378782708911" lon="139.07588026523572"><ele>424.0302847987041</ele><time>2023-02-03T22:17:44Z</time></trkpt><trkpt lat="37.3938951301559" lon="139.07569735367045"><ele>426.08862505387515</ele><time>2023-02-03T22:18:10Z</time></trkpt><trkpt lat="37.393990468464" lon="139.07550472622637"><ele>427.65734343603253</ele><time>2023-02-03T22:18:31Z</time></trkpt><trkpt lat="37.39416769464139" lon="139.0754135909987"><ele>430.43070649914443</ele><time>2023-02-03T22:19:07Z</time></trkpt><trkpt lat="37.39435380925898" lon="139.07542632417164"><ele>434.80002127494663</ele><time>2023-02-03T22:19:45Z</time></trkpt><trkpt lat="37.39449415301566" lon="139.07557065782822"><ele>439.0140901263803</ele><time>2023-02-03T22:20:06Z</time></trkpt><trkpt lat="37.394664309152056" lon="139.07564881042092"><ele>441.12670014519244</ele><time>2023-02-03T22:20:31Z</time></trkpt><trkpt lat="37.394827903445126" lon="139.0757545227804"><ele>442.7968037314713</ele><time>2023-02-03T22:21:01Z</time></trkpt><trkpt lat="37.395004877442396" lon="139.07570222383495"><ele>447.8838173588738</ele><time>2023-02-03T22:21:40Z</time></trkpt><trkpt lat="37.3951690222583" lon="139.07558118429515"><ele>449.59300325624645</ele><time>2023-02-03T22:22:06Z</time></trkpt><trkpt lat="37.39535378521182" lon="139.07560967506853"><ele>451.36798537895083</ele><time>2023-02-03T22:22:29Z</time></trkpt><trkpt lat="37.39552430287619" lon="139.0755310135427"><ele>455.73790233489126</ele><time>2023-02-03T22:23:07Z</time></trkpt><trkpt lat="37.3957102110577" lon="139.07553240253287"><ele>457.5497046681121</ele><time>2023-02-03T22:23:30Z</time></trkpt><trkpt lat="37.39589073106145" lon="139.07553927460106"><ele>462.35700356028974</ele><time>2023-02-03T22:23:58Z</time></trkpt><trkpt lat="37.39607938283199" lon="139.07554128424977"><ele>465.2651265449822</ele><time>2023-02-03T22:24:28Z</time></trkpt><trkpt lat="37.396258362271965" lon="139.07549711133925"><ele>468.1719850534573</ele><time>2023-02-03T22:25:19Z</time></trkpt><trkpt lat="37.3964263146271" lon="139.07558639414432"><ele>469.59799056872725</ele><time>2023-02-03T22:25:48Z</time></trkpt><trkpt lat="37.39647727430772" lon="139.0758045188581"><ele>477.7090162066743</ele><time>2023-02-03T22:26:29Z</time></trkpt><trkpt lat="37.39655820783705" lon="139.07600918593857"><ele>479.47205596696585</ele><time>2023-02-03T22:27:10Z</time></trkpt><trkpt lat="37.39669139419757" lon="139.07616557669746"><ele>479.18090355116874</ele><time>2023-02-03T22:27:50Z</time></trkpt><trkpt lat="37.39675570250538" lon="139.0759545406194"><ele>488.7199749890715</ele><time>2023-02-03T22:28:18Z</time></trkpt><trkpt lat="37.39691137933863" lon="139.0758361236689"><ele>491.3423560298979</ele><time>2023-02-03T22:28:49Z</time></trkpt><trkpt lat="37.397095238966344" lon="139.07583528887167"><ele>493.6182736437768</ele><time>2023-02-03T22:30:09Z</time></trkpt><trkpt lat="37.397095286435935" lon="139.07606473522043"><ele>502.53908397164196</ele><time>2023-02-03T22:31:34Z</time></trkpt><trkpt lat="37.39717659514241" lon="139.07626704864663"><ele>505.15111802332103</ele><time>2023-02-03T22:32:09Z</time></trkpt><trkpt lat="37.39733716570946" lon="139.07637172231495"><ele>514.92014965415</ele><time>2023-02-03T22:33:41Z</time></trkpt><trkpt lat="37.39752259235963" lon="139.07635814836482"><ele>522.2779880426824</ele><time>2023-02-03T22:38:15Z</time></trkpt><trkpt lat="37.39765987664874" lon="139.07651785812203"><ele>529.3922965703532</ele><time>2023-02-03T22:38:57Z</time></trkpt><trkpt lat="37.39782240433481" lon="139.0766192150579"><ele>532.4462254196405</ele><time>2023-02-03T22:39:38Z</time></trkpt><trkpt lat="37.397950458165965" lon="139.0767885544997"><ele>536.223809985444</ele><time>2023-02-03T22:40:18Z</time></trkpt><trkpt lat="37.39808110893295" lon="139.0769480377842"><ele>541.8028472559527</ele><time>2023-02-03T22:40:57Z</time></trkpt><trkpt lat="37.39824542924579" lon="139.0770502348325"><ele>545.0914692375809</ele><time>2023-02-03T22:41:36Z</time></trkpt><trkpt lat="37.398380915218084" lon="139.0772065205432"><ele>546.6953713595867</ele><time>2023-02-03T22:42:26Z</time></trkpt><trkpt lat="37.39851846395072" lon="139.07731319272898"><ele>554.9902705457062</ele><time>2023-02-03T22:43:33Z</time></trkpt><trkpt lat="37.398685720824204" lon="139.0774112219112"><ele>557.4385214336216</ele><time>2023-02-03T22:47:17Z</time></trkpt><trkpt lat="37.39881667439324" lon="139.0775680990187"><ele>557.4719802560285</ele><time>2023-02-03T22:47:43Z</time></trkpt><trkpt lat="37.398882446103755" lon="139.07778816360607"><ele>561.7253769375384</ele><time>2023-02-03T22:48:14Z</time></trkpt><trkpt lat="37.39903831934744" lon="139.07790495843813"><ele>565.1903638439253</ele><time>2023-02-03T22:48:37Z</time></trkpt><trkpt lat="37.39913256676218" lon="139.07809802411523"><ele>571.2475038310513</ele><time>2023-02-03T22:49:15Z</time></trkpt><trkpt lat="37.39926547422714" lon="139.0782516368683"><ele>573.0946401217952</ele><time>2023-02-03T22:50:49Z</time></trkpt><trkpt lat="37.3994502975706" lon="139.07829287709438"><ele>575.1732900040224</ele><time>2023-02-03T22:51:15Z</time></trkpt><trkpt lat="37.39963088908709" lon="139.0783228627176"><ele>578.1475527724251</ele><time>2023-02-03T22:51:37Z</time></trkpt><trkpt lat="37.399826427041866" lon="139.0783482598413"><ele>579.2283335998654</ele><time>2023-02-03T22:52:00Z</time></trkpt><trkpt lat="37.400002570250116" lon="139.078410197924"><ele>578.517434486188</ele><time>2023-02-03T22:52:21Z</time></trkpt><trkpt lat="37.40017781092281" lon="139.078503140432"><ele>579.2058408809826</ele><time>2023-02-03T22:52:41Z</time></trkpt><trkpt lat="37.40034263273692" lon="139.07861119190255"><ele>578.6574915414676</ele><time>2023-02-03T22:52:58Z</time></trkpt><trkpt lat="37.40045704121335" lon="139.0787914202858"><ele>579.2566470708698</ele><time>2023-02-03T22:53:18Z</time></trkpt><trkpt lat="37.400512268815206" lon="139.0790112122357"><ele>580.724407822825</ele><time>2023-02-03T22:53:46Z</time></trkpt><trkpt lat="37.400543292151966" lon="139.07923615260032"><ele>584.2094380734488</ele><time>2023-02-03T22:54:12Z</time></trkpt><trkpt lat="37.40065471970266" lon="139.0794225053966"><ele>586.59045357164</ele><time>2023-02-03T22:54:39Z</time></trkpt><trkpt lat="37.40081566666903" lon="139.07952456891596"><ele>585.9005193710327</ele><time>2023-02-03T22:55:05Z</time></trkpt><trkpt lat="37.40088075012573" lon="139.07974035057083"><ele>587.6534451842308</ele><time>2023-02-03T22:55:31Z</time></trkpt><trkpt lat="37.40093930408371" lon="139.07996208543392"><ele>590.777038326487</ele><time>2023-02-03T22:56:00Z</time></trkpt><trkpt lat="37.40089924740358" lon="139.08018302892575"><ele>593.3592133214697</ele><time>2023-02-03T22:56:21Z</time></trkpt><trkpt lat="37.40099058787542" lon="139.0803813410666"><ele>594.9878979874775</ele><time>2023-02-03T22:56:48Z</time></trkpt><trkpt lat="37.40113042305712" lon="139.08053377189594"><ele>595.176714441739</ele><time>2023-02-03T22:57:12Z</time></trkpt><trkpt lat="37.40126552648306" lon="139.0806854898734"><ele>596.3499412406236</ele><time>2023-02-03T22:57:45Z</time></trkpt><trkpt lat="37.40129460305848" lon="139.0809203414098"><ele>598.1041350048035</ele><time>2023-02-03T22:58:17Z</time></trkpt><trkpt lat="37.401444470584885" lon="139.08104646227116"><ele>598.3983305832371</ele><time>2023-02-03T22:58:48Z</time></trkpt><trkpt lat="37.4014600447381" lon="139.08128605534782"><ele>599.0880834944546</ele><time>2023-02-03T22:59:08Z</time></trkpt><trkpt lat="37.4016075026724" lon="139.08143620901419"><ele>602.6025098916143</ele><time>2023-02-03T22:59:39Z</time></trkpt><trkpt lat="37.401689752616335" lon="139.08164350568092"><ele>606.5687853479758</ele><time>2023-02-03T23:00:14Z</time></trkpt><trkpt lat="37.40176797600047" lon="139.08184704005626"><ele>603.2255059555173</ele><time>2023-02-03T23:00:40Z</time></trkpt><trkpt lat="37.40188272090268" lon="139.0820462534488"><ele>602.5895737009123</ele><time>2023-02-03T23:01:08Z</time></trkpt><trkpt lat="37.40200082572483" lon="139.08222122743254"><ele>601.3703924482688</ele><time>2023-02-03T23:01:40Z</time></trkpt><trkpt lat="37.40216151683447" lon="139.08235126234837"><ele>600.9402900431305</ele><time>2023-02-03T23:02:08Z</time></trkpt><trkpt lat="37.40225904752153" lon="139.0825521331766"><ele>605.1430964954197</ele><time>2023-02-03T23:02:41Z</time></trkpt><trkpt lat="37.40235399048831" lon="139.0827472065782"><ele>610.2153139049187</ele><time>2023-02-03T23:03:13Z</time></trkpt><trkpt lat="37.402469809681676" lon="139.08293220078608"><ele>614.5688356459141</ele><time>2023-02-03T23:03:47Z</time></trkpt><trkpt lat="37.40255972299618" lon="139.0831366671534"><ele>617.7818415956572</ele><time>2023-02-03T23:04:21Z</time></trkpt><trkpt lat="37.402657346290376" lon="139.0833294987955"><ele>616.7989892130718</ele><time>2023-02-03T23:04:49Z</time></trkpt><trkpt lat="37.40264389864945" lon="139.08356001561754"><ele>616.6648727077991</ele><time>2023-02-03T23:05:14Z</time></trkpt><trkpt lat="37.40272572276125" lon="139.0837619325237"><ele>618.186236249283</ele><time>2023-02-03T23:05:42Z</time></trkpt><trkpt lat="37.40277353801615" lon="139.08398442056586"><ele>622.2892091926187</ele><time>2023-02-03T23:06:10Z</time></trkpt><trkpt lat="37.40279376737855" lon="139.0842141845298"><ele>623.4334402065724</ele><time>2023-02-03T23:07:03Z</time></trkpt><trkpt lat="37.402877484069656" lon="139.08441885521268"><ele>621.6293159015477</ele><time>2023-02-03T23:07:27Z</time></trkpt><trkpt lat="37.402987053446054" lon="139.08460487549962"><ele>625.5370941674337</ele><time>2023-02-03T23:07:54Z</time></trkpt><trkpt lat="37.403101878854315" lon="139.0847807363024"><ele>628.1619014227763</ele><time>2023-02-03T23:08:22Z</time></trkpt><trkpt lat="37.40319017088515" lon="139.08499410346127"><ele>631.4581498187035</ele><time>2023-02-03T23:08:53Z</time></trkpt><trkpt lat="37.4033713224065" lon="139.0849942024513"><ele>635.3649606974795</ele><time>2023-02-03T23:09:43Z</time></trkpt><trkpt lat="37.40354863347078" lon="139.08493646516206"><ele>641.0719903074205</ele><time>2023-02-03T23:10:17Z</time></trkpt><trkpt lat="37.40362596782299" lon="139.08514387998719"><ele>645.1969703538343</ele><time>2023-02-03T23:11:27Z</time></trkpt><trkpt lat="37.40380803588616" lon="139.08510862720635"><ele>651.3042077915743</ele><time>2023-02-03T23:12:01Z</time></trkpt><trkpt lat="37.40398897711121" lon="139.08517828549068"><ele>657.2273650905117</ele><time>2023-02-03T23:12:47Z</time></trkpt><trkpt lat="37.404112909279746" lon="139.08534398744106"><ele>664.371399317868</ele><time>2023-02-03T23:13:29Z</time></trkpt><trkpt lat="37.40423289351494" lon="139.08552367909124"><ele>669.7149009723216</ele><time>2023-02-03T23:14:01Z</time></trkpt><trkpt lat="37.40436150712285" lon="139.08568718159236"><ele>671.5675894021988</ele><time>2023-02-03T23:14:34Z</time></trkpt><trkpt lat="37.40447752953126" lon="139.08586446759122"><ele>673.0168352071196</ele><time>2023-02-03T23:15:01Z</time></trkpt><trkpt lat="37.40452646838477" lon="139.08608621325047"><ele>674.2966404557228</ele><time>2023-02-03T23:15:26Z</time></trkpt><trkpt lat="37.404560334115075" lon="139.08630902522555"><ele>673.7737229289487</ele><time>2023-02-03T23:15:51Z</time></trkpt><trkpt lat="37.404523196667654" lon="139.08654247043702"><ele>677.498482355848</ele><time>2023-02-03T23:16:13Z</time></trkpt><trkpt lat="37.404660037316624" lon="139.0866906643794"><ele>675.66329605598</ele><time>2023-02-03T23:16:49Z</time></trkpt><trkpt lat="37.40479983698804" lon="139.08684896943538"><ele>678.72935276106</ele><time>2023-02-03T23:17:27Z</time></trkpt><trkpt lat="37.40490846829544" lon="139.08705182126846"><ele>682.27809293475</ele><time>2023-02-03T23:17:58Z</time></trkpt><trkpt lat="37.40505637991523" lon="139.08719509942475"><ele>684.9165939642116</ele><time>2023-02-03T23:18:23Z</time></trkpt><trkpt lat="37.40520243862071" lon="139.0873357266422"><ele>687.5483804279938</ele><time>2023-02-03T23:18:50Z</time></trkpt><trkpt lat="37.405384041866895" lon="139.0873433705241"><ele>692.5803206991404</ele><time>2023-02-03T23:19:18Z</time></trkpt><trkpt lat="37.40547561184677" lon="139.08754237779095"><ele>696.9121807990596</ele><time>2023-02-03T23:19:57Z</time></trkpt><trkpt lat="37.405485045238045" lon="139.08776793955394"><ele>702.0989194419235</ele><time>2023-02-03T23:20:39Z</time></trkpt><trkpt lat="37.40548959851344" lon="139.08801460179316"><ele>710.9610819118097</ele><time>2023-02-03T23:21:11Z</time></trkpt><trkpt lat="37.405532425666614" lon="139.08824285181848"><ele>711.0832986515015</ele><time>2023-02-03T23:21:51Z</time></trkpt><trkpt lat="37.40557385213401" lon="139.08846847314894"><ele>715.631711717695</ele><time>2023-02-03T23:22:27Z</time></trkpt><trkpt lat="37.40561612116283" lon="139.08869035438653"><ele>718.258104564622</ele><time>2023-02-03T23:22:59Z</time></trkpt><trkpt lat="37.40554639745876" lon="139.0888988411821"><ele>720.4531434411183</ele><time>2023-02-03T23:23:26Z</time></trkpt><trkpt lat="37.405456278619745" lon="139.0890968054659"><ele>724.0984511394054</ele><time>2023-02-03T23:23:58Z</time></trkpt><trkpt lat="37.405396876128655" lon="139.08931265579602"><ele>727.8105628462508</ele><time>2023-02-03T23:24:30Z</time></trkpt><trkpt lat="37.40551224300819" lon="139.0894971015092"><ele>726.642313754186</ele><time>2023-02-03T23:25:00Z</time></trkpt><trkpt lat="37.405659611149886" lon="139.08964999353918"><ele>728.6365249650553</ele><time>2023-02-03T23:25:30Z</time></trkpt><trkpt lat="37.40574301518513" lon="139.08985298395885"><ele>732.0385383581743</ele><time>2023-02-03T23:25:55Z</time></trkpt><trkpt lat="37.405921562025185" lon="139.0899167496624"><ele>734.5905533637851</ele><time>2023-02-03T23:26:26Z</time></trkpt><trkpt lat="37.40609598701713" lon="139.09001886126566"><ele>736.638829369098</ele><time>2023-02-03T23:26:53Z</time></trkpt><trkpt lat="37.40611431067678" lon="139.09024436253623"><ele>741.0172533001751</ele><time>2023-02-03T23:27:28Z</time></trkpt><trkpt lat="37.40617780427707" lon="139.09046324031277"><ele>742.9156362982467</ele><time>2023-02-03T23:27:55Z</time></trkpt><trkpt lat="37.40630773351153" lon="139.0906239821072"><ele>741.5475229537115</ele><time>2023-02-03T23:28:23Z</time></trkpt><trkpt lat="37.40644715713901" lon="139.09076832057445"><ele>744.3107767403126</ele><time>2023-02-03T23:29:25Z</time></trkpt><trkpt lat="37.406593631262965" lon="139.09090539780567"><ele>747.8137814905494</ele><time>2023-02-03T23:30:02Z</time></trkpt><trkpt lat="37.40673581137251" lon="139.09105150871176"><ele>747.9046805417165</ele><time>2023-02-03T23:30:35Z</time></trkpt><trkpt lat="37.40686190606758" lon="139.0912192612698"><ele>750.736692475155</ele><time>2023-02-03T23:31:01Z</time></trkpt><trkpt lat="37.40701038135709" lon="139.09135004323474"><ele>754.7114467378706</ele><time>2023-02-03T23:31:27Z</time></trkpt><trkpt lat="37.40719106552961" lon="139.09137889935332"><ele>754.9277333049104</ele><time>2023-02-03T23:32:06Z</time></trkpt><trkpt lat="37.40737218302419" lon="139.09142891799232"><ele>755.1210137167946</ele><time>2023-02-03T23:32:31Z</time></trkpt><trkpt lat="37.40755452492937" lon="139.0913564029077"><ele>754.8389913439751</ele><time>2023-02-03T23:33:01Z</time></trkpt><trkpt lat="37.40769577256938" lon="139.0915003342431"><ele>757.2738018669188</ele><time>2023-02-03T23:33:28Z</time></trkpt><trkpt lat="37.40777474091658" lon="139.091712707639"><ele>761.5999245895073</ele><time>2023-02-03T23:33:57Z</time></trkpt><trkpt lat="37.407769440124255" lon="139.09193998294177"><ele>765.8597260080278</ele><time>2023-02-03T23:34:39Z</time></trkpt><trkpt lat="37.40787114786599" lon="139.09213820437938"><ele>767.0964765772223</ele><time>2023-02-03T23:35:17Z</time></trkpt><trkpt lat="37.40794717482189" lon="139.0923457079057"><ele>771.2967229252681</ele><time>2023-02-03T23:35:50Z</time></trkpt><trkpt lat="37.40807495486193" lon="139.09251102254836"><ele>773.2287354087457</ele><time>2023-02-03T23:36:19Z</time></trkpt><trkpt lat="37.40802307615305" lon="139.09252159927286"><ele>778.5880814008415</ele><time>2023-02-03T23:37:17Z</time></trkpt><trkpt lat="37.40817161908312" lon="139.0926542182784"><ele>780.3411182416603</ele><time>2023-02-03T23:38:05Z</time></trkpt><trkpt lat="37.408301052854185" lon="139.09281189529284"><ele>782.0512338541448</ele><time>2023-02-03T23:38:34Z</time></trkpt><trkpt lat="37.40843434930642" lon="139.09296556734657"><ele>783.9100598897785</ele><time>2023-02-03T23:39:01Z</time></trkpt><trkpt lat="37.40856232941705" lon="139.09312578028153"><ele>784.796834689565</ele><time>2023-02-03T23:39:26Z</time></trkpt><trkpt lat="37.40868948874178" lon="139.09329185451742"><ele>788.2800214625895</ele><time>2023-02-03T23:39:52Z</time></trkpt><trkpt lat="37.40882809804577" lon="139.0934381537043"><ele>792.2412204500288</ele><time>2023-02-03T23:40:20Z</time></trkpt><trkpt lat="37.40898103774713" lon="139.09356313481342"><ele>792.7277399180457</ele><time>2023-02-03T23:40:48Z</time></trkpt><trkpt lat="37.40908344643083" lon="139.0937502181629"><ele>791.6132898274809</ele><time>2023-02-03T23:41:13Z</time></trkpt><trkpt lat="37.409196189013905" lon="139.09393800352913"><ele>790.7622155407444</ele><time>2023-02-03T23:41:43Z</time></trkpt><trkpt lat="37.40936712705199" lon="139.09404405756246"><ele>792.360522756353</ele><time>2023-02-03T23:42:09Z</time></trkpt><trkpt lat="37.40946278178347" lon="139.09424111151085"><ele>792.5956217544153</ele><time>2023-02-03T23:42:35Z</time></trkpt><trkpt lat="37.409571115713575" lon="139.09443746670226"><ele>794.5231234533712</ele><time>2023-02-03T23:43:06Z</time></trkpt><trkpt lat="37.40968387085515" lon="139.09462021662597"><ele>796.2081203749403</ele><time>2023-02-03T23:43:59Z</time></trkpt><trkpt lat="37.409781912976676" lon="139.0948132003328"><ele>796.3696546722203</ele><time>2023-02-03T23:44:31Z</time></trkpt><trkpt lat="37.40981806209447" lon="139.09503649682313"><ele>793.8513184217736</ele><time>2023-02-03T23:44:59Z</time></trkpt><trkpt lat="37.409859926071626" lon="139.0952690253484"><ele>793.2563608568162</ele><time>2023-02-03T23:45:26Z</time></trkpt><trkpt lat="37.40993992291358" lon="139.09547217692221"><ele>795.1542357495055</ele><time>2023-02-03T23:45:54Z</time></trkpt><trkpt lat="37.40999338232228" lon="139.0956933652149"><ele>794.5488888472319</ele><time>2023-02-03T23:46:17Z</time></trkpt><trkpt lat="37.41000754121274" lon="139.09592701673552"><ele>794.3250903869048</ele><time>2023-02-03T23:46:44Z</time></trkpt><trkpt lat="37.40999264221458" lon="139.0961549162193"><ele>793.7308047097176</ele><time>2023-02-03T23:47:09Z</time></trkpt><trkpt lat="37.40996224809393" lon="139.0963798181051"><ele>793.0866061067209</ele><time>2023-02-03T23:47:39Z</time></trkpt><trkpt lat="37.409900741013715" lon="139.0965967058303"><ele>790.9461267143488</ele><time>2023-02-03T23:48:15Z</time></trkpt><trkpt lat="37.40983722093955" lon="139.09681039122776"><ele>786.959647086449</ele><time>2023-02-03T23:48:47Z</time></trkpt><trkpt lat="37.409812634536166" lon="139.09704333609665"><ele>786.2074960796162</ele><time>2023-02-03T23:49:18Z</time></trkpt><trkpt lat="37.409795485583416" lon="139.09726879449428"><ele>784.663319571875</ele><time>2023-02-03T23:49:49Z</time></trkpt><trkpt lat="37.4097558250062" lon="139.09749481283148"><ele>783.2285815859213</ele><time>2023-02-03T23:50:18Z</time></trkpt><trkpt lat="37.40970161692269" lon="139.09771162538397"><ele>777.9749210700393</ele><time>2023-02-03T23:50:51Z</time></trkpt><trkpt lat="37.40972562669419" lon="139.0979465544553"><ele>780.0995376296341</ele><time>2023-02-03T23:51:29Z</time></trkpt><trkpt lat="37.409753644422395" lon="139.0981813723327"><ele>782.5932154254988</ele><time>2023-02-03T23:58:55Z</time></trkpt><trkpt lat="37.409768617079415" lon="139.09841485718084"><ele>788.494869556278</ele><time>2023-02-03T23:59:24Z</time></trkpt><trkpt lat="37.40978753415565" lon="139.09864096972433"><ele>792.5068725943565</ele><time>2023-02-03T23:59:57Z</time></trkpt><trkpt lat="37.409834997534" lon="139.09886379331562"><ele>798.0570534281433</ele><time>2023-02-04T00:00:42Z</time></trkpt><trkpt lat="37.409759138292195" lon="139.09906998833836"><ele>804.4829208180308</ele><time>2023-02-04T00:01:15Z</time></trkpt><trkpt lat="37.409861214205904" lon="139.09929088535478"><ele>807.1996457306668</ele><time>2023-02-04T00:02:14Z</time></trkpt><trkpt lat="37.409930229480096" lon="139.0995096104658"><ele>815.7486856961623</ele><time>2023-02-04T00:03:11Z</time></trkpt><trkpt lat="37.40992833016942" lon="139.09974125124887"><ele>817.7730320803821</ele><time>2023-02-04T00:03:55Z</time></trkpt><trkpt lat="37.409928460420176" lon="139.0999675237538"><ele>824.9171677175909</ele><time>2023-02-04T00:04:43Z</time></trkpt><trkpt lat="37.40982977656024" lon="139.1001580930481"><ele>833.7851556092501</ele><time>2023-02-04T00:05:32Z</time></trkpt><trkpt lat="37.40988194111277" lon="139.10037466959758"><ele>838.6561445742846</ele><time>2023-02-04T00:06:12Z</time></trkpt><trkpt lat="37.40987911338153" lon="139.10060491475193"><ele>847.2600650368258</ele><time>2023-02-04T00:07:10Z</time></trkpt><trkpt lat="37.40987830483109" lon="139.10084123704289"><ele>851.8483753781766</ele><time>2023-02-04T00:07:56Z</time></trkpt><trkpt lat="37.40977430700869" lon="139.1010349141719"><ele>855.9253557156771</ele><time>2023-02-04T00:08:37Z</time></trkpt><trkpt lat="37.40980618596346" lon="139.1012628648616"><ele>865.0084069957957</ele><time>2023-02-04T00:09:47Z</time></trkpt><trkpt lat="37.4098493564612" lon="139.1014837744461"><ele>870.5301515115425</ele><time>2023-02-04T00:10:33Z</time></trkpt><trkpt lat="37.40984259056643" lon="139.10171104586863"><ele>880.4883217466995</ele><time>2023-02-04T00:11:10Z</time></trkpt><trkpt lat="37.40987246299408" lon="139.10194472052189"><ele>882.1162069486454</ele><time>2023-02-04T00:12:08Z</time></trkpt><trkpt lat="37.40985862776111" lon="139.10217686425443"><ele>888.4218808850273</ele><time>2023-02-04T00:13:02Z</time></trkpt><trkpt lat="37.409926272857454" lon="139.10238706585076"><ele>891.3762927344069</ele><time>2023-02-04T00:13:51Z</time></trkpt><trkpt lat="37.40992212009766" lon="139.10261823523032"><ele>899.1566830156371</ele><time>2023-02-04T00:14:43Z</time></trkpt><trkpt lat="37.409978870528846" lon="139.10283437609036"><ele>902.1751978415996</ele><time>2023-02-04T00:15:24Z</time></trkpt><trkpt lat="37.410076001688545" lon="139.1030375894316"><ele>904.0783533910289</ele><time>2023-02-04T00:15:54Z</time></trkpt><trkpt lat="37.41014033350008" lon="139.103250234518"><ele>909.6520331129432</ele><time>2023-02-04T00:16:36Z</time></trkpt><trkpt lat="37.410216338160296" lon="139.1034582292893"><ele>913.5016625951976</ele><time>2023-02-04T00:17:11Z</time></trkpt><trkpt lat="37.410237747054836" lon="139.1036853065863"><ele>917.8466866584495</ele><time>2023-02-04T00:17:51Z</time></trkpt><trkpt lat="37.41021771886582" lon="139.10392065235027"><ele>924.1888079205528</ele><time>2023-02-04T00:18:57Z</time></trkpt><trkpt lat="37.410219202821736" lon="139.10414943566414"><ele>929.4628659058362</ele><time>2023-02-04T00:19:33Z</time></trkpt><trkpt lat="37.41019391750232" lon="139.104382295323"><ele>935.3296719826758</ele><time>2023-02-04T00:20:05Z</time></trkpt><trkpt lat="37.41032699882739" lon="139.10455129483648"><ele>936.133893776685</ele><time>2023-02-04T00:20:46Z</time></trkpt><trkpt lat="37.410310651554745" lon="139.10477866464262"><ele>943.8295952789485</ele><time>2023-02-04T00:21:36Z</time></trkpt><trkpt lat="37.410208419975646" lon="139.10497496352738"><ele>947.169089444913</ele><time>2023-02-04T00:22:39Z</time></trkpt><trkpt lat="37.41029000649343" lon="139.10517698334237"><ele>956.3780302386731</ele><time>2023-02-04T00:23:51Z</time></trkpt><trkpt lat="37.41013683122788" lon="139.10530732242285"><ele>961.7884331680834</ele><time>2023-02-04T00:24:42Z</time></trkpt><trkpt lat="37.41027534319933" lon="139.10545204281556"><ele>966.8812856664881</ele><time>2023-02-04T00:25:22Z</time></trkpt><trkpt lat="37.41010378586604" lon="139.10554569608783"><ele>975.6012097839266</ele><time>2023-02-04T00:26:09Z</time></trkpt><trkpt lat="37.41025016401391" lon="139.10568077260433"><ele>970.0704443259165</ele><time>2023-02-04T00:26:48Z</time></trkpt><trkpt lat="37.41022427534234" lon="139.10590436136317"><ele>976.1787674538791</ele><time>2023-02-04T00:27:37Z</time></trkpt><trkpt lat="37.41020438444048" lon="139.10613016309188"><ele>984.2198954904452</ele><time>2023-02-04T00:28:19Z</time></trkpt><trkpt lat="37.410314694075346" lon="139.10630936985572"><ele>990.5885728979483</ele><time>2023-02-04T00:29:00Z</time></trkpt><trkpt lat="37.41039031350992" lon="139.10651663722695"><ele>995.3216646276414</ele><time>2023-02-04T00:29:42Z</time></trkpt><trkpt lat="37.41045504358642" lon="139.10672757671531"><ele>1004.3788048708811</ele><time>2023-02-04T00:30:30Z</time></trkpt><trkpt lat="37.41057401764635" lon="139.10689799278018"><ele>1008.3335258830339</ele><time>2023-02-04T00:31:19Z</time></trkpt><trkpt lat="37.41042736458045" lon="139.10704858955134"><ele>1017.002467636019</ele><time>2023-02-04T00:32:16Z</time></trkpt><trkpt lat="37.41041565889813" lon="139.10727590069735"><ele>1024.3547444799915</ele><time>2023-02-04T00:33:19Z</time></trkpt><trkpt lat="37.4104145100931" lon="139.1075057270833"><ele>1027.545653892681</ele><time>2023-02-04T00:34:51Z</time></trkpt><trkpt lat="37.41045351070646" lon="139.10773290549056"><ele>1034.7170755015686</ele><time>2023-02-04T00:35:49Z</time></trkpt><trkpt lat="37.41042437312314" lon="139.10795926202096"><ele>1040.8782150745392</ele><time>2023-02-04T00:36:29Z</time></trkpt><trkpt lat="37.410491605939406" lon="139.10817469323834"><ele>1046.7494077617303</ele><time>2023-02-04T00:37:43Z</time></trkpt><trkpt lat="37.410578171475265" lon="139.10837676506264"><ele>1056.4326252993196</ele><time>2023-02-04T00:38:50Z</time></trkpt><trkpt lat="37.41053574724381" lon="139.10860220952762"><ele>1060.6668672366068</ele><time>2023-02-04T00:39:24Z</time></trkpt><trkpt lat="37.41042227344435" lon="139.10877903849953"><ele>1069.3078763252124</ele><time>2023-02-04T00:40:06Z</time></trkpt><trkpt lat="37.41054172921868" lon="139.1089609665906"><ele>1069.9859953019768</ele><time>2023-02-04T00:40:51Z</time></trkpt><trkpt lat="37.41055344974552" lon="139.10919278193978"><ele>1077.3784090857953</ele><time>2023-02-04T00:41:38Z</time></trkpt><trkpt lat="37.4105723933069" lon="139.10941915228872"><ele>1080.6035017790273</ele><time>2023-02-04T00:42:38Z</time></trkpt><trkpt lat="37.41060845537318" lon="139.10964209184505"><ele>1084.5397970536724</ele><time>2023-02-04T00:43:27Z</time></trkpt><trkpt lat="37.41055530361896" lon="139.10986284041118"><ele>1093.305947188288</ele><time>2023-02-04T00:44:32Z</time></trkpt><trkpt lat="37.410477634043566" lon="139.1100677421837"><ele>1100.185528151691</ele><time>2023-02-04T00:45:28Z</time></trkpt><trkpt lat="37.41043929372067" lon="139.11028854501922"><ele>1107.9098667688668</ele><time>2023-02-04T00:46:23Z</time></trkpt><trkpt lat="37.41044195114361" lon="139.11052147151608"><ele>1112.8627845142037</ele><time>2023-02-04T00:47:25Z</time></trkpt><trkpt lat="37.410467817144045" lon="139.11074519139166"><ele>1122.2262369869277</ele><time>2023-02-04T00:48:19Z</time></trkpt><trkpt lat="37.41040764966915" lon="139.11096001584409"><ele>1130.2401005225256</ele><time>2023-02-04T00:49:04Z</time></trkpt><trkpt lat="37.41036453628864" lon="139.11118222424852"><ele>1139.371338430792</ele><time>2023-02-04T00:49:42Z</time></trkpt><trkpt lat="37.410404743891284" lon="139.1114119345184"><ele>1142.2667576093227</ele><time>2023-02-04T00:51:08Z</time></trkpt><trkpt lat="37.41044515291736" lon="139.1116448004118"><ele>1146.727196579799</ele><time>2023-02-04T00:51:50Z</time></trkpt><trkpt lat="37.41048970277044" lon="139.11187596380836"><ele>1153.2554043559358</ele><time>2023-02-04T00:52:40Z</time></trkpt><trkpt lat="37.4105566473868" lon="139.11208702107965"><ele>1159.0225897328928</ele><time>2023-02-04T00:53:48Z</time></trkpt><trkpt lat="37.41050579685374" lon="139.1123076226451"><ele>1170.9010280687362</ele><time>2023-02-04T00:54:26Z</time></trkpt><trkpt lat="37.410465553209434" lon="139.11253333458373"><ele>1182.8645134111866</ele><time>2023-02-04T00:55:11Z</time></trkpt><trkpt lat="37.41057016959315" lon="139.11272341825278"><ele>1183.64896028582</ele><time>2023-02-04T00:57:17Z</time></trkpt><trkpt lat="37.41055877099591" lon="139.11295419106756"><ele>1187.5779312215745</ele><time>2023-02-04T00:57:59Z</time></trkpt><trkpt lat="37.4104903724019" lon="139.11316726723007"><ele>1198.0597259784117</ele><time>2023-02-04T00:58:30Z</time></trkpt><trkpt lat="37.41040075815003" lon="139.1133701583184"><ele>1205.8078608652577</ele><time>2023-02-04T00:59:22Z</time></trkpt><trkpt lat="37.410373643868255" lon="139.1135962137013"><ele>1211.1020008465275</ele><time>2023-02-04T01:00:28Z</time></trkpt><trkpt lat="37.41041977417336" lon="139.1138256544882"><ele>1217.5255021378398</ele><time>2023-02-04T01:01:26Z</time></trkpt><trkpt lat="37.41037031066063" lon="139.11404579905945"><ele>1229.729002281092</ele><time>2023-02-04T01:02:16Z</time></trkpt><trkpt lat="37.4102870063334" lon="139.11424660996315"><ele>1240.050161843188</ele><time>2023-02-04T01:02:59Z</time></trkpt><trkpt lat="37.41024605768128" lon="139.11447279124926"><ele>1252.4060787707567</ele><time>2023-02-04T01:03:43Z</time></trkpt><trkpt lat="37.4102570451161" lon="139.114712418744"><ele>1253.1186509253457</ele><time>2023-02-04T01:04:49Z</time></trkpt><trkpt lat="37.410277277144374" lon="139.1149376185316"><ele>1258.1428453419358</ele><time>2023-02-04T01:05:39Z</time></trkpt><trkpt lat="37.41023919577405" lon="139.11515990235367"><ele>1265.5989539427683</ele><time>2023-02-04T01:06:25Z</time></trkpt><trkpt lat="37.41026752338536" lon="139.11538414085453"><ele>1273.4112789640203</ele><time>2023-02-04T01:07:09Z</time></trkpt><trkpt lat="37.41030338945869" lon="139.11560821202332"><ele>1279.683064777404</ele><time>2023-02-04T01:07:47Z</time></trkpt><trkpt lat="37.41032553772218" lon="139.11583393108816"><ele>1281.7356596579775</ele><time>2023-02-04T01:08:26Z</time></trkpt><trkpt lat="37.410356675860825" lon="139.11605765126262"><ele>1285.54540536087</ele><time>2023-02-04T01:13:00Z</time></trkpt><trkpt lat="37.410372332763814" lon="139.11628659554074"><ele>1287.0214320728555</ele><time>2023-02-04T01:14:34Z</time></trkpt><trkpt lat="37.4103770746976" lon="139.1165160381333"><ele>1292.5496618133038</ele><time>2023-02-04T01:15:00Z</time></trkpt><trkpt lat="37.41037859451636" lon="139.11674207609238"><ele>1295.012589532882</ele><time>2023-02-04T01:15:29Z</time></trkpt><trkpt lat="37.41038196936738" lon="139.11696836042765"><ele>1298.579239537008</ele><time>2023-02-04T01:15:59Z</time></trkpt><trkpt lat="37.41038626101049" lon="139.11719747383327"><ele>1302.0490461653098</ele><time>2023-02-04T01:16:31Z</time></trkpt><trkpt lat="37.410395905015115" lon="139.1174291931961"><ele>1305.4676456712186</ele><time>2023-02-04T01:17:02Z</time></trkpt><trkpt lat="37.41037144112434" lon="139.1176564174778"><ele>1308.1514647379518</ele><time>2023-02-04T01:17:35Z</time></trkpt><trkpt lat="37.410359031840606" lon="139.1178817880491"><ele>1310.8718565283343</ele><time>2023-02-04T01:18:12Z</time></trkpt><trkpt lat="37.410332787041824" lon="139.11811365540734"><ele>1315.4180511822924</ele><time>2023-02-04T01:18:41Z</time></trkpt><trkpt lat="37.410359515262044" lon="139.1182776602893"><ele>1317.184612967074</ele><time>2023-02-04T01:25:34Z</time></trkpt><trkpt lat="37.4102827840256" lon="139.11849421485158"><ele>1326.6995799941942</ele><time>2023-02-04T01:32:23Z</time></trkpt><trkpt lat="37.410313430768284" lon="139.118717710185"><ele>1332.6477946657687</ele><time>2023-02-04T01:32:49Z</time></trkpt><trkpt lat="37.41034021129358" lon="139.11895082121677"><ele>1336.0817169854417</ele><time>2023-02-04T01:33:23Z</time></trkpt><trkpt lat="37.41034000388238" lon="139.11918136342047"><ele>1341.6731723472476</ele><time>2023-02-04T01:34:06Z</time></trkpt><trkpt lat="37.410323235530534" lon="139.1194093913514"><ele>1349.0910225994885</ele><time>2023-02-04T01:34:54Z</time></trkpt><trkpt lat="37.410307482707395" lon="139.11963891246293"><ele>1356.5492870137095</ele><time>2023-02-04T01:35:43Z</time></trkpt><trkpt lat="37.41031459416836" lon="139.11986985359283"><ele>1363.7373482435942</ele><time>2023-02-04T01:36:26Z</time></trkpt><trkpt lat="37.41028623418305" lon="139.12009993281563"><ele>1371.1524369334802</ele><time>2023-02-04T01:37:15Z</time></trkpt><trkpt lat="37.41028584015708" lon="139.12032823347775"><ele>1376.072780721821</ele><time>2023-02-04T01:38:13Z</time></trkpt><trkpt lat="37.41030407925494" lon="139.12055487995892"><ele>1385.260403458029</ele><time>2023-02-04T01:39:04Z</time></trkpt><trkpt lat="37.41033605538501" lon="139.12078281894483"><ele>1387.9533566050231</ele><time>2023-02-04T01:39:47Z</time></trkpt><trkpt lat="37.4103157456919" lon="139.12102019813128"><ele>1396.8712197151035</ele><time>2023-02-04T01:40:25Z</time></trkpt><trkpt lat="37.41029265091829" lon="139.12124682139452"><ele>1401.5249442569911</ele><time>2023-02-04T01:41:02Z</time></trkpt><trkpt lat="37.4102730354997" lon="139.12147733285474"><ele>1410.9850034415722</ele><time>2023-02-04T01:41:45Z</time></trkpt><trkpt lat="37.4102581784366" lon="139.12170882631156"><ele>1420.085230586119</ele><time>2023-02-04T01:42:26Z</time></trkpt><trkpt lat="37.41020831131928" lon="139.1219337601275"><ele>1423.4274893514812</ele><time>2023-02-04T01:43:02Z</time></trkpt><trkpt lat="37.41019141253277" lon="139.12216241738562"><ele>1428.5833060629666</ele><time>2023-02-04T01:44:11Z</time></trkpt><trkpt lat="37.41016842621275" lon="139.12238650695662"><ele>1435.2213006885722</ele><time>2023-02-04T01:44:47Z</time></trkpt><trkpt lat="37.410151260125126" lon="139.12261133537015"><ele>1440.4292904119939</ele><time>2023-02-04T01:45:20Z</time></trkpt><trkpt lat="37.410128873001916" lon="139.12284122590972"><ele>1444.945131036453</ele><time>2023-02-04T01:45:57Z</time></trkpt><trkpt lat="37.410099873863494" lon="139.123071957216"><ele>1450.5924772089347</ele><time>2023-02-04T01:46:27Z</time></trkpt><trkpt lat="37.41008260645613" lon="139.1232984760174"><ele>1455.0784178161994</ele><time>2023-02-04T01:47:01Z</time></trkpt><trkpt lat="37.410070282669466" lon="139.12353909305335"><ele>1457.367404804565</ele><time>2023-02-04T01:47:28Z</time></trkpt><trkpt lat="37.41021838298165" lon="139.12368019284438"><ele>1446.394940131344</ele><time>2023-02-04T01:48:22Z</time></trkpt><trkpt lat="37.41012237994452" lon="139.12348714563157"><ele>1453.8628411088139</ele><time>2023-02-04T02:08:30Z</time></trkpt><trkpt lat="37.40999196654685" lon="139.12332339129514"><ele>1446.7739186957479</ele><time>2023-02-04T02:12:02Z</time></trkpt><trkpt lat="37.40987401784772" lon="139.12314989919122"><ele>1445.539096946828</ele><time>2023-02-04T02:12:15Z</time></trkpt><trkpt lat="37.40977121464052" lon="139.1229256172461"><ele>1443.361040070653</ele><time>2023-02-04T02:12:26Z</time></trkpt><trkpt lat="37.409631074387654" lon="139.12275525452606"><ele>1439.9754760162905</ele><time>2023-02-04T02:12:34Z</time></trkpt><trkpt lat="37.40952430349691" lon="139.12257075706867"><ele>1434.2115268185735</ele><time>2023-02-04T02:12:58Z</time></trkpt><trkpt lat="37.40942349733477" lon="139.1223689885297"><ele>1429.720558351837</ele><time>2023-02-04T02:13:06Z</time></trkpt><trkpt lat="37.40928684368879" lon="139.1222043652643"><ele>1428.1554423645139</ele><time>2023-02-04T02:13:11Z</time></trkpt><trkpt lat="37.409172015971215" lon="139.1219925590603"><ele>1422.2002379707992</ele><time>2023-02-04T02:13:18Z</time></trkpt><trkpt lat="37.40912565817733" lon="139.12177405998327"><ele>1410.2265853704885</ele><time>2023-02-04T02:13:34Z</time></trkpt><trkpt lat="37.40904882081167" lon="139.12153166678834"><ele>1409.6366224307567</ele><time>2023-02-04T02:14:15Z</time></trkpt><trkpt lat="37.4089199788644" lon="139.12130844422776"><ele>1402.858819118701</ele><time>2023-02-04T02:14:20Z</time></trkpt><trkpt lat="37.408775903320944" lon="139.1210897591802"><ele>1392.2722966233268</ele><time>2023-02-04T02:14:25Z</time></trkpt><trkpt lat="37.40860844259643" lon="139.1211901295397"><ele>1391.3444978697225</ele><time>2023-02-04T02:14:29Z</time></trkpt><trkpt lat="37.40858513651563" lon="139.1209537868734"><ele>1389.1704537728801</ele><time>2023-02-04T02:15:22Z</time></trkpt><trkpt lat="37.408539899193734" lon="139.12070431977824"><ele>1380.6464476082474</ele><time>2023-02-04T02:15:27Z</time></trkpt><trkpt lat="37.40846969158661" lon="139.12049273670667"><ele>1368.7196866031736</ele><time>2023-02-04T02:15:33Z</time></trkpt><trkpt lat="37.40834827194817" lon="139.12029983960664"><ele>1361.8138220831752</ele><time>2023-02-04T02:15:39Z</time></trkpt><trkpt lat="37.40835094459548" lon="139.12006842252902"><ele>1352.0528076644987</ele><time>2023-02-04T02:25:20Z</time></trkpt><trkpt lat="37.408214105697986" lon="139.11992064801498"><ele>1341.0424949415028</ele><time>2023-02-04T02:29:01Z</time></trkpt><trkpt lat="37.40818679870149" lon="139.11969161166945"><ele>1331.483806407079</ele><time>2023-02-04T02:29:08Z</time></trkpt><trkpt lat="37.40813326673269" lon="139.11945964168132"><ele>1322.5252658212557</ele><time>2023-02-04T02:29:14Z</time></trkpt><trkpt lat="37.408102421428154" lon="139.11923404268828"><ele>1312.8210732890293</ele><time>2023-02-04T02:29:22Z</time></trkpt><trkpt lat="37.408026630237515" lon="139.11898758695304"><ele>1303.489901073277</ele><time>2023-02-04T02:30:42Z</time></trkpt><trkpt lat="37.407899882508126" lon="139.11879545026616"><ele>1293.0241421945393</ele><time>2023-02-04T02:30:47Z</time></trkpt><trkpt lat="37.4077177023432" lon="139.11859837573138"><ele>1278.6097747776657</ele><time>2023-02-04T02:30:53Z</time></trkpt><trkpt lat="37.40760552237393" lon="139.11838240802672"><ele>1268.875713921152</ele><time>2023-02-04T02:30:58Z</time></trkpt><trkpt lat="37.407446359564084" lon="139.11826502058474"><ele>1265.025146158412</ele><time>2023-02-04T02:31:42Z</time></trkpt><trkpt lat="37.4073941121117" lon="139.118281881534"><ele>1263.856244773604</ele><time>2023-02-04T02:32:52Z</time></trkpt><trkpt lat="37.40737184839489" lon="139.11802315215866"><ele>1258.3359453277662</ele><time>2023-02-04T02:38:22Z</time></trkpt><trkpt lat="37.407466109350445" lon="139.11779503921463"><ele>1253.0528916083276</ele><time>2023-02-04T02:38:26Z</time></trkpt><trkpt lat="37.40741498157374" lon="139.11748248735123"><ele>1240.224058965221</ele><time>2023-02-04T02:38:30Z</time></trkpt><trkpt lat="37.40737344685803" lon="139.11720062028803"><ele>1233.6878910809755</ele><time>2023-02-04T02:38:33Z</time></trkpt><trkpt lat="37.407357059131485" lon="139.11697235190076"><ele>1230.3383873961866</ele><time>2023-02-04T02:38:36Z</time></trkpt><trkpt lat="37.407338477289144" lon="139.1167314891082"><ele>1226.1189290182665</ele><time>2023-02-04T02:38:41Z</time></trkpt><trkpt lat="37.40726715048548" lon="139.11651678664086"><ele>1220.9007766498253</ele><time>2023-02-04T02:38:45Z</time></trkpt><trkpt lat="37.40727000560963" lon="139.11628642860475"><ele>1215.642519313842</ele><time>2023-02-04T02:39:54Z</time></trkpt><trkpt lat="37.40719453429071" lon="139.1160554768958"><ele>1208.4103367943317</ele><time>2023-02-04T02:39:59Z</time></trkpt><trkpt lat="37.407166204843186" lon="139.1158319242864"><ele>1205.0222456157207</ele><time>2023-02-04T02:40:03Z</time></trkpt><trkpt lat="37.40709132844203" lon="139.11561669490092"><ele>1199.9259597808123</ele><time>2023-02-04T02:40:10Z</time></trkpt><trkpt lat="37.40688382672465" lon="139.11559797766438"><ele>1197.9269803827628</ele><time>2023-02-04T02:40:16Z</time></trkpt><trkpt lat="37.40672049593662" lon="139.11539804645423"><ele>1189.5194924883544</ele><time>2023-02-04T02:40:20Z</time></trkpt><trkpt lat="37.40652984929264" lon="139.11526091679326"><ele>1181.4698426099494</ele><time>2023-02-04T02:40:23Z</time></trkpt><trkpt lat="37.4063101601501" lon="139.1151263611126"><ele>1176.440056387335</ele><time>2023-02-04T02:40:27Z</time></trkpt><trkpt lat="37.40617464219888" lon="139.1149215059669"><ele>1173.1245866222307</ele><time>2023-02-04T02:40:30Z</time></trkpt><trkpt lat="37.406064045866046" lon="139.11472537757584"><ele>1171.36672910396</ele><time>2023-02-04T02:40:33Z</time></trkpt><trkpt lat="37.405943569829155" lon="139.11453029568068"><ele>1170.2523696161807</ele><time>2023-02-04T02:40:37Z</time></trkpt><trkpt lat="37.405773871900145" lon="139.11431969578445"><ele>1165.2295723343268</ele><time>2023-02-04T02:40:41Z</time></trkpt><trkpt lat="37.40559729274249" lon="139.1141753274484"><ele>1161.8443440496922</ele><time>2023-02-04T02:40:44Z</time></trkpt><trkpt lat="37.4054194806339" lon="139.11399045395643"><ele>1159.3222561385483</ele><time>2023-02-04T02:40:48Z</time></trkpt><trkpt lat="37.40522909702205" lon="139.1138425387746"><ele>1156.3158401502296</ele><time>2023-02-04T02:40:52Z</time></trkpt><trkpt lat="37.40505789178487" lon="139.1137241637993"><ele>1153.311652940698</ele><time>2023-02-04T02:40:57Z</time></trkpt><trkpt lat="37.40496694449137" lon="139.11348307871"><ele>1142.14037736319</ele><time>2023-02-04T02:44:22Z</time></trkpt><trkpt lat="37.40479549271474" lon="139.11326572676998"><ele>1133.4127131160349</ele><time>2023-02-04T02:44:26Z</time></trkpt><trkpt lat="37.40457742709786" lon="139.11321141837968"><ele>1126.8924355367199</ele><time>2023-02-04T02:44:29Z</time></trkpt><trkpt lat="37.40440084639798" lon="139.11304044832113"><ele>1121.5207449961454</ele><time>2023-02-04T02:44:32Z</time></trkpt><trkpt lat="37.40421226827965" lon="139.11298232409587"><ele>1122.4977064961568</ele><time>2023-02-04T02:44:36Z</time></trkpt><trkpt lat="37.40414740409396" lon="139.11274214356715"><ele>1118.5708196870983</ele><time>2023-02-04T02:45:00Z</time></trkpt><trkpt lat="37.40411771142299" lon="139.11250906725164"><ele>1118.91783221066</ele><time>2023-02-04T02:45:50Z</time></trkpt><trkpt lat="37.404200900709505" lon="139.11230115825097"><ele>1108.9825097592548</ele><time>2023-02-04T02:45:53Z</time></trkpt><trkpt lat="37.40433394337292" lon="139.11205387361744"><ele>1098.2578224688768</ele><time>2023-02-04T02:45:57Z</time></trkpt><trkpt lat="37.40427120734085" lon="139.11182673699693"><ele>1089.8991589266807</ele><time>2023-02-04T02:46:00Z</time></trkpt><trkpt lat="37.404328675053826" lon="139.11154497864922"><ele>1083.37127801124</ele><time>2023-02-04T02:46:04Z</time></trkpt><trkpt lat="37.40426156357397" lon="139.1112947299241"><ele>1074.0661030346528</ele><time>2023-02-04T02:46:08Z</time></trkpt><trkpt lat="37.40424067319104" lon="139.11101901821655"><ele>1068.5342444302514</ele><time>2023-02-04T02:46:11Z</time></trkpt><trkpt lat="37.40417729097038" lon="139.1107087647387"><ele>1059.925857343711</ele><time>2023-02-04T02:46:14Z</time></trkpt><trkpt lat="37.40419452307431" lon="139.11039796151215"><ele>1054.8566845227033</ele><time>2023-02-04T02:46:17Z</time></trkpt><trkpt lat="37.40417549882882" lon="139.11014767554153"><ele>1050.7875366173685</ele><time>2023-02-04T02:46:20Z</time></trkpt><trkpt lat="37.404219660963726" lon="139.1098757957086"><ele>1044.4987578717992</ele><time>2023-02-04T02:46:23Z</time></trkpt><trkpt lat="37.40428588715989" lon="139.10961658116665"><ele>1040.7199000176042</ele><time>2023-02-04T02:46:29Z</time></trkpt><trkpt lat="37.40428907586124" lon="139.10935172901716"><ele>1036.9408690910786</ele><time>2023-02-04T02:46:34Z</time></trkpt><trkpt lat="37.4043387906309" lon="139.109107253335"><ele>1031.0570344245061</ele><time>2023-02-04T02:46:38Z</time></trkpt><trkpt lat="37.40438459403424" lon="139.10887564257743"><ele>1033.0216427128762</ele><time>2023-02-04T02:47:29Z</time></trkpt><trkpt lat="37.40442163835064" lon="139.10858768302518"><ele>1025.2834030902013</ele><time>2023-02-04T02:47:34Z</time></trkpt><trkpt lat="37.40446468874907" lon="139.10831358377004"><ele>1016.5038063302636</ele><time>2023-02-04T02:47:39Z</time></trkpt><trkpt lat="37.40440594933163" lon="139.1080929493333"><ele>1005.7513889195397</ele><time>2023-02-04T02:47:47Z</time></trkpt><trkpt lat="37.40431993482959" lon="139.10784326647567"><ele>992.0813009412959</ele><time>2023-02-04T02:47:50Z</time></trkpt><trkpt lat="37.40425673007533" lon="139.10761088877308"><ele>991.262778329663</ele><time>2023-02-04T02:48:40Z</time></trkpt><trkpt lat="37.40429964126785" lon="139.10734828267678"><ele>979.2945573907346</ele><time>2023-02-04T02:48:51Z</time></trkpt><trkpt lat="37.404283552651336" lon="139.10708125179065"><ele>970.6691775573418</ele><time>2023-02-04T02:48:55Z</time></trkpt><trkpt lat="37.40430786384678" lon="139.1068253958559"><ele>968.9061856763437</ele><time>2023-02-04T02:48:59Z</time></trkpt><trkpt lat="37.404347800608015" lon="139.1065957728183"><ele>966.3296251446009</ele><time>2023-02-04T02:49:04Z</time></trkpt><trkpt lat="37.404325716519345" lon="139.10634682105953"><ele>966.3047464871779</ele><time>2023-02-04T02:51:08Z</time></trkpt><trkpt lat="37.4042495845315" lon="139.1061276140412"><ele>961.5990821206942</ele><time>2023-02-04T02:51:15Z</time></trkpt><trkpt lat="37.40423901447497" lon="139.10589500952415"><ele>960.4319627825171</ele><time>2023-02-04T02:53:44Z</time></trkpt><trkpt lat="37.40421587728729" lon="139.10566203467044"><ele>957.0601667566225</ele><time>2023-02-04T02:53:55Z</time></trkpt><trkpt lat="37.40422480315763" lon="139.10542156587832"><ele>955.6527628079057</ele><time>2023-02-04T02:54:27Z</time></trkpt><trkpt lat="37.40417108036844" lon="139.10518074429552"><ele>950.304681177251</ele><time>2023-02-04T02:54:42Z</time></trkpt><trkpt lat="37.40420091101073" lon="139.10495398559172"><ele>947.0278550237417</ele><time>2023-02-04T02:54:54Z</time></trkpt><trkpt lat="37.40430185524505" lon="139.1047558262586"><ele>947.4268401525915</ele><time>2023-02-04T02:55:55Z</time></trkpt><trkpt lat="37.40435544281854" lon="139.10453681144668"><ele>943.5308973221108</ele><time>2023-02-04T02:56:20Z</time></trkpt><trkpt lat="37.40446957390573" lon="139.10435012756565"><ele>935.7994580334052</ele><time>2023-02-04T02:57:55Z</time></trkpt><trkpt lat="37.40453319146803" lon="139.10413580116813"><ele>933.1711461301893</ele><time>2023-02-04T02:58:19Z</time></trkpt><trkpt lat="37.40461138953484" lon="139.10390014827965"><ele>927.0510301077738</ele><time>2023-02-04T02:58:26Z</time></trkpt><trkpt lat="37.40466317952022" lon="139.103662934888"><ele>917.1529004145414</ele><time>2023-02-04T02:58:32Z</time></trkpt><trkpt lat="37.40468307926289" lon="139.10343843769704"><ele>916.1391717074439</ele><time>2023-02-04T02:58:38Z</time></trkpt><trkpt lat="37.404753391690114" lon="139.10320410620142"><ele>907.1650260277092</ele><time>2023-02-04T02:59:04Z</time></trkpt><trkpt lat="37.40479831921685" lon="139.1029543565757"><ele>901.9181403946131</ele><time>2023-02-04T02:59:08Z</time></trkpt><trkpt lat="37.40482429391921" lon="139.10270668970128"><ele>899.4939378798008</ele><time>2023-02-04T02:59:17Z</time></trkpt><trkpt lat="37.404910001851334" lon="139.10250151804658"><ele>896.0940625136718</ele><time>2023-02-04T02:59:24Z</time></trkpt><trkpt lat="37.40492211997344" lon="139.10226955386884"><ele>890.4143739426509</ele><time>2023-02-04T02:59:29Z</time></trkpt><trkpt lat="37.40497264353112" lon="139.1020472549724"><ele>885.7355777760968</ele><time>2023-02-04T02:59:35Z</time></trkpt><trkpt lat="37.40504222897321" lon="139.10180080057623"><ele>881.2420212998986</ele><time>2023-02-04T02:59:41Z</time></trkpt><trkpt lat="37.4050712089711" lon="139.1015601695039"><ele>875.3913073688745</ele><time>2023-02-04T02:59:45Z</time></trkpt><trkpt lat="37.40517140827826" lon="139.1013523618555"><ele>874.6114479079843</ele><time>2023-02-04T03:01:01Z</time></trkpt><trkpt lat="37.405225811436225" lon="139.10111702536307"><ele>868.4782897867262</ele><time>2023-02-04T03:01:06Z</time></trkpt><trkpt lat="37.40530930952346" lon="139.100893395299"><ele>861.0062036719173</ele><time>2023-02-04T03:01:15Z</time></trkpt><trkpt lat="37.405419253836044" lon="139.10071240788616"><ele>855.1604549819604</ele><time>2023-02-04T03:01:32Z</time></trkpt><trkpt lat="37.4053779398075" lon="139.10046847071627"><ele>847.6045239409432</ele><time>2023-02-04T03:01:47Z</time></trkpt><trkpt lat="37.405427425760635" lon="139.10023735191172"><ele>841.6673056129366</ele><time>2023-02-04T03:01:52Z</time></trkpt><trkpt lat="37.405488523980964" lon="139.10001731325443"><ele>838.7042463943362</ele><time>2023-02-04T03:01:59Z</time></trkpt><trkpt lat="37.40557598530501" lon="139.0998193413709"><ele>835.3350608246401</ele><time>2023-02-04T03:02:19Z</time></trkpt><trkpt lat="37.40565655665816" lon="139.09960834631408"><ele>828.6672042636201</ele><time>2023-02-04T03:02:29Z</time></trkpt><trkpt lat="37.405656230377836" lon="139.09934821496844"><ele>819.6641239961609</ele><time>2023-02-04T03:02:36Z</time></trkpt><trkpt lat="37.405590556393705" lon="139.0991220402617"><ele>813.3110173419118</ele><time>2023-02-04T03:02:40Z</time></trkpt><trkpt lat="37.40560814039925" lon="139.09887755922645"><ele>813.6642871871591</ele><time>2023-02-04T03:02:47Z</time></trkpt><trkpt lat="37.40553381069114" lon="139.09865286774786"><ele>806.502704593353</ele><time>2023-02-04T03:02:52Z</time></trkpt><trkpt lat="37.405541269327436" lon="139.09836117370875"><ele>802.2166907498613</ele><time>2023-02-04T03:03:08Z</time></trkpt><trkpt lat="37.405333431483875" lon="139.09834156811453"><ele>787.1995606254786</ele><time>2023-02-04T03:03:18Z</time></trkpt><trkpt lat="37.4051711247132" lon="139.09812743076736"><ele>768.4088961202651</ele><time>2023-02-04T03:03:24Z</time></trkpt><trkpt lat="37.40512278660755" lon="139.0978972057229"><ele>765.8896629661322</ele><time>2023-02-04T03:03:29Z</time></trkpt><trkpt lat="37.405079017527584" lon="139.0976691939144"><ele>761.7216948475689</ele><time>2023-02-04T03:03:57Z</time></trkpt><trkpt lat="37.40512169651805" lon="139.09744351254378"><ele>753.2681043390185</ele><time>2023-02-04T03:04:23Z</time></trkpt><trkpt lat="37.40524436135112" lon="139.0972219889584"><ele>741.2249045902863</ele><time>2023-02-04T03:04:27Z</time></trkpt><trkpt lat="37.40503163776018" lon="139.0971698182768"><ele>730.5716561730951</ele><time>2023-02-04T03:04:30Z</time></trkpt><trkpt lat="37.40490479144523" lon="139.0969907166309"><ele>728.1568714883178</ele><time>2023-02-04T03:05:14Z</time></trkpt><trkpt lat="37.40486556880989" lon="139.09675758502723"><ele>711.6174786593765</ele><time>2023-02-04T03:05:19Z</time></trkpt><trkpt lat="37.40481131429117" lon="139.09651791376163"><ele>701.4907080885023</ele><time>2023-02-04T03:05:41Z</time></trkpt><trkpt lat="37.404717268528" lon="139.09627897639078"><ele>693.0172744821757</ele><time>2023-02-04T03:05:45Z</time></trkpt><trkpt lat="37.40455441902339" lon="139.09614675865132"><ele>689.054929302074</ele><time>2023-02-04T03:05:56Z</time></trkpt><trkpt lat="37.404467214726" lon="139.09594715283887"><ele>690.8173751132563</ele><time>2023-02-04T03:07:05Z</time></trkpt><trkpt lat="37.40437877306229" lon="139.09574928852834"><ele>679.5560533124954</ele><time>2023-02-04T03:08:32Z</time></trkpt><trkpt lat="37.40426624720695" lon="139.0955328814225"><ele>676.7163750268519</ele><time>2023-02-04T03:09:24Z</time></trkpt><trkpt lat="37.404107734914916" lon="139.0953633859489"><ele>668.5635264739394</ele><time>2023-02-04T03:09:30Z</time></trkpt><trkpt lat="37.40399566075354" lon="139.09515523862112"><ele>662.5293080583215</ele><time>2023-02-04T03:09:51Z</time></trkpt><trkpt lat="37.40397003444373" lon="139.09490751721754"><ele>657.1579434638843</ele><time>2023-02-04T03:09:57Z</time></trkpt><trkpt lat="37.403977757988876" lon="139.0946629442262"><ele>645.1864184094593</ele><time>2023-02-04T03:10:13Z</time></trkpt><trkpt lat="37.40394085949887" lon="139.09442970377714"><ele>639.6671547750011</ele><time>2023-02-04T03:10:18Z</time></trkpt><trkpt lat="37.40385026004924" lon="139.09417647683674"><ele>634.5222022105008</ele><time>2023-02-04T03:10:33Z</time></trkpt><trkpt lat="37.403680038162435" lon="139.0940199423191"><ele>621.9359649373218</ele><time>2023-02-04T03:10:38Z</time></trkpt><trkpt lat="37.40351729469593" lon="139.09382246808767"><ele>612.5467654308304</ele><time>2023-02-04T03:10:41Z</time></trkpt><trkpt lat="37.40344717812069" lon="139.09361242800927"><ele>606.3775810226798</ele><time>2023-02-04T03:11:00Z</time></trkpt><trkpt lat="37.4035221729079" lon="139.09340612292903"><ele>593.469235708937</ele><time>2023-02-04T03:11:41Z</time></trkpt><trkpt lat="37.40337310393964" lon="139.0932572012034"><ele>598.9994406579062</ele><time>2023-02-04T03:12:24Z</time></trkpt><trkpt lat="37.40346854426775" lon="139.09303417361772"><ele>590.9859739821404</ele><time>2023-02-04T03:12:53Z</time></trkpt><trkpt lat="37.40340979587974" lon="139.0928101304122"><ele>585.6853221775964</ele><time>2023-02-04T03:14:06Z</time></trkpt><trkpt lat="37.403235539239745" lon="139.09270779236232"><ele>587.810568199493</ele><time>2023-02-04T03:14:43Z</time></trkpt><trkpt lat="37.403127642876576" lon="139.09251708890636"><ele>585.8626261372119</ele><time>2023-02-04T03:14:51Z</time></trkpt><trkpt lat="37.40300481322804" lon="139.0923324332865"><ele>583.9957190779969</ele><time>2023-02-04T03:14:56Z</time></trkpt><trkpt lat="37.40287326139422" lon="139.09214509414477"><ele>580.6446357555687</ele><time>2023-02-04T03:15:03Z</time></trkpt><trkpt lat="37.402682979645405" lon="139.09212486885053"><ele>578.3370289579034</ele><time>2023-02-04T03:15:13Z</time></trkpt><trkpt lat="37.40250333882692" lon="139.09218708847663"><ele>576.7366916025057</ele><time>2023-02-04T03:15:24Z</time></trkpt><trkpt lat="37.4023183904903" lon="139.09223024936998"><ele>572.3031197795644</ele><time>2023-02-04T03:15:52Z</time></trkpt><trkpt lat="37.40213446951213" lon="139.09217342058562"><ele>568.759772141464</ele><time>2023-02-04T03:17:46Z</time></trkpt><trkpt lat="37.401989281145326" lon="139.092025305122"><ele>568.3012774987146</ele><time>2023-02-04T03:18:07Z</time></trkpt><trkpt lat="37.401837857614076" lon="139.09190036388998"><ele>571.8150861896574</ele><time>2023-02-04T03:18:27Z</time></trkpt><trkpt lat="37.401653884367875" lon="139.09185959010082"><ele>568.3306667078286</ele><time>2023-02-04T03:20:22Z</time></trkpt><trkpt lat="37.40147513740155" lon="139.0918987141653"><ele>563.9668586170301</ele><time>2023-02-04T03:22:13Z</time></trkpt><trkpt lat="37.401455062240636" lon="139.09167245376386"><ele>558.7242727074772</ele><time>2023-02-04T03:24:02Z</time></trkpt><trkpt lat="37.40137692968679" lon="139.09145348482684"><ele>558.1529715023935</ele><time>2023-02-04T03:24:21Z</time></trkpt><trkpt lat="37.40126722459727" lon="139.09125673036158"><ele>558.1255271667615</ele><time>2023-02-04T03:24:33Z</time></trkpt><trkpt lat="37.401153667017134" lon="139.0910740895809"><ele>558.4082762328908</ele><time>2023-02-04T03:24:46Z</time></trkpt><trkpt lat="37.400995304758226" lon="139.0909117727876"><ele>553.4142409712076</ele><time>2023-02-04T03:24:55Z</time></trkpt><trkpt lat="37.40081688484504" lon="139.0907741409713"><ele>549.5158336637542</ele><time>2023-02-04T03:25:01Z</time></trkpt><trkpt lat="37.40062412886748" lon="139.0906469167948"><ele>546.1487848693505</ele><time>2023-02-04T03:25:06Z</time></trkpt><trkpt lat="37.400422694690654" lon="139.09057850030348"><ele>542.8353315684944</ele><time>2023-02-04T03:25:11Z</time></trkpt><trkpt lat="37.400247394223115" lon="139.09052127931554"><ele>540.1699460465461</ele><time>2023-02-04T03:25:16Z</time></trkpt><trkpt lat="37.400059239349346" lon="139.09044415349678"><ele>538.0104283196852</ele><time>2023-02-04T03:25:21Z</time></trkpt><trkpt lat="37.399880896483815" lon="139.09036494705882"><ele>537.134180185385</ele><time>2023-02-04T03:25:28Z</time></trkpt><trkpt lat="37.399699232448825" lon="139.09028022836316"><ele>535.8673219038174</ele><time>2023-02-04T03:25:36Z</time></trkpt><trkpt lat="37.39951447678676" lon="139.0901901321894"><ele>533.7995842993259</ele><time>2023-02-04T03:25:44Z</time></trkpt><trkpt lat="37.39935610908295" lon="139.09007689793717"><ele>532.924190018326</ele><time>2023-02-04T03:25:54Z</time></trkpt><trkpt lat="37.399173853609405" lon="139.08995517850695"><ele>530.7088183304295</ele><time>2023-02-04T03:26:01Z</time></trkpt><trkpt lat="37.39899909297568" lon="139.08984357596322"><ele>528.9651270667091</ele><time>2023-02-04T03:26:07Z</time></trkpt><trkpt lat="37.39881954993096" lon="139.0897546052228"><ele>525.4964149417356</ele><time>2023-02-04T03:26:12Z</time></trkpt><trkpt lat="37.3986376684409" lon="139.08974038955677"><ele>522.9235688317567</ele><time>2023-02-04T03:26:16Z</time></trkpt><trkpt lat="37.39846327314403" lon="139.08983321303117"><ele>521.5349847143516</ele><time>2023-02-04T03:26:22Z</time></trkpt><trkpt lat="37.398284792465745" lon="139.08975105303801"><ele>520.8214885396883</ele><time>2023-02-04T03:26:29Z</time></trkpt><trkpt lat="37.39813768801617" lon="139.08961914334435"><ele>518.8419259861112</ele><time>2023-02-04T03:27:08Z</time></trkpt><trkpt lat="37.397978891183534" lon="139.08949806495391"><ele>517.2289790734649</ele><time>2023-02-04T03:27:36Z</time></trkpt><trkpt lat="37.397804789946946" lon="139.08943819812464"><ele>522.3667534040287</ele><time>2023-02-04T03:28:11Z</time></trkpt><trkpt lat="37.397650813502615" lon="139.0895725419399"><ele>521.9862463213503</ele><time>2023-02-04T03:30:23Z</time></trkpt><trkpt lat="37.397482580637046" lon="139.08948980082906"><ele>526.6686396067962</ele><time>2023-02-04T03:39:42Z</time></trkpt><trkpt lat="37.397378244908154" lon="139.08930129109794"><ele>524.9073778912425</ele><time>2023-02-04T03:40:17Z</time></trkpt><trkpt lat="37.39725686176494" lon="139.0891288650172"><ele>522.7773580653593</ele><time>2023-02-04T03:41:01Z</time></trkpt><trkpt lat="37.39713469755862" lon="139.08895729376857"><ele>519.6724805384874</ele><time>2023-02-04T03:41:27Z</time></trkpt><trkpt lat="37.39701747644861" lon="139.08877837854615"><ele>512.992805512622</ele><time>2023-02-04T03:42:19Z</time></trkpt><trkpt lat="37.396889743105945" lon="139.0886053858072"><ele>512.2839235579595</ele><time>2023-02-04T03:42:49Z</time></trkpt><trkpt lat="37.396717718514815" lon="139.0885210476848"><ele>510.10917679965496</ele><time>2023-02-04T03:46:14Z</time></trkpt><trkpt lat="37.39656160592537" lon="139.08840301894227"><ele>504.69141876045614</ele><time>2023-02-04T03:46:48Z</time></trkpt><trkpt lat="37.39639336150379" lon="139.08830022609604"><ele>502.40239529218525</ele><time>2023-02-04T03:47:06Z</time></trkpt><trkpt lat="37.39622698479794" lon="139.0881872486158"><ele>501.9517529932782</ele><time>2023-02-04T03:48:22Z</time></trkpt><trkpt lat="37.3960538419973" lon="139.0881230446718"><ele>501.8600369738415</ele><time>2023-02-04T03:48:42Z</time></trkpt><trkpt lat="37.39586889024917" lon="139.0881379998538"><ele>500.0171365849674</ele><time>2023-02-04T03:49:06Z</time></trkpt><trkpt lat="37.39568402388924" lon="139.08815510356763"><ele>497.0185261582956</ele><time>2023-02-04T03:49:28Z</time></trkpt><trkpt lat="37.39550707187167" lon="139.088209609789"><ele>492.5085243145004</ele><time>2023-02-04T03:51:17Z</time></trkpt><trkpt lat="37.39533993389004" lon="139.08830945676416"><ele>489.2010304713622</ele><time>2023-02-04T03:51:40Z</time></trkpt><trkpt lat="37.39516121471417" lon="139.0883662854733"><ele>490.42181719187647</ele><time>2023-02-04T03:52:13Z</time></trkpt><trkpt lat="37.39498434682483" lon="139.0884111005119"><ele>489.45650816801935</ele><time>2023-02-04T03:53:02Z</time></trkpt><trkpt lat="37.39480661697165" lon="139.08846565451495"><ele>492.2844538167119</ele><time>2023-02-04T03:53:24Z</time></trkpt><trkpt lat="37.39462383534411" lon="139.08850204317403"><ele>494.0280471146107</ele><time>2023-02-04T03:53:50Z</time></trkpt><trkpt lat="37.39445945874599" lon="139.0885966130147"><ele>493.4240028448403</ele><time>2023-02-04T03:54:13Z</time></trkpt><trkpt lat="37.39427629559726" lon="139.08856973556206"><ele>494.337586235255</ele><time>2023-02-04T03:54:38Z</time></trkpt><trkpt lat="37.3941028265291" lon="139.0884792889896"><ele>492.1092189885676</ele><time>2023-02-04T03:55:04Z</time></trkpt><trkpt lat="37.39395147937856" lon="139.08835531330774"><ele>493.55184043664485</ele><time>2023-02-04T03:55:25Z</time></trkpt><trkpt lat="37.39385799185536" lon="139.0881564480219"><ele>492.51644083764404</ele><time>2023-02-04T03:55:50Z</time></trkpt><trkpt lat="37.393838350819614" lon="139.08792604568882"><ele>495.9791745338589</ele><time>2023-02-04T03:56:15Z</time></trkpt><trkpt lat="37.3939586085107" lon="139.08775515973656"><ele>498.30352462176234</ele><time>2023-02-04T03:57:05Z</time></trkpt><trkpt lat="37.394034970588756" lon="139.08753580717223"><ele>499.5151575654745</ele><time>2023-02-04T03:57:29Z</time></trkpt><trkpt lat="37.39411601617745" lon="139.08733046272607"><ele>500.9486244013533</ele><time>2023-02-04T03:58:10Z</time></trkpt><trkpt lat="37.39428909929935" lon="139.0872569107539"><ele>500.6731972740963</ele><time>2023-02-04T03:58:31Z</time></trkpt><trkpt lat="37.39446368493598" lon="139.08719577129685"><ele>493.7647405490279</ele><time>2023-02-04T03:58:53Z</time></trkpt><trkpt lat="37.3945618224657" lon="139.08699843936685"><ele>489.71879294514656</ele><time>2023-02-04T04:00:01Z</time></trkpt><trkpt lat="37.39456628763081" lon="139.0867688800876"><ele>492.1551058664918</ele><time>2023-02-04T04:00:38Z</time></trkpt><trkpt lat="37.394635090414006" lon="139.08654259218042"><ele>495.53496220335364</ele><time>2023-02-04T04:01:14Z</time></trkpt><trkpt lat="37.39448376902735" lon="139.08666653631167"><ele>496.5583884594962</ele><time>2023-02-04T04:02:29Z</time></trkpt><trkpt lat="37.39466954460961" lon="139.08665726108904"><ele>495.46645065397024</ele><time>2023-02-04T04:05:43Z</time></trkpt><trkpt lat="37.39485095362827" lon="139.08662158901245"><ele>491.65313758328557</ele><time>2023-02-04T04:06:02Z</time></trkpt><trkpt lat="37.39501983728682" lon="139.08652116220136"><ele>484.45758765842766</ele><time>2023-02-04T04:06:30Z</time></trkpt><trkpt lat="37.39510114577498" lon="139.08631812775448"><ele>477.5257510971278</ele><time>2023-02-04T04:08:00Z</time></trkpt><trkpt lat="37.39516582778855" lon="139.08609876024556"><ele>473.1696295235306</ele><time>2023-02-04T04:08:18Z</time></trkpt><trkpt lat="37.39521527539414" lon="139.0858614568272"><ele>472.6545941848308</ele><time>2023-02-04T04:08:35Z</time></trkpt><trkpt lat="37.39529682481557" lon="139.08565350906437"><ele>472.5118912998587</ele><time>2023-02-04T04:08:58Z</time></trkpt><trkpt lat="37.39534486879415" lon="139.08543278739836"><ele>466.3335900362581</ele><time>2023-02-04T04:09:49Z</time></trkpt><trkpt lat="37.39537444536911" lon="139.0852046932542"><ele>466.9607427781448</ele><time>2023-02-04T04:11:00Z</time></trkpt><trkpt lat="37.395442411416624" lon="139.08498741310262"><ele>465.4039675248787</ele><time>2023-02-04T04:11:42Z</time></trkpt><trkpt lat="37.39545820049447" lon="139.0847562640843"><ele>464.1564935389906</ele><time>2023-02-04T04:12:07Z</time></trkpt><trkpt lat="37.39549542224356" lon="139.084531907678"><ele>467.57403926178813</ele><time>2023-02-04T04:13:11Z</time></trkpt><trkpt lat="37.39545009533351" lon="139.0843115214511"><ele>467.12220104411244</ele><time>2023-02-04T04:14:18Z</time></trkpt><trkpt lat="37.39539879766934" lon="139.08408726409982"><ele>473.8991576824337</ele><time>2023-02-04T04:15:31Z</time></trkpt><trkpt lat="37.39533638286126" lon="139.0838711489075"><ele>468.3393001500517</ele><time>2023-02-04T04:15:59Z</time></trkpt><trkpt lat="37.39526168064957" lon="139.08365780548803"><ele>464.03392771538347</ele><time>2023-02-04T04:16:07Z</time></trkpt><trkpt lat="37.395176363557134" lon="139.0834247354904"><ele>461.1220421064645</ele><time>2023-02-04T04:16:14Z</time></trkpt><trkpt lat="37.395090840977254" lon="139.0832063886408"><ele>459.7476261854172</ele><time>2023-02-04T04:16:22Z</time></trkpt><trkpt lat="37.39500344786277" lon="139.0829945885372"><ele>456.14043042063713</ele><time>2023-02-04T04:16:49Z</time></trkpt><trkpt lat="37.39488224771846" lon="139.08281745647935"><ele>459.3368025450036</ele><time>2023-02-04T04:17:24Z</time></trkpt><trkpt lat="37.39476351891799" lon="139.08263901126008"><ele>462.3755352953449</ele><time>2023-02-04T04:17:43Z</time></trkpt><trkpt lat="37.39463018558259" lon="139.0824690240345"><ele>461.7574069565162</ele><time>2023-02-04T04:18:00Z</time></trkpt><trkpt lat="37.39451378173695" lon="139.0822793580943"><ele>456.3835204131901</ele><time>2023-02-04T04:19:00Z</time></trkpt><trkpt lat="37.39436791760723" lon="139.08214113746894"><ele>456.467781284824</ele><time>2023-02-04T04:19:13Z</time></trkpt><trkpt lat="37.39424511049765" lon="139.08197543182018"><ele>458.4515040582046</ele><time>2023-02-04T04:19:25Z</time></trkpt><trkpt lat="37.39418466917003" lon="139.0818257959038"><ele>453.058053644374</ele><time>2023-02-04T04:20:13Z</time></trkpt><trkpt lat="37.39409801151303" lon="139.08162187235754"><ele>449.7144265314564</ele><time>2023-02-04T04:23:21Z</time></trkpt><trkpt lat="37.39399446580805" lon="139.0814276385337"><ele>459.6445056563243</ele><time>2023-02-04T04:30:18Z</time></trkpt><trkpt lat="37.39398570951306" lon="139.0811968096087"><ele>459.34147250372916</ele><time>2023-02-04T04:31:06Z</time></trkpt><trkpt lat="37.39397543734222" lon="139.08096078237165"><ele>461.01874373387545</ele><time>2023-02-04T04:31:54Z</time></trkpt><trkpt lat="37.39392553718279" lon="139.0807244560543"><ele>458.9535656813532</ele><time>2023-02-04T04:33:04Z</time></trkpt><trkpt lat="37.39394147950356" lon="139.08049885161535"><ele>462.52134568896145</ele><time>2023-02-04T04:33:18Z</time></trkpt><trkpt lat="37.393948313338555" lon="139.08026887517735"><ele>462.8230711007491</ele><time>2023-02-04T04:33:44Z</time></trkpt><trkpt lat="37.39410338480321" lon="139.08014358231227"><ele>458.9365738630295</ele><time>2023-02-04T04:34:04Z</time></trkpt><trkpt lat="37.394084438222" lon="139.07991171338475"><ele>461.9383144900203</ele><time>2023-02-04T04:34:22Z</time></trkpt><trkpt lat="37.39405219290432" lon="139.07967921054498"><ele>458.33785233460367</ele><time>2023-02-04T04:35:29Z</time></trkpt><trkpt lat="37.39400443821546" lon="139.0794571521463"><ele>458.27866339776665</ele><time>2023-02-04T04:35:55Z</time></trkpt><trkpt lat="37.39385397548902" lon="139.0793304526234"><ele>458.7802532054484</ele><time>2023-02-04T04:36:23Z</time></trkpt><trkpt lat="37.39371820033993" lon="139.0791726823863"><ele>461.77371100336313</ele><time>2023-02-04T04:36:41Z</time></trkpt><trkpt lat="37.39359773828497" lon="139.07898137300091"><ele>464.06502559315413</ele><time>2023-02-04T04:37:09Z</time></trkpt><trkpt lat="37.39346410707266" lon="139.07881399580694"><ele>464.57693382538855</ele><time>2023-02-04T04:37:42Z</time></trkpt><trkpt lat="37.39337987988864" lon="139.07860996205332"><ele>462.3122434616089</ele><time>2023-02-04T04:38:06Z</time></trkpt><trkpt lat="37.39331405049566" lon="139.07839569495923"><ele>458.92106254119426</ele><time>2023-02-04T04:38:37Z</time></trkpt><trkpt lat="37.393161781432084" lon="139.07826386135235"><ele>460.82148072402924</ele><time>2023-02-04T04:39:05Z</time></trkpt><trkpt lat="37.39305868266246" lon="139.0780734281326"><ele>460.20720823388547</ele><time>2023-02-04T04:39:30Z</time></trkpt><trkpt lat="37.39299653723848" lon="139.07785563736067"><ele>460.47916076146066</ele><time>2023-02-04T04:39:55Z</time></trkpt><trkpt lat="37.392926486306905" lon="139.0776389151688"><ele>460.0432261703536</ele><time>2023-02-04T04:40:19Z</time></trkpt><trkpt lat="37.392928933647234" lon="139.0774068878691"><ele>460.0682975621894</ele><time>2023-02-04T04:40:39Z</time></trkpt><trkpt lat="37.39302658490932" lon="139.0772097506552"><ele>453.9379876041785</ele><time>2023-02-04T04:41:14Z</time></trkpt><trkpt lat="37.392989564554405" lon="139.07698541858545"><ele>455.59883020538837</ele><time>2023-02-04T04:41:38Z</time></trkpt><trkpt lat="37.392890321348396" lon="139.07679410631397"><ele>453.9604277741164</ele><time>2023-02-04T04:42:05Z</time></trkpt><trkpt lat="37.392872723516746" lon="139.07656797291054"><ele>452.03562400024384</ele><time>2023-02-04T04:42:54Z</time></trkpt><trkpt lat="37.39268749710972" lon="139.07651194855427"><ele>451.7412973511964</ele><time>2023-02-04T04:52:11Z</time></trkpt><trkpt lat="37.39250951312391" lon="139.07640022742757"><ele>447.3443791382015</ele><time>2023-02-04T04:52:20Z</time></trkpt><trkpt lat="37.392377284914424" lon="139.0762061075377"><ele>444.83367404621094</ele><time>2023-02-04T04:52:28Z</time></trkpt><trkpt lat="37.392288655778664" lon="139.0759526487319"><ele>441.70173249952495</ele><time>2023-02-04T04:52:35Z</time></trkpt><trkpt lat="37.3922811631703" lon="139.07572487174482"><ele>442.4464352633804</ele><time>2023-02-04T04:52:53Z</time></trkpt><trkpt lat="37.39242601239949" lon="139.075590372204"><ele>436.5670675924048</ele><time>2023-02-04T04:53:54Z</time></trkpt><trkpt lat="37.392582624516436" lon="139.07544270301108"><ele>429.38225770927966</ele><time>2023-02-04T04:54:21Z</time></trkpt><trkpt lat="37.39273741789657" lon="139.07531439384206"><ele>428.5333783943206</ele><time>2023-02-04T04:54:31Z</time></trkpt><trkpt lat="37.39271546135682" lon="139.07508791955775"><ele>426.57411501556635</ele><time>2023-02-04T04:54:48Z</time></trkpt><trkpt lat="37.392551882549014" lon="139.07489701124734"><ele>424.5908214459196</ele><time>2023-02-04T04:54:56Z</time></trkpt><trkpt lat="37.39248152318594" lon="139.0746860784709"><ele>420.0189242884517</ele><time>2023-02-04T04:55:00Z</time></trkpt><trkpt lat="37.39240710847468" lon="139.07444239816863"><ele>418.38038222212344</ele><time>2023-02-04T04:55:04Z</time></trkpt><trkpt lat="37.39230854727065" lon="139.07423012293253"><ele>416.6294967001304</ele><time>2023-02-04T04:55:09Z</time></trkpt><trkpt lat="37.39220869003033" lon="139.07401231511986"><ele>417.2671459177509</ele><time>2023-02-04T04:55:16Z</time></trkpt><trkpt lat="37.392129854888985" lon="139.07380402297633"><ele>416.37471883744</ele><time>2023-02-04T04:55:24Z</time></trkpt><trkpt lat="37.39203647489818" lon="139.07357736774213"><ele>414.842531924136</ele><time>2023-02-04T04:55:32Z</time></trkpt><trkpt lat="37.391940820616064" lon="139.07338426065766"><ele>412.98516339436173</ele><time>2023-02-04T04:55:41Z</time></trkpt><trkpt lat="37.39187502780929" lon="139.07316806113184"><ele>410.1861200844869</ele><time>2023-02-04T04:56:05Z</time></trkpt><trkpt lat="37.391753036119205" lon="139.07298809815336"><ele>409.6811273423955</ele><time>2023-02-04T04:56:16Z</time></trkpt><trkpt lat="37.391587946301215" lon="139.07286449819645"><ele>410.2644122345373</ele><time>2023-02-04T04:56:29Z</time></trkpt><trkpt lat="37.39141206119717" lon="139.0728084050194"><ele>409.2447868613526</ele><time>2023-02-04T04:56:38Z</time></trkpt><trkpt lat="37.39123073182255" lon="139.07276442170365"><ele>408.89779651910067</ele><time>2023-02-04T04:56:48Z</time></trkpt><trkpt lat="37.39104843028989" lon="139.07270977266327"><ele>408.68734781071544</ele><time>2023-02-04T04:56:57Z</time></trkpt><trkpt lat="37.39086033298846" lon="139.07266354577496"><ele>408.32667867839336</ele><time>2023-02-04T04:57:07Z</time></trkpt><trkpt lat="37.39068304701536" lon="139.07261124506988"><ele>409.9906323812902</ele><time>2023-02-04T04:57:38Z</time></trkpt></trkseg></trk></gpx>