<?xml version='1.0' encoding='UTF-8'?><gpx creator="YAMAP - https://yamap.com" xsi:schemaLocation="http://www.topografix.com/GPX/1/1 http://www.topografix.com/GPX/1/1/gpx.xsd" version="1.1" xmlns="http://www.topografix.com/GPX/1/1" xmlns:xsi="http://www.w3.org/2001/XMLSchema-instance"><metadata><bounds maxlat="36.836462931083936" maxlon="138.96297999557697" minlat="36.81853285061796" minlon="138.92976222255032"/></metadata><trk><name>熊穴沢ノ頭・谷川岳（トマの耳）</name><number>1</number><trkseg><trkpt lat="36.81853285061796" lon="138.9489488649752"><ele>1315.2227477794513</ele><time>2023-03-04T00:57:15Z</time></trkpt><trkpt lat="36.81867640352968" lon="138.94880636160937"><ele>1325.0247603291646</ele><time>2023-03-04T00:58:10Z</time></trkpt><trkpt lat="36.81876401146171" lon="138.94860858549174"><ele>1328.259248408489</ele><time>2023-03-04T00:58:46Z</time></trkpt><trkpt lat="36.81888954860773" lon="138.94842887523376"><ele>1338.389870820567</ele><time>2023-03-04T00:59:49Z</time></trkpt><trkpt lat="36.81899119701902" lon="138.94823474606605"><ele>1343.7930567320436</ele><time>2023-03-04T01:00:26Z</time></trkpt><trkpt lat="36.81904718169854" lon="138.94800708081496"><ele>1348.669068031013</ele><time>2023-03-04T01:00:58Z</time></trkpt><trkpt lat="36.819036582193014" lon="138.94777399430566"><ele>1351.5594835914671</ele><time>2023-03-04T01:01:32Z</time></trkpt><trkpt lat="36.81902323911301" lon="138.9475501718213"><ele>1359.6445349883288</ele><time>2023-03-04T01:02:07Z</time></trkpt><trkpt lat="36.81900210877242" lon="138.94732066499785"><ele>1364.4525917647406</ele><time>2023-03-04T01:02:50Z</time></trkpt><trkpt lat="36.81890330779591" lon="138.94713200714043"><ele>1377.8400316955522</ele><time>2023-03-04T01:04:09Z</time></trkpt><trkpt lat="36.818824657877144" lon="138.9469221355722"><ele>1389.1485522678122</ele><time>2023-03-04T01:05:17Z</time></trkpt><trkpt lat="36.81878555083073" lon="138.94669873979228"><ele>1398.1287885410711</ele><time>2023-03-04T01:06:34Z</time></trkpt><trkpt lat="36.81893585368193" lon="138.9465579616963"><ele>1406.5137981036678</ele><time>2023-03-04T01:07:40Z</time></trkpt><trkpt lat="36.819061427940426" lon="138.94638888101198"><ele>1422.2855551876128</ele><time>2023-03-04T01:09:04Z</time></trkpt><trkpt lat="36.81919813434251" lon="138.9462371942336"><ele>1436.186726774089</ele><time>2023-03-04T01:12:06Z</time></trkpt><trkpt lat="36.819259398124196" lon="138.9460243527003"><ele>1446.474818782881</ele><time>2023-03-04T01:13:40Z</time></trkpt><trkpt lat="36.8192192186909" lon="138.945797713731"><ele>1442.7636891435832</ele><time>2023-03-04T01:14:25Z</time></trkpt><trkpt lat="36.81921702382249" lon="138.94556821741108"><ele>1443.3920901799574</ele><time>2023-03-04T01:14:50Z</time></trkpt><trkpt lat="36.819156086957975" lon="138.94535184568755"><ele>1444.628225279972</ele><time>2023-03-04T01:15:15Z</time></trkpt><trkpt lat="36.81912016075663" lon="138.94512954463121"><ele>1446.9262143727392</ele><time>2023-03-04T01:15:41Z</time></trkpt><trkpt lat="36.819167178074885" lon="138.94491166773787"><ele>1446.9147538468242</ele><time>2023-03-04T01:16:06Z</time></trkpt><trkpt lat="36.819226605828696" lon="138.9446919662281"><ele>1440.91414450109</ele><time>2023-03-04T01:16:31Z</time></trkpt><trkpt lat="36.81932596107837" lon="138.94449072040425"><ele>1437.7559523880482</ele><time>2023-03-04T01:16:51Z</time></trkpt><trkpt lat="36.8194231398673" lon="138.94428454033667"><ele>1437.3597756363451</ele><time>2023-03-04T01:17:42Z</time></trkpt><trkpt lat="36.81952225113046" lon="138.94409318729947"><ele>1443.7790854107589</ele><time>2023-03-04T01:17:54Z</time></trkpt><trkpt lat="36.81970578153029" lon="138.94401308451214"><ele>1432.12397167366</ele><time>2023-03-04T01:18:14Z</time></trkpt><trkpt lat="36.81986846328969" lon="138.94389230481588"><ele>1422.3420118894428</ele><time>2023-03-04T01:18:34Z</time></trkpt><trkpt lat="36.82000128855948" lon="138.94373744582933"><ele>1420.06428946089</ele><time>2023-03-04T01:18:50Z</time></trkpt><trkpt lat="36.820126824456544" lon="138.94355716462198"><ele>1418.190349375829</ele><time>2023-03-04T01:19:07Z</time></trkpt><trkpt lat="36.82030362115111" lon="138.94345991581713"><ele>1416.0063994582742</ele><time>2023-03-04T01:19:25Z</time></trkpt><trkpt lat="36.82045258394372" lon="138.94331478788746"><ele>1415.6680510146543</ele><time>2023-03-04T01:19:45Z</time></trkpt><trkpt lat="36.82056976013543" lon="138.9431404208928"><ele>1418.4891390400007</ele><time>2023-03-04T01:20:34Z</time></trkpt><trkpt lat="36.82070721825532" lon="138.94298765120044"><ele>1422.0939687015489</ele><time>2023-03-04T01:21:08Z</time></trkpt><trkpt lat="36.82084380607064" lon="138.9428380233096"><ele>1432.4267378272489</ele><time>2023-03-04T01:22:48Z</time></trkpt><trkpt lat="36.82100196921657" lon="138.94271301750845"><ele>1438.7449750462547</ele><time>2023-03-04T01:23:57Z</time></trkpt><trkpt lat="36.821117714285194" lon="138.9425094635732"><ele>1444.881587728858</ele><time>2023-03-04T01:24:46Z</time></trkpt><trkpt lat="36.82128391678415" lon="138.94239636037037"><ele>1442.5807975996286</ele><time>2023-03-04T01:25:09Z</time></trkpt><trkpt lat="36.82134074071869" lon="138.94217704024143"><ele>1451.090542536229</ele><time>2023-03-04T01:25:31Z</time></trkpt><trkpt lat="36.821365004220546" lon="138.9419501961017"><ele>1453.2567726038396</ele><time>2023-03-04T01:25:55Z</time></trkpt><trkpt lat="36.821344098342074" lon="138.94170841374773"><ele>1454.9892530329525</ele><time>2023-03-04T01:26:17Z</time></trkpt><trkpt lat="36.82135367108132" lon="138.94148264546902"><ele>1456.5541174532846</ele><time>2023-03-04T01:26:51Z</time></trkpt><trkpt lat="36.821446179445616" lon="138.94128825501548"><ele>1462.8510467456654</ele><time>2023-03-04T01:27:27Z</time></trkpt><trkpt lat="36.8215858170392" lon="138.94113067179893"><ele>1462.3214378077537</ele><time>2023-03-04T01:28:00Z</time></trkpt><trkpt lat="36.82166357814877" lon="138.94092414440868"><ele>1466.6527114277706</ele><time>2023-03-04T01:28:53Z</time></trkpt><trkpt lat="36.821718347341864" lon="138.94069922508123"><ele>1467.09811649099</ele><time>2023-03-04T01:29:14Z</time></trkpt><trkpt lat="36.821847064133244" lon="138.94054185066807"><ele>1466.1419980078936</ele><time>2023-03-04T01:29:36Z</time></trkpt><trkpt lat="36.82200629320878" lon="138.94039982687715"><ele>1465.9208933888003</ele><time>2023-03-04T01:29:57Z</time></trkpt><trkpt lat="36.822100037442105" lon="138.94020579394302"><ele>1458.9680898822844</ele><time>2023-03-04T01:31:23Z</time></trkpt><trkpt lat="36.82217588763939" lon="138.93999332980465"><ele>1453.6955323023722</ele><time>2023-03-04T01:32:30Z</time></trkpt><trkpt lat="36.822285178307155" lon="138.93981504690788"><ele>1456.7074939524755</ele><time>2023-03-04T01:32:52Z</time></trkpt><trkpt lat="36.82241186672967" lon="138.93965039274934"><ele>1455.5218844320625</ele><time>2023-03-04T01:33:19Z</time></trkpt><trkpt lat="36.8223112725508" lon="138.93984908103303"><ele>1462.6984045282006</ele><time>2023-03-04T01:34:34Z</time></trkpt><trkpt lat="36.822394090077296" lon="138.93964397503714"><ele>1460.6482497984543</ele><time>2023-03-04T01:35:38Z</time></trkpt><trkpt lat="36.82250815109401" lon="138.93946981897756"><ele>1462.3974682586268</ele><time>2023-03-04T01:36:43Z</time></trkpt><trkpt lat="36.82259967747038" lon="138.93927517142305"><ele>1462.3876222362742</ele><time>2023-03-04T01:37:36Z</time></trkpt><trkpt lat="36.822727513620706" lon="138.93910478437857"><ele>1480.9124282253906</ele><time>2023-03-04T01:38:28Z</time></trkpt><trkpt lat="36.822727169232294" lon="138.93885162589302"><ele>1485.3249410279095</ele><time>2023-03-04T01:39:05Z</time></trkpt><trkpt lat="36.822696130651195" lon="138.93862163857764"><ele>1486.1119404388592</ele><time>2023-03-04T01:39:31Z</time></trkpt><trkpt lat="36.82273029198929" lon="138.93839890655806"><ele>1486.0656111687422</ele><time>2023-03-04T01:40:06Z</time></trkpt><trkpt lat="36.82274998639741" lon="138.93817368936334"><ele>1487.804947043769</ele><time>2023-03-04T01:40:27Z</time></trkpt><trkpt lat="36.822779138757454" lon="138.93793332079565"><ele>1486.4950240813196</ele><time>2023-03-04T01:40:47Z</time></trkpt><trkpt lat="36.82282971608054" lon="138.9377170836528"><ele>1483.5447417926043</ele><time>2023-03-04T01:41:08Z</time></trkpt><trkpt lat="36.8228947529351" lon="138.937499888862"><ele>1482.5566998338327</ele><time>2023-03-04T01:41:24Z</time></trkpt><trkpt lat="36.82293152248226" lon="138.9372751750413"><ele>1481.6455934215337</ele><time>2023-03-04T01:41:44Z</time></trkpt><trkpt lat="36.82300968308041" lon="138.93706676205414"><ele>1478.7896278463304</ele><time>2023-03-04T01:42:03Z</time></trkpt><trkpt lat="36.82309410034519" lon="138.93686343979655"><ele>1479.9172891443595</ele><time>2023-03-04T01:42:25Z</time></trkpt><trkpt lat="36.823144185313694" lon="138.9366402311488"><ele>1483.5586126446724</ele><time>2023-03-04T01:42:48Z</time></trkpt><trkpt lat="36.8231758943042" lon="138.93641875223605"><ele>1486.5142611218616</ele><time>2023-03-04T01:43:14Z</time></trkpt><trkpt lat="36.82319112119782" lon="138.93617014154137"><ele>1485.0575217595324</ele><time>2023-03-04T01:44:47Z</time></trkpt><trkpt lat="36.82327034778376" lon="138.9359612493659"><ele>1483.73270592466</ele><time>2023-03-04T01:45:07Z</time></trkpt><trkpt lat="36.82341194158443" lon="138.93580917989124"><ele>1484.8361134408042</ele><time>2023-03-04T01:45:26Z</time></trkpt><trkpt lat="36.82356346351079" lon="138.9356730858092"><ele>1486.1354987556115</ele><time>2023-03-04T01:47:03Z</time></trkpt><trkpt lat="36.82373072641735" lon="138.93558481593203"><ele>1487.9562750412151</ele><time>2023-03-04T01:47:56Z</time></trkpt><trkpt lat="36.82390421332845" lon="138.93548848370168"><ele>1495.3705059932545</ele><time>2023-03-04T01:48:36Z</time></trkpt><trkpt lat="36.82407758330881" lon="138.9354106635784"><ele>1503.8098297622055</ele><time>2023-03-04T01:49:29Z</time></trkpt><trkpt lat="36.824222367047376" lon="138.93527561229257"><ele>1512.7408712711185</ele><time>2023-03-04T01:50:10Z</time></trkpt><trkpt lat="36.82435374905644" lon="138.9350958969298"><ele>1522.6261115670204</ele><time>2023-03-04T01:52:36Z</time></trkpt><trkpt lat="36.824461343601385" lon="138.93491154311323"><ele>1534.2505507729948</ele><time>2023-03-04T01:53:18Z</time></trkpt><trkpt lat="36.82459038425183" lon="138.93475358457877"><ele>1538.0989844547585</ele><time>2023-03-04T01:53:56Z</time></trkpt><trkpt lat="36.82473382634373" lon="138.93461533423806"><ele>1540.372833840549</ele><time>2023-03-04T01:54:35Z</time></trkpt><trkpt lat="36.82484041453768" lon="138.9344304368457"><ele>1552.6348444670439</ele><time>2023-03-04T01:55:15Z</time></trkpt><trkpt lat="36.82497941069488" lon="138.93428716376064"><ele>1560.5400874940678</ele><time>2023-03-04T01:56:31Z</time></trkpt><trkpt lat="36.82516201593027" lon="138.9342599455763"><ele>1570.0940050017089</ele><time>2023-03-04T01:57:33Z</time></trkpt><trkpt lat="36.825337113093624" lon="138.93419938625055"><ele>1575.429455736652</ele><time>2023-03-04T01:59:17Z</time></trkpt><trkpt lat="36.825523513562594" lon="138.9341346800475"><ele>1588.45702772215</ele><time>2023-03-04T02:00:13Z</time></trkpt><trkpt lat="36.82569080432546" lon="138.93403312861093"><ele>1598.7559149451554</ele><time>2023-03-04T02:01:24Z</time></trkpt><trkpt lat="36.8258474347811" lon="138.9339160343185"><ele>1611.8530707713217</ele><time>2023-03-04T02:01:53Z</time></trkpt><trkpt lat="36.82602777034768" lon="138.9339298760979"><ele>1607.227805774659</ele><time>2023-03-04T02:02:26Z</time></trkpt><trkpt lat="36.82620185177282" lon="138.93386427600402"><ele>1610.5586922578514</ele><time>2023-03-04T02:02:54Z</time></trkpt><trkpt lat="36.82638218727325" lon="138.9337737737789"><ele>1615.6002749549225</ele><time>2023-03-04T02:03:31Z</time></trkpt><trkpt lat="36.82656074420261" lon="138.9337207983524"><ele>1622.173759099096</ele><time>2023-03-04T02:04:26Z</time></trkpt><trkpt lat="36.82675007002164" lon="138.93364039777475"><ele>1639.1373299043626</ele><time>2023-03-04T02:05:29Z</time></trkpt><trkpt lat="36.82694064536772" lon="138.9336597207837"><ele>1642.7741660233587</ele><time>2023-03-04T02:06:11Z</time></trkpt><trkpt lat="36.82712815190667" lon="138.93367338439091"><ele>1652.4458017554134</ele><time>2023-03-04T02:07:06Z</time></trkpt><trkpt lat="36.827287409372154" lon="138.93356289472908"><ele>1658.4197361916304</ele><time>2023-03-04T02:08:53Z</time></trkpt><trkpt lat="36.8274459492469" lon="138.93345544392793"><ele>1666.4859082726762</ele><time>2023-03-04T02:09:25Z</time></trkpt><trkpt lat="36.827602999920174" lon="138.93334065673307"><ele>1672.1363348951563</ele><time>2023-03-04T02:10:03Z</time></trkpt><trkpt lat="36.827718865481216" lon="138.93316282204583"><ele>1685.036940955557</ele><time>2023-03-04T02:10:47Z</time></trkpt><trkpt lat="36.827760095763615" lon="138.9329319201797"><ele>1694.687699291855</ele><time>2023-03-04T02:11:23Z</time></trkpt><trkpt lat="36.827909274037616" lon="138.93280539767088"><ele>1688.4664072878659</ele><time>2023-03-04T02:28:40Z</time></trkpt><trkpt lat="36.82796461897444" lon="138.9325921139563"><ele>1696.0950698368251</ele><time>2023-03-04T02:29:03Z</time></trkpt><trkpt lat="36.828114434570445" lon="138.93245354879164"><ele>1700.1296720989048</ele><time>2023-03-04T02:29:41Z</time></trkpt><trkpt lat="36.828193199090805" lon="138.93224443476157"><ele>1720.6539151975885</ele><time>2023-03-04T02:30:06Z</time></trkpt><trkpt lat="36.828374728680494" lon="138.93226038569432"><ele>1708.4043383812532</ele><time>2023-03-04T02:30:34Z</time></trkpt><trkpt lat="36.82855131843481" lon="138.9321600898424"><ele>1711.59571720846</ele><time>2023-03-04T02:31:02Z</time></trkpt><trkpt lat="36.82870439708864" lon="138.9320165288469"><ele>1718.1661446196958</ele><time>2023-03-04T02:31:42Z</time></trkpt><trkpt lat="36.82881189520901" lon="138.9318239724368"><ele>1723.2755980230868</ele><time>2023-03-04T02:32:30Z</time></trkpt><trkpt lat="36.82894467558309" lon="138.93167005965068"><ele>1734.9444345170632</ele><time>2023-03-04T02:33:12Z</time></trkpt><trkpt lat="36.829080038831684" lon="138.9315074499975"><ele>1736.3783000241965</ele><time>2023-03-04T02:33:44Z</time></trkpt><trkpt lat="36.82923755620021" lon="138.93137674426018"><ele>1744.6614056788385</ele><time>2023-03-04T02:34:26Z</time></trkpt><trkpt lat="36.82939745668065" lon="138.93126604440525"><ele>1749.3684534290805</ele><time>2023-03-04T02:35:18Z</time></trkpt><trkpt lat="36.82953986436467" lon="138.93112346574986"><ele>1762.410529048182</ele><time>2023-03-04T02:36:35Z</time></trkpt><trkpt lat="36.82970230056773" lon="138.93101718360109"><ele>1766.5996626187116</ele><time>2023-03-04T02:38:37Z</time></trkpt><trkpt lat="36.82986917175801" lon="138.93089152106896"><ele>1778.7455815840513</ele><time>2023-03-04T02:39:28Z</time></trkpt><trkpt lat="36.830033296959456" lon="138.93077343518885"><ele>1784.4150578575209</ele><time>2023-03-04T02:40:04Z</time></trkpt><trkpt lat="36.83020455208506" lon="138.93068496021672"><ele>1787.4801084324718</ele><time>2023-03-04T02:40:56Z</time></trkpt><trkpt lat="36.83039087055306" lon="138.9306253750622"><ele>1797.3160292841494</ele><time>2023-03-04T02:41:44Z</time></trkpt><trkpt lat="36.83056908427595" lon="138.93058376317208"><ele>1807.902032171376</ele><time>2023-03-04T02:42:58Z</time></trkpt><trkpt lat="36.83075570180006" lon="138.93055071783283"><ele>1810.5251039396971</ele><time>2023-03-04T02:44:01Z</time></trkpt><trkpt lat="36.83093994668363" lon="138.93055956024824"><ele>1826.8935979474336</ele><time>2023-03-04T02:45:16Z</time></trkpt><trkpt lat="36.8311212943431" lon="138.9305288582893"><ele>1831.4040261516348</ele><time>2023-03-04T02:46:10Z</time></trkpt><trkpt lat="36.831304042346865" lon="138.9305172814071"><ele>1838.9723580181599</ele><time>2023-03-04T02:47:13Z</time></trkpt><trkpt lat="36.83149711729185" lon="138.9305295293434"><ele>1845.5643019108102</ele><time>2023-03-04T02:50:33Z</time></trkpt><trkpt lat="36.83167701092611" lon="138.93048845203984"><ele>1849.3630995666608</ele><time>2023-03-04T02:51:20Z</time></trkpt><trkpt lat="36.831854922949276" lon="138.93044331284742"><ele>1868.6206689355895</ele><time>2023-03-04T02:52:51Z</time></trkpt><trkpt lat="36.832033797956534" lon="138.93048731432958"><ele>1877.7200218960643</ele><time>2023-03-04T02:55:25Z</time></trkpt><trkpt lat="36.83221399789528" lon="138.93040096192587"><ele>1893.3054441660643</ele><time>2023-03-04T02:58:34Z</time></trkpt><trkpt lat="36.8324052751344" lon="138.93036513761626"><ele>1900.3252955349162</ele><time>2023-03-04T02:59:59Z</time></trkpt><trkpt lat="36.83258823685077" lon="138.93036761824737"><ele>1905.184054914862</ele><time>2023-03-04T03:01:48Z</time></trkpt><trkpt lat="36.832763905884775" lon="138.93030296316093"><ele>1914.776117217727</ele><time>2023-03-04T03:02:34Z</time></trkpt><trkpt lat="36.83292513755336" lon="138.93016696917886"><ele>1909.5425778422505</ele><time>2023-03-04T03:03:37Z</time></trkpt><trkpt lat="36.8330116709571" lon="138.9299656020908"><ele>1917.835107930936</ele><time>2023-03-04T03:03:58Z</time></trkpt><trkpt lat="36.8331048262336" lon="138.92976222255032"><ele>1929.5732171460986</ele><time>2023-03-04T03:07:19Z</time></trkpt><trkpt lat="36.83317131691999" lon="138.92997284709145"><ele>1931.4682133914903</ele><time>2023-03-04T03:14:20Z</time></trkpt><trkpt lat="36.83334590909571" lon="138.93008673192557"><ele>1929.6792536452413</ele><time>2023-03-04T03:15:13Z</time></trkpt><trkpt lat="36.8335255574605" lon="138.930160027788"><ele>1937.0825486434624</ele><time>2023-03-04T03:15:49Z</time></trkpt><trkpt lat="36.83369739871231" lon="138.93022902229444"><ele>1942.9318762393668</ele><time>2023-03-04T03:16:20Z</time></trkpt><trkpt lat="36.833879806121004" lon="138.93028426847073"><ele>1950.0294646490365</ele><time>2023-03-04T03:16:53Z</time></trkpt><trkpt lat="36.834071036910295" lon="138.93028977014143"><ele>1954.8643701681867</ele><time>2023-03-04T03:17:22Z</time></trkpt><trkpt lat="36.83425050493175" lon="138.93026760030472"><ele>1956.3610138911754</ele><time>2023-03-04T03:17:51Z</time></trkpt><trkpt lat="36.83442929243015" lon="138.93029541959547"><ele>1968.3808679254726</ele><time>2023-03-04T03:18:20Z</time></trkpt><trkpt lat="36.83459132535859" lon="138.93040443262356"><ele>1983.5103720379993</ele><time>2023-03-04T03:19:42Z</time></trkpt><trkpt lat="36.8344461452754" lon="138.93026574938256"><ele>1976.8238404328004</ele><time>2023-03-04T03:24:24Z</time></trkpt><trkpt lat="36.834262952665355" lon="138.93030734140174"><ele>1976.6720367912203</ele><time>2023-03-04T03:24:51Z</time></trkpt><trkpt lat="36.83408054608235" lon="138.93032602624683"><ele>1974.2523796623573</ele><time>2023-03-04T03:25:04Z</time></trkpt><trkpt lat="36.833891923584964" lon="138.93033834541043"><ele>1969.456511085853</ele><time>2023-03-04T03:25:25Z</time></trkpt><trkpt lat="36.8337156346482" lon="138.9303958431695"><ele>1966.5912183625624</ele><time>2023-03-04T03:25:41Z</time></trkpt><trkpt lat="36.83359565415947" lon="138.93022039722814"><ele>1953.8529534032568</ele><time>2023-03-04T03:26:21Z</time></trkpt><trkpt lat="36.83341561833632" lon="138.93014756158672"><ele>1939.1652134675533</ele><time>2023-03-04T03:27:29Z</time></trkpt><trkpt lat="36.83324289251238" lon="138.93005706226222"><ele>1935.2565122321248</ele><time>2023-03-04T03:27:42Z</time></trkpt><trkpt lat="36.833119503980384" lon="138.92988992254374"><ele>1930.1938877953216</ele><time>2023-03-04T03:27:58Z</time></trkpt><trkpt lat="36.83296725459225" lon="138.92976841151696"><ele>1926.3870889917016</ele><time>2023-03-04T03:29:24Z</time></trkpt><trkpt lat="36.8328903466449" lon="138.92998255635624"><ele>1940.5233274176717</ele><time>2023-03-04T03:49:16Z</time></trkpt><trkpt lat="36.83276823136558" lon="138.93019154589572"><ele>1941.9899733001366</ele><time>2023-03-04T03:49:29Z</time></trkpt><trkpt lat="36.832634420209985" lon="138.93039748160675"><ele>1934.8312658658251</ele><time>2023-03-04T03:49:40Z</time></trkpt><trkpt lat="36.83250059673474" lon="138.93055082298446"><ele>1906.1939699836075</ele><time>2023-03-04T03:50:56Z</time></trkpt><trkpt lat="36.832321287928806" lon="138.93047899307123"><ele>1899.9644526569173</ele><time>2023-03-04T03:51:22Z</time></trkpt><trkpt lat="36.83224119786182" lon="138.93027803311594"><ele>1896.4184093857184</ele><time>2023-03-04T03:52:01Z</time></trkpt><trkpt lat="36.83212103548085" lon="138.93044677231575"><ele>1888.9726212965325</ele><time>2023-03-04T03:52:12Z</time></trkpt><trkpt lat="36.83194366743296" lon="138.93038379089685"><ele>1883.8492343593389</ele><time>2023-03-04T03:52:28Z</time></trkpt><trkpt lat="36.83189577872586" lon="138.93061018562062"><ele>1878.4802346732467</ele><time>2023-03-04T03:52:40Z</time></trkpt><trkpt lat="36.831747844382924" lon="138.93074500606667"><ele>1873.6500957328826</ele><time>2023-03-04T03:53:11Z</time></trkpt><trkpt lat="36.83157050810381" lon="138.9307918379975"><ele>1863.1803870098665</ele><time>2023-03-04T03:53:24Z</time></trkpt><trkpt lat="36.83137350116504" lon="138.9308074903649"><ele>1859.724918814376</ele><time>2023-03-04T03:54:08Z</time></trkpt><trkpt lat="36.83121842371903" lon="138.93068151877807"><ele>1856.6665510172024</ele><time>2023-03-04T03:54:17Z</time></trkpt><trkpt lat="36.83111552143928" lon="138.9304903232496"><ele>1844.0158431380987</ele><time>2023-03-04T03:55:32Z</time></trkpt><trkpt lat="36.83093613013645" lon="138.9304501123138"><ele>1833.1067270403728</ele><time>2023-03-04T03:55:48Z</time></trkpt><trkpt lat="36.830762384582655" lon="138.93052349149082"><ele>1828.4824736770242</ele><time>2023-03-04T03:56:46Z</time></trkpt><trkpt lat="36.83058339459304" lon="138.93048843500415"><ele>1816.7612708229572</ele><time>2023-03-04T03:57:15Z</time></trkpt><trkpt lat="36.830395072225635" lon="138.93050987941317"><ele>1810.1631039297208</ele><time>2023-03-04T03:57:36Z</time></trkpt><trkpt lat="36.8302192928901" lon="138.9306300187957"><ele>1811.92921365425</ele><time>2023-03-04T03:59:13Z</time></trkpt><trkpt lat="36.830045464047956" lon="138.93072820257584"><ele>1808.2476423894987</ele><time>2023-03-04T03:59:27Z</time></trkpt><trkpt lat="36.829891658403284" lon="138.93088924180663"><ele>1793.432200343348</ele><time>2023-03-04T03:59:38Z</time></trkpt><trkpt lat="36.82972306138342" lon="138.93097784162055"><ele>1778.5739757129923</ele><time>2023-03-04T04:00:01Z</time></trkpt><trkpt lat="36.8295648024566" lon="138.9311432697295"><ele>1767.7346082637087</ele><time>2023-03-04T04:00:21Z</time></trkpt><trkpt lat="36.82939880912895" lon="138.9312503146108"><ele>1759.5438578380272</ele><time>2023-03-04T04:00:26Z</time></trkpt><trkpt lat="36.82924557064964" lon="138.9314311117189"><ele>1751.1186135131866</ele><time>2023-03-04T04:00:51Z</time></trkpt><trkpt lat="36.829071266097884" lon="138.93155139774092"><ele>1743.8719222554937</ele><time>2023-03-04T04:00:57Z</time></trkpt><trkpt lat="36.828933296345355" lon="138.93171589058272"><ele>1737.1750170132145</ele><time>2023-03-04T04:01:07Z</time></trkpt><trkpt lat="36.82879212710339" lon="138.93190496292974"><ele>1731.6721189226955</ele><time>2023-03-04T04:01:28Z</time></trkpt><trkpt lat="36.82863844627969" lon="138.93205287519996"><ele>1726.4140057368204</ele><time>2023-03-04T04:01:33Z</time></trkpt><trkpt lat="36.828461135086506" lon="138.93220380380762"><ele>1720.3441404551268</ele><time>2023-03-04T04:01:57Z</time></trkpt><trkpt lat="36.828287951546244" lon="138.93226861108985"><ele>1718.2363273408264</ele><time>2023-03-04T04:02:01Z</time></trkpt><trkpt lat="36.828171211335814" lon="138.9324539066517"><ele>1709.870871303603</ele><time>2023-03-04T04:03:32Z</time></trkpt><trkpt lat="36.82800566122456" lon="138.93260048752146"><ele>1707.5032091569155</ele><time>2023-03-04T04:03:36Z</time></trkpt><trkpt lat="36.827887654400826" lon="138.93280637843947"><ele>1702.2096060840413</ele><time>2023-03-04T04:03:44Z</time></trkpt><trkpt lat="36.82775022848905" lon="138.93295351517557"><ele>1697.784561582841</ele><time>2023-03-04T04:04:24Z</time></trkpt><trkpt lat="36.82761588302988" lon="138.9331194740632"><ele>1693.9863472953439</ele><time>2023-03-04T04:04:36Z</time></trkpt><trkpt lat="36.82749328183438" lon="138.93329452615615"><ele>1689.2561745028943</ele><time>2023-03-04T04:04:46Z</time></trkpt><trkpt lat="36.8273854088536" lon="138.933480918936"><ele>1685.5376858497038</ele><time>2023-03-04T04:05:07Z</time></trkpt><trkpt lat="36.827282709623" lon="138.93367065453137"><ele>1675.6863509453833</ele><time>2023-03-04T04:06:08Z</time></trkpt><trkpt lat="36.827119589718656" lon="138.93382808147342"><ele>1666.9277854273096</ele><time>2023-03-04T04:06:20Z</time></trkpt><trkpt lat="36.826984469606046" lon="138.93399154683254"><ele>1657.7941288501024</ele><time>2023-03-04T04:06:34Z</time></trkpt><trkpt lat="36.826796000065045" lon="138.93389598850322"><ele>1636.9748819293454</ele><time>2023-03-04T04:08:04Z</time></trkpt><trkpt lat="36.82661892157067" lon="138.9337626454531"><ele>1635.695877267979</ele><time>2023-03-04T04:08:11Z</time></trkpt><trkpt lat="36.826439004189176" lon="138.93369432585303"><ele>1637.6948493039235</ele><time>2023-03-04T04:08:46Z</time></trkpt><trkpt lat="36.8262479440325" lon="138.93378475163243"><ele>1634.66158312466</ele><time>2023-03-04T04:08:53Z</time></trkpt><trkpt lat="36.82605852051553" lon="138.93383780346204"><ele>1630.9727548761293</ele><time>2023-03-04T04:08:56Z</time></trkpt><trkpt lat="36.825872082468244" lon="138.9338320902845"><ele>1626.4385516075417</ele><time>2023-03-04T04:09:10Z</time></trkpt><trkpt lat="36.825667193014105" lon="138.93389674478053"><ele>1621.135890038684</ele><time>2023-03-04T04:09:35Z</time></trkpt><trkpt lat="36.82547884608352" lon="138.93394422731032"><ele>1613.7352197328582</ele><time>2023-03-04T04:09:49Z</time></trkpt><trkpt lat="36.825299301838605" lon="138.93390130443626"><ele>1595.0729979695752</ele><time>2023-03-04T04:10:16Z</time></trkpt><trkpt lat="36.82511600705731" lon="138.93391153146442"><ele>1596.0906996857375</ele><time>2023-03-04T04:11:38Z</time></trkpt><trkpt lat="36.82498085801284" lon="138.93375358542173"><ele>1577.1782613042742</ele><time>2023-03-04T04:12:24Z</time></trkpt><trkpt lat="36.82479815778735" lon="138.93385742756675"><ele>1573.9569373261184</ele><time>2023-03-04T04:12:31Z</time></trkpt><trkpt lat="36.82471482245292" lon="138.93406214700042"><ele>1570.858153150417</ele><time>2023-03-04T04:12:51Z</time></trkpt><trkpt lat="36.82464372245179" lon="138.93428411148255"><ele>1569.5153077412397</ele><time>2023-03-04T04:13:19Z</time></trkpt><trkpt lat="36.82459450370699" lon="138.93455539616423"><ele>1561.9443364609033</ele><time>2023-03-04T04:13:54Z</time></trkpt><trkpt lat="36.824493483681586" lon="138.93474648524543"><ele>1559.5461214445531</ele><time>2023-03-04T04:14:00Z</time></trkpt><trkpt lat="36.824374139033345" lon="138.93494659630454"><ele>1556.744714348577</ele><time>2023-03-04T04:14:10Z</time></trkpt><trkpt lat="36.824284799670025" lon="138.93517729827366"><ele>1549.5409493492916</ele><time>2023-03-04T04:14:34Z</time></trkpt><trkpt lat="36.82413008552525" lon="138.93529516559428"><ele>1542.3179787117988</ele><time>2023-03-04T04:14:41Z</time></trkpt><trkpt lat="36.82414263436691" lon="138.935523562938"><ele>1533.6053270893171</ele><time>2023-03-04T04:15:22Z</time></trkpt><trkpt lat="36.8240156505604" lon="138.93535149755476"><ele>1519.0921414196491</ele><time>2023-03-04T04:16:15Z</time></trkpt><trkpt lat="36.823812435188984" lon="138.93545551529422"><ele>1511.6292650951073</ele><time>2023-03-04T04:16:21Z</time></trkpt><trkpt lat="36.82364857628143" lon="138.9355539462928"><ele>1508.4116415912285</ele><time>2023-03-04T04:16:24Z</time></trkpt><trkpt lat="36.82352525262911" lon="138.93573461014313"><ele>1516.096971633844</ele><time>2023-03-04T04:19:45Z</time></trkpt><trkpt lat="36.82339077128683" lon="138.93591660893193"><ele>1515.7184114037082</ele><time>2023-03-04T04:19:57Z</time></trkpt><trkpt lat="36.823333643021556" lon="138.93614099799234"><ele>1507.102623644285</ele><time>2023-03-04T04:20:30Z</time></trkpt><trkpt lat="36.82332409061671" lon="138.93590743139916"><ele>1508.509572728537</ele><time>2023-03-04T04:20:59Z</time></trkpt><trkpt lat="36.82336098874381" lon="138.93615101703134"><ele>1504.250277097337</ele><time>2023-03-04T04:21:56Z</time></trkpt><trkpt lat="36.823375198613824" lon="138.93638320220717"><ele>1501.453007709235</ele><time>2023-03-04T04:22:00Z</time></trkpt><trkpt lat="36.823337378853054" lon="138.93662481658976"><ele>1492.931275492534</ele><time>2023-03-04T04:22:08Z</time></trkpt><trkpt lat="36.82329260665599" lon="138.9368662070975"><ele>1486.6897803125903</ele><time>2023-03-04T04:22:14Z</time></trkpt><trkpt lat="36.823219785876624" lon="138.93716357533162"><ele>1479.5225933324546</ele><time>2023-03-04T04:22:19Z</time></trkpt><trkpt lat="36.82315743530194" lon="138.93741052676"><ele>1471.3599467072636</ele><time>2023-03-04T04:26:27Z</time></trkpt><trkpt lat="36.82317514249624" lon="138.93764526651114"><ele>1463.766092617996</ele><time>2023-03-04T04:26:36Z</time></trkpt><trkpt lat="36.823225715275996" lon="138.9378865974062"><ele>1454.9803255610168</ele><time>2023-03-04T04:26:49Z</time></trkpt><trkpt lat="36.82329900343537" lon="138.938118696953"><ele>1447.4840256348252</ele><time>2023-03-04T04:26:58Z</time></trkpt><trkpt lat="36.823484352009785" lon="138.93812551981472"><ele>1433.2855631085113</ele><time>2023-03-04T04:27:25Z</time></trkpt><trkpt lat="36.82362784453484" lon="138.93798988686137"><ele>1416.4041713429615</ele><time>2023-03-04T04:27:30Z</time></trkpt><trkpt lat="36.823642587608965" lon="138.93821697320553"><ele>1413.6653632344678</ele><time>2023-03-04T04:27:32Z</time></trkpt><trkpt lat="36.82378968926584" lon="138.9380609205818"><ele>1405.71349980589</ele><time>2023-03-04T04:27:38Z</time></trkpt><trkpt lat="36.823929519556245" lon="138.9382746292845"><ele>1386.3595353951678</ele><time>2023-03-04T04:31:11Z</time></trkpt><trkpt lat="36.82402242136705" lon="138.93848981986906"><ele>1379.5348903741688</ele><time>2023-03-04T04:31:16Z</time></trkpt><trkpt lat="36.824002156244156" lon="138.93873533475204"><ele>1381.0504658119753</ele><time>2023-03-04T04:32:05Z</time></trkpt><trkpt lat="36.824116835231244" lon="138.93893947029005"><ele>1369.159228688106</ele><time>2023-03-04T04:32:09Z</time></trkpt><trkpt lat="36.82428486196711" lon="138.9387794466176"><ele>1363.8240584796295</ele><time>2023-03-04T04:32:12Z</time></trkpt><trkpt lat="36.82446465620927" lon="138.93872975620351"><ele>1368.672966958955</ele><time>2023-03-04T04:32:57Z</time></trkpt><trkpt lat="36.82461420278062" lon="138.938937265022"><ele>1351.1782863819972</ele><time>2023-03-04T04:34:59Z</time></trkpt><trkpt lat="36.8246921271129" lon="138.93914477418178"><ele>1338.2667848384008</ele><time>2023-03-04T04:35:06Z</time></trkpt><trkpt lat="36.82480869026938" lon="138.93932558750728"><ele>1331.4226418733597</ele><time>2023-03-04T04:35:14Z</time></trkpt><trkpt lat="36.82498218862024" lon="138.93940305050324"><ele>1308.1806643493474</ele><time>2023-03-04T04:35:58Z</time></trkpt><trkpt lat="36.825157671084604" lon="138.9395008416322"><ele>1300.0325350649655</ele><time>2023-03-04T04:36:02Z</time></trkpt><trkpt lat="36.82512232318009" lon="138.93975705455205"><ele>1291.301773507148</ele><time>2023-03-04T04:36:38Z</time></trkpt><trkpt lat="36.82505149360728" lon="138.93998011899143"><ele>1284.5190024627373</ele><time>2023-03-04T04:36:41Z</time></trkpt><trkpt lat="36.825245375503464" lon="138.94007076536073"><ele>1269.0020409170538</ele><time>2023-03-04T04:36:45Z</time></trkpt><trkpt lat="36.82524234095524" lon="138.9403211791359"><ele>1262.4148690281436</ele><time>2023-03-04T04:36:48Z</time></trkpt><trkpt lat="36.825183105426724" lon="138.94058576177798"><ele>1248.709379476495</ele><time>2023-03-04T04:38:07Z</time></trkpt><trkpt lat="36.825163910657956" lon="138.94083310155568"><ele>1240.9882401069626</ele><time>2023-03-04T04:38:13Z</time></trkpt><trkpt lat="36.82518234682001" lon="138.9410710243355"><ele>1234.134214932099</ele><time>2023-03-04T04:38:44Z</time></trkpt><trkpt lat="36.82514611920244" lon="138.94129196789874"><ele>1235.2239133147523</ele><time>2023-03-04T04:43:27Z</time></trkpt><trkpt lat="36.82514052415469" lon="138.94151704690046"><ele>1236.1068580700085</ele><time>2023-03-04T04:48:03Z</time></trkpt><trkpt lat="36.8251699650551" lon="138.941743111543"><ele>1233.7311625480652</ele><time>2023-03-04T04:49:36Z</time></trkpt><trkpt lat="36.82516097015635" lon="138.94198026382216"><ele>1231.6326670888811</ele><time>2023-03-04T04:49:56Z</time></trkpt><trkpt lat="36.82518475882471" lon="138.9422072393333"><ele>1231.357149911113</ele><time>2023-03-04T04:53:55Z</time></trkpt><trkpt lat="36.82499434896934" lon="138.94230715778383"><ele>1213.0210912711918</ele><time>2023-03-04T04:54:20Z</time></trkpt><trkpt lat="36.82511349647309" lon="138.94249779012515"><ele>1200.1843893071637</ele><time>2023-03-04T04:54:27Z</time></trkpt><trkpt lat="36.82507769521852" lon="138.94273137952433"><ele>1182.2164865452796</ele><time>2023-03-04T04:54:34Z</time></trkpt><trkpt lat="36.82523237934794" lon="138.94288315390915"><ele>1174.7609317190945</ele><time>2023-03-04T04:54:38Z</time></trkpt><trkpt lat="36.82504793643732" lon="138.94288544994302"><ele>1173.0003685457632</ele><time>2023-03-04T04:54:41Z</time></trkpt><trkpt lat="36.82484234802732" lon="138.9429605932965"><ele>1173.1997226774693</ele><time>2023-03-04T04:55:41Z</time></trkpt><trkpt lat="36.82470497273634" lon="138.94314954296988"><ele>1170.8980269720778</ele><time>2023-03-04T04:55:45Z</time></trkpt><trkpt lat="36.82470224233712" lon="138.94339020951483"><ele>1164.5070727746934</ele><time>2023-03-04T04:55:50Z</time></trkpt><trkpt lat="36.82494888862203" lon="138.94341252372678"><ele>1150.8666036231443</ele><time>2023-03-04T04:56:11Z</time></trkpt><trkpt lat="36.824972046895425" lon="138.94367132040117"><ele>1140.6633496722206</ele><time>2023-03-04T04:56:15Z</time></trkpt><trkpt lat="36.8250335350165" lon="138.9439077373657"><ele>1132.5151148550212</ele><time>2023-03-04T04:56:20Z</time></trkpt><trkpt lat="36.82519404159431" lon="138.94404978999572"><ele>1122.3392218127847</ele><time>2023-03-04T04:56:26Z</time></trkpt><trkpt lat="36.82538379566261" lon="138.94415206858318"><ele>1118.2956998394802</ele><time>2023-03-04T04:56:29Z</time></trkpt><trkpt lat="36.82540508304472" lon="138.9443934201582"><ele>1108.4334728438407</ele><time>2023-03-04T04:56:35Z</time></trkpt><trkpt lat="36.825582237175986" lon="138.94444739055677"><ele>1100.0119679840282</ele><time>2023-03-04T04:56:47Z</time></trkpt><trkpt lat="36.82546834493433" lon="138.94465402948725"><ele>1095.2372742844746</ele><time>2023-03-04T04:57:51Z</time></trkpt><trkpt lat="36.82542323919111" lon="138.94493552927744"><ele>1089.016360271722</ele><time>2023-03-04T04:57:54Z</time></trkpt><trkpt lat="36.82533344268486" lon="138.94513207454514"><ele>1086.5051271095872</ele><time>2023-03-04T04:58:03Z</time></trkpt><trkpt lat="36.82525503456537" lon="138.94533433729728"><ele>1084.045304336585</ele><time>2023-03-04T04:58:07Z</time></trkpt><trkpt lat="36.825180839022735" lon="138.9455717672664"><ele>1080.4616513801739</ele><time>2023-03-04T04:58:12Z</time></trkpt><trkpt lat="36.82513761301134" lon="138.94579523367526"><ele>1078.335493098013</ele><time>2023-03-04T04:58:16Z</time></trkpt><trkpt lat="36.82507301698748" lon="138.94606766449934"><ele>1074.8017840096727</ele><time>2023-03-04T04:58:20Z</time></trkpt><trkpt lat="36.82495241378489" lon="138.94627203573506"><ele>1073.0997574245557</ele><time>2023-03-04T04:58:26Z</time></trkpt><trkpt lat="36.824789211774586" lon="138.94649106082946"><ele>1063.2816526256502</ele><time>2023-03-04T04:58:32Z</time></trkpt><trkpt lat="36.82478987290136" lon="138.9467309902909"><ele>1062.3368088183925</ele><time>2023-03-04T04:58:35Z</time></trkpt><trkpt lat="36.82481429694716" lon="138.94697465506576"><ele>1058.7538679540157</ele><time>2023-03-04T05:00:40Z</time></trkpt><trkpt lat="36.82485896280823" lon="138.94721124012833"><ele>1056.8122880738229</ele><time>2023-03-04T05:00:47Z</time></trkpt><trkpt lat="36.82483623011464" lon="138.94745895030437"><ele>1049.9267935706303</ele><time>2023-03-04T05:01:03Z</time></trkpt><trkpt lat="36.82489590291914" lon="138.94768441479775"><ele>1044.512416430749</ele><time>2023-03-04T05:01:07Z</time></trkpt><trkpt lat="36.825085102316486" lon="138.9477717168165"><ele>1041.4694376662374</ele><time>2023-03-04T05:01:13Z</time></trkpt><trkpt lat="36.82520422814374" lon="138.94794834832902"><ele>1037.5099354321137</ele><time>2023-03-04T05:01:23Z</time></trkpt><trkpt lat="36.825302712806234" lon="138.94818016391815"><ele>1030.6455706432462</ele><time>2023-03-04T05:01:28Z</time></trkpt><trkpt lat="36.825392454938715" lon="138.94838503740425"><ele>1029.4760628612712</ele><time>2023-03-04T05:01:35Z</time></trkpt><trkpt lat="36.82553877407564" lon="138.9486010243889"><ele>1025.716614187695</ele><time>2023-03-04T05:01:52Z</time></trkpt><trkpt lat="36.82566695623559" lon="138.9487842506325"><ele>1023.4397857571021</ele><time>2023-03-04T05:01:57Z</time></trkpt><trkpt lat="36.825817742678595" lon="138.94894482169687"><ele>1017.9128069337457</ele><time>2023-03-04T05:02:20Z</time></trkpt><trkpt lat="36.825965988931515" lon="138.94914516721812"><ele>1010.9226764049381</ele><time>2023-03-04T05:02:25Z</time></trkpt><trkpt lat="36.82611981328179" lon="138.9493604525807"><ele>1004.124945322983</ele><time>2023-03-04T05:02:30Z</time></trkpt><trkpt lat="36.82624633038088" lon="138.94958286621033"><ele>997.9181949002668</ele><time>2023-03-04T05:02:36Z</time></trkpt><trkpt lat="36.8263417142479" lon="138.94980458466512"><ele>994.8867261633277</ele><time>2023-03-04T05:02:57Z</time></trkpt><trkpt lat="36.82645496256389" lon="138.9499912362874"><ele>987.0144483540207</ele><time>2023-03-04T05:03:04Z</time></trkpt><trkpt lat="36.82654543661009" lon="138.95019043438944"><ele>979.6683137724176</ele><time>2023-03-04T05:03:12Z</time></trkpt><trkpt lat="36.826628141630394" lon="138.9504310259725"><ele>973.249988194555</ele><time>2023-03-04T05:03:17Z</time></trkpt><trkpt lat="36.82670683084988" lon="138.95066954021735"><ele>976.2137668319046</ele><time>2023-03-04T05:03:18Z</time></trkpt><trkpt lat="36.826850670309554" lon="138.95092209567363"><ele>969.7750281598419</ele><time>2023-03-04T05:03:22Z</time></trkpt><trkpt lat="36.82700174757779" lon="138.9511026002867"><ele>965.656687845476</ele><time>2023-03-04T05:03:26Z</time></trkpt><trkpt lat="36.82714690516615" lon="138.95125857241837"><ele>961.3096357611939</ele><time>2023-03-04T05:03:33Z</time></trkpt><trkpt lat="36.82723526913416" lon="138.95145774612442"><ele>959.1897841403261</ele><time>2023-03-04T05:04:32Z</time></trkpt><trkpt lat="36.82742270137861" lon="138.95138834984976"><ele>948.8160186810419</ele><time>2023-03-04T05:05:39Z</time></trkpt><trkpt lat="36.82759977154161" lon="138.95129015856512"><ele>927.588005239144</ele><time>2023-03-04T05:06:17Z</time></trkpt><trkpt lat="36.827528943121514" lon="138.95154565765682"><ele>923.9822168499231</ele><time>2023-03-04T05:06:26Z</time></trkpt><trkpt lat="36.82757511676967" lon="138.95177389702346"><ele>918.9104030793533</ele><time>2023-03-04T05:06:30Z</time></trkpt><trkpt lat="36.82746716448113" lon="138.95200307654903"><ele>917.018324338831</ele><time>2023-03-04T05:06:34Z</time></trkpt><trkpt lat="36.827431940624535" lon="138.95225066932903"><ele>911.8338407585397</ele><time>2023-03-04T05:06:38Z</time></trkpt><trkpt lat="36.82747096596634" lon="138.95251551471398"><ele>907.4668311951682</ele><time>2023-03-04T05:06:42Z</time></trkpt><trkpt lat="36.827530241216856" lon="138.95279088548864"><ele>905.3222525902092</ele><time>2023-03-04T05:06:46Z</time></trkpt><trkpt lat="36.8276965977636" lon="138.95296653340975"><ele>903.7318778047338</ele><time>2023-03-04T05:06:51Z</time></trkpt><trkpt lat="36.827846901209554" lon="138.95310254145514"><ele>899.3324541309848</ele><time>2023-03-04T05:06:55Z</time></trkpt><trkpt lat="36.82801866776269" lon="138.9532827005063"><ele>899.7448299881071</ele><time>2023-03-04T05:06:59Z</time></trkpt><trkpt lat="36.82812207457331" lon="138.95352580851068"><ele>894.1171071045101</ele><time>2023-03-04T05:07:03Z</time></trkpt><trkpt lat="36.82815823514734" lon="138.95377581429065"><ele>891.8997410163283</ele><time>2023-03-04T05:07:07Z</time></trkpt><trkpt lat="36.82826223481645" lon="138.9539745788947"><ele>885.2224354334176</ele><time>2023-03-04T05:07:51Z</time></trkpt><trkpt lat="36.82835131799696" lon="138.9542017890179"><ele>882.7879716707394</ele><time>2023-03-04T05:07:57Z</time></trkpt><trkpt lat="36.828296589574364" lon="138.95441671325813"><ele>872.2738288156688</ele><time>2023-03-04T05:08:03Z</time></trkpt><trkpt lat="36.82834910883069" lon="138.95463764224854"><ele>870.4735154649243</ele><time>2023-03-04T05:08:06Z</time></trkpt><trkpt lat="36.828421591703396" lon="138.95484506063505"><ele>870.6753033064306</ele><time>2023-03-04T05:08:10Z</time></trkpt><trkpt lat="36.82856351638537" lon="138.9550019694792"><ele>869.5575550021604</ele><time>2023-03-04T05:08:14Z</time></trkpt><trkpt lat="36.828668099822636" lon="138.95518452767578"><ele>868.0217790734023</ele><time>2023-03-04T05:08:18Z</time></trkpt><trkpt lat="36.8288182234757" lon="138.95534733332164"><ele>865.2547364579514</ele><time>2023-03-04T05:08:22Z</time></trkpt><trkpt lat="36.82891152104109" lon="138.95554831083447"><ele>865.4139067418873</ele><time>2023-03-04T05:08:26Z</time></trkpt><trkpt lat="36.82894477232582" lon="138.95578100064625"><ele>862.849598845467</ele><time>2023-03-04T05:08:31Z</time></trkpt><trkpt lat="36.829018567471195" lon="138.95599304684097"><ele>858.9317360408604</ele><time>2023-03-04T05:08:39Z</time></trkpt><trkpt lat="36.829011684481785" lon="138.9562506903675"><ele>862.1340706460178</ele><time>2023-03-04T05:08:51Z</time></trkpt><trkpt lat="36.829131893846316" lon="138.95645291391722"><ele>862.3715995112434</ele><time>2023-03-04T05:08:55Z</time></trkpt><trkpt lat="36.82922071517533" lon="138.9566506427012"><ele>862.2719790674746</ele><time>2023-03-04T05:09:02Z</time></trkpt><trkpt lat="36.82933710265536" lon="138.95689989459723"><ele>858.3030952718109</ele><time>2023-03-04T05:09:19Z</time></trkpt><trkpt lat="36.82943134849946" lon="138.95715489821316"><ele>853.3932831147686</ele><time>2023-03-04T05:09:23Z</time></trkpt><trkpt lat="36.82955318583545" lon="138.95737864152875"><ele>847.5448130127043</ele><time>2023-03-04T05:09:26Z</time></trkpt><trkpt lat="36.82961376567671" lon="138.95760772014287"><ele>846.4098429176956</ele><time>2023-03-04T05:09:29Z</time></trkpt><trkpt lat="36.82982392749444" lon="138.95766952604933"><ele>839.0631733061746</ele><time>2023-03-04T05:09:32Z</time></trkpt><trkpt lat="36.83001522874219" lon="138.95771138026882"><ele>835.9562049936503</ele><time>2023-03-04T05:09:34Z</time></trkpt><trkpt lat="36.830248993880105" lon="138.95783205628283"><ele>828.4998016143218</ele><time>2023-03-04T05:09:37Z</time></trkpt><trkpt lat="36.83049753583107" lon="138.95791028177544"><ele>823.6494077546522</ele><time>2023-03-04T05:09:40Z</time></trkpt><trkpt lat="36.83068574159363" lon="138.95794818080782"><ele>820.9314173683524</ele><time>2023-03-04T05:09:42Z</time></trkpt><trkpt lat="36.83088731565878" lon="138.95804551874005"><ele>819.8650523405522</ele><time>2023-03-04T05:09:45Z</time></trkpt><trkpt lat="36.83108447831492" lon="138.95803840906825"><ele>818.5212953398004</ele><time>2023-03-04T05:09:48Z</time></trkpt><trkpt lat="36.83127213837873" lon="138.958162599897"><ele>816.5773540567607</ele><time>2023-03-04T05:09:51Z</time></trkpt><trkpt lat="36.83149817595204" lon="138.95819913145823"><ele>812.2857899926603</ele><time>2023-03-04T05:09:54Z</time></trkpt><trkpt lat="36.83172686321556" lon="138.95826281953862"><ele>806.4237340213731</ele><time>2023-03-04T05:09:57Z</time></trkpt><trkpt lat="36.83190475451721" lon="138.95822280616503"><ele>801.7988621564582</ele><time>2023-03-04T05:09:59Z</time></trkpt><trkpt lat="36.83212800759717" lon="138.95824293027468"><ele>797.5095560988411</ele><time>2023-03-04T05:10:01Z</time></trkpt><trkpt lat="36.8323339118746" lon="138.95826493885363"><ele>798.3032196285203</ele><time>2023-03-04T05:10:03Z</time></trkpt><trkpt lat="36.83249911523546" lon="138.95840936478015"><ele>796.762008368969</ele><time>2023-03-04T05:10:06Z</time></trkpt><trkpt lat="36.83268976969187" lon="138.95856180065888"><ele>791.1915546022356</ele><time>2023-03-04T05:10:10Z</time></trkpt><trkpt lat="36.832850218631386" lon="138.95870323522948"><ele>788.019628717564</ele><time>2023-03-04T05:10:13Z</time></trkpt><trkpt lat="36.83300408695447" lon="138.95884673776288"><ele>783.7583969226107</ele><time>2023-03-04T05:10:16Z</time></trkpt><trkpt lat="36.833201380741464" lon="138.95901283763195"><ele>781.4372242093086</ele><time>2023-03-04T05:10:19Z</time></trkpt><trkpt lat="36.83335930418695" lon="138.95926033160262"><ele>775.889500234276</ele><time>2023-03-04T05:10:22Z</time></trkpt><trkpt lat="36.83352338675918" lon="138.95936060586524"><ele>771.7209610678256</ele><time>2023-03-04T05:10:24Z</time></trkpt><trkpt lat="36.83370478353365" lon="138.9593926118767"><ele>768.9382616346702</ele><time>2023-03-04T05:10:26Z</time></trkpt><trkpt lat="36.833866531178714" lon="138.9595106374132"><ele>767.9564308486879</ele><time>2023-03-04T05:10:28Z</time></trkpt><trkpt lat="36.834130038433415" lon="138.95958219906083"><ele>764.5173657275736</ele><time>2023-03-04T05:10:31Z</time></trkpt><trkpt lat="36.834292737142874" lon="138.95971145804634"><ele>763.3437564317137</ele><time>2023-03-04T05:10:34Z</time></trkpt><trkpt lat="36.834455491624325" lon="138.95993121295564"><ele>757.5128431990743</ele><time>2023-03-04T05:10:38Z</time></trkpt><trkpt lat="36.83460039528791" lon="138.96016746969508"><ele>752.0635023210198</ele><time>2023-03-04T05:10:41Z</time></trkpt><trkpt lat="36.83468912562197" lon="138.96039048670997"><ele>749.3280039578676</ele><time>2023-03-04T05:10:44Z</time></trkpt><trkpt lat="36.834782714518965" lon="138.96059276270284"><ele>748.6621068902314</ele><time>2023-03-04T05:10:47Z</time></trkpt><trkpt lat="36.834786480288344" lon="138.96083386846598"><ele>746.1286323554814</ele><time>2023-03-04T05:10:51Z</time></trkpt><trkpt lat="36.83476861899389" lon="138.96108435575013"><ele>741.7699868194759</ele><time>2023-03-04T05:10:57Z</time></trkpt><trkpt lat="36.83485824329927" lon="138.9613173088746"><ele>739.6238915268332</ele><time>2023-03-04T05:11:03Z</time></trkpt><trkpt lat="36.83503152869222" lon="138.9614036667982"><ele>737.1179861659184</ele><time>2023-03-04T05:11:08Z</time></trkpt><trkpt lat="36.835192671319895" lon="138.96150554793593"><ele>742.857026363723</ele><time>2023-03-04T05:11:48Z</time></trkpt><trkpt lat="36.83537441892681" lon="138.96151494660114"><ele>743.2644995776936</ele><time>2023-03-04T05:13:40Z</time></trkpt><trkpt lat="36.835550301998175" lon="138.96158905136858"><ele>743.0409981990233</ele><time>2023-03-04T05:13:56Z</time></trkpt><trkpt lat="36.83571170904987" lon="138.9617070975959"><ele>742.0565172024071</ele><time>2023-03-04T05:14:14Z</time></trkpt><trkpt lat="36.835878573234424" lon="138.96182184000406"><ele>745.6766537241638</ele><time>2023-03-04T05:14:28Z</time></trkpt><trkpt lat="36.83601580711046" lon="138.9619746511525"><ele>748.2036939803511</ele><time>2023-03-04T05:14:50Z</time></trkpt><trkpt lat="36.83613839752782" lon="138.96215302625245"><ele>748.2718188371509</ele><time>2023-03-04T05:15:05Z</time></trkpt><trkpt lat="36.836266378297154" lon="138.96233110393072"><ele>745.1948593184352</ele><time>2023-03-04T05:15:22Z</time></trkpt><trkpt lat="36.836358057122936" lon="138.96254004023947"><ele>744.8611372327432</ele><time>2023-03-04T05:15:37Z</time></trkpt><trkpt lat="36.836408263278145" lon="138.962765868071"><ele>744.7640287959948</ele><time>2023-03-04T05:15:52Z</time></trkpt><trkpt lat="36.836462931083936" lon="138.96297999557697"><ele>745.631272867322</ele><time>2023-03-04T05:16:07Z</time></trkpt></trkseg></trk></gpx>