<?xml version='1.0' encoding='UTF-8'?><gpx creator="YAMAP - https://yamap.com" xsi:schemaLocation="http://www.topografix.com/GPX/1/1 http://www.topografix.com/GPX/1/1/gpx.xsd" version="1.1" xmlns="http://www.topografix.com/GPX/1/1" xmlns:xsi="http://www.w3.org/2001/XMLSchema-instance"><metadata><bounds maxlat="37.36344195787509" maxlon="139.23354013740737" minlat="37.34068066774909" minlon="139.18090226245548"/></metadata><trk><name>カヘヨノボッチ・前岳・浅草岳</name><number>1</number><trkseg><trkpt lat="37.36167148790123" lon="139.18127763137656"><ele>487.33950948063284</ele><time>2023-02-04T22:31:31Z</time></trkpt><trkpt lat="37.36177495519254" lon="139.18146306974072"><ele>489.43482054490596</ele><time>2023-02-04T22:31:56Z</time></trkpt><trkpt lat="37.361902375540275" lon="139.18163291494795"><ele>490.53212897013873</ele><time>2023-02-04T22:32:20Z</time></trkpt><trkpt lat="37.36202861350608" lon="139.18180543590142"><ele>492.87187237571925</ele><time>2023-02-04T22:32:41Z</time></trkpt><trkpt lat="37.362168164433974" lon="139.18195695525813"><ele>495.00436593126506</ele><time>2023-02-04T22:33:03Z</time></trkpt><trkpt lat="37.362305143535735" lon="139.182108933536"><ele>496.3608769774437</ele><time>2023-02-04T22:33:24Z</time></trkpt><trkpt lat="37.36243688769929" lon="139.18227857604737"><ele>497.21897272206843</ele><time>2023-02-04T22:33:46Z</time></trkpt><trkpt lat="37.36258310425573" lon="139.18241953091515"><ele>501.1003199769184</ele><time>2023-02-04T22:34:08Z</time></trkpt><trkpt lat="37.36275099589846" lon="139.18251672231975"><ele>501.2310877488926</ele><time>2023-02-04T22:34:35Z</time></trkpt><trkpt lat="37.362921801249385" lon="139.18262400688917"><ele>502.4272993095219</ele><time>2023-02-04T22:35:05Z</time></trkpt><trkpt lat="37.36305448724065" lon="139.18279191872645"><ele>502.10424301587045</ele><time>2023-02-04T22:35:32Z</time></trkpt><trkpt lat="37.363138270695735" lon="139.18299891243802"><ele>506.7268363367766</ele><time>2023-02-04T22:35:57Z</time></trkpt><trkpt lat="37.363160663223745" lon="139.1832253796705"><ele>512.7546810256317</ele><time>2023-02-04T22:36:18Z</time></trkpt><trkpt lat="37.36319066495709" lon="139.18345909299958"><ele>517.7352529130876</ele><time>2023-02-04T22:36:40Z</time></trkpt><trkpt lat="37.36321501166867" lon="139.18369367318016"><ele>519.2400049893185</ele><time>2023-02-04T22:37:09Z</time></trkpt><trkpt lat="37.363268147805115" lon="139.18392487631482"><ele>521.6527873445302</ele><time>2023-02-04T22:37:44Z</time></trkpt><trkpt lat="37.3633743324789" lon="139.18410876701114"><ele>522.4519763495773</ele><time>2023-02-04T22:38:09Z</time></trkpt><trkpt lat="37.36336228179186" lon="139.1843412698582"><ele>521.2459972826764</ele><time>2023-02-04T22:39:16Z</time></trkpt><trkpt lat="37.36320472279889" lon="139.18447127619436"><ele>523.796085793525</ele><time>2023-02-04T22:39:33Z</time></trkpt><trkpt lat="37.36308807484867" lon="139.1846449322366"><ele>525.8771365899593</ele><time>2023-02-04T22:39:53Z</time></trkpt><trkpt lat="37.363100867465135" lon="139.18487048165292"><ele>528.5477782394737</ele><time>2023-02-04T22:40:18Z</time></trkpt><trkpt lat="37.36295018451216" lon="139.1850001901715"><ele>529.8085902482271</ele><time>2023-02-04T22:40:44Z</time></trkpt><trkpt lat="37.362776825731" lon="139.1850653167674"><ele>537.2997270207852</ele><time>2023-02-04T22:41:50Z</time></trkpt><trkpt lat="37.362595077673575" lon="139.1850465265646"><ele>545.3113549146801</ele><time>2023-02-04T22:45:26Z</time></trkpt><trkpt lat="37.36248818074927" lon="139.18522879263503"><ele>550.5220749238506</ele><time>2023-02-04T22:46:04Z</time></trkpt><trkpt lat="37.36245450513169" lon="139.1854512469373"><ele>553.5831813151017</ele><time>2023-02-04T22:46:32Z</time></trkpt><trkpt lat="37.36236452701068" lon="139.18565767913418"><ele>557.0294620906934</ele><time>2023-02-04T22:46:58Z</time></trkpt><trkpt lat="37.36228350418071" lon="139.18586442172503"><ele>564.9264003681019</ele><time>2023-02-04T22:47:22Z</time></trkpt><trkpt lat="37.36227998424716" lon="139.18610504671045"><ele>565.5315400501713</ele><time>2023-02-04T22:47:59Z</time></trkpt><trkpt lat="37.36227846584899" lon="139.18633814511304"><ele>569.270960777998</ele><time>2023-02-04T22:48:23Z</time></trkpt><trkpt lat="37.36225020351182" lon="139.18656553115866"><ele>569.6197482096031</ele><time>2023-02-04T22:48:59Z</time></trkpt><trkpt lat="37.36219179493095" lon="139.18678418716507"><ele>570.5362389460206</ele><time>2023-02-04T22:49:33Z</time></trkpt><trkpt lat="37.3621784356664" lon="139.18701450075426"><ele>573.9462734954432</ele><time>2023-02-04T22:50:02Z</time></trkpt><trkpt lat="37.36216887207783" lon="139.1872489570594"><ele>575.6238904576749</ele><time>2023-02-04T22:50:37Z</time></trkpt><trkpt lat="37.362185368597785" lon="139.18749086023715"><ele>576.1023986889049</ele><time>2023-02-04T22:51:00Z</time></trkpt><trkpt lat="37.36213826953193" lon="139.187711130331"><ele>581.3599492525682</ele><time>2023-02-04T22:51:29Z</time></trkpt><trkpt lat="37.36211094360021" lon="139.1879352369817"><ele>583.8767344681546</ele><time>2023-02-04T22:52:06Z</time></trkpt><trkpt lat="37.36203560175316" lon="139.18814402620612"><ele>590.3331630621105</ele><time>2023-02-04T22:52:36Z</time></trkpt><trkpt lat="37.36196220088891" lon="139.18835139845726"><ele>596.066313658841</ele><time>2023-02-04T22:53:05Z</time></trkpt><trkpt lat="37.36188817087127" lon="139.18855898325862"><ele>600.3978335540742</ele><time>2023-02-04T22:53:37Z</time></trkpt><trkpt lat="37.36179468643658" lon="139.18875200885208"><ele>604.6191977215931</ele><time>2023-02-04T22:54:12Z</time></trkpt><trkpt lat="37.36171351260448" lon="139.1889562754884"><ele>608.994721621275</ele><time>2023-02-04T22:54:54Z</time></trkpt><trkpt lat="37.3616996783952" lon="139.18919083335092"><ele>612.8002311568707</ele><time>2023-02-04T22:55:22Z</time></trkpt><trkpt lat="37.36167649484566" lon="139.18941749071107"><ele>615.9052347578108</ele><time>2023-02-04T23:03:36Z</time></trkpt><trkpt lat="37.36151866443213" lon="139.18954263037077"><ele>618.7872989047319</ele><time>2023-02-04T23:04:07Z</time></trkpt><trkpt lat="37.36135502437433" lon="139.18939937097397"><ele>624.0781561778858</ele><time>2023-02-04T23:04:48Z</time></trkpt><trkpt lat="37.36120732426536" lon="139.18953524858054"><ele>629.4525675959885</ele><time>2023-02-04T23:05:08Z</time></trkpt><trkpt lat="37.36127891064916" lon="139.18932416286273"><ele>630.6814800892025</ele><time>2023-02-04T23:05:29Z</time></trkpt><trkpt lat="37.36112173547888" lon="139.18946492926105"><ele>634.075245777145</ele><time>2023-02-04T23:05:58Z</time></trkpt><trkpt lat="37.361079975328664" lon="139.1897005655796"><ele>639.0797780510038</ele><time>2023-02-04T23:06:50Z</time></trkpt><trkpt lat="37.361128177625815" lon="139.1899181768999"><ele>637.9891552403569</ele><time>2023-02-04T23:07:17Z</time></trkpt><trkpt lat="37.36116025431682" lon="139.1901514068732"><ele>638.941075924784</ele><time>2023-02-04T23:07:45Z</time></trkpt><trkpt lat="37.361247517076116" lon="139.19035794669264"><ele>642.122975694947</ele><time>2023-02-04T23:08:06Z</time></trkpt><trkpt lat="37.36138799126904" lon="139.19051456249468"><ele>643.2102166172117</ele><time>2023-02-04T23:08:37Z</time></trkpt><trkpt lat="37.36144580464029" lon="139.19073947704936"><ele>642.0175320962444</ele><time>2023-02-04T23:09:02Z</time></trkpt><trkpt lat="37.36155067519544" lon="139.19093034338695"><ele>639.8697739113122</ele><time>2023-02-04T23:09:29Z</time></trkpt><trkpt lat="37.36156067990578" lon="139.1911686053293"><ele>639.4156372398138</ele><time>2023-02-04T23:09:53Z</time></trkpt><trkpt lat="37.36149992144264" lon="139.19140011606873"><ele>640.760217230767</ele><time>2023-02-04T23:10:21Z</time></trkpt><trkpt lat="37.361453691434285" lon="139.19161922669645"><ele>641.8184130424634</ele><time>2023-02-04T23:10:40Z</time></trkpt><trkpt lat="37.36138520187263" lon="139.19183998682635"><ele>643.7062828596681</ele><time>2023-02-04T23:11:03Z</time></trkpt><trkpt lat="37.36145385618531" lon="139.19205107843266"><ele>643.2643592376262</ele><time>2023-02-04T23:11:22Z</time></trkpt><trkpt lat="37.361390784860134" lon="139.1922732130924"><ele>643.7870243992656</ele><time>2023-02-04T23:11:56Z</time></trkpt><trkpt lat="37.361381695829856" lon="139.19251359323258"><ele>644.6742722969502</ele><time>2023-02-04T23:12:23Z</time></trkpt><trkpt lat="37.36125144498276" lon="139.19267059936954"><ele>645.2814574595541</ele><time>2023-02-04T23:12:43Z</time></trkpt><trkpt lat="37.361077319824545" lon="139.19273106625448"><ele>648.2609866466373</ele><time>2023-02-04T23:12:57Z</time></trkpt><trkpt lat="37.360914946401884" lon="139.19284879005085"><ele>653.1474110167474</ele><time>2023-02-04T23:13:22Z</time></trkpt><trkpt lat="37.36074546439529" lon="139.1929557502644"><ele>655.2933638263494</ele><time>2023-02-04T23:13:47Z</time></trkpt><trkpt lat="37.360563311922974" lon="139.1929951182294"><ele>655.1975110108033</ele><time>2023-02-04T23:14:23Z</time></trkpt><trkpt lat="37.360396635323674" lon="139.1931003428995"><ele>657.2931765113026</ele><time>2023-02-04T23:14:43Z</time></trkpt><trkpt lat="37.36026557642023" lon="139.19325877090654"><ele>657.1290018688887</ele><time>2023-02-04T23:15:10Z</time></trkpt><trkpt lat="37.36017783120053" lon="139.19346289378112"><ele>655.0153126576915</ele><time>2023-02-04T23:15:38Z</time></trkpt><trkpt lat="37.35999870907041" lon="139.19348965922526"><ele>656.9613380124792</ele><time>2023-02-04T23:15:57Z</time></trkpt><trkpt lat="37.35982035096345" lon="139.19353149417537"><ele>661.2445731442422</ele><time>2023-02-04T23:18:04Z</time></trkpt><trkpt lat="37.35966047428401" lon="139.19364333000192"><ele>661.9596820045263</ele><time>2023-02-04T23:18:35Z</time></trkpt><trkpt lat="37.35947839853734" lon="139.1937038950184"><ele>662.3803495839238</ele><time>2023-02-04T23:19:00Z</time></trkpt><trkpt lat="37.359359667316966" lon="139.1938874641682"><ele>663.9217292927206</ele><time>2023-02-04T23:19:27Z</time></trkpt><trkpt lat="37.35926717993323" lon="139.1940888075736"><ele>662.1077721137553</ele><time>2023-02-04T23:19:57Z</time></trkpt><trkpt lat="37.35908753405898" lon="139.19412359509516"><ele>660.5216985987499</ele><time>2023-02-04T23:20:19Z</time></trkpt><trkpt lat="37.35891411258298" lon="139.19421649100502"><ele>663.6616056598723</ele><time>2023-02-04T23:20:45Z</time></trkpt><trkpt lat="37.35880577919457" lon="139.1943969410983"><ele>667.2379704406485</ele><time>2023-02-04T23:21:12Z</time></trkpt><trkpt lat="37.358713036844044" lon="139.19459184716663"><ele>667.3587732724845</ele><time>2023-02-04T23:21:33Z</time></trkpt><trkpt lat="37.35865953420365" lon="139.1948181912418"><ele>668.5178939560428</ele><time>2023-02-04T23:21:56Z</time></trkpt><trkpt lat="37.35853947334015" lon="139.19499916270675"><ele>668.0699860779569</ele><time>2023-02-04T23:22:16Z</time></trkpt><trkpt lat="37.35849275548105" lon="139.1952197949219"><ele>674.831428155303</ele><time>2023-02-04T23:22:54Z</time></trkpt><trkpt lat="37.358518492718815" lon="139.19544469232434"><ele>677.6466687507927</ele><time>2023-02-04T23:23:26Z</time></trkpt><trkpt lat="37.358362960743705" lon="139.195560839481"><ele>680.9505993798375</ele><time>2023-02-04T23:24:19Z</time></trkpt><trkpt lat="37.3582355298854" lon="139.19572515423124"><ele>685.7587932310998</ele><time>2023-02-04T23:24:48Z</time></trkpt><trkpt lat="37.35812403617944" lon="139.1959114504988"><ele>692.9764856174588</ele><time>2023-02-04T23:25:24Z</time></trkpt><trkpt lat="37.35793896065432" lon="139.19598221579753"><ele>703.0675560934469</ele><time>2023-02-04T23:26:13Z</time></trkpt><trkpt lat="37.35781759317363" lon="139.19615645049183"><ele>710.7499757399783</ele><time>2023-02-04T23:26:56Z</time></trkpt><trkpt lat="37.35785907095405" lon="139.1963961961872"><ele>716.485454893671</ele><time>2023-02-04T23:27:42Z</time></trkpt><trkpt lat="37.35770102342073" lon="139.19651748234415"><ele>718.9700718196109</ele><time>2023-02-04T23:28:45Z</time></trkpt><trkpt lat="37.35754906315261" lon="139.196639479252"><ele>722.9258248368278</ele><time>2023-02-04T23:29:37Z</time></trkpt><trkpt lat="37.357415548198645" lon="139.19679884652507"><ele>727.9855283694342</ele><time>2023-02-04T23:30:04Z</time></trkpt><trkpt lat="37.3572480591831" lon="139.19690723512096"><ele>729.400747962296</ele><time>2023-02-04T23:30:28Z</time></trkpt><trkpt lat="37.357098448519075" lon="139.19703716088904"><ele>735.2121672499925</ele><time>2023-02-04T23:31:06Z</time></trkpt><trkpt lat="37.356923335519205" lon="139.19698221182094"><ele>743.4496576804668</ele><time>2023-02-04T23:32:39Z</time></trkpt><trkpt lat="37.35677561395564" lon="139.19711422491008"><ele>749.3375261444598</ele><time>2023-02-04T23:33:24Z</time></trkpt><trkpt lat="37.35659537603466" lon="139.19710072863168"><ele>755.8737923912704</ele><time>2023-02-04T23:34:11Z</time></trkpt><trkpt lat="37.356410150410404" lon="139.19713281081764"><ele>761.0317737963051</ele><time>2023-02-04T23:35:05Z</time></trkpt><trkpt lat="37.356394511533196" lon="139.19736252668275"><ele>763.6070388238877</ele><time>2023-02-04T23:35:53Z</time></trkpt><trkpt lat="37.35621950148883" lon="139.1974480949778"><ele>768.1927820183337</ele><time>2023-02-04T23:36:28Z</time></trkpt><trkpt lat="37.35607813121397" lon="139.19759246245604"><ele>773.6912815542892</ele><time>2023-02-04T23:37:07Z</time></trkpt><trkpt lat="37.355975191522255" lon="139.1977793127015"><ele>782.083978026174</ele><time>2023-02-04T23:37:50Z</time></trkpt><trkpt lat="37.35579226693847" lon="139.19776649475588"><ele>790.1478271251544</ele><time>2023-02-04T23:39:14Z</time></trkpt><trkpt lat="37.35569973822619" lon="139.19797198724552"><ele>798.4537457963452</ele><time>2023-02-04T23:40:03Z</time></trkpt><trkpt lat="37.35555151376667" lon="139.19810960675412"><ele>807.2219108212739</ele><time>2023-02-04T23:41:21Z</time></trkpt><trkpt lat="37.35544658429284" lon="139.19804664106306"><ele>808.8545351028442</ele><time>2023-02-04T23:42:41Z</time></trkpt><trkpt lat="37.35526964636842" lon="139.1981095822325"><ele>817.5684750024229</ele><time>2023-02-04T23:45:33Z</time></trkpt><trkpt lat="37.355203543410234" lon="139.19832106729422"><ele>824.6193338278681</ele><time>2023-02-04T23:46:07Z</time></trkpt><trkpt lat="37.35506710681461" lon="139.19849222194466"><ele>831.9677849384025</ele><time>2023-02-04T23:47:04Z</time></trkpt><trkpt lat="37.3549110219816" lon="139.198615168861"><ele>839.466381650418</ele><time>2023-02-04T23:47:50Z</time></trkpt><trkpt lat="37.35475323925333" lon="139.19873316390294"><ele>844.9962212434039</ele><time>2023-02-04T23:48:43Z</time></trkpt><trkpt lat="37.35462946510697" lon="139.19891761129875"><ele>853.1283495472744</ele><time>2023-02-04T23:49:24Z</time></trkpt><trkpt lat="37.3545274084123" lon="139.1991167900238"><ele>863.4115454768762</ele><time>2023-02-04T23:50:17Z</time></trkpt><trkpt lat="37.354386951621215" lon="139.19928175007902"><ele>875.8843766031787</ele><time>2023-02-04T23:51:15Z</time></trkpt><trkpt lat="37.354409266570535" lon="139.19950722325748"><ele>882.7706002173945</ele><time>2023-02-04T23:52:37Z</time></trkpt><trkpt lat="37.35444554380623" lon="139.19972858262287"><ele>888.5268584387377</ele><time>2023-02-04T23:53:35Z</time></trkpt><trkpt lat="37.354287921723156" lon="139.19986417867688"><ele>896.9567957241088</ele><time>2023-02-04T23:54:55Z</time></trkpt><trkpt lat="37.354151872824396" lon="139.20001826751795"><ele>905.0711884349585</ele><time>2023-02-04T23:55:57Z</time></trkpt><trkpt lat="37.3539777791443" lon="139.19993245424473"><ele>907.9113343050703</ele><time>2023-02-04T23:56:50Z</time></trkpt><trkpt lat="37.35382397057747" lon="139.20005162619617"><ele>918.2333702640608</ele><time>2023-02-05T00:02:05Z</time></trkpt><trkpt lat="37.35375321582113" lon="139.2002705131875"><ele>925.9893998708576</ele><time>2023-02-05T00:02:44Z</time></trkpt><trkpt lat="37.35357478232682" lon="139.2002128361801"><ele>930.7573375357315</ele><time>2023-02-05T00:03:21Z</time></trkpt><trkpt lat="37.35350601939062" lon="139.2004301162251"><ele>936.8140038177371</ele><time>2023-02-05T00:04:14Z</time></trkpt><trkpt lat="37.35339728984079" lon="139.20024771844587"><ele>939.8870963454247</ele><time>2023-02-05T00:04:45Z</time></trkpt><trkpt lat="37.3532603806654" lon="139.20039447810058"><ele>946.6291918596253</ele><time>2023-02-05T00:06:00Z</time></trkpt><trkpt lat="37.35310214857771" lon="139.2005229169239"><ele>956.1207444975153</ele><time>2023-02-05T00:07:04Z</time></trkpt><trkpt lat="37.352917351594535" lon="139.20051186314166"><ele>963.970894658938</ele><time>2023-02-05T00:08:14Z</time></trkpt><trkpt lat="37.35279032405461" lon="139.20053781351436"><ele>969.3610553452745</ele><time>2023-02-05T00:09:30Z</time></trkpt><trkpt lat="37.352610156935846" lon="139.20056778075218"><ele>972.0201411517337</ele><time>2023-02-05T00:11:56Z</time></trkpt><trkpt lat="37.352428885392705" lon="139.2005934759819"><ele>975.9785847943276</ele><time>2023-02-05T00:13:06Z</time></trkpt><trkpt lat="37.35228385829751" lon="139.2007417461271"><ele>980.5097021991387</ele><time>2023-02-05T00:13:37Z</time></trkpt><trkpt lat="37.352147190206495" lon="139.20089707674296"><ele>976.8950622053817</ele><time>2023-02-05T00:14:11Z</time></trkpt><trkpt lat="37.35203082441389" lon="139.20107979335248"><ele>979.1916277110577</ele><time>2023-02-05T00:14:31Z</time></trkpt><trkpt lat="37.35196407130331" lon="139.20130108755816"><ele>983.8725911015645</ele><time>2023-02-05T00:15:32Z</time></trkpt><trkpt lat="37.35185661887477" lon="139.2014892601499"><ele>985.6823605475947</ele><time>2023-02-05T00:15:54Z</time></trkpt><trkpt lat="37.35177675351212" lon="139.20169628255428"><ele>986.3923310050741</ele><time>2023-02-05T00:16:19Z</time></trkpt><trkpt lat="37.351710608500994" lon="139.20182949404654"><ele>989.2961063431576</ele><time>2023-02-05T00:16:49Z</time></trkpt><trkpt lat="37.351712493140894" lon="139.20182987966285"><ele>989.2516600862145</ele><time>2023-02-05T00:16:50Z</time></trkpt><trkpt lat="37.351611915572235" lon="139.2020220898092"><ele>992.8814748097211</ele><time>2023-02-05T00:19:49Z</time></trkpt><trkpt lat="37.351508099276906" lon="139.2022125996119"><ele>998.7845521150157</ele><time>2023-02-05T00:20:23Z</time></trkpt><trkpt lat="37.35143109851765" lon="139.20242957534293"><ele>1005.6831168839708</ele><time>2023-02-05T00:21:13Z</time></trkpt><trkpt lat="37.35137110527965" lon="139.20264583128713"><ele>1011.9557729046792</ele><time>2023-02-05T00:21:49Z</time></trkpt><trkpt lat="37.35123931943543" lon="139.20281003745666"><ele>1012.8764622844756</ele><time>2023-02-05T00:23:07Z</time></trkpt><trkpt lat="37.35116981955251" lon="139.20301837279882"><ele>1016.9837538506836</ele><time>2023-02-05T00:25:45Z</time></trkpt><trkpt lat="37.35105512151379" lon="139.20319454253612"><ele>1023.5316708963364</ele><time>2023-02-05T00:27:03Z</time></trkpt><trkpt lat="37.35093117834209" lon="139.20336861295576"><ele>1029.5248703332618</ele><time>2023-02-05T00:29:02Z</time></trkpt><trkpt lat="37.350899277687105" lon="139.20359972673086"><ele>1038.1338483309373</ele><time>2023-02-05T00:29:45Z</time></trkpt><trkpt lat="37.350820697820154" lon="139.2038174661734"><ele>1043.9947918206453</ele><time>2023-02-05T00:30:33Z</time></trkpt><trkpt lat="37.35076753502627" lon="139.20403495356933"><ele>1049.1381293572485</ele><time>2023-02-05T00:31:20Z</time></trkpt><trkpt lat="37.3507080358917" lon="139.204250346441"><ele>1054.5596323907375</ele><time>2023-02-05T00:32:06Z</time></trkpt><trkpt lat="37.35067226004622" lon="139.20448311109027"><ele>1060.519361846149</ele><time>2023-02-05T00:32:53Z</time></trkpt><trkpt lat="37.35065201621083" lon="139.20471237144096"><ele>1064.6289883852005</ele><time>2023-02-05T00:33:45Z</time></trkpt><trkpt lat="37.35056477598246" lon="139.20491755451752"><ele>1068.2297252044082</ele><time>2023-02-05T00:34:22Z</time></trkpt><trkpt lat="37.3504769943926" lon="139.20512589076432"><ele>1070.3045607069507</ele><time>2023-02-05T00:35:01Z</time></trkpt><trkpt lat="37.350343779357964" lon="139.2052826940239"><ele>1074.2403003396466</ele><time>2023-02-05T00:35:38Z</time></trkpt><trkpt lat="37.350194246157656" lon="139.2054153851092"><ele>1076.3073355117813</ele><time>2023-02-05T00:36:16Z</time></trkpt><trkpt lat="37.35007591106129" lon="139.20559419234718"><ele>1081.4386529838666</ele><time>2023-02-05T00:36:54Z</time></trkpt><trkpt lat="37.34998860264307" lon="139.20579413964768"><ele>1084.1954002287239</ele><time>2023-02-05T00:37:29Z</time></trkpt><trkpt lat="37.34984083178317" lon="139.20592815416717"><ele>1087.2558185253292</ele><time>2023-02-05T00:38:06Z</time></trkpt><trkpt lat="37.349744914512506" lon="139.20612127493303"><ele>1091.5788321038708</ele><time>2023-02-05T00:38:44Z</time></trkpt><trkpt lat="37.3496268386168" lon="139.2062929650853"><ele>1097.772441755049</ele><time>2023-02-05T00:39:31Z</time></trkpt><trkpt lat="37.34955061792017" lon="139.2064995014188"><ele>1103.0674701686949</ele><time>2023-02-05T00:40:17Z</time></trkpt><trkpt lat="37.349477040451376" lon="139.20670595786075"><ele>1107.445819738321</ele><time>2023-02-05T00:41:00Z</time></trkpt><trkpt lat="37.34933288045103" lon="139.20686367169105"><ele>1109.8354631103575</ele><time>2023-02-05T00:41:34Z</time></trkpt><trkpt lat="37.349202039824576" lon="139.2070190898491"><ele>1112.4580351142213</ele><time>2023-02-05T00:50:15Z</time></trkpt><trkpt lat="37.349118495009975" lon="139.2072212403571"><ele>1118.090931727551</ele><time>2023-02-05T00:50:44Z</time></trkpt><trkpt lat="37.349029426995564" lon="139.20742727375335"><ele>1120.1343969227746</ele><time>2023-02-05T00:51:16Z</time></trkpt><trkpt lat="37.34893763778307" lon="139.2076284987057"><ele>1123.1184038603678</ele><time>2023-02-05T00:51:49Z</time></trkpt><trkpt lat="37.34884898126178" lon="139.20782515265756"><ele>1131.5288879396394</ele><time>2023-02-05T00:52:26Z</time></trkpt><trkpt lat="37.348741088920946" lon="139.20801698434755"><ele>1135.8723386805505</ele><time>2023-02-05T00:53:08Z</time></trkpt><trkpt lat="37.34864642497464" lon="139.20821545996637"><ele>1139.812593405135</ele><time>2023-02-05T00:53:46Z</time></trkpt><trkpt lat="37.34848167252641" lon="139.20831211717723"><ele>1146.1793493991718</ele><time>2023-02-05T00:54:33Z</time></trkpt><trkpt lat="37.34829826711724" lon="139.20837586524624"><ele>1152.3698436953127</ele><time>2023-02-05T00:55:32Z</time></trkpt><trkpt lat="37.34816255002813" lon="139.20853663231352"><ele>1159.1608951874077</ele><time>2023-02-05T00:56:09Z</time></trkpt><trkpt lat="37.34806660209528" lon="139.20873312473924"><ele>1166.3417711053044</ele><time>2023-02-05T00:56:56Z</time></trkpt><trkpt lat="37.34791944766612" lon="139.20886786796095"><ele>1168.7569179041311</ele><time>2023-02-05T00:57:45Z</time></trkpt><trkpt lat="37.34779725121923" lon="139.20903746666826"><ele>1178.6124285096303</ele><time>2023-02-05T00:59:07Z</time></trkpt><trkpt lat="37.347735629638024" lon="139.2092514121899"><ele>1188.9057681839913</ele><time>2023-02-05T01:00:17Z</time></trkpt><trkpt lat="37.34755009021156" lon="139.20927548960984"><ele>1193.3130889320746</ele><time>2023-02-05T01:01:06Z</time></trkpt><trkpt lat="37.34742747670749" lon="139.20944504965897"><ele>1198.8919565798715</ele><time>2023-02-05T01:01:53Z</time></trkpt><trkpt lat="37.347293539328746" lon="139.209616045234"><ele>1205.2055023293942</ele><time>2023-02-05T01:02:50Z</time></trkpt><trkpt lat="37.34711367692652" lon="139.20964702903808"><ele>1210.571786574088</ele><time>2023-02-05T01:03:47Z</time></trkpt><trkpt lat="37.34693172553175" lon="139.20968170407102"><ele>1215.8375653428957</ele><time>2023-02-05T01:04:27Z</time></trkpt><trkpt lat="37.346776140185526" lon="139.2097985242994"><ele>1225.261630229652</ele><time>2023-02-05T01:06:24Z</time></trkpt><trkpt lat="37.34659219202787" lon="139.209803980999"><ele>1228.984720592387</ele><time>2023-02-05T01:07:04Z</time></trkpt><trkpt lat="37.34642956079915" lon="139.20990392409877"><ele>1233.4804210616276</ele><time>2023-02-05T01:07:45Z</time></trkpt><trkpt lat="37.346299863832925" lon="139.2100709418584"><ele>1237.3507283674553</ele><time>2023-02-05T01:08:17Z</time></trkpt><trkpt lat="37.34620246725323" lon="139.21026607641497"><ele>1238.6181335821748</ele><time>2023-02-05T01:08:57Z</time></trkpt><trkpt lat="37.34614403024424" lon="139.21048560144538"><ele>1244.0935960933566</ele><time>2023-02-05T01:09:38Z</time></trkpt><trkpt lat="37.3460137688216" lon="139.21064527835563"><ele>1248.302076132968</ele><time>2023-02-05T01:10:12Z</time></trkpt><trkpt lat="37.34586449957333" lon="139.21078483395996"><ele>1249.9184625614434</ele><time>2023-02-05T01:10:37Z</time></trkpt><trkpt lat="37.345718699670776" lon="139.21092939116505"><ele>1252.7309419363737</ele><time>2023-02-05T01:11:26Z</time></trkpt><trkpt lat="37.3456044376865" lon="139.21111431865626"><ele>1252.4527753209695</ele><time>2023-02-05T01:12:02Z</time></trkpt><trkpt lat="37.34548677860454" lon="139.21130208994984"><ele>1255.3853460140526</ele><time>2023-02-05T01:12:39Z</time></trkpt><trkpt lat="37.34540852242783" lon="139.21152102483182"><ele>1256.1250064577907</ele><time>2023-02-05T01:13:12Z</time></trkpt><trkpt lat="37.345287628008855" lon="139.2116970859655"><ele>1258.6310971854255</ele><time>2023-02-05T01:13:44Z</time></trkpt><trkpt lat="37.34522268154682" lon="139.2119110414955"><ele>1260.5585121437907</ele><time>2023-02-05T01:14:08Z</time></trkpt><trkpt lat="37.34513243962422" lon="139.21211030399704"><ele>1261.339133637026</ele><time>2023-02-05T01:14:36Z</time></trkpt><trkpt lat="37.34508433375006" lon="139.21233164247266"><ele>1262.447742573917</ele><time>2023-02-05T01:14:59Z</time></trkpt><trkpt lat="37.345024090040575" lon="139.21255369948997"><ele>1264.0854365676641</ele><time>2023-02-05T01:15:27Z</time></trkpt><trkpt lat="37.34490510225886" lon="139.2127331336315"><ele>1265.0728120813146</ele><time>2023-02-05T01:15:55Z</time></trkpt><trkpt lat="37.34480725018384" lon="139.21292795449764"><ele>1265.9005039911717</ele><time>2023-02-05T01:16:25Z</time></trkpt><trkpt lat="37.3446894451553" lon="139.21310708086838"><ele>1267.7678865408525</ele><time>2023-02-05T01:16:50Z</time></trkpt><trkpt lat="37.34463499688726" lon="139.21326083198275"><ele>1271.505500998348</ele><time>2023-02-05T01:17:53Z</time></trkpt><trkpt lat="37.34453389185961" lon="139.21345321773984"><ele>1275.6451294645667</ele><time>2023-02-05T01:19:30Z</time></trkpt><trkpt lat="37.34450891861517" lon="139.21368295189035"><ele>1278.0408519739285</ele><time>2023-02-05T01:20:09Z</time></trkpt><trkpt lat="37.34447434897" lon="139.21391047299718"><ele>1282.2564828256145</ele><time>2023-02-05T01:20:52Z</time></trkpt><trkpt lat="37.34458357564858" lon="139.21414950875493"><ele>1300.0525131225586</ele><time>2023-02-05T01:21:44Z</time></trkpt><trkpt lat="37.344485202966304" lon="139.21434317810287"><ele>1292.2870636861771</ele><time>2023-02-05T01:22:28Z</time></trkpt><trkpt lat="37.34452782955002" lon="139.2145634699692"><ele>1297.3931549424306</ele><time>2023-02-05T01:23:20Z</time></trkpt><trkpt lat="37.34442591912453" lon="139.21475969426064"><ele>1300.1709517072886</ele><time>2023-02-05T01:23:43Z</time></trkpt><trkpt lat="37.344351925752605" lon="139.21497185804884"><ele>1302.2035166025162</ele><time>2023-02-05T01:24:16Z</time></trkpt><trkpt lat="37.344310642434806" lon="139.2151953010886"><ele>1304.0984237501398</ele><time>2023-02-05T01:25:04Z</time></trkpt><trkpt lat="37.34424142518366" lon="139.21540384529592"><ele>1310.6361305294558</ele><time>2023-02-05T01:25:43Z</time></trkpt><trkpt lat="37.344146770223226" lon="139.21559711712413"><ele>1313.383066760376</ele><time>2023-02-05T01:26:15Z</time></trkpt><trkpt lat="37.34408492414839" lon="139.21580958363126"><ele>1315.1136941341683</ele><time>2023-02-05T01:26:46Z</time></trkpt><trkpt lat="37.34412499761873" lon="139.2160312519822"><ele>1320.98491440434</ele><time>2023-02-05T01:27:35Z</time></trkpt><trkpt lat="37.3442447934212" lon="139.21620559332328"><ele>1327.8722781948745</ele><time>2023-02-05T01:28:40Z</time></trkpt><trkpt lat="37.34433551833032" lon="139.21640345815868"><ele>1333.769842141308</ele><time>2023-02-05T01:29:30Z</time></trkpt><trkpt lat="37.34439416143931" lon="139.21661926645604"><ele>1339.4704947946593</ele><time>2023-02-05T01:30:09Z</time></trkpt><trkpt lat="37.34429726188478" lon="139.21681160084475"><ele>1345.9967177119106</ele><time>2023-02-05T01:31:08Z</time></trkpt><trkpt lat="37.34427881182183" lon="139.21704715277662"><ele>1352.2814884865656</ele><time>2023-02-05T01:31:49Z</time></trkpt><trkpt lat="37.34437902537553" lon="139.21724129410697"><ele>1358.281927473843</ele><time>2023-02-05T01:32:33Z</time></trkpt><trkpt lat="37.344472775711466" lon="139.21743811846576"><ele>1363.9048668127507</ele><time>2023-02-05T01:33:17Z</time></trkpt><trkpt lat="37.34455965775661" lon="139.21765823872212"><ele>1371.6546237738803</ele><time>2023-02-05T01:34:14Z</time></trkpt><trkpt lat="37.34452284998245" lon="139.21788400060387"><ele>1381.717056828551</ele><time>2023-02-05T01:35:37Z</time></trkpt><trkpt lat="37.344486663390825" lon="139.21811582239135"><ele>1388.8675330821425</ele><time>2023-02-05T01:36:43Z</time></trkpt><trkpt lat="37.34445469827582" lon="139.21833882621962"><ele>1393.5396154085174</ele><time>2023-02-05T01:38:27Z</time></trkpt><trkpt lat="37.344481975912224" lon="139.21856400273646"><ele>1397.234750771895</ele><time>2023-02-05T01:39:10Z</time></trkpt><trkpt lat="37.34450998131011" lon="139.21878973107215"><ele>1400.2889690268785</ele><time>2023-02-05T01:39:47Z</time></trkpt><trkpt lat="37.34456139194941" lon="139.2190082200205"><ele>1404.4843428414315</ele><time>2023-02-05T01:40:45Z</time></trkpt><trkpt lat="37.344579501544594" lon="139.21923653566034"><ele>1406.7541411938146</ele><time>2023-02-05T01:41:30Z</time></trkpt><trkpt lat="37.344593763569875" lon="139.21946972404817"><ele>1414.6491433335468</ele><time>2023-02-05T01:42:11Z</time></trkpt><trkpt lat="37.34458864553882" lon="139.21950049879845"><ele>1416.3571277298033</ele><time>2023-02-05T01:44:34Z</time></trkpt><trkpt lat="37.34465055539451" lon="139.21971983200785"><ele>1423.4703648099676</ele><time>2023-02-05T01:46:04Z</time></trkpt><trkpt lat="37.3446798331371" lon="139.21982358686583"><ele>1426.814165613614</ele><time>2023-02-05T01:52:50Z</time></trkpt><trkpt lat="37.34465782589959" lon="139.220059227728"><ele>1433.058182073757</ele><time>2023-02-05T02:02:49Z</time></trkpt><trkpt lat="37.344757220495374" lon="139.2202520077591"><ele>1439.1279649902135</ele><time>2023-02-05T02:03:39Z</time></trkpt><trkpt lat="37.34474632973355" lon="139.22049536878254"><ele>1443.8372011631727</ele><time>2023-02-05T02:04:07Z</time></trkpt><trkpt lat="37.344800131849475" lon="139.22071241342925"><ele>1440.726781193167</ele><time>2023-02-05T02:04:35Z</time></trkpt><trkpt lat="37.34479340675523" lon="139.22094262036515"><ele>1444.717141081579</ele><time>2023-02-05T02:05:14Z</time></trkpt><trkpt lat="37.34480127453446" lon="139.22118905074507"><ele>1447.778938073665</ele><time>2023-02-05T02:05:56Z</time></trkpt><trkpt lat="37.34485418117141" lon="139.22140661074928"><ele>1450.7602818952873</ele><time>2023-02-05T02:06:40Z</time></trkpt><trkpt lat="37.34487822028271" lon="139.22163047328613"><ele>1458.581833167933</ele><time>2023-02-05T02:07:20Z</time></trkpt><trkpt lat="37.344866235525835" lon="139.22185629743942"><ele>1463.9091817839071</ele><time>2023-02-05T02:07:50Z</time></trkpt><trkpt lat="37.34482946798189" lon="139.22208058995395"><ele>1467.9743448141962</ele><time>2023-02-05T02:27:40Z</time></trkpt><trkpt lat="37.344799076931224" lon="139.2223071741593"><ele>1472.4536657538265</ele><time>2023-02-05T02:28:35Z</time></trkpt><trkpt lat="37.34476318074642" lon="139.22253130856575"><ele>1480.3969949865714</ele><time>2023-02-05T02:29:32Z</time></trkpt><trkpt lat="37.344646368535535" lon="139.22270544968603"><ele>1476.6774076316506</ele><time>2023-02-05T02:29:57Z</time></trkpt><trkpt lat="37.3445207101223" lon="139.22287131170472"><ele>1475.7615096513182</ele><time>2023-02-05T02:30:20Z</time></trkpt><trkpt lat="37.344384472278755" lon="139.22302859138233"><ele>1474.3728818716481</ele><time>2023-02-05T02:30:51Z</time></trkpt><trkpt lat="37.34423014191555" lon="139.22316150394778"><ele>1473.673789872788</ele><time>2023-02-05T02:31:17Z</time></trkpt><trkpt lat="37.34409214546777" lon="139.22332286242334"><ele>1475.6601797072217</ele><time>2023-02-05T02:31:42Z</time></trkpt><trkpt lat="37.34399577396002" lon="139.22351794894652"><ele>1477.5116519639269</ele><time>2023-02-05T02:32:06Z</time></trkpt><trkpt lat="37.3439595570635" lon="139.2237477882027"><ele>1477.9848801232874</ele><time>2023-02-05T02:33:07Z</time></trkpt><trkpt lat="37.34397209368475" lon="139.2239770717233"><ele>1479.5064072273672</ele><time>2023-02-05T02:33:38Z</time></trkpt><trkpt lat="37.34401194320498" lon="139.224201613611"><ele>1483.383855859749</ele><time>2023-02-05T02:34:04Z</time></trkpt><trkpt lat="37.34406679012008" lon="139.22441931993652"><ele>1487.1834039380774</ele><time>2023-02-05T02:34:37Z</time></trkpt><trkpt lat="37.3441382749716" lon="139.22464084332952"><ele>1491.558993020095</ele><time>2023-02-05T02:35:05Z</time></trkpt><trkpt lat="37.34413638293203" lon="139.2248675108879"><ele>1493.1598206032068</ele><time>2023-02-05T02:35:30Z</time></trkpt><trkpt lat="37.34413924893082" lon="139.22509823580117"><ele>1494.2048518089578</ele><time>2023-02-05T02:36:04Z</time></trkpt><trkpt lat="37.344135927108134" lon="139.2253281263809"><ele>1498.3045005910099</ele><time>2023-02-05T02:36:39Z</time></trkpt><trkpt lat="37.34410284999968" lon="139.225556617315"><ele>1506.0751560162753</ele><time>2023-02-05T02:37:31Z</time></trkpt><trkpt lat="37.34410019954812" lon="139.22578549428158"><ele>1509.2084824554622</ele><time>2023-02-05T02:38:07Z</time></trkpt><trkpt lat="37.34408264957191" lon="139.226011521822"><ele>1515.9436957817525</ele><time>2023-02-05T02:38:51Z</time></trkpt><trkpt lat="37.34407770868924" lon="139.22624098439175"><ele>1523.628026909195</ele><time>2023-02-05T02:39:53Z</time></trkpt><trkpt lat="37.34403652680065" lon="139.22646209360192"><ele>1528.5332364477217</ele><time>2023-02-05T02:40:34Z</time></trkpt><trkpt lat="37.343989845781216" lon="139.22668006311807"><ele>1532.594535577111</ele><time>2023-02-05T02:41:10Z</time></trkpt><trkpt lat="37.34396422478543" lon="139.22690703575498"><ele>1540.199654813856</ele><time>2023-02-05T02:41:47Z</time></trkpt><trkpt lat="37.34392897157202" lon="139.22713400603956"><ele>1545.3918352695182</ele><time>2023-02-05T02:42:17Z</time></trkpt><trkpt lat="37.343842811529804" lon="139.22733334345165"><ele>1551.5674749044701</ele><time>2023-02-05T02:42:49Z</time></trkpt><trkpt lat="37.34370518598371" lon="139.22749053608132"><ele>1556.868248257786</ele><time>2023-02-05T02:43:31Z</time></trkpt><trkpt lat="37.34362281785534" lon="139.22769372618933"><ele>1562.0413542240858</ele><time>2023-02-05T02:44:05Z</time></trkpt><trkpt lat="37.34352549610332" lon="139.22788386808358"><ele>1566.1863295137882</ele><time>2023-02-05T02:44:34Z</time></trkpt><trkpt lat="37.343416910527516" lon="139.22806631640864"><ele>1569.7123598381877</ele><time>2023-02-05T02:45:13Z</time></trkpt><trkpt lat="37.34331079631278" lon="139.2282535115574"><ele>1570.0821491098031</ele><time>2023-02-05T02:47:03Z</time></trkpt><trkpt lat="37.34322111605973" lon="139.22845559080244"><ele>1571.1981565868482</ele><time>2023-02-05T02:47:25Z</time></trkpt><trkpt lat="37.34309402757657" lon="139.22862775521946"><ele>1570.6763091022149</ele><time>2023-02-05T02:47:57Z</time></trkpt><trkpt lat="37.34299034342106" lon="139.22881668858784"><ele>1568.0838812375441</ele><time>2023-02-05T02:48:18Z</time></trkpt><trkpt lat="37.342915147695464" lon="139.22903162534237"><ele>1564.777213267982</ele><time>2023-02-05T02:48:43Z</time></trkpt><trkpt lat="37.342888223889545" lon="139.2292642648"><ele>1562.9763422925025</ele><time>2023-02-05T02:49:10Z</time></trkpt><trkpt lat="37.34285431051809" lon="139.2294878066199"><ele>1564.6666968716308</ele><time>2023-02-05T02:49:52Z</time></trkpt><trkpt lat="37.34281409907513" lon="139.22971230577593"><ele>1568.1004382018</ele><time>2023-02-05T02:50:21Z</time></trkpt><trkpt lat="37.34278640998827" lon="139.22994011201746"><ele>1566.9189985841513</ele><time>2023-02-05T02:51:33Z</time></trkpt><trkpt lat="37.342748729246765" lon="139.23016883090358"><ele>1567.646266986616</ele><time>2023-02-05T02:51:58Z</time></trkpt><trkpt lat="37.34278363425732" lon="139.23039571564556"><ele>1561.3214228441939</ele><time>2023-02-05T02:52:47Z</time></trkpt><trkpt lat="37.342845728855714" lon="139.23061805618312"><ele>1560.0868971198797</ele><time>2023-02-05T02:53:14Z</time></trkpt><trkpt lat="37.342851376632595" lon="139.23085009947073"><ele>1561.015300120227</ele><time>2023-02-05T02:53:39Z</time></trkpt><trkpt lat="37.342846756631474" lon="139.23107805258778"><ele>1562.0827994616702</ele><time>2023-02-05T02:54:01Z</time></trkpt><trkpt lat="37.342845725513854" lon="139.23131198775684"><ele>1562.0889030452818</ele><time>2023-02-05T02:54:26Z</time></trkpt><trkpt lat="37.34283358323102" lon="139.23154359736864"><ele>1562.4165257550776</ele><time>2023-02-05T02:54:48Z</time></trkpt><trkpt lat="37.34283411107739" lon="139.2317823911962"><ele>1561.706833936274</ele><time>2023-02-05T02:55:13Z</time></trkpt><trkpt lat="37.34284759104843" lon="139.23201184327954"><ele>1560.4407891836017</ele><time>2023-02-05T02:55:37Z</time></trkpt><trkpt lat="37.34290046767695" lon="139.2322344252917"><ele>1555.8808835148811</ele><time>2023-02-05T02:56:05Z</time></trkpt><trkpt lat="37.34296651106733" lon="139.23244999735147"><ele>1555.1329313144088</ele><time>2023-02-05T02:56:33Z</time></trkpt><trkpt lat="37.34306421755665" lon="139.23264369741264"><ele>1554.7991090118885</ele><time>2023-02-05T02:56:56Z</time></trkpt><trkpt lat="37.34321990651283" lon="139.2327696290178"><ele>1553.3298300793394</ele><time>2023-02-05T02:57:46Z</time></trkpt><trkpt lat="37.34336553839268" lon="139.23290544884955"><ele>1559.967490955256</ele><time>2023-02-05T02:58:46Z</time></trkpt><trkpt lat="37.34343500879913" lon="139.23311478956904"><ele>1568.4658364420757</ele><time>2023-02-05T02:59:49Z</time></trkpt><trkpt lat="37.34348829508242" lon="139.2333306688041"><ele>1576.609797583893</ele><time>2023-02-05T03:00:39Z</time></trkpt><trkpt lat="37.343567214844555" lon="139.23354013740737"><ele>1582.8676277399063</ele><time>2023-02-05T03:01:13Z</time></trkpt><trkpt lat="37.34354224820775" lon="139.23331653856687"><ele>1579.0201878193766</ele><time>2023-02-05T03:05:58Z</time></trkpt><trkpt lat="37.343400751967366" lon="139.23316896459798"><ele>1574.0697782915086</ele><time>2023-02-05T03:06:46Z</time></trkpt><trkpt lat="37.343382018076284" lon="139.23294025579003"><ele>1567.6603989694268</ele><time>2023-02-05T03:07:19Z</time></trkpt><trkpt lat="37.3432647165019" lon="139.23275640803365"><ele>1562.41734814737</ele><time>2023-02-05T03:07:42Z</time></trkpt><trkpt lat="37.3430986378632" lon="139.23266806093477"><ele>1559.620024908334</ele><time>2023-02-05T03:07:58Z</time></trkpt><trkpt lat="37.342996303121296" lon="139.23246989554806"><ele>1558.0018021017313</ele><time>2023-02-05T03:08:18Z</time></trkpt><trkpt lat="37.34292637373763" lon="139.23226189531047"><ele>1557.4307587053627</ele><time>2023-02-05T03:08:43Z</time></trkpt><trkpt lat="37.342865354495025" lon="139.23204643044951"><ele>1559.2932044491172</ele><time>2023-02-05T03:09:16Z</time></trkpt><trkpt lat="37.34283406950259" lon="139.23181923164316"><ele>1561.0538744134828</ele><time>2023-02-05T03:09:43Z</time></trkpt><trkpt lat="37.34286165574594" lon="139.23157845381377"><ele>1563.085737913847</ele><time>2023-02-05T03:10:04Z</time></trkpt><trkpt lat="37.34286208532576" lon="139.2313473662437"><ele>1563.5216978928074</ele><time>2023-02-05T03:10:29Z</time></trkpt><trkpt lat="37.342860411920185" lon="139.23111639691587"><ele>1562.6888039121404</ele><time>2023-02-05T03:10:53Z</time></trkpt><trkpt lat="37.34285596496756" lon="139.23088703969884"><ele>1561.893636951223</ele><time>2023-02-05T03:11:16Z</time></trkpt><trkpt lat="37.34287445343357" lon="139.23065477565143"><ele>1563.194351349026</ele><time>2023-02-05T03:11:40Z</time></trkpt><trkpt lat="37.34281359856145" lon="139.23043112559566"><ele>1568.471550218761</ele><time>2023-02-05T03:12:13Z</time></trkpt><trkpt lat="37.3427529276881" lon="139.2302121294026"><ele>1569.0024302136153</ele><time>2023-02-05T03:13:16Z</time></trkpt><trkpt lat="37.3427718886542" lon="139.22997741462703"><ele>1568.6313893189654</ele><time>2023-02-05T03:13:42Z</time></trkpt><trkpt lat="37.34281465454809" lon="139.22975625057217"><ele>1567.402452823706</ele><time>2023-02-05T03:14:05Z</time></trkpt><trkpt lat="37.34286455922516" lon="139.22953106752396"><ele>1565.678481856361</ele><time>2023-02-05T03:14:26Z</time></trkpt><trkpt lat="37.34290547921544" lon="139.22930368527992"><ele>1563.0719612734392</ele><time>2023-02-05T03:14:50Z</time></trkpt><trkpt lat="37.34292672648269" lon="139.22906815298407"><ele>1562.7038125693798</ele><time>2023-02-05T03:15:24Z</time></trkpt><trkpt lat="37.34300771141899" lon="139.22886412119945"><ele>1563.7207218371332</ele><time>2023-02-05T03:16:05Z</time></trkpt><trkpt lat="37.343098412208" lon="139.22866328102123"><ele>1566.953381864354</ele><time>2023-02-05T03:16:32Z</time></trkpt><trkpt lat="37.34315320774274" lon="139.22844789930812"><ele>1569.1107349917293</ele><time>2023-02-05T03:16:56Z</time></trkpt><trkpt lat="37.34323939550469" lon="139.22824909192423"><ele>1568.3999252598733</ele><time>2023-02-05T03:17:49Z</time></trkpt><trkpt lat="37.343364785184896" lon="139.22807925986461"><ele>1567.139541595243</ele><time>2023-02-05T03:18:35Z</time></trkpt><trkpt lat="37.34348955468098" lon="139.22791437331676"><ele>1565.5726854130626</ele><time>2023-02-05T03:19:27Z</time></trkpt><trkpt lat="37.34356113751006" lon="139.22770424413872"><ele>1562.7690316438675</ele><time>2023-02-05T03:20:00Z</time></trkpt><trkpt lat="37.34356069197632" lon="139.22747338263517"><ele>1556.2432943098247</ele><time>2023-02-05T03:21:59Z</time></trkpt><trkpt lat="37.3435423753266" lon="139.2272426799527"><ele>1552.4800387788564</ele><time>2023-02-05T03:22:22Z</time></trkpt><trkpt lat="37.343639675359526" lon="139.22702676212865"><ele>1546.1326450873166</ele><time>2023-02-05T03:45:02Z</time></trkpt><trkpt lat="37.343814552585904" lon="139.22694656652214"><ele>1542.9932102896273</ele><time>2023-02-05T03:45:09Z</time></trkpt><trkpt lat="37.34381697296394" lon="139.22671993322774"><ele>1539.0327866571024</ele><time>2023-02-05T03:45:37Z</time></trkpt><trkpt lat="37.343734911251154" lon="139.22651185742512"><ele>1529.0751971136779</ele><time>2023-02-05T03:45:48Z</time></trkpt><trkpt lat="37.343731619248594" lon="139.2262790676299"><ele>1518.2251736270264</ele><time>2023-02-05T03:45:52Z</time></trkpt><trkpt lat="37.343561614388186" lon="139.226169467652"><ele>1507.004580882378</ele><time>2023-02-05T03:47:56Z</time></trkpt><trkpt lat="37.34347082419753" lon="139.2259528733296"><ele>1497.037445710972</ele><time>2023-02-05T03:48:11Z</time></trkpt><trkpt lat="37.3433621648362" lon="139.22573960409468"><ele>1488.424965120852</ele><time>2023-02-05T03:48:16Z</time></trkpt><trkpt lat="37.34325137035602" lon="139.2255046925068"><ele>1476.3387941475958</ele><time>2023-02-05T03:49:25Z</time></trkpt><trkpt lat="37.34325960735543" lon="139.22527516166787"><ele>1460.7006418677047</ele><time>2023-02-05T03:49:32Z</time></trkpt><trkpt lat="37.34317417413555" lon="139.22506063469396"><ele>1449.268220094964</ele><time>2023-02-05T03:49:37Z</time></trkpt><trkpt lat="37.342983955124716" lon="139.2249807456223"><ele>1449.8192368894815</ele><time>2023-02-05T03:50:26Z</time></trkpt><trkpt lat="37.342986579130105" lon="139.22475210368106"><ele>1435.4392186151817</ele><time>2023-02-05T03:50:31Z</time></trkpt><trkpt lat="37.34281990725946" lon="139.2246653515958"><ele>1431.3934955205768</ele><time>2023-02-05T03:50:34Z</time></trkpt><trkpt lat="37.34264429969369" lon="139.22446645501657"><ele>1421.1015478176996</ele><time>2023-02-05T03:50:38Z</time></trkpt><trkpt lat="37.34248875415585" lon="139.2243332934946"><ele>1413.272234061733</ele><time>2023-02-05T03:51:47Z</time></trkpt><trkpt lat="37.342337642294474" lon="139.22413725891383"><ele>1405.6543434085324</ele><time>2023-02-05T03:51:50Z</time></trkpt><trkpt lat="37.34217663672402" lon="139.22398466629988"><ele>1401.3479915848002</ele><time>2023-02-05T03:51:54Z</time></trkpt><trkpt lat="37.34206842896262" lon="139.2237489519211"><ele>1383.2397193312645</ele><time>2023-02-05T03:52:39Z</time></trkpt><trkpt lat="37.342220681321415" lon="139.22359232228158"><ele>1373.243167862296</ele><time>2023-02-05T03:52:42Z</time></trkpt><trkpt lat="37.34203905053425" lon="139.22348599180316"><ele>1368.8547458834946</ele><time>2023-02-05T03:52:45Z</time></trkpt><trkpt lat="37.34192145370662" lon="139.2232732267688"><ele>1368.12720018439</ele><time>2023-02-05T03:54:01Z</time></trkpt><trkpt lat="37.341783031730216" lon="139.22312854670994"><ele>1362.8740840787068</ele><time>2023-02-05T03:54:38Z</time></trkpt><trkpt lat="37.341660628538726" lon="139.22289434949414"><ele>1356.9441942367703</ele><time>2023-02-05T03:54:54Z</time></trkpt><trkpt lat="37.3416360990666" lon="139.22266783621916"><ele>1353.8008374562487</ele><time>2023-02-05T03:54:58Z</time></trkpt><trkpt lat="37.341532063372604" lon="139.22244182158553"><ele>1348.1851586718112</ele><time>2023-02-05T03:55:56Z</time></trkpt><trkpt lat="37.34134908107498" lon="139.22225781856528"><ele>1339.447222294286</ele><time>2023-02-05T03:56:00Z</time></trkpt><trkpt lat="37.341157203083974" lon="139.22214762799624"><ele>1333.194635185413</ele><time>2023-02-05T03:56:03Z</time></trkpt><trkpt lat="37.34114120616996" lon="139.22185628684855"><ele>1325.9286395320669</ele><time>2023-02-05T03:56:06Z</time></trkpt><trkpt lat="37.34105980792353" lon="139.2216096535631"><ele>1319.9565583793446</ele><time>2023-02-05T03:56:09Z</time></trkpt><trkpt lat="37.34093534742502" lon="139.22143924181918"><ele>1315.9556653620675</ele><time>2023-02-05T03:56:39Z</time></trkpt><trkpt lat="37.34080453839714" lon="139.22124893338554"><ele>1311.671254226938</ele><time>2023-02-05T03:56:43Z</time></trkpt><trkpt lat="37.340906478617235" lon="139.22105920377012"><ele>1307.5374407600611</ele><time>2023-02-05T03:56:47Z</time></trkpt><trkpt lat="37.340832507665645" lon="139.22081908057746"><ele>1303.0085213305429</ele><time>2023-02-05T03:58:12Z</time></trkpt><trkpt lat="37.340980202111304" lon="139.22065113764626"><ele>1299.2651958744973</ele><time>2023-02-05T03:58:17Z</time></trkpt><trkpt lat="37.341079662136096" lon="139.22039798784516"><ele>1293.4894652003422</ele><time>2023-02-05T03:58:26Z</time></trkpt><trkpt lat="37.34119643466046" lon="139.22014765876844"><ele>1288.432181510143</ele><time>2023-02-05T03:58:30Z</time></trkpt><trkpt lat="37.34127931147271" lon="139.21994541247363"><ele>1285.4076141929254</ele><time>2023-02-05T03:58:36Z</time></trkpt><trkpt lat="37.3414256909026" lon="139.21979407999066"><ele>1278.4041154775769</ele><time>2023-02-05T03:58:51Z</time></trkpt><trkpt lat="37.34158608645806" lon="139.21968080005607"><ele>1279.3558489643037</ele><time>2023-02-05T03:59:59Z</time></trkpt><trkpt lat="37.34168311593321" lon="139.21942597609356"><ele>1271.7754777241498</ele><time>2023-02-05T04:01:20Z</time></trkpt><trkpt lat="37.34169773019807" lon="139.21919159511953"><ele>1266.88580994308</ele><time>2023-02-05T04:01:24Z</time></trkpt><trkpt lat="37.34164716262616" lon="139.21896779873032"><ele>1264.8451573448256</ele><time>2023-02-05T04:02:01Z</time></trkpt><trkpt lat="37.3417595322567" lon="139.2187522539291"><ele>1263.9035350643098</ele><time>2023-02-05T04:02:26Z</time></trkpt><trkpt lat="37.341768508701215" lon="139.2184866363725"><ele>1254.2852908764035</ele><time>2023-02-05T04:02:50Z</time></trkpt><trkpt lat="37.34180239496779" lon="139.21823748426564"><ele>1250.8814475731924</ele><time>2023-02-05T04:02:55Z</time></trkpt><trkpt lat="37.34182173217518" lon="139.21797867050995"><ele>1246.4907996701077</ele><time>2023-02-05T04:03:01Z</time></trkpt><trkpt lat="37.34174175116072" lon="139.21775841881382"><ele>1245.5669957501814</ele><time>2023-02-05T04:03:47Z</time></trkpt><trkpt lat="37.341654515151994" lon="139.21755238236625"><ele>1241.379831764847</ele><time>2023-02-05T04:03:51Z</time></trkpt><trkpt lat="37.341545526179374" lon="139.21732907441725"><ele>1236.359761367552</ele><time>2023-02-05T04:03:55Z</time></trkpt><trkpt lat="37.341509826135805" lon="139.2170470814096"><ele>1230.5489181708544</ele><time>2023-02-05T04:04:01Z</time></trkpt><trkpt lat="37.341444934045626" lon="139.2167961616423"><ele>1224.1751473182812</ele><time>2023-02-05T04:04:05Z</time></trkpt><trkpt lat="37.34140584059055" lon="139.21655059606317"><ele>1221.8568266993389</ele><time>2023-02-05T04:04:09Z</time></trkpt><trkpt lat="37.34134447480876" lon="139.21633524608177"><ele>1222.879766679369</ele><time>2023-02-05T04:05:16Z</time></trkpt><trkpt lat="37.341293779151" lon="139.2161182726134"><ele>1218.741199922748</ele><time>2023-02-05T04:05:45Z</time></trkpt><trkpt lat="37.34112323577831" lon="139.21595611141225"><ele>1214.3134244587272</ele><time>2023-02-05T04:06:06Z</time></trkpt><trkpt lat="37.341111536302236" lon="139.2157303884282"><ele>1209.9010532973334</ele><time>2023-02-05T04:06:10Z</time></trkpt><trkpt lat="37.340970808725785" lon="139.21551645610117"><ele>1204.375179505907</ele><time>2023-02-05T04:06:15Z</time></trkpt><trkpt lat="37.34089038456329" lon="139.21530193913847"><ele>1200.3643997069448</ele><time>2023-02-05T04:06:19Z</time></trkpt><trkpt lat="37.3408165326103" lon="139.21507976059362"><ele>1196.3604527581483</ele><time>2023-02-05T04:06:23Z</time></trkpt><trkpt lat="37.34074098489394" lon="139.21485667575143"><ele>1194.2597946217284</ele><time>2023-02-05T04:06:29Z</time></trkpt><trkpt lat="37.34074319174021" lon="139.2148384625535"><ele>1193.276397923939</ele><time>2023-02-05T04:08:02Z</time></trkpt><trkpt lat="37.34077547979106" lon="139.21459932907797"><ele>1186.966535960324</ele><time>2023-02-05T04:09:44Z</time></trkpt><trkpt lat="37.34068066774909" lon="139.2143826150842"><ele>1184.0717130275443</ele><time>2023-02-05T04:10:28Z</time></trkpt><trkpt lat="37.34072451994733" lon="139.2141462919707"><ele>1178.6172598777339</ele><time>2023-02-05T04:10:33Z</time></trkpt><trkpt lat="37.34081764453475" lon="139.21389461254256"><ele>1173.3570231171325</ele><time>2023-02-05T04:10:38Z</time></trkpt><trkpt lat="37.34083880800766" lon="139.21366755709005"><ele>1173.7235907390714</ele><time>2023-02-05T04:11:02Z</time></trkpt><trkpt lat="37.340843520150244" lon="139.21343910323617"><ele>1168.9006042815745</ele><time>2023-02-05T04:11:16Z</time></trkpt><trkpt lat="37.34096754871049" lon="139.21327124848318"><ele>1166.763435717672</ele><time>2023-02-05T04:11:45Z</time></trkpt><trkpt lat="37.34105193011402" lon="139.21306109860686"><ele>1163.4610534412786</ele><time>2023-02-05T04:11:59Z</time></trkpt><trkpt lat="37.341221771396434" lon="139.21292656704645"><ele>1156.2864163722843</ele><time>2023-02-05T04:12:44Z</time></trkpt><trkpt lat="37.34139080069808" lon="139.21274725967848"><ele>1151.8451961530373</ele><time>2023-02-05T04:12:50Z</time></trkpt><trkpt lat="37.341409139774996" lon="139.21251527072602"><ele>1149.0346791232005</ele><time>2023-02-05T04:12:55Z</time></trkpt><trkpt lat="37.341400737246985" lon="139.21226120223577"><ele>1146.983688074164</ele><time>2023-02-05T04:13:03Z</time></trkpt><trkpt lat="37.34146869707518" lon="139.212005812462"><ele>1143.3020761087537</ele><time>2023-02-05T04:13:10Z</time></trkpt><trkpt lat="37.34158004950713" lon="139.2118131390188"><ele>1141.7618387062103</ele><time>2023-02-05T04:13:24Z</time></trkpt><trkpt lat="37.34166015059861" lon="139.21154987163925"><ele>1138.2749448791146</ele><time>2023-02-05T04:13:30Z</time></trkpt><trkpt lat="37.34174682481819" lon="139.21130529922863"><ele>1134.382693246007</ele><time>2023-02-05T04:13:34Z</time></trkpt><trkpt lat="37.341861298422046" lon="139.2110588976911"><ele>1130.648454834707</ele><time>2023-02-05T04:13:38Z</time></trkpt><trkpt lat="37.34192793493527" lon="139.21079984831832"><ele>1127.0094643067569</ele><time>2023-02-05T04:13:42Z</time></trkpt><trkpt lat="37.34198925479305" lon="139.2105539961012"><ele>1124.0276584317908</ele><time>2023-02-05T04:13:46Z</time></trkpt><trkpt lat="37.34206396760007" lon="139.2103278991159"><ele>1120.4368081353605</ele><time>2023-02-05T04:13:50Z</time></trkpt><trkpt lat="37.342090521529364" lon="139.21008921171355"><ele>1118.0589721994475</ele><time>2023-02-05T04:13:55Z</time></trkpt><trkpt lat="37.34215596055213" lon="139.20987512619647"><ele>1114.062768034637</ele><time>2023-02-05T04:14:44Z</time></trkpt><trkpt lat="37.34200426565546" lon="139.20969108908986"><ele>1109.7051601009443</ele><time>2023-02-05T04:14:54Z</time></trkpt><trkpt lat="37.34212223712174" lon="139.2094706918902"><ele>1110.551921352744</ele><time>2023-02-05T04:18:49Z</time></trkpt><trkpt lat="37.342223120808704" lon="139.2092584878778"><ele>1106.5832864064723</ele><time>2023-02-05T04:18:53Z</time></trkpt><trkpt lat="37.34231166688063" lon="139.20902872194597"><ele>1102.879302144982</ele><time>2023-02-05T04:18:57Z</time></trkpt><trkpt lat="37.34249406850645" lon="139.20901329501754"><ele>1104.5824339408427</ele><time>2023-02-05T04:43:55Z</time></trkpt><trkpt lat="37.342424022111466" lon="139.20922446543563"><ele>1104.581178301014</ele><time>2023-02-05T04:44:56Z</time></trkpt><trkpt lat="37.34259925744268" lon="139.2092813764697"><ele>1108.168234136887</ele><time>2023-02-05T04:45:52Z</time></trkpt><trkpt lat="37.34277855927064" lon="139.2093200259132"><ele>1115.6465668110177</ele><time>2023-02-05T04:46:48Z</time></trkpt><trkpt lat="37.3429446582717" lon="139.2092224970211"><ele>1117.4763193298131</ele><time>2023-02-05T04:47:47Z</time></trkpt><trkpt lat="37.34302408990811" lon="139.2094271207991"><ele>1125.6224926980212</ele><time>2023-02-05T04:49:42Z</time></trkpt><trkpt lat="37.343218237886255" lon="139.2094269778243"><ele>1132.8757619885728</ele><time>2023-02-05T04:50:49Z</time></trkpt><trkpt lat="37.34319762991287" lon="139.20965857400031"><ele>1141.126174560748</ele><time>2023-02-05T04:52:03Z</time></trkpt><trkpt lat="37.343220857113614" lon="139.20988960038025"><ele>1150.8316287118942</ele><time>2023-02-05T04:53:46Z</time></trkpt><trkpt lat="37.34321574364109" lon="139.21011844387215"><ele>1157.5565804578364</ele><time>2023-02-05T04:55:08Z</time></trkpt><trkpt lat="37.34329264463837" lon="139.21032284605826"><ele>1166.0300085535273</ele><time>2023-02-05T04:56:37Z</time></trkpt><trkpt lat="37.3433054357658" lon="139.21054980697525"><ele>1174.4454380804673</ele><time>2023-02-05T04:57:46Z</time></trkpt><trkpt lat="37.34323748658452" lon="139.21076514588293"><ele>1176.9489062381908</ele><time>2023-02-05T04:58:57Z</time></trkpt><trkpt lat="37.343323662740445" lon="139.21097255089614"><ele>1183.917492788285</ele><time>2023-02-05T04:59:51Z</time></trkpt><trkpt lat="37.34345957728852" lon="139.21112635620383"><ele>1188.6443820511922</ele><time>2023-02-05T05:00:47Z</time></trkpt><trkpt lat="37.34355096111165" lon="139.21132086747184"><ele>1194.518881545402</ele><time>2023-02-05T05:01:50Z</time></trkpt><trkpt lat="37.34354902791855" lon="139.21155165928496"><ele>1198.6842175535858</ele><time>2023-02-05T05:02:38Z</time></trkpt><trkpt lat="37.34353959267711" lon="139.21177719217854"><ele>1202.6212209714577</ele><time>2023-02-05T05:03:44Z</time></trkpt><trkpt lat="37.34356303360388" lon="139.2120034024765"><ele>1206.1134591279551</ele><time>2023-02-05T05:04:56Z</time></trkpt><trkpt lat="37.343631170416" lon="139.21221959246495"><ele>1210.4999247677624</ele><time>2023-02-05T05:06:10Z</time></trkpt><trkpt lat="37.34374334871071" lon="139.21240366127853"><ele>1212.5010809479281</ele><time>2023-02-05T05:07:25Z</time></trkpt><trkpt lat="37.34392369590792" lon="139.21245416440235"><ele>1225.5336512811482</ele><time>2023-02-05T05:09:10Z</time></trkpt><trkpt lat="37.3441069906946" lon="139.21246806802728"><ele>1229.2157940948382</ele><time>2023-02-05T05:10:07Z</time></trkpt><trkpt lat="37.344017972329326" lon="139.2126664811063"><ele>1233.0333892805502</ele><time>2023-02-05T05:11:15Z</time></trkpt><trkpt lat="37.34419694457293" lon="139.2127156301172"><ele>1236.8564327927306</ele><time>2023-02-05T05:11:55Z</time></trkpt><trkpt lat="37.344376703606336" lon="139.21269770752733"><ele>1242.821253478527</ele><time>2023-02-05T05:13:08Z</time></trkpt><trkpt lat="37.344239866693385" lon="139.21285530542872"><ele>1246.277916035615</ele><time>2023-02-05T05:13:51Z</time></trkpt><trkpt lat="37.34441693049373" lon="139.21290434511025"><ele>1252.1675718547776</ele><time>2023-02-05T05:15:35Z</time></trkpt><trkpt lat="37.34458811225292" lon="139.2128225453329"><ele>1259.6944618588313</ele><time>2023-02-05T05:17:27Z</time></trkpt><trkpt lat="37.344759412974895" lon="139.2127344413654"><ele>1265.2149539543316</ele><time>2023-02-05T05:19:22Z</time></trkpt><trkpt lat="37.344938304002504" lon="139.2127619480762"><ele>1267.8456146754324</ele><time>2023-02-05T05:22:19Z</time></trkpt><trkpt lat="37.345019706158986" lon="139.21255469524394"><ele>1261.449131702073</ele><time>2023-02-05T05:36:19Z</time></trkpt><trkpt lat="37.34509541822413" lon="139.21234869927508"><ele>1263.246922660619</ele><time>2023-02-05T05:36:44Z</time></trkpt><trkpt lat="37.34514789974183" lon="139.21212294795296"><ele>1261.880184892565</ele><time>2023-02-05T05:36:52Z</time></trkpt><trkpt lat="37.34522142463113" lon="139.21190401989213"><ele>1260.7675112308934</ele><time>2023-02-05T05:36:58Z</time></trkpt><trkpt lat="37.345287931763565" lon="139.21167534175376"><ele>1260.6880027651787</ele><time>2023-02-05T05:37:05Z</time></trkpt><trkpt lat="37.3454142147724" lon="139.211486406716"><ele>1258.7552773933858</ele><time>2023-02-05T05:37:13Z</time></trkpt><trkpt lat="37.34548123151899" lon="139.21127606018206"><ele>1256.9960821010172</ele><time>2023-02-05T05:37:21Z</time></trkpt><trkpt lat="37.345624500808746" lon="139.21108853999223"><ele>1252.265260675922</ele><time>2023-02-05T05:37:27Z</time></trkpt><trkpt lat="37.345765815211344" lon="139.2108794111913"><ele>1249.1379575058818</ele><time>2023-02-05T05:37:32Z</time></trkpt><trkpt lat="37.34591247743489" lon="139.21068620101718"><ele>1245.709361913614</ele><time>2023-02-05T05:37:36Z</time></trkpt><trkpt lat="37.34606029634195" lon="139.21053969582286"><ele>1245.523217172362</ele><time>2023-02-05T05:37:42Z</time></trkpt><trkpt lat="37.34622451949775" lon="139.21037473438247"><ele>1240.6094109835103</ele><time>2023-02-05T05:44:58Z</time></trkpt><trkpt lat="37.34626865880251" lon="139.21015140162598"><ele>1236.4210326308385</ele><time>2023-02-05T05:45:03Z</time></trkpt><trkpt lat="37.34644907967922" lon="139.21009954178524"><ele>1231.1983524039388</ele><time>2023-02-05T05:45:06Z</time></trkpt><trkpt lat="37.34660075432693" lon="139.20990833416"><ele>1227.2686932673678</ele><time>2023-02-05T05:45:12Z</time></trkpt><trkpt lat="37.34673839360292" lon="139.20968812414517"><ele>1221.8359652673826</ele><time>2023-02-05T05:45:29Z</time></trkpt><trkpt lat="37.346925204607075" lon="139.20963950493845"><ele>1216.422071439214</ele><time>2023-02-05T05:45:31Z</time></trkpt><trkpt lat="37.34707631256576" lon="139.20949881350012"><ele>1207.5724783604965</ele><time>2023-02-05T05:45:34Z</time></trkpt><trkpt lat="37.34732489887101" lon="139.2095560972631"><ele>1202.6371156824753</ele><time>2023-02-05T05:45:38Z</time></trkpt><trkpt lat="37.34736117551868" lon="139.2093193460402"><ele>1196.0864891503006</ele><time>2023-02-05T05:45:41Z</time></trkpt><trkpt lat="37.34756489954352" lon="139.2092420992891"><ele>1189.3046823367476</ele><time>2023-02-05T05:45:44Z</time></trkpt><trkpt lat="37.347731471362586" lon="139.20935563432153"><ele>1187.8281651493162</ele><time>2023-02-05T05:45:48Z</time></trkpt><trkpt lat="37.34782245421529" lon="139.2091031052922"><ele>1179.6488513490185</ele><time>2023-02-05T05:45:54Z</time></trkpt><trkpt lat="37.34796688886667" lon="139.2089090027916"><ele>1172.3757469384</ele><time>2023-02-05T05:46:00Z</time></trkpt><trkpt lat="37.34805378753893" lon="139.20869332044745"><ele>1168.8587869089097</ele><time>2023-02-05T05:46:06Z</time></trkpt><trkpt lat="37.348142536709446" lon="139.20848801281906"><ele>1163.1766871158034</ele><time>2023-02-05T05:46:21Z</time></trkpt><trkpt lat="37.34832566202992" lon="139.20833456540896"><ele>1151.6620100922883</ele><time>2023-02-05T05:46:45Z</time></trkpt><trkpt lat="37.348503306041025" lon="139.20818346910622"><ele>1147.711192034185</ele><time>2023-02-05T05:46:48Z</time></trkpt><trkpt lat="37.34865756632444" lon="139.20804442019892"><ele>1134.5267297066748</ele><time>2023-02-05T05:46:52Z</time></trkpt><trkpt lat="37.3488021145182" lon="139.20783922323116"><ele>1129.5872998936102</ele><time>2023-02-05T05:46:55Z</time></trkpt><trkpt lat="37.3488923325224" lon="139.20762439773316"><ele>1125.9649530304596</ele><time>2023-02-05T05:46:58Z</time></trkpt><trkpt lat="37.34903647447348" lon="139.20746070346868"><ele>1120.6978087397292</ele><time>2023-02-05T05:47:03Z</time></trkpt><trkpt lat="37.349102749398796" lon="139.20720563367374"><ele>1116.9276064289734</ele><time>2023-02-05T05:47:25Z</time></trkpt><trkpt lat="37.34920137664868" lon="139.20697081568403"><ele>1111.3633770076558</ele><time>2023-02-05T05:47:30Z</time></trkpt><trkpt lat="37.34936339577843" lon="139.2067803368151"><ele>1107.3708106540143</ele><time>2023-02-05T05:47:34Z</time></trkpt><trkpt lat="37.34944081798788" lon="139.20657579966016"><ele>1103.7519103558734</ele><time>2023-02-05T05:47:38Z</time></trkpt><trkpt lat="37.34959489241966" lon="139.20640769845178"><ele>1097.5354719879106</ele><time>2023-02-05T05:47:49Z</time></trkpt><trkpt lat="37.349735085516684" lon="139.2062599177834"><ele>1092.4091283632442</ele><time>2023-02-05T05:47:54Z</time></trkpt><trkpt lat="37.349879395272886" lon="139.20604701147673"><ele>1085.1457053357735</ele><time>2023-02-05T05:47:58Z</time></trkpt><trkpt lat="37.3499878251477" lon="139.20586000599613"><ele>1079.3958966964856</ele><time>2023-02-05T05:48:01Z</time></trkpt><trkpt lat="37.35002481364234" lon="139.205609417541"><ele>1076.6850220486522</ele><time>2023-02-05T05:48:05Z</time></trkpt><trkpt lat="37.35022268914026" lon="139.20540744843342"><ele>1078.021021544002</ele><time>2023-02-05T05:48:10Z</time></trkpt><trkpt lat="37.35039892429939" lon="139.20526200252235"><ele>1074.8886974295601</ele><time>2023-02-05T05:48:14Z</time></trkpt><trkpt lat="37.350512030600406" lon="139.20505161390275"><ele>1066.750731405802</ele><time>2023-02-05T05:48:48Z</time></trkpt><trkpt lat="37.35058834873399" lon="139.20479003039537"><ele>1065.3682319298387</ele><time>2023-02-05T05:48:52Z</time></trkpt><trkpt lat="37.350666802975944" lon="139.20456156267554"><ele>1062.496474689804</ele><time>2023-02-05T05:48:56Z</time></trkpt><trkpt lat="37.35071046295202" lon="139.20431786282515"><ele>1056.0811065444723</ele><time>2023-02-05T05:49:01Z</time></trkpt><trkpt lat="37.35078901006503" lon="139.20409856363204"><ele>1050.096319722943</ele><time>2023-02-05T05:49:05Z</time></trkpt><trkpt lat="37.35078895927689" lon="139.2038654976123"><ele>1042.47756347619</ele><time>2023-02-05T05:49:09Z</time></trkpt><trkpt lat="37.35076875954561" lon="139.20363801183456"><ele>1038.7419720916077</ele><time>2023-02-05T05:49:13Z</time></trkpt><trkpt lat="37.35092765833058" lon="139.20350417143234"><ele>1033.7279154974967</ele><time>2023-02-05T05:49:18Z</time></trkpt><trkpt lat="37.35099553912127" lon="139.20326191457164"><ele>1025.7767319204286</ele><time>2023-02-05T05:49:22Z</time></trkpt><trkpt lat="37.351166039250046" lon="139.20312403913204"><ele>1016.9511461127549</ele><time>2023-02-05T05:49:26Z</time></trkpt><trkpt lat="37.35127999573642" lon="139.20284841836167"><ele>1009.4934728238732</ele><time>2023-02-05T05:49:34Z</time></trkpt><trkpt lat="37.35139998263178" lon="139.20264370506086"><ele>1004.9576533604413</ele><time>2023-02-05T05:49:37Z</time></trkpt><trkpt lat="37.35153792484103" lon="139.2024702489433"><ele>1000.7622159747407</ele><time>2023-02-05T05:49:40Z</time></trkpt><trkpt lat="37.3515980351889" lon="139.20225021964686"><ele>998.2947737807408</ele><time>2023-02-05T05:49:43Z</time></trkpt><trkpt lat="37.351658927010675" lon="139.20199533753305"><ele>989.0265251509845</ele><time>2023-02-05T05:49:46Z</time></trkpt><trkpt lat="37.351725501576176" lon="139.20172936266812"><ele>981.7587242163718</ele><time>2023-02-05T05:49:49Z</time></trkpt><trkpt lat="37.351871841489896" lon="139.20151653799616"><ele>983.7946106577292</ele><time>2023-02-05T05:49:53Z</time></trkpt><trkpt lat="37.35195992631662" lon="139.20126610429693"><ele>980.5888145910576</ele><time>2023-02-05T05:50:00Z</time></trkpt><trkpt lat="37.3520386612563" lon="139.20104170322983"><ele>978.6661590915173</ele><time>2023-02-05T05:50:07Z</time></trkpt><trkpt lat="37.35214459080453" lon="139.20084791077832"><ele>976.4844598481432</ele><time>2023-02-05T05:50:12Z</time></trkpt><trkpt lat="37.35223867277024" lon="139.2006160832257"><ele>974.1574237216264</ele><time>2023-02-05T05:50:20Z</time></trkpt><trkpt lat="37.352382693135745" lon="139.2004584070057"><ele>971.2964653624222</ele><time>2023-02-05T05:50:26Z</time></trkpt><trkpt lat="37.35256183792101" lon="139.20043329528232"><ele>967.2928911121562</ele><time>2023-02-05T05:50:40Z</time></trkpt><trkpt lat="37.35273780502916" lon="139.20037079929915"><ele>960.7461975822225</ele><time>2023-02-05T05:51:39Z</time></trkpt><trkpt lat="37.35290921679909" lon="139.2002944292639"><ele>953.8721757419407</ele><time>2023-02-05T05:51:53Z</time></trkpt><trkpt lat="37.35310387633114" lon="139.2003477727767"><ele>950.0456540044397</ele><time>2023-02-05T05:52:01Z</time></trkpt><trkpt lat="37.35326605297483" lon="139.20045574240245"><ele>946.9561886824667</ele><time>2023-02-05T05:52:41Z</time></trkpt><trkpt lat="37.35335983740698" lon="139.20025080405898"><ele>936.5913079567254</ele><time>2023-02-05T05:52:54Z</time></trkpt><trkpt lat="37.3535396800936" lon="139.20023622249911"><ele>928.7668491117656</ele><time>2023-02-05T05:52:59Z</time></trkpt><trkpt lat="37.35376453608242" lon="139.2002606134357"><ele>921.9648238709196</ele><time>2023-02-05T05:53:05Z</time></trkpt><trkpt lat="37.35384844962303" lon="139.20000025774354"><ele>914.5617875410244</ele><time>2023-02-05T05:53:10Z</time></trkpt><trkpt lat="37.354019186728614" lon="139.19992805416436"><ele>908.2064993344247</ele><time>2023-02-05T05:53:14Z</time></trkpt><trkpt lat="37.35420316851459" lon="139.1999654839708"><ele>901.5143565023318</ele><time>2023-02-05T05:53:17Z</time></trkpt><trkpt lat="37.35431649012528" lon="139.1997722275249"><ele>891.3005690658465</ele><time>2023-02-05T05:53:20Z</time></trkpt><trkpt lat="37.35445327097474" lon="139.19959826813295"><ele>882.5860832165927</ele><time>2023-02-05T05:53:24Z</time></trkpt><trkpt lat="37.354443923881874" lon="139.19933272009698"><ele>873.8268273780122</ele><time>2023-02-05T05:53:29Z</time></trkpt><trkpt lat="37.354612692089155" lon="139.1991892212859"><ele>868.5303193703294</ele><time>2023-02-05T05:53:32Z</time></trkpt><trkpt lat="37.35469058560122" lon="139.19897149951714"><ele>858.8962852247059</ele><time>2023-02-05T05:55:01Z</time></trkpt><trkpt lat="37.354769361922486" lon="139.1987361348942"><ele>848.5499831587076</ele><time>2023-02-05T05:55:06Z</time></trkpt><trkpt lat="37.354960213651225" lon="139.19868148109913"><ele>837.4287233110517</ele><time>2023-02-05T05:55:35Z</time></trkpt><trkpt lat="37.35510818956965" lon="139.19854288992218"><ele>827.9715349525213</ele><time>2023-02-05T05:55:40Z</time></trkpt><trkpt lat="37.355260317914706" lon="139.19837628454457"><ele>823.8791792560369</ele><time>2023-02-05T05:55:47Z</time></trkpt><trkpt lat="37.35540827171069" lon="139.198231557932"><ele>810.7909964835271</ele><time>2023-02-05T05:57:15Z</time></trkpt><trkpt lat="37.355495570057656" lon="139.19803117728821"><ele>806.0250982791185</ele><time>2023-02-05T05:57:24Z</time></trkpt><trkpt lat="37.35566630838138" lon="139.19791649175733"><ele>795.6388416066766</ele><time>2023-02-05T05:57:30Z</time></trkpt><trkpt lat="37.35583745187158" lon="139.19782212882828"><ele>786.7536961408332</ele><time>2023-02-05T05:57:49Z</time></trkpt><trkpt lat="37.35578333233759" lon="139.19757885255058"><ele>778.5116302995011</ele><time>2023-02-05T06:01:06Z</time></trkpt><trkpt lat="37.355959995579504" lon="139.19746879353963"><ele>768.1416314169765</ele><time>2023-02-05T06:01:14Z</time></trkpt><trkpt lat="37.35600243220447" lon="139.1972102958082"><ele>764.7126524057239</ele><time>2023-02-05T06:01:21Z</time></trkpt><trkpt lat="37.356065844784936" lon="139.1969977593314"><ele>768.2754770629108</ele><time>2023-02-05T06:02:43Z</time></trkpt><trkpt lat="37.356126425023305" lon="139.19678187603253"><ele>760.8394622076303</ele><time>2023-02-05T06:02:55Z</time></trkpt><trkpt lat="37.35631781964943" lon="139.19672919556004"><ele>754.3119333069772</ele><time>2023-02-05T06:04:27Z</time></trkpt><trkpt lat="37.35648831286552" lon="139.1965793362568"><ele>752.0903362678364</ele><time>2023-02-05T06:04:32Z</time></trkpt><trkpt lat="37.35665135270726" lon="139.1967248902854"><ele>740.3912006272003</ele><time>2023-02-05T06:04:48Z</time></trkpt><trkpt lat="37.356827768694245" lon="139.19677322694696"><ele>737.6060483176261</ele><time>2023-02-05T06:05:33Z</time></trkpt><trkpt lat="37.35702793903323" lon="139.19680100957916"><ele>732.1251920517534</ele><time>2023-02-05T06:05:55Z</time></trkpt><trkpt lat="37.357211971423325" lon="139.19675370960672"><ele>726.9509316682816</ele><time>2023-02-05T06:06:03Z</time></trkpt><trkpt lat="37.357380676887075" lon="139.19664163519494"><ele>722.430853843689</ele><time>2023-02-05T06:06:12Z</time></trkpt><trkpt lat="37.35743720600367" lon="139.19642508137"><ele>720.3519627312198</ele><time>2023-02-05T06:06:35Z</time></trkpt><trkpt lat="37.357605973362766" lon="139.19632301796918"><ele>715.7619748068973</ele><time>2023-02-05T06:07:03Z</time></trkpt><trkpt lat="37.357786330950255" lon="139.19630766519757"><ele>712.5010944250971</ele><time>2023-02-05T06:07:10Z</time></trkpt><trkpt lat="37.35787036581578" lon="139.196078291818"><ele>705.2591738495976</ele><time>2023-02-05T06:07:19Z</time></trkpt><trkpt lat="37.35798735629018" lon="139.19588968776222"><ele>697.1392570668831</ele><time>2023-02-05T06:07:35Z</time></trkpt><trkpt lat="37.3582049739615" lon="139.19582494471922"><ele>689.8983934503049</ele><time>2023-02-05T06:07:40Z</time></trkpt><trkpt lat="37.358348646651514" lon="139.19565250682027"><ele>685.1759631531313</ele><time>2023-02-05T06:07:44Z</time></trkpt><trkpt lat="37.3584449046661" lon="139.19540271069334"><ele>672.5730213858187</ele><time>2023-02-05T06:08:19Z</time></trkpt><trkpt lat="37.358485811193404" lon="139.19517236733878"><ele>667.8319020811468</ele><time>2023-02-05T06:08:23Z</time></trkpt><trkpt lat="37.358553092974525" lon="139.1949460476046"><ele>665.0714127393439</ele><time>2023-02-05T06:08:32Z</time></trkpt><trkpt lat="37.358709607339286" lon="139.19480915726774"><ele>665.0647814329714</ele><time>2023-02-05T06:08:44Z</time></trkpt><trkpt lat="37.35876510227212" lon="139.1945938676309"><ele>663.7006199546158</ele><time>2023-02-05T06:09:26Z</time></trkpt><trkpt lat="37.358834617239516" lon="139.19437438689886"><ele>662.6950640361756</ele><time>2023-02-05T06:09:38Z</time></trkpt><trkpt lat="37.35895980577182" lon="139.1941862636253"><ele>659.277816304937</ele><time>2023-02-05T06:09:45Z</time></trkpt><trkpt lat="37.35913247913907" lon="139.19408864439774"><ele>657.6809495976195</ele><time>2023-02-05T06:09:48Z</time></trkpt><trkpt lat="37.359313192980004" lon="139.1940635763572"><ele>661.0005551455542</ele><time>2023-02-05T06:10:51Z</time></trkpt><trkpt lat="37.35942124386929" lon="139.19388111744044"><ele>656.4847357897088</ele><time>2023-02-05T06:11:55Z</time></trkpt><trkpt lat="37.3595540089564" lon="139.1937005039544"><ele>653.7802376765758</ele><time>2023-02-05T06:12:00Z</time></trkpt><trkpt lat="37.35972167405467" lon="139.1935971013718"><ele>652.7855929229409</ele><time>2023-02-05T06:12:05Z</time></trkpt><trkpt lat="37.35993450408535" lon="139.19352888448927"><ele>649.7292372174561</ele><time>2023-02-05T06:12:09Z</time></trkpt><trkpt lat="37.36012508631476" lon="139.1934641748361"><ele>647.9598218156025</ele><time>2023-02-05T06:12:13Z</time></trkpt><trkpt lat="37.36027614014449" lon="139.19331736303369"><ele>646.46996831242</ele><time>2023-02-05T06:12:18Z</time></trkpt><trkpt lat="37.360387316097324" lon="139.1931064613229"><ele>644.4387124003842</ele><time>2023-02-05T06:12:22Z</time></trkpt><trkpt lat="37.36057791630221" lon="139.19302162443094"><ele>643.7172984117642</ele><time>2023-02-05T06:12:26Z</time></trkpt><trkpt lat="37.36075397312024" lon="139.1929543257986"><ele>643.4160416182131</ele><time>2023-02-05T06:12:33Z</time></trkpt><trkpt lat="37.36093213527543" lon="139.19288451358756"><ele>646.7195975380018</ele><time>2023-02-05T06:12:42Z</time></trkpt><trkpt lat="37.36110655656654" lon="139.1927703244364"><ele>645.3288233391941</ele><time>2023-02-05T06:12:51Z</time></trkpt><trkpt lat="37.36128603419383" lon="139.19271461311013"><ele>644.9197503849864</ele><time>2023-02-05T06:13:01Z</time></trkpt><trkpt lat="37.361385464316555" lon="139.19251663098015"><ele>639.607796468772</ele><time>2023-02-05T06:13:11Z</time></trkpt><trkpt lat="37.36141578583199" lon="139.1922547800723"><ele>637.452638941817</ele><time>2023-02-05T06:13:17Z</time></trkpt><trkpt lat="37.361483168074265" lon="139.1920320546138"><ele>634.997452029027</ele><time>2023-02-05T06:13:21Z</time></trkpt><trkpt lat="37.361468379087235" lon="139.19180667900176"><ele>637.0825479244813</ele><time>2023-02-05T06:13:39Z</time></trkpt><trkpt lat="37.361525496516684" lon="139.19159204585"><ele>638.6155164968222</ele><time>2023-02-05T06:14:17Z</time></trkpt><trkpt lat="37.36152850493922" lon="139.19135989534007"><ele>637.6226440761238</ele><time>2023-02-05T06:15:32Z</time></trkpt><trkpt lat="37.36158075472116" lon="139.19113473739046"><ele>637.6071565635502</ele><time>2023-02-05T06:16:05Z</time></trkpt><trkpt lat="37.36160249417943" lon="139.19090166656534"><ele>635.5507391104475</ele><time>2023-02-05T06:17:04Z</time></trkpt><trkpt lat="37.3615269368502" lon="139.19069107526"><ele>640.5327463438734</ele><time>2023-02-05T06:17:39Z</time></trkpt><trkpt lat="37.361417626911965" lon="139.19050734427535"><ele>639.2301549492404</ele><time>2023-02-05T06:19:11Z</time></trkpt><trkpt lat="37.36130500261898" lon="139.1903237519441"><ele>639.3183481767774</ele><time>2023-02-05T06:19:56Z</time></trkpt><trkpt lat="37.36119006828861" lon="139.19012834340762"><ele>636.2968913717195</ele><time>2023-02-05T06:20:01Z</time></trkpt><trkpt lat="37.36109909055973" lon="139.1899243437819"><ele>634.8640970373526</ele><time>2023-02-05T06:20:04Z</time></trkpt><trkpt lat="37.36112315323371" lon="139.18967082039026"><ele>632.7511998163536</ele><time>2023-02-05T06:20:08Z</time></trkpt><trkpt lat="37.36119808614067" lon="139.1894446889618"><ele>630.4669372839853</ele><time>2023-02-05T06:20:25Z</time></trkpt><trkpt lat="37.36139159101951" lon="139.18947437898365"><ele>621.3922412581742</ele><time>2023-02-05T06:20:44Z</time></trkpt><trkpt lat="37.36160256839265" lon="139.18958034798683"><ele>615.365853744559</ele><time>2023-02-05T06:20:51Z</time></trkpt><trkpt lat="37.36170901374938" lon="139.1893908041355"><ele>609.7325520291924</ele><time>2023-02-05T06:20:55Z</time></trkpt><trkpt lat="37.361699771193045" lon="139.18914348489983"><ele>605.6306391432881</ele><time>2023-02-05T06:20:59Z</time></trkpt><trkpt lat="37.36178751380073" lon="139.18886538231897"><ele>602.7392371101305</ele><time>2023-02-05T06:21:04Z</time></trkpt><trkpt lat="37.361870619289014" lon="139.18862844115438"><ele>598.487210537307</ele><time>2023-02-05T06:21:09Z</time></trkpt><trkpt lat="37.36197478366949" lon="139.18837210052283"><ele>592.5235450258479</ele><time>2023-02-05T06:21:13Z</time></trkpt><trkpt lat="37.362087594445576" lon="139.18813015050978"><ele>587.6598125034943</ele><time>2023-02-05T06:21:17Z</time></trkpt><trkpt lat="37.36214831098382" lon="139.18785803993012"><ele>579.2440231591463</ele><time>2023-02-05T06:21:25Z</time></trkpt><trkpt lat="37.362109973381045" lon="139.18759572555626"><ele>579.9656776478514</ele><time>2023-02-05T06:21:31Z</time></trkpt><trkpt lat="37.36214439298921" lon="139.18730750953466"><ele>573.9477298166603</ele><time>2023-02-05T06:21:35Z</time></trkpt><trkpt lat="37.36215432381108" lon="139.1870005017064"><ele>569.7129403203726</ele><time>2023-02-05T06:21:38Z</time></trkpt><trkpt lat="37.36221193965172" lon="139.18676321973612"><ele>566.4099493892863</ele><time>2023-02-05T06:21:41Z</time></trkpt><trkpt lat="37.36224753817906" lon="139.1865178927718"><ele>563.4206856554374</ele><time>2023-02-05T06:21:46Z</time></trkpt><trkpt lat="37.36231835120127" lon="139.18634708350422"><ele>564.6220658645034</ele><time>2023-02-05T06:22:17Z</time></trkpt><trkpt lat="37.36233657746676" lon="139.18607917810027"><ele>560.0415858821943</ele><time>2023-02-05T06:23:07Z</time></trkpt><trkpt lat="37.36237915055703" lon="139.18579462540492"><ele>556.9997943723574</ele><time>2023-02-05T06:23:11Z</time></trkpt><trkpt lat="37.362452283021476" lon="139.1855396208288"><ele>551.9086917992681</ele><time>2023-02-05T06:23:15Z</time></trkpt><trkpt lat="37.362574098060804" lon="139.1852923339913"><ele>549.3457086496055</ele><time>2023-02-05T06:23:19Z</time></trkpt><trkpt lat="37.36268108226126" lon="139.18505319243218"><ele>544.9039107132703</ele><time>2023-02-05T06:23:23Z</time></trkpt><trkpt lat="37.362879949962576" lon="139.1849750099253"><ele>531.4416081989184</ele><time>2023-02-05T06:23:28Z</time></trkpt><trkpt lat="37.36302203801921" lon="139.18477609576155"><ele>527.1588988928124</ele><time>2023-02-05T06:23:33Z</time></trkpt><trkpt lat="37.36314653884464" lon="139.18458723396415"><ele>521.0337172504514</ele><time>2023-02-05T06:23:38Z</time></trkpt><trkpt lat="37.36327251430469" lon="139.1843940847436"><ele>520.9888378391042</ele><time>2023-02-05T06:23:43Z</time></trkpt><trkpt lat="37.36344195787509" lon="139.18429477351117"><ele>520.0406807558611</ele><time>2023-02-05T06:24:20Z</time></trkpt><trkpt lat="37.363416994006634" lon="139.18405812531788"><ele>519.3553358614445</ele><time>2023-02-05T06:24:49Z</time></trkpt><trkpt lat="37.363288614073035" lon="139.18389165164166"><ele>517.1817702939734</ele><time>2023-02-05T06:24:57Z</time></trkpt><trkpt lat="37.3632169796557" lon="139.1836406684511"><ele>516.1305543687195</ele><time>2023-02-05T06:25:03Z</time></trkpt><trkpt lat="37.363202595673904" lon="139.18340450653204"><ele>514.8697847425938</ele><time>2023-02-05T06:25:07Z</time></trkpt><trkpt lat="37.363167127121656" lon="139.1831325296329"><ele>511.7661024928093</ele><time>2023-02-05T06:25:12Z</time></trkpt><trkpt lat="37.363131423238485" lon="139.18289272976378"><ele>509.18960452172905</ele><time>2023-02-05T06:25:16Z</time></trkpt><trkpt lat="37.362993943484284" lon="139.18269882012797"><ele>506.16880384180695</ele><time>2023-02-05T06:25:20Z</time></trkpt><trkpt lat="37.36279376397586" lon="139.18256703763225"><ele>502.5192525666207</ele><time>2023-02-05T06:25:25Z</time></trkpt><trkpt lat="37.36261522603976" lon="139.1824657294126"><ele>500.3742590015754</ele><time>2023-02-05T06:25:29Z</time></trkpt><trkpt lat="37.362460956674624" lon="139.18229902867182"><ele>497.9032110143453</ele><time>2023-02-05T06:25:33Z</time></trkpt><trkpt lat="37.36233914465113" lon="139.18212569538127"><ele>496.11108079366386</ele><time>2023-02-05T06:25:42Z</time></trkpt><trkpt lat="37.36219865517997" lon="139.18197197451667"><ele>496.1402530083433</ele><time>2023-02-05T06:26:20Z</time></trkpt><trkpt lat="37.362061956462384" lon="139.1818097929161"><ele>493.23123920336366</ele><time>2023-02-05T06:26:54Z</time></trkpt><trkpt lat="37.36190874023089" lon="139.18164853103863"><ele>495.5220251772553</ele><time>2023-02-05T06:27:23Z</time></trkpt><trkpt lat="37.36181666887207" lon="139.18145095832213"><ele>492.3268130533397</ele><time>2023-02-05T06:27:57Z</time></trkpt><trkpt lat="37.36169621944643" lon="139.18128107500553"><ele>491.7280514733866</ele><time>2023-02-05T06:28:21Z</time></trkpt><trkpt lat="37.36155944433952" lon="139.18112885374123"><ele>490.8863588683307</ele><time>2023-02-05T06:29:10Z</time></trkpt><trkpt lat="37.361540940081305" lon="139.18090226245548"><ele>490.2841713586822</ele><time>2023-02-05T06:29:33Z</time></trkpt><trkpt lat="37.3613830764455" lon="139.18105443936133"><ele>491.163684845902</ele><time>2023-02-05T06:29:51Z</time></trkpt><trkpt lat="37.361340763732024" lon="139.1812867369333"><ele>493.2983204461634</ele><time>2023-02-05T06:30:38Z</time></trkpt></trkseg></trk></gpx>