<?xml version='1.0' encoding='UTF-8'?><gpx creator="YAMAP - https://yamap.com" xsi:schemaLocation="http://www.topografix.com/GPX/1/1 http://www.topografix.com/GPX/1/1/gpx.xsd" version="1.1" xmlns="http://www.topografix.com/GPX/1/1" xmlns:xsi="http://www.w3.org/2001/XMLSchema-instance"><metadata><bounds maxlat="36.89347644561721" maxlon="138.17815199965563" minlat="36.876602936570414" minlon="138.10272871962687"/></metadata><trk><name>三田原山</name><number>1</number><trkseg><trkpt lat="36.876602936570414" lon="138.11514395301987"><ele>1897.114517211914</ele><time>2023-02-12T01:25:11Z</time></trkpt><trkpt lat="36.87682656574703" lon="138.11530538847495"><ele>1853.478775024414</ele><time>2023-02-12T01:25:12Z</time></trkpt><trkpt lat="36.87683077411225" lon="138.11507961811853"><ele>1862.0403749905527</ele><time>2023-02-12T01:30:00Z</time></trkpt><trkpt lat="36.87697677292646" lon="138.11494337228564"><ele>1866.1010493366048</ele><time>2023-02-12T01:30:25Z</time></trkpt><trkpt lat="36.87699643222653" lon="138.11470890097212"><ele>1868.1305935708806</ele><time>2023-02-12T01:30:59Z</time></trkpt><trkpt lat="36.87706010941627" lon="138.11449447026766"><ele>1866.732030749321</ele><time>2023-02-12T01:31:24Z</time></trkpt><trkpt lat="36.877242841865844" lon="138.11445418609102"><ele>1867.5913264555857</ele><time>2023-02-12T01:31:42Z</time></trkpt><trkpt lat="36.8774238094487" lon="138.11447971336477"><ele>1869.7818890670314</ele><time>2023-02-12T01:32:27Z</time></trkpt><trkpt lat="36.87760476417825" lon="138.11449327850687"><ele>1877.8840867793187</ele><time>2023-02-12T01:32:57Z</time></trkpt><trkpt lat="36.877775028143944" lon="138.11438465025364"><ele>1880.2810403415933</ele><time>2023-02-12T01:33:25Z</time></trkpt><trkpt lat="36.87795181701729" lon="138.11428478426436"><ele>1885.8909030370414</ele><time>2023-02-12T01:33:52Z</time></trkpt><trkpt lat="36.87810986190008" lon="138.11417568642347"><ele>1888.6467081308365</ele><time>2023-02-12T01:34:15Z</time></trkpt><trkpt lat="36.87826312072993" lon="138.11405414803247"><ele>1893.046991813928</ele><time>2023-02-12T01:34:40Z</time></trkpt><trkpt lat="36.8784284562646" lon="138.1139629223761"><ele>1897.6646625669673</ele><time>2023-02-12T01:35:17Z</time></trkpt><trkpt lat="36.87858240058215" lon="138.1138447314114"><ele>1900.8900755634531</ele><time>2023-02-12T01:35:45Z</time></trkpt><trkpt lat="36.878765025551466" lon="138.11381570674456"><ele>1905.7786037512124</ele><time>2023-02-12T01:36:15Z</time></trkpt><trkpt lat="36.87896079589622" lon="138.11382191604213"><ele>1908.0613827081397</ele><time>2023-02-12T01:36:42Z</time></trkpt><trkpt lat="36.879109884109184" lon="138.1136920152779"><ele>1912.2375670764595</ele><time>2023-02-12T01:37:16Z</time></trkpt><trkpt lat="36.8792856801132" lon="138.1137626836385"><ele>1917.6422215662897</ele><time>2023-02-12T01:37:49Z</time></trkpt><trkpt lat="36.87946397317302" lon="138.11372444357633"><ele>1920.5371248526499</ele><time>2023-02-12T01:38:08Z</time></trkpt><trkpt lat="36.87964387531856" lon="138.1136986267281"><ele>1927.5500401742756</ele><time>2023-02-12T01:38:43Z</time></trkpt><trkpt lat="36.87982011724098" lon="138.1136371122556"><ele>1930.8653236646205</ele><time>2023-02-12T01:39:02Z</time></trkpt><trkpt lat="36.8799453566884" lon="138.1134754478377"><ele>1936.6167800165713</ele><time>2023-02-12T01:39:32Z</time></trkpt><trkpt lat="36.88004977063623" lon="138.11329102149853"><ele>1937.1732890047133</ele><time>2023-02-12T01:40:20Z</time></trkpt><trkpt lat="36.87991454965714" lon="138.11312401642363"><ele>1946.5016793254763</ele><time>2023-02-12T01:41:02Z</time></trkpt><trkpt lat="36.87987127452859" lon="138.11289866291614"><ele>1949.9480349635705</ele><time>2023-02-12T01:41:27Z</time></trkpt><trkpt lat="36.87986181369734" lon="138.11266503671771"><ele>1952.6600986151025</ele><time>2023-02-12T01:42:01Z</time></trkpt><trkpt lat="36.87968152052648" lon="138.11263565070027"><ele>1949.1067660078406</ele><time>2023-02-12T01:43:33Z</time></trkpt><trkpt lat="36.87956237011318" lon="138.11246362637732"><ele>1958.985936883837</ele><time>2023-02-12T01:44:02Z</time></trkpt><trkpt lat="36.87948662185867" lon="138.11225080658372"><ele>1965.2284038811922</ele><time>2023-02-12T01:44:25Z</time></trkpt><trkpt lat="36.87949455947817" lon="138.1120117878618"><ele>1972.6622513439506</ele><time>2023-02-12T01:44:52Z</time></trkpt><trkpt lat="36.87939859126736" lon="138.1118186715744"><ele>1978.9640072369948</ele><time>2023-02-12T01:45:28Z</time></trkpt><trkpt lat="36.87926407830231" lon="138.11165398520828"><ele>1985.389768482186</ele><time>2023-02-12T01:46:03Z</time></trkpt><trkpt lat="36.879136887293654" lon="138.11148133474398"><ele>1989.8154929839075</ele><time>2023-02-12T01:46:33Z</time></trkpt><trkpt lat="36.87902986888549" lon="138.11130053754812"><ele>1993.2165845809504</ele><time>2023-02-12T01:47:10Z</time></trkpt><trkpt lat="36.878879036822944" lon="138.1111730429088"><ele>2000.0310501335189</ele><time>2023-02-12T01:47:57Z</time></trkpt><trkpt lat="36.87890523378351" lon="138.1109364822269"><ele>1999.4844423094764</ele><time>2023-02-12T01:53:18Z</time></trkpt><trkpt lat="36.8789503117209" lon="138.1107173479197"><ele>2005.0796192763373</ele><time>2023-02-12T01:53:42Z</time></trkpt><trkpt lat="36.87901613959015" lon="138.11050731660447"><ele>2009.6011947030202</ele><time>2023-02-12T01:54:14Z</time></trkpt><trkpt lat="36.87906479131208" lon="138.11028541869743"><ele>2014.7244275230914</ele><time>2023-02-12T01:54:46Z</time></trkpt><trkpt lat="36.87915286354673" lon="138.11008853337074"><ele>2021.8408158682287</ele><time>2023-02-12T01:55:50Z</time></trkpt><trkpt lat="36.87931517848248" lon="138.10999017232686"><ele>2022.9664212111384</ele><time>2023-02-12T01:56:20Z</time></trkpt><trkpt lat="36.879432455204324" lon="138.1098183481927"><ele>2033.5642421571538</ele><time>2023-02-12T01:57:09Z</time></trkpt><trkpt lat="36.87961152312904" lon="138.10984566831746"><ele>2046.5992712248117</ele><time>2023-02-12T01:58:13Z</time></trkpt><trkpt lat="36.879710789908366" lon="138.11004450622397"><ele>2054.7693682629615</ele><time>2023-02-12T01:58:53Z</time></trkpt><trkpt lat="36.879856198958365" lon="138.1099115768377"><ele>2059.859096395783</ele><time>2023-02-12T01:59:39Z</time></trkpt><trkpt lat="36.880027714631645" lon="138.10999521102426"><ele>2073.9602215737104</ele><time>2023-02-12T02:00:46Z</time></trkpt><trkpt lat="36.88019148288514" lon="138.110089199992"><ele>2081.021039981395</ele><time>2023-02-12T02:01:41Z</time></trkpt><trkpt lat="36.88037115981481" lon="138.1100625588589"><ele>2085.587027752772</ele><time>2023-02-12T02:02:41Z</time></trkpt><trkpt lat="36.8804969659434" lon="138.10989464817303"><ele>2095.3405236583203</ele><time>2023-02-12T02:03:24Z</time></trkpt><trkpt lat="36.880634388299136" lon="138.10973919605465"><ele>2104.6995997279882</ele><time>2023-02-12T02:04:11Z</time></trkpt><trkpt lat="36.88081943245662" lon="138.1097412147203"><ele>2112.150243421085</ele><time>2023-02-12T02:05:04Z</time></trkpt><trkpt lat="36.880986058330464" lon="138.1098360743897"><ele>2123.0133142219856</ele><time>2023-02-12T02:06:04Z</time></trkpt><trkpt lat="36.88113879644129" lon="138.10971367091102"><ele>2130.6813781978562</ele><time>2023-02-12T02:06:48Z</time></trkpt><trkpt lat="36.88132050456849" lon="138.10972135269645"><ele>2137.0633349660784</ele><time>2023-02-12T02:07:30Z</time></trkpt><trkpt lat="36.88138832541803" lon="138.10950991604017"><ele>2145.8868592204526</ele><time>2023-02-12T02:08:11Z</time></trkpt><trkpt lat="36.881482023216066" lon="138.10931798896388"><ele>2150.317088905722</ele><time>2023-02-12T02:08:42Z</time></trkpt><trkpt lat="36.88153018120719" lon="138.10909691607486"><ele>2159.2460222449154</ele><time>2023-02-12T02:09:13Z</time></trkpt><trkpt lat="36.88168953531408" lon="138.10898403228467"><ele>2159.257445028983</ele><time>2023-02-12T02:09:52Z</time></trkpt><trkpt lat="36.88181695614399" lon="138.10914326835393"><ele>2171.1687199920416</ele><time>2023-02-12T02:10:46Z</time></trkpt><trkpt lat="36.8819693710374" lon="138.10926627340484"><ele>2176.5515608955175</ele><time>2023-02-12T02:11:30Z</time></trkpt><trkpt lat="36.88215452177136" lon="138.10926038420754"><ele>2182.2266688700765</ele><time>2023-02-12T02:12:18Z</time></trkpt><trkpt lat="36.8823289831854" lon="138.109203278249"><ele>2191.73245926667</ele><time>2023-02-12T02:13:27Z</time></trkpt><trkpt lat="36.88247899654823" lon="138.10907449518274"><ele>2199.677061232738</ele><time>2023-02-12T02:14:40Z</time></trkpt><trkpt lat="36.882663023034" lon="138.10906705465717"><ele>2211.113408475183</ele><time>2023-02-12T02:15:39Z</time></trkpt><trkpt lat="36.88284240602703" lon="138.1090289981962"><ele>2221.9100398067385</ele><time>2023-02-12T02:16:37Z</time></trkpt><trkpt lat="36.883023753158064" lon="138.10901184919166"><ele>2233.238345959224</ele><time>2023-02-12T02:17:54Z</time></trkpt><trkpt lat="36.88320123572047" lon="138.10896549829928"><ele>2241.922655310482</ele><time>2023-02-12T02:19:23Z</time></trkpt><trkpt lat="36.883375193642486" lon="138.10890329561119"><ele>2246.87863910757</ele><time>2023-02-12T02:20:04Z</time></trkpt><trkpt lat="36.88355423507927" lon="138.10885355383866"><ele>2256.8870661025867</ele><time>2023-02-12T02:20:53Z</time></trkpt><trkpt lat="36.88372853016472" lon="138.10878576592054"><ele>2269.2692109961063</ele><time>2023-02-12T02:21:49Z</time></trkpt><trkpt lat="36.883904566652504" lon="138.10872688154194"><ele>2274.728711999953</ele><time>2023-02-12T02:22:43Z</time></trkpt><trkpt lat="36.884069282974" lon="138.108621566388"><ele>2282.07141353935</ele><time>2023-02-12T02:23:23Z</time></trkpt><trkpt lat="36.884164148365976" lon="138.10843004414744"><ele>2286.8091669837013</ele><time>2023-02-12T02:23:54Z</time></trkpt><trkpt lat="36.884304567374244" lon="138.10828864955042"><ele>2288.613375480287</ele><time>2023-02-12T02:24:33Z</time></trkpt><trkpt lat="36.884472447779395" lon="138.10817386828018"><ele>2290.139778916724</ele><time>2023-02-12T02:25:37Z</time></trkpt><trkpt lat="36.88446834318914" lon="138.1079446112026"><ele>2288.9678197288886</ele><time>2023-02-12T02:26:00Z</time></trkpt><trkpt lat="36.884528159126674" lon="138.107728431717"><ele>2288.7750199651346</ele><time>2023-02-12T02:26:17Z</time></trkpt><trkpt lat="36.88460472043313" lon="138.10764851992772"><ele>2292.771484375</ele><time>2023-02-12T02:31:48Z</time></trkpt><trkpt lat="36.88478668877168" lon="138.10766298395282"><ele>2278.123491161503</ele><time>2023-02-12T02:48:05Z</time></trkpt><trkpt lat="36.88491363549095" lon="138.10786263067806"><ele>2263.0205645356327</ele><time>2023-02-12T02:48:08Z</time></trkpt><trkpt lat="36.88500894590991" lon="138.1081201670665"><ele>2254.522064767778</ele><time>2023-02-12T02:48:11Z</time></trkpt><trkpt lat="36.88522050856399" lon="138.10804432505864"><ele>2247.8691902542487</ele><time>2023-02-12T02:48:14Z</time></trkpt><trkpt lat="36.88517762196279" lon="138.10826926242922"><ele>2250.9426615228876</ele><time>2023-02-12T02:50:06Z</time></trkpt><trkpt lat="36.885194820638866" lon="138.10851293655745"><ele>2244.684811580926</ele><time>2023-02-12T02:51:14Z</time></trkpt><trkpt lat="36.88531787578894" lon="138.10876398756866"><ele>2227.142647809349</ele><time>2023-02-12T02:51:18Z</time></trkpt><trkpt lat="36.88537674966538" lon="138.10899703457056"><ele>2216.8309572907165</ele><time>2023-02-12T02:51:21Z</time></trkpt><trkpt lat="36.88523947782116" lon="138.10926984123995"><ele>2197.560386467725</ele><time>2023-02-12T02:54:46Z</time></trkpt><trkpt lat="36.885193682699885" lon="138.1094996963738"><ele>2191.148406443186</ele><time>2023-02-12T02:54:48Z</time></trkpt><trkpt lat="36.88516669655594" lon="138.1097314153819"><ele>2183.8554862355813</ele><time>2023-02-12T02:54:50Z</time></trkpt><trkpt lat="36.885131381323646" lon="138.1099853982723"><ele>2171.6383401677012</ele><time>2023-02-12T02:54:52Z</time></trkpt><trkpt lat="36.88520560675144" lon="138.11021522723556"><ele>2153.4346585143358</ele><time>2023-02-12T02:55:00Z</time></trkpt><trkpt lat="36.88532288954688" lon="138.11046767776602"><ele>2134.835889325477</ele><time>2023-02-12T02:55:04Z</time></trkpt><trkpt lat="36.885514279803715" lon="138.1105395508327"><ele>2128.9555269526318</ele><time>2023-02-12T02:55:06Z</time></trkpt><trkpt lat="36.88575547647726" lon="138.11045387147092"><ele>2123.181623383425</ele><time>2023-02-12T02:55:09Z</time></trkpt><trkpt lat="36.88596070039246" lon="138.11059370455217"><ele>2096.6154373381287</ele><time>2023-02-12T02:55:13Z</time></trkpt><trkpt lat="36.8860837478204" lon="138.11082908856966"><ele>2084.93548750598</ele><time>2023-02-12T02:55:16Z</time></trkpt><trkpt lat="36.88628322282726" lon="138.1108447503421"><ele>2078.985362944193</ele><time>2023-02-12T02:55:18Z</time></trkpt><trkpt lat="36.88647950819724" lon="138.11107064539274"><ele>2068.486323560588</ele><time>2023-02-12T02:55:21Z</time></trkpt><trkpt lat="36.88662085548191" lon="138.11121357542555"><ele>2068.1128362808377</ele><time>2023-02-12T02:55:22Z</time></trkpt><trkpt lat="36.88667228855079" lon="138.11099215975804"><ele>2078.7878954913467</ele><time>2023-02-12T03:21:36Z</time></trkpt><trkpt lat="36.8867260510341" lon="138.11077653520923"><ele>2082.117698257789</ele><time>2023-02-12T03:22:03Z</time></trkpt><trkpt lat="36.88676115334817" lon="138.110551689295"><ele>2084.863815067336</ele><time>2023-02-12T03:22:45Z</time></trkpt><trkpt lat="36.88679933625118" lon="138.11032972244294"><ele>2090.796947571449</ele><time>2023-02-12T03:23:07Z</time></trkpt><trkpt lat="36.886824507638394" lon="138.11010246661723"><ele>2096.2151018800214</ele><time>2023-02-12T03:23:47Z</time></trkpt><trkpt lat="36.88685176791843" lon="138.1098794972801"><ele>2106.9926820183173</ele><time>2023-02-12T03:24:23Z</time></trkpt><trkpt lat="36.88672318707954" lon="138.10972052424884"><ele>2110.5739433430135</ele><time>2023-02-12T03:25:08Z</time></trkpt><trkpt lat="36.88658429712785" lon="138.10986676706898"><ele>2110.338890172541</ele><time>2023-02-12T03:25:36Z</time></trkpt><trkpt lat="36.88643653009981" lon="138.10972547888335"><ele>2121.6389584532008</ele><time>2023-02-12T03:26:16Z</time></trkpt><trkpt lat="36.88625948187766" lon="138.10980092053697"><ele>2123.9565068781376</ele><time>2023-02-12T03:27:16Z</time></trkpt><trkpt lat="36.88637370198618" lon="138.10962591459472"><ele>2121.635109915398</ele><time>2023-02-12T03:28:11Z</time></trkpt><trkpt lat="36.88652802875359" lon="138.1095037749522"><ele>2133.078763090074</ele><time>2023-02-12T03:29:05Z</time></trkpt><trkpt lat="36.88634494421003" lon="138.10947041876062"><ele>2133.32273092214</ele><time>2023-02-12T03:30:16Z</time></trkpt><trkpt lat="36.88617062859967" lon="138.10941192778827"><ele>2142.607421260327</ele><time>2023-02-12T03:31:44Z</time></trkpt><trkpt lat="36.885990464825625" lon="138.10938871669265"><ele>2144.7068447666243</ele><time>2023-02-12T03:32:59Z</time></trkpt><trkpt lat="36.885865731009126" lon="138.1095618966833"><ele>2157.830908349715</ele><time>2023-02-12T03:38:04Z</time></trkpt><trkpt lat="36.88567326586086" lon="138.10950525715052"><ele>2154.6488328389823</ele><time>2023-02-12T03:42:45Z</time></trkpt><trkpt lat="36.88560017878923" lon="138.10929708715628"><ele>2190.122749969363</ele><time>2023-02-12T03:47:45Z</time></trkpt><trkpt lat="36.88547837581711" lon="138.10913139784276"><ele>2192.5420519877225</ele><time>2023-02-12T03:50:30Z</time></trkpt><trkpt lat="36.88557053979017" lon="138.10892302520654"><ele>2212.158950259909</ele><time>2023-02-12T03:54:45Z</time></trkpt><trkpt lat="36.88538947634033" lon="138.10890933086964"><ele>2215.0469005564228</ele><time>2023-02-12T03:55:34Z</time></trkpt><trkpt lat="36.885285578182604" lon="138.1087207328731"><ele>2217.5298929261044</ele><time>2023-02-12T03:57:42Z</time></trkpt><trkpt lat="36.88521343742397" lon="138.10851329794187"><ele>2231.6355145191774</ele><time>2023-02-12T04:03:15Z</time></trkpt><trkpt lat="36.88533708306462" lon="138.10834817689673"><ele>2240.590408691205</ele><time>2023-02-12T04:05:00Z</time></trkpt><trkpt lat="36.885354122132576" lon="138.10812014664216"><ele>2249.831868148409</ele><time>2023-02-12T04:06:19Z</time></trkpt><trkpt lat="36.88530618790594" lon="138.10790011411683"><ele>2252.9949541026726</ele><time>2023-02-12T04:07:10Z</time></trkpt><trkpt lat="36.88513599665581" lon="138.10798274642912"><ele>2259.9845560863614</ele><time>2023-02-12T04:08:15Z</time></trkpt><trkpt lat="36.885071220751755" lon="138.10777255556147"><ele>2264.60952268634</ele><time>2023-02-12T04:10:30Z</time></trkpt><trkpt lat="36.88489395674687" lon="138.1078429307483"><ele>2270.268437648192</ele><time>2023-02-12T04:11:42Z</time></trkpt><trkpt lat="36.88474623245551" lon="138.10797947861164"><ele>2275.6502383584157</ele><time>2023-02-12T04:12:14Z</time></trkpt><trkpt lat="36.88472719085935" lon="138.10775064159364"><ele>2277.769063548185</ele><time>2023-02-12T04:14:09Z</time></trkpt><trkpt lat="36.88470865429778" lon="138.10751735405125"><ele>2293.7558884499595</ele><time>2023-02-12T04:32:08Z</time></trkpt><trkpt lat="36.88478389466268" lon="138.10730670632393"><ele>2295.267642849125</ele><time>2023-02-12T04:32:57Z</time></trkpt><trkpt lat="36.88484003070351" lon="138.10709294561758"><ele>2295.547828468494</ele><time>2023-02-12T04:33:15Z</time></trkpt><trkpt lat="36.88495717601016" lon="138.10692131111696"><ele>2293.875036804937</ele><time>2023-02-12T04:33:40Z</time></trkpt><trkpt lat="36.88509278091566" lon="138.10676018752022"><ele>2294.0706471279263</ele><time>2023-02-12T04:34:02Z</time></trkpt><trkpt lat="36.88522375534969" lon="138.1066034414774"><ele>2295.7345657562837</ele><time>2023-02-12T04:34:24Z</time></trkpt><trkpt lat="36.88533936739026" lon="138.10642838000626"><ele>2295.1296582370996</ele><time>2023-02-12T04:34:49Z</time></trkpt><trkpt lat="36.88546344565036" lon="138.10626289816963"><ele>2297.5245266882703</ele><time>2023-02-12T04:35:14Z</time></trkpt><trkpt lat="36.88560021257721" lon="138.10610764180458"><ele>2299.2558595119044</ele><time>2023-02-12T04:35:38Z</time></trkpt><trkpt lat="36.88574100203027" lon="138.10596399766192"><ele>2302.91332157515</ele><time>2023-02-12T04:36:06Z</time></trkpt><trkpt lat="36.88587511765764" lon="138.1058100525429"><ele>2307.104466102086</ele><time>2023-02-12T04:36:32Z</time></trkpt><trkpt lat="36.8860263453485" lon="138.10568423557007"><ele>2305.5717840231955</ele><time>2023-02-12T04:36:54Z</time></trkpt><trkpt lat="36.88621385671974" lon="138.105640204598"><ele>2306.6124005569145</ele><time>2023-02-12T04:37:24Z</time></trkpt><trkpt lat="36.886327430414575" lon="138.10545927023975"><ele>2319.9087209627032</ele><time>2023-02-12T04:38:21Z</time></trkpt><trkpt lat="36.886512161366696" lon="138.10540705851557"><ele>2315.8943401854485</ele><time>2023-02-12T04:39:01Z</time></trkpt><trkpt lat="36.88668838059195" lon="138.1053553995407"><ele>2315.815805283375</ele><time>2023-02-12T04:39:22Z</time></trkpt><trkpt lat="36.88686696661237" lon="138.10531852377582"><ele>2315.5154834296554</ele><time>2023-02-12T04:39:40Z</time></trkpt><trkpt lat="36.887042548750124" lon="138.1052653178658"><ele>2316.2303901342675</ele><time>2023-02-12T04:40:38Z</time></trkpt><trkpt lat="36.88718893992217" lon="138.10513030720819"><ele>2317.1070552188903</ele><time>2023-02-12T04:41:10Z</time></trkpt><trkpt lat="36.88735677946962" lon="138.10504375384247"><ele>2312.9919207636267</ele><time>2023-02-12T04:41:54Z</time></trkpt><trkpt lat="36.887489358775674" lon="138.10488704949273"><ele>2316.469067263417</ele><time>2023-02-12T04:42:16Z</time></trkpt><trkpt lat="36.887596341802514" lon="138.1046961136032"><ele>2321.588781540282</ele><time>2023-02-12T04:42:53Z</time></trkpt><trkpt lat="36.8877122545233" lon="138.10451741369042"><ele>2326.1071157800034</ele><time>2023-02-12T04:43:32Z</time></trkpt><trkpt lat="36.88783444063345" lon="138.10434994415272"><ele>2331.489317229949</ele><time>2023-02-12T04:44:07Z</time></trkpt><trkpt lat="36.88797764896463" lon="138.10421071015284"><ele>2333.5955716716126</ele><time>2023-02-12T04:44:40Z</time></trkpt><trkpt lat="36.88813058018823" lon="138.1040893070867"><ele>2338.0141776334494</ele><time>2023-02-12T04:45:16Z</time></trkpt><trkpt lat="36.88829079124427" lon="138.10398637562096"><ele>2340.587491256185</ele><time>2023-02-12T04:45:43Z</time></trkpt><trkpt lat="36.88831436029538" lon="138.10392656007895"><ele>2344.952268714085</ele><time>2023-02-12T04:47:42Z</time></trkpt><trkpt lat="36.88845732974857" lon="138.10378925473253"><ele>2339.2509049978107</ele><time>2023-02-12T04:50:26Z</time></trkpt><trkpt lat="36.88862139721981" lon="138.103688073839"><ele>2338.1862832447514</ele><time>2023-02-12T04:50:43Z</time></trkpt><trkpt lat="36.88879785728155" lon="138.10362758639033"><ele>2338.5653643636033</ele><time>2023-02-12T04:51:00Z</time></trkpt><trkpt lat="36.888958699174715" lon="138.10352047271903"><ele>2335.3533074716106</ele><time>2023-02-12T04:51:20Z</time></trkpt><trkpt lat="36.88913479086088" lon="138.10344762603174"><ele>2332.0895412359387</ele><time>2023-02-12T04:51:39Z</time></trkpt><trkpt lat="36.88931971727837" lon="138.10339248555601"><ele>2333.081192505546</ele><time>2023-02-12T04:51:58Z</time></trkpt><trkpt lat="36.889490968271694" lon="138.1033217449011"><ele>2332.983371950686</ele><time>2023-02-12T04:52:16Z</time></trkpt><trkpt lat="36.88967562467491" lon="138.1032700562781"><ele>2333.6610109666362</ele><time>2023-02-12T04:52:37Z</time></trkpt><trkpt lat="36.88986659555069" lon="138.10321082946965"><ele>2333.269177484326</ele><time>2023-02-12T04:53:25Z</time></trkpt><trkpt lat="36.8900611944021" lon="138.10320430762357"><ele>2328.7703821128234</ele><time>2023-02-12T04:53:35Z</time></trkpt><trkpt lat="36.890242605153276" lon="138.1032346377167"><ele>2325.959293517284</ele><time>2023-02-12T04:53:45Z</time></trkpt><trkpt lat="36.89042245001908" lon="138.10325413334192"><ele>2326.5217026937753</ele><time>2023-02-12T04:53:58Z</time></trkpt><trkpt lat="36.890599813531374" lon="138.10331653531352"><ele>2324.5865263128653</ele><time>2023-02-12T04:54:16Z</time></trkpt><trkpt lat="36.89078088325132" lon="138.10326928790946"><ele>2322.581495425664</ele><time>2023-02-12T04:54:38Z</time></trkpt><trkpt lat="36.89095716339664" lon="138.10322079862652"><ele>2319.70505770389</ele><time>2023-02-12T04:55:03Z</time></trkpt><trkpt lat="36.891134147341674" lon="138.1031592029331"><ele>2324.2863363064826</ele><time>2023-02-12T04:55:27Z</time></trkpt><trkpt lat="36.8913011042483" lon="138.1030684114663"><ele>2329.9934949753806</ele><time>2023-02-12T04:55:57Z</time></trkpt><trkpt lat="36.89145789225832" lon="138.10295390745236"><ele>2338.656849876046</ele><time>2023-02-12T04:56:45Z</time></trkpt><trkpt lat="36.8916174992838" lon="138.10284140286268"><ele>2346.3139015855268</ele><time>2023-02-12T04:57:59Z</time></trkpt><trkpt lat="36.891803672109894" lon="138.102784753946"><ele>2352.4628223190084</ele><time>2023-02-12T04:58:46Z</time></trkpt><trkpt lat="36.891983701509325" lon="138.10279954551237"><ele>2356.002133967355</ele><time>2023-02-12T04:59:24Z</time></trkpt><trkpt lat="36.892171074647266" lon="138.10282022174468"><ele>2355.2950717397034</ele><time>2023-02-12T04:59:49Z</time></trkpt><trkpt lat="36.8923609661896" lon="138.10280539013257"><ele>2356.1747669074684</ele><time>2023-02-12T05:00:15Z</time></trkpt><trkpt lat="36.892543293706225" lon="138.1027756356526"><ele>2355.513137260452</ele><time>2023-02-12T05:00:47Z</time></trkpt><trkpt lat="36.89273326455673" lon="138.10280982751814"><ele>2355.6204295121133</ele><time>2023-02-12T05:01:13Z</time></trkpt><trkpt lat="36.89291948597061" lon="138.10283519936365"><ele>2356.384342209436</ele><time>2023-02-12T05:01:33Z</time></trkpt><trkpt lat="36.89311038284577" lon="138.10286225815014"><ele>2357.8679963089526</ele><time>2023-02-12T05:01:50Z</time></trkpt><trkpt lat="36.893295062722615" lon="138.10289032766715"><ele>2356.796683111228</ele><time>2023-02-12T05:02:10Z</time></trkpt><trkpt lat="36.89347644561721" lon="138.10290819055308"><ele>2355.7990006720647</ele><time>2023-02-12T05:02:27Z</time></trkpt><trkpt lat="36.89329030901069" lon="138.1028969914773"><ele>2359.010014344007</ele><time>2023-02-12T05:03:12Z</time></trkpt><trkpt lat="36.89311269218522" lon="138.1028558896895"><ele>2358.646289791912</ele><time>2023-02-12T05:03:31Z</time></trkpt><trkpt lat="36.89293007639757" lon="138.10282526097055"><ele>2362.053103633225</ele><time>2023-02-12T05:16:58Z</time></trkpt><trkpt lat="36.89275095990894" lon="138.1027982788795"><ele>2365.8532482907176</ele><time>2023-02-12T05:17:29Z</time></trkpt><trkpt lat="36.892563921641816" lon="138.1027481442958"><ele>2358.0639461278915</ele><time>2023-02-12T05:18:20Z</time></trkpt><trkpt lat="36.89238351581027" lon="138.10277174014496"><ele>2364.4528158279136</ele><time>2023-02-12T05:18:53Z</time></trkpt><trkpt lat="36.892206991179044" lon="138.10281771190807"><ele>2357.7427223874256</ele><time>2023-02-12T05:22:02Z</time></trkpt><trkpt lat="36.89203277082057" lon="138.10273828688952"><ele>2356.257289671339</ele><time>2023-02-12T05:23:25Z</time></trkpt><trkpt lat="36.89183442506367" lon="138.10272871962687"><ele>2354.215605542995</ele><time>2023-02-12T05:23:37Z</time></trkpt><trkpt lat="36.89162794820999" lon="138.1027372823561"><ele>2352.0633698310703</ele><time>2023-02-12T05:23:57Z</time></trkpt><trkpt lat="36.89147008457946" lon="138.1028854441919"><ele>2344.127205383964</ele><time>2023-02-12T05:24:10Z</time></trkpt><trkpt lat="36.89129061656848" lon="138.1029355069964"><ele>2334.61705712229</ele><time>2023-02-12T05:24:19Z</time></trkpt><trkpt lat="36.89108486665613" lon="138.1030404972644"><ele>2326.5365464426577</ele><time>2023-02-12T05:24:21Z</time></trkpt><trkpt lat="36.890874289814775" lon="138.10315401627383"><ele>2324.5623048506677</ele><time>2023-02-12T05:24:24Z</time></trkpt><trkpt lat="36.890687622709784" lon="138.103241880136"><ele>2323.332636056468</ele><time>2023-02-12T05:24:27Z</time></trkpt><trkpt lat="36.89053152991767" lon="138.103371527151"><ele>2326.9214355973527</ele><time>2023-02-12T05:25:31Z</time></trkpt><trkpt lat="36.8903333619677" lon="138.10333615948542"><ele>2328.16602796223</ele><time>2023-02-12T05:25:38Z</time></trkpt><trkpt lat="36.890141582240595" lon="138.10339094283697"><ele>2327.657789517194</ele><time>2023-02-12T05:26:22Z</time></trkpt><trkpt lat="36.89017155353269" lon="138.10364517554922"><ele>2310.922398323193</ele><time>2023-02-12T05:26:28Z</time></trkpt><trkpt lat="36.89001096683172" lon="138.1038067932948"><ele>2299.969473378733</ele><time>2023-02-12T05:26:34Z</time></trkpt><trkpt lat="36.89009755511836" lon="138.1040204782753"><ele>2284.567603163421</ele><time>2023-02-12T05:27:55Z</time></trkpt><trkpt lat="36.889939434089136" lon="138.10419438094652"><ele>2271.042532870546</ele><time>2023-02-12T05:27:59Z</time></trkpt><trkpt lat="36.890044363402126" lon="138.10442961588913"><ele>2272.1780620599166</ele><time>2023-02-12T05:28:21Z</time></trkpt><trkpt lat="36.889859643359245" lon="138.10451330150798"><ele>2261.6049516964704</ele><time>2023-02-12T05:28:29Z</time></trkpt><trkpt lat="36.88971432067835" lon="138.1046588704059"><ele>2260.1949263857678</ele><time>2023-02-12T05:28:31Z</time></trkpt><trkpt lat="36.88950822877477" lon="138.1046860525045"><ele>2249.24152878765</ele><time>2023-02-12T05:29:19Z</time></trkpt><trkpt lat="36.88937452646989" lon="138.10486805529303"><ele>2240.120456670411</ele><time>2023-02-12T05:29:22Z</time></trkpt><trkpt lat="36.889289479736476" lon="138.1051233704906"><ele>2228.6116872280836</ele><time>2023-02-12T05:29:24Z</time></trkpt><trkpt lat="36.889118637496665" lon="138.1052678979134"><ele>2220.841869402677</ele><time>2023-02-12T05:29:26Z</time></trkpt><trkpt lat="36.88903408485677" lon="138.1054843779349"><ele>2211.253002183512</ele><time>2023-02-12T05:29:28Z</time></trkpt><trkpt lat="36.888904466637854" lon="138.1057210344119"><ele>2207.9415823156014</ele><time>2023-02-12T05:29:30Z</time></trkpt><trkpt lat="36.888811199281086" lon="138.1059360246829"><ele>2204.1069018747658</ele><time>2023-02-12T05:29:32Z</time></trkpt><trkpt lat="36.88868528415645" lon="138.10611827736022"><ele>2202.3152261786163</ele><time>2023-02-12T05:29:34Z</time></trkpt><trkpt lat="36.88860615012004" lon="138.10632904339235"><ele>2196.89021735359</ele><time>2023-02-12T05:29:38Z</time></trkpt><trkpt lat="36.88858247366332" lon="138.1065573623878"><ele>2184.1024854956195</ele><time>2023-02-12T05:29:48Z</time></trkpt><trkpt lat="36.888516259547345" lon="138.1067701934891"><ele>2180.776647550985</ele><time>2023-02-12T05:33:11Z</time></trkpt><trkpt lat="36.88835927840434" lon="138.10695092257848"><ele>2173.7205528123304</ele><time>2023-02-12T05:33:23Z</time></trkpt><trkpt lat="36.888329905525126" lon="138.10717777457424"><ele>2166.5399269182235</ele><time>2023-02-12T05:33:28Z</time></trkpt><trkpt lat="36.888265472472575" lon="138.1074014373391"><ele>2164.9652997311205</ele><time>2023-02-12T05:33:32Z</time></trkpt><trkpt lat="36.88814390305765" lon="138.1075854610845"><ele>2160.5988793913275</ele><time>2023-02-12T05:33:38Z</time></trkpt><trkpt lat="36.88800524382294" lon="138.1077558401266"><ele>2156.5482872910798</ele><time>2023-02-12T05:33:45Z</time></trkpt><trkpt lat="36.88816573814578" lon="138.10785933753655"><ele>2146.4930006861687</ele><time>2023-02-12T05:34:12Z</time></trkpt><trkpt lat="36.88818240107027" lon="138.1081041914772"><ele>2133.0107833910733</ele><time>2023-02-12T05:34:15Z</time></trkpt><trkpt lat="36.88842494861695" lon="138.10820047179004"><ele>2129.5589450579137</ele><time>2023-02-12T05:34:18Z</time></trkpt><trkpt lat="36.8884865647101" lon="138.10848010759818"><ele>2115.8695661993697</ele><time>2023-02-12T05:34:22Z</time></trkpt><trkpt lat="36.88842877289026" lon="138.10877756917097"><ele>2111.6018780330196</ele><time>2023-02-12T05:34:25Z</time></trkpt><trkpt lat="36.88836329063356" lon="138.10902834837574"><ele>2110.582944072783</ele><time>2023-02-12T05:34:28Z</time></trkpt><trkpt lat="36.8881643889075" lon="138.10907487205486"><ele>2106.149976382032</ele><time>2023-02-12T05:34:32Z</time></trkpt><trkpt lat="36.88798482408729" lon="138.10912476285705"><ele>2104.736294868402</ele><time>2023-02-12T05:34:38Z</time></trkpt><trkpt lat="36.88785041470616" lon="138.10927947971766"><ele>2100.901487567462</ele><time>2023-02-12T05:36:28Z</time></trkpt><trkpt lat="36.8877192934779" lon="138.10945762672506"><ele>2099.249571664259</ele><time>2023-02-12T05:36:46Z</time></trkpt><trkpt lat="36.88762138619298" lon="138.10965682254897"><ele>2098.417942822911</ele><time>2023-02-12T05:37:02Z</time></trkpt><trkpt lat="36.887543889229285" lon="138.1098782793935"><ele>2100.375818536617</ele><time>2023-02-12T05:37:18Z</time></trkpt><trkpt lat="36.887391078766896" lon="138.1100363841113"><ele>2097.010441282764</ele><time>2023-02-12T05:37:27Z</time></trkpt><trkpt lat="36.88726681375275" lon="138.1102036529217"><ele>2091.1110174600035</ele><time>2023-02-12T05:37:43Z</time></trkpt><trkpt lat="36.887103648481926" lon="138.1103116780909"><ele>2091.3102018004283</ele><time>2023-02-12T05:38:08Z</time></trkpt><trkpt lat="36.88693142289913" lon="138.11041118262378"><ele>2090.7982363700867</ele><time>2023-02-12T05:38:22Z</time></trkpt><trkpt lat="36.886848612423954" lon="138.11061949859013"><ele>2090.280822248198</ele><time>2023-02-12T05:38:33Z</time></trkpt><trkpt lat="36.88676894859812" lon="138.11085395843787"><ele>2086.2544496450573</ele><time>2023-02-12T05:41:01Z</time></trkpt><trkpt lat="36.88665794207894" lon="138.11103117971663"><ele>2074.4130216427147</ele><time>2023-02-12T05:42:22Z</time></trkpt><trkpt lat="36.88665472509754" lon="138.11126253012344"><ele>2072.167395346798</ele><time>2023-02-12T05:42:39Z</time></trkpt><trkpt lat="36.88663433835245" lon="138.1115157196049"><ele>2070.0239740554243</ele><time>2023-02-12T05:42:44Z</time></trkpt><trkpt lat="36.88660694715718" lon="138.11176583353347"><ele>2065.8379566995427</ele><time>2023-02-12T05:42:48Z</time></trkpt><trkpt lat="36.88652646231179" lon="138.11201070949937"><ele>2063.8615265227854</ele><time>2023-02-12T05:42:53Z</time></trkpt><trkpt lat="36.886440185071535" lon="138.11221421831416"><ele>2059.343321431428</ele><time>2023-02-12T05:43:03Z</time></trkpt><trkpt lat="36.886321282937836" lon="138.1123999742864"><ele>2058.0817972561345</ele><time>2023-02-12T05:43:09Z</time></trkpt><trkpt lat="36.88628584975679" lon="138.112642108558"><ele>2054.189436890185</ele><time>2023-02-12T05:43:20Z</time></trkpt><trkpt lat="36.88623198356358" lon="138.11286825982714"><ele>2055.18323348742</ele><time>2023-02-12T05:43:26Z</time></trkpt><trkpt lat="36.886125921050095" lon="138.11313693176209"><ele>2050.7223385889083</ele><time>2023-02-12T05:43:32Z</time></trkpt><trkpt lat="36.8859736493376" lon="138.11331932045977"><ele>2044.8460595859215</ele><time>2023-02-12T05:43:38Z</time></trkpt><trkpt lat="36.88586491253482" lon="138.11351087681285"><ele>2041.9444666644558</ele><time>2023-02-12T05:43:48Z</time></trkpt><trkpt lat="36.8857747848721" lon="138.11374507789654"><ele>2038.3055505910888</ele><time>2023-02-12T05:43:52Z</time></trkpt><trkpt lat="36.88573129561494" lon="138.11396393958185"><ele>2039.2989362813532</ele><time>2023-02-12T05:43:57Z</time></trkpt><trkpt lat="36.88573474663729" lon="138.11419144873352"><ele>2037.174650752917</ele><time>2023-02-12T05:44:03Z</time></trkpt><trkpt lat="36.885686690495795" lon="138.11445316753148"><ele>2034.6707481285557</ele><time>2023-02-12T05:44:08Z</time></trkpt><trkpt lat="36.88566846002926" lon="138.11467949235606"><ele>2031.2620667172596</ele><time>2023-02-12T05:44:16Z</time></trkpt><trkpt lat="36.88563437325532" lon="138.11491361350724"><ele>2028.7408378915861</ele><time>2023-02-12T05:44:23Z</time></trkpt><trkpt lat="36.885683746874754" lon="138.11513062679632"><ele>2027.5776386894286</ele><time>2023-02-12T05:44:28Z</time></trkpt><trkpt lat="36.88570879817092" lon="138.11536194328258"><ele>2025.7555440701544</ele><time>2023-02-12T05:44:32Z</time></trkpt><trkpt lat="36.88563569443857" lon="138.11559284719448"><ele>2022.3754120273516</ele><time>2023-02-12T05:44:35Z</time></trkpt><trkpt lat="36.88557612830554" lon="138.11586635433093"><ele>2020.5058837411925</ele><time>2023-02-12T05:44:40Z</time></trkpt><trkpt lat="36.885482941985046" lon="138.11612322459055"><ele>2016.7220754744485</ele><time>2023-02-12T05:44:44Z</time></trkpt><trkpt lat="36.88547998371914" lon="138.11638310649974"><ele>2014.0827595740557</ele><time>2023-02-12T05:44:49Z</time></trkpt><trkpt lat="36.885465140933945" lon="138.11666215290248"><ele>2011.1911006001756</ele><time>2023-02-12T05:44:54Z</time></trkpt><trkpt lat="36.88544631230637" lon="138.1169007510351"><ele>2007.4177150521427</ele><time>2023-02-12T05:44:57Z</time></trkpt><trkpt lat="36.88543827546552" lon="138.11715384508435"><ele>2004.8755370313302</ele><time>2023-02-12T05:45:00Z</time></trkpt><trkpt lat="36.8854381492338" lon="138.11738065023744"><ele>2001.6928569274023</ele><time>2023-02-12T05:45:04Z</time></trkpt><trkpt lat="36.885398863018665" lon="138.11760083377072"><ele>2000.796780595556</ele><time>2023-02-12T05:45:12Z</time></trkpt><trkpt lat="36.88554011550858" lon="138.11774859134846"><ele>1998.3009016495198</ele><time>2023-02-12T05:46:14Z</time></trkpt><trkpt lat="36.88555447135803" lon="138.11799777195972"><ele>1997.707762779668</ele><time>2023-02-12T05:47:20Z</time></trkpt><trkpt lat="36.8856103937096" lon="138.1182295930798"><ele>1995.747288503684</ele><time>2023-02-12T05:47:30Z</time></trkpt><trkpt lat="36.88563321966014" lon="138.11845576551215"><ele>1992.6222628457472</ele><time>2023-02-12T05:47:35Z</time></trkpt><trkpt lat="36.8856885351328" lon="138.1186906203297"><ele>1990.9039152320474</ele><time>2023-02-12T05:47:40Z</time></trkpt><trkpt lat="36.88572089454473" lon="138.11891960109534"><ele>1992.8212841963395</ele><time>2023-02-12T05:47:57Z</time></trkpt><trkpt lat="36.88576635102289" lon="138.11913973199128"><ele>1990.2364784087986</ele><time>2023-02-12T05:48:24Z</time></trkpt><trkpt lat="36.885866006287614" lon="138.1193920533261"><ele>1985.408351227641</ele><time>2023-02-12T05:48:29Z</time></trkpt><trkpt lat="36.88597615354342" lon="138.11960317192046"><ele>1982.942581278272</ele><time>2023-02-12T05:48:32Z</time></trkpt><trkpt lat="36.88591786739676" lon="138.11985966972117"><ele>1976.000058889389</ele><time>2023-02-12T05:48:36Z</time></trkpt><trkpt lat="36.88598626740063" lon="138.1200730013348"><ele>1973.2024045391008</ele><time>2023-02-12T05:49:13Z</time></trkpt><trkpt lat="36.886100752016894" lon="138.11989925877933"><ele>1981.5855464618653</ele><time>2023-02-12T05:55:36Z</time></trkpt><trkpt lat="36.88627331008951" lon="138.11982127954698"><ele>1983.1550397239625</ele><time>2023-02-12T05:59:25Z</time></trkpt><trkpt lat="36.88646164340618" lon="138.1198469078094"><ele>1988.323501193896</ele><time>2023-02-12T05:59:58Z</time></trkpt><trkpt lat="36.88661732013571" lon="138.11996206547298"><ele>1986.6602578796446</ele><time>2023-02-12T06:00:25Z</time></trkpt><trkpt lat="36.88674155349448" lon="138.12013213839546"><ele>1986.5890450207517</ele><time>2023-02-12T06:00:51Z</time></trkpt><trkpt lat="36.886914223305524" lon="138.12005313417717"><ele>1994.263486300595</ele><time>2023-02-12T06:11:26Z</time></trkpt><trkpt lat="36.88698868844676" lon="138.11983335332718"><ele>2006.0424307500944</ele><time>2023-02-12T06:12:34Z</time></trkpt><trkpt lat="36.88701293139396" lon="138.11960640773324"><ele>2011.8379556192085</ele><time>2023-02-12T06:13:50Z</time></trkpt><trkpt lat="36.88719346769473" lon="138.11958594737334"><ele>2017.758984557353</ele><time>2023-02-12T06:15:01Z</time></trkpt><trkpt lat="36.88716993576212" lon="138.11936240016647"><ele>2023.3829437866807</ele><time>2023-02-12T06:16:10Z</time></trkpt><trkpt lat="36.887136547912014" lon="138.11913885012424"><ele>2032.2254096474499</ele><time>2023-02-12T06:17:04Z</time></trkpt><trkpt lat="36.88724780658101" lon="138.11931637200917"><ele>2026.2983109997585</ele><time>2023-02-12T06:17:32Z</time></trkpt><trkpt lat="36.887419091894444" lon="138.1193996687422"><ele>2030.6578050833195</ele><time>2023-02-12T06:18:06Z</time></trkpt><trkpt lat="36.88755617425283" lon="138.11954883985123"><ele>2032.8803926995024</ele><time>2023-02-12T06:19:19Z</time></trkpt><trkpt lat="36.88760790793257" lon="138.11976567671306"><ele>2034.386867008172</ele><time>2023-02-12T06:20:01Z</time></trkpt><trkpt lat="36.887696432235124" lon="138.1199667493165"><ele>2033.019898709841</ele><time>2023-02-12T06:20:51Z</time></trkpt><trkpt lat="36.887788400091026" lon="138.11976500581994"><ele>2043.1376355784014</ele><time>2023-02-12T06:21:46Z</time></trkpt><trkpt lat="36.88790784196123" lon="138.11993963353564"><ele>2047.2950165178627</ele><time>2023-02-12T06:23:06Z</time></trkpt><trkpt lat="36.88805435502891" lon="138.1200720377948"><ele>2046.8246432747692</ele><time>2023-02-12T06:24:15Z</time></trkpt><trkpt lat="36.88816959279242" lon="138.12024897603305"><ele>2049.5793711720034</ele><time>2023-02-12T06:24:34Z</time></trkpt><trkpt lat="36.88827383334341" lon="138.12045085090062"><ele>2051.2502856561914</ele><time>2023-02-12T06:24:54Z</time></trkpt><trkpt lat="36.888447795518466" lon="138.12053490967082"><ele>2048.4933699555695</ele><time>2023-02-12T06:26:26Z</time></trkpt><trkpt lat="36.888609489274515" lon="138.1206385780325"><ele>2049.763067062013</ele><time>2023-02-12T06:26:44Z</time></trkpt><trkpt lat="36.88879455352557" lon="138.1206764520431"><ele>2049.6838852334768</ele><time>2023-02-12T06:27:07Z</time></trkpt><trkpt lat="36.88898073438163" lon="138.1207326053487"><ele>2051.6444779625162</ele><time>2023-02-12T06:27:29Z</time></trkpt><trkpt lat="36.888967987744145" lon="138.1209591353403"><ele>2057.733564829454</ele><time>2023-02-12T06:39:03Z</time></trkpt><trkpt lat="36.889090050036316" lon="138.12118754460317"><ele>2043.72307112813</ele><time>2023-02-12T06:39:10Z</time></trkpt><trkpt lat="36.889113560066924" lon="138.12141359370636"><ele>2031.1988617572933</ele><time>2023-02-12T06:39:45Z</time></trkpt><trkpt lat="36.889085154737046" lon="138.12164098730733"><ele>2020.2250015614554</ele><time>2023-02-12T06:39:58Z</time></trkpt><trkpt lat="36.88917727141018" lon="138.12186298927253"><ele>2014.8489239150658</ele><time>2023-02-12T06:40:11Z</time></trkpt><trkpt lat="36.88925827944383" lon="138.12208583253147"><ele>2003.6424482315779</ele><time>2023-02-12T06:40:23Z</time></trkpt><trkpt lat="36.88943785149072" lon="138.12224122725243"><ele>1996.9459841679782</ele><time>2023-02-12T06:40:28Z</time></trkpt><trkpt lat="36.88960638534161" lon="138.12237277290419"><ele>1997.703284301795</ele><time>2023-02-12T06:40:32Z</time></trkpt><trkpt lat="36.88978429153618" lon="138.12255231754307"><ele>1992.6631240686402</ele><time>2023-02-12T06:40:41Z</time></trkpt><trkpt lat="36.88980933861061" lon="138.12280722563568"><ele>1983.1551416665316</ele><time>2023-02-12T06:40:50Z</time></trkpt><trkpt lat="36.889845665300676" lon="138.12304408663775"><ele>1971.426852314733</ele><time>2023-02-12T06:41:10Z</time></trkpt><trkpt lat="36.88975754922718" lon="138.1232649716112"><ele>1963.7781649455428</ele><time>2023-02-12T06:41:14Z</time></trkpt><trkpt lat="36.88975204797362" lon="138.12349648821322"><ele>1956.1994283087552</ele><time>2023-02-12T06:41:17Z</time></trkpt><trkpt lat="36.88988376942983" lon="138.1237026907733"><ele>1951.6257256763056</ele><time>2023-02-12T06:41:27Z</time></trkpt><trkpt lat="36.8899097860817" lon="138.1239790246607"><ele>1946.7576348949224</ele><time>2023-02-12T06:41:31Z</time></trkpt><trkpt lat="36.88997625967231" lon="138.12429413887358"><ele>1945.9770994512364</ele><time>2023-02-12T06:41:34Z</time></trkpt><trkpt lat="36.88980177223546" lon="138.12441253040222"><ele>1933.8544217934832</ele><time>2023-02-12T06:46:51Z</time></trkpt><trkpt lat="36.88961278663325" lon="138.12440335443188"><ele>1921.97505888436</ele><time>2023-02-12T06:47:19Z</time></trkpt><trkpt lat="36.88958290708584" lon="138.12465315614529"><ele>1918.0072992183268</ele><time>2023-02-12T06:47:29Z</time></trkpt><trkpt lat="36.88964291509397" lon="138.12488275222185"><ele>1912.577625525184</ele><time>2023-02-12T06:47:33Z</time></trkpt><trkpt lat="36.88952802860915" lon="138.12505699353056"><ele>1899.4042494250461</ele><time>2023-02-12T06:47:45Z</time></trkpt><trkpt lat="36.88945904901953" lon="138.12526677834606"><ele>1892.1258662305772</ele><time>2023-02-12T06:47:47Z</time></trkpt><trkpt lat="36.88934922045832" lon="138.12544848041352"><ele>1887.7116802008823</ele><time>2023-02-12T06:47:49Z</time></trkpt><trkpt lat="36.88928084322978" lon="138.1256582763652"><ele>1875.983720540069</ele><time>2023-02-12T06:47:54Z</time></trkpt><trkpt lat="36.88906030299487" lon="138.12561293099606"><ele>1871.4902024706826</ele><time>2023-02-12T06:48:19Z</time></trkpt><trkpt lat="36.88894154296743" lon="138.1258822523282"><ele>1861.5159900309518</ele><time>2023-02-12T06:48:24Z</time></trkpt><trkpt lat="36.888825665361125" lon="138.12606896487517"><ele>1860.861474067904</ele><time>2023-02-12T06:48:29Z</time></trkpt><trkpt lat="36.88901112057449" lon="138.12616448345298"><ele>1850.9256696682423</ele><time>2023-02-12T06:48:44Z</time></trkpt><trkpt lat="36.88916803894619" lon="138.12627523181698"><ele>1850.7944330563769</ele><time>2023-02-12T06:48:54Z</time></trkpt><trkpt lat="36.88939001180805" lon="138.1263645810925"><ele>1838.9910823833197</ele><time>2023-02-12T06:48:59Z</time></trkpt><trkpt lat="36.88949495692871" lon="138.1266017346557"><ele>1834.9330265121534</ele><time>2023-02-12T06:49:03Z</time></trkpt><trkpt lat="36.88957972000129" lon="138.12683671248396"><ele>1835.6910425918177</ele><time>2023-02-12T06:49:25Z</time></trkpt><trkpt lat="36.88973453152191" lon="138.1270055278797"><ele>1827.0292836437002</ele><time>2023-02-12T06:49:33Z</time></trkpt><trkpt lat="36.88989453517832" lon="138.12715370600722"><ele>1823.5473673297092</ele><time>2023-02-12T06:49:37Z</time></trkpt><trkpt lat="36.889979848131354" lon="138.12736107099443"><ele>1816.1377266962081</ele><time>2023-02-12T06:50:23Z</time></trkpt><trkpt lat="36.88991426361303" lon="138.12757231004431"><ele>1811.5132740214467</ele><time>2023-02-12T06:50:27Z</time></trkpt><trkpt lat="36.889940092671175" lon="138.1278130927963"><ele>1808.4389997711405</ele><time>2023-02-12T06:50:35Z</time></trkpt><trkpt lat="36.88998340169834" lon="138.12808583780276"><ele>1799.889315742068</ele><time>2023-02-12T06:50:48Z</time></trkpt><trkpt lat="36.88998019552064" lon="138.12834908770378"><ele>1796.1042458685115</ele><time>2023-02-12T06:50:52Z</time></trkpt><trkpt lat="36.88980022324391" lon="138.12829978268417"><ele>1789.1169197615236</ele><time>2023-02-12T06:51:27Z</time></trkpt><trkpt lat="36.88970120510928" lon="138.1285387006795"><ele>1780.0564457988366</ele><time>2023-02-12T06:52:10Z</time></trkpt><trkpt lat="36.889885048207496" lon="138.12875025572137"><ele>1768.765734157525</ele><time>2023-02-12T06:52:56Z</time></trkpt><trkpt lat="36.889761159003214" lon="138.12893164449227"><ele>1763.7412018794566</ele><time>2023-02-12T06:53:21Z</time></trkpt><trkpt lat="36.88970535496635" lon="138.12918521407164"><ele>1752.1874536396936</ele><time>2023-02-12T06:53:36Z</time></trkpt><trkpt lat="36.88951705158891" lon="138.12916314418678"><ele>1747.2861268874258</ele><time>2023-02-12T06:53:43Z</time></trkpt><trkpt lat="36.88948268044976" lon="138.12940164369655"><ele>1740.817347791046</ele><time>2023-02-12T06:53:54Z</time></trkpt><trkpt lat="36.88942707655724" lon="138.1296194144979"><ele>1735.5192379457876</ele><time>2023-02-12T06:53:59Z</time></trkpt><trkpt lat="36.88933625462881" lon="138.12990319155236"><ele>1728.3203873503953</ele><time>2023-02-12T06:54:02Z</time></trkpt><trkpt lat="36.889264304512515" lon="138.13010915720852"><ele>1724.18525498081</ele><time>2023-02-12T06:54:04Z</time></trkpt><trkpt lat="36.889087320879334" lon="138.13027686281788"><ele>1719.2728276429698</ele><time>2023-02-12T06:54:07Z</time></trkpt><trkpt lat="36.88887389061345" lon="138.13044468020905"><ele>1715.6119631808251</ele><time>2023-02-12T06:54:10Z</time></trkpt><trkpt lat="36.888780867886176" lon="138.13072270889285"><ele>1709.3000095458701</ele><time>2023-02-12T06:54:13Z</time></trkpt><trkpt lat="36.88872092084831" lon="138.13100812541288"><ele>1704.407131887041</ele><time>2023-02-12T06:54:16Z</time></trkpt><trkpt lat="36.88866591065006" lon="138.13127300764808"><ele>1697.985324067995</ele><time>2023-02-12T06:54:21Z</time></trkpt><trkpt lat="36.888644546659506" lon="138.13156780649763"><ele>1693.9439723482355</ele><time>2023-02-12T06:54:24Z</time></trkpt><trkpt lat="36.88870588168585" lon="138.13181876025916"><ele>1690.8986406326294</ele><time>2023-02-12T06:54:27Z</time></trkpt><trkpt lat="36.88857833217195" lon="138.1319797960797"><ele>1690.6511204298586</ele><time>2023-02-12T06:55:03Z</time></trkpt><trkpt lat="36.88844759452727" lon="138.13217161148918"><ele>1690.414347404614</ele><time>2023-02-12T06:56:37Z</time></trkpt><trkpt lat="36.88835263541617" lon="138.1324450429501"><ele>1684.793164845556</ele><time>2023-02-12T06:56:41Z</time></trkpt><trkpt lat="36.88831936719913" lon="138.13267334932905"><ele>1681.2581989942119</ele><time>2023-02-12T06:56:45Z</time></trkpt><trkpt lat="36.88819776898955" lon="138.13284059167412"><ele>1681.4797370936722</ele><time>2023-02-12T06:56:49Z</time></trkpt><trkpt lat="36.88812403851605" lon="138.1331062820858"><ele>1677.4425185332075</ele><time>2023-02-12T06:56:56Z</time></trkpt><trkpt lat="36.88803082533385" lon="138.13334133623903"><ele>1680.7361103305593</ele><time>2023-02-12T06:57:05Z</time></trkpt><trkpt lat="36.888042962176684" lon="138.13360028296373"><ele>1676.9705255171284</ele><time>2023-02-12T06:57:10Z</time></trkpt><trkpt lat="36.8880067973155" lon="138.13384315736366"><ele>1676.3339066375047</ele><time>2023-02-12T06:57:17Z</time></trkpt><trkpt lat="36.888015684795555" lon="138.13407056325957"><ele>1671.0526910396293</ele><time>2023-02-12T06:57:24Z</time></trkpt><trkpt lat="36.887919816824635" lon="138.13428357130317"><ele>1664.9765990199521</ele><time>2023-02-12T06:57:40Z</time></trkpt><trkpt lat="36.88786200437352" lon="138.13450229025733"><ele>1662.9105540839955</ele><time>2023-02-12T06:57:52Z</time></trkpt><trkpt lat="36.88782308968178" lon="138.13472815046111"><ele>1658.6243369607255</ele><time>2023-02-12T06:58:04Z</time></trkpt><trkpt lat="36.88774832696834" lon="138.13497942054786"><ele>1652.9221481224522</ele><time>2023-02-12T06:58:16Z</time></trkpt><trkpt lat="36.88767465811075" lon="138.13519420951542"><ele>1651.8937816172838</ele><time>2023-02-12T06:58:24Z</time></trkpt><trkpt lat="36.88757265665067" lon="138.13538658436778"><ele>1645.9168409109116</ele><time>2023-02-12T06:58:37Z</time></trkpt><trkpt lat="36.887461121069755" lon="138.1355870821296"><ele>1640.6495139757171</ele><time>2023-02-12T06:58:44Z</time></trkpt><trkpt lat="36.8873999191568" lon="138.13580435984076"><ele>1636.370409104973</ele><time>2023-02-12T06:58:55Z</time></trkpt><trkpt lat="36.88722527049689" lon="138.13591688877926"><ele>1621.848492554389</ele><time>2023-02-12T06:59:13Z</time></trkpt><trkpt lat="36.88709250069016" lon="138.13607378270683"><ele>1610.4694534530863</ele><time>2023-02-12T06:59:17Z</time></trkpt><trkpt lat="36.88697040539652" lon="138.13624163247306"><ele>1611.9393347213045</ele><time>2023-02-12T06:59:20Z</time></trkpt><trkpt lat="36.88683090085221" lon="138.1363976455763"><ele>1609.0526224896312</ele><time>2023-02-12T06:59:25Z</time></trkpt><trkpt lat="36.88676727052192" lon="138.13662291600969"><ele>1605.865203404799</ele><time>2023-02-12T06:59:46Z</time></trkpt><trkpt lat="36.886740493920826" lon="138.13688524015342"><ele>1589.7579440092668</ele><time>2023-02-12T07:00:32Z</time></trkpt><trkpt lat="36.88667702879404" lon="138.1371017819758"><ele>1585.781030971557</ele><time>2023-02-12T07:00:37Z</time></trkpt><trkpt lat="36.88685842079702" lon="138.13716609790833"><ele>1581.1941535370424</ele><time>2023-02-12T07:00:57Z</time></trkpt><trkpt lat="36.88694086027495" lon="138.13739025573398"><ele>1575.2160762669519</ele><time>2023-02-12T07:01:07Z</time></trkpt><trkpt lat="36.88693308246401" lon="138.1376241534887"><ele>1571.5353698814288</ele><time>2023-02-12T07:04:14Z</time></trkpt><trkpt lat="36.886876891831555" lon="138.1378575890481"><ele>1562.4958333959803</ele><time>2023-02-12T07:04:21Z</time></trkpt><trkpt lat="36.88685206341252" lon="138.13808636347434"><ele>1553.141662882641</ele><time>2023-02-12T07:04:28Z</time></trkpt><trkpt lat="36.88685059159244" lon="138.13831976587238"><ele>1550.773428290151</ele><time>2023-02-12T07:04:40Z</time></trkpt><trkpt lat="36.88689060903019" lon="138.13856272953558"><ele>1545.7656331108883</ele><time>2023-02-12T07:06:26Z</time></trkpt><trkpt lat="36.88671489414988" lon="138.1387104161236"><ele>1539.609518009238</ele><time>2023-02-12T07:07:28Z</time></trkpt><trkpt lat="36.88682162702175" lon="138.13889172496937"><ele>1529.2801143806428</ele><time>2023-02-12T07:07:43Z</time></trkpt><trkpt lat="36.88675169906148" lon="138.13914400072187"><ele>1520.4394773850217</ele><time>2023-02-12T07:07:53Z</time></trkpt><trkpt lat="36.88660801312904" lon="138.1393022402116"><ele>1514.1254485063255</ele><time>2023-02-12T07:08:07Z</time></trkpt><trkpt lat="36.88657695793399" lon="138.13954732798672"><ele>1510.0609380910173</ele><time>2023-02-12T07:08:23Z</time></trkpt><trkpt lat="36.88653578693605" lon="138.13978306694398"><ele>1504.4875232037157</ele><time>2023-02-12T07:08:48Z</time></trkpt><trkpt lat="36.88646671690145" lon="138.13999576772525"><ele>1500.0383288823068</ele><time>2023-02-12T07:08:57Z</time></trkpt><trkpt lat="36.886491845934984" lon="138.14025013213674"><ele>1491.9427304761484</ele><time>2023-02-12T07:09:04Z</time></trkpt><trkpt lat="36.88639031362368" lon="138.140469829512"><ele>1482.2402052078396</ele><time>2023-02-12T07:09:14Z</time></trkpt><trkpt lat="36.886403262142565" lon="138.14074670539802"><ele>1475.3349415585399</ele><time>2023-02-12T07:09:23Z</time></trkpt><trkpt lat="36.88640703254523" lon="138.14097388074325"><ele>1470.2346740122885</ele><time>2023-02-12T07:09:34Z</time></trkpt><trkpt lat="36.88643312920617" lon="138.1412109546406"><ele>1464.425993591547</ele><time>2023-02-12T07:09:42Z</time></trkpt><trkpt lat="36.88652179931632" lon="138.14141165368434"><ele>1460.4395669447258</ele><time>2023-02-12T07:11:05Z</time></trkpt><trkpt lat="36.88636563807621" lon="138.14154572820956"><ele>1460.976027325727</ele><time>2023-02-12T07:13:09Z</time></trkpt><trkpt lat="36.88638616789251" lon="138.14180583316246"><ele>1453.6214497517794</ele><time>2023-02-12T07:13:18Z</time></trkpt><trkpt lat="36.88648613095529" lon="138.14207208790646"><ele>1443.662416715175</ele><time>2023-02-12T07:13:28Z</time></trkpt><trkpt lat="36.886610604295704" lon="138.1422823972449"><ele>1440.6484453668818</ele><time>2023-02-12T07:13:34Z</time></trkpt><trkpt lat="36.88668740692193" lon="138.1424863025228"><ele>1436.6150073427707</ele><time>2023-02-12T07:13:51Z</time></trkpt><trkpt lat="36.886817206536094" lon="138.14266099699913"><ele>1435.155987852253</ele><time>2023-02-12T07:15:56Z</time></trkpt><trkpt lat="36.886943623164875" lon="138.14283199642333"><ele>1429.0722352880985</ele><time>2023-02-12T07:16:05Z</time></trkpt><trkpt lat="36.88707889597279" lon="138.1430086649322"><ele>1423.3501842468977</ele><time>2023-02-12T07:16:16Z</time></trkpt><trkpt lat="36.88723556007426" lon="138.14312664358295"><ele>1414.8990721767768</ele><time>2023-02-12T07:16:34Z</time></trkpt><trkpt lat="36.88728236704004" lon="138.1433619542671"><ele>1410.7466227635741</ele><time>2023-02-12T07:16:46Z</time></trkpt><trkpt lat="36.88740390354839" lon="138.14356402166123"><ele>1407.3292308449745</ele><time>2023-02-12T07:16:55Z</time></trkpt><trkpt lat="36.8874705725613" lon="138.14378765097584"><ele>1400.8317680833861</ele><time>2023-02-12T07:17:10Z</time></trkpt><trkpt lat="36.88757817813956" lon="138.14398320244507"><ele>1395.8260347107425</ele><time>2023-02-12T07:17:27Z</time></trkpt><trkpt lat="36.88770019833526" lon="138.14415187282285"><ele>1390.263206841424</ele><time>2023-02-12T07:19:41Z</time></trkpt><trkpt lat="36.88783244854837" lon="138.1443101334397"><ele>1387.3426854163408</ele><time>2023-02-12T07:20:01Z</time></trkpt><trkpt lat="36.88782844074655" lon="138.14408187570862"><ele>1394.9758368553594</ele><time>2023-02-12T07:21:46Z</time></trkpt><trkpt lat="36.887999151668154" lon="138.14415997463917"><ele>1393.7159761339426</ele><time>2023-02-12T07:24:17Z</time></trkpt><trkpt lat="36.88814808064537" lon="138.14429488785999"><ele>1391.605499561876</ele><time>2023-02-12T07:25:15Z</time></trkpt><trkpt lat="36.888091236695324" lon="138.14451540217243"><ele>1390.3451689938083</ele><time>2023-02-12T07:25:47Z</time></trkpt><trkpt lat="36.88811617281917" lon="138.14474800769952"><ele>1385.2219367716461</ele><time>2023-02-12T07:26:14Z</time></trkpt><trkpt lat="36.888077256001665" lon="138.14496777108812"><ele>1380.638338864781</ele><time>2023-02-12T07:26:32Z</time></trkpt><trkpt lat="36.8881395746272" lon="138.14518517639536"><ele>1374.9871862586588</ele><time>2023-02-12T07:26:49Z</time></trkpt><trkpt lat="36.888160454376354" lon="138.14541178048665"><ele>1371.3786806426942</ele><time>2023-02-12T07:27:08Z</time></trkpt><trkpt lat="36.88799621903188" lon="138.14530337148284"><ele>1372.8919048253447</ele><time>2023-02-12T07:29:53Z</time></trkpt><trkpt lat="36.88787911457138" lon="138.14511796188455"><ele>1374.1804906390607</ele><time>2023-02-12T07:30:21Z</time></trkpt><trkpt lat="36.887694139985" lon="138.14511079487806"><ele>1368.8126520700753</ele><time>2023-02-12T07:31:03Z</time></trkpt><trkpt lat="36.88759826360572" lon="138.1449127160674"><ele>1366.959853284061</ele><time>2023-02-12T07:31:31Z</time></trkpt><trkpt lat="36.88743986355274" lon="138.14480534286713"><ele>1354.1180561631918</ele><time>2023-02-12T07:33:04Z</time></trkpt><trkpt lat="36.88728708227276" lon="138.14493020170482"><ele>1344.2925849240273</ele><time>2023-02-12T07:33:38Z</time></trkpt><trkpt lat="36.88709786924398" lon="138.14508246844437"><ele>1332.280540496111</ele><time>2023-02-12T07:36:12Z</time></trkpt><trkpt lat="36.88692446483563" lon="138.1449902394368"><ele>1321.1900325808674</ele><time>2023-02-12T07:36:50Z</time></trkpt><trkpt lat="36.88691662013571" lon="138.1452530238235"><ele>1316.1287033734843</ele><time>2023-02-12T07:36:54Z</time></trkpt><trkpt lat="36.886898674374834" lon="138.1454829913111"><ele>1310.555702955462</ele><time>2023-02-12T07:36:59Z</time></trkpt><trkpt lat="36.88688991913283" lon="138.14571698876654"><ele>1305.3428909452632</ele><time>2023-02-12T07:37:15Z</time></trkpt><trkpt lat="36.88687201532852" lon="138.14594105791417"><ele>1300.8799907648936</ele><time>2023-02-12T07:37:25Z</time></trkpt><trkpt lat="36.8869108461045" lon="138.1461679271447"><ele>1292.3878850312904</ele><time>2023-02-12T07:37:41Z</time></trkpt><trkpt lat="36.88688854244568" lon="138.146409781535"><ele>1275.810307469219</ele><time>2023-02-12T07:38:09Z</time></trkpt><trkpt lat="36.88693411897926" lon="138.146633060807"><ele>1276.1154719768092</ele><time>2023-02-12T07:38:12Z</time></trkpt><trkpt lat="36.88694007708409" lon="138.14686316723768"><ele>1281.228854403831</ele><time>2023-02-12T07:38:31Z</time></trkpt><trkpt lat="36.886973747673764" lon="138.14710356658637"><ele>1274.3449271507561</ele><time>2023-02-12T07:38:38Z</time></trkpt><trkpt lat="36.886995235018084" lon="138.1473471177259"><ele>1270.4934025565162</ele><time>2023-02-12T07:38:43Z</time></trkpt><trkpt lat="36.88692853370611" lon="138.14756104047956"><ele>1270.7382301883772</ele><time>2023-02-12T07:40:10Z</time></trkpt><trkpt lat="36.88693256109499" lon="138.1478519550674"><ele>1259.9401775067672</ele><time>2023-02-12T07:40:20Z</time></trkpt><trkpt lat="36.886935260079404" lon="138.1480871699419"><ele>1254.4985633855686</ele><time>2023-02-12T07:40:25Z</time></trkpt><trkpt lat="36.88688342705645" lon="138.14830539827105"><ele>1251.5500876242295</ele><time>2023-02-12T07:40:30Z</time></trkpt><trkpt lat="36.88683192626727" lon="138.1485233227295"><ele>1243.6998166786507</ele><time>2023-02-12T07:40:39Z</time></trkpt><trkpt lat="36.8866662245366" lon="138.14863721779716"><ele>1244.4851535027847</ele><time>2023-02-12T07:40:46Z</time></trkpt><trkpt lat="36.88645531303592" lon="138.14867917482258"><ele>1242.7479082727805</ele><time>2023-02-12T07:40:53Z</time></trkpt><trkpt lat="36.88634814664818" lon="138.1488773366484"><ele>1239.951801464893</ele><time>2023-02-12T07:40:57Z</time></trkpt><trkpt lat="36.886202244296655" lon="138.1490461622675"><ele>1236.30423251912</ele><time>2023-02-12T07:41:01Z</time></trkpt><trkpt lat="36.88608541792949" lon="138.14924317808595"><ele>1231.8438396630809</ele><time>2023-02-12T07:41:07Z</time></trkpt><trkpt lat="36.885981477783155" lon="138.14944800611121"><ele>1234.2583218896762</ele><time>2023-02-12T07:41:27Z</time></trkpt><trkpt lat="36.88590419897685" lon="138.14968564280343"><ele>1224.1528620934114</ele><time>2023-02-12T07:41:36Z</time></trkpt><trkpt lat="36.8857268321572" lon="138.1496335728474"><ele>1225.2421968309209</ele><time>2023-02-12T07:41:53Z</time></trkpt><trkpt lat="36.885543725685956" lon="138.14970514591303"><ele>1225.0142105100676</ele><time>2023-02-12T07:42:25Z</time></trkpt><trkpt lat="36.88538384738772" lon="138.149823590835"><ele>1221.2363208383322</ele><time>2023-02-12T07:42:33Z</time></trkpt><trkpt lat="36.88525465655187" lon="138.1500194721593"><ele>1216.1292305067182</ele><time>2023-02-12T07:42:39Z</time></trkpt><trkpt lat="36.885266862879625" lon="138.1502470610361"><ele>1203.7694654036313</ele><time>2023-02-12T07:42:49Z</time></trkpt><trkpt lat="36.88516445939535" lon="138.15045876186824"><ele>1196.2629725607112</ele><time>2023-02-12T07:43:00Z</time></trkpt><trkpt lat="36.88502041888491" lon="138.1507004223294"><ele>1193.7102175699547</ele><time>2023-02-12T07:43:28Z</time></trkpt><trkpt lat="36.88510895400231" lon="138.15089999601878"><ele>1183.049782257527</ele><time>2023-02-12T07:45:53Z</time></trkpt><trkpt lat="36.88528378848736" lon="138.15102407618494"><ele>1174.819931326434</ele><time>2023-02-12T07:46:05Z</time></trkpt><trkpt lat="36.88518840688742" lon="138.1512491873639"><ele>1161.45769496914</ele><time>2023-02-12T07:46:20Z</time></trkpt><trkpt lat="36.885059471747276" lon="138.15142294020936"><ele>1161.537910753861</ele><time>2023-02-12T07:46:30Z</time></trkpt><trkpt lat="36.88500920130005" lon="138.15165224547857"><ele>1152.096112352796</ele><time>2023-02-12T07:47:01Z</time></trkpt><trkpt lat="36.88497745151997" lon="138.15188754957097"><ele>1142.9372160956264</ele><time>2023-02-12T07:47:13Z</time></trkpt><trkpt lat="36.88496096852415" lon="138.15213073075205"><ele>1131.5132748354226</ele><time>2023-02-12T07:47:29Z</time></trkpt><trkpt lat="36.884972302104316" lon="138.1523650238907"><ele>1123.9349792655557</ele><time>2023-02-12T07:47:36Z</time></trkpt><trkpt lat="36.885099645116505" lon="138.15252753081876"><ele>1118.1221441375092</ele><time>2023-02-12T07:47:42Z</time></trkpt><trkpt lat="36.88527770016996" lon="138.1525926444888"><ele>1111.0789342774078</ele><time>2023-02-12T07:47:53Z</time></trkpt><trkpt lat="36.885256196837474" lon="138.15283472645442"><ele>1100.6722559239715</ele><time>2023-02-12T07:48:05Z</time></trkpt><trkpt lat="36.88533953480816" lon="138.15303782111405"><ele>1096.9007229674608</ele><time>2023-02-12T07:48:12Z</time></trkpt><trkpt lat="36.88527658502437" lon="138.15325225336701"><ele>1088.242335839197</ele><time>2023-02-12T07:48:24Z</time></trkpt><trkpt lat="36.88533266494328" lon="138.1534886628763"><ele>1078.7157724685967</ele><time>2023-02-12T07:48:43Z</time></trkpt><trkpt lat="36.885247162339745" lon="138.15369198155113"><ele>1078.8509081685916</ele><time>2023-02-12T07:48:52Z</time></trkpt><trkpt lat="36.8852153245544" lon="138.15393226803877"><ele>1074.7023460241035</ele><time>2023-02-12T07:49:17Z</time></trkpt><trkpt lat="36.885353080935346" lon="138.15409681240862"><ele>1065.6474064895883</ele><time>2023-02-12T07:49:27Z</time></trkpt><trkpt lat="36.88532960238333" lon="138.15434853881501"><ele>1063.5866982713342</ele><time>2023-02-12T07:49:32Z</time></trkpt><trkpt lat="36.885402741226315" lon="138.1545697460048"><ele>1060.5906881885603</ele><time>2023-02-12T07:49:38Z</time></trkpt><trkpt lat="36.88541703729117" lon="138.1548080788999"><ele>1056.6879995018244</ele><time>2023-02-12T07:49:44Z</time></trkpt><trkpt lat="36.88538650320603" lon="138.15505291850096"><ele>1050.1318463161588</ele><time>2023-02-12T07:49:55Z</time></trkpt><trkpt lat="36.88526666813569" lon="138.15522394219738"><ele>1042.155303270556</ele><time>2023-02-12T07:50:11Z</time></trkpt><trkpt lat="36.88524706037739" lon="138.15545901504004"><ele>1041.152384464629</ele><time>2023-02-12T07:50:28Z</time></trkpt><trkpt lat="36.88537924038944" lon="138.15562619986005"><ele>1025.4888870147988</ele><time>2023-02-12T07:50:59Z</time></trkpt><trkpt lat="36.88554546040173" lon="138.1557431658998"><ele>1015.6646312335506</ele><time>2023-02-12T07:51:18Z</time></trkpt><trkpt lat="36.8854095631022" lon="138.1559500134007"><ele>1011.2131220279261</ele><time>2023-02-12T07:51:36Z</time></trkpt><trkpt lat="36.88524105467808" lon="138.15604447727608"><ele>1022.1359677268192</ele><time>2023-02-12T07:52:13Z</time></trkpt><trkpt lat="36.88506334584742" lon="138.1559639824633"><ele>1020.4216586817056</ele><time>2023-02-12T07:52:38Z</time></trkpt><trkpt lat="36.88510991898143" lon="138.15619533080115"><ele>1014.9513723338023</ele><time>2023-02-12T07:52:58Z</time></trkpt><trkpt lat="36.8852068587114" lon="138.15638481064883"><ele>1011.7303339829668</ele><time>2023-02-12T07:54:49Z</time></trkpt><trkpt lat="36.88522350680473" lon="138.15660908083336"><ele>1011.7158656613901</ele><time>2023-02-12T07:54:59Z</time></trkpt><trkpt lat="36.88520418691715" lon="138.15684578417137"><ele>1014.6867357129231</ele><time>2023-02-12T07:55:13Z</time></trkpt><trkpt lat="36.88516770233199" lon="138.157083020056"><ele>1019.486658600159</ele><time>2023-02-12T07:55:33Z</time></trkpt><trkpt lat="36.8851822414742" lon="138.15685829648305"><ele>1014.1908567110077</ele><time>2023-02-12T07:55:51Z</time></trkpt><trkpt lat="36.88518680356828" lon="138.1570909872932"><ele>1013.9577820850536</ele><time>2023-02-12T07:56:31Z</time></trkpt><trkpt lat="36.88514690016441" lon="138.15732158939727"><ele>1017.9591313451529</ele><time>2023-02-12T07:56:44Z</time></trkpt><trkpt lat="36.88510652621981" lon="138.1575454103413"><ele>1017.0825082156807</ele><time>2023-02-12T07:57:04Z</time></trkpt><trkpt lat="36.88510548940485" lon="138.15777124474704"><ele>1014.4540147604421</ele><time>2023-02-12T07:57:31Z</time></trkpt><trkpt lat="36.885105646120024" lon="138.15799966349704"><ele>1013.6567293843254</ele><time>2023-02-12T07:57:50Z</time></trkpt><trkpt lat="36.88515620080538" lon="138.15821542864347"><ele>1011.3183126244694</ele><time>2023-02-12T07:58:06Z</time></trkpt><trkpt lat="36.88514852571869" lon="138.15844517838667"><ele>1010.2777070105076</ele><time>2023-02-12T07:59:11Z</time></trkpt><trkpt lat="36.88525784850118" lon="138.15864188684478"><ele>1004.1931543126702</ele><time>2023-02-12T07:59:19Z</time></trkpt><trkpt lat="36.88540231741426" lon="138.15881579247835"><ele>1001.0775480605662</ele><time>2023-02-12T07:59:23Z</time></trkpt><trkpt lat="36.88550613118329" lon="138.1590142571925"><ele>1001.5547945275903</ele><time>2023-02-12T07:59:33Z</time></trkpt><trkpt lat="36.88567689392779" lon="138.15913546679946"><ele>1000.3744413694367</ele><time>2023-02-12T07:59:49Z</time></trkpt><trkpt lat="36.88585153415294" lon="138.15920425481755"><ele>992.9256065720692</ele><time>2023-02-12T08:00:08Z</time></trkpt><trkpt lat="36.886006921645816" lon="138.1593348282808"><ele>987.2831168416888</ele><time>2023-02-12T08:00:28Z</time></trkpt><trkpt lat="36.88599833203127" lon="138.159587832719"><ele>999.2484631659463</ele><time>2023-02-12T08:01:43Z</time></trkpt><trkpt lat="36.88607323954264" lon="138.15981522009537"><ele>997.7938919952139</ele><time>2023-02-12T08:01:48Z</time></trkpt><trkpt lat="36.88614340002051" lon="138.16004522701763"><ele>996.4406888028607</ele><time>2023-02-12T08:02:19Z</time></trkpt><trkpt lat="36.886223715368345" lon="138.1603291047111"><ele>992.4504332086071</ele><time>2023-02-12T08:02:23Z</time></trkpt><trkpt lat="36.88634590288341" lon="138.1605275117233"><ele>989.0767076341435</ele><time>2023-02-12T08:02:27Z</time></trkpt><trkpt lat="36.88626287635239" lon="138.16081681562363"><ele>980.9397087916732</ele><time>2023-02-12T08:02:32Z</time></trkpt><trkpt lat="36.886213164524634" lon="138.1610756596526"><ele>976.1942725861445</ele><time>2023-02-12T08:02:36Z</time></trkpt><trkpt lat="36.88614017836898" lon="138.16134569761616"><ele>972.2778009120375</ele><time>2023-02-12T08:02:39Z</time></trkpt><trkpt lat="36.88605331871192" lon="138.1615794459307"><ele>967.9419714128599</ele><time>2023-02-12T08:02:42Z</time></trkpt><trkpt lat="36.88600587964649" lon="138.16188269734502"><ele>964.7879787934944</ele><time>2023-02-12T08:02:45Z</time></trkpt><trkpt lat="36.885954142167556" lon="138.16213043590915"><ele>963.5074652824551</ele><time>2023-02-12T08:02:49Z</time></trkpt><trkpt lat="36.885921739092495" lon="138.16242244703733"><ele>960.4108000788838</ele><time>2023-02-12T08:02:52Z</time></trkpt><trkpt lat="36.88591465478511" lon="138.1627143144729"><ele>955.6133261369541</ele><time>2023-02-12T08:02:55Z</time></trkpt><trkpt lat="36.88590441126931" lon="138.16304452847956"><ele>952.1893938845024</ele><time>2023-02-12T08:02:58Z</time></trkpt><trkpt lat="36.885859636789064" lon="138.16335836329756"><ele>946.711387379095</ele><time>2023-02-12T08:03:01Z</time></trkpt><trkpt lat="36.885861306466545" lon="138.1635934143282"><ele>945.9719071500003</ele><time>2023-02-12T08:03:03Z</time></trkpt><trkpt lat="36.88579446668542" lon="138.1638163294474"><ele>939.359388361685</ele><time>2023-02-12T08:03:05Z</time></trkpt><trkpt lat="36.885921771450064" lon="138.1640447085323"><ele>941.5053033558652</ele><time>2023-02-12T08:03:08Z</time></trkpt><trkpt lat="36.885859864693224" lon="138.16429365369828"><ele>939.7562164198607</ele><time>2023-02-12T08:03:11Z</time></trkpt><trkpt lat="36.88588240253781" lon="138.16457936267508"><ele>935.711421860382</ele><time>2023-02-12T08:03:14Z</time></trkpt><trkpt lat="36.885867354858966" lon="138.16481325992302"><ele>932.2016268484294</ele><time>2023-02-12T08:03:16Z</time></trkpt><trkpt lat="36.88596173717291" lon="138.16501996820733"><ele>928.9684660239145</ele><time>2023-02-12T08:03:18Z</time></trkpt><trkpt lat="36.88594736380139" lon="138.16530507491413"><ele>922.321116592735</ele><time>2023-02-12T08:03:21Z</time></trkpt><trkpt lat="36.885944386863194" lon="138.1656093459677"><ele>918.9537761891261</ele><time>2023-02-12T08:03:24Z</time></trkpt><trkpt lat="36.88593088045713" lon="138.16590596325122"><ele>910.9971229908988</ele><time>2023-02-12T08:03:27Z</time></trkpt><trkpt lat="36.885944101914916" lon="138.16614597969314"><ele>906.2411607867107</ele><time>2023-02-12T08:03:29Z</time></trkpt><trkpt lat="36.885902898947386" lon="138.16639747287587"><ele>898.8871527537704</ele><time>2023-02-12T08:03:31Z</time></trkpt><trkpt lat="36.885832746133126" lon="138.1666582940119"><ele>892.4608972808346</ele><time>2023-02-12T08:03:33Z</time></trkpt><trkpt lat="36.88588707743496" lon="138.166929254606"><ele>885.0276384092867</ele><time>2023-02-12T08:03:35Z</time></trkpt><trkpt lat="36.88583691405909" lon="138.16723011047495"><ele>877.1695412416011</ele><time>2023-02-12T08:03:37Z</time></trkpt><trkpt lat="36.885871333684314" lon="138.16745586887285"><ele>874.1569270221516</ele><time>2023-02-12T08:03:39Z</time></trkpt><trkpt lat="36.885745661136085" lon="138.16770299729026"><ele>869.2369527090341</ele><time>2023-02-12T08:03:42Z</time></trkpt><trkpt lat="36.88576304338605" lon="138.16799516041726"><ele>864.4572163447738</ele><time>2023-02-12T08:03:45Z</time></trkpt><trkpt lat="36.88571555833709" lon="138.16821441373293"><ele>860.8774248305708</ele><time>2023-02-12T08:03:47Z</time></trkpt><trkpt lat="36.88565748471581" lon="138.16843036761574"><ele>860.1453090161085</ele><time>2023-02-12T08:03:49Z</time></trkpt><trkpt lat="36.88572206650808" lon="138.16865419439134"><ele>857.0523887462914</ele><time>2023-02-12T08:03:52Z</time></trkpt><trkpt lat="36.88567604215333" lon="138.16888013093"><ele>853.6756437588483</ele><time>2023-02-12T08:03:54Z</time></trkpt><trkpt lat="36.88560090573827" lon="138.1691073977441"><ele>850.5494308378547</ele><time>2023-02-12T08:03:56Z</time></trkpt><trkpt lat="36.88565027111258" lon="138.16932499347723"><ele>849.1569833736867</ele><time>2023-02-12T08:03:58Z</time></trkpt><trkpt lat="36.885595775373616" lon="138.16963694033197"><ele>842.5525541706011</ele><time>2023-02-12T08:04:01Z</time></trkpt><trkpt lat="36.88561228738614" lon="138.16986063937242"><ele>839.3730505080894</ele><time>2023-02-12T08:04:03Z</time></trkpt><trkpt lat="36.88565861055128" lon="138.17015037906785"><ele>833.7274190643802</ele><time>2023-02-12T08:04:06Z</time></trkpt><trkpt lat="36.88557790429343" lon="138.1704382381332"><ele>827.0719785187393</ele><time>2023-02-12T08:04:09Z</time></trkpt><trkpt lat="36.885682721208745" lon="138.17062707769847"><ele>824.0994938062504</ele><time>2023-02-12T08:04:11Z</time></trkpt><trkpt lat="36.885624881389134" lon="138.17094960737825"><ele>819.2565324679017</ele><time>2023-02-12T08:04:14Z</time></trkpt><trkpt lat="36.885677144629966" lon="138.17124720335616"><ele>818.9355035834014</ele><time>2023-02-12T08:04:17Z</time></trkpt><trkpt lat="36.88565636848511" lon="138.17152544993482"><ele>818.323966184631</ele><time>2023-02-12T08:04:20Z</time></trkpt><trkpt lat="36.88574708128394" lon="138.1717486353252"><ele>816.1496412772685</ele><time>2023-02-12T08:04:23Z</time></trkpt><trkpt lat="36.8858221824612" lon="138.1719815104232"><ele>812.8554324544966</ele><time>2023-02-12T08:04:25Z</time></trkpt><trkpt lat="36.88589079848183" lon="138.17225086846702"><ele>807.5233647879213</ele><time>2023-02-12T08:04:27Z</time></trkpt><trkpt lat="36.88603628878398" lon="138.17244944425798"><ele>803.2554369010031</ele><time>2023-02-12T08:04:29Z</time></trkpt><trkpt lat="36.88613070122422" lon="138.17269408368318"><ele>800.8014479493722</ele><time>2023-02-12T08:04:31Z</time></trkpt><trkpt lat="36.886231158881664" lon="138.17292266374878"><ele>799.5181963695213</ele><time>2023-02-12T08:04:33Z</time></trkpt><trkpt lat="36.88638558984558" lon="138.17308497096826"><ele>796.1186692994088</ele><time>2023-02-12T08:04:35Z</time></trkpt><trkpt lat="36.886527087172254" lon="138.1732716911796"><ele>790.7104275999591</ele><time>2023-02-12T08:04:37Z</time></trkpt><trkpt lat="36.886669481325754" lon="138.17347199482174"><ele>785.9719634242356</ele><time>2023-02-12T08:04:39Z</time></trkpt><trkpt lat="36.8867373607614" lon="138.1737414751912"><ele>782.6349938586354</ele><time>2023-02-12T08:04:41Z</time></trkpt><trkpt lat="36.88672267957458" lon="138.17401596474204"><ele>781.3472979487851</ele><time>2023-02-12T08:04:43Z</time></trkpt><trkpt lat="36.88668300332692" lon="138.17424606444686"><ele>778.8094992274418</ele><time>2023-02-12T08:04:45Z</time></trkpt><trkpt lat="36.886733600008064" lon="138.1744672246129"><ele>776.283942100592</ele><time>2023-02-12T08:04:47Z</time></trkpt><trkpt lat="36.88669195925025" lon="138.1747760743988"><ele>774.0818108217791</ele><time>2023-02-12T08:04:50Z</time></trkpt><trkpt lat="36.88672512642781" lon="138.17507796364436"><ele>770.3982492508367</ele><time>2023-02-12T08:04:53Z</time></trkpt><trkpt lat="36.886694383401014" lon="138.17539264219673"><ele>767.3354004397988</ele><time>2023-02-12T08:04:56Z</time></trkpt><trkpt lat="36.886699833724606" lon="138.17570456915342"><ele>765.2911798758432</ele><time>2023-02-12T08:04:59Z</time></trkpt><trkpt lat="36.88671955489848" lon="138.1760275207656"><ele>761.7938059819862</ele><time>2023-02-12T08:05:02Z</time></trkpt><trkpt lat="36.88670881477042" lon="138.17626612823298"><ele>759.2589674657211</ele><time>2023-02-12T08:05:04Z</time></trkpt><trkpt lat="36.886707881717754" lon="138.17651053528223"><ele>757.3166817147285</ele><time>2023-02-12T08:05:06Z</time></trkpt><trkpt lat="36.88671326340659" lon="138.17674541648955"><ele>756.2662329953164</ele><time>2023-02-12T08:05:08Z</time></trkpt><trkpt lat="36.88673324755693" lon="138.17707706286495"><ele>754.8537481836975</ele><time>2023-02-12T08:05:11Z</time></trkpt><trkpt lat="36.886791855163665" lon="138.1773792348451"><ele>751.9105776529759</ele><time>2023-02-12T08:05:14Z</time></trkpt><trkpt lat="36.88683225971025" lon="138.1776866899108"><ele>750.1142529491335</ele><time>2023-02-12T08:05:17Z</time></trkpt><trkpt lat="36.88694279987524" lon="138.17793776482281"><ele>748.2748322822154</ele><time>2023-02-12T08:05:20Z</time></trkpt><trkpt lat="36.88705476105822" lon="138.17815199965563"><ele>745.5315352473408</ele><time>2023-02-12T08:05:23Z</time></trkpt></trkseg></trk></gpx>