<?xml version='1.0' encoding='UTF-8'?><gpx creator="YAMAP - https://yamap.com" xsi:schemaLocation="http://www.topografix.com/GPX/1/1 http://www.topografix.com/GPX/1/1/gpx.xsd" version="1.1" xmlns="http://www.topografix.com/GPX/1/1" xmlns:xsi="http://www.w3.org/2001/XMLSchema-instance"><metadata><bounds maxlat="33.86842872572109" maxlon="134.09611559291312" minlat="33.85341111887665" minlon="134.08923997136893"/></metadata><trk><name>剣山</name><number>1</number><trkseg><trkpt lat="33.866910178534454" lon="134.08957296488813"><ele>1395.7197710443288</ele><time>2023-04-30T01:15:57Z</time></trkpt><trkpt lat="33.867093012143044" lon="134.08960057050183"><ele>1395.9820408755913</ele><time>2023-04-30T01:16:15Z</time></trkpt><trkpt lat="33.867283351241845" lon="134.08964190997935"><ele>1394.9535591015592</ele><time>2023-04-30T01:16:30Z</time></trkpt><trkpt lat="33.867453760577675" lon="134.08971301389633"><ele>1392.6013204334304</ele><time>2023-04-30T01:16:45Z</time></trkpt><trkpt lat="33.86762972644741" lon="134.08977210202116"><ele>1395.5083781955764</ele><time>2023-04-30T01:17:04Z</time></trkpt><trkpt lat="33.86779799834737" lon="134.08985386164144"><ele>1396.289150555618</ele><time>2023-04-30T01:17:18Z</time></trkpt><trkpt lat="33.86797033303982" lon="134.08978112357585"><ele>1392.7027829922736</ele><time>2023-04-30T01:17:31Z</time></trkpt><trkpt lat="33.86815392504809" lon="134.0897791400782"><ele>1397.209085243754</ele><time>2023-04-30T01:18:04Z</time></trkpt><trkpt lat="33.86824758065481" lon="134.089972583382"><ele>1402.8768227156252</ele><time>2023-04-30T01:18:42Z</time></trkpt><trkpt lat="33.86834717388657" lon="134.09016755372102"><ele>1408.5004776734859</ele><time>2023-04-30T01:19:15Z</time></trkpt><trkpt lat="33.86833550430921" lon="134.0903891611292"><ele>1418.6053277365863</ele><time>2023-04-30T01:19:58Z</time></trkpt><trkpt lat="33.86816168611974" lon="134.09046376320055"><ele>1420.7002902347594</ele><time>2023-04-30T01:20:19Z</time></trkpt><trkpt lat="33.867999305737364" lon="134.0903648403911"><ele>1420.1974832145497</ele><time>2023-04-30T01:20:51Z</time></trkpt><trkpt lat="33.867829311719454" lon="134.09045905691914"><ele>1425.3768229540437</ele><time>2023-04-30T01:21:23Z</time></trkpt><trkpt lat="33.86771845603678" lon="134.09063018154953"><ele>1434.6577783059329</ele><time>2023-04-30T01:22:16Z</time></trkpt><trkpt lat="33.86755564202218" lon="134.0905296879442"><ele>1436.4122867267579</ele><time>2023-04-30T01:23:09Z</time></trkpt><trkpt lat="33.86739589022351" lon="134.09063482685792"><ele>1435.321201982908</ele><time>2023-04-30T01:23:35Z</time></trkpt><trkpt lat="33.8672135407175" lon="134.09064546677817"><ele>1441.8458174280822</ele><time>2023-04-30T01:24:18Z</time></trkpt><trkpt lat="33.86704611213905" lon="134.09074690581141"><ele>1441.656205656007</ele><time>2023-04-30T01:24:35Z</time></trkpt><trkpt lat="33.86688595801057" lon="134.09085541330123"><ele>1444.8233356401324</ele><time>2023-04-30T01:25:32Z</time></trkpt><trkpt lat="33.866730437205895" lon="134.09073432296955"><ele>1443.9959933767095</ele><time>2023-04-30T01:26:13Z</time></trkpt><trkpt lat="33.866586991080084" lon="134.09059171338046"><ele>1448.0833166185766</ele><time>2023-04-30T01:26:33Z</time></trkpt><trkpt lat="33.86647077243086" lon="134.09042335597027"><ele>1452.642388381064</ele><time>2023-04-30T01:26:53Z</time></trkpt><trkpt lat="33.866317070482594" lon="134.09030780778517"><ele>1458.1116798464209</ele><time>2023-04-30T01:27:17Z</time></trkpt><trkpt lat="33.8661440173697" lon="134.09023972085714"><ele>1463.926893058233</ele><time>2023-04-30T01:27:40Z</time></trkpt><trkpt lat="33.86600153347" lon="134.09010118556338"><ele>1464.7351950863376</ele><time>2023-04-30T01:28:11Z</time></trkpt><trkpt lat="33.865828215206605" lon="134.0900252818744"><ele>1469.591343069449</ele><time>2023-04-30T01:28:53Z</time></trkpt><trkpt lat="33.86580310987987" lon="134.08981034639496"><ele>1474.938330839388</ele><time>2023-04-30T01:29:30Z</time></trkpt><trkpt lat="33.86563255382365" lon="134.0897394829415"><ele>1479.856602425687</ele><time>2023-04-30T01:29:58Z</time></trkpt><trkpt lat="33.86552606398804" lon="134.08956038966411"><ele>1481.2821207176894</ele><time>2023-04-30T01:30:27Z</time></trkpt><trkpt lat="33.86538695839504" lon="134.08941661268162"><ele>1483.8965959325433</ele><time>2023-04-30T01:34:24Z</time></trkpt><trkpt lat="33.86523863174336" lon="134.089293218437"><ele>1492.383001764305</ele><time>2023-04-30T01:35:03Z</time></trkpt><trkpt lat="33.86520651279205" lon="134.08951030621625"><ele>1494.736252677627</ele><time>2023-04-30T01:35:38Z</time></trkpt><trkpt lat="33.865027208799255" lon="134.0894433653138"><ele>1505.9247969593853</ele><time>2023-04-30T01:36:18Z</time></trkpt><trkpt lat="33.86484355429131" lon="134.08946240986887"><ele>1509.561251022853</ele><time>2023-04-30T01:36:49Z</time></trkpt><trkpt lat="33.86465967668298" lon="134.08943298271367"><ele>1510.021312291734</ele><time>2023-04-30T01:37:27Z</time></trkpt><trkpt lat="33.86448992188309" lon="134.0893591844861"><ele>1518.880753332749</ele><time>2023-04-30T01:38:16Z</time></trkpt><trkpt lat="33.86440479194863" lon="134.08955081619783"><ele>1527.58533154428</ele><time>2023-04-30T01:39:27Z</time></trkpt><trkpt lat="33.86442923832019" lon="134.08958915547"><ele>1530.829232902266</ele><time>2023-04-30T01:40:04Z</time></trkpt><trkpt lat="33.86448385291964" lon="134.08979660493637"><ele>1534.8826448880136</ele><time>2023-04-30T01:40:59Z</time></trkpt><trkpt lat="33.864302089893066" lon="134.08978813908553"><ele>1541.3104730108753</ele><time>2023-04-30T01:41:44Z</time></trkpt><trkpt lat="33.8641349561116" lon="134.08969777033886"><ele>1545.1289743129164</ele><time>2023-04-30T01:42:28Z</time></trkpt><trkpt lat="33.86397139275126" lon="134.08958970225135"><ele>1557.9577460996807</ele><time>2023-04-30T01:43:19Z</time></trkpt><trkpt lat="33.86381470328071" lon="134.08947721118258"><ele>1564.7633700221777</ele><time>2023-04-30T01:43:56Z</time></trkpt><trkpt lat="33.863633257703576" lon="134.08941736863707"><ele>1566.9037394803017</ele><time>2023-04-30T01:44:28Z</time></trkpt><trkpt lat="33.86345397786369" lon="134.0893663861899"><ele>1573.4015037743375</ele><time>2023-04-30T01:45:04Z</time></trkpt><trkpt lat="33.86330300150338" lon="134.08924491136085"><ele>1577.6052056532353</ele><time>2023-04-30T01:45:44Z</time></trkpt><trkpt lat="33.86311745084133" lon="134.08924705764673"><ele>1580.0200138390064</ele><time>2023-04-30T01:46:12Z</time></trkpt><trkpt lat="33.86293953070979" lon="134.0892880563756"><ele>1584.8959926301613</ele><time>2023-04-30T01:46:45Z</time></trkpt><trkpt lat="33.86289200865505" lon="134.0894966026278"><ele>1589.2764723766595</ele><time>2023-04-30T01:47:22Z</time></trkpt><trkpt lat="33.862804739703435" lon="134.08969650464508"><ele>1591.466254384257</ele><time>2023-04-30T01:47:46Z</time></trkpt><trkpt lat="33.8627115368453" lon="134.08988359794782"><ele>1596.4111904045567</ele><time>2023-04-30T01:48:09Z</time></trkpt><trkpt lat="33.862646616479644" lon="134.0900854559051"><ele>1598.454064765945</ele><time>2023-04-30T01:48:40Z</time></trkpt><trkpt lat="33.862541523116" lon="134.09027206249957"><ele>1600.6725807711482</ele><time>2023-04-30T01:49:13Z</time></trkpt><trkpt lat="33.86244418400464" lon="134.09046877660685"><ele>1603.6636814773083</ele><time>2023-04-30T01:49:55Z</time></trkpt><trkpt lat="33.86233540077409" lon="134.09064673835303"><ele>1609.6606466565281</ele><time>2023-04-30T01:50:36Z</time></trkpt><trkpt lat="33.862207448644" lon="134.09081407817774"><ele>1615.86716303695</ele><time>2023-04-30T01:51:10Z</time></trkpt><trkpt lat="33.86213086061448" lon="134.09102683760526"><ele>1622.023488363251</ele><time>2023-04-30T01:51:35Z</time></trkpt><trkpt lat="33.861950815515485" lon="134.09105290231693"><ele>1625.8076558746397</ele><time>2023-04-30T01:52:22Z</time></trkpt><trkpt lat="33.86177481545053" lon="134.09111323502262"><ele>1632.4849821738899</ele><time>2023-04-30T01:52:55Z</time></trkpt><trkpt lat="33.86159407763472" lon="134.09117249983788"><ele>1634.0787512836978</ele><time>2023-04-30T01:53:40Z</time></trkpt><trkpt lat="33.86141436387826" lon="134.09120016023834"><ele>1636.3649089569226</ele><time>2023-04-30T01:54:08Z</time></trkpt><trkpt lat="33.86123555472933" lon="134.09116062945844"><ele>1643.0623135287315</ele><time>2023-04-30T01:54:33Z</time></trkpt><trkpt lat="33.86109325906863" lon="134.09100831435157"><ele>1645.852238688618</ele><time>2023-04-30T01:55:29Z</time></trkpt><trkpt lat="33.861033476752084" lon="134.0909005822155"><ele>1648.2246332680807</ele><time>2023-04-30T01:56:17Z</time></trkpt><trkpt lat="33.86088042123269" lon="134.09077908062395"><ele>1653.5610418906435</ele><time>2023-04-30T01:57:33Z</time></trkpt><trkpt lat="33.860749980597156" lon="134.09062442828733"><ele>1661.3967782463878</ele><time>2023-04-30T01:58:49Z</time></trkpt><trkpt lat="33.8607060121358" lon="134.09084114381065"><ele>1664.7895929841325</ele><time>2023-04-30T01:59:20Z</time></trkpt><trkpt lat="33.86063483755818" lon="134.09104214722666"><ele>1672.226851648651</ele><time>2023-04-30T02:06:23Z</time></trkpt><trkpt lat="33.860603919237064" lon="134.09125579729877"><ele>1676.5160953039303</ele><time>2023-04-30T02:07:13Z</time></trkpt><trkpt lat="33.860550089856865" lon="134.0914622835914"><ele>1685.5038138432428</ele><time>2023-04-30T02:07:44Z</time></trkpt><trkpt lat="33.8605852320595" lon="134.09167740460393"><ele>1689.0883259316906</ele><time>2023-04-30T02:08:32Z</time></trkpt><trkpt lat="33.86051498697975" lon="134.09187687287454"><ele>1698.1488045249134</ele><time>2023-04-30T02:09:17Z</time></trkpt><trkpt lat="33.86044211273125" lon="134.092084782542"><ele>1703.941933663562</ele><time>2023-04-30T02:10:26Z</time></trkpt><trkpt lat="33.86034280250116" lon="134.0922700160264"><ele>1709.3802085677162</ele><time>2023-04-30T02:11:01Z</time></trkpt><trkpt lat="33.86020751536031" lon="134.09242026637335"><ele>1715.8434831239283</ele><time>2023-04-30T02:11:38Z</time></trkpt><trkpt lat="33.860039745300014" lon="134.092529104556"><ele>1722.090849836357</ele><time>2023-04-30T02:13:10Z</time></trkpt><trkpt lat="33.859868239756516" lon="134.09262690561155"><ele>1727.8008335120976</ele><time>2023-04-30T02:13:44Z</time></trkpt><trkpt lat="33.85974066731518" lon="134.0927940553386"><ele>1725.680841495283</ele><time>2023-04-30T02:14:21Z</time></trkpt><trkpt lat="33.85965191928652" lon="134.09298245868374"><ele>1733.3408041438088</ele><time>2023-04-30T02:15:05Z</time></trkpt><trkpt lat="33.859493484348675" lon="134.093098129855"><ele>1740.884799355641</ele><time>2023-04-30T02:15:49Z</time></trkpt><trkpt lat="33.85937743867179" lon="134.093089984663"><ele>1742.9097855295986</ele><time>2023-04-30T02:16:15Z</time></trkpt><trkpt lat="33.85937743867179" lon="134.093089984663"><ele>1742.9097855295986</ele><time>2023-04-30T02:16:17Z</time></trkpt><trkpt lat="33.85919437893773" lon="134.0931509027218"><ele>1749.016077550128</ele><time>2023-04-30T02:16:55Z</time></trkpt><trkpt lat="33.85933786945563" lon="134.09328231384833"><ele>1753.4365155799314</ele><time>2023-04-30T02:18:22Z</time></trkpt><trkpt lat="33.85943869882355" lon="134.09346553918422"><ele>1763.5502014970407</ele><time>2023-04-30T02:20:42Z</time></trkpt><trkpt lat="33.8595676704029" lon="134.09362002742805"><ele>1765.8372472999617</ele><time>2023-04-30T02:21:25Z</time></trkpt><trkpt lat="33.859546434648855" lon="134.09385008849543"><ele>1772.3959014676511</ele><time>2023-04-30T02:22:10Z</time></trkpt><trkpt lat="33.85937460511381" lon="134.09391696345477"><ele>1779.3699835371226</ele><time>2023-04-30T02:23:04Z</time></trkpt><trkpt lat="33.859274776339134" lon="134.0941007336596"><ele>1784.656226775609</ele><time>2023-04-30T02:23:50Z</time></trkpt><trkpt lat="33.859123366177705" lon="134.09421927564193"><ele>1790.9765029596165</ele><time>2023-04-30T02:26:36Z</time></trkpt><trkpt lat="33.858959040789344" lon="134.09431441910024"><ele>1797.1350194150582</ele><time>2023-04-30T02:27:19Z</time></trkpt><trkpt lat="33.85880552348833" lon="134.09443714954406"><ele>1800.4173451401293</ele><time>2023-04-30T02:27:51Z</time></trkpt><trkpt lat="33.85872210360895" lon="134.09463414402984"><ele>1801.472854415886</ele><time>2023-04-30T02:28:36Z</time></trkpt><trkpt lat="33.85854997133559" lon="134.09472125812712"><ele>1806.8694052016363</ele><time>2023-04-30T02:30:34Z</time></trkpt><trkpt lat="33.8584475340709" lon="134.09490661772588"><ele>1814.5780637543648</ele><time>2023-04-30T02:31:17Z</time></trkpt><trkpt lat="33.85831694461025" lon="134.09506388903714"><ele>1819.116333286278</ele><time>2023-04-30T02:32:18Z</time></trkpt><trkpt lat="33.85822930838952" lon="134.09525379038956"><ele>1825.0544125027955</ele><time>2023-04-30T02:33:05Z</time></trkpt><trkpt lat="33.85804435724391" lon="134.0952907021347"><ele>1835.2926368853077</ele><time>2023-04-30T02:34:20Z</time></trkpt><trkpt lat="33.857860983330895" lon="134.09527466177428"><ele>1843.6385010099038</ele><time>2023-04-30T02:35:30Z</time></trkpt><trkpt lat="33.857687364991314" lon="134.0953354402756"><ele>1852.8206932479516</ele><time>2023-04-30T02:36:26Z</time></trkpt><trkpt lat="33.857506002095874" lon="134.0953540127666"><ele>1866.248636781238</ele><time>2023-04-30T02:37:06Z</time></trkpt><trkpt lat="33.85733409801323" lon="134.09543375073645"><ele>1867.9150231871754</ele><time>2023-04-30T02:46:23Z</time></trkpt><trkpt lat="33.85714841851413" lon="134.0954381352021"><ele>1874.564885282889</ele><time>2023-04-30T02:46:49Z</time></trkpt><trkpt lat="33.856971392288685" lon="134.09549584040437"><ele>1879.3574054399505</ele><time>2023-04-30T02:47:15Z</time></trkpt><trkpt lat="33.85679186547902" lon="134.09544930635352"><ele>1882.2681893622503</ele><time>2023-04-30T02:47:58Z</time></trkpt><trkpt lat="33.856652653813384" lon="134.09559140874532"><ele>1887.0375987282023</ele><time>2023-04-30T02:49:42Z</time></trkpt><trkpt lat="33.85646731213428" lon="134.09564528969656"><ele>1891.084906837903</ele><time>2023-04-30T02:50:22Z</time></trkpt><trkpt lat="33.856304555401934" lon="134.09574255477995"><ele>1894.1895499117672</ele><time>2023-04-30T02:51:40Z</time></trkpt><trkpt lat="33.85614718759813" lon="134.09585687357438"><ele>1900.3043356677517</ele><time>2023-04-30T02:52:29Z</time></trkpt><trkpt lat="33.855965468115244" lon="134.09582834333114"><ele>1911.3702678205445</ele><time>2023-04-30T02:53:46Z</time></trkpt><trkpt lat="33.85578020702024" lon="134.09582602460168"><ele>1913.8250167192891</ele><time>2023-04-30T02:54:28Z</time></trkpt><trkpt lat="33.85560066059482" lon="134.09585564153724"><ele>1917.7463136045262</ele><time>2023-04-30T02:55:17Z</time></trkpt><trkpt lat="33.855443323726924" lon="134.0959613153151"><ele>1925.9135524230078</ele><time>2023-04-30T02:56:05Z</time></trkpt><trkpt lat="33.855276851644504" lon="134.0960649742289"><ele>1930.887761902064</ele><time>2023-04-30T02:57:41Z</time></trkpt><trkpt lat="33.85513448258171" lon="134.09593181554663"><ele>1942.9263172941282</ele><time>2023-04-30T03:00:12Z</time></trkpt><trkpt lat="33.85512507775621" lon="134.0957098450943"><ele>1942.0715481359512</ele><time>2023-04-30T03:01:12Z</time></trkpt><trkpt lat="33.85509483154223" lon="134.09548705066132"><ele>1940.2868360038847</ele><time>2023-04-30T03:01:39Z</time></trkpt><trkpt lat="33.85495103855376" lon="134.0953522967473"><ele>1941.336031644605</ele><time>2023-04-30T03:02:08Z</time></trkpt><trkpt lat="33.854856766597706" lon="134.0951670978272"><ele>1941.5709901070222</ele><time>2023-04-30T03:02:29Z</time></trkpt><trkpt lat="33.85475493526257" lon="134.0949872645911"><ele>1942.9925280231982</ele><time>2023-04-30T03:02:54Z</time></trkpt><trkpt lat="33.85465855451636" lon="134.09480318992803"><ele>1945.247659040615</ele><time>2023-04-30T03:03:23Z</time></trkpt><trkpt lat="33.85454844145882" lon="134.09462911255204"><ele>1949.8941872958094</ele><time>2023-04-30T03:03:45Z</time></trkpt><trkpt lat="33.85438194234015" lon="134.09454204953263"><ele>1952.4876725990325</ele><time>2023-04-30T03:05:12Z</time></trkpt><trkpt lat="33.854204854747444" lon="134.0944726732929"><ele>1951.2575285648927</ele><time>2023-04-30T03:05:43Z</time></trkpt><trkpt lat="33.85402878641598" lon="134.09441298821912"><ele>1952.6020554518327</ele><time>2023-04-30T03:06:02Z</time></trkpt><trkpt lat="33.85385441464781" lon="134.09434328842784"><ele>1952.8228156026453</ele><time>2023-04-30T03:06:22Z</time></trkpt><trkpt lat="33.85368908000283" lon="134.09423573334502"><ele>1951.8291242653504</ele><time>2023-04-30T03:07:10Z</time></trkpt><trkpt lat="33.85352437842615" lon="134.09413036411036"><ele>1950.886821931228</ele><time>2023-04-30T03:07:42Z</time></trkpt><trkpt lat="33.85367169769387" lon="134.0942708411639"><ele>1945.8186389366165</ele><time>2023-04-30T03:42:35Z</time></trkpt><trkpt lat="33.85383005759848" lon="134.09438542933083"><ele>1944.5540758660063</ele><time>2023-04-30T03:42:40Z</time></trkpt><trkpt lat="33.85401456033259" lon="134.0944514953577"><ele>1944.287655910477</ele><time>2023-04-30T03:42:45Z</time></trkpt><trkpt lat="33.854190825268994" lon="134.09451426503148"><ele>1943.0044963248074</ele><time>2023-04-30T03:42:50Z</time></trkpt><trkpt lat="33.85436852974223" lon="134.09458251513317"><ele>1943.8135046698153</ele><time>2023-04-30T03:42:55Z</time></trkpt><trkpt lat="33.85454804233202" lon="134.09467683667467"><ele>1944.3446266679093</ele><time>2023-04-30T03:43:01Z</time></trkpt><trkpt lat="33.85466055934071" lon="134.0948542816256"><ele>1941.00331646204</ele><time>2023-04-30T03:43:09Z</time></trkpt><trkpt lat="33.85476837085059" lon="134.09506685291262"><ele>1938.209511228837</ele><time>2023-04-30T03:43:16Z</time></trkpt><trkpt lat="33.854880732029464" lon="134.09526264152154"><ele>1936.3275982290506</ele><time>2023-04-30T03:43:23Z</time></trkpt><trkpt lat="33.8550127808758" lon="134.09540976520626"><ele>1936.078715480864</ele><time>2023-04-30T03:43:29Z</time></trkpt><trkpt lat="33.85515145930955" lon="134.09556830361228"><ele>1936.3312280159444</ele><time>2023-04-30T03:43:39Z</time></trkpt><trkpt lat="33.8553056253661" lon="134.09569781021798"><ele>1938.242016248405</ele><time>2023-04-30T03:43:47Z</time></trkpt><trkpt lat="33.85525928700466" lon="134.09591521795272"><ele>1933.6873267516494</ele><time>2023-04-30T03:44:01Z</time></trkpt><trkpt lat="33.85534488923408" lon="134.09611559291312"><ele>1929.6303646042943</ele><time>2023-04-30T03:44:25Z</time></trkpt><trkpt lat="33.85518750129237" lon="134.0959955208886"><ele>1936.3761479202658</ele><time>2023-04-30T03:47:18Z</time></trkpt><trkpt lat="33.85511981098032" lon="134.09578769444553"><ele>1939.4806543309242</ele><time>2023-04-30T03:47:37Z</time></trkpt><trkpt lat="33.85509245571908" lon="134.09556742695148"><ele>1938.1648709150031</ele><time>2023-04-30T03:47:52Z</time></trkpt><trkpt lat="33.854962097583545" lon="134.09540754567018"><ele>1938.6818536054343</ele><time>2023-04-30T03:48:12Z</time></trkpt><trkpt lat="33.85485798871137" lon="134.09522202722573"><ele>1939.8035109797493</ele><time>2023-04-30T03:48:27Z</time></trkpt><trkpt lat="33.85476041653892" lon="134.09503468101383"><ele>1941.6626011691988</ele><time>2023-04-30T03:48:46Z</time></trkpt><trkpt lat="33.85466311674864" lon="134.09484221091964"><ele>1945.117286188528</ele><time>2023-04-30T03:49:01Z</time></trkpt><trkpt lat="33.85455059236487" lon="134.09466990946186"><ele>1947.0883477777243</ele><time>2023-04-30T03:49:13Z</time></trkpt><trkpt lat="33.85436977499173" lon="134.09458560603844"><ele>1948.158749036491</ele><time>2023-04-30T03:49:22Z</time></trkpt><trkpt lat="33.854194154330266" lon="134.09451175719968"><ele>1949.3135062102228</ele><time>2023-04-30T03:49:27Z</time></trkpt><trkpt lat="33.85401230718045" lon="134.09446173111863"><ele>1949.1194332428277</ele><time>2023-04-30T03:49:32Z</time></trkpt><trkpt lat="33.853831885148075" lon="134.09439278004194"><ele>1951.3655766937882</ele><time>2023-04-30T03:49:38Z</time></trkpt><trkpt lat="33.85363152615781" lon="134.0943513533134"><ele>1951.4873527083546</ele><time>2023-04-30T03:49:45Z</time></trkpt><trkpt lat="33.85352740469834" lon="134.0941670933335"><ele>1950.7361961174756</ele><time>2023-04-30T03:49:53Z</time></trkpt><trkpt lat="33.85341111887665" lon="134.09398129360298"><ele>1950.9553795773536</ele><time>2023-04-30T04:17:18Z</time></trkpt><trkpt lat="33.85352345010388" lon="134.09415524836285"><ele>1951.4465351654217</ele><time>2023-04-30T04:23:57Z</time></trkpt><trkpt lat="33.853679861655266" lon="134.09428509642734"><ele>1950.0116516947746</ele><time>2023-04-30T04:33:50Z</time></trkpt><trkpt lat="33.8538424872958" lon="134.094395259712"><ele>1948.5162007240579</ele><time>2023-04-30T04:36:50Z</time></trkpt><trkpt lat="33.853982831293486" lon="134.0945500188319"><ele>1945.3550261082128</ele><time>2023-04-30T04:37:10Z</time></trkpt><trkpt lat="33.85410903416057" lon="134.09472102210952"><ele>1944.0279553392902</ele><time>2023-04-30T04:37:30Z</time></trkpt><trkpt lat="33.854251359696384" lon="134.0948710317612"><ele>1942.6489588515833</ele><time>2023-04-30T04:37:51Z</time></trkpt><trkpt lat="33.854376532476316" lon="134.09503069417505"><ele>1940.7794131450355</ele><time>2023-04-30T04:38:12Z</time></trkpt><trkpt lat="33.85451595321155" lon="134.09516944282748"><ele>1938.9057279583067</ele><time>2023-04-30T04:38:32Z</time></trkpt><trkpt lat="33.85465987945303" lon="134.09530616702585"><ele>1936.6924257799983</ele><time>2023-04-30T04:38:56Z</time></trkpt><trkpt lat="33.854760875506" lon="134.09548941768517"><ele>1936.4646595260128</ele><time>2023-04-30T04:39:14Z</time></trkpt><trkpt lat="33.854746120028395" lon="134.0957145450608"><ele>1940.2335818475112</ele><time>2023-04-30T04:39:29Z</time></trkpt><trkpt lat="33.85476402665272" lon="134.09594413139277"><ele>1942.8938096761703</ele><time>2023-04-30T04:39:44Z</time></trkpt><trkpt lat="33.85493607570808" lon="134.0958727746279"><ele>1947.9273790689185</ele><time>2023-04-30T04:41:31Z</time></trkpt><trkpt lat="33.854924325187184" lon="134.09592392540804"><ele>1947.4982537459582</ele><time>2023-04-30T04:41:44Z</time></trkpt><trkpt lat="33.8551133666401" lon="134.0959279684588"><ele>1943.6109188226983</ele><time>2023-04-30T04:45:23Z</time></trkpt><trkpt lat="33.85526063174828" lon="134.09605365542797"><ele>1930.7742919381708</ele><time>2023-04-30T04:47:04Z</time></trkpt><trkpt lat="33.855432774334915" lon="134.09597668456283"><ele>1925.5359907895327</ele><time>2023-04-30T04:47:38Z</time></trkpt><trkpt lat="33.85559854761474" lon="134.09587407213866"><ele>1919.2285814899951</ele><time>2023-04-30T04:48:52Z</time></trkpt><trkpt lat="33.85578743188935" lon="134.0958435703108"><ele>1911.473249730654</ele><time>2023-04-30T04:49:19Z</time></trkpt><trkpt lat="33.85597114743455" lon="134.09585778496853"><ele>1904.6016630874947</ele><time>2023-04-30T04:49:48Z</time></trkpt><trkpt lat="33.85615220764731" lon="134.09588027342943"><ele>1897.2675768770278</ele><time>2023-04-30T04:50:33Z</time></trkpt><trkpt lat="33.85630276321634" lon="134.0957606560588"><ele>1894.4217754444107</ele><time>2023-04-30T04:50:59Z</time></trkpt><trkpt lat="33.856460959953786" lon="134.09563494018258"><ele>1889.7242362471297</ele><time>2023-04-30T04:51:33Z</time></trkpt><trkpt lat="33.856637160331324" lon="134.09557724495536"><ele>1883.5777710489929</ele><time>2023-04-30T04:52:00Z</time></trkpt><trkpt lat="33.85679812103885" lon="134.0954741036003"><ele>1878.0251792492345</ele><time>2023-04-30T04:52:40Z</time></trkpt><trkpt lat="33.85697955748928" lon="134.09547019985223"><ele>1870.5759589942172</ele><time>2023-04-30T04:53:16Z</time></trkpt><trkpt lat="33.857158131619926" lon="134.09540929578475"><ele>1870.5510947816074</ele><time>2023-04-30T04:53:41Z</time></trkpt><trkpt lat="33.85733896706509" lon="134.095422667837"><ele>1865.090734749101</ele><time>2023-04-30T04:54:01Z</time></trkpt><trkpt lat="33.85752250324971" lon="134.09539332960145"><ele>1858.4806339321658</ele><time>2023-04-30T04:54:33Z</time></trkpt><trkpt lat="33.857698084473824" lon="134.09534126618965"><ele>1852.8848668625578</ele><time>2023-04-30T04:54:58Z</time></trkpt><trkpt lat="33.8578804312195" lon="134.09532080281437"><ele>1844.4275118866935</ele><time>2023-04-30T04:55:36Z</time></trkpt><trkpt lat="33.85804660587022" lon="134.09522825647878"><ele>1835.577485914342</ele><time>2023-04-30T04:56:21Z</time></trkpt><trkpt lat="33.85822862703321" lon="134.0952371605215"><ele>1822.1845229016617</ele><time>2023-04-30T04:57:42Z</time></trkpt><trkpt lat="33.85830437148688" lon="134.0950380486777"><ele>1820.6253711171448</ele><time>2023-04-30T04:58:26Z</time></trkpt><trkpt lat="33.85845841498547" lon="134.09491615690703"><ele>1811.7497692350298</ele><time>2023-04-30T04:59:09Z</time></trkpt><trkpt lat="33.85858083653423" lon="134.09474720644414"><ele>1809.1258187675849</ele><time>2023-04-30T04:59:49Z</time></trkpt><trkpt lat="33.8587127357214" lon="134.09459391867787"><ele>1802.2163760680705</ele><time>2023-04-30T05:00:14Z</time></trkpt><trkpt lat="33.858825031712634" lon="134.09441661674757"><ele>1799.488277436234</ele><time>2023-04-30T05:01:08Z</time></trkpt><trkpt lat="33.85898000438488" lon="134.09429829522756"><ele>1794.3996537188068</ele><time>2023-04-30T05:01:28Z</time></trkpt><trkpt lat="33.85915133508476" lon="134.094206168559"><ele>1789.4940353007987</ele><time>2023-04-30T05:01:48Z</time></trkpt><trkpt lat="33.85931605917855" lon="134.09409410077402"><ele>1784.0108178844675</ele><time>2023-04-30T05:02:11Z</time></trkpt><trkpt lat="33.859407014868395" lon="134.09390318158978"><ele>1780.9879122497514</ele><time>2023-04-30T05:03:54Z</time></trkpt><trkpt lat="33.859584517823436" lon="134.09383588962316"><ele>1770.6033364301547</ele><time>2023-04-30T05:04:45Z</time></trkpt><trkpt lat="33.85963189521174" lon="134.09362475565615"><ele>1766.5997773082927</ele><time>2023-04-30T05:05:24Z</time></trkpt><trkpt lat="33.859760974565816" lon="134.09347316490744"><ele>1759.6346915625036</ele><time>2023-04-30T05:05:53Z</time></trkpt><trkpt lat="33.85994555297128" lon="134.09346125194585"><ele>1755.3266463307664</ele><time>2023-04-30T05:06:18Z</time></trkpt><trkpt lat="33.86007988467243" lon="134.09331361152917"><ele>1751.4417749503627</ele><time>2023-04-30T05:06:40Z</time></trkpt><trkpt lat="33.860204328119245" lon="134.09315148280518"><ele>1749.2800075355917</ele><time>2023-04-30T05:07:01Z</time></trkpt><trkpt lat="33.86038701903598" lon="134.09312657875765"><ele>1743.0232757655904</ele><time>2023-04-30T05:07:40Z</time></trkpt><trkpt lat="33.8605456767041" lon="134.0930204792247"><ele>1736.33795802854</ele><time>2023-04-30T05:08:14Z</time></trkpt><trkpt lat="33.86064102090159" lon="134.09283481007753"><ele>1728.1022358490154</ele><time>2023-04-30T05:09:06Z</time></trkpt><trkpt lat="33.86056569931827" lon="134.0926312315371"><ele>1723.2372952802107</ele><time>2023-04-30T05:09:44Z</time></trkpt><trkpt lat="33.86063428538567" lon="134.09241691970428"><ele>1715.5448798444122</ele><time>2023-04-30T05:10:29Z</time></trkpt><trkpt lat="33.86044739878556" lon="134.09240357666297"><ele>1714.3360270606354</ele><time>2023-04-30T05:10:58Z</time></trkpt><trkpt lat="33.86063509114026" lon="134.0923642229922"><ele>1711.178327714093</ele><time>2023-04-30T05:12:20Z</time></trkpt><trkpt lat="33.86068511381898" lon="134.09238123928284"><ele>1712.666269714944</ele><time>2023-04-30T05:12:56Z</time></trkpt><trkpt lat="33.86050785673806" lon="134.09245057104437"><ele>1715.4574884520844</ele><time>2023-04-30T05:14:16Z</time></trkpt><trkpt lat="33.860324008404035" lon="134.09242299491484"><ele>1720.6382331559435</ele><time>2023-04-30T05:14:34Z</time></trkpt><trkpt lat="33.86017778044971" lon="134.09255776204787"><ele>1722.0396785214543</ele><time>2023-04-30T05:15:31Z</time></trkpt><trkpt lat="33.86027755634991" lon="134.09237494289948"><ele>1715.4953116942197</ele><time>2023-04-30T05:15:53Z</time></trkpt><trkpt lat="33.86040025856912" lon="134.09221436662128"><ele>1707.9092631619424</ele><time>2023-04-30T05:16:17Z</time></trkpt><trkpt lat="33.8605025129512" lon="134.0920132120809"><ele>1702.7423416087404</ele><time>2023-04-30T05:16:41Z</time></trkpt><trkpt lat="33.86051021216099" lon="134.09196627242397"><ele>1700.5401220154017</ele><time>2023-04-30T05:16:57Z</time></trkpt><trkpt lat="33.86059462466082" lon="134.0917698566357"><ele>1697.213493811898</ele><time>2023-04-30T05:17:26Z</time></trkpt><trkpt lat="33.86062034158535" lon="134.09155396886516"><ele>1692.2082368573174</ele><time>2023-04-30T05:18:06Z</time></trkpt><trkpt lat="33.860621323140315" lon="134.09133384201743"><ele>1688.6138536883518</ele><time>2023-04-30T05:18:35Z</time></trkpt><trkpt lat="33.86062455270016" lon="134.091116301205"><ele>1682.8767265575007</ele><time>2023-04-30T05:19:31Z</time></trkpt><trkpt lat="33.86066619026503" lon="134.0909005276749"><ele>1677.5957535728812</ele><time>2023-04-30T05:20:05Z</time></trkpt><trkpt lat="33.86071729719153" lon="134.0906923454454"><ele>1668.5430425237864</ele><time>2023-04-30T05:20:41Z</time></trkpt><trkpt lat="33.860896693201866" lon="134.09073028426775"><ele>1660.0737610720098</ele><time>2023-04-30T05:21:37Z</time></trkpt><trkpt lat="33.86102404358837" lon="134.09089207974648"><ele>1650.3869049847126</ele><time>2023-04-30T05:22:32Z</time></trkpt><trkpt lat="33.86110551717464" lon="134.09108628426364"><ele>1646.7185193300247</ele><time>2023-04-30T05:23:02Z</time></trkpt><trkpt lat="33.86129322778355" lon="134.09118151177233"><ele>1640.9889759588987</ele><time>2023-04-30T05:23:27Z</time></trkpt><trkpt lat="33.86147795298912" lon="134.09120701252232"><ele>1637.4154990138486</ele><time>2023-04-30T05:23:37Z</time></trkpt><trkpt lat="33.861656198304665" lon="134.09116888175748"><ele>1637.3662064438686</ele><time>2023-04-30T05:23:44Z</time></trkpt><trkpt lat="33.86183557934847" lon="134.09110308047622"><ele>1634.488215460442</ele><time>2023-04-30T05:26:41Z</time></trkpt><trkpt lat="33.86203356595767" lon="134.09105092292535"><ele>1626.4250905783847</ele><time>2023-04-30T05:27:05Z</time></trkpt><trkpt lat="33.86220475277683" lon="134.0909680810797"><ele>1626.4379238737747</ele><time>2023-04-30T05:27:33Z</time></trkpt><trkpt lat="33.862245289434036" lon="134.09075567070047"><ele>1620.8730567358434</ele><time>2023-04-30T05:27:56Z</time></trkpt><trkpt lat="33.86237961588702" lon="134.09059810264787"><ele>1615.4866872085258</ele><time>2023-04-30T05:28:25Z</time></trkpt><trkpt lat="33.86249500084079" lon="134.0904165033532"><ele>1608.365075387992</ele><time>2023-04-30T05:28:50Z</time></trkpt><trkpt lat="33.86258874667599" lon="134.0902240273361"><ele>1604.0326927546412</ele><time>2023-04-30T05:30:26Z</time></trkpt><trkpt lat="33.862686847580584" lon="134.0900313868324"><ele>1600.9170603528619</ele><time>2023-04-30T05:30:55Z</time></trkpt><trkpt lat="33.86275891517412" lon="134.0898330310535"><ele>1601.7371404655278</ele><time>2023-04-30T05:31:14Z</time></trkpt><trkpt lat="33.86284622775614" lon="134.08963372109056"><ele>1597.7928264783695</ele><time>2023-04-30T05:31:35Z</time></trkpt><trkpt lat="33.86290750950112" lon="134.08942347663935"><ele>1596.1362193701789</ele><time>2023-04-30T05:31:57Z</time></trkpt><trkpt lat="33.86301282412002" lon="134.08923997136893"><ele>1589.686239012517</ele><time>2023-04-30T05:32:26Z</time></trkpt><trkpt lat="33.8631985824127" lon="134.08924843019042"><ele>1582.8499816711992</ele><time>2023-04-30T05:32:52Z</time></trkpt><trkpt lat="33.8633775966507" lon="134.08928358889682"><ele>1576.7394183864817</ele><time>2023-04-30T05:33:16Z</time></trkpt><trkpt lat="33.86353492091688" lon="134.08939861096698"><ele>1571.5998139893636</ele><time>2023-04-30T05:33:45Z</time></trkpt><trkpt lat="33.86373322470796" lon="134.08943033277686"><ele>1565.2462307866663</ele><time>2023-04-30T05:34:21Z</time></trkpt><trkpt lat="33.86390450449063" lon="134.08951835301804"><ele>1565.2941022170708</ele><time>2023-04-30T05:34:47Z</time></trkpt><trkpt lat="33.86408341731241" lon="134.08958310477487"><ele>1558.8054575510323</ele><time>2023-04-30T05:35:30Z</time></trkpt><trkpt lat="33.86421768572101" lon="134.08973353064684"><ele>1548.161230747588</ele><time>2023-04-30T05:36:10Z</time></trkpt><trkpt lat="33.86438857653373" lon="134.08981616670226"><ele>1540.7747669918463</ele><time>2023-04-30T05:36:46Z</time></trkpt><trkpt lat="33.86445803479211" lon="134.08961515154402"><ele>1531.2621097154915</ele><time>2023-04-30T05:38:01Z</time></trkpt><trkpt lat="33.86441676826889" lon="134.0893943558096"><ele>1528.09600241296</ele><time>2023-04-30T05:38:43Z</time></trkpt><trkpt lat="33.86460404353872" lon="134.08942896395527"><ele>1519.995626123622</ele><time>2023-04-30T05:39:36Z</time></trkpt><trkpt lat="33.8647824562817" lon="134.08946458496519"><ele>1509.1069566085935</ele><time>2023-04-30T05:40:30Z</time></trkpt><trkpt lat="33.86497267603477" lon="134.08950578438467"><ele>1506.2936883466318</ele><time>2023-04-30T05:40:57Z</time></trkpt><trkpt lat="33.865152443778484" lon="134.08946146285402"><ele>1500.1968424106017</ele><time>2023-04-30T05:41:20Z</time></trkpt><trkpt lat="33.86529545079829" lon="134.0893281806389"><ele>1492.128180924803</ele><time>2023-04-30T05:42:28Z</time></trkpt><trkpt lat="33.86544456178259" lon="134.08946790374517"><ele>1484.2679091654718</ele><time>2023-04-30T05:43:38Z</time></trkpt><trkpt lat="33.86558142038371" lon="134.08963308243966"><ele>1482.5026852115989</ele><time>2023-04-30T05:43:52Z</time></trkpt><trkpt lat="33.865733653704574" lon="134.08977150185692"><ele>1477.7655169721693</ele><time>2023-04-30T05:44:37Z</time></trkpt><trkpt lat="33.86588202813579" lon="134.08989915348135"><ele>1472.2731858631596</ele><time>2023-04-30T05:45:05Z</time></trkpt><trkpt lat="33.86589902857566" lon="134.090114543284"><ele>1469.8619157802314</ele><time>2023-04-30T05:45:35Z</time></trkpt><trkpt lat="33.86608222580561" lon="134.09016303400904"><ele>1461.78810297139</ele><time>2023-04-30T05:46:10Z</time></trkpt><trkpt lat="33.86621579985378" lon="134.09032983316754"><ele>1460.8684418043122</ele><time>2023-04-30T05:47:04Z</time></trkpt><trkpt lat="33.86639063453288" lon="134.0903834679335"><ele>1457.1394738554955</ele><time>2023-04-30T05:47:28Z</time></trkpt><trkpt lat="33.866521217365225" lon="134.09055781158418"><ele>1451.6899139629677</ele><time>2023-04-30T05:47:56Z</time></trkpt><trkpt lat="33.86667007611368" lon="134.09070303299197"><ele>1449.2043090984225</ele><time>2023-04-30T05:48:16Z</time></trkpt><trkpt lat="33.86682296549404" lon="134.09083907306422"><ele>1444.2637647166848</ele><time>2023-04-30T05:48:41Z</time></trkpt><trkpt lat="33.86701603643615" lon="134.09083515745627"><ele>1440.5207412457094</ele><time>2023-04-30T05:49:15Z</time></trkpt><trkpt lat="33.8671778659867" lon="134.09072129917575"><ele>1438.185927405022</ele><time>2023-04-30T05:49:37Z</time></trkpt><trkpt lat="33.8673600707841" lon="134.090761763275"><ele>1438.1109731849283</ele><time>2023-04-30T05:49:58Z</time></trkpt><trkpt lat="33.86745516647886" lon="134.09056571835103"><ele>1436.762466473505</ele><time>2023-04-30T05:50:15Z</time></trkpt><trkpt lat="33.867634582772304" lon="134.09059268148454"><ele>1431.915684664622</ele><time>2023-04-30T05:50:49Z</time></trkpt><trkpt lat="33.86780527410842" lon="134.0904980950678"><ele>1428.9817050118</ele><time>2023-04-30T05:51:23Z</time></trkpt><trkpt lat="33.86792886800751" lon="134.09033858964773"><ele>1421.6243945946917</ele><time>2023-04-30T05:51:43Z</time></trkpt><trkpt lat="33.86809928356567" lon="134.09042884523103"><ele>1408.3921483932063</ele><time>2023-04-30T05:52:20Z</time></trkpt><trkpt lat="33.86827364763969" lon="134.09037382415826"><ele>1414.3463734369725</ele><time>2023-04-30T05:52:37Z</time></trkpt><trkpt lat="33.86842872572109" lon="134.09025478641834"><ele>1415.418716782704</ele><time>2023-04-30T05:53:24Z</time></trkpt><trkpt lat="33.868308718976486" lon="134.09009176758653"><ele>1408.8108243141323</ele><time>2023-04-30T05:54:42Z</time></trkpt><trkpt lat="33.868205309514785" lon="134.08991425544627"><ele>1402.8469693716615</ele><time>2023-04-30T05:55:39Z</time></trkpt><trkpt lat="33.86810530373823" lon="134.0897270994759"><ele>1394.8236595848575</ele><time>2023-04-30T05:56:34Z</time></trkpt><trkpt lat="33.86792431904415" lon="134.08977851061363"><ele>1393.5921702161431</ele><time>2023-04-30T05:57:25Z</time></trkpt><trkpt lat="33.86774938122629" lon="134.0898492507486"><ele>1398.0292267212644</ele><time>2023-04-30T05:57:49Z</time></trkpt><trkpt lat="33.86758279765907" lon="134.08976087947596"><ele>1401.4282445115969</ele><time>2023-04-30T05:58:04Z</time></trkpt><trkpt lat="33.86738726039895" lon="134.08976056915986"><ele>1398.347917739302</ele><time>2023-04-30T05:58:20Z</time></trkpt><trkpt lat="33.86720493936411" lon="134.08973888912118"><ele>1403.1560658952221</ele><time>2023-04-30T05:59:25Z</time></trkpt><trkpt lat="33.86736601674254" lon="134.08971314203376"><ele>1402.1940400768071</ele><time>2023-04-30T05:59:33Z</time></trkpt><trkpt lat="33.86717111172471" lon="134.08964922039488"><ele>1400.5428783716634</ele><time>2023-04-30T05:59:41Z</time></trkpt><trkpt lat="33.866977968567845" lon="134.08961598090855"><ele>1401.1160861561075</ele><time>2023-04-30T05:59:46Z</time></trkpt><trkpt lat="33.86683199191305" lon="134.089469007181"><ele>1400.64839109499</ele><time>2023-04-30T05:59:52Z</time></trkpt><trkpt lat="33.86679283501801" lon="134.0894326854342"><ele>1396.1855810666457</ele><time>2023-04-30T06:01:16Z</time></trkpt></trkseg></trk></gpx>