<?xml version='1.0' encoding='UTF-8'?><gpx creator="YAMAP - https://yamap.com" xsi:schemaLocation="http://www.topografix.com/GPX/1/1 http://www.topografix.com/GPX/1/1/gpx.xsd" version="1.1" xmlns="http://www.topografix.com/GPX/1/1" xmlns:xsi="http://www.w3.org/2001/XMLSchema-instance"><metadata><bounds maxlat="-8.236493475687789" maxlon="115.37972844191252" minlat="-8.246771206546732" minlon="115.37586105168695"/></metadata><trk><name>バトゥール山</name><number>1</number><trkseg><trkpt lat="-8.246701724445005" lon="115.3791469500079"><ele>1311.0512402039021</ele><time>2023-10-04T20:42:23Z</time></trkpt><trkpt lat="-8.24651521926992" lon="115.37911193905062"><ele>1313.3454245207831</ele><time>2023-10-04T20:42:59Z</time></trkpt><trkpt lat="-8.246331906383132" lon="115.37907257690689"><ele>1316.1900323433802</ele><time>2023-10-04T20:43:26Z</time></trkpt><trkpt lat="-8.246172246021548" lon="115.37898120849248"><ele>1320.6625219844282</ele><time>2023-10-04T20:44:02Z</time></trkpt><trkpt lat="-8.246058189871617" lon="115.37883491006366"><ele>1323.4878472462296</ele><time>2023-10-04T20:44:30Z</time></trkpt><trkpt lat="-8.245936800511105" lon="115.37869180808858"><ele>1323.9244120735675</ele><time>2023-10-04T20:44:54Z</time></trkpt><trkpt lat="-8.245833035350696" lon="115.37854225676446"><ele>1326.0889944247901</ele><time>2023-10-04T20:45:20Z</time></trkpt><trkpt lat="-8.245787375930245" lon="115.37836615075244"><ele>1327.0422425158322</ele><time>2023-10-04T20:45:47Z</time></trkpt><trkpt lat="-8.245622810753625" lon="115.3782785677826"><ele>1333.4658095045015</ele><time>2023-10-04T20:46:18Z</time></trkpt><trkpt lat="-8.245441469160554" lon="115.37827264338584"><ele>1333.5125729469582</ele><time>2023-10-04T20:46:47Z</time></trkpt><trkpt lat="-8.245253319851958" lon="115.378259059006"><ele>1334.99848778639</ele><time>2023-10-04T20:47:14Z</time></trkpt><trkpt lat="-8.245203365728011" lon="115.3780805160259"><ele>1335.1036213925108</ele><time>2023-10-04T20:47:40Z</time></trkpt><trkpt lat="-8.245186044673199" lon="115.3778994127965"><ele>1337.0103610521182</ele><time>2023-10-04T20:50:54Z</time></trkpt><trkpt lat="-8.245020279931612" lon="115.3778264912742"><ele>1347.4167811600491</ele><time>2023-10-04T20:52:40Z</time></trkpt><trkpt lat="-8.244892289209034" lon="115.37769710198663"><ele>1355.3862906116992</ele><time>2023-10-04T20:54:04Z</time></trkpt><trkpt lat="-8.244715735390551" lon="115.3776279266325"><ele>1362.6920065954328</ele><time>2023-10-04T20:55:26Z</time></trkpt><trkpt lat="-8.244533648318862" lon="115.37764015294566"><ele>1374.6912174634635</ele><time>2023-10-04T21:00:04Z</time></trkpt><trkpt lat="-8.244352616827188" lon="115.37763398952771"><ele>1383.2233249228448</ele><time>2023-10-04T21:01:17Z</time></trkpt><trkpt lat="-8.24416949552091" lon="115.37765121635995"><ele>1393.538767970167</ele><time>2023-10-04T21:03:57Z</time></trkpt><trkpt lat="-8.243995264390382" lon="115.37771103813219"><ele>1402.284317933023</ele><time>2023-10-04T21:06:05Z</time></trkpt><trkpt lat="-8.24381511756973" lon="115.37773373038155"><ele>1415.5568189490587</ele><time>2023-10-04T21:08:16Z</time></trkpt><trkpt lat="-8.243655464209676" lon="115.37764521552484"><ele>1429.1652386244386</ele><time>2023-10-04T21:12:41Z</time></trkpt><trkpt lat="-8.243534061902714" lon="115.37750954473164"><ele>1435.9719119891524</ele><time>2023-10-04T21:14:07Z</time></trkpt><trkpt lat="-8.243379725233371" lon="115.37760458189338"><ele>1445.9825281780213</ele><time>2023-10-04T21:15:40Z</time></trkpt><trkpt lat="-8.243197341124663" lon="115.37763014597716"><ele>1461.3559816582128</ele><time>2023-10-04T21:19:51Z</time></trkpt><trkpt lat="-8.243017184401289" lon="115.37765085517059"><ele>1476.3332677586004</ele><time>2023-10-04T21:22:24Z</time></trkpt><trkpt lat="-8.242860227722145" lon="115.37774559256432"><ele>1490.8623738093302</ele><time>2023-10-04T21:24:47Z</time></trkpt><trkpt lat="-8.24267971804078" lon="115.37771738425539"><ele>1504.9712166711688</ele><time>2023-10-04T21:27:27Z</time></trkpt><trkpt lat="-8.242498868518657" lon="115.37768518293989"><ele>1511.9757211590186</ele><time>2023-10-04T21:28:51Z</time></trkpt><trkpt lat="-8.242451100740334" lon="115.3778644911025"><ele>1520.903337681666</ele><time>2023-10-04T21:29:44Z</time></trkpt><trkpt lat="-8.242380074173019" lon="115.37803517663464"><ele>1527.7294091163203</ele><time>2023-10-04T21:30:34Z</time></trkpt><trkpt lat="-8.242225391572402" lon="115.37812953884915"><ele>1539.0948806917295</ele><time>2023-10-04T21:32:15Z</time></trkpt><trkpt lat="-8.24213372151847" lon="115.37828841055699"><ele>1545.7046416634694</ele><time>2023-10-04T21:33:21Z</time></trkpt><trkpt lat="-8.242041694755166" lon="115.37844607670334"><ele>1551.6666438085958</ele><time>2023-10-04T21:34:56Z</time></trkpt><trkpt lat="-8.241941982099968" lon="115.37859949763974"><ele>1549.3273208271712</ele><time>2023-10-04T21:38:11Z</time></trkpt><trkpt lat="-8.24179091429303" lon="115.37870114059179"><ele>1548.0187051352113</ele><time>2023-10-04T21:39:07Z</time></trkpt><trkpt lat="-8.241627470692434" lon="115.37880069668155"><ele>1549.4782238928601</ele><time>2023-10-04T21:39:34Z</time></trkpt><trkpt lat="-8.241452926718152" lon="115.3788489528109"><ele>1551.2735328469425</ele><time>2023-10-04T21:40:30Z</time></trkpt><trkpt lat="-8.241292693060785" lon="115.37894422769988"><ele>1550.2891029138118</ele><time>2023-10-04T21:40:49Z</time></trkpt><trkpt lat="-8.241272395884366" lon="115.37913338224112"><ele>1550.9619539305568</ele><time>2023-10-04T21:41:10Z</time></trkpt><trkpt lat="-8.241288053799078" lon="115.3793224145623"><ele>1552.923878569156</ele><time>2023-10-04T21:41:34Z</time></trkpt><trkpt lat="-8.24133886762278" lon="115.3793558936799"><ele>1551.6759760845453</ele><time>2023-10-04T21:48:34Z</time></trkpt><trkpt lat="-8.241188211431805" lon="115.37946009233755"><ele>1554.6150223053992</ele><time>2023-10-04T22:50:47Z</time></trkpt><trkpt lat="-8.241008895801684" lon="115.3795081077012"><ele>1556.8635917762294</ele><time>2023-10-04T22:51:03Z</time></trkpt><trkpt lat="-8.24083083701044" lon="115.37958836846326"><ele>1561.3438614597544</ele><time>2023-10-04T22:51:41Z</time></trkpt><trkpt lat="-8.240650438705275" lon="115.37960583810829"><ele>1566.9816728159785</ele><time>2023-10-04T22:52:00Z</time></trkpt><trkpt lat="-8.240470530398161" lon="115.37963084630836"><ele>1573.994383056648</ele><time>2023-10-04T22:52:23Z</time></trkpt><trkpt lat="-8.2402992343838" lon="115.37957128527344"><ele>1580.767147690989</ele><time>2023-10-04T22:52:53Z</time></trkpt><trkpt lat="-8.240133834165977" lon="115.37964506420977"><ele>1595.9269147412851</ele><time>2023-10-04T22:53:33Z</time></trkpt><trkpt lat="-8.239969079553704" lon="115.37956980459654"><ele>1605.6754135172814</ele><time>2023-10-04T22:54:20Z</time></trkpt><trkpt lat="-8.239789992337005" lon="115.37953693554553"><ele>1615.8229104122147</ele><time>2023-10-04T22:55:10Z</time></trkpt><trkpt lat="-8.23962499874285" lon="115.37961800648685"><ele>1627.731226044707</ele><time>2023-10-04T22:55:40Z</time></trkpt><trkpt lat="-8.239443528671067" lon="115.37963697933934"><ele>1639.1923266965896</ele><time>2023-10-04T22:56:14Z</time></trkpt><trkpt lat="-8.239259605073817" lon="115.3796546346286"><ele>1647.5975446347147</ele><time>2023-10-04T22:56:45Z</time></trkpt><trkpt lat="-8.239084143863927" lon="115.37970880271398"><ele>1652.5660326238722</ele><time>2023-10-04T22:57:07Z</time></trkpt><trkpt lat="-8.238902458617275" lon="115.37972844191252"><ele>1655.5965464906767</ele><time>2023-10-04T22:57:29Z</time></trkpt><trkpt lat="-8.23871978918725" lon="115.3796964600752"><ele>1662.3181215422228</ele><time>2023-10-04T22:57:52Z</time></trkpt><trkpt lat="-8.238544276207417" lon="115.37965229729912"><ele>1662.8724946333095</ele><time>2023-10-04T22:58:09Z</time></trkpt><trkpt lat="-8.23839059034108" lon="115.37954362179211"><ele>1668.8874789820984</ele><time>2023-10-04T22:58:34Z</time></trkpt><trkpt lat="-8.23836114484242" lon="115.37936312008576"><ele>1677.5940267341211</ele><time>2023-10-04T22:59:07Z</time></trkpt><trkpt lat="-8.238467822324198" lon="115.37921511561092"><ele>1685.1893407851458</ele><time>2023-10-04T22:59:52Z</time></trkpt><trkpt lat="-8.238516470573765" lon="115.37903754302062"><ele>1691.4472988313064</ele><time>2023-10-04T23:00:31Z</time></trkpt><trkpt lat="-8.238688174221425" lon="115.379094452697"><ele>1700.7562264790758</ele><time>2023-10-04T23:02:10Z</time></trkpt><trkpt lat="-8.238506777107501" lon="115.37914957476998"><ele>1698.5028731478378</ele><time>2023-10-04T23:06:31Z</time></trkpt><trkpt lat="-8.238320656496418" lon="115.3791681521796"><ele>1693.0493282657117</ele><time>2023-10-04T23:06:45Z</time></trkpt><trkpt lat="-8.238120481094008" lon="115.37923781932295"><ele>1689.059300545603</ele><time>2023-10-04T23:06:54Z</time></trkpt><trkpt lat="-8.237930676036735" lon="115.37928010287985"><ele>1685.6606540400535</ele><time>2023-10-04T23:07:02Z</time></trkpt><trkpt lat="-8.237745677856186" lon="115.37933287463527"><ele>1675.9765893947333</ele><time>2023-10-04T23:07:15Z</time></trkpt><trkpt lat="-8.237564867002758" lon="115.37935304228508"><ele>1671.5761988833547</ele><time>2023-10-04T23:07:25Z</time></trkpt><trkpt lat="-8.237373837659458" lon="115.37933989955532"><ele>1670.15337744914</ele><time>2023-10-04T23:07:31Z</time></trkpt><trkpt lat="-8.23718496966134" lon="115.37930087692358"><ele>1669.6542441444471</ele><time>2023-10-04T23:07:44Z</time></trkpt><trkpt lat="-8.237025573096476" lon="115.37920390997168"><ele>1673.8677043924108</ele><time>2023-10-04T23:07:59Z</time></trkpt><trkpt lat="-8.236873528522569" lon="115.37908481855823"><ele>1679.8276245761663</ele><time>2023-10-04T23:08:16Z</time></trkpt><trkpt lat="-8.236751031742822" lon="115.37894651705616"><ele>1685.0919595751911</ele><time>2023-10-04T23:08:46Z</time></trkpt><trkpt lat="-8.236678925690255" lon="115.37877812740923"><ele>1692.1798468986526</ele><time>2023-10-04T23:09:15Z</time></trkpt><trkpt lat="-8.236533581868025" lon="115.3786551920819"><ele>1698.256415490061</ele><time>2023-10-04T23:09:30Z</time></trkpt><trkpt lat="-8.236493475687789" lon="115.37846765641508"><ele>1703.9678789926693</ele><time>2023-10-04T23:09:47Z</time></trkpt><trkpt lat="-8.236568567126719" lon="115.37827657763393"><ele>1702.9154790248722</ele><time>2023-10-04T23:10:08Z</time></trkpt><trkpt lat="-8.236613454921608" lon="115.37808761750023"><ele>1704.7001226814464</ele><time>2023-10-04T23:10:34Z</time></trkpt><trkpt lat="-8.236724356331317" lon="115.37793156863792"><ele>1703.6689906846732</ele><time>2023-10-04T23:10:46Z</time></trkpt><trkpt lat="-8.236813738690003" lon="115.3777715759844"><ele>1703.8573898384348</ele><time>2023-10-04T23:11:06Z</time></trkpt><trkpt lat="-8.236931413189179" lon="115.37762243313803"><ele>1712.0604570675641</ele><time>2023-10-04T23:11:32Z</time></trkpt><trkpt lat="-8.237009244942906" lon="115.37745499284735"><ele>1714.9968370171264</ele><time>2023-10-04T23:12:05Z</time></trkpt><trkpt lat="-8.237071568254608" lon="115.37726326642571"><ele>1712.340114238672</ele><time>2023-10-04T23:12:25Z</time></trkpt><trkpt lat="-8.237097658264952" lon="115.37707643308048"><ele>1713.8745246911421</ele><time>2023-10-04T23:12:32Z</time></trkpt><trkpt lat="-8.237156686133929" lon="115.37690291848561"><ele>1715.2266363371164</ele><time>2023-10-04T23:12:39Z</time></trkpt><trkpt lat="-8.2372107634354" lon="115.37672821684046"><ele>1707.0381424287334</ele><time>2023-10-04T23:12:57Z</time></trkpt><trkpt lat="-8.237303165093753" lon="115.37656829849993"><ele>1702.4323647739366</ele><time>2023-10-04T23:13:12Z</time></trkpt><trkpt lat="-8.23739068482366" lon="115.37640272979921"><ele>1697.3220852203667</ele><time>2023-10-04T23:13:26Z</time></trkpt><trkpt lat="-8.237516228048282" lon="115.37625491901433"><ele>1695.8164276229218</ele><time>2023-10-04T23:13:39Z</time></trkpt><trkpt lat="-8.237657540907186" lon="115.37614044965764"><ele>1697.3026313632727</ele><time>2023-10-04T23:13:52Z</time></trkpt><trkpt lat="-8.237816925378013" lon="115.37603761991967"><ele>1699.4137357082218</ele><time>2023-10-04T23:14:16Z</time></trkpt><trkpt lat="-8.237977496490782" lon="115.37594404735049"><ele>1702.5042509492487</ele><time>2023-10-04T23:14:31Z</time></trkpt><trkpt lat="-8.238150861462962" lon="115.3758831207882"><ele>1707.9617772875354</ele><time>2023-10-04T23:14:51Z</time></trkpt><trkpt lat="-8.238331929554963" lon="115.37586105168695"><ele>1712.267826443538</ele><time>2023-10-04T23:15:25Z</time></trkpt><trkpt lat="-8.238517423918198" lon="115.37588302595681"><ele>1710.9641299005598</ele><time>2023-10-04T23:16:15Z</time></trkpt><trkpt lat="-8.238707795116664" lon="115.3759344633626"><ele>1705.3839121349156</ele><time>2023-10-04T23:16:23Z</time></trkpt><trkpt lat="-8.238873011173553" lon="115.37601602386205"><ele>1704.9960057400167</ele><time>2023-10-04T23:16:33Z</time></trkpt><trkpt lat="-8.239029742647457" lon="115.37611479741417"><ele>1703.43634747155</ele><time>2023-10-04T23:16:48Z</time></trkpt><trkpt lat="-8.239226691211233" lon="115.37622526413932"><ele>1701.3638496911153</ele><time>2023-10-04T23:16:56Z</time></trkpt><trkpt lat="-8.239408057744756" lon="115.37621383774763"><ele>1698.5877633886412</ele><time>2023-10-04T23:17:20Z</time></trkpt><trkpt lat="-8.239597687228798" lon="115.37618759605152"><ele>1691.2158851400018</ele><time>2023-10-04T23:17:41Z</time></trkpt><trkpt lat="-8.239730852280296" lon="115.37605876657699"><ele>1680.7088055517524</ele><time>2023-10-04T23:17:53Z</time></trkpt><trkpt lat="-8.239902352530326" lon="115.37598321277989"><ele>1674.2287414241582</ele><time>2023-10-04T23:18:05Z</time></trkpt><trkpt lat="-8.24010108780882" lon="115.37594764247605"><ele>1664.5494180032983</ele><time>2023-10-04T23:18:30Z</time></trkpt><trkpt lat="-8.240287278686694" lon="115.37592943504103"><ele>1655.2989668706432</ele><time>2023-10-04T23:18:39Z</time></trkpt><trkpt lat="-8.240486093367196" lon="115.37593628282768"><ele>1647.3195654153824</ele><time>2023-10-04T23:18:47Z</time></trkpt><trkpt lat="-8.240673018771714" lon="115.37599166421383"><ele>1638.4435650920495</ele><time>2023-10-04T23:18:56Z</time></trkpt><trkpt lat="-8.240844739450417" lon="115.37608731798605"><ele>1630.3956213826314</ele><time>2023-10-04T23:19:03Z</time></trkpt><trkpt lat="-8.240987881714824" lon="115.37620333338643"><ele>1621.684842611663</ele><time>2023-10-04T23:19:10Z</time></trkpt><trkpt lat="-8.241088158684773" lon="115.37636784510394"><ele>1613.1272276323289</ele><time>2023-10-04T23:19:23Z</time></trkpt><trkpt lat="-8.241216919253056" lon="115.37650624424543"><ele>1601.318087760359</ele><time>2023-10-04T23:19:42Z</time></trkpt><trkpt lat="-8.241380649150376" lon="115.3766072619774"><ele>1589.609075460583</ele><time>2023-10-04T23:20:10Z</time></trkpt><trkpt lat="-8.241490505421694" lon="115.37676635859091"><ele>1588.7220153324306</ele><time>2023-10-04T23:20:21Z</time></trkpt><trkpt lat="-8.241637037705488" lon="115.37689641601553"><ele>1578.091345673427</ele><time>2023-10-04T23:20:42Z</time></trkpt><trkpt lat="-8.241773751332538" lon="115.37702851669816"><ele>1569.1049673687667</ele><time>2023-10-04T23:21:06Z</time></trkpt><trkpt lat="-8.241830219826749" lon="115.37721451669726"><ele>1564.1247464027256</ele><time>2023-10-04T23:21:21Z</time></trkpt><trkpt lat="-8.241959460381016" lon="115.37737319896422"><ele>1561.5358743323013</ele><time>2023-10-04T23:21:28Z</time></trkpt><trkpt lat="-8.24189695314567" lon="115.3775529903118"><ele>1553.4446664480492</ele><time>2023-10-04T23:21:58Z</time></trkpt><trkpt lat="-8.241932672709668" lon="115.3776953987541"><ele>1553.8513824958354</ele><time>2023-10-04T23:22:20Z</time></trkpt><trkpt lat="-8.241884920360045" lon="115.37787390865176"><ele>1555.7700592214242</ele><time>2023-10-04T23:23:55Z</time></trkpt><trkpt lat="-8.241995307761595" lon="115.37802375228814"><ele>1552.9546735920012</ele><time>2023-10-04T23:24:13Z</time></trkpt><trkpt lat="-8.242033786048212" lon="115.37820232552731"><ele>1554.1409313343465</ele><time>2023-10-04T23:24:35Z</time></trkpt><trkpt lat="-8.242207855836753" lon="115.37813959879539"><ele>1541.3098169080913</ele><time>2023-10-04T23:25:32Z</time></trkpt><trkpt lat="-8.242374999181427" lon="115.3780565291202"><ele>1529.5165628623217</ele><time>2023-10-04T23:26:21Z</time></trkpt><trkpt lat="-8.242438672046237" lon="115.3778844072727"><ele>1523.3067578170449</ele><time>2023-10-04T23:26:40Z</time></trkpt><trkpt lat="-8.242500969274682" lon="115.37771249203831"><ele>1516.5021728724241</ele><time>2023-10-04T23:27:04Z</time></trkpt><trkpt lat="-8.24268810874421" lon="115.37773817695079"><ele>1507.7713704658672</ele><time>2023-10-04T23:27:59Z</time></trkpt><trkpt lat="-8.242869609835074" lon="115.37773419748058"><ele>1482.7600233070552</ele><time>2023-10-04T23:28:55Z</time></trkpt><trkpt lat="-8.24302009045084" lon="115.37762974174836"><ele>1474.5775092812255</ele><time>2023-10-04T23:30:10Z</time></trkpt><trkpt lat="-8.243198332519063" lon="115.37766403914972"><ele>1467.1615039613098</ele><time>2023-10-04T23:31:05Z</time></trkpt><trkpt lat="-8.243332303975997" lon="115.37753999320665"><ele>1452.9820861890912</ele><time>2023-10-04T23:31:58Z</time></trkpt><trkpt lat="-8.243500612753087" lon="115.37744259213126"><ele>1442.3626112034544</ele><time>2023-10-04T23:32:22Z</time></trkpt><trkpt lat="-8.24363569420386" lon="115.3775715158355"><ele>1433.0304375439882</ele><time>2023-10-04T23:32:48Z</time></trkpt><trkpt lat="-8.243765107851027" lon="115.37771247884798"><ele>1421.2406419059262</ele><time>2023-10-04T23:33:04Z</time></trkpt><trkpt lat="-8.243941101531336" lon="115.37765921714087"><ele>1411.0167838176712</ele><time>2023-10-04T23:34:02Z</time></trkpt><trkpt lat="-8.244132740534269" lon="115.37764766869104"><ele>1400.1746501224115</ele><time>2023-10-04T23:34:21Z</time></trkpt><trkpt lat="-8.244313872560669" lon="115.37759420177753"><ele>1385.3352118721232</ele><time>2023-10-04T23:34:52Z</time></trkpt><trkpt lat="-8.244496272993764" lon="115.3775723897529"><ele>1377.0871415222064</ele><time>2023-10-04T23:35:13Z</time></trkpt><trkpt lat="-8.244676924390983" lon="115.37758380351697"><ele>1369.5223111566156</ele><time>2023-10-04T23:35:34Z</time></trkpt><trkpt lat="-8.244818989152272" lon="115.37770832170247"><ele>1363.8704133098945</ele><time>2023-10-04T23:35:51Z</time></trkpt><trkpt lat="-8.245014729417623" lon="115.37771818487725"><ele>1355.657014948316</ele><time>2023-10-04T23:36:13Z</time></trkpt><trkpt lat="-8.245202119551196" lon="115.37775271596904"><ele>1343.6674873484299</ele><time>2023-10-04T23:36:35Z</time></trkpt><trkpt lat="-8.245381016462336" lon="115.37780628993023"><ele>1332.883320809342</ele><time>2023-10-04T23:36:54Z</time></trkpt><trkpt lat="-8.245226152512126" lon="115.37791305015793"><ele>1337.6055226353928</ele><time>2023-10-04T23:37:15Z</time></trkpt><trkpt lat="-8.245233875474796" lon="115.37809971467017"><ele>1338.1875690538436</ele><time>2023-10-04T23:37:34Z</time></trkpt><trkpt lat="-8.245317394327692" lon="115.37826314798184"><ele>1337.9348333124071</ele><time>2023-10-04T23:37:53Z</time></trkpt><trkpt lat="-8.245498556005096" lon="115.3782553349691"><ele>1336.3813679851592</ele><time>2023-10-04T23:37:58Z</time></trkpt><trkpt lat="-8.245687832251773" lon="115.37827297230517"><ele>1333.9997736942023</ele><time>2023-10-04T23:38:04Z</time></trkpt><trkpt lat="-8.245814651143402" lon="115.37842589586327"><ele>1335.2208111835644</ele><time>2023-10-04T23:38:08Z</time></trkpt><trkpt lat="-8.245889625978656" lon="115.3786106308546"><ele>1329.754430083558</ele><time>2023-10-04T23:38:14Z</time></trkpt><trkpt lat="-8.246036308608025" lon="115.37876353631994"><ele>1327.5694149145856</ele><time>2023-10-04T23:38:20Z</time></trkpt><trkpt lat="-8.246145888185946" lon="115.37892291746262"><ele>1327.073162727058</ele><time>2023-10-04T23:38:25Z</time></trkpt><trkpt lat="-8.246317320175493" lon="115.37905026816517"><ele>1322.0033696284518</ele><time>2023-10-04T23:38:30Z</time></trkpt><trkpt lat="-8.246493204696073" lon="115.37910534744402"><ele>1319.8420154880732</ele><time>2023-10-04T23:38:34Z</time></trkpt><trkpt lat="-8.246692495361424" lon="115.37912647449268"><ele>1313.1373762832955</ele><time>2023-10-04T23:38:39Z</time></trkpt><trkpt lat="-8.246771206546732" lon="115.37929458695446"><ele>1309.7181407976896</ele><time>2023-10-04T23:38:56Z</time></trkpt></trkseg></trk></gpx>