<?xml version='1.0' encoding='UTF-8'?><gpx creator="YAMAP - https://yamap.com" xsi:schemaLocation="http://www.topografix.com/GPX/1/1 http://www.topografix.com/GPX/1/1/gpx.xsd" version="1.1" xmlns="http://www.topografix.com/GPX/1/1" xmlns:xsi="http://www.w3.org/2001/XMLSchema-instance"><metadata><bounds maxlat="-8.340304766960404" maxlon="115.50331001812708" minlat="-8.3635446243066" minlon="115.4612581316544"/></metadata><trk><name>アグン山</name><number>1</number><trkseg><trkpt lat="-8.3635446243066" lon="115.46131365011955"><ele>1172.394130706787</ele><time>2023-10-03T15:31:10Z</time></trkpt><trkpt lat="-8.363407442435065" lon="115.46143403858451"><ele>1165.3625146197155</ele><time>2023-10-03T15:31:23Z</time></trkpt><trkpt lat="-8.36328199898907" lon="115.46157016428664"><ele>1162.284477211535</ele><time>2023-10-03T15:31:45Z</time></trkpt><trkpt lat="-8.36312371016207" lon="115.46166245264035"><ele>1162.3259569443762</ele><time>2023-10-03T15:32:04Z</time></trkpt><trkpt lat="-8.36302010882507" lon="115.4618223700575"><ele>1163.6694368142635</ele><time>2023-10-03T15:32:25Z</time></trkpt><trkpt lat="-8.362904639828033" lon="115.46196319135127"><ele>1166.4161711884663</ele><time>2023-10-03T15:32:44Z</time></trkpt><trkpt lat="-8.36276779738615" lon="115.46208888579271"><ele>1168.2527579413727</ele><time>2023-10-03T15:33:03Z</time></trkpt><trkpt lat="-8.362652912740641" lon="115.46223367122333"><ele>1170.2967262184247</ele><time>2023-10-03T15:33:22Z</time></trkpt><trkpt lat="-8.36247148780417" lon="115.46227876227124"><ele>1173.3765913220122</ele><time>2023-10-03T15:33:42Z</time></trkpt><trkpt lat="-8.362286383488954" lon="115.46227382016524"><ele>1177.0400208607316</ele><time>2023-10-03T15:34:03Z</time></trkpt><trkpt lat="-8.36209945113102" lon="115.46227634530146"><ele>1178.4918007776141</ele><time>2023-10-03T15:34:23Z</time></trkpt><trkpt lat="-8.361927743997539" lon="115.46233718039096"><ele>1185.8122677300125</ele><time>2023-10-03T15:34:46Z</time></trkpt><trkpt lat="-8.36175448979708" lon="115.4624093611167"><ele>1191.029199727811</ele><time>2023-10-03T15:35:12Z</time></trkpt><trkpt lat="-8.361566886135313" lon="115.46243240639798"><ele>1193.5553070176393</ele><time>2023-10-03T15:35:39Z</time></trkpt><trkpt lat="-8.36138497655609" lon="115.46247901552572"><ele>1198.6149327084422</ele><time>2023-10-03T15:36:04Z</time></trkpt><trkpt lat="-8.361207113515338" lon="115.46253175077403"><ele>1201.7841873085126</ele><time>2023-10-03T15:36:31Z</time></trkpt><trkpt lat="-8.361038633050711" lon="115.46246093537378"><ele>1206.7954861037433</ele><time>2023-10-03T15:36:55Z</time></trkpt><trkpt lat="-8.360938790733044" lon="115.46230206754771"><ele>1213.5621625566855</ele><time>2023-10-03T15:37:22Z</time></trkpt><trkpt lat="-8.360753164551197" lon="115.4622746878635"><ele>1216.444379426539</ele><time>2023-10-03T15:37:48Z</time></trkpt><trkpt lat="-8.360568717714589" lon="115.4622966519815"><ele>1218.2781000193208</ele><time>2023-10-03T15:38:10Z</time></trkpt><trkpt lat="-8.360448188941561" lon="115.46243764689041"><ele>1222.175456349738</ele><time>2023-10-03T15:38:34Z</time></trkpt><trkpt lat="-8.360324010397294" lon="115.46257502558439"><ele>1225.357438646257</ele><time>2023-10-03T15:38:57Z</time></trkpt><trkpt lat="-8.360175123557172" lon="115.46268616094052"><ele>1229.6014234554023</ele><time>2023-10-03T15:39:21Z</time></trkpt><trkpt lat="-8.360027096691539" lon="115.46279289427979"><ele>1231.6635407377034</ele><time>2023-10-03T15:39:45Z</time></trkpt><trkpt lat="-8.359845104063604" lon="115.46281943845767"><ele>1232.2968643419445</ele><time>2023-10-03T15:40:06Z</time></trkpt><trkpt lat="-8.359667194444201" lon="115.46286497850397"><ele>1234.58968395181</ele><time>2023-10-03T15:40:24Z</time></trkpt><trkpt lat="-8.359509670574452" lon="115.46295748133284"><ele>1235.43954142835</ele><time>2023-10-03T15:40:44Z</time></trkpt><trkpt lat="-8.359408349642104" lon="115.46311767441698"><ele>1236.9832482337952</ele><time>2023-10-03T15:41:05Z</time></trkpt><trkpt lat="-8.359295169455764" lon="115.46326257740985"><ele>1242.3646917985752</ele><time>2023-10-03T15:41:27Z</time></trkpt><trkpt lat="-8.359171480506749" lon="115.46339986507311"><ele>1243.8875434286892</ele><time>2023-10-03T15:41:50Z</time></trkpt><trkpt lat="-8.359036305296167" lon="115.46352721942625"><ele>1245.3369168536738</ele><time>2023-10-03T15:42:10Z</time></trkpt><trkpt lat="-8.358899060279327" lon="115.46365223434951"><ele>1245.79448368866</ele><time>2023-10-03T15:42:31Z</time></trkpt><trkpt lat="-8.35875884598417" lon="115.46377854617657"><ele>1249.5082782320678</ele><time>2023-10-03T15:42:52Z</time></trkpt><trkpt lat="-8.358639674411283" lon="115.46391949536404"><ele>1251.5947973327711</ele><time>2023-10-03T15:43:14Z</time></trkpt><trkpt lat="-8.358512500029905" lon="115.46405786734726"><ele>1252.0967398071662</ele><time>2023-10-03T15:43:35Z</time></trkpt><trkpt lat="-8.358404387892644" lon="115.46420439854279"><ele>1255.6030010972172</ele><time>2023-10-03T15:43:57Z</time></trkpt><trkpt lat="-8.358319465179704" lon="115.46437779149772"><ele>1263.2239172011614</ele><time>2023-10-03T15:44:19Z</time></trkpt><trkpt lat="-8.35826473793991" lon="115.46456180458689"><ele>1268.0726208472624</ele><time>2023-10-03T15:44:42Z</time></trkpt><trkpt lat="-8.358165398262106" lon="115.46471385863356"><ele>1269.5200852127746</ele><time>2023-10-03T15:45:07Z</time></trkpt><trkpt lat="-8.358086408852415" lon="115.46488132701471"><ele>1275.226323088631</ele><time>2023-10-03T15:45:35Z</time></trkpt><trkpt lat="-8.35792523298453" lon="115.46496362041584"><ele>1280.424425425008</ele><time>2023-10-03T15:46:03Z</time></trkpt><trkpt lat="-8.357788006861613" lon="115.46509064313204"><ele>1285.866512954235</ele><time>2023-10-03T15:46:38Z</time></trkpt><trkpt lat="-8.357733973092326" lon="115.46526720537707"><ele>1292.079082801938</ele><time>2023-10-03T15:47:08Z</time></trkpt><trkpt lat="-8.357609069852794" lon="115.46541096874964"><ele>1292.2776768514886</ele><time>2023-10-03T15:47:35Z</time></trkpt><trkpt lat="-8.35746825742621" lon="115.4655285512486"><ele>1296.6977231064811</ele><time>2023-10-03T15:47:59Z</time></trkpt><trkpt lat="-8.35732319662152" lon="115.46564766716035"><ele>1301.1267342157662</ele><time>2023-10-03T15:48:25Z</time></trkpt><trkpt lat="-8.357202364636501" lon="115.46578478048357"><ele>1304.5751803852618</ele><time>2023-10-03T15:48:52Z</time></trkpt><trkpt lat="-8.357180618758754" lon="115.46559877173948"><ele>1312.614893104881</ele><time>2023-10-03T15:50:46Z</time></trkpt><trkpt lat="-8.35701137724957" lon="115.46566801808561"><ele>1314.4916557185352</ele><time>2023-10-03T15:51:40Z</time></trkpt><trkpt lat="-8.356887683335877" lon="115.46580644157923"><ele>1324.520498175174</ele><time>2023-10-03T15:52:12Z</time></trkpt><trkpt lat="-8.356752052116983" lon="115.4659309170286"><ele>1330.948853513226</ele><time>2023-10-03T15:52:48Z</time></trkpt><trkpt lat="-8.356612248715477" lon="115.46604869857906"><ele>1334.2640584027395</ele><time>2023-10-03T15:53:21Z</time></trkpt><trkpt lat="-8.35643035721323" lon="115.46607627426994"><ele>1339.414439680986</ele><time>2023-10-03T15:53:53Z</time></trkpt><trkpt lat="-8.35629024090038" lon="115.46619805895395"><ele>1343.9550904110074</ele><time>2023-10-03T15:54:21Z</time></trkpt><trkpt lat="-8.356182268114512" lon="115.46634867119299"><ele>1349.243154159747</ele><time>2023-10-03T15:54:52Z</time></trkpt><trkpt lat="-8.356104036787645" lon="115.46651457993079"><ele>1352.716599716805</ele><time>2023-10-03T15:55:22Z</time></trkpt><trkpt lat="-8.355940704614598" lon="115.46659463504795"><ele>1360.4176955493167</ele><time>2023-10-03T15:55:59Z</time></trkpt><trkpt lat="-8.35576123696193" lon="115.4666200605271"><ele>1368.172450195998</ele><time>2023-10-03T15:56:33Z</time></trkpt><trkpt lat="-8.355592159796418" lon="115.46669654209988"><ele>1371.855320462957</ele><time>2023-10-03T15:56:57Z</time></trkpt><trkpt lat="-8.355446508139975" lon="115.46681948115419"><ele>1371.1574570452794</ele><time>2023-10-03T15:57:17Z</time></trkpt><trkpt lat="-8.355296301724168" lon="115.46694237795502"><ele>1374.3717429097742</ele><time>2023-10-03T15:57:38Z</time></trkpt><trkpt lat="-8.355159583095867" lon="115.46706943182544"><ele>1379.6300981920213</ele><time>2023-10-03T15:57:57Z</time></trkpt><trkpt lat="-8.355040691806721" lon="115.46721188515062"><ele>1379.8732496034354</ele><time>2023-10-03T15:58:22Z</time></trkpt><trkpt lat="-8.354974068686086" lon="115.46738603919323"><ele>1383.8438128307462</ele><time>2023-10-03T15:58:53Z</time></trkpt><trkpt lat="-8.354887278731939" lon="115.46754660869965"><ele>1389.0307770818472</ele><time>2023-10-03T15:59:24Z</time></trkpt><trkpt lat="-8.35477585551639" lon="115.46769194178484"><ele>1393.4171019680798</ele><time>2023-10-03T15:59:54Z</time></trkpt><trkpt lat="-8.354660308750088" lon="115.46784821552427"><ele>1397.957485803403</ele><time>2023-10-03T16:00:24Z</time></trkpt><trkpt lat="-8.354554870551096" lon="115.46799621222586"><ele>1400.1990427765995</ele><time>2023-10-03T16:00:55Z</time></trkpt><trkpt lat="-8.354477546496561" lon="115.46816087793651"><ele>1403.0642828224227</ele><time>2023-10-03T16:01:14Z</time></trkpt><trkpt lat="-8.35436639391443" lon="115.46831247059717"><ele>1407.4151710234582</ele><time>2023-10-03T16:01:36Z</time></trkpt><trkpt lat="-8.354300411113291" lon="115.46848173994766"><ele>1413.0697552450001</ele><time>2023-10-03T16:02:01Z</time></trkpt><trkpt lat="-8.354152301416452" lon="115.46864054441052"><ele>1424.5238408623263</ele><time>2023-10-03T16:02:44Z</time></trkpt><trkpt lat="-8.354015728714943" lon="115.46879117447332"><ele>1433.1185267157853</ele><time>2023-10-03T16:03:09Z</time></trkpt><trkpt lat="-8.3542280119362" lon="115.4688009455452"><ele>1435.8306877147406</ele><time>2023-10-03T16:03:13Z</time></trkpt><trkpt lat="-8.354052910891543" lon="115.46886368528587"><ele>1432.9985648589209</ele><time>2023-10-03T16:03:58Z</time></trkpt><trkpt lat="-8.353919728806204" lon="115.4689896033257"><ele>1439.6058750925586</ele><time>2023-10-03T16:04:29Z</time></trkpt><trkpt lat="-8.353976736115333" lon="115.46916983693649"><ele>1444.6111240629107</ele><time>2023-10-03T16:04:56Z</time></trkpt><trkpt lat="-8.35383459659482" lon="115.4692830088462"><ele>1450.7697434006259</ele><time>2023-10-03T16:05:23Z</time></trkpt><trkpt lat="-8.353672430134324" lon="115.4693919944114"><ele>1459.416694149375</ele><time>2023-10-03T16:06:04Z</time></trkpt><trkpt lat="-8.353592737462975" lon="115.46957677457203"><ele>1463.85536522232</ele><time>2023-10-03T16:06:31Z</time></trkpt><trkpt lat="-8.353584448163758" lon="115.46976935775481"><ele>1471.6277038557455</ele><time>2023-10-03T16:06:54Z</time></trkpt><trkpt lat="-8.35351260378846" lon="115.46994304789882"><ele>1474.586977190338</ele><time>2023-10-03T16:07:24Z</time></trkpt><trkpt lat="-8.353455166617172" lon="115.47011861825577"><ele>1483.0826902175322</ele><time>2023-10-03T16:07:52Z</time></trkpt><trkpt lat="-8.35342207882988" lon="115.47029886488923"><ele>1489.4907258357853</ele><time>2023-10-03T16:08:24Z</time></trkpt><trkpt lat="-8.353414474846364" lon="115.47048163259906"><ele>1493.7893380401656</ele><time>2023-10-03T16:08:55Z</time></trkpt><trkpt lat="-8.353431543891753" lon="115.47066956109721"><ele>1498.8940376406536</ele><time>2023-10-03T16:09:35Z</time></trkpt><trkpt lat="-8.353547723065757" lon="115.47081456519682"><ele>1504.9150615297258</ele><time>2023-10-03T16:10:11Z</time></trkpt><trkpt lat="-8.353493897902375" lon="115.47100297759489"><ele>1508.7546278620139</ele><time>2023-10-03T16:11:09Z</time></trkpt><trkpt lat="-8.353494852259162" lon="115.47119331192702"><ele>1516.5263145305216</ele><time>2023-10-03T16:11:39Z</time></trkpt><trkpt lat="-8.353425441644628" lon="115.47137423000238"><ele>1518.994943652302</ele><time>2023-10-03T16:12:13Z</time></trkpt><trkpt lat="-8.353354668716582" lon="115.47154340844756"><ele>1523.3829269735143</ele><time>2023-10-03T16:12:38Z</time></trkpt><trkpt lat="-8.35326791052829" lon="115.47170663177036"><ele>1526.0763061381876</ele><time>2023-10-03T16:12:56Z</time></trkpt><trkpt lat="-8.353209676938135" lon="115.47188597856507"><ele>1525.8587784813717</ele><time>2023-10-03T16:13:15Z</time></trkpt><trkpt lat="-8.353128727570986" lon="115.47204881046335"><ele>1526.8568258723244</ele><time>2023-10-03T16:13:41Z</time></trkpt><trkpt lat="-8.353005318226739" lon="115.47218253969241"><ele>1530.3418965060264</ele><time>2023-10-03T16:14:11Z</time></trkpt><trkpt lat="-8.352902432287612" lon="115.47233482693275"><ele>1537.2243933482096</ele><time>2023-10-03T16:14:42Z</time></trkpt><trkpt lat="-8.352871397937442" lon="115.47251506609366"><ele>1547.605514144525</ele><time>2023-10-03T16:15:14Z</time></trkpt><trkpt lat="-8.352925130052782" lon="115.47250387946303"><ele>1543.42715952266</ele><time>2023-10-03T16:19:48Z</time></trkpt><trkpt lat="-8.35285048225372" lon="115.47267088933944"><ele>1547.3832730669528</ele><time>2023-10-03T16:26:32Z</time></trkpt><trkpt lat="-8.352767611528739" lon="115.47284620346416"><ele>1557.3205292103812</ele><time>2023-10-03T16:27:07Z</time></trkpt><trkpt lat="-8.352748073635722" lon="115.4730267849365"><ele>1562.654524423182</ele><time>2023-10-03T16:27:39Z</time></trkpt><trkpt lat="-8.352653231158971" lon="115.47318849358426"><ele>1566.5439911093563</ele><time>2023-10-03T16:28:12Z</time></trkpt><trkpt lat="-8.35255362081477" lon="115.47334186612946"><ele>1574.2282140711322</ele><time>2023-10-03T16:28:48Z</time></trkpt><trkpt lat="-8.352462880944147" lon="115.47350129222772"><ele>1585.414681646973</ele><time>2023-10-03T16:29:31Z</time></trkpt><trkpt lat="-8.352387604215084" lon="115.47367385886913"><ele>1590.0013741711155</ele><time>2023-10-03T16:30:03Z</time></trkpt><trkpt lat="-8.352301018279553" lon="115.47383941032449"><ele>1599.4956569541246</ele><time>2023-10-03T16:30:39Z</time></trkpt><trkpt lat="-8.352279152112954" lon="115.47402022231964"><ele>1606.573557259515</ele><time>2023-10-03T16:31:22Z</time></trkpt><trkpt lat="-8.352147258048163" lon="115.47415102409909"><ele>1610.0930493464693</ele><time>2023-10-03T16:32:01Z</time></trkpt><trkpt lat="-8.352121148943366" lon="115.47433538773355"><ele>1619.5824457481503</ele><time>2023-10-03T16:32:45Z</time></trkpt><trkpt lat="-8.35197800300724" lon="115.47444802574731"><ele>1619.838641689159</ele><time>2023-10-03T16:33:11Z</time></trkpt><trkpt lat="-8.351907246937705" lon="115.47462588575362"><ele>1624.2015111921355</ele><time>2023-10-03T16:33:37Z</time></trkpt><trkpt lat="-8.351830364723348" lon="115.47479863970455"><ele>1631.6942749712616</ele><time>2023-10-03T16:34:10Z</time></trkpt><trkpt lat="-8.351745279336656" lon="115.47496356453804"><ele>1640.0570364920422</ele><time>2023-10-03T16:34:54Z</time></trkpt><trkpt lat="-8.351694308786383" lon="115.47513837897894"><ele>1648.6378084030002</ele><time>2023-10-03T16:35:49Z</time></trkpt><trkpt lat="-8.351686214351709" lon="115.47532901032316"><ele>1664.3401779532433</ele><time>2023-10-03T16:37:20Z</time></trkpt><trkpt lat="-8.3516996157454" lon="115.47551150123033"><ele>1671.905005004257</ele><time>2023-10-03T16:38:09Z</time></trkpt><trkpt lat="-8.351514616927389" lon="115.47553455492951"><ele>1674.955248447135</ele><time>2023-10-03T16:38:44Z</time></trkpt><trkpt lat="-8.351409282729882" lon="115.47569620664517"><ele>1682.3734588874504</ele><time>2023-10-03T16:39:16Z</time></trkpt><trkpt lat="-8.351314795830262" lon="115.47585988100347"><ele>1686.3161674020812</ele><time>2023-10-03T16:39:44Z</time></trkpt><trkpt lat="-8.351255367280324" lon="115.47603831829032"><ele>1689.8801291193813</ele><time>2023-10-03T16:40:10Z</time></trkpt><trkpt lat="-8.351177963386982" lon="115.47621016897287"><ele>1695.083292373456</ele><time>2023-10-03T16:40:36Z</time></trkpt><trkpt lat="-8.351126643400118" lon="115.47638532184116"><ele>1706.0012639565393</ele><time>2023-10-03T16:41:45Z</time></trkpt><trkpt lat="-8.351044600116724" lon="115.47655065770722"><ele>1714.1123918639496</ele><time>2023-10-03T16:42:20Z</time></trkpt><trkpt lat="-8.350989150064828" lon="115.4767276966148"><ele>1715.3736611520872</ele><time>2023-10-03T16:42:43Z</time></trkpt><trkpt lat="-8.350866993669523" lon="115.4768643604053"><ele>1717.785966867581</ele><time>2023-10-03T16:43:08Z</time></trkpt><trkpt lat="-8.3507630525513" lon="115.47702131025507"><ele>1721.1304693212733</ele><time>2023-10-03T16:43:35Z</time></trkpt><trkpt lat="-8.350658924725787" lon="115.4771792585855"><ele>1729.5666939038783</ele><time>2023-10-03T16:44:17Z</time></trkpt><trkpt lat="-8.350582361110808" lon="115.47734453707245"><ele>1739.8029747754335</ele><time>2023-10-03T16:44:58Z</time></trkpt><trkpt lat="-8.350454775097436" lon="115.47747538794519"><ele>1749.8850847901776</ele><time>2023-10-03T16:45:57Z</time></trkpt><trkpt lat="-8.350366221800927" lon="115.47763399840719"><ele>1757.8781514493749</ele><time>2023-10-03T16:46:50Z</time></trkpt><trkpt lat="-8.350270370504417" lon="115.47778828380858"><ele>1762.807498306036</ele><time>2023-10-03T16:47:25Z</time></trkpt><trkpt lat="-8.35027330098488" lon="115.47797330116143"><ele>1774.8979987893254</ele><time>2023-10-03T16:48:05Z</time></trkpt><trkpt lat="-8.350270776719894" lon="115.4781576261137"><ele>1781.8513074135408</ele><time>2023-10-03T16:48:40Z</time></trkpt><trkpt lat="-8.350190260562558" lon="115.47832070211008"><ele>1787.051050153561</ele><time>2023-10-03T16:49:13Z</time></trkpt><trkpt lat="-8.350307082033778" lon="115.47846366763733"><ele>1796.359777128324</ele><time>2023-10-03T16:50:08Z</time></trkpt><trkpt lat="-8.350491190593461" lon="115.47844926328588"><ele>1796.0333794383332</ele><time>2023-10-03T16:50:54Z</time></trkpt><trkpt lat="-8.350425855081014" lon="115.47862170507975"><ele>1802.3794789304957</ele><time>2023-10-03T17:05:44Z</time></trkpt><trkpt lat="-8.350287906946443" lon="115.47874575856724"><ele>1810.6965892789885</ele><time>2023-10-03T17:06:28Z</time></trkpt><trkpt lat="-8.350163000245063" lon="115.47888428934068"><ele>1818.2680421359837</ele><time>2023-10-03T17:07:38Z</time></trkpt><trkpt lat="-8.35000752400152" lon="115.4789810009284"><ele>1830.5490102386102</ele><time>2023-10-03T17:08:30Z</time></trkpt><trkpt lat="-8.349897086042464" lon="115.47912633990845"><ele>1845.1784881278872</ele><time>2023-10-03T17:10:16Z</time></trkpt><trkpt lat="-8.349791795606317" lon="115.47927885829488"><ele>1855.6008403748274</ele><time>2023-10-03T17:11:17Z</time></trkpt><trkpt lat="-8.34973025123311" lon="115.47945128095135"><ele>1863.8106679720804</ele><time>2023-10-03T17:12:05Z</time></trkpt><trkpt lat="-8.34958935838473" lon="115.47956920674783"><ele>1868.9400483444333</ele><time>2023-10-03T17:12:40Z</time></trkpt><trkpt lat="-8.349407400776574" lon="115.47958496396615"><ele>1882.2330420045182</ele><time>2023-10-03T17:14:09Z</time></trkpt><trkpt lat="-8.349257792813665" lon="115.47969579531402"><ele>1890.7751201223582</ele><time>2023-10-03T17:15:03Z</time></trkpt><trkpt lat="-8.349118760139598" lon="115.47981260733889"><ele>1902.8202874213457</ele><time>2023-10-03T17:16:06Z</time></trkpt><trkpt lat="-8.34895929736973" lon="115.47989996504049"><ele>1908.4646456819028</ele><time>2023-10-03T17:16:55Z</time></trkpt><trkpt lat="-8.348809289746189" lon="115.4800224175131"><ele>1920.0236440077424</ele><time>2023-10-03T17:18:13Z</time></trkpt><trkpt lat="-8.348646016617845" lon="115.48010288784667"><ele>1932.4824279332533</ele><time>2023-10-03T17:20:05Z</time></trkpt><trkpt lat="-8.348465514425467" lon="115.48012012741007"><ele>1942.1117000114173</ele><time>2023-10-03T17:21:20Z</time></trkpt><trkpt lat="-8.34828802011069" lon="115.48015977541438"><ele>1951.662093755789</ele><time>2023-10-03T17:22:41Z</time></trkpt><trkpt lat="-8.348105369191273" lon="115.48014413116145"><ele>1960.15797943715</ele><time>2023-10-03T17:23:53Z</time></trkpt><trkpt lat="-8.347927363605493" lon="115.48010855173452"><ele>1967.0014899466187</ele><time>2023-10-03T17:24:47Z</time></trkpt><trkpt lat="-8.347757690668093" lon="115.4800347098809"><ele>1980.8699767980725</ele><time>2023-10-03T17:25:28Z</time></trkpt><trkpt lat="-8.347647963148344" lon="115.47988887028427"><ele>1983.0669159665704</ele><time>2023-10-03T17:26:07Z</time></trkpt><trkpt lat="-8.347532460262514" lon="115.48003841173424"><ele>1987.9111793572083</ele><time>2023-10-03T17:27:09Z</time></trkpt><trkpt lat="-8.347530109344603" lon="115.48022062170052"><ele>1995.3993416512385</ele><time>2023-10-03T17:27:58Z</time></trkpt><trkpt lat="-8.347464365758634" lon="115.48039071578015"><ele>1998.776284513995</ele><time>2023-10-03T17:28:44Z</time></trkpt><trkpt lat="-8.347337372181679" lon="115.48052112327578"><ele>2002.614635487087</ele><time>2023-10-03T17:29:15Z</time></trkpt><trkpt lat="-8.347288681505782" lon="115.48070162369933"><ele>2010.306534470059</ele><time>2023-10-03T17:30:00Z</time></trkpt><trkpt lat="-8.347222126825718" lon="115.4808786047857"><ele>2019.3222169196233</ele><time>2023-10-03T17:30:45Z</time></trkpt><trkpt lat="-8.34717202465862" lon="115.48106556570687"><ele>2031.6790614947677</ele><time>2023-10-03T17:32:09Z</time></trkpt><trkpt lat="-8.347070278261533" lon="115.48122789143446"><ele>2046.4381761262193</ele><time>2023-10-03T17:33:11Z</time></trkpt><trkpt lat="-8.3469507134362" lon="115.48138478905828"><ele>2052.159164093435</ele><time>2023-10-03T17:34:24Z</time></trkpt><trkpt lat="-8.346822191640586" lon="115.48151806277478"><ele>2071.241488995962</ele><time>2023-10-03T17:36:20Z</time></trkpt><trkpt lat="-8.346765383113086" lon="115.48169465940082"><ele>2077.2299292692915</ele><time>2023-10-03T17:37:19Z</time></trkpt><trkpt lat="-8.346664018041356" lon="115.48184894013468"><ele>2086.835286516696</ele><time>2023-10-03T17:38:17Z</time></trkpt><trkpt lat="-8.346557124340492" lon="115.48200400170114"><ele>2099.183991561644</ele><time>2023-10-03T17:39:20Z</time></trkpt><trkpt lat="-8.346438538489306" lon="115.48208556439688"><ele>2101.25221513398</ele><time>2023-10-03T17:41:04Z</time></trkpt><trkpt lat="-8.346449334504095" lon="115.48204139682399"><ele>2101.4598281588405</ele><time>2023-10-03T17:47:06Z</time></trkpt><trkpt lat="-8.34645394400572" lon="115.48205812122399"><ele>2103.8477468648925</ele><time>2023-10-03T17:53:40Z</time></trkpt><trkpt lat="-8.34645394400572" lon="115.48205812122399"><ele>2103.8477468648925</ele><time>2023-10-03T17:53:42Z</time></trkpt><trkpt lat="-8.346339332741161" lon="115.48219980113029"><ele>2114.1887972280383</ele><time>2023-10-03T17:59:54Z</time></trkpt><trkpt lat="-8.346208128972378" lon="115.48232750082202"><ele>2123.660633358173</ele><time>2023-10-03T18:01:11Z</time></trkpt><trkpt lat="-8.346037106529199" lon="115.48239434449408"><ele>2128.404475252144</ele><time>2023-10-03T18:01:51Z</time></trkpt><trkpt lat="-8.345922838335202" lon="115.48254134090388"><ele>2140.8435788964853</ele><time>2023-10-03T18:03:18Z</time></trkpt><trkpt lat="-8.345840885765783" lon="115.48270378457133"><ele>2151.589882174507</ele><time>2023-10-03T18:04:27Z</time></trkpt><trkpt lat="-8.345731278571604" lon="115.4828497445376"><ele>2160.0714456625283</ele><time>2023-10-03T18:05:22Z</time></trkpt><trkpt lat="-8.345619346167712" lon="115.48299663295275"><ele>2172.9916709661484</ele><time>2023-10-03T18:06:29Z</time></trkpt><trkpt lat="-8.34554623238304" lon="115.48316302599369"><ele>2184.1373706078157</ele><time>2023-10-03T18:07:54Z</time></trkpt><trkpt lat="-8.345381611314759" lon="115.48324967846492"><ele>2192.40684947744</ele><time>2023-10-03T18:08:48Z</time></trkpt><trkpt lat="-8.345213775271528" lon="115.48332049130977"><ele>2206.247919288464</ele><time>2023-10-03T18:10:31Z</time></trkpt><trkpt lat="-8.345125327008935" lon="115.48347976884985"><ele>2213.0643747225404</ele><time>2023-10-03T18:11:37Z</time></trkpt><trkpt lat="-8.34505426218504" lon="115.483648136328"><ele>2220.1074837399647</ele><time>2023-10-03T18:12:20Z</time></trkpt><trkpt lat="-8.345018908597424" lon="115.4838283479572"><ele>2228.301811256446</ele><time>2023-10-03T18:13:07Z</time></trkpt><trkpt lat="-8.344921526039176" lon="115.48398309810581"><ele>2233.300073706545</ele><time>2023-10-03T18:13:56Z</time></trkpt><trkpt lat="-8.344835939680463" lon="115.48414531937357"><ele>2243.0020221965387</ele><time>2023-10-03T18:14:57Z</time></trkpt><trkpt lat="-8.344784067065603" lon="115.48432460989048"><ele>2256.2505343584344</ele><time>2023-10-03T18:16:36Z</time></trkpt><trkpt lat="-8.344664887987028" lon="115.4844636791256"><ele>2271.9320852514356</ele><time>2023-10-03T18:18:01Z</time></trkpt><trkpt lat="-8.34462371869323" lon="115.48464284398861"><ele>2285.543815557845</ele><time>2023-10-03T18:19:24Z</time></trkpt><trkpt lat="-8.344523494426566" lon="115.48480086895107"><ele>2294.9841387681663</ele><time>2023-10-03T18:20:32Z</time></trkpt><trkpt lat="-8.344392635826349" lon="115.4849299372047"><ele>2304.0351098058745</ele><time>2023-10-03T18:21:30Z</time></trkpt><trkpt lat="-8.344271009349919" lon="115.48506586889766"><ele>2310.558095900342</ele><time>2023-10-03T18:22:34Z</time></trkpt><trkpt lat="-8.344146649542537" lon="115.48520051179455"><ele>2321.8781668366864</ele><time>2023-10-03T18:23:42Z</time></trkpt><trkpt lat="-8.344043620525586" lon="115.48535172799396"><ele>2330.6750151049346</ele><time>2023-10-03T18:24:47Z</time></trkpt><trkpt lat="-8.3439814112428" lon="115.4855255423793"><ele>2342.074724833481</ele><time>2023-10-03T18:25:52Z</time></trkpt><trkpt lat="-8.343924484440254" lon="115.48570163406185"><ele>2354.4718735720962</ele><time>2023-10-03T18:27:12Z</time></trkpt><trkpt lat="-8.343818360766752" lon="115.48584972307866"><ele>2362.508507798426</ele><time>2023-10-03T18:28:25Z</time></trkpt><trkpt lat="-8.343750177483745" lon="115.48602107398513"><ele>2378.026271325536</ele><time>2023-10-03T18:29:56Z</time></trkpt><trkpt lat="-8.343584920152288" lon="115.48610131927768"><ele>2381.470257189125</ele><time>2023-10-03T18:31:31Z</time></trkpt><trkpt lat="-8.343577501967909" lon="115.48611851154541"><ele>2383.2233423376456</ele><time>2023-10-03T18:39:08Z</time></trkpt><trkpt lat="-8.34363317094534" lon="115.48606973072192"><ele>2383.9485655883327</ele><time>2023-10-03T18:48:50Z</time></trkpt><trkpt lat="-8.3436180912673" lon="115.48612879255352"><ele>2383.1044305684045</ele><time>2023-10-03T18:59:09Z</time></trkpt><trkpt lat="-8.343500327356306" lon="115.48627252938624"><ele>2393.836270706728</ele><time>2023-10-03T19:19:48Z</time></trkpt><trkpt lat="-8.34339111839238" lon="115.48641844446992"><ele>2402.252271343954</ele><time>2023-10-03T19:20:50Z</time></trkpt><trkpt lat="-8.343220261294379" lon="115.48648229421576"><ele>2407.251074665226</ele><time>2023-10-03T19:22:09Z</time></trkpt><trkpt lat="-8.343133267130634" lon="115.48664386293295"><ele>2422.2125500729308</ele><time>2023-10-03T19:23:35Z</time></trkpt><trkpt lat="-8.34300041242108" lon="115.48677248732983"><ele>2430.636409071274</ele><time>2023-10-03T19:24:44Z</time></trkpt><trkpt lat="-8.342899055841832" lon="115.48692414967441"><ele>2439.420568080619</ele><time>2023-10-03T19:25:53Z</time></trkpt><trkpt lat="-8.342752858362703" lon="115.48704012151603"><ele>2449.043540148996</ele><time>2023-10-03T19:26:44Z</time></trkpt><trkpt lat="-8.342574693797618" lon="115.4870952061782"><ele>2457.0554283652455</ele><time>2023-10-03T19:27:51Z</time></trkpt><trkpt lat="-8.34253297416498" lon="115.48727698587632"><ele>2466.4105246663094</ele><time>2023-10-03T19:29:20Z</time></trkpt><trkpt lat="-8.342558723565581" lon="115.48746010167778"><ele>2484.8242438780144</ele><time>2023-10-03T19:31:16Z</time></trkpt><trkpt lat="-8.34251802856862" lon="115.48763698906282"><ele>2495.1570764323696</ele><time>2023-10-03T19:32:30Z</time></trkpt><trkpt lat="-8.34249959812212" lon="115.48781912223863"><ele>2499.9243642501533</ele><time>2023-10-03T19:33:14Z</time></trkpt><trkpt lat="-8.34241178391478" lon="115.48797785719196"><ele>2508.469944190234</ele><time>2023-10-03T19:34:22Z</time></trkpt><trkpt lat="-8.342344694053589" lon="115.4881481758176"><ele>2517.274501531385</ele><time>2023-10-03T19:35:16Z</time></trkpt><trkpt lat="-8.342266649946914" lon="115.48831322557737"><ele>2525.794554666616</ele><time>2023-10-03T19:36:36Z</time></trkpt><trkpt lat="-8.342293720552759" lon="115.48849752190098"><ele>2538.5391317121685</ele><time>2023-10-03T19:37:32Z</time></trkpt><trkpt lat="-8.342307834104128" lon="115.48867961439717"><ele>2543.942085706629</ele><time>2023-10-03T19:38:25Z</time></trkpt><trkpt lat="-8.342374520590866" lon="115.48885313351145"><ele>2548.5901158051565</ele><time>2023-10-03T19:39:07Z</time></trkpt><trkpt lat="-8.342402740272748" lon="115.48903314944155"><ele>2551.6476973537356</ele><time>2023-10-03T19:39:37Z</time></trkpt><trkpt lat="-8.34243859456661" lon="115.4892116904578"><ele>2556.589427480474</ele><time>2023-10-03T19:40:10Z</time></trkpt><trkpt lat="-8.342496850670141" lon="115.48938527821889"><ele>2566.8594148708507</ele><time>2023-10-03T19:41:11Z</time></trkpt><trkpt lat="-8.342524841469688" lon="115.48956853392683"><ele>2573.134245103225</ele><time>2023-10-03T19:41:53Z</time></trkpt><trkpt lat="-8.342557565669518" lon="115.48975064171057"><ele>2578.1134123923257</ele><time>2023-10-03T19:42:37Z</time></trkpt><trkpt lat="-8.342596153160411" lon="115.48992859511024"><ele>2586.898692952469</ele><time>2023-10-03T19:43:30Z</time></trkpt><trkpt lat="-8.342547827285077" lon="115.49010533574294"><ele>2594.1956118363887</ele><time>2023-10-03T19:44:22Z</time></trkpt><trkpt lat="-8.34254256079113" lon="115.49029168489999"><ele>2607.143368587829</ele><time>2023-10-03T19:45:39Z</time></trkpt><trkpt lat="-8.342577452237975" lon="115.49047003556029"><ele>2608.7119323601946</ele><time>2023-10-03T19:47:09Z</time></trkpt><trkpt lat="-8.342570538893423" lon="115.49045183962794"><ele>2610.2144686300308</ele><time>2023-10-03T19:48:59Z</time></trkpt><trkpt lat="-8.34256517379152" lon="115.49043971592123"><ele>2612.3324056547135</ele><time>2023-10-03T19:58:48Z</time></trkpt><trkpt lat="-8.342455157948686" lon="115.49059102865314"><ele>2626.7024880750105</ele><time>2023-10-03T20:02:52Z</time></trkpt><trkpt lat="-8.342414849193583" lon="115.49077143025387"><ele>2642.0940629374236</ele><time>2023-10-03T20:05:04Z</time></trkpt><trkpt lat="-8.342354872701687" lon="115.49095509673792"><ele>2655.6355264978483</ele><time>2023-10-03T20:07:15Z</time></trkpt><trkpt lat="-8.342365846048398" lon="115.49113955969166"><ele>2672.9179896749556</ele><time>2023-10-03T20:09:44Z</time></trkpt><trkpt lat="-8.342248059326272" lon="115.49127732968704"><ele>2678.2185371201485</ele><time>2023-10-03T20:10:24Z</time></trkpt><trkpt lat="-8.342430863810554" lon="115.49130425701873"><ele>2687.146801012568</ele><time>2023-10-03T20:13:35Z</time></trkpt><trkpt lat="-8.342612247409535" lon="115.49131073639106"><ele>2701.320037683472</ele><time>2023-10-03T20:15:42Z</time></trkpt><trkpt lat="-8.342647671119956" lon="115.49148979074653"><ele>2709.159687226638</ele><time>2023-10-03T20:16:33Z</time></trkpt><trkpt lat="-8.342642062281595" lon="115.4916715626972"><ele>2722.3193453457206</ele><time>2023-10-03T20:17:45Z</time></trkpt><trkpt lat="-8.34261646430982" lon="115.49185222655426"><ele>2731.023335719481</ele><time>2023-10-03T20:19:01Z</time></trkpt><trkpt lat="-8.342597053043445" lon="115.49203305579664"><ele>2740.8773875571787</ele><time>2023-10-03T20:20:40Z</time></trkpt><trkpt lat="-8.342620789153697" lon="115.49222270783163"><ele>2753.2269786270335</ele><time>2023-10-03T20:22:24Z</time></trkpt><trkpt lat="-8.342628930463453" lon="115.49240433154804"><ele>2772.246363999322</ele><time>2023-10-03T20:24:58Z</time></trkpt><trkpt lat="-8.342611107387286" lon="115.49258800087205"><ele>2782.782090314664</ele><time>2023-10-03T20:26:38Z</time></trkpt><trkpt lat="-8.342551144780598" lon="115.49275947491628"><ele>2802.300863632001</ele><time>2023-10-03T20:28:46Z</time></trkpt><trkpt lat="-8.342428783124694" lon="115.49289492930414"><ele>2810.7559288470075</ele><time>2023-10-03T20:30:12Z</time></trkpt><trkpt lat="-8.342355068204663" lon="115.49306179913478"><ele>2822.7670601392165</ele><time>2023-10-03T20:32:58Z</time></trkpt><trkpt lat="-8.34231081729824" lon="115.49323997890295"><ele>2830.5123043823987</ele><time>2023-10-03T20:35:10Z</time></trkpt><trkpt lat="-8.342235826924535" lon="115.49340724073733"><ele>2846.106636248529</ele><time>2023-10-03T20:37:27Z</time></trkpt><trkpt lat="-8.342187191281331" lon="115.49358347888554"><ele>2856.5049470737576</ele><time>2023-10-03T20:38:46Z</time></trkpt><trkpt lat="-8.342167422609634" lon="115.49376622159802"><ele>2868.509442249313</ele><time>2023-10-03T20:40:23Z</time></trkpt><trkpt lat="-8.342199148251774" lon="115.49394857165649"><ele>2878.2318069422618</ele><time>2023-10-03T20:41:32Z</time></trkpt><trkpt lat="-8.342197089409877" lon="115.49413116316087"><ele>2886.2999771041796</ele><time>2023-10-03T20:42:40Z</time></trkpt><trkpt lat="-8.342198870120829" lon="115.4943156415576"><ele>2895.8186361510307</ele><time>2023-10-03T20:44:06Z</time></trkpt><trkpt lat="-8.342216474438468" lon="115.49449862393709"><ele>2907.768897872418</ele><time>2023-10-03T20:45:16Z</time></trkpt><trkpt lat="-8.34217966113782" lon="115.49467756983829"><ele>2915.823013178073</ele><time>2023-10-03T20:46:18Z</time></trkpt><trkpt lat="-8.34209719441999" lon="115.49484235435428"><ele>2922.480365322903</ele><time>2023-10-03T20:47:21Z</time></trkpt><trkpt lat="-8.342017157044632" lon="115.49500620544941"><ele>2934.432751301676</ele><time>2023-10-03T20:48:30Z</time></trkpt><trkpt lat="-8.341958559509987" lon="115.49517969233302"><ele>2929.419640013948</ele><time>2023-10-03T20:49:41Z</time></trkpt><trkpt lat="-8.34197725992156" lon="115.49513013059368"><ele>2931.7543331524357</ele><time>2023-10-03T21:08:25Z</time></trkpt><trkpt lat="-8.341880661777367" lon="115.49528515276074"><ele>2942.6236456427723</ele><time>2023-10-03T21:27:01Z</time></trkpt><trkpt lat="-8.34188633456717" lon="115.49546760773978"><ele>2946.1735108252615</ele><time>2023-10-03T21:27:26Z</time></trkpt><trkpt lat="-8.341837870341685" lon="115.49564443349074"><ele>2947.1923262812197</ele><time>2023-10-03T21:27:46Z</time></trkpt><trkpt lat="-8.341766125501875" lon="115.49581217508951"><ele>2951.7180145457387</ele><time>2023-10-03T21:28:12Z</time></trkpt><trkpt lat="-8.341681337034904" lon="115.49597404297"><ele>2957.635157515295</ele><time>2023-10-03T21:28:44Z</time></trkpt><trkpt lat="-8.341587174873252" lon="115.49613007397556"><ele>2963.3148267725483</ele><time>2023-10-03T21:29:18Z</time></trkpt><trkpt lat="-8.341515330353053" lon="115.49630144050101"><ele>2966.4140724278986</ele><time>2023-10-03T21:29:41Z</time></trkpt><trkpt lat="-8.341428621128333" lon="115.49646172374422"><ele>2969.9136112891138</ele><time>2023-10-03T21:30:02Z</time></trkpt><trkpt lat="-8.34137372717101" lon="115.49663583746444"><ele>2973.482643723488</ele><time>2023-10-03T21:30:25Z</time></trkpt><trkpt lat="-8.341311882416898" lon="115.49681424630461"><ele>2976.644678968005</ele><time>2023-10-03T21:30:49Z</time></trkpt><trkpt lat="-8.34124119295172" lon="115.49698516144842"><ele>2982.641590001993</ele><time>2023-10-03T21:31:15Z</time></trkpt><trkpt lat="-8.34116768382451" lon="115.49715190630297"><ele>2985.5834739506245</ele><time>2023-10-03T21:31:40Z</time></trkpt><trkpt lat="-8.341095966534624" lon="115.49732055674546"><ele>2991.1232675351202</ele><time>2023-10-03T21:32:11Z</time></trkpt><trkpt lat="-8.341019382445017" lon="115.49749417768678"><ele>2997.34103243798</ele><time>2023-10-03T21:32:45Z</time></trkpt><trkpt lat="-8.340963556561833" lon="115.49766768215244"><ele>3003.7182046761736</ele><time>2023-10-03T21:33:26Z</time></trkpt><trkpt lat="-8.340890515242014" lon="115.49783393694375"><ele>3011.25464839302</ele><time>2023-10-03T21:34:07Z</time></trkpt><trkpt lat="-8.340768633888409" lon="115.49797150914473"><ele>3016.0943756904453</ele><time>2023-10-03T21:34:42Z</time></trkpt><trkpt lat="-8.340610789779978" lon="115.49807186565164"><ele>3020.9230755083263</ele><time>2023-10-03T21:35:11Z</time></trkpt><trkpt lat="-8.340487707311523" lon="115.49820508858964"><ele>3023.233585037291</ele><time>2023-10-03T21:35:39Z</time></trkpt><trkpt lat="-8.340378830953927" lon="115.4983513647578"><ele>3027.6218080883846</ele><time>2023-10-03T21:36:08Z</time></trkpt><trkpt lat="-8.340353575179222" lon="115.49853829184158"><ele>3028.295146515593</ele><time>2023-10-03T21:36:38Z</time></trkpt><trkpt lat="-8.340363490253527" lon="115.49872653652292"><ele>3025.0247909529135</ele><time>2023-10-03T21:37:03Z</time></trkpt><trkpt lat="-8.34034123880405" lon="115.49891060610956"><ele>3019.9853240521625</ele><time>2023-10-03T21:37:37Z</time></trkpt><trkpt lat="-8.340316961523733" lon="115.49909592611117"><ele>3015.69609724544</ele><time>2023-10-03T21:37:59Z</time></trkpt><trkpt lat="-8.340341354482236" lon="115.4992769321745"><ele>3015.3411779571325</ele><time>2023-10-03T21:38:17Z</time></trkpt><trkpt lat="-8.340389167228873" lon="115.49945246948747"><ele>3015.6352475676686</ele><time>2023-10-03T21:38:36Z</time></trkpt><trkpt lat="-8.340436367495531" lon="115.49963494246107"><ele>3016.2177859665826</ele><time>2023-10-03T21:38:54Z</time></trkpt><trkpt lat="-8.34045061487008" lon="115.49981661401866"><ele>3014.680354415439</ele><time>2023-10-03T21:39:12Z</time></trkpt><trkpt lat="-8.340452560092228" lon="115.49999935012532"><ele>3013.0567069621757</ele><time>2023-10-03T21:39:28Z</time></trkpt><trkpt lat="-8.340490510435826" lon="115.5001814602963"><ele>3012.234474770725</ele><time>2023-10-03T21:39:46Z</time></trkpt><trkpt lat="-8.340467770336849" lon="115.50036190263607"><ele>3008.079169734381</ele><time>2023-10-03T21:40:06Z</time></trkpt><trkpt lat="-8.340456581083933" lon="115.50054399218497"><ele>3004.454621342011</ele><time>2023-10-03T21:40:23Z</time></trkpt><trkpt lat="-8.340485912905267" lon="115.50072548953149"><ele>3001.565723965876</ele><time>2023-10-03T21:40:38Z</time></trkpt><trkpt lat="-8.340508123620904" lon="115.50091189214226"><ele>2999.6181042771786</ele><time>2023-10-03T21:40:53Z</time></trkpt><trkpt lat="-8.340562069864005" lon="115.50109054734186"><ele>3000.953849670477</ele><time>2023-10-03T21:41:16Z</time></trkpt><trkpt lat="-8.34062591381308" lon="115.5012650456604"><ele>3005.9033335549757</ele><time>2023-10-03T21:41:40Z</time></trkpt><trkpt lat="-8.340684307116732" lon="115.5014465707191"><ele>3007.826752074994</ele><time>2023-10-03T21:42:07Z</time></trkpt><trkpt lat="-8.340790521562713" lon="115.50160044037831"><ele>3011.355185375549</ele><time>2023-10-03T21:42:34Z</time></trkpt><trkpt lat="-8.340865716060074" lon="115.50177223426256"><ele>3009.891820530407</ele><time>2023-10-03T21:42:55Z</time></trkpt><trkpt lat="-8.340922124838736" lon="115.50195518027614"><ele>3009.078172190115</ele><time>2023-10-03T21:43:12Z</time></trkpt><trkpt lat="-8.341005017150428" lon="115.50212770663147"><ele>3006.9234487544745</ele><time>2023-10-03T21:43:28Z</time></trkpt><trkpt lat="-8.341051745654752" lon="115.50230414619541"><ele>3006.9294812660664</ele><time>2023-10-03T21:43:43Z</time></trkpt><trkpt lat="-8.341120361594855" lon="115.50247724376297"><ele>3007.1322722313926</ele><time>2023-10-03T21:43:59Z</time></trkpt><trkpt lat="-8.341211114867889" lon="115.50264265605693"><ele>3010.4810745632276</ele><time>2023-10-03T21:44:17Z</time></trkpt><trkpt lat="-8.34128889244391" lon="115.50281246075285"><ele>3016.122338454239</ele><time>2023-10-03T21:44:41Z</time></trkpt><trkpt lat="-8.341335974635042" lon="115.5029888040045"><ele>3019.517406053841</ele><time>2023-10-03T21:45:05Z</time></trkpt><trkpt lat="-8.34139203193465" lon="115.50316472828553"><ele>3030.117189100012</ele><time>2023-10-03T21:45:43Z</time></trkpt><trkpt lat="-8.341506816515018" lon="115.50331001812708"><ele>3038.1582754403353</ele><time>2023-10-03T21:48:02Z</time></trkpt><trkpt lat="-8.341453118274844" lon="115.50327413394935"><ele>3038.9387166546658</ele><time>2023-10-03T21:55:39Z</time></trkpt><trkpt lat="-8.341472745933098" lon="115.50328352614373"><ele>3039.652200351469</ele><time>2023-10-03T22:03:59Z</time></trkpt><trkpt lat="-8.341391181095664" lon="115.50311806643428"><ele>3026.5383327566087</ele><time>2023-10-03T22:33:11Z</time></trkpt><trkpt lat="-8.341348208977639" lon="115.502937066162"><ele>3014.43090020027</ele><time>2023-10-03T22:34:04Z</time></trkpt><trkpt lat="-8.341295623332938" lon="115.50276106862708"><ele>3011.243073910475</ele><time>2023-10-03T22:34:42Z</time></trkpt><trkpt lat="-8.341211438174803" lon="115.50259879346082"><ele>3009.783766966313</ele><time>2023-10-03T22:35:07Z</time></trkpt><trkpt lat="-8.341120265487458" lon="115.50243502774228"><ele>3007.2654886757955</ele><time>2023-10-03T22:35:32Z</time></trkpt><trkpt lat="-8.341047984734756" lon="115.50226545670866"><ele>3008.3135601067916</ele><time>2023-10-03T22:35:59Z</time></trkpt><trkpt lat="-8.340993684736292" lon="115.5020854594476"><ele>3007.4397423388436</ele><time>2023-10-03T22:36:29Z</time></trkpt><trkpt lat="-8.340920099811854" lon="115.50191476037925"><ele>3008.663280435838</ele><time>2023-10-03T22:36:51Z</time></trkpt><trkpt lat="-8.340861794263285" lon="115.50173813007338"><ele>3008.3611685447395</ele><time>2023-10-03T22:37:10Z</time></trkpt><trkpt lat="-8.340783805919324" lon="115.50156448847362"><ele>3011.4679194279015</ele><time>2023-10-03T22:37:33Z</time></trkpt><trkpt lat="-8.340688098333722" lon="115.50140694062983"><ele>3008.2236777897924</ele><time>2023-10-03T22:37:50Z</time></trkpt><trkpt lat="-8.34062222830167" lon="115.50123131455004"><ele>3003.325520776212</ele><time>2023-10-03T22:38:07Z</time></trkpt><trkpt lat="-8.340552676314934" lon="115.50105988892273"><ele>3002.0024850647897</ele><time>2023-10-03T22:38:24Z</time></trkpt><trkpt lat="-8.340497253346737" lon="115.50087633967492"><ele>3001.6324626365677</ele><time>2023-10-03T22:38:41Z</time></trkpt><trkpt lat="-8.340479391238315" lon="115.50069271741305"><ele>2999.412924886681</ele><time>2023-10-03T22:38:56Z</time></trkpt><trkpt lat="-8.340465005873746" lon="115.50050544317376"><ele>3000.232730861753</ele><time>2023-10-03T22:39:12Z</time></trkpt><trkpt lat="-8.340459350101577" lon="115.50031954875192"><ele>3004.2711439263076</ele><time>2023-10-03T22:39:30Z</time></trkpt><trkpt lat="-8.340485978151078" lon="115.50013349669115"><ele>3009.558439082466</ele><time>2023-10-03T22:39:51Z</time></trkpt><trkpt lat="-8.34046973263626" lon="115.49993862980884"><ele>3007.401232576929</ele><time>2023-10-03T22:40:08Z</time></trkpt><trkpt lat="-8.340439778649165" lon="115.49975048663951"><ele>3013.890731656924</ele><time>2023-10-03T22:40:25Z</time></trkpt><trkpt lat="-8.340438841352073" lon="115.49956633716378"><ele>3013.570225463249</ele><time>2023-10-03T22:40:44Z</time></trkpt><trkpt lat="-8.340375445798887" lon="115.49939046026293"><ele>3016.7702219160274</ele><time>2023-10-03T22:41:02Z</time></trkpt><trkpt lat="-8.340325871833155" lon="115.49919995558827"><ele>3015.744761345908</ele><time>2023-10-03T22:41:18Z</time></trkpt><trkpt lat="-8.340304766960404" lon="115.49901307555052"><ele>3014.5564570529386</ele><time>2023-10-03T22:41:33Z</time></trkpt><trkpt lat="-8.340331472952768" lon="115.49882501976961"><ele>3019.9249346992</ele><time>2023-10-03T22:42:19Z</time></trkpt><trkpt lat="-8.340359160005155" lon="115.49864495043907"><ele>3023.564130167477</ele><time>2023-10-03T22:42:45Z</time></trkpt><trkpt lat="-8.340338836618736" lon="115.4984577194694"><ele>3025.988055272028</ele><time>2023-10-03T22:43:07Z</time></trkpt><trkpt lat="-8.340382615715772" lon="115.49827529012978"><ele>3023.6835722336546</ele><time>2023-10-03T22:45:40Z</time></trkpt><trkpt lat="-8.340499970578042" lon="115.49813421190312"><ele>3022.505838567391</ele><time>2023-10-03T22:46:08Z</time></trkpt><trkpt lat="-8.34062995589482" lon="115.49800623091272"><ele>3019.04272624664</ele><time>2023-10-03T22:46:33Z</time></trkpt><trkpt lat="-8.340789488243166" lon="115.4979144956717"><ele>3017.0723682064563</ele><time>2023-10-03T22:47:01Z</time></trkpt><trkpt lat="-8.34089275959006" lon="115.49776473164523"><ele>3011.197854771279</ele><time>2023-10-03T22:47:28Z</time></trkpt><trkpt lat="-8.340952836027332" lon="115.49758851972986"><ele>3001.4321457454935</ele><time>2023-10-03T22:47:56Z</time></trkpt><trkpt lat="-8.341030639059358" lon="115.49742043695022"><ele>2990.8742742715403</ele><time>2023-10-03T22:48:18Z</time></trkpt><trkpt lat="-8.341104673116376" lon="115.49724433907946"><ele>2985.1970558371395</ele><time>2023-10-03T22:48:43Z</time></trkpt><trkpt lat="-8.34117805264447" lon="115.49707247563911"><ele>2981.661199802533</ele><time>2023-10-03T22:49:06Z</time></trkpt><trkpt lat="-8.341262546115344" lon="115.49691113819698"><ele>2976.7235573260114</ele><time>2023-10-03T22:49:24Z</time></trkpt><trkpt lat="-8.341327473908844" lon="115.49674122002938"><ele>2972.6408333117142</ele><time>2023-10-03T22:49:42Z</time></trkpt><trkpt lat="-8.34137883613123" lon="115.49656612220338"><ele>2969.165238345973</ele><time>2023-10-03T22:50:00Z</time></trkpt><trkpt lat="-8.341453105312693" lon="115.49639617775908"><ele>2965.40600640513</ele><time>2023-10-03T22:50:16Z</time></trkpt><trkpt lat="-8.341519240320622" lon="115.4962209852269"><ele>2963.266334465705</ele><time>2023-10-03T22:50:32Z</time></trkpt><trkpt lat="-8.34160180159217" lon="115.49605690504117"><ele>2956.6502463351935</ele><time>2023-10-03T22:50:47Z</time></trkpt><trkpt lat="-8.341707051214723" lon="115.49590078077212"><ele>2951.4677414465696</ele><time>2023-10-03T22:51:08Z</time></trkpt><trkpt lat="-8.341778527622846" lon="115.49573158249122"><ele>2947.087686121464</ele><time>2023-10-03T22:51:28Z</time></trkpt><trkpt lat="-8.341840565969521" lon="115.49554901603257"><ele>2943.542691513896</ele><time>2023-10-03T22:51:45Z</time></trkpt><trkpt lat="-8.34186764395664" lon="115.49535757881414"><ele>2942.6329615646973</ele><time>2023-10-03T22:52:01Z</time></trkpt><trkpt lat="-8.341890613892321" lon="115.49517347648148"><ele>2931.0849853865802</ele><time>2023-10-03T22:52:32Z</time></trkpt><trkpt lat="-8.341988044431188" lon="115.495018576912"><ele>2925.8441718919203</ele><time>2023-10-03T22:59:33Z</time></trkpt><trkpt lat="-8.342068011367788" lon="115.49485532504639"><ele>2916.9645816814154</ele><time>2023-10-03T23:00:08Z</time></trkpt><trkpt lat="-8.342143308189609" lon="115.49468722857486"><ele>2908.19015152473</ele><time>2023-10-03T23:00:41Z</time></trkpt><trkpt lat="-8.34218123406812" lon="115.49450907886975"><ele>2902.771469971165</ele><time>2023-10-03T23:01:11Z</time></trkpt><trkpt lat="-8.342180598462935" lon="115.49432637534461"><ele>2894.3375203367323</ele><time>2023-10-03T23:02:04Z</time></trkpt><trkpt lat="-8.342161575070728" lon="115.4941447688015"><ele>2883.145985616371</ele><time>2023-10-03T23:02:53Z</time></trkpt><trkpt lat="-8.342177689914603" lon="115.4939574857472"><ele>2875.5555330598727</ele><time>2023-10-03T23:03:30Z</time></trkpt><trkpt lat="-8.34215217503011" lon="115.49376903439563"><ele>2865.7479397431016</ele><time>2023-10-03T23:04:09Z</time></trkpt><trkpt lat="-8.342155069548468" lon="115.49358702424306"><ele>2855.1707736765966</ele><time>2023-10-03T23:04:52Z</time></trkpt><trkpt lat="-8.342201558183513" lon="115.49341029861046"><ele>2845.076000290923</ele><time>2023-10-03T23:05:46Z</time></trkpt><trkpt lat="-8.34225972888307" lon="115.49323390197979"><ele>2834.0813164813444</ele><time>2023-10-03T23:06:33Z</time></trkpt><trkpt lat="-8.342296510587815" lon="115.49305329635811"><ele>2821.514405205846</ele><time>2023-10-03T23:07:30Z</time></trkpt><trkpt lat="-8.342398447855633" lon="115.49289375936232"><ele>2804.7937605017796</ele><time>2023-10-03T23:08:35Z</time></trkpt><trkpt lat="-8.342405770068828" lon="115.49270876260776"><ele>2795.135559141636</ele><time>2023-10-03T23:09:42Z</time></trkpt><trkpt lat="-8.342461243716436" lon="115.49253349190472"><ele>2783.8125159852207</ele><time>2023-10-03T23:10:39Z</time></trkpt><trkpt lat="-8.34256032406951" lon="115.49238077938463"><ele>2768.886212706566</ele><time>2023-10-03T23:11:37Z</time></trkpt><trkpt lat="-8.342620721374635" lon="115.49220126153851"><ele>2757.7216183282435</ele><time>2023-10-03T23:12:47Z</time></trkpt><trkpt lat="-8.342544459930641" lon="115.4920273324461"><ele>2746.871996756643</ele><time>2023-10-03T23:13:51Z</time></trkpt><trkpt lat="-8.34266896987006" lon="115.49189340940092"><ele>2730.235639982857</ele><time>2023-10-03T23:14:53Z</time></trkpt><trkpt lat="-8.3426063513313" lon="115.49171900681333"><ele>2725.1405897084624</ele><time>2023-10-03T23:15:42Z</time></trkpt><trkpt lat="-8.34262092738904" lon="115.49153434064492"><ele>2713.1098488215357</ele><time>2023-10-03T23:16:37Z</time></trkpt><trkpt lat="-8.342606747468311" lon="115.49134865720326"><ele>2705.1045892369</ele><time>2023-10-03T23:17:11Z</time></trkpt><trkpt lat="-8.342527290251482" lon="115.4911853760683"><ele>2697.3496325286105</ele><time>2023-10-03T23:17:51Z</time></trkpt><trkpt lat="-8.342402173565338" lon="115.49132340169014"><ele>2685.0006075976416</ele><time>2023-10-03T23:18:57Z</time></trkpt><trkpt lat="-8.342329389297847" lon="115.4911514031998"><ele>2672.6254715602845</ele><time>2023-10-03T23:20:59Z</time></trkpt><trkpt lat="-8.342312654505308" lon="115.4909703698299"><ele>2661.7775606168434</ele><time>2023-10-03T23:22:18Z</time></trkpt><trkpt lat="-8.34241177679418" lon="115.49081339905824"><ele>2637.1231627529487</ele><time>2023-10-03T23:23:46Z</time></trkpt><trkpt lat="-8.342480387751953" lon="115.49064275040675"><ele>2625.6784615404904</ele><time>2023-10-03T23:24:59Z</time></trkpt><trkpt lat="-8.342522542537765" lon="115.49045899486933"><ele>2617.021988449618</ele><time>2023-10-03T23:26:18Z</time></trkpt><trkpt lat="-8.34249913302825" lon="115.49027602587034"><ele>2610.745016731322</ele><time>2023-10-03T23:58:00Z</time></trkpt><trkpt lat="-8.34251700606983" lon="115.49009039004098"><ele>2598.180832643993</ele><time>2023-10-03T23:59:02Z</time></trkpt><trkpt lat="-8.342551234071225" lon="115.48990722157393"><ele>2589.666253661737</ele><time>2023-10-03T23:59:38Z</time></trkpt><trkpt lat="-8.342511679885336" lon="115.48972734238207"><ele>2580.2881043422967</ele><time>2023-10-04T00:00:16Z</time></trkpt><trkpt lat="-8.342487233603702" lon="115.48954102670267"><ele>2574.481665940024</ele><time>2023-10-04T00:00:46Z</time></trkpt><trkpt lat="-8.34246003546981" lon="115.48935395908097"><ele>2564.4411611575633</ele><time>2023-10-04T00:01:20Z</time></trkpt><trkpt lat="-8.34239825772477" lon="115.48917864734213"><ele>2557.550535512157</ele><time>2023-10-04T00:02:16Z</time></trkpt><trkpt lat="-8.342346520378825" lon="115.48899253330781"><ele>2553.697124059312</ele><time>2023-10-04T00:02:37Z</time></trkpt><trkpt lat="-8.342316626837537" lon="115.48881305626745"><ele>2548.764857071452</ele><time>2023-10-04T00:02:56Z</time></trkpt><trkpt lat="-8.342269043843116" lon="115.48863454114033"><ele>2545.168374429457</ele><time>2023-10-04T00:03:22Z</time></trkpt><trkpt lat="-8.342243647594824" lon="115.48844562906214"><ele>2537.342765801586</ele><time>2023-10-04T00:04:02Z</time></trkpt><trkpt lat="-8.342275976363586" lon="115.48826640835516"><ele>2525.6865358538926</ele><time>2023-10-04T00:04:44Z</time></trkpt><trkpt lat="-8.34231382280082" lon="115.48808655795382"><ele>2514.256312176585</ele><time>2023-10-04T00:05:47Z</time></trkpt><trkpt lat="-8.342393346066848" lon="115.4879190286597"><ele>2508.5984401544556</ele><time>2023-10-04T00:06:22Z</time></trkpt><trkpt lat="-8.342474133291265" lon="115.48775398078769"><ele>2499.089136599563</ele><time>2023-10-04T00:07:00Z</time></trkpt><trkpt lat="-8.342488508280596" lon="115.4875717745883"><ele>2491.168956785463</ele><time>2023-10-04T00:07:31Z</time></trkpt><trkpt lat="-8.342534453035254" lon="115.48739325434971"><ele>2485.7676375620067</ele><time>2023-10-04T00:08:16Z</time></trkpt><trkpt lat="-8.342492641098794" lon="115.48721216195892"><ele>2465.948124848306</ele><time>2023-10-04T00:09:29Z</time></trkpt><trkpt lat="-8.342618241347168" lon="115.48707872474418"><ele>2453.2565075652674</ele><time>2023-10-04T00:10:37Z</time></trkpt><trkpt lat="-8.342772724720811" lon="115.48698021674919"><ele>2444.9871086748317</ele><time>2023-10-04T00:11:18Z</time></trkpt><trkpt lat="-8.34290332759116" lon="115.48683980109102"><ele>2435.305984251201</ele><time>2023-10-04T00:11:54Z</time></trkpt><trkpt lat="-8.343036500391825" lon="115.48671427812383"><ele>2428.897932909429</ele><time>2023-10-04T00:12:40Z</time></trkpt><trkpt lat="-8.343138740019347" lon="115.48656248597612"><ele>2419.504126559943</ele><time>2023-10-04T00:13:18Z</time></trkpt><trkpt lat="-8.343289475451211" lon="115.48645371758897"><ele>2403.930463882163</ele><time>2023-10-04T00:14:12Z</time></trkpt><trkpt lat="-8.343413421903083" lon="115.48632048148569"><ele>2397.865526350215</ele><time>2023-10-04T00:15:03Z</time></trkpt><trkpt lat="-8.34352553111485" lon="115.48617150613575"><ele>2389.2708156416193</ele><time>2023-10-04T00:15:40Z</time></trkpt><trkpt lat="-8.343654285305583" lon="115.48604292522437"><ele>2381.570898254402</ele><time>2023-10-04T00:16:47Z</time></trkpt><trkpt lat="-8.343753489355382" lon="115.48588698882767"><ele>2369.129657557234</ele><time>2023-10-04T00:17:35Z</time></trkpt><trkpt lat="-8.34386745488294" lon="115.48574191340762"><ele>2358.3394668279216</ele><time>2023-10-04T00:18:13Z</time></trkpt><trkpt lat="-8.343931767887183" lon="115.48556925190537"><ele>2346.9033303726465</ele><time>2023-10-04T00:19:16Z</time></trkpt><trkpt lat="-8.3440122735215" lon="115.48540317944357"><ele>2336.3812591899186</ele><time>2023-10-04T00:20:10Z</time></trkpt><trkpt lat="-8.344095843112148" lon="115.48523694289636"><ele>2326.730430241674</ele><time>2023-10-04T00:20:45Z</time></trkpt><trkpt lat="-8.344211267835304" lon="115.48509451327968"><ele>2318.1911423075944</ele><time>2023-10-04T00:21:31Z</time></trkpt><trkpt lat="-8.344339924887215" lon="115.48495808995578"><ele>2308.7145429560915</ele><time>2023-10-04T00:22:05Z</time></trkpt><trkpt lat="-8.344461677902629" lon="115.48482071116855"><ele>2300.4196016471833</ele><time>2023-10-04T00:22:51Z</time></trkpt><trkpt lat="-8.344562615197596" lon="115.48466773376887"><ele>2289.48382837791</ele><time>2023-10-04T00:23:29Z</time></trkpt><trkpt lat="-8.344628618408455" lon="115.4844983890599"><ele>2275.8920666677877</ele><time>2023-10-04T00:24:16Z</time></trkpt><trkpt lat="-8.34474660233448" lon="115.48435156767682"><ele>2264.5692228227854</ele><time>2023-10-04T00:25:44Z</time></trkpt><trkpt lat="-8.34484809505315" lon="115.48419510837199"><ele>2258.7235640017316</ele><time>2023-10-04T00:26:23Z</time></trkpt><trkpt lat="-8.344845775276287" lon="115.48401349823018"><ele>2239.2224106881768</ele><time>2023-10-04T00:27:31Z</time></trkpt><trkpt lat="-8.344942882993225" lon="115.48385969963103"><ele>2230.9736245255917</ele><time>2023-10-04T00:28:10Z</time></trkpt><trkpt lat="-8.345011138889026" lon="115.48367750607953"><ele>2223.623462786898</ele><time>2023-10-04T00:28:48Z</time></trkpt><trkpt lat="-8.345079738618146" lon="115.48350733889562"><ele>2217.68553147465</ele><time>2023-10-04T00:29:11Z</time></trkpt><trkpt lat="-8.345138057663581" lon="115.48332638682837"><ele>2210.4072064496577</ele><time>2023-10-04T00:29:49Z</time></trkpt><trkpt lat="-8.345311978619462" lon="115.48325228208343"><ele>2203.6464268127456</ele><time>2023-10-04T00:30:46Z</time></trkpt><trkpt lat="-8.345459043312989" lon="115.4831449998999"><ele>2188.9133900348097</ele><time>2023-10-04T00:31:49Z</time></trkpt><trkpt lat="-8.345566193794516" lon="115.48299872902297"><ele>2179.3005997743458</ele><time>2023-10-04T00:32:40Z</time></trkpt><trkpt lat="-8.34567342816399" lon="115.48284878066448"><ele>2166.601147076115</ele><time>2023-10-04T00:33:40Z</time></trkpt><trkpt lat="-8.34578635251353" lon="115.4826940664578"><ele>2153.2443778179586</ele><time>2023-10-04T00:34:23Z</time></trkpt><trkpt lat="-8.34588605606494" lon="115.48253559754848"><ele>2142.77565043699</ele><time>2023-10-04T00:35:14Z</time></trkpt><trkpt lat="-8.345972670498012" lon="115.48237512385484"><ele>2130.776012659073</ele><time>2023-10-04T00:36:12Z</time></trkpt><trkpt lat="-8.346150706635271" lon="115.48231451871254"><ele>2125.694752628915</ele><time>2023-10-04T00:36:38Z</time></trkpt><trkpt lat="-8.346285383253019" lon="115.4821873277992"><ele>2113.6451110895723</ele><time>2023-10-04T00:37:45Z</time></trkpt><trkpt lat="-8.346426480306471" lon="115.48206531621817"><ele>2104.4677258031443</ele><time>2023-10-04T00:38:14Z</time></trkpt><trkpt lat="-8.346562438793992" lon="115.48193713677554"><ele>2097.601078347303</ele><time>2023-10-04T00:38:45Z</time></trkpt><trkpt lat="-8.346660304447681" lon="115.48177977604959"><ele>2086.520622666925</ele><time>2023-10-04T00:39:24Z</time></trkpt><trkpt lat="-8.346777570820628" lon="115.48163713603418"><ele>2075.91331994161</ele><time>2023-10-04T00:39:56Z</time></trkpt><trkpt lat="-8.346810088600614" lon="115.48145736543901"><ele>2069.255938543007</ele><time>2023-10-04T00:40:24Z</time></trkpt><trkpt lat="-8.346952312052276" lon="115.4813294665129"><ele>2054.0645100604743</ele><time>2023-10-04T00:41:29Z</time></trkpt><trkpt lat="-8.34707285325315" lon="115.48119207971335"><ele>2044.53081654571</ele><time>2023-10-04T00:42:23Z</time></trkpt><trkpt lat="-8.347134867843033" lon="115.48101674521025"><ele>2035.462988386862</ele><time>2023-10-04T00:43:10Z</time></trkpt><trkpt lat="-8.347198348598951" lon="115.48084121817777"><ele>2025.0117943258956</ele><time>2023-10-04T00:44:21Z</time></trkpt><trkpt lat="-8.347272041505846" lon="115.48067538350138"><ele>2017.0294435787946</ele><time>2023-10-04T00:44:51Z</time></trkpt><trkpt lat="-8.347331462881394" lon="115.48050059957825"><ele>2008.9409220386297</ele><time>2023-10-04T00:45:21Z</time></trkpt><trkpt lat="-8.347449495775429" lon="115.4803500515556"><ele>2005.7515098666772</ele><time>2023-10-04T00:45:39Z</time></trkpt><trkpt lat="-8.347501766638082" lon="115.48017241552726"><ele>1997.1781735913828</ele><time>2023-10-04T00:46:16Z</time></trkpt><trkpt lat="-8.3475321814216" lon="115.47997927022053"><ele>1990.2892217636108</ele><time>2023-10-04T00:46:42Z</time></trkpt><trkpt lat="-8.347719569320084" lon="115.48000622623037"><ele>1979.6276012137532</ele><time>2023-10-04T00:47:43Z</time></trkpt><trkpt lat="-8.347896089828534" lon="115.48004786373443"><ele>1973.9202009104192</ele><time>2023-10-04T00:48:12Z</time></trkpt><trkpt lat="-8.348065449551523" lon="115.48011868010717"><ele>1964.7514319056645</ele><time>2023-10-04T00:48:51Z</time></trkpt><trkpt lat="-8.348246391273987" lon="115.48012994071583"><ele>1952.3032928174362</ele><time>2023-10-04T00:49:28Z</time></trkpt><trkpt lat="-8.348430438319006" lon="115.48008202701676"><ele>1941.5997626977041</ele><time>2023-10-04T00:50:05Z</time></trkpt><trkpt lat="-8.348618485479628" lon="115.4800689818746"><ele>1930.379581910558</ele><time>2023-10-04T00:51:03Z</time></trkpt><trkpt lat="-8.348779065564202" lon="115.4799768550139"><ele>1918.1208079895005</ele><time>2023-10-04T00:51:54Z</time></trkpt><trkpt lat="-8.348932936240145" lon="115.47987834478374"><ele>1909.4394503841177</ele><time>2023-10-04T00:52:35Z</time></trkpt><trkpt lat="-8.348980551395988" lon="115.47986540179049"><ele>1910.823560129851</ele><time>2023-10-04T00:53:41Z</time></trkpt><trkpt lat="-8.349117591087015" lon="115.47974670675019"><ele>1898.4506081212312</ele><time>2023-10-04T00:56:13Z</time></trkpt><trkpt lat="-8.349271501476737" lon="115.47964236523103"><ele>1887.2147040022537</ele><time>2023-10-04T00:57:00Z</time></trkpt><trkpt lat="-8.349422560516583" lon="115.47953766514962"><ele>1876.087576421909</ele><time>2023-10-04T00:57:54Z</time></trkpt><trkpt lat="-8.349603350136393" lon="115.4795354666202"><ele>1866.6621462516487</ele><time>2023-10-04T00:58:44Z</time></trkpt><trkpt lat="-8.3496768480694" lon="115.4793693525011"><ele>1860.0905358027667</ele><time>2023-10-04T00:59:08Z</time></trkpt><trkpt lat="-8.349776751816902" lon="115.47921174166396"><ele>1848.9545750534162</ele><time>2023-10-04T01:00:35Z</time></trkpt><trkpt lat="-8.349883632343026" lon="115.47906513873343"><ele>1836.027355431579</ele><time>2023-10-04T01:01:43Z</time></trkpt><trkpt lat="-8.349989260163163" lon="115.4789118550519"><ele>1829.2767891893163</ele><time>2023-10-04T01:02:30Z</time></trkpt><trkpt lat="-8.350146860678553" lon="115.47882251912306"><ele>1818.5942389527336</ele><time>2023-10-04T01:03:18Z</time></trkpt><trkpt lat="-8.350269741688383" lon="115.47867592358624"><ele>1808.665039553307</ele><time>2023-10-04T01:04:14Z</time></trkpt><trkpt lat="-8.35040953101655" lon="115.47855478341792"><ele>1797.1227070400491</ele><time>2023-10-04T01:04:56Z</time></trkpt><trkpt lat="-8.350258020461032" lon="115.47845486420792"><ele>1787.5081738019362</ele><time>2023-10-04T01:06:04Z</time></trkpt><trkpt lat="-8.35020849562977" lon="115.47826204502418"><ele>1787.7900034384802</ele><time>2023-10-04T01:06:50Z</time></trkpt><trkpt lat="-8.350243358763965" lon="115.47807669927616"><ele>1780.8862687693909</ele><time>2023-10-04T01:07:10Z</time></trkpt><trkpt lat="-8.350215843827923" lon="115.47788924265375"><ele>1771.4619240239263</ele><time>2023-10-04T01:07:41Z</time></trkpt><trkpt lat="-8.350288319870758" lon="115.47770929015962"><ele>1767.5361850950867</ele><time>2023-10-04T01:08:08Z</time></trkpt><trkpt lat="-8.35035413612204" lon="115.4775324938984"><ele>1754.2351665645838</ele><time>2023-10-04T01:08:37Z</time></trkpt><trkpt lat="-8.35043792878957" lon="115.4773708082194"><ele>1741.6799664264545</ele><time>2023-10-04T01:09:32Z</time></trkpt><trkpt lat="-8.350590813713982" lon="115.47724984478474"><ele>1734.6250153677538</ele><time>2023-10-04T01:10:12Z</time></trkpt><trkpt lat="-8.350642589886633" lon="115.477075304073"><ele>1727.823351697065</ele><time>2023-10-04T01:10:34Z</time></trkpt><trkpt lat="-8.350762460811513" lon="115.47692975167934"><ele>1719.3316595181823</ele><time>2023-10-04T01:11:12Z</time></trkpt><trkpt lat="-8.350889335004956" lon="115.4767827622774"><ele>1717.2160212714225</ele><time>2023-10-04T01:11:32Z</time></trkpt><trkpt lat="-8.350962436790322" lon="115.47661085688105"><ele>1712.8094156337902</ele><time>2023-10-04T01:11:48Z</time></trkpt><trkpt lat="-8.351055028868744" lon="115.47644278695164"><ele>1709.8165989592671</ele><time>2023-10-04T01:12:07Z</time></trkpt><trkpt lat="-8.351114779004185" lon="115.47626935771197"><ele>1701.916171202436</ele><time>2023-10-04T01:12:56Z</time></trkpt><trkpt lat="-8.351180651264547" lon="115.47609765375874"><ele>1692.3212999543175</ele><time>2023-10-04T01:13:28Z</time></trkpt><trkpt lat="-8.351254496182202" lon="115.47592870213401"><ele>1686.9322733087465</ele><time>2023-10-04T01:13:47Z</time></trkpt><trkpt lat="-8.351306668963653" lon="115.47574963835399"><ele>1683.6919578760862</ele><time>2023-10-04T01:14:03Z</time></trkpt><trkpt lat="-8.351427012851431" lon="115.47560263258795"><ele>1680.3064810307696</ele><time>2023-10-04T01:14:20Z</time></trkpt><trkpt lat="-8.351576301729562" lon="115.47549511503925"><ele>1676.529815081507</ele><time>2023-10-04T01:14:43Z</time></trkpt><trkpt lat="-8.351607107296786" lon="115.47531407374011"><ele>1661.0212606508285</ele><time>2023-10-04T01:15:33Z</time></trkpt><trkpt lat="-8.35164402425745" lon="115.47512732386137"><ele>1647.0598449921235</ele><time>2023-10-04T01:16:46Z</time></trkpt><trkpt lat="-8.351702845924265" lon="115.4749471865405"><ele>1639.235175237991</ele><time>2023-10-04T01:17:19Z</time></trkpt><trkpt lat="-8.351785573436002" lon="115.47478431016128"><ele>1631.7460820442066</ele><time>2023-10-04T01:17:55Z</time></trkpt><trkpt lat="-8.35186427251504" lon="115.47461583277509"><ele>1625.8233131514862</ele><time>2023-10-04T01:18:16Z</time></trkpt><trkpt lat="-8.351950629804765" lon="115.47444454273383"><ele>1620.3377221906558</ele><time>2023-10-04T01:18:42Z</time></trkpt><trkpt lat="-8.352059181018863" lon="115.47429740682334"><ele>1618.6982229584828</ele><time>2023-10-04T01:19:04Z</time></trkpt><trkpt lat="-8.352120440890992" lon="115.47412559264514"><ele>1612.13106171228</ele><time>2023-10-04T01:19:28Z</time></trkpt><trkpt lat="-8.352220985290623" lon="115.47396469525582"><ele>1604.0860034292564</ele><time>2023-10-04T01:20:04Z</time></trkpt><trkpt lat="-8.352267365604781" lon="115.47377787051423"><ele>1598.9591541234404</ele><time>2023-10-04T01:20:50Z</time></trkpt><trkpt lat="-8.352360129582973" lon="115.4736137559659"><ele>1593.5619781389832</ele><time>2023-10-04T01:21:07Z</time></trkpt><trkpt lat="-8.352420705619286" lon="115.47343369955364"><ele>1582.4139149328694</ele><time>2023-10-04T01:21:41Z</time></trkpt><trkpt lat="-8.352533350164858" lon="115.47327776082275"><ele>1576.1914082355797</ele><time>2023-10-04T01:22:14Z</time></trkpt><trkpt lat="-8.352651160391757" lon="115.47313001220016"><ele>1565.910916767083</ele><time>2023-10-04T01:22:53Z</time></trkpt><trkpt lat="-8.352701946572996" lon="115.47295540378073"><ele>1560.0920861233026</ele><time>2023-10-04T01:23:16Z</time></trkpt><trkpt lat="-8.352757801167954" lon="115.4727746896179"><ele>1555.0413551172242</ele><time>2023-10-04T01:23:36Z</time></trkpt><trkpt lat="-8.352788818128" lon="115.47258936219332"><ele>1549.9319956107065</ele><time>2023-10-04T01:23:55Z</time></trkpt><trkpt lat="-8.352851595359008" lon="115.47251547742059"><ele>1549.8793458128348</ele><time>2023-10-04T01:24:22Z</time></trkpt><trkpt lat="-8.352865952658268" lon="115.47253993178256"><ele>1548.2333073522896</ele><time>2023-10-04T01:26:09Z</time></trkpt><trkpt lat="-8.352840267224865" lon="115.47235798108169"><ele>1545.8220752356574</ele><time>2023-10-04T01:31:06Z</time></trkpt><trkpt lat="-8.352942653676806" lon="115.47220819317165"><ele>1539.962438092567</ele><time>2023-10-04T01:31:26Z</time></trkpt><trkpt lat="-8.35307493833817" lon="115.47207069091313"><ele>1531.8666905928403</ele><time>2023-10-04T01:31:47Z</time></trkpt><trkpt lat="-8.353157155096588" lon="115.4719083004522"><ele>1529.0676163993776</ele><time>2023-10-04T01:32:08Z</time></trkpt><trkpt lat="-8.353227799154713" lon="115.47173647456594"><ele>1528.3995624771342</ele><time>2023-10-04T01:32:22Z</time></trkpt><trkpt lat="-8.353317454390119" lon="115.47157863102726"><ele>1529.2961414614692</ele><time>2023-10-04T01:32:35Z</time></trkpt><trkpt lat="-8.353374391194231" lon="115.47139596927734"><ele>1526.8403974054381</ele><time>2023-10-04T01:32:53Z</time></trkpt><trkpt lat="-8.353424811510752" lon="115.47121221972544"><ele>1520.4631781186908</ele><time>2023-10-04T01:33:13Z</time></trkpt><trkpt lat="-8.353447649184996" lon="115.47102998293558"><ele>1513.8735108096153</ele><time>2023-10-04T01:33:37Z</time></trkpt><trkpt lat="-8.353529654742424" lon="115.47085599845353"><ele>1509.5385115649551</ele><time>2023-10-04T01:33:57Z</time></trkpt><trkpt lat="-8.353392510888828" lon="115.47073657315867"><ele>1504.3946689767763</ele><time>2023-10-04T01:34:33Z</time></trkpt><trkpt lat="-8.353348765468724" lon="115.47055960051047"><ele>1498.4019356714562</ele><time>2023-10-04T01:35:07Z</time></trkpt><trkpt lat="-8.353349081018079" lon="115.47037405943485"><ele>1492.7640536651015</ele><time>2023-10-04T01:35:26Z</time></trkpt><trkpt lat="-8.353410494963699" lon="115.47019832639431"><ele>1484.9419362423941</ele><time>2023-10-04T01:35:44Z</time></trkpt><trkpt lat="-8.353446241056279" lon="115.47001569621796"><ele>1479.6313695013523</ele><time>2023-10-04T01:36:09Z</time></trkpt><trkpt lat="-8.353498236795945" lon="115.46982640720513"><ele>1475.5504550300539</ele><time>2023-10-04T01:36:31Z</time></trkpt><trkpt lat="-8.35352636877816" lon="115.46964354629623"><ele>1468.670379803516</ele><time>2023-10-04T01:36:53Z</time></trkpt><trkpt lat="-8.353624408749734" lon="115.46948198396525"><ele>1464.6799159534276</ele><time>2023-10-04T01:37:08Z</time></trkpt><trkpt lat="-8.35372589356445" lon="115.46933055072367"><ele>1460.1331442175433</ele><time>2023-10-04T01:37:28Z</time></trkpt><trkpt lat="-8.353859266606545" lon="115.46920663318481"><ele>1453.5195306548849</ele><time>2023-10-04T01:37:55Z</time></trkpt><trkpt lat="-8.353922864392416" lon="115.46903545265896"><ele>1447.3058366021141</ele><time>2023-10-04T01:38:19Z</time></trkpt><trkpt lat="-8.354032759277338" lon="115.4688774243347"><ele>1440.356675537303</ele><time>2023-10-04T01:38:41Z</time></trkpt><trkpt lat="-8.354180986999452" lon="115.46875372076646"><ele>1433.4605574021116</ele><time>2023-10-04T01:39:05Z</time></trkpt><trkpt lat="-8.354215522507138" lon="115.46853655545694"><ele>1427.3747145924717</ele><time>2023-10-04T01:39:50Z</time></trkpt><trkpt lat="-8.354310527139003" lon="115.46837336301228"><ele>1420.3973990734667</ele><time>2023-10-04T01:40:11Z</time></trkpt><trkpt lat="-8.354434770202275" lon="115.46816750909811"><ele>1414.8008966371417</ele><time>2023-10-04T01:40:28Z</time></trkpt><trkpt lat="-8.354536055377103" lon="115.46801564083182"><ele>1409.0199380833656</ele><time>2023-10-04T01:40:45Z</time></trkpt><trkpt lat="-8.354645432112456" lon="115.4678698797408"><ele>1403.9055580915883</ele><time>2023-10-04T01:41:02Z</time></trkpt><trkpt lat="-8.354745905269041" lon="115.46771288727204"><ele>1399.9058998618275</ele><time>2023-10-04T01:41:22Z</time></trkpt><trkpt lat="-8.354853609245191" lon="115.4675618919259"><ele>1394.4162059733644</ele><time>2023-10-04T01:41:43Z</time></trkpt><trkpt lat="-8.354891223318068" lon="115.46738256204625"><ele>1391.6858505764976</ele><time>2023-10-04T01:42:02Z</time></trkpt><trkpt lat="-8.35498914570581" lon="115.46722774681298"><ele>1385.642259397544</ele><time>2023-10-04T01:42:21Z</time></trkpt><trkpt lat="-8.355064081345688" lon="115.46705948102826"><ele>1384.4883322874084</ele><time>2023-10-04T01:42:34Z</time></trkpt><trkpt lat="-8.355221403458703" lon="115.4669500275165"><ele>1383.257178763859</ele><time>2023-10-04T01:42:45Z</time></trkpt><trkpt lat="-8.35535348425443" lon="115.46682144338145"><ele>1382.1636571297422</ele><time>2023-10-04T01:42:58Z</time></trkpt><trkpt lat="-8.355517411680188" lon="115.46673700126297"><ele>1379.9182104822248</ele><time>2023-10-04T01:43:11Z</time></trkpt><trkpt lat="-8.35566682845167" lon="115.46663133690654"><ele>1376.1828214926645</ele><time>2023-10-04T01:43:25Z</time></trkpt><trkpt lat="-8.355859251252149" lon="115.46659308927251"><ele>1367.5304879685864</ele><time>2023-10-04T01:43:45Z</time></trkpt><trkpt lat="-8.356031799870062" lon="115.4665298045838"><ele>1358.4159384705126</ele><time>2023-10-04T01:44:06Z</time></trkpt><trkpt lat="-8.356150532775128" lon="115.46639230014732"><ele>1354.534083158709</ele><time>2023-10-04T01:44:26Z</time></trkpt><trkpt lat="-8.356230289816455" lon="115.46622673463145"><ele>1351.71692890767</ele><time>2023-10-04T01:44:40Z</time></trkpt><trkpt lat="-8.356346275822329" lon="115.46608449263479"><ele>1347.1425899630412</ele><time>2023-10-04T01:44:53Z</time></trkpt><trkpt lat="-8.356531919640107" lon="115.46603201011854"><ele>1343.2494963565841</ele><time>2023-10-04T01:45:15Z</time></trkpt><trkpt lat="-8.356687227946109" lon="115.46592934277395"><ele>1337.1605605110526</ele><time>2023-10-04T01:45:34Z</time></trkpt><trkpt lat="-8.356839031079385" lon="115.46579617574464"><ele>1329.5171991996467</ele><time>2023-10-04T01:46:00Z</time></trkpt><trkpt lat="-8.356966470996413" lon="115.46566606737588"><ele>1321.6606446644291</ele><time>2023-10-04T01:46:18Z</time></trkpt><trkpt lat="-8.357070409193522" lon="115.46551146336583"><ele>1316.0648990245536</ele><time>2023-10-04T01:46:38Z</time></trkpt><trkpt lat="-8.357142994725912" lon="115.46568555633121"><ele>1313.7009014394134</ele><time>2023-10-04T01:47:02Z</time></trkpt><trkpt lat="-8.357317761896704" lon="115.46562094477585"><ele>1306.4097174657509</ele><time>2023-10-04T01:47:31Z</time></trkpt><trkpt lat="-8.357460221012827" lon="115.46549147312636"><ele>1301.7273460775614</ele><time>2023-10-04T01:47:46Z</time></trkpt><trkpt lat="-8.357582070016974" lon="115.46535511228225"><ele>1297.8773318603635</ele><time>2023-10-04T01:48:00Z</time></trkpt><trkpt lat="-8.357667683013075" lon="115.46519000476162"><ele>1292.5293303988874</ele><time>2023-10-04T01:48:15Z</time></trkpt><trkpt lat="-8.35779108678515" lon="115.46504586565815"><ele>1286.972480575554</ele><time>2023-10-04T01:48:37Z</time></trkpt><trkpt lat="-8.357939158578576" lon="115.46493015711228"><ele>1281.6878999173641</ele><time>2023-10-04T01:48:50Z</time></trkpt><trkpt lat="-8.358050291083146" lon="115.4647796921951"><ele>1277.321630592458</ele><time>2023-10-04T01:49:08Z</time></trkpt><trkpt lat="-8.35816309746145" lon="115.46463369032206"><ele>1275.0199310276657</ele><time>2023-10-04T01:49:20Z</time></trkpt><trkpt lat="-8.358248408977804" lon="115.46447213277192"><ele>1268.2466564066708</ele><time>2023-10-04T01:49:35Z</time></trkpt><trkpt lat="-8.358318761619238" lon="115.46429397956031"><ele>1265.222095633857</ele><time>2023-10-04T01:49:49Z</time></trkpt><trkpt lat="-8.358418962904436" lon="115.4641346239895"><ele>1260.5128031894565</ele><time>2023-10-04T01:50:03Z</time></trkpt><trkpt lat="-8.358520786840513" lon="115.46398380846216"><ele>1258.7131364243105</ele><time>2023-10-04T01:50:16Z</time></trkpt><trkpt lat="-8.35864817589233" lon="115.4638390193535"><ele>1256.4572658501565</ele><time>2023-10-04T01:50:30Z</time></trkpt><trkpt lat="-8.358780037519594" lon="115.46370488550991"><ele>1252.2391973678023</ele><time>2023-10-04T01:50:45Z</time></trkpt><trkpt lat="-8.358900350900443" lon="115.46356866610878"><ele>1252.8493671612814</ele><time>2023-10-04T01:50:59Z</time></trkpt><trkpt lat="-8.359037932150317" lon="115.46343671163183"><ele>1248.3071575853974</ele><time>2023-10-04T01:51:15Z</time></trkpt><trkpt lat="-8.359208573767415" lon="115.46335970934007"><ele>1247.5971318949014</ele><time>2023-10-04T01:51:27Z</time></trkpt><trkpt lat="-8.359319297143783" lon="115.4632022149835"><ele>1244.6615271605551</ele><time>2023-10-04T01:51:42Z</time></trkpt><trkpt lat="-8.35940655249865" lon="115.46304281992924"><ele>1243.1456277193502</ele><time>2023-10-04T01:51:56Z</time></trkpt><trkpt lat="-8.359526159407247" lon="115.46290663416067"><ele>1243.0269331866875</ele><time>2023-10-04T01:52:09Z</time></trkpt><trkpt lat="-8.359566167682951" lon="115.46287695608765"><ele>1241.4353205477819</ele><time>2023-10-04T01:52:13Z</time></trkpt><trkpt lat="-8.359751957536101" lon="115.46285680887715"><ele>1240.663078124635</ele><time>2023-10-04T01:52:28Z</time></trkpt><trkpt lat="-8.35992743299745" lon="115.46281249259418"><ele>1240.2725361026824</ele><time>2023-10-04T01:52:43Z</time></trkpt><trkpt lat="-8.360107457662378" lon="115.46274414951088"><ele>1237.0396180814132</ele><time>2023-10-04T01:52:58Z</time></trkpt><trkpt lat="-8.360250703998245" lon="115.46260261918927"><ele>1213.5518798828125</ele><time>2023-10-04T01:53:20Z</time></trkpt><trkpt lat="-8.36038804148171" lon="115.4624752980801"><ele>1208.4423828125</ele><time>2023-10-04T01:53:31Z</time></trkpt><trkpt lat="-8.360483957735537" lon="115.46232044539458"><ele>1239.7250501923263</ele><time>2023-10-04T01:53:44Z</time></trkpt><trkpt lat="-8.360659091777114" lon="115.46223825824653"><ele>1233.3609515689313</ele><time>2023-10-04T01:53:58Z</time></trkpt><trkpt lat="-8.360844593604927" lon="115.46226556070906"><ele>1219.3276380319148</ele><time>2023-10-04T01:54:11Z</time></trkpt><trkpt lat="-8.36099074061765" lon="115.46238285139161"><ele>1214.5748701216653</ele><time>2023-10-04T01:54:30Z</time></trkpt><trkpt lat="-8.361153993645141" lon="115.46247148207799"><ele>1209.6916982177645</ele><time>2023-10-04T01:54:49Z</time></trkpt><trkpt lat="-8.361336437069301" lon="115.46244449974489"><ele>1206.9936370262876</ele><time>2023-10-04T01:55:04Z</time></trkpt><trkpt lat="-8.361511841912233" lon="115.46237455980886"><ele>1198.474154648371</ele><time>2023-10-04T01:55:23Z</time></trkpt><trkpt lat="-8.361698313877787" lon="115.46234987269878"><ele>1192.266792290844</ele><time>2023-10-04T01:55:38Z</time></trkpt><trkpt lat="-8.361890826697024" lon="115.46232279034038"><ele>1188.6673182444647</ele><time>2023-10-04T01:55:54Z</time></trkpt><trkpt lat="-8.362076766175482" lon="115.46226569760802"><ele>1185.82462421339</ele><time>2023-10-04T01:56:07Z</time></trkpt><trkpt lat="-8.362263683365581" lon="115.46226014160673"><ele>1181.271509683691</ele><time>2023-10-04T01:56:20Z</time></trkpt><trkpt lat="-8.36245569185448" lon="115.46224887534518"><ele>1178.5608138814569</ele><time>2023-10-04T01:56:36Z</time></trkpt><trkpt lat="-8.362625541628097" lon="115.46217596283721"><ele>1177.6796944588423</ele><time>2023-10-04T01:56:51Z</time></trkpt><trkpt lat="-8.362724353164285" lon="115.46202388445522"><ele>1177.58164009545</ele><time>2023-10-04T01:57:05Z</time></trkpt><trkpt lat="-8.362863980622837" lon="115.4619044547339"><ele>1172.0392672093585</ele><time>2023-10-04T01:57:19Z</time></trkpt><trkpt lat="-8.363009487677985" lon="115.46179583669661"><ele>1168.1771750049666</ele><time>2023-10-04T01:57:31Z</time></trkpt><trkpt lat="-8.363120925456188" lon="115.46163460275072"><ele>1166.976301830262</ele><time>2023-10-04T01:57:52Z</time></trkpt><trkpt lat="-8.363261292056924" lon="115.46151132537094"><ele>1169.8476021923125</ele><time>2023-10-04T01:58:08Z</time></trkpt><trkpt lat="-8.363411858070497" lon="115.46140477777458"><ele>1167.4738734727725</ele><time>2023-10-04T01:58:25Z</time></trkpt><trkpt lat="-8.363528261505996" lon="115.4612581316544"><ele>1169.4645525300875</ele><time>2023-10-04T01:58:40Z</time></trkpt></trkseg></trk></gpx>