<?xml version='1.0' encoding='UTF-8'?><gpx creator="YAMAP - https://yamap.com" xsi:schemaLocation="http://www.topografix.com/GPX/1/1 http://www.topografix.com/GPX/1/1/gpx.xsd" version="1.1" xmlns="http://www.topografix.com/GPX/1/1" xmlns:xsi="http://www.w3.org/2001/XMLSchema-instance"><metadata><bounds maxlat="33.77072324002752" maxlon="133.14771132849745" minlat="33.75400500526114" minlon="133.11313059960628"/></metadata><trk><name>石鎚山・天狗岳</name><number>1</number><trkseg><trkpt lat="33.75400500526114" lon="133.14703936910612"><ele>1490.4043279942125</ele><time>2023-05-02T00:24:19Z</time></trkpt><trkpt lat="33.75419150362659" lon="133.1470785265961"><ele>1489.5837866319343</ele><time>2023-05-02T00:24:37Z</time></trkpt><trkpt lat="33.75436813499547" lon="133.14712750794004"><ele>1490.9932217234746</ele><time>2023-05-02T00:24:57Z</time></trkpt><trkpt lat="33.75453960734753" lon="133.14720510610937"><ele>1491.186868510209</ele><time>2023-05-02T00:25:12Z</time></trkpt><trkpt lat="33.75469644645433" lon="133.1473312183471"><ele>1492.0863478025422</ele><time>2023-05-02T00:25:30Z</time></trkpt><trkpt lat="33.75486882550803" lon="133.14741631391948"><ele>1490.7473528152332</ele><time>2023-05-02T00:25:51Z</time></trkpt><trkpt lat="33.75500358316647" lon="133.14756424884263"><ele>1491.8928278889507</ele><time>2023-05-02T00:26:10Z</time></trkpt><trkpt lat="33.755160950458546" lon="133.14767156444452"><ele>1492.6204998129979</ele><time>2023-05-02T00:26:43Z</time></trkpt><trkpt lat="33.755347774091945" lon="133.14764805017253"><ele>1499.9390464890748</ele><time>2023-05-02T00:37:19Z</time></trkpt><trkpt lat="33.75523720537306" lon="133.14771132849745"><ele>1499.6242725765333</ele><time>2023-05-02T00:37:45Z</time></trkpt><trkpt lat="33.755363996771294" lon="133.14752518378285"><ele>1500.5143327610567</ele><time>2023-05-02T00:38:54Z</time></trkpt><trkpt lat="33.75524008372283" lon="133.14768738865334"><ele>1497.0441066008061</ele><time>2023-05-02T00:39:46Z</time></trkpt><trkpt lat="33.75513837330081" lon="133.1474533159497"><ele>1498.433337208815</ele><time>2023-05-02T00:40:25Z</time></trkpt><trkpt lat="33.75523128371623" lon="133.1474688285388"><ele>1498.807152598165</ele><time>2023-05-02T00:42:14Z</time></trkpt><trkpt lat="33.755425281936326" lon="133.14753065882073"><ele>1496.2488399092108</ele><time>2023-05-02T00:47:22Z</time></trkpt><trkpt lat="33.75521755240325" lon="133.1477055781122"><ele>1496.9650719631463</ele><time>2023-05-02T00:47:23Z</time></trkpt><trkpt lat="33.755396934302965" lon="133.1476750460434"><ele>1497.433328091167</ele><time>2023-05-02T00:49:25Z</time></trkpt><trkpt lat="33.755210951710545" lon="133.1476757228209"><ele>1492.8418473899364</ele><time>2023-05-02T00:49:37Z</time></trkpt><trkpt lat="33.75519065875229" lon="133.14762399764783"><ele>1496.2274867650121</ele><time>2023-05-02T00:52:00Z</time></trkpt><trkpt lat="33.75519065875229" lon="133.14762399764783"><ele>1496.2274867650121</ele><time>2023-05-02T00:52:02Z</time></trkpt><trkpt lat="33.755259565699454" lon="133.14741598873326"><ele>1493.7471506725997</ele><time>2023-05-02T00:53:03Z</time></trkpt><trkpt lat="33.7553341540221" lon="133.14721147356002"><ele>1492.9993758546188</ele><time>2023-05-02T00:53:25Z</time></trkpt><trkpt lat="33.75540361824624" lon="133.14700094002143"><ele>1494.7760971989483</ele><time>2023-05-02T00:53:43Z</time></trkpt><trkpt lat="33.75549410965726" lon="133.14680815046162"><ele>1496.7862289976329</ele><time>2023-05-02T00:53:59Z</time></trkpt><trkpt lat="33.75558748664134" lon="133.14661874134268"><ele>1496.6099284878</ele><time>2023-05-02T00:54:16Z</time></trkpt><trkpt lat="33.75573900486062" lon="133.1464856863874"><ele>1499.0504350876436</ele><time>2023-05-02T00:54:35Z</time></trkpt><trkpt lat="33.75591557176347" lon="133.14638743239001"><ele>1496.1821875749156</ele><time>2023-05-02T00:54:51Z</time></trkpt><trkpt lat="33.756091643246606" lon="133.1463252494962"><ele>1494.0561921009794</ele><time>2023-05-02T00:55:09Z</time></trkpt><trkpt lat="33.756278873307835" lon="133.14630223822917"><ele>1490.877215567045</ele><time>2023-05-02T00:55:26Z</time></trkpt><trkpt lat="33.75644760903991" lon="133.14621851499624"><ele>1491.5805207034573</ele><time>2023-05-02T00:55:44Z</time></trkpt><trkpt lat="33.75654931142035" lon="133.1460267022304"><ele>1500.9407724626362</ele><time>2023-05-02T00:56:11Z</time></trkpt><trkpt lat="33.75661595853068" lon="133.14581556926922"><ele>1507.3422864163294</ele><time>2023-05-02T00:56:34Z</time></trkpt><trkpt lat="33.75672683876779" lon="133.14563675808287"><ele>1506.764251078479</ele><time>2023-05-02T00:56:56Z</time></trkpt><trkpt lat="33.756811040683225" lon="133.1454444372916"><ele>1509.1109101241454</ele><time>2023-05-02T00:57:19Z</time></trkpt><trkpt lat="33.75689049875431" lon="133.14524087345956"><ele>1512.0595509083942</ele><time>2023-05-02T00:57:38Z</time></trkpt><trkpt lat="33.757000786345024" lon="133.1450578564903"><ele>1510.4105962403119</ele><time>2023-05-02T00:57:56Z</time></trkpt><trkpt lat="33.75709372570717" lon="133.14485959476525"><ele>1512.149859258905</ele><time>2023-05-02T00:58:14Z</time></trkpt><trkpt lat="33.75715931799148" lon="133.14465855817036"><ele>1510.2342526819557</ele><time>2023-05-02T00:58:32Z</time></trkpt><trkpt lat="33.75723636651355" lon="133.14445328893598"><ele>1507.2202717615291</ele><time>2023-05-02T00:58:52Z</time></trkpt><trkpt lat="33.75730459546349" lon="133.14425230621114"><ele>1504.1415512561798</ele><time>2023-05-02T00:59:10Z</time></trkpt><trkpt lat="33.75732290198172" lon="133.14402349129347"><ele>1503.4716496886685</ele><time>2023-05-02T00:59:29Z</time></trkpt><trkpt lat="33.75734287803863" lon="133.14380312321123"><ele>1502.0239123832434</ele><time>2023-05-02T00:59:51Z</time></trkpt><trkpt lat="33.75738643736171" lon="133.1435784237688"><ele>1504.9239042960107</ele><time>2023-05-02T01:00:18Z</time></trkpt><trkpt lat="33.757410260248896" lon="133.14334433237963"><ele>1508.4251436758786</ele><time>2023-05-02T01:00:39Z</time></trkpt><trkpt lat="33.7574222798265" lon="133.1431251373022"><ele>1512.1671713395044</ele><time>2023-05-02T01:01:01Z</time></trkpt><trkpt lat="33.757439386983386" lon="133.1429051749152"><ele>1513.7573086926714</ele><time>2023-05-02T01:01:31Z</time></trkpt><trkpt lat="33.7575236168216" lon="133.14270152219336"><ele>1518.333973412402</ele><time>2023-05-02T01:01:58Z</time></trkpt><trkpt lat="33.757617624484446" lon="133.14249538428905"><ele>1521.7590832682326</ele><time>2023-05-02T01:07:17Z</time></trkpt><trkpt lat="33.75772103749522" lon="133.1423071659893"><ele>1518.9976773895323</ele><time>2023-05-02T01:07:35Z</time></trkpt><trkpt lat="33.757790616500415" lon="133.14209068371255"><ele>1520.7897607730702</ele><time>2023-05-02T01:07:58Z</time></trkpt><trkpt lat="33.757863156810544" lon="133.1418911486339"><ele>1518.9801720101386</ele><time>2023-05-02T01:08:18Z</time></trkpt><trkpt lat="33.757913119109176" lon="133.14167858301101"><ele>1520.083274080418</ele><time>2023-05-02T01:08:44Z</time></trkpt><trkpt lat="33.75795546403363" lon="133.14145990708667"><ele>1520.2524184780195</ele><time>2023-05-02T01:09:02Z</time></trkpt><trkpt lat="33.7580321299355" lon="133.14125311845146"><ele>1520.2006875192747</ele><time>2023-05-02T01:09:24Z</time></trkpt><trkpt lat="33.758082826562145" lon="133.1410307315326"><ele>1522.6762129571289</ele><time>2023-05-02T01:09:43Z</time></trkpt><trkpt lat="33.75817493523874" lon="133.14083984552775"><ele>1521.6328481379896</ele><time>2023-05-02T01:10:01Z</time></trkpt><trkpt lat="33.758266531270074" lon="133.140642915896"><ele>1516.184854414314</ele><time>2023-05-02T01:10:20Z</time></trkpt><trkpt lat="33.7583623143892" lon="133.14045686672105"><ele>1512.8929382357746</ele><time>2023-05-02T01:10:39Z</time></trkpt><trkpt lat="33.75846421339846" lon="133.14026706516512"><ele>1513.5646293032914</ele><time>2023-05-02T01:11:03Z</time></trkpt><trkpt lat="33.758612029741975" lon="133.1401283974552"><ele>1515.0894299298525</ele><time>2023-05-02T01:11:17Z</time></trkpt><trkpt lat="33.75874236095601" lon="133.13997453640698"><ele>1515.3873584428802</ele><time>2023-05-02T01:11:35Z</time></trkpt><trkpt lat="33.75883277278037" lon="133.13978233845665"><ele>1512.6563524007797</ele><time>2023-05-02T01:12:05Z</time></trkpt><trkpt lat="33.758914284667675" lon="133.13958908553266"><ele>1512.7990319505334</ele><time>2023-05-02T01:12:23Z</time></trkpt><trkpt lat="33.759091715998316" lon="133.13954012483632"><ele>1518.8358028270304</ele><time>2023-05-02T01:12:42Z</time></trkpt><trkpt lat="33.759262042562405" lon="133.1394671669958"><ele>1521.133135376498</ele><time>2023-05-02T01:13:03Z</time></trkpt><trkpt lat="33.759448681283914" lon="133.13940670180736"><ele>1518.9592001745477</ele><time>2023-05-02T01:13:24Z</time></trkpt><trkpt lat="33.759624427486216" lon="133.13932899431094"><ele>1517.7476030802354</ele><time>2023-05-02T01:13:43Z</time></trkpt><trkpt lat="33.759796612498356" lon="133.13926452059468"><ele>1516.001834217459</ele><time>2023-05-02T01:14:02Z</time></trkpt><trkpt lat="33.75997035338477" lon="133.13919336505833"><ele>1514.5258678495884</ele><time>2023-05-02T01:14:19Z</time></trkpt><trkpt lat="33.76014912014745" lon="133.13916228033509"><ele>1514.1586033646017</ele><time>2023-05-02T01:14:38Z</time></trkpt><trkpt lat="33.76033816521815" lon="133.1391335578697"><ele>1513.7603211635724</ele><time>2023-05-02T01:15:00Z</time></trkpt><trkpt lat="33.76051413365953" lon="133.13906575264505"><ele>1515.240544299595</ele><time>2023-05-02T01:15:23Z</time></trkpt><trkpt lat="33.760666551617746" lon="133.13893921284952"><ele>1519.4758010366932</ele><time>2023-05-02T01:15:54Z</time></trkpt><trkpt lat="33.76077759057182" lon="133.13876202034294"><ele>1521.583961462602</ele><time>2023-05-02T01:16:22Z</time></trkpt><trkpt lat="33.760892033892915" lon="133.1385907847313"><ele>1523.7344380281866</ele><time>2023-05-02T01:16:45Z</time></trkpt><trkpt lat="33.76105501183157" lon="133.13849119050928"><ele>1524.3095721499994</ele><time>2023-05-02T01:17:03Z</time></trkpt><trkpt lat="33.76118720213592" lon="133.13832722157096"><ele>1524.812585347332</ele><time>2023-05-02T01:17:26Z</time></trkpt><trkpt lat="33.76132244829359" lon="133.13818282163368"><ele>1523.693361041136</ele><time>2023-05-02T01:17:49Z</time></trkpt><trkpt lat="33.76144383461479" lon="133.13801919307394"><ele>1522.5119359744713</ele><time>2023-05-02T01:18:07Z</time></trkpt><trkpt lat="33.761544401057336" lon="133.1378272803248"><ele>1526.834159154445</ele><time>2023-05-02T01:19:13Z</time></trkpt><trkpt lat="33.761628774646624" lon="133.13762376981515"><ele>1527.3260792400688</ele><time>2023-05-02T01:19:54Z</time></trkpt><trkpt lat="33.76173984004424" lon="133.13743391185577"><ele>1528.6685637775809</ele><time>2023-05-02T01:20:17Z</time></trkpt><trkpt lat="33.76174377934019" lon="133.13721699288791"><ele>1527.562817220576</ele><time>2023-05-02T01:20:40Z</time></trkpt><trkpt lat="33.76172020366136" lon="133.13700097929228"><ele>1524.5758386841044</ele><time>2023-05-02T01:21:23Z</time></trkpt><trkpt lat="33.761726810899795" lon="133.13678390229163"><ele>1523.5782684506848</ele><time>2023-05-02T01:21:55Z</time></trkpt><trkpt lat="33.76165348373601" lon="133.13658431507372"><ele>1526.0805202974007</ele><time>2023-05-02T01:22:29Z</time></trkpt><trkpt lat="33.76180343370257" lon="133.13644235666942"><ele>1520.6414159517735</ele><time>2023-05-02T01:23:17Z</time></trkpt><trkpt lat="33.761792761060896" lon="133.1362089153748"><ele>1525.8695378350094</ele><time>2023-05-02T01:23:48Z</time></trkpt><trkpt lat="33.7617754694316" lon="133.13598632397142"><ele>1529.2573836445808</ele><time>2023-05-02T01:24:18Z</time></trkpt><trkpt lat="33.76181609578706" lon="133.13576995482805"><ele>1535.6981155965477</ele><time>2023-05-02T01:24:57Z</time></trkpt><trkpt lat="33.761858587887595" lon="133.13553673625748"><ele>1536.9436127096415</ele><time>2023-05-02T01:25:27Z</time></trkpt><trkpt lat="33.76189591414446" lon="133.13531564352178"><ele>1540.3676215065643</ele><time>2023-05-02T01:26:01Z</time></trkpt><trkpt lat="33.762011793825124" lon="133.1351386251101"><ele>1545.7072872063145</ele><time>2023-05-02T01:26:38Z</time></trkpt><trkpt lat="33.76213208959085" lon="133.13496702942598"><ele>1542.9731238698587</ele><time>2023-05-02T01:27:05Z</time></trkpt><trkpt lat="33.76231603935076" lon="133.13487778682526"><ele>1543.2468618853018</ele><time>2023-05-02T01:27:27Z</time></trkpt><trkpt lat="33.762463337617056" lon="133.13474126338363"><ele>1545.0347391925752</ele><time>2023-05-02T01:27:55Z</time></trkpt><trkpt lat="33.7626010660084" lon="133.13459711485046"><ele>1547.863731100224</ele><time>2023-05-02T01:28:19Z</time></trkpt><trkpt lat="33.76272895843932" lon="133.13444023425848"><ele>1551.8521654410288</ele><time>2023-05-02T01:28:47Z</time></trkpt><trkpt lat="33.76281069339803" lon="133.13424428103013"><ele>1555.4355020942166</ele><time>2023-05-02T01:29:51Z</time></trkpt><trkpt lat="33.76295198775429" lon="133.1341095064275"><ele>1557.3891101041809</ele><time>2023-05-02T01:30:20Z</time></trkpt><trkpt lat="33.76300868355973" lon="133.13406161856471"><ele>1557.2882209671661</ele><time>2023-05-02T01:30:29Z</time></trkpt><trkpt lat="33.76316633915724" lon="133.13394605117372"><ele>1554.7149678561836</ele><time>2023-05-02T01:32:45Z</time></trkpt><trkpt lat="33.76335024552506" lon="133.1339379322913"><ele>1554.77489559073</ele><time>2023-05-02T01:33:00Z</time></trkpt><trkpt lat="33.76353757909289" lon="133.13396635974405"><ele>1555.0977399731055</ele><time>2023-05-02T01:33:14Z</time></trkpt><trkpt lat="33.76371325020759" lon="133.13389486373163"><ele>1560.4727609744295</ele><time>2023-05-02T01:33:38Z</time></trkpt><trkpt lat="33.763854936679316" lon="133.13375134218282"><ele>1559.1784907057881</ele><time>2023-05-02T01:34:18Z</time></trkpt><trkpt lat="33.764006236018496" lon="133.13363098954568"><ele>1563.2492668572813</ele><time>2023-05-02T01:34:38Z</time></trkpt><trkpt lat="33.7641158577764" lon="133.13345123289423"><ele>1568.718704259023</ele><time>2023-05-02T01:35:08Z</time></trkpt><trkpt lat="33.764215266810766" lon="133.13327081233604"><ele>1571.3453412670642</ele><time>2023-05-02T01:35:41Z</time></trkpt><trkpt lat="33.76433518550277" lon="133.1331072378232"><ele>1576.9256497304887</ele><time>2023-05-02T01:37:16Z</time></trkpt><trkpt lat="33.76446387254033" lon="133.13295473547785"><ele>1584.7403942234814</ele><time>2023-05-02T01:37:50Z</time></trkpt><trkpt lat="33.76459093799751" lon="133.13278873183208"><ele>1586.048988361843</ele><time>2023-05-02T01:38:21Z</time></trkpt><trkpt lat="33.76470464907473" lon="133.13261701568996"><ele>1593.2661938006058</ele><time>2023-05-02T01:38:55Z</time></trkpt><trkpt lat="33.764823073886504" lon="133.13245115996892"><ele>1596.4116832809523</ele><time>2023-05-02T01:39:29Z</time></trkpt><trkpt lat="33.76495067913606" lon="133.13229791840521"><ele>1599.2991336788982</ele><time>2023-05-02T01:40:19Z</time></trkpt><trkpt lat="33.76499916402169" lon="133.13208930193574"><ele>1603.600191292353</ele><time>2023-05-02T01:41:04Z</time></trkpt><trkpt lat="33.76490848909313" lon="133.1318958351816"><ele>1605.0642181066796</ele><time>2023-05-02T01:42:30Z</time></trkpt><trkpt lat="33.764804985317284" lon="133.13171148153438"><ele>1613.1995838256553</ele><time>2023-05-02T01:43:46Z</time></trkpt><trkpt lat="33.76479169254169" lon="133.13149427061018"><ele>1619.7330571953207</ele><time>2023-05-02T01:44:18Z</time></trkpt><trkpt lat="33.76482040665902" lon="133.13127771299267"><ele>1626.4003391955048</ele><time>2023-05-02T01:44:49Z</time></trkpt><trkpt lat="33.76480525629355" lon="133.13105480906268"><ele>1631.0885153347626</ele><time>2023-05-02T01:45:23Z</time></trkpt><trkpt lat="33.764886470187825" lon="133.13084578805717"><ele>1631.1951395617798</ele><time>2023-05-02T01:54:50Z</time></trkpt><trkpt lat="33.76491387868742" lon="133.13062916716652"><ele>1627.4043771717697</ele><time>2023-05-02T01:55:53Z</time></trkpt><trkpt lat="33.76498805430642" lon="133.13042506397173"><ele>1632.277474067174</ele><time>2023-05-02T01:56:17Z</time></trkpt><trkpt lat="33.76508882118764" lon="133.13024101796864"><ele>1633.6756811719388</ele><time>2023-05-02T01:56:37Z</time></trkpt><trkpt lat="33.76520589073931" lon="133.13007622738348"><ele>1632.1940847653896</ele><time>2023-05-02T01:56:59Z</time></trkpt><trkpt lat="33.7652967181901" lon="133.12988200809016"><ele>1633.8806114187464</ele><time>2023-05-02T01:57:31Z</time></trkpt><trkpt lat="33.76538138751354" lon="133.12968910686385"><ele>1632.0809007044882</ele><time>2023-05-02T01:57:52Z</time></trkpt><trkpt lat="33.76541422681101" lon="133.1294734484026"><ele>1634.4018373740837</ele><time>2023-05-02T01:58:13Z</time></trkpt><trkpt lat="33.76541390533493" lon="133.12925503544832"><ele>1634.058932670392</ele><time>2023-05-02T01:58:47Z</time></trkpt><trkpt lat="33.76539728199684" lon="133.1290384038648"><ele>1644.4095894685015</ele><time>2023-05-02T01:59:21Z</time></trkpt><trkpt lat="33.7654449193556" lon="133.12882728354157"><ele>1647.1223105452955</ele><time>2023-05-02T02:00:27Z</time></trkpt><trkpt lat="33.76546695728533" lon="133.12861293232618"><ele>1653.8509994316846</ele><time>2023-05-02T02:00:53Z</time></trkpt><trkpt lat="33.76543713742138" lon="133.12839233179812"><ele>1649.127087614499</ele><time>2023-05-02T02:01:24Z</time></trkpt><trkpt lat="33.76542967805499" lon="133.12816655996932"><ele>1659.7615511454642</ele><time>2023-05-02T02:02:10Z</time></trkpt><trkpt lat="33.76549255106065" lon="133.12795097023226"><ele>1670.792566630058</ele><time>2023-05-02T02:02:49Z</time></trkpt><trkpt lat="33.76559026776717" lon="133.12776253105088"><ele>1672.0383270103484</ele><time>2023-05-02T02:03:11Z</time></trkpt><trkpt lat="33.76569322019879" lon="133.12758168446618"><ele>1652.1124599399045</ele><time>2023-05-02T02:04:00Z</time></trkpt><trkpt lat="33.76577233474425" lon="133.12738684673786"><ele>1645.9987358096987</ele><time>2023-05-02T02:04:33Z</time></trkpt><trkpt lat="33.76584624042209" lon="133.12718463201188"><ele>1648.2347233025357</ele><time>2023-05-02T02:04:54Z</time></trkpt><trkpt lat="33.7658980290142" lon="133.1269680875878"><ele>1645.533784831874</ele><time>2023-05-02T02:05:14Z</time></trkpt><trkpt lat="33.76601429334085" lon="133.1267949805907"><ele>1646.0095612704754</ele><time>2023-05-02T02:06:32Z</time></trkpt><trkpt lat="33.76616873378626" lon="133.1266811548663"><ele>1641.8113139057532</ele><time>2023-05-02T02:06:48Z</time></trkpt><trkpt lat="33.76632450376759" lon="133.1265648192558"><ele>1643.0861752955243</ele><time>2023-05-02T02:07:05Z</time></trkpt><trkpt lat="33.76644669675274" lon="133.1264027669695"><ele>1642.3891655737534</ele><time>2023-05-02T02:07:31Z</time></trkpt><trkpt lat="33.76655557562369" lon="133.12621573795795"><ele>1639.0464710788801</ele><time>2023-05-02T02:07:54Z</time></trkpt><trkpt lat="33.76663380075462" lon="133.12602040612722"><ele>1646.202496850863</ele><time>2023-05-02T02:08:13Z</time></trkpt><trkpt lat="33.7666993270216" lon="133.12581686497322"><ele>1644.8909292565659</ele><time>2023-05-02T02:08:54Z</time></trkpt><trkpt lat="33.7666261058509" lon="133.12561606798639"><ele>1644.3502716626972</ele><time>2023-05-02T02:09:31Z</time></trkpt><trkpt lat="33.766716497481156" lon="133.12542299327183"><ele>1641.4289703313261</ele><time>2023-05-02T02:09:56Z</time></trkpt><trkpt lat="33.766814194303045" lon="133.12523798869742"><ele>1642.314995962195</ele><time>2023-05-02T02:10:29Z</time></trkpt><trkpt lat="33.7668652214218" lon="133.12502332667881"><ele>1646.193174039945</ele><time>2023-05-02T02:10:52Z</time></trkpt><trkpt lat="33.76691964795487" lon="133.12481746274915"><ele>1647.2433457756415</ele><time>2023-05-02T02:11:22Z</time></trkpt><trkpt lat="33.766971593687806" lon="133.12460406503132"><ele>1649.9394580554217</ele><time>2023-05-02T02:11:56Z</time></trkpt><trkpt lat="33.7670508944903" lon="133.12439944023168"><ele>1647.7201887993142</ele><time>2023-05-02T02:12:22Z</time></trkpt><trkpt lat="33.767079622440114" lon="133.12418005538223"><ele>1649.5272574108094</ele><time>2023-05-02T02:12:44Z</time></trkpt><trkpt lat="33.767149703718964" lon="133.1239775634261"><ele>1649.3782326700166</ele><time>2023-05-02T02:13:11Z</time></trkpt><trkpt lat="33.767008591577856" lon="133.12383176613784"><ele>1656.7352311899886</ele><time>2023-05-02T02:14:07Z</time></trkpt><trkpt lat="33.7669579573541" lon="133.12361420360088"><ele>1662.1795792048797</ele><time>2023-05-02T02:14:59Z</time></trkpt><trkpt lat="33.76683966722732" lon="133.12344527398957"><ele>1665.7034606989473</ele><time>2023-05-02T02:15:18Z</time></trkpt><trkpt lat="33.766714861398974" lon="133.1232797587142"><ele>1666.269221602939</ele><time>2023-05-02T02:15:47Z</time></trkpt><trkpt lat="33.766684389614994" lon="133.12306382741284"><ele>1664.910515954718</ele><time>2023-05-02T02:16:11Z</time></trkpt><trkpt lat="33.76669424020674" lon="133.12283626233253"><ele>1663.408010984771</ele><time>2023-05-02T02:18:29Z</time></trkpt><trkpt lat="33.76663390982531" lon="133.12262821851525"><ele>1658.7477474305779</ele><time>2023-05-02T02:19:13Z</time></trkpt><trkpt lat="33.7666387380983" lon="133.1223856349735"><ele>1656.8264696374536</ele><time>2023-05-02T02:19:37Z</time></trkpt><trkpt lat="33.76667987959661" lon="133.12217220873538"><ele>1657.7189950710163</ele><time>2023-05-02T02:19:58Z</time></trkpt><trkpt lat="33.76676090877683" lon="133.12197353000863"><ele>1656.175616800785</ele><time>2023-05-02T02:20:18Z</time></trkpt><trkpt lat="33.766836641169256" lon="133.12177089636785"><ele>1655.0936306491494</ele><time>2023-05-02T02:20:38Z</time></trkpt><trkpt lat="33.76692299073898" lon="133.12157722503298"><ele>1654.9071279503405</ele><time>2023-05-02T02:21:05Z</time></trkpt><trkpt lat="33.767033341515315" lon="133.1213956246541"><ele>1655.7749813925475</ele><time>2023-05-02T02:21:39Z</time></trkpt><trkpt lat="33.76714737679957" lon="133.12122504842117"><ele>1654.0736185237765</ele><time>2023-05-02T02:22:10Z</time></trkpt><trkpt lat="33.7672464174382" lon="133.12103209477107"><ele>1656.155410952866</ele><time>2023-05-02T02:22:49Z</time></trkpt><trkpt lat="33.76727216598311" lon="133.12081426860607"><ele>1660.715001010336</ele><time>2023-05-02T02:23:28Z</time></trkpt><trkpt lat="33.76741876827586" lon="133.12068371753188"><ele>1671.3792184153572</ele><time>2023-05-02T02:24:05Z</time></trkpt><trkpt lat="33.7675824616085" lon="133.12059302581284"><ele>1673.1511540161446</ele><time>2023-05-02T02:24:35Z</time></trkpt><trkpt lat="33.767690438273746" lon="133.12041714693805"><ele>1674.3462261883542</ele><time>2023-05-02T02:25:08Z</time></trkpt><trkpt lat="33.76785141464781" lon="133.12028521010066"><ele>1673.0908695459366</ele><time>2023-05-02T02:25:58Z</time></trkpt><trkpt lat="33.76802493778525" lon="133.12020827380894"><ele>1682.3524094447494</ele><time>2023-05-02T02:26:41Z</time></trkpt><trkpt lat="33.76815474276368" lon="133.12004784542015"><ele>1679.405159426853</ele><time>2023-05-02T02:27:26Z</time></trkpt><trkpt lat="33.76806081028509" lon="133.11985905113386"><ele>1675.1970351794735</ele><time>2023-05-02T02:27:54Z</time></trkpt><trkpt lat="33.76796893884005" lon="133.1196707841068"><ele>1674.3057985249907</ele><time>2023-05-02T02:28:21Z</time></trkpt><trkpt lat="33.76789669787913" lon="133.11946603064547"><ele>1674.4441508119926</ele><time>2023-05-02T02:28:40Z</time></trkpt><trkpt lat="33.76797069070443" lon="133.11926825247053"><ele>1676.8353904718533</ele><time>2023-05-02T02:29:27Z</time></trkpt><trkpt lat="33.76808277698614" lon="133.1190955922431"><ele>1673.7976362295449</ele><time>2023-05-02T02:30:09Z</time></trkpt><trkpt lat="33.768053100813056" lon="133.11909016156915"><ele>1675.9033371135592</ele><time>2023-05-02T02:30:17Z</time></trkpt><trkpt lat="33.768059942910426" lon="133.1188698939154"><ele>1674.3966462593526</ele><time>2023-05-02T02:30:43Z</time></trkpt><trkpt lat="33.76810790134378" lon="133.1186528174887"><ele>1676.6723959138617</ele><time>2023-05-02T02:31:18Z</time></trkpt><trkpt lat="33.768115973578155" lon="133.11843484918862"><ele>1677.3330569127575</ele><time>2023-05-02T02:31:54Z</time></trkpt><trkpt lat="33.768242425465154" lon="133.11826779423458"><ele>1677.8817704413086</ele><time>2023-05-02T02:32:36Z</time></trkpt><trkpt lat="33.76836089060067" lon="133.11809972529565"><ele>1680.1521096108481</ele><time>2023-05-02T02:33:10Z</time></trkpt><trkpt lat="33.7683683921142" lon="133.11787608742733"><ele>1678.0251626260579</ele><time>2023-05-02T02:33:37Z</time></trkpt><trkpt lat="33.76853454862297" lon="133.1177819338267"><ele>1684.7230807533488</ele><time>2023-05-02T02:34:36Z</time></trkpt><trkpt lat="33.76867473714251" lon="133.11764552054953"><ele>1691.2155715301633</ele><time>2023-05-02T02:35:59Z</time></trkpt><trkpt lat="33.76853223922067" lon="133.1175090741757"><ele>1698.1492279013619</ele><time>2023-05-02T02:37:22Z</time></trkpt><trkpt lat="33.7687165611174" lon="133.11749692148004"><ele>1706.5356720564887</ele><time>2023-05-02T02:37:55Z</time></trkpt><trkpt lat="33.76884249577409" lon="133.1173370073971"><ele>1705.2896854765713</ele><time>2023-05-02T02:38:55Z</time></trkpt><trkpt lat="33.768898718619475" lon="133.11713023067338"><ele>1706.5792661923915</ele><time>2023-05-02T02:39:23Z</time></trkpt><trkpt lat="33.768922219898805" lon="133.11690466604892"><ele>1712.7544326223433</ele><time>2023-05-02T02:40:09Z</time></trkpt><trkpt lat="33.76888052559834" lon="133.11669431916965"><ele>1710.917608750984</ele><time>2023-05-02T02:40:54Z</time></trkpt><trkpt lat="33.76895407089091" lon="133.11661178477527"><ele>1720.9891518792138</ele><time>2023-05-02T02:41:23Z</time></trkpt><trkpt lat="33.76912637416905" lon="133.11654279961675"><ele>1726.5685944948345</ele><time>2023-05-02T02:42:06Z</time></trkpt><trkpt lat="33.769289127372296" lon="133.11643538440072"><ele>1732.7056983094662</ele><time>2023-05-02T02:44:28Z</time></trkpt><trkpt lat="33.76933301428511" lon="133.1162131465572"><ele>1728.6967977620661</ele><time>2023-05-02T02:45:08Z</time></trkpt><trkpt lat="33.76937799374344" lon="133.11600251144756"><ele>1738.9632392916828</ele><time>2023-05-02T02:45:53Z</time></trkpt><trkpt lat="33.76941185880634" lon="133.1157811758207"><ele>1740.45491653122</ele><time>2023-05-02T02:46:33Z</time></trkpt><trkpt lat="33.76941847928835" lon="133.11555982554088"><ele>1741.7424181392416</ele><time>2023-05-02T02:47:21Z</time></trkpt><trkpt lat="33.769579088366164" lon="133.1154279426627"><ele>1746.9102117223665</ele><time>2023-05-02T02:48:12Z</time></trkpt><trkpt lat="33.769759270633735" lon="133.11544570256368"><ele>1765.9307315973565</ele><time>2023-05-02T02:49:25Z</time></trkpt><trkpt lat="33.76993608853537" lon="133.1153689775018"><ele>1762.7572169713676</ele><time>2023-05-02T02:52:08Z</time></trkpt><trkpt lat="33.77012367942851" lon="133.11530435547442"><ele>1768.9579547997564</ele><time>2023-05-02T02:53:00Z</time></trkpt><trkpt lat="33.770283141261515" lon="133.11519759393113"><ele>1774.418110231869</ele><time>2023-05-02T02:53:44Z</time></trkpt><trkpt lat="33.77042817280336" lon="133.11506556985876"><ele>1774.3055986557156</ele><time>2023-05-02T02:54:28Z</time></trkpt><trkpt lat="33.77059347358064" lon="133.1149684050239"><ele>1783.5756740234792</ele><time>2023-05-02T02:55:07Z</time></trkpt><trkpt lat="33.77054555622901" lon="133.11475203164267"><ele>1786.712474306114</ele><time>2023-05-02T02:57:08Z</time></trkpt><trkpt lat="33.77051460116641" lon="133.11467131638398"><ele>1795.3886805167422</ele><time>2023-05-02T03:00:06Z</time></trkpt><trkpt lat="33.77072324002752" lon="133.11463669784905"><ele>1794.5256675332785</ele><time>2023-05-02T03:03:37Z</time></trkpt><trkpt lat="33.77063623002134" lon="133.11454529056607"><ele>1794.3246603049338</ele><time>2023-05-02T03:03:40Z</time></trkpt><trkpt lat="33.77047272322572" lon="133.11463776920792"><ele>1795.9831686178222</ele><time>2023-05-02T03:06:17Z</time></trkpt><trkpt lat="33.77049313740982" lon="133.114414173868"><ele>1799.7696724841371</ele><time>2023-05-02T03:15:59Z</time></trkpt><trkpt lat="33.77058189589535" lon="133.11421998866223"><ele>1799.7709207674488</ele><time>2023-05-02T03:16:18Z</time></trkpt><trkpt lat="33.77063135487436" lon="133.1140117104286"><ele>1804.8151746233925</ele><time>2023-05-02T03:16:55Z</time></trkpt><trkpt lat="33.77055142896072" lon="133.11381783838465"><ele>1816.0459980722517</ele><time>2023-05-02T03:18:16Z</time></trkpt><trkpt lat="33.77050300111826" lon="133.11360453124038"><ele>1823.0919353207573</ele><time>2023-05-02T03:18:58Z</time></trkpt><trkpt lat="33.7704137977148" lon="133.11341222072994"><ele>1830.4904320985079</ele><time>2023-05-02T03:21:08Z</time></trkpt><trkpt lat="33.770256012646435" lon="133.11330523006166"><ele>1839.8742144983262</ele><time>2023-05-02T03:22:13Z</time></trkpt><trkpt lat="33.77017740189467" lon="133.113453163143"><ele>1855.1575278071687</ele><time>2023-05-02T03:23:56Z</time></trkpt><trkpt lat="33.770107156411534" lon="133.1136622068081"><ele>1859.696566492319</ele><time>2023-05-02T03:25:02Z</time></trkpt><trkpt lat="33.769989226755314" lon="133.11384225807612"><ele>1868.7294102190062</ele><time>2023-05-02T03:28:04Z</time></trkpt><trkpt lat="33.76984808099218" lon="133.11398356522557"><ele>1867.752531696111</ele><time>2023-05-02T03:28:31Z</time></trkpt><trkpt lat="33.76981147259135" lon="133.1141956195783"><ele>1876.7089394461364</ele><time>2023-05-02T03:30:14Z</time></trkpt><trkpt lat="33.76972711823465" lon="133.11399870999986"><ele>1884.3830027831718</ele><time>2023-05-02T03:32:05Z</time></trkpt><trkpt lat="33.7695489169777" lon="133.1139604739493"><ele>1897.6957818334922</ele><time>2023-05-02T03:33:02Z</time></trkpt><trkpt lat="33.76942043287136" lon="133.1138089445528"><ele>1914.656012294814</ele><time>2023-05-02T03:39:02Z</time></trkpt><trkpt lat="33.76925576003674" lon="133.11371773138157"><ele>1924.0714418077841</ele><time>2023-05-02T03:44:20Z</time></trkpt><trkpt lat="33.76910567300094" lon="133.11359592559742"><ele>1936.4444250846282</ele><time>2023-05-02T03:46:48Z</time></trkpt><trkpt lat="33.768930470073045" lon="133.11364798841117"><ele>1959.4486629031599</ele><time>2023-05-02T03:48:03Z</time></trkpt><trkpt lat="33.76877523192307" lon="133.1137766884992"><ele>1971.7860876014456</ele><time>2023-05-02T03:55:32Z</time></trkpt><trkpt lat="33.76866389382677" lon="133.1139506725892"><ele>1945.9376411680132</ele><time>2023-05-02T03:56:56Z</time></trkpt><trkpt lat="33.76855547989043" lon="133.11414768244703"><ele>1946.3187380479649</ele><time>2023-05-02T03:58:06Z</time></trkpt><trkpt lat="33.76843856009915" lon="133.1143155021906"><ele>1952.7957729045302</ele><time>2023-05-02T03:59:04Z</time></trkpt><trkpt lat="33.768322520293445" lon="133.11456964078727"><ele>1956.786188101396</ele><time>2023-05-02T04:02:10Z</time></trkpt><trkpt lat="33.76817006154584" lon="133.1146876196772"><ele>1966.4748644819483</ele><time>2023-05-02T04:03:43Z</time></trkpt><trkpt lat="33.76806264491263" lon="133.11486146158398"><ele>1978.4831133047119</ele><time>2023-05-02T04:13:19Z</time></trkpt><trkpt lat="33.76794414696027" lon="133.11503415914336"><ele>1976.806753299199</ele><time>2023-05-02T04:16:38Z</time></trkpt><trkpt lat="33.76799366719805" lon="133.11481681757382"><ele>1979.9434212241322</ele><time>2023-05-02T04:32:48Z</time></trkpt><trkpt lat="33.76816377438553" lon="133.1147314683365"><ele>1967.5409533567727</ele><time>2023-05-02T04:34:06Z</time></trkpt><trkpt lat="33.768271068259345" lon="133.1145572496856"><ele>1958.3491444513202</ele><time>2023-05-02T04:36:55Z</time></trkpt><trkpt lat="33.768360927421696" lon="133.11436589883348"><ele>1962.7935229660943</ele><time>2023-05-02T04:41:06Z</time></trkpt><trkpt lat="33.76851680721451" lon="133.1142341601809"><ele>1949.9843304967508</ele><time>2023-05-02T04:43:48Z</time></trkpt><trkpt lat="33.768621683975944" lon="133.1140537112598"><ele>1948.7788683036342</ele><time>2023-05-02T04:44:09Z</time></trkpt><trkpt lat="33.76873626990147" lon="133.11388031989478"><ele>1947.7796698957682</ele><time>2023-05-02T04:45:05Z</time></trkpt><trkpt lat="33.7689067283826" lon="133.11379347110588"><ele>1966.557137674652</ele><time>2023-05-02T04:47:29Z</time></trkpt><trkpt lat="33.76894087755428" lon="133.11357632783574"><ele>1969.6650915620849</ele><time>2023-05-02T04:51:42Z</time></trkpt><trkpt lat="33.769088920862984" lon="133.11342514547619"><ele>1959.7632089667022</ele><time>2023-05-02T05:39:56Z</time></trkpt><trkpt lat="33.76918673130147" lon="133.11323807822177"><ele>1951.8720058910549</ele><time>2023-05-02T05:40:13Z</time></trkpt><trkpt lat="33.76918590085714" lon="133.11322645387287"><ele>1954.0430027293041</ele><time>2023-05-02T05:40:27Z</time></trkpt><trkpt lat="33.7693489882975" lon="133.11313059960628"><ele>1943.9837754266337</ele><time>2023-05-02T05:42:45Z</time></trkpt><trkpt lat="33.76940716186763" lon="133.11334957282568"><ele>1916.1791762150824</ele><time>2023-05-02T05:44:28Z</time></trkpt><trkpt lat="33.769472110160265" lon="133.11355110165536"><ele>1912.2136922329664</ele><time>2023-05-02T05:45:06Z</time></trkpt><trkpt lat="33.76966175584155" lon="133.11352050753283"><ele>1898.4592948378995</ele><time>2023-05-02T05:46:15Z</time></trkpt><trkpt lat="33.769702671978216" lon="133.11373757369606"><ele>1893.6132723297924</ele><time>2023-05-02T05:47:13Z</time></trkpt><trkpt lat="33.769686071814924" lon="133.11396199659947"><ele>1889.210665486753</ele><time>2023-05-02T05:47:47Z</time></trkpt><trkpt lat="33.76974164277169" lon="133.11417020599285"><ele>1886.4034953042865</ele><time>2023-05-02T05:48:26Z</time></trkpt><trkpt lat="33.76988120659127" lon="133.11403296906434"><ele>1870.2499514287338</ele><time>2023-05-02T05:49:44Z</time></trkpt><trkpt lat="33.769974229394045" lon="133.11384378544486"><ele>1867.20775037352</ele><time>2023-05-02T05:50:25Z</time></trkpt><trkpt lat="33.77013841554226" lon="133.1137480360491"><ele>1864.8502007583156</ele><time>2023-05-02T05:50:58Z</time></trkpt><trkpt lat="33.77012900139664" lon="133.1135238448642"><ele>1857.633406803012</ele><time>2023-05-02T05:51:43Z</time></trkpt><trkpt lat="33.77021389363966" lon="133.11333295560928"><ele>1849.0153776798397</ele><time>2023-05-02T05:52:51Z</time></trkpt><trkpt lat="33.77039374461381" lon="133.11340170483774"><ele>1835.1345665371045</ele><time>2023-05-02T05:53:46Z</time></trkpt><trkpt lat="33.77049506431793" lon="133.1135814149111"><ele>1828.397573322989</ele><time>2023-05-02T05:55:05Z</time></trkpt><trkpt lat="33.77048676505834" lon="133.1138023821243"><ele>1820.6004588557407</ele><time>2023-05-02T05:55:29Z</time></trkpt><trkpt lat="33.770578661418426" lon="133.1139991906194"><ele>1811.4440246047452</ele><time>2023-05-02T05:56:15Z</time></trkpt><trkpt lat="33.77056983012443" lon="133.1142152273115"><ele>1807.9168138215318</ele><time>2023-05-02T05:56:56Z</time></trkpt><trkpt lat="33.77046571666665" lon="133.1144074110201"><ele>1805.2832616660744</ele><time>2023-05-02T05:57:22Z</time></trkpt><trkpt lat="33.770414580286825" lon="133.11462301662243"><ele>1798.8765156827867</ele><time>2023-05-02T05:57:47Z</time></trkpt><trkpt lat="33.77059520296467" lon="133.11467352174387"><ele>1798.1743947453797</ele><time>2023-05-02T05:59:54Z</time></trkpt><trkpt lat="33.770637934759066" lon="133.11488513511893"><ele>1794.3219686625525</ele><time>2023-05-02T06:07:55Z</time></trkpt><trkpt lat="33.77047193737068" lon="133.11499055985732"><ele>1786.5751804634929</ele><time>2023-05-02T06:08:43Z</time></trkpt><trkpt lat="33.770344065013596" lon="133.1151481600431"><ele>1781.3622756302357</ele><time>2023-05-02T06:09:20Z</time></trkpt><trkpt lat="33.77017629862548" lon="133.1152374203244"><ele>1776.4887871742249</ele><time>2023-05-02T06:09:55Z</time></trkpt><trkpt lat="33.77001485358998" lon="133.11533516404222"><ele>1772.978792771697</ele><time>2023-05-02T06:10:32Z</time></trkpt><trkpt lat="33.76982977312518" lon="133.11537134607192"><ele>1768.3216329142451</ele><time>2023-05-02T06:11:06Z</time></trkpt><trkpt lat="33.76965898514609" lon="133.11544326565874"><ele>1761.6247476274148</ele><time>2023-05-02T06:11:52Z</time></trkpt><trkpt lat="33.76948845123577" lon="133.11552166643688"><ele>1758.8792028715834</ele><time>2023-05-02T06:12:37Z</time></trkpt><trkpt lat="33.769391532826106" lon="133.1157228482943"><ele>1746.175836299546</ele><time>2023-05-02T06:13:21Z</time></trkpt><trkpt lat="33.76937504377747" lon="133.1159394906666"><ele>1746.6662429207936</ele><time>2023-05-02T06:13:48Z</time></trkpt><trkpt lat="33.76935335035451" lon="133.11616201124096"><ele>1738.8164846040308</ele><time>2023-05-02T06:14:27Z</time></trkpt><trkpt lat="33.769299359288915" lon="133.11637019153386"><ele>1734.8740278929472</ele><time>2023-05-02T06:14:55Z</time></trkpt><trkpt lat="33.76913841072131" lon="133.11648135248913"><ele>1731.7518422864377</ele><time>2023-05-02T06:15:23Z</time></trkpt><trkpt lat="33.768973494012855" lon="133.11657042262846"><ele>1727.7856615968049</ele><time>2023-05-02T06:15:59Z</time></trkpt><trkpt lat="33.768882274471856" lon="133.11675967421033"><ele>1723.4174631824717</ele><time>2023-05-02T06:16:42Z</time></trkpt><trkpt lat="33.768872042520876" lon="133.1169926841428"><ele>1713.2671803021803</ele><time>2023-05-02T06:17:30Z</time></trkpt><trkpt lat="33.768857596499494" lon="133.11721342018296"><ele>1708.9128281073645</ele><time>2023-05-02T06:18:01Z</time></trkpt><trkpt lat="33.76877223092461" lon="133.11740777346535"><ele>1708.7302310122177</ele><time>2023-05-02T06:18:23Z</time></trkpt><trkpt lat="33.76859860394087" lon="133.1174699695071"><ele>1707.0914920074865</ele><time>2023-05-02T06:19:05Z</time></trkpt><trkpt lat="33.76858826467242" lon="133.1176949008415"><ele>1696.055825047195</ele><time>2023-05-02T06:20:24Z</time></trkpt><trkpt lat="33.768416334864064" lon="133.11776882161206"><ele>1691.1830050749704</ele><time>2023-05-02T06:20:59Z</time></trkpt><trkpt lat="33.768337098656566" lon="133.11796352041856"><ele>1685.6839287709445</ele><time>2023-05-02T06:21:23Z</time></trkpt><trkpt lat="33.76829690658153" lon="133.11817452309137"><ele>1681.041470952332</ele><time>2023-05-02T06:21:49Z</time></trkpt><trkpt lat="33.768167728109084" lon="133.11833419857862"><ele>1682.1715356484056</ele><time>2023-05-02T06:22:14Z</time></trkpt><trkpt lat="33.76808904273638" lon="133.1185303950584"><ele>1681.686767430976</ele><time>2023-05-02T06:22:42Z</time></trkpt><trkpt lat="33.76805800019886" lon="133.11875324483427"><ele>1680.8249205807224</ele><time>2023-05-02T06:23:07Z</time></trkpt><trkpt lat="33.76807163925948" lon="133.11897664063315"><ele>1680.0598748335615</ele><time>2023-05-02T06:23:30Z</time></trkpt><trkpt lat="33.768002127176224" lon="133.11918340220817"><ele>1679.9243434062228</ele><time>2023-05-02T06:23:58Z</time></trkpt><trkpt lat="33.76789873961047" lon="133.1193816796544"><ele>1680.4831715691835</ele><time>2023-05-02T06:24:32Z</time></trkpt><trkpt lat="33.76792645333262" lon="133.11960619813487"><ele>1680.727218392305</ele><time>2023-05-02T06:25:00Z</time></trkpt><trkpt lat="33.76801811211292" lon="133.11979915264325"><ele>1681.36924081482</ele><time>2023-05-02T06:25:20Z</time></trkpt><trkpt lat="33.76810478723367" lon="133.11999649263248"><ele>1680.912974291481</ele><time>2023-05-02T06:25:44Z</time></trkpt><trkpt lat="33.76799504445157" lon="133.12019392903642"><ele>1684.3726877635345</ele><time>2023-05-02T06:26:19Z</time></trkpt><trkpt lat="33.76783857140342" lon="133.12032160530987"><ele>1676.5031361868605</ele><time>2023-05-02T06:26:45Z</time></trkpt><trkpt lat="33.76767339896382" lon="133.1204196403713"><ele>1677.9197287801653</ele><time>2023-05-02T06:27:11Z</time></trkpt><trkpt lat="33.767544617129175" lon="133.12057093243348"><ele>1675.3859114972875</ele><time>2023-05-02T06:27:41Z</time></trkpt><trkpt lat="33.76752833425942" lon="133.12058319462773"><ele>1674.40942074731</ele><time>2023-05-02T06:27:44Z</time></trkpt><trkpt lat="33.76736285828532" lon="133.12068902599745"><ele>1676.1469210581854</ele><time>2023-05-02T06:28:09Z</time></trkpt><trkpt lat="33.76724126074678" lon="133.12085320051037"><ele>1671.5660350797698</ele><time>2023-05-02T06:28:36Z</time></trkpt><trkpt lat="33.76720296063411" lon="133.1210929305686"><ele>1662.5378245478496</ele><time>2023-05-02T06:29:09Z</time></trkpt><trkpt lat="33.76709573360404" lon="133.121278434875"><ele>1657.927311738953</ele><time>2023-05-02T06:29:37Z</time></trkpt><trkpt lat="33.76700516628053" lon="133.12146571442332"><ele>1656.4808459747583</ele><time>2023-05-02T06:30:11Z</time></trkpt><trkpt lat="33.76688702313209" lon="133.1216379165305"><ele>1658.7319853734225</ele><time>2023-05-02T06:30:30Z</time></trkpt><trkpt lat="33.76682877637189" lon="133.12185697819504"><ele>1659.1197668667883</ele><time>2023-05-02T06:30:51Z</time></trkpt><trkpt lat="33.76673972443044" lon="133.12204682941828"><ele>1659.5490907495841</ele><time>2023-05-02T06:31:14Z</time></trkpt><trkpt lat="33.7666590900733" lon="133.12224864281987"><ele>1659.3533114325255</ele><time>2023-05-02T06:31:34Z</time></trkpt><trkpt lat="33.76663758114026" lon="133.12246362159905"><ele>1659.6107624396682</ele><time>2023-05-02T06:31:53Z</time></trkpt><trkpt lat="33.76664339124559" lon="133.12268188537666"><ele>1660.5065952548757</ele><time>2023-05-02T06:32:12Z</time></trkpt><trkpt lat="33.76667107646592" lon="133.1228984794418"><ele>1660.486907236278</ele><time>2023-05-02T06:32:34Z</time></trkpt><trkpt lat="33.766663036746536" lon="133.1231239756733"><ele>1662.6025961115956</ele><time>2023-05-02T06:33:04Z</time></trkpt><trkpt lat="33.766704236787476" lon="133.12333907433145"><ele>1666.097626445815</ele><time>2023-05-02T06:33:20Z</time></trkpt><trkpt lat="33.76682048256706" lon="133.12351132853792"><ele>1665.8054576953873</ele><time>2023-05-02T06:33:37Z</time></trkpt><trkpt lat="33.766957225882095" lon="133.12365781266655"><ele>1664.8421935271472</ele><time>2023-05-02T06:34:02Z</time></trkpt><trkpt lat="33.76700009918424" lon="133.12387639566577"><ele>1663.6513248495758</ele><time>2023-05-02T06:34:20Z</time></trkpt><trkpt lat="33.76709428596401" lon="133.12406478353336"><ele>1660.2148376936093</ele><time>2023-05-02T06:34:43Z</time></trkpt><trkpt lat="33.767081816257146" lon="133.1242921789128"><ele>1648.9220770820975</ele><time>2023-05-02T06:35:32Z</time></trkpt><trkpt lat="33.76702807251687" lon="133.12449894828086"><ele>1648.313195122406</ele><time>2023-05-02T06:35:59Z</time></trkpt><trkpt lat="33.76697527139201" lon="133.1247076071297"><ele>1649.8680880414322</ele><time>2023-05-02T06:36:24Z</time></trkpt><trkpt lat="33.76690596386744" lon="133.12490853166986"><ele>1646.947654538788</ele><time>2023-05-02T06:36:43Z</time></trkpt><trkpt lat="33.76686130455616" lon="133.125121476852"><ele>1645.6127766473219</ele><time>2023-05-02T06:37:04Z</time></trkpt><trkpt lat="33.76676883509415" lon="133.12531010274134"><ele>1647.5570241706446</ele><time>2023-05-02T06:37:21Z</time></trkpt><trkpt lat="33.766675406851014" lon="133.1255107690416"><ele>1646.9409850239754</ele><time>2023-05-02T06:37:49Z</time></trkpt><trkpt lat="33.76663835542268" lon="133.12572959521728"><ele>1650.6380954254419</ele><time>2023-05-02T06:38:11Z</time></trkpt><trkpt lat="33.76664102899625" lon="133.12594997537286"><ele>1648.2876356001943</ele><time>2023-05-02T06:38:37Z</time></trkpt><trkpt lat="33.76660179759382" lon="133.12616177223646"><ele>1649.828986919485</ele><time>2023-05-02T06:39:04Z</time></trkpt><trkpt lat="33.766491063965816" lon="133.12633983325796"><ele>1646.4744156915694</ele><time>2023-05-02T06:39:25Z</time></trkpt><trkpt lat="33.76638415319598" lon="133.12652225835387"><ele>1644.8839985504746</ele><time>2023-05-02T06:39:51Z</time></trkpt><trkpt lat="33.76624224914005" lon="133.12666357104268"><ele>1651.9457013364881</ele><time>2023-05-02T06:40:12Z</time></trkpt><trkpt lat="33.76607050223246" lon="133.12674573841113"><ele>1651.1009746585041</ele><time>2023-05-02T06:40:38Z</time></trkpt><trkpt lat="33.765945852132845" lon="133.1269080828692"><ele>1652.1405400009826</ele><time>2023-05-02T06:41:05Z</time></trkpt><trkpt lat="33.7658677640926" lon="133.12710319900523"><ele>1650.2298533814028</ele><time>2023-05-02T06:41:29Z</time></trkpt><trkpt lat="33.765817782084014" lon="133.12732129771925"><ele>1649.7972793625668</ele><time>2023-05-02T06:41:52Z</time></trkpt><trkpt lat="33.76571296334141" lon="133.1275137650783"><ele>1648.6027877889574</ele><time>2023-05-02T06:42:19Z</time></trkpt><trkpt lat="33.765676635479586" lon="133.12773203855977"><ele>1658.1095737693831</ele><time>2023-05-02T06:43:01Z</time></trkpt><trkpt lat="33.76553871988765" lon="133.12787133078314"><ele>1668.153262656182</ele><time>2023-05-02T06:43:38Z</time></trkpt><trkpt lat="33.76545449852252" lon="133.12806712308006"><ele>1665.6245258785784</ele><time>2023-05-02T06:44:00Z</time></trkpt><trkpt lat="33.76540482825956" lon="133.12827728143392"><ele>1663.2482415307313</ele><time>2023-05-02T06:44:17Z</time></trkpt><trkpt lat="33.76545763269054" lon="133.1284903317594"><ele>1654.0967823993415</ele><time>2023-05-02T06:44:52Z</time></trkpt><trkpt lat="33.76546642625406" lon="133.12871161481195"><ele>1651.161968426779</ele><time>2023-05-02T06:45:35Z</time></trkpt><trkpt lat="33.76544891577477" lon="133.12893485587276"><ele>1648.523716823198</ele><time>2023-05-02T06:46:00Z</time></trkpt><trkpt lat="33.765397026770756" lon="133.1291454942122"><ele>1645.5597082050517</ele><time>2023-05-02T06:46:23Z</time></trkpt><trkpt lat="33.76539605711205" lon="133.12936209808512"><ele>1638.0476808678359</ele><time>2023-05-02T06:46:50Z</time></trkpt><trkpt lat="33.76540970301273" lon="133.12957831385947"><ele>1634.9660276984796</ele><time>2023-05-02T06:47:11Z</time></trkpt><trkpt lat="33.76535256747626" lon="133.12980008170786"><ele>1636.0749971251935</ele><time>2023-05-02T06:47:34Z</time></trkpt><trkpt lat="33.76524326180467" lon="133.12997335610282"><ele>1635.238892905414</ele><time>2023-05-02T06:47:55Z</time></trkpt><trkpt lat="33.765154078544" lon="133.1301679660532"><ele>1631.9191537396982</ele><time>2023-05-02T06:48:16Z</time></trkpt><trkpt lat="33.765035406974626" lon="133.1303320371686"><ele>1636.3699759431183</ele><time>2023-05-02T06:48:36Z</time></trkpt><trkpt lat="33.764946054012974" lon="133.13052237142185"><ele>1638.149963970296</ele><time>2023-05-02T06:48:58Z</time></trkpt><trkpt lat="33.76494563014086" lon="133.1307472003766"><ele>1632.6248293472454</ele><time>2023-05-02T06:49:27Z</time></trkpt><trkpt lat="33.76484384273901" lon="133.13092932661485"><ele>1632.0492546707392</ele><time>2023-05-02T06:52:07Z</time></trkpt><trkpt lat="33.76482619599717" lon="133.13115020714758"><ele>1629.149940454401</ele><time>2023-05-02T06:52:50Z</time></trkpt><trkpt lat="33.764835704951565" lon="133.13136646014652"><ele>1627.2003485709429</ele><time>2023-05-02T06:53:20Z</time></trkpt><trkpt lat="33.764791631897594" lon="133.13157956166748"><ele>1621.7864737454802</ele><time>2023-05-02T06:53:51Z</time></trkpt><trkpt lat="33.76481879543086" lon="133.1317954820008"><ele>1614.7849059524015</ele><time>2023-05-02T06:54:23Z</time></trkpt><trkpt lat="33.764916333530465" lon="133.13197703401323"><ele>1608.4907325347885</ele><time>2023-05-02T06:55:01Z</time></trkpt><trkpt lat="33.765004233956226" lon="133.1321749997116"><ele>1604.0122878132388</ele><time>2023-05-02T06:55:29Z</time></trkpt><trkpt lat="33.7649360249071" lon="133.13238502203902"><ele>1599.843804336153</ele><time>2023-05-02T06:55:59Z</time></trkpt><trkpt lat="33.76481117109289" lon="133.1325433172843"><ele>1597.5288092559204</ele><time>2023-05-02T06:56:28Z</time></trkpt><trkpt lat="33.764688586008994" lon="133.132707220631"><ele>1595.391174506396</ele><time>2023-05-02T06:56:57Z</time></trkpt><trkpt lat="33.764558718433335" lon="133.13286793872425"><ele>1589.7977099698037</ele><time>2023-05-02T06:57:28Z</time></trkpt><trkpt lat="33.76442637310693" lon="133.1330152301609"><ele>1584.1265929751098</ele><time>2023-05-02T06:57:59Z</time></trkpt><trkpt lat="33.76430326374186" lon="133.1331750696996"><ele>1578.7380082421005</ele><time>2023-05-02T06:58:30Z</time></trkpt><trkpt lat="33.764185624134704" lon="133.13334205610872"><ele>1573.350699622184</ele><time>2023-05-02T06:59:03Z</time></trkpt><trkpt lat="33.76408744602115" lon="133.1335353349993"><ele>1571.0265238685533</ele><time>2023-05-02T06:59:26Z</time></trkpt><trkpt lat="33.763943314089175" lon="133.13367516297623"><ele>1569.7149238819256</ele><time>2023-05-02T06:59:51Z</time></trkpt><trkpt lat="33.76381218359822" lon="133.13382610201361"><ele>1567.8000566894189</ele><time>2023-05-02T07:00:12Z</time></trkpt><trkpt lat="33.76366785464273" lon="133.13397325371787"><ele>1565.3755641719326</ele><time>2023-05-02T07:00:35Z</time></trkpt><trkpt lat="33.763476458909196" lon="133.13396657658257"><ele>1559.5094462465495</ele><time>2023-05-02T07:01:34Z</time></trkpt><trkpt lat="33.763292232977456" lon="133.13395201240058"><ele>1564.095269662328</ele><time>2023-05-02T07:01:54Z</time></trkpt><trkpt lat="33.76311734550802" lon="133.13400573008502"><ele>1565.3864584220573</ele><time>2023-05-02T07:02:13Z</time></trkpt><trkpt lat="33.76295638454332" lon="133.13412700610291"><ele>1560.993028880097</ele><time>2023-05-02T07:02:35Z</time></trkpt><trkpt lat="33.762789625513754" lon="133.13421494998352"><ele>1560.324645737186</ele><time>2023-05-02T07:02:49Z</time></trkpt><trkpt lat="33.762722750978156" lon="133.13443184715135"><ele>1560.0983057543635</ele><time>2023-05-02T07:03:06Z</time></trkpt><trkpt lat="33.762612552249436" lon="133.13460312162366"><ele>1556.0002042045817</ele><time>2023-05-02T07:03:21Z</time></trkpt><trkpt lat="33.76246719621589" lon="133.1347370686736"><ele>1554.0842060586438</ele><time>2023-05-02T07:03:40Z</time></trkpt><trkpt lat="33.762308461652765" lon="133.13484787717283"><ele>1547.7614440647885</ele><time>2023-05-02T07:04:07Z</time></trkpt><trkpt lat="33.76214032967394" lon="133.1349434142234"><ele>1547.08584845718</ele><time>2023-05-02T07:04:30Z</time></trkpt><trkpt lat="33.76201032149364" lon="133.13509553217432"><ele>1545.0133419623598</ele><time>2023-05-02T07:04:58Z</time></trkpt><trkpt lat="33.76190026614376" lon="133.1352709411539"><ele>1546.3659648448229</ele><time>2023-05-02T07:05:33Z</time></trkpt><trkpt lat="33.761830789117326" lon="133.13547185260768"><ele>1545.000768196769</ele><time>2023-05-02T07:06:03Z</time></trkpt><trkpt lat="33.7618242251905" lon="133.1356931759705"><ele>1540.2548259207979</ele><time>2023-05-02T07:06:41Z</time></trkpt><trkpt lat="33.76175047218035" lon="133.1358999186129"><ele>1539.6994235953316</ele><time>2023-05-02T07:07:09Z</time></trkpt><trkpt lat="33.76178948995206" lon="133.13612164792139"><ele>1532.6669579772279</ele><time>2023-05-02T07:07:52Z</time></trkpt><trkpt lat="33.76180988194981" lon="133.13634221859715"><ele>1531.1590422606096</ele><time>2023-05-02T07:08:13Z</time></trkpt><trkpt lat="33.76165210866912" lon="133.13645367609155"><ele>1521.9165546549484</ele><time>2023-05-02T07:08:51Z</time></trkpt><trkpt lat="33.76166730301977" lon="133.13667639858687"><ele>1529.8191470503807</ele><time>2023-05-02T07:09:23Z</time></trkpt><trkpt lat="33.76173836210586" lon="133.1368819121265"><ele>1529.9613426113501</ele><time>2023-05-02T07:09:43Z</time></trkpt><trkpt lat="33.76170740021944" lon="133.13709891353196"><ele>1528.8062671963125</ele><time>2023-05-02T07:10:05Z</time></trkpt><trkpt lat="33.76174260609482" lon="133.1373178671671"><ele>1529.3527565021068</ele><time>2023-05-02T07:10:48Z</time></trkpt><trkpt lat="33.761692837790285" lon="133.13753861400235"><ele>1532.8114293264225</ele><time>2023-05-02T07:11:13Z</time></trkpt><trkpt lat="33.76160454716377" lon="133.13772938351514"><ele>1534.007363137789</ele><time>2023-05-02T07:11:35Z</time></trkpt><trkpt lat="33.761482746467536" lon="133.13789294005"><ele>1531.382872405462</ele><time>2023-05-02T07:12:10Z</time></trkpt><trkpt lat="33.76137372442702" lon="133.13807167165734"><ele>1527.6161762000993</ele><time>2023-05-02T07:12:33Z</time></trkpt><trkpt lat="33.76124001903825" lon="133.13823483293115"><ele>1529.1816122923046</ele><time>2023-05-02T07:12:51Z</time></trkpt><trkpt lat="33.76110603891359" lon="133.13838220326673"><ele>1529.6845145374537</ele><time>2023-05-02T07:13:10Z</time></trkpt><trkpt lat="33.76095758219573" lon="133.13852292231377"><ele>1529.7065349929035</ele><time>2023-05-02T07:13:35Z</time></trkpt><trkpt lat="33.76082224272342" lon="133.13867026198488"><ele>1526.9969463227317</ele><time>2023-05-02T07:13:55Z</time></trkpt><trkpt lat="33.76072023797829" lon="133.13885611958247"><ele>1524.34186625015</ele><time>2023-05-02T07:14:17Z</time></trkpt><trkpt lat="33.760582522458" lon="133.13900409401035"><ele>1522.1292479336262</ele><time>2023-05-02T07:14:39Z</time></trkpt><trkpt lat="33.760422496498" lon="133.13912858361562"><ele>1520.1354999123141</ele><time>2023-05-02T07:15:14Z</time></trkpt><trkpt lat="33.76024341283596" lon="133.13917936813104"><ele>1520.8611468710005</ele><time>2023-05-02T07:15:36Z</time></trkpt><trkpt lat="33.760058160915904" lon="133.13919563830655"><ele>1519.500220443122</ele><time>2023-05-02T07:16:00Z</time></trkpt><trkpt lat="33.7598775396119" lon="133.13924806037332"><ele>1520.006217772141</ele><time>2023-05-02T07:16:17Z</time></trkpt><trkpt lat="33.75969702207294" lon="133.13931807777524"><ele>1515.7440003780648</ele><time>2023-05-02T07:17:06Z</time></trkpt><trkpt lat="33.7595201277817" lon="133.13937823030716"><ele>1518.585765041411</ele><time>2023-05-02T07:17:27Z</time></trkpt><trkpt lat="33.75934340294076" lon="133.139445858238"><ele>1521.2841949826106</ele><time>2023-05-02T07:17:50Z</time></trkpt><trkpt lat="33.75916976033498" lon="133.13951513416254"><ele>1524.3388765109703</ele><time>2023-05-02T07:18:10Z</time></trkpt><trkpt lat="33.75898877775926" lon="133.13956879003578"><ele>1522.7160512050614</ele><time>2023-05-02T07:18:31Z</time></trkpt><trkpt lat="33.75886761895713" lon="133.13973087001776"><ele>1519.9773034155369</ele><time>2023-05-02T07:18:53Z</time></trkpt><trkpt lat="33.7587469741022" lon="133.13990342197732"><ele>1518.7546512680128</ele><time>2023-05-02T07:19:16Z</time></trkpt><trkpt lat="33.75864447340727" lon="133.14008120440292"><ele>1518.2355951843783</ele><time>2023-05-02T07:19:36Z</time></trkpt><trkpt lat="33.75849250343577" lon="133.14020270940543"><ele>1520.2063408270478</ele><time>2023-05-02T07:19:59Z</time></trkpt><trkpt lat="33.758401676631664" lon="133.14039858754887"><ele>1519.7580900937319</ele><time>2023-05-02T07:20:28Z</time></trkpt><trkpt lat="33.758300141958074" lon="133.1405882816813"><ele>1520.226197751239</ele><time>2023-05-02T07:20:53Z</time></trkpt><trkpt lat="33.75820045344056" lon="133.14077302575978"><ele>1522.535765690729</ele><time>2023-05-02T07:21:17Z</time></trkpt><trkpt lat="33.75810495051917" lon="133.14096197793182"><ele>1527.3827006295323</ele><time>2023-05-02T07:21:40Z</time></trkpt><trkpt lat="33.75804387069617" lon="133.14117721088087"><ele>1528.1679530981928</ele><time>2023-05-02T07:21:59Z</time></trkpt><trkpt lat="33.75798173434845" lon="133.14138456641135"><ele>1525.9374644719064</ele><time>2023-05-02T07:22:22Z</time></trkpt><trkpt lat="33.75791610042119" lon="133.14159226894208"><ele>1524.8120242329314</ele><time>2023-05-02T07:22:42Z</time></trkpt><trkpt lat="33.757859894476915" lon="133.14180900111393"><ele>1523.2834492269903</ele><time>2023-05-02T07:23:38Z</time></trkpt><trkpt lat="33.75782175048485" lon="133.1420229002564"><ele>1521.0059883994982</ele><time>2023-05-02T07:24:01Z</time></trkpt><trkpt lat="33.757773044107275" lon="133.1422325605014"><ele>1520.623602394946</ele><time>2023-05-02T07:24:20Z</time></trkpt><trkpt lat="33.75768484952674" lon="133.1424227061704"><ele>1520.8801710316911</ele><time>2023-05-02T07:24:41Z</time></trkpt><trkpt lat="33.75756211636273" lon="133.1425839890374"><ele>1522.015751379542</ele><time>2023-05-02T07:24:59Z</time></trkpt><trkpt lat="33.757477045043665" lon="133.142775544002"><ele>1521.4267250280827</ele><time>2023-05-02T07:25:14Z</time></trkpt><trkpt lat="33.75743425445823" lon="133.14299026239914"><ele>1517.7940571010113</ele><time>2023-05-02T07:25:36Z</time></trkpt><trkpt lat="33.757408353289826" lon="133.14321231307613"><ele>1515.456690389663</ele><time>2023-05-02T07:26:02Z</time></trkpt><trkpt lat="33.75740576693617" lon="133.14343157210055"><ele>1511.665435006842</ele><time>2023-05-02T07:26:23Z</time></trkpt><trkpt lat="33.75737169603634" lon="133.1436522925896"><ele>1509.374504887499</ele><time>2023-05-02T07:26:45Z</time></trkpt><trkpt lat="33.75734058234629" lon="133.1438766593051"><ele>1504.7775610554963</ele><time>2023-05-02T07:27:13Z</time></trkpt><trkpt lat="33.75728356858546" lon="133.14408427431147"><ele>1505.8386973440647</ele><time>2023-05-02T07:27:31Z</time></trkpt><trkpt lat="33.75728914773972" lon="133.14430403364634"><ele>1507.3843900384381</ele><time>2023-05-02T07:27:48Z</time></trkpt><trkpt lat="33.757227822998864" lon="133.14451328599523"><ele>1514.6894150516018</ele><time>2023-05-02T07:28:10Z</time></trkpt><trkpt lat="33.757146866375095" lon="133.14471162469422"><ele>1515.8965271068737</ele><time>2023-05-02T07:28:26Z</time></trkpt><trkpt lat="33.757071082521165" lon="133.14491018866335"><ele>1518.1213605161756</ele><time>2023-05-02T07:28:45Z</time></trkpt><trkpt lat="33.756981386606085" lon="133.14511536727233"><ele>1516.9978460781276</ele><time>2023-05-02T07:29:02Z</time></trkpt><trkpt lat="33.75690966788518" lon="133.14531940263586"><ele>1517.14515331015</ele><time>2023-05-02T07:29:21Z</time></trkpt><trkpt lat="33.756796915307895" lon="133.1454923729879"><ele>1517.4606977468356</ele><time>2023-05-02T07:29:41Z</time></trkpt><trkpt lat="33.75669750750447" lon="133.14567580255255"><ele>1512.597118647769</ele><time>2023-05-02T07:30:02Z</time></trkpt><trkpt lat="33.75661283459863" lon="133.1458712710842"><ele>1512.9780839532614</ele><time>2023-05-02T07:30:23Z</time></trkpt><trkpt lat="33.75653154028485" lon="133.14607115676546"><ele>1509.2023326503113</ele><time>2023-05-02T07:30:43Z</time></trkpt><trkpt lat="33.75640996512339" lon="133.14626249812443"><ele>1502.8064310373738</ele><time>2023-05-02T07:31:10Z</time></trkpt><trkpt lat="33.75622573286866" lon="133.14627247981264"><ele>1494.5140333650634</ele><time>2023-05-02T07:31:36Z</time></trkpt><trkpt lat="33.75604693803088" lon="133.1463231549231"><ele>1497.4921480277553</ele><time>2023-05-02T07:32:12Z</time></trkpt><trkpt lat="33.755884274553395" lon="133.1464217197451"><ele>1498.8514398569241</ele><time>2023-05-02T07:32:40Z</time></trkpt><trkpt lat="33.75569923114095" lon="133.14649011262642"><ele>1502.3846975117922</ele><time>2023-05-02T07:33:17Z</time></trkpt><trkpt lat="33.75554561481543" lon="133.14660317233424"><ele>1501.8764442028478</ele><time>2023-05-02T07:33:40Z</time></trkpt><trkpt lat="33.755514581509274" lon="133.14681915308762"><ele>1507.7911143666133</ele><time>2023-05-02T07:34:01Z</time></trkpt><trkpt lat="33.755423080884555" lon="133.1470091732327"><ele>1503.0807849112898</ele><time>2023-05-02T07:34:27Z</time></trkpt><trkpt lat="33.75533966896111" lon="133.14720132637234"><ele>1500.7835277458653</ele><time>2023-05-02T07:34:47Z</time></trkpt><trkpt lat="33.755420492559374" lon="133.14729694467232"><ele>1492.5398607812822</ele><time>2023-05-02T07:37:44Z</time></trkpt></trkseg></trk></gpx>