<?xml version='1.0' encoding='UTF-8'?><gpx creator="YAMAP - https://yamap.com" xsi:schemaLocation="http://www.topografix.com/GPX/1/1 http://www.topografix.com/GPX/1/1/gpx.xsd" version="1.1" xmlns="http://www.topografix.com/GPX/1/1" xmlns:xsi="http://www.w3.org/2001/XMLSchema-instance"><metadata><bounds maxlat="36.05933652323241" maxlon="138.84637515772093" minlat="36.0333705262429" minlon="138.83101454646814"/></metadata><trk><name>諏訪山・西岳</name><number>1</number><trkseg><trkpt lat="36.05917916496179" lon="138.84215462273013"><ele>800.0617629196495</ele><time>2023-11-12T01:35:29Z</time></trkpt><trkpt lat="36.0590338004423" lon="138.84201652547662"><ele>799.589985691011</ele><time>2023-11-12T01:36:55Z</time></trkpt><trkpt lat="36.05887104126435" lon="138.842113515925"><ele>803.4475745651871</ele><time>2023-11-12T01:37:27Z</time></trkpt><trkpt lat="36.05868232316467" lon="138.84217442457506"><ele>808.3858865695074</ele><time>2023-11-12T01:38:05Z</time></trkpt><trkpt lat="36.058489154588564" lon="138.84214474919423"><ele>811.9295799601823</ele><time>2023-11-12T01:38:22Z</time></trkpt><trkpt lat="36.05831817700387" lon="138.84206614598412"><ele>821.6551124919206</ele><time>2023-11-12T01:39:50Z</time></trkpt><trkpt lat="36.058149705903595" lon="138.84198213451396"><ele>824.7455644067377</ele><time>2023-11-12T01:40:26Z</time></trkpt><trkpt lat="36.05796551831257" lon="138.84202026689684"><ele>823.262278508395</ele><time>2023-11-12T01:41:07Z</time></trkpt><trkpt lat="36.05779468990868" lon="138.84191464313636"><ele>823.2220134027302</ele><time>2023-11-12T01:41:36Z</time></trkpt><trkpt lat="36.057614255462575" lon="138.8418191393269"><ele>826.6341951433569</ele><time>2023-11-12T01:42:06Z</time></trkpt><trkpt lat="36.05743705507175" lon="138.8417393640885"><ele>832.2475388012826</ele><time>2023-11-12T01:42:35Z</time></trkpt><trkpt lat="36.057267918006886" lon="138.84165286760765"><ele>841.0932955630124</ele><time>2023-11-12T01:43:22Z</time></trkpt><trkpt lat="36.05709658034118" lon="138.841530107516"><ele>848.6693933904171</ele><time>2023-11-12T01:44:10Z</time></trkpt><trkpt lat="36.05693524136119" lon="138.84141309792628"><ele>851.5212984485552</ele><time>2023-11-12T01:44:43Z</time></trkpt><trkpt lat="36.056757418150795" lon="138.8413611179836"><ele>851.0751098459587</ele><time>2023-11-12T01:44:58Z</time></trkpt><trkpt lat="36.056651167541105" lon="138.84117124953067"><ele>855.2300858665258</ele><time>2023-11-12T01:45:28Z</time></trkpt><trkpt lat="36.056488454544116" lon="138.8410698577048"><ele>861.9991893330589</ele><time>2023-11-12T01:46:00Z</time></trkpt><trkpt lat="36.05635456851956" lon="138.84090464639416"><ele>861.0699437558651</ele><time>2023-11-12T01:46:35Z</time></trkpt><trkpt lat="36.05620323861052" lon="138.84077778652807"><ele>863.6016317363828</ele><time>2023-11-12T01:46:56Z</time></trkpt><trkpt lat="36.05612277919904" lon="138.8405680882753"><ele>862.5815291237086</ele><time>2023-11-12T01:47:28Z</time></trkpt><trkpt lat="36.05598260700295" lon="138.84042660515738"><ele>861.7292017871514</ele><time>2023-11-12T01:48:09Z</time></trkpt><trkpt lat="36.055831151577785" lon="138.84029106302182"><ele>860.9143417989835</ele><time>2023-11-12T01:48:38Z</time></trkpt><trkpt lat="36.05566317748019" lon="138.84018180416626"><ele>858.2973394207656</ele><time>2023-11-12T01:49:11Z</time></trkpt><trkpt lat="36.055549547319266" lon="138.8399905200457"><ele>864.0911210943013</ele><time>2023-11-12T01:50:38Z</time></trkpt><trkpt lat="36.05538455166333" lon="138.83989947757325"><ele>874.4857917111367</ele><time>2023-11-12T01:51:11Z</time></trkpt><trkpt lat="36.05524135203187" lon="138.83976319468718"><ele>882.4813125394285</ele><time>2023-11-12T01:51:42Z</time></trkpt><trkpt lat="36.05506594587497" lon="138.8396868030212"><ele>885.1218947647139</ele><time>2023-11-12T01:52:15Z</time></trkpt><trkpt lat="36.054887304278296" lon="138.83961700222457"><ele>895.4989616675302</ele><time>2023-11-12T01:52:45Z</time></trkpt><trkpt lat="36.054697526296515" lon="138.8396181935803"><ele>926.9871538225561</ele><time>2023-11-12T01:53:26Z</time></trkpt><trkpt lat="36.05451625602739" lon="138.83957159209064"><ele>936.7125125471503</ele><time>2023-11-12T01:53:49Z</time></trkpt><trkpt lat="36.0543284227102" lon="138.83951838911182"><ele>942.9547695880756</ele><time>2023-11-12T01:54:17Z</time></trkpt><trkpt lat="36.054192717182936" lon="138.83936962502452"><ele>947.5419788435102</ele><time>2023-11-12T01:54:48Z</time></trkpt><trkpt lat="36.0539968587726" lon="138.839367756966"><ele>952.282272785902</ele><time>2023-11-12T01:55:20Z</time></trkpt><trkpt lat="36.05381111839685" lon="138.83936156847471"><ele>955.6939513906837</ele><time>2023-11-12T01:55:50Z</time></trkpt><trkpt lat="36.05363866048986" lon="138.83928732283817"><ele>955.6382503369823</ele><time>2023-11-12T01:56:37Z</time></trkpt><trkpt lat="36.05348276742118" lon="138.83914833904262"><ele>957.3467845804989</ele><time>2023-11-12T01:57:17Z</time></trkpt><trkpt lat="36.053314165626105" lon="138.83905718652903"><ele>963.5739337811247</ele><time>2023-11-12T01:57:50Z</time></trkpt><trkpt lat="36.05327020008066" lon="138.83883924180196"><ele>967.6742262272164</ele><time>2023-11-12T01:59:05Z</time></trkpt><trkpt lat="36.05311257489232" lon="138.83869474525724"><ele>967.2892608288676</ele><time>2023-11-12T01:59:55Z</time></trkpt><trkpt lat="36.05297959617494" lon="138.83854322477322"><ele>971.087637796998</ele><time>2023-11-12T02:00:35Z</time></trkpt><trkpt lat="36.052802579665446" lon="138.83846761605784"><ele>974.2105819880962</ele><time>2023-11-12T02:01:07Z</time></trkpt><trkpt lat="36.05269626193829" lon="138.83828399353393"><ele>984.1038918830454</ele><time>2023-11-12T02:02:10Z</time></trkpt><trkpt lat="36.052591107474015" lon="138.83809687135673"><ele>1001.1006086058915</ele><time>2023-11-12T02:04:01Z</time></trkpt><trkpt lat="36.05241136108694" lon="138.83803709419215"><ele>1008.6152606820688</ele><time>2023-11-12T02:04:51Z</time></trkpt><trkpt lat="36.05240271670257" lon="138.8378144028874"><ele>1006.9886098215356</ele><time>2023-11-12T02:09:18Z</time></trkpt><trkpt lat="36.052343208701664" lon="138.8376039729876"><ele>1025.4280052315444</ele><time>2023-11-12T02:12:39Z</time></trkpt><trkpt lat="36.05220959903883" lon="138.8374414135982"><ele>1034.5768427960575</ele><time>2023-11-12T02:13:35Z</time></trkpt><trkpt lat="36.0520285057606" lon="138.83740040243214"><ele>1040.729830157943</ele><time>2023-11-12T02:14:33Z</time></trkpt><trkpt lat="36.05185171504041" lon="138.83749505391253"><ele>1044.808902554214</ele><time>2023-11-12T02:15:10Z</time></trkpt><trkpt lat="36.05167009656134" lon="138.83751886546617"><ele>1049.992351747118</ele><time>2023-11-12T02:15:43Z</time></trkpt><trkpt lat="36.051492091547864" lon="138.8374814109424"><ele>1057.120413201861</ele><time>2023-11-12T02:16:19Z</time></trkpt><trkpt lat="36.051400289940446" lon="138.83767576715263"><ele>1068.338772971183</ele><time>2023-11-12T02:17:03Z</time></trkpt><trkpt lat="36.05141431483614" lon="138.83790052415776"><ele>1069.280498526059</ele><time>2023-11-12T02:18:21Z</time></trkpt><trkpt lat="36.05138502740347" lon="138.83812022479844"><ele>1068.4200582830235</ele><time>2023-11-12T02:19:07Z</time></trkpt><trkpt lat="36.051387208681874" lon="138.83834602068399"><ele>1071.5422026831657</ele><time>2023-11-12T02:19:32Z</time></trkpt><trkpt lat="36.05129757845724" lon="138.8385400274153"><ele>1075.5730092683807</ele><time>2023-11-12T02:20:12Z</time></trkpt><trkpt lat="36.051372332405506" lon="138.83875133623147"><ele>1078.0306693259627</ele><time>2023-11-12T02:20:35Z</time></trkpt><trkpt lat="36.051484748452744" lon="138.8389389871487"><ele>1076.188429698348</ele><time>2023-11-12T02:21:04Z</time></trkpt><trkpt lat="36.05144130243444" lon="138.8391584156993"><ele>1078.4084611982107</ele><time>2023-11-12T02:21:48Z</time></trkpt><trkpt lat="36.051393458896165" lon="138.83916531291143"><ele>1078.4710673494264</ele><time>2023-11-12T02:21:52Z</time></trkpt><trkpt lat="36.051393458896165" lon="138.83916531291143"><ele>1078.4710673494264</ele><time>2023-11-12T02:21:54Z</time></trkpt><trkpt lat="36.05128865900927" lon="138.8389742421958"><ele>1082.184039870277</ele><time>2023-11-12T02:22:30Z</time></trkpt><trkpt lat="36.051118107043145" lon="138.8388943005496"><ele>1095.9272205615416</ele><time>2023-11-12T02:23:36Z</time></trkpt><trkpt lat="36.050978735852645" lon="138.8387487333787"><ele>1105.663661506027</ele><time>2023-11-12T02:24:28Z</time></trkpt><trkpt lat="36.050871899901516" lon="138.83856842567627"><ele>1108.116888485849</ele><time>2023-11-12T02:25:07Z</time></trkpt><trkpt lat="36.05078777673112" lon="138.83835732394633"><ele>1115.9189908364788</ele><time>2023-11-12T02:25:42Z</time></trkpt><trkpt lat="36.0507282681721" lon="138.8385719560765"><ele>1121.270127505064</ele><time>2023-11-12T02:26:30Z</time></trkpt><trkpt lat="36.05066222439247" lon="138.83836419004206"><ele>1125.809069939889</ele><time>2023-11-12T02:26:56Z</time></trkpt><trkpt lat="36.050533472428704" lon="138.83819876978447"><ele>1133.2798699755222</ele><time>2023-11-12T02:27:55Z</time></trkpt><trkpt lat="36.0504496924551" lon="138.83799246482772"><ele>1138.8293725140393</ele><time>2023-11-12T02:28:26Z</time></trkpt><trkpt lat="36.050391854542184" lon="138.8377793717831"><ele>1144.0280455285683</ele><time>2023-11-12T02:28:53Z</time></trkpt><trkpt lat="36.050298940600875" lon="138.83756958940302"><ele>1146.5709615126252</ele><time>2023-11-12T02:29:20Z</time></trkpt><trkpt lat="36.05014725481641" lon="138.837446466434"><ele>1152.0656672082841</ele><time>2023-11-12T02:29:47Z</time></trkpt><trkpt lat="36.050071945012746" lon="138.8372284239898"><ele>1155.0353674981743</ele><time>2023-11-12T02:30:12Z</time></trkpt><trkpt lat="36.04999967802707" lon="138.83702410512646"><ele>1156.2391035091132</ele><time>2023-11-12T02:30:38Z</time></trkpt><trkpt lat="36.0498872726984" lon="138.83684848334997"><ele>1155.68505623471</ele><time>2023-11-12T02:31:02Z</time></trkpt><trkpt lat="36.04979966749654" lon="138.83665380166835"><ele>1158.3171984124929</ele><time>2023-11-12T02:31:30Z</time></trkpt><trkpt lat="36.04976994952162" lon="138.83642375225543"><ele>1162.4032941274345</ele><time>2023-11-12T02:31:59Z</time></trkpt><trkpt lat="36.049760993877406" lon="138.83620084748878"><ele>1164.6751883076504</ele><time>2023-11-12T02:36:55Z</time></trkpt><trkpt lat="36.04983389235886" lon="138.8359949764251"><ele>1165.6079044016078</ele><time>2023-11-12T02:37:13Z</time></trkpt><trkpt lat="36.04989278209735" lon="138.83577940734733"><ele>1168.5499255107716</ele><time>2023-11-12T02:37:31Z</time></trkpt><trkpt lat="36.049981573130566" lon="138.8355822571753"><ele>1168.7344132578</ele><time>2023-11-12T02:38:33Z</time></trkpt><trkpt lat="36.05012429975762" lon="138.83544263958115"><ele>1174.7165274405852</ele><time>2023-11-12T02:38:59Z</time></trkpt><trkpt lat="36.05030784161829" lon="138.83544203002023"><ele>1179.5295855365694</ele><time>2023-11-12T02:39:24Z</time></trkpt><trkpt lat="36.05048031321492" lon="138.83551377278107"><ele>1184.257029576227</ele><time>2023-11-12T02:39:59Z</time></trkpt><trkpt lat="36.05051071430805" lon="138.83552556334212"><ele>1187.721651864238</ele><time>2023-11-12T02:40:22Z</time></trkpt><trkpt lat="36.05044098336832" lon="138.83532074048287"><ele>1189.7226305333897</ele><time>2023-11-12T02:41:06Z</time></trkpt><trkpt lat="36.0502993538326" lon="138.83518231234575"><ele>1194.8930588923395</ele><time>2023-11-12T02:41:47Z</time></trkpt><trkpt lat="36.05030773562683" lon="138.83495527035282"><ele>1200.5728380288929</ele><time>2023-11-12T02:42:50Z</time></trkpt><trkpt lat="36.050353705693084" lon="138.8347330292438"><ele>1203.7465631449595</ele><time>2023-11-12T02:43:23Z</time></trkpt><trkpt lat="36.050347210888084" lon="138.83472328611705"><ele>1201.7596782902256</ele><time>2023-11-12T02:44:14Z</time></trkpt><trkpt lat="36.050177926345654" lon="138.83463308829784"><ele>1197.3629007283598</ele><time>2023-11-12T02:45:16Z</time></trkpt><trkpt lat="36.05000062027445" lon="138.83458847742332"><ele>1192.4916206412017</ele><time>2023-11-12T02:45:51Z</time></trkpt><trkpt lat="36.04983745793369" lon="138.834683138658"><ele>1188.4654353447258</ele><time>2023-11-12T02:47:26Z</time></trkpt><trkpt lat="36.04985296806176" lon="138.8344614047945"><ele>1181.180715745315</ele><time>2023-11-12T02:48:05Z</time></trkpt><trkpt lat="36.04967037988557" lon="138.83451083958198"><ele>1165.7862484930083</ele><time>2023-11-12T02:51:03Z</time></trkpt><trkpt lat="36.049499669098935" lon="138.83443322314935"><ele>1154.9746284363791</ele><time>2023-11-12T02:52:11Z</time></trkpt><trkpt lat="36.0495040625553" lon="138.83444266454111"><ele>1155.394443529658</ele><time>2023-11-12T02:52:15Z</time></trkpt><trkpt lat="36.049333877824935" lon="138.83436406905622"><ele>1145.855932195671</ele><time>2023-11-12T02:54:47Z</time></trkpt><trkpt lat="36.0491540096215" lon="138.8342959775458"><ele>1141.1773825939745</ele><time>2023-11-12T02:55:22Z</time></trkpt><trkpt lat="36.04898110383177" lon="138.83423312025533"><ele>1144.0305017475039</ele><time>2023-11-12T02:55:53Z</time></trkpt><trkpt lat="36.04881771466175" lon="138.83412925181784"><ele>1153.5728189442307</ele><time>2023-11-12T02:56:39Z</time></trkpt><trkpt lat="36.04868198279262" lon="138.83398006542114"><ele>1153.0624219439924</ele><time>2023-11-12T02:57:52Z</time></trkpt><trkpt lat="36.04853747276144" lon="138.83384164217057"><ele>1146.2166663454846</ele><time>2023-11-12T02:59:26Z</time></trkpt><trkpt lat="36.04841432440916" lon="138.83367034811363"><ele>1143.4123282078654</ele><time>2023-11-12T02:59:52Z</time></trkpt><trkpt lat="36.048306044531806" lon="138.83349079397317"><ele>1146.0385504644364</ele><time>2023-11-12T03:00:19Z</time></trkpt><trkpt lat="36.04822156141955" lon="138.83329177050328"><ele>1146.5233717551455</ele><time>2023-11-12T03:00:44Z</time></trkpt><trkpt lat="36.048126762920326" lon="138.83310195971782"><ele>1149.9018235290423</ele><time>2023-11-12T03:01:08Z</time></trkpt><trkpt lat="36.048026056994914" lon="138.8329068124372"><ele>1153.6613138653338</ele><time>2023-11-12T03:01:53Z</time></trkpt><trkpt lat="36.04797167623739" lon="138.83269330006993"><ele>1167.940306945704</ele><time>2023-11-12T03:02:45Z</time></trkpt><trkpt lat="36.04790331597555" lon="138.83248311071623"><ele>1168.7552558053285</ele><time>2023-11-12T03:03:13Z</time></trkpt><trkpt lat="36.04777802329365" lon="138.83232188865924"><ele>1171.952515149489</ele><time>2023-11-12T03:04:38Z</time></trkpt><trkpt lat="36.04770060195361" lon="138.83211472566887"><ele>1183.8008466074243</ele><time>2023-11-12T03:05:21Z</time></trkpt><trkpt lat="36.04751958492102" lon="138.83204885601276"><ele>1188.5408415421844</ele><time>2023-11-12T03:05:48Z</time></trkpt><trkpt lat="36.04734239253365" lon="138.83198566664626"><ele>1190.2011426994577</ele><time>2023-11-12T03:06:08Z</time></trkpt><trkpt lat="36.0471548339834" lon="138.83199156863023"><ele>1192.3305330900475</ele><time>2023-11-12T03:06:37Z</time></trkpt><trkpt lat="36.047051953782336" lon="138.83218290075607"><ele>1192.6708571016788</ele><time>2023-11-12T03:07:30Z</time></trkpt><trkpt lat="36.04691739305063" lon="138.83234142969843"><ele>1198.97733818274</ele><time>2023-11-12T03:08:12Z</time></trkpt><trkpt lat="36.04677306822105" lon="138.83247632483966"><ele>1205.4787559974939</ele><time>2023-11-12T03:08:40Z</time></trkpt><trkpt lat="36.04661250189484" lon="138.83237391888304"><ele>1191.8266121065244</ele><time>2023-11-12T03:09:37Z</time></trkpt><trkpt lat="36.04655538688977" lon="138.83220084955806"><ele>1205.5887451171875</ele><time>2023-11-12T03:11:00Z</time></trkpt><trkpt lat="36.046375111890576" lon="138.83221205793492"><ele>1193.4061699695885</ele><time>2023-11-12T03:11:30Z</time></trkpt><trkpt lat="36.046199232622335" lon="138.83213142326176"><ele>1180.4078290658072</ele><time>2023-11-12T03:12:29Z</time></trkpt><trkpt lat="36.046025589465295" lon="138.83206728090366"><ele>1176.324905835092</ele><time>2023-11-12T03:12:50Z</time></trkpt><trkpt lat="36.04584198432573" lon="138.83204742965327"><ele>1176.8016570238397</ele><time>2023-11-12T03:13:25Z</time></trkpt><trkpt lat="36.04568329964304" lon="138.8319325378957"><ele>1169.5243279514834</ele><time>2023-11-12T03:14:41Z</time></trkpt><trkpt lat="36.04556026848112" lon="138.8320148877185"><ele>1166.6249813446775</ele><time>2023-11-12T03:15:00Z</time></trkpt><trkpt lat="36.04537221984689" lon="138.83205994345965"><ele>1165.4535067016259</ele><time>2023-11-12T03:16:26Z</time></trkpt><trkpt lat="36.04520621763242" lon="138.83215830088557"><ele>1170.3371070902795</ele><time>2023-11-12T03:16:44Z</time></trkpt><trkpt lat="36.04504792040248" lon="138.8322760989852"><ele>1174.597764775157</ele><time>2023-11-12T03:17:03Z</time></trkpt><trkpt lat="36.04487990157472" lon="138.8323595735489"><ele>1176.448733462952</ele><time>2023-11-12T03:17:21Z</time></trkpt><trkpt lat="36.04470240056691" lon="138.8324146898107"><ele>1179.0286923060194</ele><time>2023-11-12T03:17:38Z</time></trkpt><trkpt lat="36.04451979411765" lon="138.8323622578784"><ele>1179.3723075380549</ele><time>2023-11-12T03:17:59Z</time></trkpt><trkpt lat="36.04435380017702" lon="138.83225730738386"><ele>1180.1912348950282</ele><time>2023-11-12T03:18:16Z</time></trkpt><trkpt lat="36.04416717001635" lon="138.8322158174016"><ele>1183.7426327271387</ele><time>2023-11-12T03:18:34Z</time></trkpt><trkpt lat="36.04398028512194" lon="138.83224696531374"><ele>1186.83435278479</ele><time>2023-11-12T03:18:51Z</time></trkpt><trkpt lat="36.04380935296244" lon="138.8321500423978"><ele>1189.1540669128299</ele><time>2023-11-12T03:19:07Z</time></trkpt><trkpt lat="36.04362758056435" lon="138.83221261728633"><ele>1192.3865704787895</ele><time>2023-11-12T03:19:23Z</time></trkpt><trkpt lat="36.04347239181702" lon="138.83209350631245"><ele>1187.3418522486463</ele><time>2023-11-12T03:19:45Z</time></trkpt><trkpt lat="36.04347124887539" lon="138.83186321831823"><ele>1193.264058583416</ele><time>2023-11-12T03:20:01Z</time></trkpt><trkpt lat="36.04340073459716" lon="138.83165488802265"><ele>1199.550099090673</ele><time>2023-11-12T03:20:18Z</time></trkpt><trkpt lat="36.04327775814427" lon="138.83148813972835"><ele>1208.95562907774</ele><time>2023-11-12T03:20:34Z</time></trkpt><trkpt lat="36.04311015874401" lon="138.83138937045152"><ele>1209.3758641760796</ele><time>2023-11-12T03:21:00Z</time></trkpt><trkpt lat="36.04295588641248" lon="138.83126453000168"><ele>1210.842196462676</ele><time>2023-11-12T03:21:18Z</time></trkpt><trkpt lat="36.042796654436636" lon="138.83115340100514"><ele>1203.5904752733186</ele><time>2023-11-12T03:21:40Z</time></trkpt><trkpt lat="36.04265037015537" lon="138.83129625090186"><ele>1213.1967015778646</ele><time>2023-11-12T03:21:54Z</time></trkpt><trkpt lat="36.04249456081098" lon="138.8314336005502"><ele>1216.5044339252636</ele><time>2023-11-12T03:22:10Z</time></trkpt><trkpt lat="36.04230861001521" lon="138.83142843415362"><ele>1214.524565092288</ele><time>2023-11-12T03:22:26Z</time></trkpt><trkpt lat="36.04212471852401" lon="138.83141526813145"><ele>1220.6209974912927</ele><time>2023-11-12T03:22:43Z</time></trkpt><trkpt lat="36.04195082897178" lon="138.83150289920252"><ele>1222.669456177391</ele><time>2023-11-12T03:23:00Z</time></trkpt><trkpt lat="36.04176522857483" lon="138.83149736776352"><ele>1223.65989725478</ele><time>2023-11-12T03:23:18Z</time></trkpt><trkpt lat="36.04158358347872" lon="138.83151716241224"><ele>1225.7087324494496</ele><time>2023-11-12T03:23:35Z</time></trkpt><trkpt lat="36.041436244990145" lon="138.8316500838047"><ele>1220.8879319969565</ele><time>2023-11-12T03:23:53Z</time></trkpt><trkpt lat="36.041254593107816" lon="138.83169632565816"><ele>1218.1078119762242</ele><time>2023-11-12T03:24:12Z</time></trkpt><trkpt lat="36.04113761062764" lon="138.83151982872266"><ele>1217.5734196873382</ele><time>2023-11-12T03:24:30Z</time></trkpt><trkpt lat="36.04101155019776" lon="138.83135958708766"><ele>1222.617871128954</ele><time>2023-11-12T03:24:44Z</time></trkpt><trkpt lat="36.04088322125646" lon="138.8312014764238"><ele>1230.1850169850513</ele><time>2023-11-12T03:24:58Z</time></trkpt><trkpt lat="36.04071008721298" lon="138.83111730706875"><ele>1225.46379655879</ele><time>2023-11-12T03:25:52Z</time></trkpt><trkpt lat="36.040688729349014" lon="138.8311154008483"><ele>1224.6244027419016</ele><time>2023-11-12T03:26:00Z</time></trkpt><trkpt lat="36.04050308899949" lon="138.8311026134477"><ele>1224.8041166150942</ele><time>2023-11-12T03:28:29Z</time></trkpt><trkpt lat="36.04033183135696" lon="138.8310319349428"><ele>1238.5704118562862</ele><time>2023-11-12T03:29:19Z</time></trkpt><trkpt lat="36.04016534855076" lon="138.83111698619328"><ele>1242.52300842572</ele><time>2023-11-12T03:30:59Z</time></trkpt><trkpt lat="36.04004237609278" lon="138.83129234615748"><ele>1262.2384008113295</ele><time>2023-11-12T03:32:28Z</time></trkpt><trkpt lat="36.039857630714806" lon="138.8313644893799"><ele>1270.2005648920313</ele><time>2023-11-12T03:33:32Z</time></trkpt><trkpt lat="36.03972845713447" lon="138.83152153571731"><ele>1279.9463467197493</ele><time>2023-11-12T03:36:29Z</time></trkpt><trkpt lat="36.03962110075746" lon="138.83171238236355"><ele>1299.2123533338308</ele><time>2023-11-12T03:37:31Z</time></trkpt><trkpt lat="36.03944303732274" lon="138.83175705179747"><ele>1306.31861820817</ele><time>2023-11-12T03:38:07Z</time></trkpt><trkpt lat="36.03926786411209" lon="138.83164115265694"><ele>1326.3474829290062</ele><time>2023-11-12T03:40:13Z</time></trkpt><trkpt lat="36.03918913851635" lon="138.8314288001375"><ele>1327.7286223163828</ele><time>2023-11-12T03:40:33Z</time></trkpt><trkpt lat="36.03901385138731" lon="138.83136497011728"><ele>1339.6653872728348</ele><time>2023-11-12T03:40:57Z</time></trkpt><trkpt lat="36.03886992821992" lon="138.83150217706694"><ele>1342.5443504163995</ele><time>2023-11-12T03:42:38Z</time></trkpt><trkpt lat="36.03875813079411" lon="138.83167894190302"><ele>1342.7376367431134</ele><time>2023-11-12T03:43:10Z</time></trkpt><trkpt lat="36.03858783642727" lon="138.8317615898357"><ele>1348.9917012387887</ele><time>2023-11-12T03:43:56Z</time></trkpt><trkpt lat="36.038410732330505" lon="138.83169694116083"><ele>1347.3794538378716</ele><time>2023-11-12T03:44:23Z</time></trkpt><trkpt lat="36.03824534529206" lon="138.831601136314"><ele>1358.138795341365</ele><time>2023-11-12T03:45:10Z</time></trkpt><trkpt lat="36.038068552543024" lon="138.83154719566446"><ele>1360.3853754587471</ele><time>2023-11-12T03:46:05Z</time></trkpt><trkpt lat="36.03810739382521" lon="138.8312967976766"><ele>1365.8459263788536</ele><time>2023-11-12T03:47:36Z</time></trkpt><trkpt lat="36.03800102840063" lon="138.83147635015968"><ele>1379.167679884471</ele><time>2023-11-12T03:48:28Z</time></trkpt><trkpt lat="36.03788400383674" lon="138.83130756164616"><ele>1381.3744601588696</ele><time>2023-11-12T03:48:58Z</time></trkpt><trkpt lat="36.037982056695164" lon="138.83149473723157"><ele>1404.7412763824686</ele><time>2023-11-12T03:50:43Z</time></trkpt><trkpt lat="36.037861710098994" lon="138.83132339321816"><ele>1389.131493581459</ele><time>2023-11-12T03:51:08Z</time></trkpt><trkpt lat="36.03781223829862" lon="138.83154737889018"><ele>1392.2206223867834</ele><time>2023-11-12T03:51:30Z</time></trkpt><trkpt lat="36.03765656945609" lon="138.83166023561017"><ele>1390.0256803734228</ele><time>2023-11-12T03:51:59Z</time></trkpt><trkpt lat="36.03747771229879" lon="138.83171754907718"><ele>1394.1719919834286</ele><time>2023-11-12T03:52:43Z</time></trkpt><trkpt lat="36.037301332827845" lon="138.83164820124807"><ele>1403.322704131715</ele><time>2023-11-12T03:53:38Z</time></trkpt><trkpt lat="36.03712777006139" lon="138.83172631864792"><ele>1424.2031518453732</ele><time>2023-11-12T03:55:28Z</time></trkpt><trkpt lat="36.03693836438904" lon="138.83174618981272"><ele>1427.8160942476243</ele><time>2023-11-12T03:56:33Z</time></trkpt><trkpt lat="36.03681233377026" lon="138.8319124606037"><ele>1423.6402365704998</ele><time>2023-11-12T03:57:01Z</time></trkpt><trkpt lat="36.03663861703242" lon="138.83198793194566"><ele>1428.3519697263837</ele><time>2023-11-12T03:57:50Z</time></trkpt><trkpt lat="36.036459586959104" lon="138.83195819195547"><ele>1426.518392031081</ele><time>2023-11-12T03:59:48Z</time></trkpt><trkpt lat="36.03628058434498" lon="138.83204672668268"><ele>1430.7890981091186</ele><time>2023-11-12T04:00:27Z</time></trkpt><trkpt lat="36.03627939705968" lon="138.83181096359925"><ele>1457.251415476203</ele><time>2023-11-12T04:02:20Z</time></trkpt><trkpt lat="36.036141784802496" lon="138.83197759865496"><ele>1456.7277044663206</ele><time>2023-11-12T04:02:45Z</time></trkpt><trkpt lat="36.03597390966622" lon="138.83210568378175"><ele>1451.274081603624</ele><time>2023-11-12T04:03:39Z</time></trkpt><trkpt lat="36.035838902265866" lon="138.83225903023103"><ele>1455.9493243666366</ele><time>2023-11-12T04:04:06Z</time></trkpt><trkpt lat="36.03566061715027" lon="138.83230110033577"><ele>1459.2087403368205</ele><time>2023-11-12T04:04:24Z</time></trkpt><trkpt lat="36.035476586503336" lon="138.8323627353454"><ele>1472.087232538499</ele><time>2023-11-12T04:04:59Z</time></trkpt><trkpt lat="36.03531361330476" lon="138.83247748869653"><ele>1482.9797090748325</ele><time>2023-11-12T04:05:27Z</time></trkpt><trkpt lat="36.035170230380885" lon="138.8326233854496"><ele>1491.76186383795</ele><time>2023-11-12T04:10:44Z</time></trkpt><trkpt lat="36.03515401798999" lon="138.83240079882677"><ele>1495.4164718724787</ele><time>2023-11-12T04:11:06Z</time></trkpt><trkpt lat="36.03508278758521" lon="138.83260616156886"><ele>1496.6694442341104</ele><time>2023-11-12T04:11:39Z</time></trkpt><trkpt lat="36.035093144804755" lon="138.83237638170556"><ele>1500.3632442662492</ele><time>2023-11-12T04:11:57Z</time></trkpt><trkpt lat="36.03497468124498" lon="138.83255483743636"><ele>1497.3975770901889</ele><time>2023-11-12T04:12:13Z</time></trkpt><trkpt lat="36.03484456590151" lon="138.83272737908385"><ele>1499.8104695640504</ele><time>2023-11-12T04:12:40Z</time></trkpt><trkpt lat="36.034701631893235" lon="138.83286802952193"><ele>1500.230710347183</ele><time>2023-11-12T04:14:44Z</time></trkpt><trkpt lat="36.03453547979754" lon="138.83298826064527"><ele>1496.523634755984</ele><time>2023-11-12T04:15:15Z</time></trkpt><trkpt lat="36.03441748698946" lon="138.833172884961"><ele>1486.7283516423777</ele><time>2023-11-12T04:15:27Z</time></trkpt><trkpt lat="36.034424144084866" lon="138.83339532982382"><ele>1484.1322447052225</ele><time>2023-11-12T04:16:18Z</time></trkpt><trkpt lat="36.034333716261585" lon="138.83359676793046"><ele>1488.7847476927564</ele><time>2023-11-12T04:17:19Z</time></trkpt><trkpt lat="36.03435197690241" lon="138.83381964333157"><ele>1496.0348341669887</ele><time>2023-11-12T04:18:20Z</time></trkpt><trkpt lat="36.03426696901404" lon="138.83401828343946"><ele>1499.7078635422513</ele><time>2023-11-12T04:19:47Z</time></trkpt><trkpt lat="36.03424101866928" lon="138.83424399707846"><ele>1508.4930008240044</ele><time>2023-11-12T04:20:28Z</time></trkpt><trkpt lat="36.034270358056624" lon="138.83446798045037"><ele>1508.7746280273423</ele><time>2023-11-12T04:20:58Z</time></trkpt><trkpt lat="36.034157537688294" lon="138.83464333790786"><ele>1516.579367090948</ele><time>2023-11-12T04:21:30Z</time></trkpt><trkpt lat="36.033997608691635" lon="138.83475740805812"><ele>1513.6666627442464</ele><time>2023-11-12T04:22:13Z</time></trkpt><trkpt lat="36.03391173679165" lon="138.83495249214477"><ele>1551.5598565805703</ele><time>2023-11-12T04:24:56Z</time></trkpt><trkpt lat="36.03400132832627" lon="138.835145473583"><ele>1569.0968353562057</ele><time>2023-11-12T04:26:06Z</time></trkpt><trkpt lat="36.034038531103604" lon="138.83536703816657"><ele>1550.8399143125862</ele><time>2023-11-12T04:32:26Z</time></trkpt><trkpt lat="36.03411124156887" lon="138.8355889603609"><ele>1560.6452359268442</ele><time>2023-11-12T04:33:14Z</time></trkpt><trkpt lat="36.034085998828395" lon="138.83581035344935"><ele>1568.2245996557176</ele><time>2023-11-12T04:33:59Z</time></trkpt><trkpt lat="36.03401593737028" lon="138.83601756433924"><ele>1569.1178471380845</ele><time>2023-11-12T04:34:44Z</time></trkpt><trkpt lat="36.03394542922429" lon="138.83623141723254"><ele>1572.5509902909398</ele><time>2023-11-12T04:35:37Z</time></trkpt><trkpt lat="36.034074430038814" lon="138.83604515008363"><ele>1540.61028329283</ele><time>2023-11-12T04:38:23Z</time></trkpt><trkpt lat="36.034154788307795" lon="138.83626562455774"><ele>1549.445757145062</ele><time>2023-11-12T04:38:31Z</time></trkpt><trkpt lat="36.03414093178143" lon="138.83648969163576"><ele>1556.8548406455666</ele><time>2023-11-12T04:38:49Z</time></trkpt><trkpt lat="36.03412583113375" lon="138.83671297691257"><ele>1567.356913308613</ele><time>2023-11-12T04:39:33Z</time></trkpt><trkpt lat="36.03411682653359" lon="138.8369357073803"><ele>1574.4705218179151</ele><time>2023-11-12T04:39:58Z</time></trkpt><trkpt lat="36.03407579818684" lon="138.83705857231644"><ele>1573.9950720341876</ele><time>2023-11-12T04:40:49Z</time></trkpt><trkpt lat="36.03400896535404" lon="138.8372671016031"><ele>1575.9454688327387</ele><time>2023-11-12T04:43:01Z</time></trkpt><trkpt lat="36.033903938436225" lon="138.83745029198184"><ele>1563.9683097852394</ele><time>2023-11-12T04:44:33Z</time></trkpt><trkpt lat="36.033831729872134" lon="138.837657360951"><ele>1564.238032844849</ele><time>2023-11-12T04:45:04Z</time></trkpt><trkpt lat="36.033712945828164" lon="138.83783683976728"><ele>1566.5470970263705</ele><time>2023-11-12T04:46:12Z</time></trkpt><trkpt lat="36.03360453854566" lon="138.83801869540406"><ele>1582.5502410326153</ele><time>2023-11-12T04:50:21Z</time></trkpt><trkpt lat="36.03351627359863" lon="138.83805174802015"><ele>1597.8680966226384</ele><time>2023-11-12T04:52:10Z</time></trkpt><trkpt lat="36.033507761642376" lon="138.83828152231993"><ele>1590.0660107247531</ele><time>2023-11-12T04:53:36Z</time></trkpt><trkpt lat="36.03340025003271" lon="138.83845995869524"><ele>1585.1935285944492</ele><time>2023-11-12T04:54:19Z</time></trkpt><trkpt lat="36.03340315086152" lon="138.8386835344905"><ele>1581.1240413421765</ele><time>2023-11-12T04:55:07Z</time></trkpt><trkpt lat="36.033449358166955" lon="138.83889806556184"><ele>1595.1318251034245</ele><time>2023-11-12T04:56:46Z</time></trkpt><trkpt lat="36.03345524076534" lon="138.8389824649498"><ele>1593.7556559331715</ele><time>2023-11-12T05:01:49Z</time></trkpt><trkpt lat="36.0333705262429" lon="138.83878139434017"><ele>1587.8356042150408</ele><time>2023-11-12T05:18:56Z</time></trkpt><trkpt lat="36.03345963169088" lon="138.8385752799493"><ele>1581.5669069010764</ele><time>2023-11-12T05:19:26Z</time></trkpt><trkpt lat="36.03346717068867" lon="138.83834720304"><ele>1582.6848205300048</ele><time>2023-11-12T05:20:01Z</time></trkpt><trkpt lat="36.03351792592349" lon="138.83813362750243"><ele>1586.773392633535</ele><time>2023-11-12T05:21:14Z</time></trkpt><trkpt lat="36.03364928469755" lon="138.83797925270568"><ele>1577.1504553901032</ele><time>2023-11-12T05:23:58Z</time></trkpt><trkpt lat="36.03378207096358" lon="138.83782571199302"><ele>1565.7520361840725</ele><time>2023-11-12T05:28:05Z</time></trkpt><trkpt lat="36.033882729965356" lon="138.83763120204932"><ele>1568.13539926894</ele><time>2023-11-12T05:28:48Z</time></trkpt><trkpt lat="36.03395899304684" lon="138.8374147060735"><ele>1567.7328799646348</ele><time>2023-11-12T05:29:07Z</time></trkpt><trkpt lat="36.03403160779373" lon="138.83721029080434"><ele>1572.5159673830494</ele><time>2023-11-12T05:30:14Z</time></trkpt><trkpt lat="36.03408949903917" lon="138.83699805385177"><ele>1570.8834113543853</ele><time>2023-11-12T05:32:05Z</time></trkpt><trkpt lat="36.03411704545171" lon="138.83677503658706"><ele>1569.1892187204212</ele><time>2023-11-12T05:32:37Z</time></trkpt><trkpt lat="36.0341580645523" lon="138.83655849509427"><ele>1558.0962097272277</ele><time>2023-11-12T05:33:27Z</time></trkpt><trkpt lat="36.03414405572986" lon="138.83633608007315"><ele>1564.4064317503944</ele><time>2023-11-12T05:33:55Z</time></trkpt><trkpt lat="36.03405906913388" lon="138.8361397974656"><ele>1544.752937849611</ele><time>2023-11-12T05:35:11Z</time></trkpt><trkpt lat="36.033877329112656" lon="138.8360920997954"><ele>1559.058678528294</ele><time>2023-11-12T05:37:51Z</time></trkpt><trkpt lat="36.03401234454999" lon="138.83593818132664"><ele>1571.581289618276</ele><time>2023-11-12T05:38:41Z</time></trkpt><trkpt lat="36.034088131617615" lon="138.83573284353616"><ele>1579.3785456139594</ele><time>2023-11-12T05:39:11Z</time></trkpt><trkpt lat="36.03410121358321" lon="138.83550121418222"><ele>1577.476418737322</ele><time>2023-11-12T05:39:47Z</time></trkpt><trkpt lat="36.034019173904774" lon="138.8352960841673"><ele>1566.7087154285982</ele><time>2023-11-12T05:41:02Z</time></trkpt><trkpt lat="36.03393557988449" lon="138.83509463941823"><ele>1556.2575342888013</ele><time>2023-11-12T05:42:18Z</time></trkpt><trkpt lat="36.03394946590878" lon="138.834868712289"><ele>1553.138795641251</ele><time>2023-11-12T05:43:26Z</time></trkpt><trkpt lat="36.033927933193375" lon="138.83480044089413"><ele>1549.5955500267446</ele><time>2023-11-12T05:44:38Z</time></trkpt><trkpt lat="36.03407448474372" lon="138.8346665383051"><ele>1522.7278117304668</ele><time>2023-11-12T05:46:06Z</time></trkpt><trkpt lat="36.0342357966128" lon="138.83455050918613"><ele>1520.3647025851533</ele><time>2023-11-12T05:46:23Z</time></trkpt><trkpt lat="36.03430597064067" lon="138.83434255803888"><ele>1514.7208918975666</ele><time>2023-11-12T05:46:43Z</time></trkpt><trkpt lat="36.03428763602642" lon="138.83412101856155"><ele>1515.3509893966839</ele><time>2023-11-12T05:47:01Z</time></trkpt><trkpt lat="36.0343140698852" lon="138.83389608288138"><ele>1504.590225417167</ele><time>2023-11-12T05:48:13Z</time></trkpt><trkpt lat="36.03440319259849" lon="138.83369956381594"><ele>1491.680656157434</ele><time>2023-11-12T05:49:19Z</time></trkpt><trkpt lat="36.03440425873955" lon="138.833470488642"><ele>1485.845040251501</ele><time>2023-11-12T05:50:04Z</time></trkpt><trkpt lat="36.034468693682726" lon="138.8332529447137"><ele>1483.1045929212123</ele><time>2023-11-12T05:50:34Z</time></trkpt><trkpt lat="36.03455177757797" lon="138.83305570618342"><ele>1486.1406586766243</ele><time>2023-11-12T05:51:10Z</time></trkpt><trkpt lat="36.03458469742198" lon="138.83283148679791"><ele>1500.8411816842854</ele><time>2023-11-12T05:51:56Z</time></trkpt><trkpt lat="36.03475970674368" lon="138.8327595113054"><ele>1498.983175901696</ele><time>2023-11-12T05:54:37Z</time></trkpt><trkpt lat="36.03490861476742" lon="138.83263370050904"><ele>1492.5342773953453</ele><time>2023-11-12T05:55:16Z</time></trkpt><trkpt lat="36.03505633526431" lon="138.83249491471972"><ele>1493.7992333751172</ele><time>2023-11-12T05:56:05Z</time></trkpt><trkpt lat="36.03523678493153" lon="138.8324491729618"><ele>1480.3901998503134</ele><time>2023-11-12T05:57:37Z</time></trkpt><trkpt lat="36.03536245974799" lon="138.8322788560131"><ele>1479.2633777651936</ele><time>2023-11-12T05:58:10Z</time></trkpt><trkpt lat="36.03547918208869" lon="138.83245192067074"><ele>1471.7524085231125</ele><time>2023-11-12T06:00:00Z</time></trkpt><trkpt lat="36.03564978193993" lon="138.83237996625027"><ele>1456.0137636456639</ele><time>2023-11-12T06:00:36Z</time></trkpt><trkpt lat="36.03581204822257" lon="138.83226351948613"><ele>1446.7171230101958</ele><time>2023-11-12T06:01:08Z</time></trkpt><trkpt lat="36.035957900405954" lon="138.83211760594722"><ele>1446.5300989104435</ele><time>2023-11-12T06:01:31Z</time></trkpt><trkpt lat="36.03608059303287" lon="138.83195310749886"><ele>1444.2992243571207</ele><time>2023-11-12T06:01:56Z</time></trkpt><trkpt lat="36.03624265814215" lon="138.83185537149055"><ele>1440.481446097605</ele><time>2023-11-12T06:02:39Z</time></trkpt><trkpt lat="36.03624934263192" lon="138.83207974806928"><ele>1427.38299764134</ele><time>2023-11-12T06:03:54Z</time></trkpt><trkpt lat="36.03641597641144" lon="138.83195433266448"><ele>1420.0298032201827</ele><time>2023-11-12T06:04:30Z</time></trkpt><trkpt lat="36.036594868428054" lon="138.83200064385636"><ele>1419.7718342253938</ele><time>2023-11-12T06:05:12Z</time></trkpt><trkpt lat="36.036787610914374" lon="138.832004938506"><ele>1425.3001134479418</ele><time>2023-11-12T06:06:28Z</time></trkpt><trkpt lat="36.03691630906629" lon="138.83184018817752"><ele>1420.1272391108796</ele><time>2023-11-12T06:06:43Z</time></trkpt><trkpt lat="36.037073927382124" lon="138.8317236897991"><ele>1411.3394088633358</ele><time>2023-11-12T06:09:52Z</time></trkpt><trkpt lat="36.03724904788297" lon="138.83164645586885"><ele>1415.6615271819755</ele><time>2023-11-12T06:11:31Z</time></trkpt><trkpt lat="36.03742923059136" lon="138.83170544407704"><ele>1387.0397997600958</ele><time>2023-11-12T06:14:12Z</time></trkpt><trkpt lat="36.037604011173215" lon="138.83162662527158"><ele>1382.0774778285995</ele><time>2023-11-12T06:15:18Z</time></trkpt><trkpt lat="36.03777640863706" lon="138.8315506827297"><ele>1381.400535730645</ele><time>2023-11-12T06:16:02Z</time></trkpt><trkpt lat="36.03786150685119" lon="138.83135505020502"><ele>1381.1751059805974</ele><time>2023-11-12T06:16:35Z</time></trkpt><trkpt lat="36.03800652474109" lon="138.83150077687966"><ele>1373.6116224983707</ele><time>2023-11-12T06:19:13Z</time></trkpt><trkpt lat="36.037963300634175" lon="138.83172808929325"><ele>1389.077770318836</ele><time>2023-11-12T06:21:03Z</time></trkpt><trkpt lat="36.03813651574091" lon="138.83165178701606"><ele>1360.5761616965756</ele><time>2023-11-12T06:22:03Z</time></trkpt><trkpt lat="36.03830452190419" lon="138.831737710325"><ele>1357.9541222043335</ele><time>2023-11-12T06:22:45Z</time></trkpt><trkpt lat="36.038496055879975" lon="138.83171896232972"><ele>1330.9950734619051</ele><time>2023-11-12T06:23:53Z</time></trkpt><trkpt lat="36.03867413617698" lon="138.83166413756928"><ele>1332.8744385801256</ele><time>2023-11-12T06:25:22Z</time></trkpt><trkpt lat="36.03885303208917" lon="138.8315559287996"><ele>1333.9028845317662</ele><time>2023-11-12T06:25:49Z</time></trkpt><trkpt lat="36.038916166576584" lon="138.83134675052656"><ele>1335.3159036729485</ele><time>2023-11-12T06:26:55Z</time></trkpt><trkpt lat="36.039092964444606" lon="138.83142869620406"><ele>1335.090163837187</ele><time>2023-11-12T06:27:47Z</time></trkpt><trkpt lat="36.039230272838275" lon="138.83157747016804"><ele>1326.5764182666317</ele><time>2023-11-12T06:28:29Z</time></trkpt><trkpt lat="36.03934241646526" lon="138.83175300420646"><ele>1319.213952144608</ele><time>2023-11-12T06:29:04Z</time></trkpt><trkpt lat="36.03951834744149" lon="138.83170049538617"><ele>1309.5544378068298</ele><time>2023-11-12T06:30:09Z</time></trkpt><trkpt lat="36.03968246638654" lon="138.8315951458348"><ele>1301.951720988378</ele><time>2023-11-12T06:30:49Z</time></trkpt><trkpt lat="36.03984283430965" lon="138.83148603600424"><ele>1282.619309945032</ele><time>2023-11-12T06:32:53Z</time></trkpt><trkpt lat="36.039934653114614" lon="138.8312936088243"><ele>1275.3579971389845</ele><time>2023-11-12T06:34:07Z</time></trkpt><trkpt lat="36.04011263127294" lon="138.8312454823309"><ele>1256.3635073509067</ele><time>2023-11-12T06:35:30Z</time></trkpt><trkpt lat="36.04022353173901" lon="138.83105128718347"><ele>1243.2482439056039</ele><time>2023-11-12T06:37:08Z</time></trkpt><trkpt lat="36.04041084143502" lon="138.83101454646814"><ele>1238.9994154628366</ele><time>2023-11-12T06:38:14Z</time></trkpt><trkpt lat="36.04050999186378" lon="138.8312011627278"><ele>1225.7743833297864</ele><time>2023-11-12T06:38:50Z</time></trkpt><trkpt lat="36.040681119146306" lon="138.83112161239933"><ele>1227.7116642501205</ele><time>2023-11-12T06:40:16Z</time></trkpt><trkpt lat="36.040843099048786" lon="138.83123307546583"><ele>1233.1285226242617</ele><time>2023-11-12T06:41:57Z</time></trkpt><trkpt lat="36.04096908893664" lon="138.831407523199"><ele>1227.5274758338928</ele><time>2023-11-12T06:42:21Z</time></trkpt><trkpt lat="36.0410999424151" lon="138.83157354703616"><ele>1221.1994047015905</ele><time>2023-11-12T06:42:40Z</time></trkpt><trkpt lat="36.0411346822246" lon="138.83163617119413"><ele>1217.0429966580123</ele><time>2023-11-12T06:44:01Z</time></trkpt><trkpt lat="36.04130753634112" lon="138.8317080703406"><ele>1215.6128455996513</ele><time>2023-11-12T06:45:31Z</time></trkpt><trkpt lat="36.04145200280669" lon="138.8315523710745"><ele>1214.439777863212</ele><time>2023-11-12T06:45:46Z</time></trkpt><trkpt lat="36.04164234048627" lon="138.8315267073896"><ele>1221.6372746517882</ele><time>2023-11-12T06:46:04Z</time></trkpt><trkpt lat="36.041819063288784" lon="138.83158647127752"><ele>1224.4013290852308</ele><time>2023-11-12T06:46:25Z</time></trkpt><trkpt lat="36.04200429297688" lon="138.8315272034087"><ele>1224.466284872964</ele><time>2023-11-12T06:46:41Z</time></trkpt><trkpt lat="36.04218150148287" lon="138.83145281819648"><ele>1225.0245155673474</ele><time>2023-11-12T06:46:55Z</time></trkpt><trkpt lat="36.04236575472113" lon="138.83146576826613"><ele>1220.3757603410631</ele><time>2023-11-12T06:47:20Z</time></trkpt><trkpt lat="36.042540247371086" lon="138.8313764343709"><ele>1218.3946868116036</ele><time>2023-11-12T06:47:34Z</time></trkpt><trkpt lat="36.04270649753577" lon="138.8312673783561"><ele>1219.352499970235</ele><time>2023-11-12T06:47:49Z</time></trkpt><trkpt lat="36.04288851268274" lon="138.83124924900812"><ele>1217.9809889569879</ele><time>2023-11-12T06:48:05Z</time></trkpt><trkpt lat="36.04306116449263" lon="138.831366652774"><ele>1214.4583597490564</ele><time>2023-11-12T06:48:22Z</time></trkpt><trkpt lat="36.043233941529586" lon="138.83145781826505"><ele>1212.425831882283</ele><time>2023-11-12T06:48:41Z</time></trkpt><trkpt lat="36.04337379879898" lon="138.83161304670674"><ele>1205.3413469549268</ele><time>2023-11-12T06:49:00Z</time></trkpt><trkpt lat="36.0434243562263" lon="138.83183219652835"><ele>1197.5806094966829</ele><time>2023-11-12T06:49:16Z</time></trkpt><trkpt lat="36.043431982740195" lon="138.83206136691365"><ele>1192.1275335447863</ele><time>2023-11-12T06:49:33Z</time></trkpt><trkpt lat="36.04360178317231" lon="138.83217741888532"><ele>1184.2326360605657</ele><time>2023-11-12T06:49:53Z</time></trkpt><trkpt lat="36.04378064250963" lon="138.83213966226413"><ele>1187.9292586063966</ele><time>2023-11-12T06:50:07Z</time></trkpt><trkpt lat="36.043954662536024" lon="138.83224434964131"><ele>1191.0932995788753</ele><time>2023-11-12T06:50:20Z</time></trkpt><trkpt lat="36.04414737475011" lon="138.83224687936968"><ele>1190.813494191505</ele><time>2023-11-12T06:50:37Z</time></trkpt><trkpt lat="36.04432409464324" lon="138.83230108748486"><ele>1187.9024021411315</ele><time>2023-11-12T06:50:51Z</time></trkpt><trkpt lat="36.04449036411694" lon="138.8324033771158"><ele>1186.0220070052892</ele><time>2023-11-12T06:51:06Z</time></trkpt><trkpt lat="36.04467250721123" lon="138.83245553526905"><ele>1182.5445669796318</ele><time>2023-11-12T06:51:23Z</time></trkpt><trkpt lat="36.04485024994804" lon="138.83240221619874"><ele>1180.3342629428953</ele><time>2023-11-12T06:51:39Z</time></trkpt><trkpt lat="36.04491586106256" lon="138.83235192508525"><ele>1178.900349099189</ele><time>2023-11-12T06:51:45Z</time></trkpt><trkpt lat="36.04491586106256" lon="138.83235192508525"><ele>1178.900349099189</ele><time>2023-11-12T06:51:46Z</time></trkpt><trkpt lat="36.04505449935917" lon="138.83219400922744"><ele>1174.4020374333486</ele><time>2023-11-12T06:51:59Z</time></trkpt><trkpt lat="36.04520771204241" lon="138.83205287737425"><ele>1174.6970092952251</ele><time>2023-11-12T06:52:17Z</time></trkpt><trkpt lat="36.04538911110527" lon="138.83197866048377"><ele>1169.0507436366752</ele><time>2023-11-12T06:52:35Z</time></trkpt><trkpt lat="36.045571950919566" lon="138.8320201607754"><ele>1165.2861709017307</ele><time>2023-11-12T06:52:56Z</time></trkpt><trkpt lat="36.04573344389786" lon="138.8321287617934"><ele>1163.2070534974337</ele><time>2023-11-12T06:53:10Z</time></trkpt><trkpt lat="36.045883862375575" lon="138.83225739008034"><ele>1161.2188829611987</ele><time>2023-11-12T06:53:25Z</time></trkpt><trkpt lat="36.046011298659366" lon="138.83241779346733"><ele>1161.3889190834016</ele><time>2023-11-12T06:53:41Z</time></trkpt><trkpt lat="36.04610599975353" lon="138.83262516059358"><ele>1162.0793203171343</ele><time>2023-11-12T06:53:54Z</time></trkpt><trkpt lat="36.0461860875531" lon="138.83282634558512"><ele>1160.3111724602059</ele><time>2023-11-12T06:54:08Z</time></trkpt><trkpt lat="36.04626988823544" lon="138.83302639282127"><ele>1159.2476087426767</ele><time>2023-11-12T06:54:23Z</time></trkpt><trkpt lat="36.04637774787274" lon="138.83321479911658"><ele>1157.5430633723736</ele><time>2023-11-12T06:54:39Z</time></trkpt><trkpt lat="36.04647924533064" lon="138.83341113455688"><ele>1156.789705650881</ele><time>2023-11-12T06:54:56Z</time></trkpt><trkpt lat="36.04629708655409" lon="138.8334782386588"><ele>1153.4757448127493</ele><time>2023-11-12T06:55:17Z</time></trkpt><trkpt lat="36.046239011324126" lon="138.83326479225687"><ele>1153.197980267927</ele><time>2023-11-12T06:55:31Z</time></trkpt><trkpt lat="36.04618186068019" lon="138.83304180729118"><ele>1154.2294026808813</ele><time>2023-11-12T06:55:48Z</time></trkpt><trkpt lat="36.04605677334825" lon="138.83285807778446"><ele>1154.9598215213045</ele><time>2023-11-12T06:56:03Z</time></trkpt><trkpt lat="36.045923171691506" lon="138.8326814103203"><ele>1153.620388129726</ele><time>2023-11-12T06:56:20Z</time></trkpt><trkpt lat="36.04580093823448" lon="138.83250201895962"><ele>1154.269595443271</ele><time>2023-11-12T06:56:35Z</time></trkpt><trkpt lat="36.04562779135883" lon="138.83241298429186"><ele>1155.2376197651029</ele><time>2023-11-12T06:56:48Z</time></trkpt><trkpt lat="36.045428750592016" lon="138.8324481148968"><ele>1155.151368657127</ele><time>2023-11-12T06:57:03Z</time></trkpt><trkpt lat="36.04526008033251" lon="138.83252770509822"><ele>1154.4469480961561</ele><time>2023-11-12T06:57:16Z</time></trkpt><trkpt lat="36.04510158181737" lon="138.83264201851145"><ele>1154.858268218115</ele><time>2023-11-12T06:57:31Z</time></trkpt><trkpt lat="36.04496815735069" lon="138.83280504867778"><ele>1155.2697973465547</ele><time>2023-11-12T06:57:45Z</time></trkpt><trkpt lat="36.044804722699396" lon="138.83293432535274"><ele>1148.1396444579586</ele><time>2023-11-12T06:58:03Z</time></trkpt><trkpt lat="36.04461822182439" lon="138.83292465242653"><ele>1148.7988405488431</ele><time>2023-11-12T06:58:17Z</time></trkpt><trkpt lat="36.044436220286315" lon="138.8329142494021"><ele>1146.4320206101984</ele><time>2023-11-12T06:58:32Z</time></trkpt><trkpt lat="36.04427199195442" lon="138.8330152828312"><ele>1144.696216205135</ele><time>2023-11-12T06:58:46Z</time></trkpt><trkpt lat="36.044100991147126" lon="138.83309090585516"><ele>1141.4022095063701</ele><time>2023-11-12T06:59:00Z</time></trkpt><trkpt lat="36.043927471652985" lon="138.83302673239655"><ele>1141.8995576156303</ele><time>2023-11-12T06:59:14Z</time></trkpt><trkpt lat="36.04373577726245" lon="138.83303249185107"><ele>1143.3449999373406</ele><time>2023-11-12T06:59:30Z</time></trkpt><trkpt lat="36.04355506797307" lon="138.8330414750502"><ele>1145.8295687464997</ele><time>2023-11-12T06:59:43Z</time></trkpt><trkpt lat="36.04343938681801" lon="138.83324134181942"><ele>1141.7311214609072</ele><time>2023-11-12T06:59:58Z</time></trkpt><trkpt lat="36.04325178529689" lon="138.83329645069873"><ele>1128.4250067919493</ele><time>2023-11-12T07:00:18Z</time></trkpt><trkpt lat="36.04317182957506" lon="138.83309626157137"><ele>1127.4275082433596</ele><time>2023-11-12T07:00:35Z</time></trkpt><trkpt lat="36.04304021365769" lon="138.83294068319265"><ele>1125.242669094354</ele><time>2023-11-12T07:00:48Z</time></trkpt><trkpt lat="36.0429548175366" lon="138.83273742787415"><ele>1127.8258404592052</ele><time>2023-11-12T07:01:04Z</time></trkpt><trkpt lat="36.04285567087289" lon="138.83253442333537"><ele>1130.7833601105958</ele><time>2023-11-12T07:01:19Z</time></trkpt><trkpt lat="36.042658167905685" lon="138.8325334760719"><ele>1132.1852652002126</ele><time>2023-11-12T07:01:33Z</time></trkpt><trkpt lat="36.04262371728251" lon="138.8327589241972"><ele>1130.8136152578518</ele><time>2023-11-12T07:01:44Z</time></trkpt><trkpt lat="36.042771863066385" lon="138.83290475413"><ele>1122.2613242901862</ele><time>2023-11-12T07:01:57Z</time></trkpt><trkpt lat="36.042921169874354" lon="138.83305822141838"><ele>1118.670390947722</ele><time>2023-11-12T07:02:13Z</time></trkpt><trkpt lat="36.04306342280398" lon="138.83320593575112"><ele>1112.7636258024722</ele><time>2023-11-12T07:03:07Z</time></trkpt><trkpt lat="36.043140282413525" lon="138.83341002266982"><ele>1108.4375462271273</ele><time>2023-11-12T07:03:25Z</time></trkpt><trkpt lat="36.043232040303245" lon="138.83360415787422"><ele>1107.5310365678743</ele><time>2023-11-12T07:03:41Z</time></trkpt><trkpt lat="36.043418975445626" lon="138.83359744875432"><ele>1106.8983455365524</ele><time>2023-11-12T07:03:58Z</time></trkpt><trkpt lat="36.04356122562977" lon="138.83345587672056"><ele>1104.249359865673</ele><time>2023-11-12T07:04:12Z</time></trkpt><trkpt lat="36.04373737965698" lon="138.8333861730908"><ele>1111.454898471944</ele><time>2023-11-12T07:04:28Z</time></trkpt><trkpt lat="36.04388179699741" lon="138.83352581454776"><ele>1111.0691457539797</ele><time>2023-11-12T07:04:43Z</time></trkpt><trkpt lat="36.04394678048388" lon="138.8337364139678"><ele>1106.0077924933285</ele><time>2023-11-12T07:05:01Z</time></trkpt><trkpt lat="36.04402274454058" lon="138.83394847264688"><ele>1104.8279796391726</ele><time>2023-11-12T07:05:17Z</time></trkpt><trkpt lat="36.04419824393119" lon="138.8340332569186"><ele>1101.3108829809353</ele><time>2023-11-12T07:05:33Z</time></trkpt><trkpt lat="36.0443654461183" lon="138.83391126923254"><ele>1095.4611116209999</ele><time>2023-11-12T07:05:48Z</time></trkpt><trkpt lat="36.044429038362814" lon="138.8337002609208"><ele>1091.1210892787203</ele><time>2023-11-12T07:06:05Z</time></trkpt><trkpt lat="36.0445266972055" lon="138.83350992539542"><ele>1094.5357569679618</ele><time>2023-11-12T07:06:19Z</time></trkpt><trkpt lat="36.04470724276441" lon="138.833459233431"><ele>1098.0672399392352</ele><time>2023-11-12T07:06:36Z</time></trkpt><trkpt lat="36.04488994730321" lon="138.83349694137772"><ele>1094.726944418624</ele><time>2023-11-12T07:06:53Z</time></trkpt><trkpt lat="36.04508172689455" lon="138.8334388765537"><ele>1093.254274301231</ele><time>2023-11-12T07:07:11Z</time></trkpt><trkpt lat="36.045266522061986" lon="138.83337623691475"><ele>1095.8813786692917</ele><time>2023-11-12T07:07:30Z</time></trkpt><trkpt lat="36.04542974857242" lon="138.8334741592013"><ele>1094.8881405154243</ele><time>2023-11-12T07:07:46Z</time></trkpt><trkpt lat="36.0455243106038" lon="138.83368563715976"><ele>1089.214820950292</ele><time>2023-11-12T07:08:02Z</time></trkpt><trkpt lat="36.045528441753646" lon="138.83390960151047"><ele>1083.5922286380082</ele><time>2023-11-12T07:08:20Z</time></trkpt><trkpt lat="36.045510210710795" lon="138.83413762500433"><ele>1076.3231975613162</ele><time>2023-11-12T07:08:37Z</time></trkpt><trkpt lat="36.0455043653562" lon="138.83436883815264"><ele>1073.1858534971252</ele><time>2023-11-12T07:08:56Z</time></trkpt><trkpt lat="36.04558418651214" lon="138.83457390294114"><ele>1069.321441351436</ele><time>2023-11-12T07:09:14Z</time></trkpt><trkpt lat="36.04576443016273" lon="138.83460141644133"><ele>1069.5322352824733</ele><time>2023-11-12T07:09:33Z</time></trkpt><trkpt lat="36.04594940293721" lon="138.83461283295986"><ele>1078.4115649247542</ele><time>2023-11-12T07:09:50Z</time></trkpt><trkpt lat="36.04613045206729" lon="138.83460186998227"><ele>1082.6031290050596</ele><time>2023-11-12T07:10:07Z</time></trkpt><trkpt lat="36.04632064125464" lon="138.83457563538278"><ele>1082.4403432738036</ele><time>2023-11-12T07:10:23Z</time></trkpt><trkpt lat="36.04650258019826" lon="138.83452570846026"><ele>1083.0197243206203</ele><time>2023-11-12T07:10:37Z</time></trkpt><trkpt lat="36.046690647081775" lon="138.83446921102635"><ele>1082.6932621374726</ele><time>2023-11-12T07:10:50Z</time></trkpt><trkpt lat="36.04687675074034" lon="138.8344158386541"><ele>1084.8392362389714</ele><time>2023-11-12T07:11:03Z</time></trkpt><trkpt lat="36.04705762602817" lon="138.83436410985493"><ele>1081.9907724689692</ele><time>2023-11-12T07:11:22Z</time></trkpt><trkpt lat="36.04722227388819" lon="138.83422083010632"><ele>1081.5049100713804</ele><time>2023-11-12T07:11:37Z</time></trkpt><trkpt lat="36.04734394874782" lon="138.83403490641732"><ele>1075.7007320849225</ele><time>2023-11-12T07:12:32Z</time></trkpt><trkpt lat="36.04750513241663" lon="138.83415061723497"><ele>1079.1525132069364</ele><time>2023-11-12T07:12:48Z</time></trkpt><trkpt lat="36.04757561975936" lon="138.83436625069405"><ele>1076.143601260148</ele><time>2023-11-12T07:13:02Z</time></trkpt><trkpt lat="36.047585497997154" lon="138.8346048463187"><ele>1067.0993153052405</ele><time>2023-11-12T07:13:45Z</time></trkpt><trkpt lat="36.04758397599278" lon="138.83484365478972"><ele>1059.3512718556449</ele><time>2023-11-12T07:14:01Z</time></trkpt><trkpt lat="36.047598042385005" lon="138.83507303948895"><ele>1056.6112770354375</ele><time>2023-11-12T07:14:18Z</time></trkpt><trkpt lat="36.047608356883515" lon="138.83529589675635"><ele>1051.627325054258</ele><time>2023-11-12T07:14:33Z</time></trkpt><trkpt lat="36.04769031832335" lon="138.83550829504247"><ele>1049.0625306898728</ele><time>2023-11-12T07:14:51Z</time></trkpt><trkpt lat="36.047835957332815" lon="138.83564375824508"><ele>1051.8063960839063</ele><time>2023-11-12T07:15:06Z</time></trkpt><trkpt lat="36.048025863724256" lon="138.8356303386279"><ele>1052.694967502728</ele><time>2023-11-12T07:15:19Z</time></trkpt><trkpt lat="36.04820159796578" lon="138.83570494848271"><ele>1061.5109654413536</ele><time>2023-11-12T07:15:36Z</time></trkpt><trkpt lat="36.04832755936458" lon="138.83586712236237"><ele>1063.7723553478718</ele><time>2023-11-12T07:15:51Z</time></trkpt><trkpt lat="36.04832678753345" lon="138.83609887457513"><ele>1059.262733940035</ele><time>2023-11-12T07:16:05Z</time></trkpt><trkpt lat="36.04827279956999" lon="138.8363208038171"><ele>1053.2768277879804</ele><time>2023-11-12T07:16:21Z</time></trkpt><trkpt lat="36.048257057675926" lon="138.83654524463893"><ele>1047.7950565079227</ele><time>2023-11-12T07:16:37Z</time></trkpt><trkpt lat="36.04823456193691" lon="138.8367793154416"><ele>1042.8555521443486</ele><time>2023-11-12T07:16:57Z</time></trkpt><trkpt lat="36.04825240542902" lon="138.83700297525397"><ele>1040.786586329341</ele><time>2023-11-12T07:17:25Z</time></trkpt><trkpt lat="36.048327644893185" lon="138.83720967656166"><ele>1040.80539225135</ele><time>2023-11-12T07:17:41Z</time></trkpt><trkpt lat="36.04827034890557" lon="138.83742441907273"><ele>1041.4307139385492</ele><time>2023-11-12T07:17:55Z</time></trkpt><trkpt lat="36.04821452143473" lon="138.8376382171832"><ele>1041.3710147477686</ele><time>2023-11-12T07:18:11Z</time></trkpt><trkpt lat="36.04809604110188" lon="138.83781633688133"><ele>1039.6732015246525</ele><time>2023-11-12T07:18:28Z</time></trkpt><trkpt lat="36.047938002169815" lon="138.83793756017937"><ele>1036.7379970951006</ele><time>2023-11-12T07:18:44Z</time></trkpt><trkpt lat="36.04792514298687" lon="138.83817820319678"><ele>1033.470138894394</ele><time>2023-11-12T07:19:03Z</time></trkpt><trkpt lat="36.04792235343163" lon="138.83841579249233"><ele>1033.2471187403426</ele><time>2023-11-12T07:19:19Z</time></trkpt><trkpt lat="36.04786089718866" lon="138.8386277714316"><ele>1034.0743908006698</ele><time>2023-11-12T07:19:34Z</time></trkpt><trkpt lat="36.047882279182694" lon="138.83884966854984"><ele>1035.2695967294276</ele><time>2023-11-12T07:19:48Z</time></trkpt><trkpt lat="36.04772911425398" lon="138.83897855935493"><ele>1033.7312745088711</ele><time>2023-11-12T07:20:05Z</time></trkpt><trkpt lat="36.04764519636463" lon="138.83877736495802"><ele>1028.6704058740288</ele><time>2023-11-12T07:20:18Z</time></trkpt><trkpt lat="36.047683332363775" lon="138.8385533738808"><ele>1020.7125761760399</ele><time>2023-11-12T07:20:34Z</time></trkpt><trkpt lat="36.04777809425584" lon="138.83834477977396"><ele>1018.1603851048276</ele><time>2023-11-12T07:20:51Z</time></trkpt><trkpt lat="36.04774392070149" lon="138.83811470209423"><ele>1018.0430754041299</ele><time>2023-11-12T07:21:07Z</time></trkpt><trkpt lat="36.047695057269124" lon="138.83788643432814"><ele>1012.300512785092</ele><time>2023-11-12T07:21:24Z</time></trkpt><trkpt lat="36.04779540131899" lon="138.83768912388362"><ele>1008.344647125341</ele><time>2023-11-12T07:21:42Z</time></trkpt><trkpt lat="36.047931877368875" lon="138.8375365926969"><ele>1010.3382281297818</ele><time>2023-11-12T07:21:54Z</time></trkpt><trkpt lat="36.04797311948358" lon="138.83731480394582"><ele>1013.5487623028457</ele><time>2023-11-12T07:22:12Z</time></trkpt><trkpt lat="36.04794480955114" lon="138.83708315826874"><ele>1013.4502889830619</ele><time>2023-11-12T07:22:29Z</time></trkpt><trkpt lat="36.04790847199824" lon="138.83686229134887"><ele>1012.367362418212</ele><time>2023-11-12T07:22:50Z</time></trkpt><trkpt lat="36.047828692150716" lon="138.83665940687578"><ele>1013.3556639458984</ele><time>2023-11-12T07:23:04Z</time></trkpt><trkpt lat="36.04767633577524" lon="138.83653200874156"><ele>1016.1666466696188</ele><time>2023-11-12T07:23:24Z</time></trkpt><trkpt lat="36.04750666150324" lon="138.83665047290154"><ele>1013.8802096201107</ele><time>2023-11-12T07:23:40Z</time></trkpt><trkpt lat="36.04732896633384" lon="138.83669249029637"><ele>1009.0876231808215</ele><time>2023-11-12T07:23:56Z</time></trkpt><trkpt lat="36.04714164389154" lon="138.8366337608095"><ele>1005.3314306950197</ele><time>2023-11-12T07:24:12Z</time></trkpt><trkpt lat="36.04702057342622" lon="138.83646322501139"><ele>999.5456377267838</ele><time>2023-11-12T07:24:27Z</time></trkpt><trkpt lat="36.046986680878774" lon="138.83623994661784"><ele>995.9468079749495</ele><time>2023-11-12T07:24:39Z</time></trkpt><trkpt lat="36.046976401682095" lon="138.83601013697395"><ele>994.5854356586933</ele><time>2023-11-12T07:24:52Z</time></trkpt><trkpt lat="36.04699128932667" lon="138.83578271126402"><ele>996.8798092892393</ele><time>2023-11-12T07:25:07Z</time></trkpt><trkpt lat="36.04695042155327" lon="138.83555984198887"><ele>1001.3394183237106</ele><time>2023-11-12T07:25:19Z</time></trkpt><trkpt lat="36.04677874352321" lon="138.83548835061157"><ele>1005.7710052365437</ele><time>2023-11-12T07:25:34Z</time></trkpt><trkpt lat="36.046607573987664" lon="138.83558118859742"><ele>1004.302420893684</ele><time>2023-11-12T07:25:48Z</time></trkpt><trkpt lat="36.04644473442099" lon="138.83569959990217"><ele>1006.7093913489953</ele><time>2023-11-12T07:26:03Z</time></trkpt><trkpt lat="36.04634565969403" lon="138.8359117539216"><ele>997.9744647480547</ele><time>2023-11-12T07:26:20Z</time></trkpt><trkpt lat="36.046226322697656" lon="138.83608209067086"><ele>995.3704153159633</ele><time>2023-11-12T07:26:32Z</time></trkpt><trkpt lat="36.04603958875636" lon="138.8360501851483"><ele>991.7000461500138</ele><time>2023-11-12T07:26:46Z</time></trkpt><trkpt lat="36.04586839430365" lon="138.8359559760123"><ele>994.5965073341504</ele><time>2023-11-12T07:26:59Z</time></trkpt><trkpt lat="36.04568817698084" lon="138.83597411955012"><ele>996.2549470067024</ele><time>2023-11-12T07:27:15Z</time></trkpt><trkpt lat="36.04564625134964" lon="138.83620295065757"><ele>994.0823406009004</ele><time>2023-11-12T07:27:31Z</time></trkpt><trkpt lat="36.04564165112988" lon="138.8364384950941"><ele>989.77486546617</ele><time>2023-11-12T07:27:48Z</time></trkpt><trkpt lat="36.04558451909752" lon="138.8366526729236"><ele>985.3241820661351</ele><time>2023-11-12T07:28:04Z</time></trkpt><trkpt lat="36.04544377488815" lon="138.83681658231066"><ele>982.1635948400944</ele><time>2023-11-12T07:28:21Z</time></trkpt><trkpt lat="36.04526636616026" lon="138.83687317289335"><ele>983.7712691863999</ele><time>2023-11-12T07:28:34Z</time></trkpt><trkpt lat="36.0450730019311" lon="138.8368772212717"><ele>984.0601690290496</ele><time>2023-11-12T07:28:50Z</time></trkpt><trkpt lat="36.04490947321729" lon="138.83676612359542"><ele>984.8775832941756</ele><time>2023-11-12T07:29:02Z</time></trkpt><trkpt lat="36.04472626922703" lon="138.8366978639352"><ele>982.0462218439206</ele><time>2023-11-12T07:29:15Z</time></trkpt><trkpt lat="36.044585805671815" lon="138.83655072161457"><ele>975.4037961252034</ele><time>2023-11-12T07:29:35Z</time></trkpt><trkpt lat="36.044451179614484" lon="138.8363992687907"><ele>974.3410769617185</ele><time>2023-11-12T07:29:50Z</time></trkpt><trkpt lat="36.044310124493215" lon="138.8362444584387"><ele>972.9964127549902</ele><time>2023-11-12T07:30:07Z</time></trkpt><trkpt lat="36.044173806571806" lon="138.83609207534744"><ele>976.0699649853632</ele><time>2023-11-12T07:30:21Z</time></trkpt><trkpt lat="36.04405968234656" lon="138.83628129319987"><ele>974.7606734437868</ele><time>2023-11-12T07:30:38Z</time></trkpt><trkpt lat="36.04417147541031" lon="138.83646225718144"><ele>968.3992191441357</ele><time>2023-11-12T07:30:55Z</time></trkpt><trkpt lat="36.04436052969736" lon="138.83650211128491"><ele>966.8365416824818</ele><time>2023-11-12T07:31:08Z</time></trkpt><trkpt lat="36.04450065755369" lon="138.8366470184017"><ele>964.2810489339754</ele><time>2023-11-12T07:31:22Z</time></trkpt><trkpt lat="36.04456172422414" lon="138.83686442304423"><ele>962.7338097309694</ele><time>2023-11-12T07:31:37Z</time></trkpt><trkpt lat="36.04473807162385" lon="138.83693531132525"><ele>963.3527380917221</ele><time>2023-11-12T07:31:53Z</time></trkpt><trkpt lat="36.04480733182599" lon="138.83714222067752"><ele>963.5159809431061</ele><time>2023-11-12T07:32:07Z</time></trkpt><trkpt lat="36.04481609984356" lon="138.83736419687415"><ele>960.113856936805</ele><time>2023-11-12T07:32:23Z</time></trkpt><trkpt lat="36.04487094488463" lon="138.8375838341119"><ele>955.4906121827662</ele><time>2023-11-12T07:32:44Z</time></trkpt><trkpt lat="36.044901380816235" lon="138.8378064550983"><ele>951.1745911855251</ele><time>2023-11-12T07:33:02Z</time></trkpt><trkpt lat="36.04477383533198" lon="138.83797459540506"><ele>947.3535486906767</ele><time>2023-11-12T07:33:17Z</time></trkpt><trkpt lat="36.04460925757838" lon="138.8380712011092"><ele>943.8530975217</ele><time>2023-11-12T07:33:35Z</time></trkpt><trkpt lat="36.04458388661575" lon="138.83829324393741"><ele>941.0780436517671</ele><time>2023-11-12T07:33:50Z</time></trkpt><trkpt lat="36.04472553174448" lon="138.83844185976795"><ele>933.6256294380873</ele><time>2023-11-12T07:34:05Z</time></trkpt><trkpt lat="36.04490985414513" lon="138.83843522086926"><ele>933.6363598145545</ele><time>2023-11-12T07:34:22Z</time></trkpt><trkpt lat="36.04505041631157" lon="138.8382859543636"><ele>938.0536131719127</ele><time>2023-11-12T07:34:36Z</time></trkpt><trkpt lat="36.045157862331834" lon="138.8380847754237"><ele>941.1043581170961</ele><time>2023-11-12T07:34:51Z</time></trkpt><trkpt lat="36.04522722721079" lon="138.8378712639731"><ele>942.9966928986832</ele><time>2023-11-12T07:35:07Z</time></trkpt><trkpt lat="36.0453953144437" lon="138.8377697395729"><ele>943.0105442889035</ele><time>2023-11-12T07:35:24Z</time></trkpt><trkpt lat="36.045510955720424" lon="138.8375783909315"><ele>944.0557853896171</ele><time>2023-11-12T07:35:45Z</time></trkpt><trkpt lat="36.045631118032965" lon="138.8374003294198"><ele>946.2803317708895</ele><time>2023-11-12T07:35:56Z</time></trkpt><trkpt lat="36.04581057761743" lon="138.837340386228"><ele>942.9417898580432</ele><time>2023-11-12T07:36:14Z</time></trkpt><trkpt lat="36.04600665081005" lon="138.83735393821425"><ele>940.7038352424279</ele><time>2023-11-12T07:36:27Z</time></trkpt><trkpt lat="36.0460922090799" lon="138.83755828695456"><ele>934.3743680072948</ele><time>2023-11-12T07:36:41Z</time></trkpt><trkpt lat="36.046019564395806" lon="138.83777937385017"><ele>929.498885370791</ele><time>2023-11-12T07:36:55Z</time></trkpt><trkpt lat="36.04599906665803" lon="138.838014435621"><ele>925.3290419541299</ele><time>2023-11-12T07:37:11Z</time></trkpt><trkpt lat="36.04608121827972" lon="138.83821871599162"><ele>916.8668666668236</ele><time>2023-11-12T07:37:28Z</time></trkpt><trkpt lat="36.04627720305285" lon="138.83827309968456"><ele>918.2790805352852</ele><time>2023-11-12T07:37:37Z</time></trkpt><trkpt lat="36.04645659621249" lon="138.83839051952148"><ele>921.6455644126981</ele><time>2023-11-12T07:37:44Z</time></trkpt><trkpt lat="36.04645080487542" lon="138.83863388693163"><ele>917.8008655486628</ele><time>2023-11-12T07:37:54Z</time></trkpt><trkpt lat="36.046352146196924" lon="138.83885580091564"><ele>913.8817287785932</ele><time>2023-11-12T07:38:01Z</time></trkpt><trkpt lat="36.04628541816955" lon="138.83906342289038"><ele>912.5369101678953</ele><time>2023-11-12T07:38:08Z</time></trkpt><trkpt lat="36.04627139482169" lon="138.83928864791486"><ele>903.7446233015507</ele><time>2023-11-12T07:38:16Z</time></trkpt><trkpt lat="36.046273494870384" lon="138.8395397603476"><ele>900.1092359041795</ele><time>2023-11-12T07:38:24Z</time></trkpt><trkpt lat="36.046328804835554" lon="138.83976902843483"><ele>899.2867485303432</ele><time>2023-11-12T07:38:32Z</time></trkpt><trkpt lat="36.04638533753371" lon="138.84001614678843"><ele>897.892421993427</ele><time>2023-11-12T07:38:40Z</time></trkpt><trkpt lat="36.04645464943216" lon="138.8402394928118"><ele>893.4304446168244</ele><time>2023-11-12T07:38:48Z</time></trkpt><trkpt lat="36.04655345790798" lon="138.8404368026605"><ele>891.5935209915042</ele><time>2023-11-12T07:38:55Z</time></trkpt><trkpt lat="36.04673294147153" lon="138.84052084723098"><ele>882.3916587838903</ele><time>2023-11-12T07:39:05Z</time></trkpt><trkpt lat="36.0469071654865" lon="138.84058174547462"><ele>874.6853276435286</ele><time>2023-11-12T07:39:15Z</time></trkpt><trkpt lat="36.04706829370669" lon="138.84070811445875"><ele>880.9517703466117</ele><time>2023-11-12T07:39:22Z</time></trkpt><trkpt lat="36.04710802039572" lon="138.84093013781538"><ele>886.9815684966743</ele><time>2023-11-12T07:39:27Z</time></trkpt><trkpt lat="36.04709747683578" lon="138.84116121789694"><ele>894.9800332076848</ele><time>2023-11-12T07:39:33Z</time></trkpt><trkpt lat="36.0470481492809" lon="138.84138630818984"><ele>889.8294628569856</ele><time>2023-11-12T07:39:40Z</time></trkpt><trkpt lat="36.04698777428754" lon="138.8416001093326"><ele>889.244896418415</ele><time>2023-11-12T07:39:46Z</time></trkpt><trkpt lat="36.04713024608703" lon="138.8417465333618"><ele>878.3965085623786</ele><time>2023-11-12T07:39:53Z</time></trkpt><trkpt lat="36.04733023991895" lon="138.84173896475116"><ele>882.070413865149</ele><time>2023-11-12T07:40:02Z</time></trkpt><trkpt lat="36.04752028158039" lon="138.841737476755"><ele>888.4702352015302</ele><time>2023-11-12T07:40:09Z</time></trkpt><trkpt lat="36.047710256164216" lon="138.84179184765463"><ele>884.0839845538139</ele><time>2023-11-12T07:40:16Z</time></trkpt><trkpt lat="36.04786302502293" lon="138.8419204391943"><ele>882.3327850522473</ele><time>2023-11-12T07:40:22Z</time></trkpt><trkpt lat="36.04796879777918" lon="138.84212909064829"><ele>881.0243451036513</ele><time>2023-11-12T07:40:29Z</time></trkpt><trkpt lat="36.04801450048878" lon="138.84234556391883"><ele>876.8991228826344</ele><time>2023-11-12T07:40:36Z</time></trkpt><trkpt lat="36.04818892705357" lon="138.84240814982334"><ele>876.1528742853552</ele><time>2023-11-12T07:40:44Z</time></trkpt><trkpt lat="36.048315025163554" lon="138.84220683285062"><ele>873.4269010303542</ele><time>2023-11-12T07:40:52Z</time></trkpt><trkpt lat="36.04838823683352" lon="138.84213343722257"><ele>874.8692673845217</ele><time>2023-11-12T07:40:56Z</time></trkpt><trkpt lat="36.04858639198484" lon="138.842121556018"><ele>885.0103627564386</ele><time>2023-11-12T07:41:04Z</time></trkpt><trkpt lat="36.048761661331284" lon="138.8421953704789"><ele>882.3876538258046</ele><time>2023-11-12T07:41:11Z</time></trkpt><trkpt lat="36.04893087987542" lon="138.84227873990656"><ele>876.21268863976</ele><time>2023-11-12T07:41:19Z</time></trkpt><trkpt lat="36.04904357113219" lon="138.84245706853304"><ele>873.5446132421494</ele><time>2023-11-12T07:41:26Z</time></trkpt><trkpt lat="36.04914251907126" lon="138.84266445400144"><ele>873.6174858491868</ele><time>2023-11-12T07:41:34Z</time></trkpt><trkpt lat="36.04915297256713" lon="138.8429099540478"><ele>869.399387546815</ele><time>2023-11-12T07:41:42Z</time></trkpt><trkpt lat="36.04916938739589" lon="138.8431323754161"><ele>860.2521331906319</ele><time>2023-11-12T07:41:49Z</time></trkpt><trkpt lat="36.04911206036283" lon="138.84334365123718"><ele>855.8323759390041</ele><time>2023-11-12T07:42:01Z</time></trkpt><trkpt lat="36.04923938250541" lon="138.84351735236717"><ele>854.3369882898405</ele><time>2023-11-12T07:42:13Z</time></trkpt><trkpt lat="36.04939141547131" lon="138.8437161193679"><ele>851.927537329495</ele><time>2023-11-12T07:42:24Z</time></trkpt><trkpt lat="36.049576917300726" lon="138.84368428283707"><ele>854.7095489874482</ele><time>2023-11-12T07:42:32Z</time></trkpt><trkpt lat="36.049777465851655" lon="138.84367437833288"><ele>859.2680222997442</ele><time>2023-11-12T07:42:38Z</time></trkpt><trkpt lat="36.04998526971119" lon="138.84369705126642"><ele>864.9649224011227</ele><time>2023-11-12T07:42:45Z</time></trkpt><trkpt lat="36.05016834699065" lon="138.84368481518527"><ele>867.2365634152666</ele><time>2023-11-12T07:42:52Z</time></trkpt><trkpt lat="36.05035475345659" lon="138.84368398842767"><ele>866.5352223385125</ele><time>2023-11-12T07:43:00Z</time></trkpt><trkpt lat="36.050560996256586" lon="138.84363406755045"><ele>860.6421327088028</ele><time>2023-11-12T07:43:08Z</time></trkpt><trkpt lat="36.05074782712009" lon="138.84359708898754"><ele>859.6306621255353</ele><time>2023-11-12T07:43:15Z</time></trkpt><trkpt lat="36.050936559042114" lon="138.8435811197032"><ele>855.1550261992961</ele><time>2023-11-12T07:43:22Z</time></trkpt><trkpt lat="36.05106593906622" lon="138.8437386974862"><ele>851.749651604332</ele><time>2023-11-12T07:43:30Z</time></trkpt><trkpt lat="36.05114260832765" lon="138.84397611981512"><ele>847.6940782023594</ele><time>2023-11-12T07:43:39Z</time></trkpt><trkpt lat="36.05122676532565" lon="138.84417652274578"><ele>841.6186402617022</ele><time>2023-11-12T07:43:46Z</time></trkpt><trkpt lat="36.05140938266976" lon="138.844285793755"><ele>838.2803067741916</ele><time>2023-11-12T07:43:55Z</time></trkpt><trkpt lat="36.05159425577437" lon="138.8442728642819"><ele>841.4379172781482</ele><time>2023-11-12T07:44:04Z</time></trkpt><trkpt lat="36.05176004838213" lon="138.8441340471787"><ele>844.7230654284358</ele><time>2023-11-12T07:44:14Z</time></trkpt><trkpt lat="36.05192696547442" lon="138.84400419941693"><ele>848.1558955004439</ele><time>2023-11-12T07:44:23Z</time></trkpt><trkpt lat="36.05210474541199" lon="138.84390903551514"><ele>851.4232252622023</ele><time>2023-11-12T07:44:31Z</time></trkpt><trkpt lat="36.05225567596165" lon="138.843768030151"><ele>853.2769375778735</ele><time>2023-11-12T07:44:42Z</time></trkpt><trkpt lat="36.05231718397091" lon="138.84355284914844"><ele>855.8105359766632</ele><time>2023-11-12T07:44:54Z</time></trkpt><trkpt lat="36.0523564961674" lon="138.84333189119076"><ele>858.9572593998164</ele><time>2023-11-12T07:45:09Z</time></trkpt><trkpt lat="36.052446724502396" lon="138.84313915445998"><ele>863.1421058308333</ele><time>2023-11-12T07:45:24Z</time></trkpt><trkpt lat="36.052529745485714" lon="138.8429346437526"><ele>869.0533835673705</ele><time>2023-11-12T07:45:38Z</time></trkpt><trkpt lat="36.05269570659547" lon="138.84282749399463"><ele>871.6413655374199</ele><time>2023-11-12T07:45:50Z</time></trkpt><trkpt lat="36.05273923818805" lon="138.84259932170062"><ele>871.8729126919061</ele><time>2023-11-12T07:46:00Z</time></trkpt><trkpt lat="36.052853406665335" lon="138.8423961390227"><ele>870.0368166165426</ele><time>2023-11-12T07:46:10Z</time></trkpt><trkpt lat="36.05295984519356" lon="138.84221229214756"><ele>865.4986441349611</ele><time>2023-11-12T07:46:27Z</time></trkpt><trkpt lat="36.05314130175654" lon="138.84214828229847"><ele>859.2583839213476</ele><time>2023-11-12T07:46:45Z</time></trkpt><trkpt lat="36.05332465832762" lon="138.8422044278538"><ele>856.3062707129866</ele><time>2023-11-12T07:47:01Z</time></trkpt><trkpt lat="36.05348541871247" lon="138.8423148108458"><ele>850.1120635280386</ele><time>2023-11-12T07:47:10Z</time></trkpt><trkpt lat="36.0536774178347" lon="138.84227505484648"><ele>852.5570037709549</ele><time>2023-11-12T07:47:18Z</time></trkpt><trkpt lat="36.05383966535584" lon="138.8423885250254"><ele>852.7912334892899</ele><time>2023-11-12T07:47:26Z</time></trkpt><trkpt lat="36.05389058237969" lon="138.842610886553"><ele>840.8754638861865</ele><time>2023-11-12T07:47:34Z</time></trkpt><trkpt lat="36.053929144970645" lon="138.8428610511497"><ele>830.9343065200374</ele><time>2023-11-12T07:47:42Z</time></trkpt><trkpt lat="36.053966165389895" lon="138.84309984891487"><ele>820.518529901281</ele><time>2023-11-12T07:47:50Z</time></trkpt><trkpt lat="36.05404741739223" lon="138.8433287189459"><ele>822.1347219860181</ele><time>2023-11-12T07:47:56Z</time></trkpt><trkpt lat="36.05411670249679" lon="138.84354727002324"><ele>820.6811679778621</ele><time>2023-11-12T07:48:02Z</time></trkpt><trkpt lat="36.05419079428294" lon="138.84378498076774"><ele>818.6477904040366</ele><time>2023-11-12T07:48:09Z</time></trkpt><trkpt lat="36.05424763983832" lon="138.84400952014616"><ele>817.5617713434622</ele><time>2023-11-12T07:48:16Z</time></trkpt><trkpt lat="36.05427687161676" lon="138.84424799261657"><ele>813.1870355186984</ele><time>2023-11-12T07:48:22Z</time></trkpt><trkpt lat="36.05444412455158" lon="138.84436282879346"><ele>808.7162070320919</ele><time>2023-11-12T07:48:30Z</time></trkpt><trkpt lat="36.0546349905307" lon="138.84432533571677"><ele>814.0939007000998</ele><time>2023-11-12T07:48:37Z</time></trkpt><trkpt lat="36.05480995088158" lon="138.84424372283704"><ele>818.6524750171229</ele><time>2023-11-12T07:48:44Z</time></trkpt><trkpt lat="36.054991354974895" lon="138.84431728768456"><ele>820.9290341930464</ele><time>2023-11-12T07:48:52Z</time></trkpt><trkpt lat="36.05513150899687" lon="138.84447949083486"><ele>822.4671451589093</ele><time>2023-11-12T07:49:01Z</time></trkpt><trkpt lat="36.05530605235502" lon="138.84460411030364"><ele>816.4363563777879</ele><time>2023-11-12T07:49:10Z</time></trkpt><trkpt lat="36.0555048938679" lon="138.84456986578826"><ele>812.9929158901796</ele><time>2023-11-12T07:49:18Z</time></trkpt><trkpt lat="36.05570054291509" lon="138.84461801073846"><ele>814.677472172305</ele><time>2023-11-12T07:49:25Z</time></trkpt><trkpt lat="36.05589232401771" lon="138.8446378369998"><ele>814.6186785669997</ele><time>2023-11-12T07:49:33Z</time></trkpt><trkpt lat="36.05603956718517" lon="138.84448907924389"><ele>811.5262417299673</ele><time>2023-11-12T07:49:40Z</time></trkpt><trkpt lat="36.05617494285903" lon="138.84429259732312"><ele>808.2697497978806</ele><time>2023-11-12T07:49:48Z</time></trkpt><trkpt lat="36.05637909741028" lon="138.84433924283198"><ele>816.8624979034066</ele><time>2023-11-12T07:49:54Z</time></trkpt><trkpt lat="36.056555078797835" lon="138.8444095666857"><ele>821.8470805566758</ele><time>2023-11-12T07:50:01Z</time></trkpt><trkpt lat="36.056694520688396" lon="138.84455297583864"><ele>824.7445574412122</ele><time>2023-11-12T07:50:09Z</time></trkpt><trkpt lat="36.05681309873482" lon="138.84474165790934"><ele>813.5828788271174</ele><time>2023-11-12T07:50:19Z</time></trkpt><trkpt lat="36.05686235792168" lon="138.84496278479492"><ele>805.5241285935044</ele><time>2023-11-12T07:50:29Z</time></trkpt><trkpt lat="36.05691735552688" lon="138.84519967776677"><ele>797.8369103334844</ele><time>2023-11-12T07:50:38Z</time></trkpt><trkpt lat="36.0569050198818" lon="138.84542953536223"><ele>795.4041367284954</ele><time>2023-11-12T07:50:45Z</time></trkpt><trkpt lat="36.05687594754392" lon="138.84569094608472"><ele>790.275417550467</ele><time>2023-11-12T07:50:53Z</time></trkpt><trkpt lat="36.056898371997185" lon="138.84591968605463"><ele>782.7861554268748</ele><time>2023-11-12T07:51:00Z</time></trkpt><trkpt lat="36.05693142815106" lon="138.8461387073864"><ele>778.0144680868834</ele><time>2023-11-12T07:51:06Z</time></trkpt><trkpt lat="36.05708870986831" lon="138.84627408219626"><ele>781.9993526441976</ele><time>2023-11-12T07:51:13Z</time></trkpt><trkpt lat="36.05725915570908" lon="138.84636601988873"><ele>789.7581235021353</ele><time>2023-11-12T07:51:27Z</time></trkpt><trkpt lat="36.057446653962685" lon="138.84637515772093"><ele>792.7932770708576</ele><time>2023-11-12T07:51:39Z</time></trkpt><trkpt lat="36.057594705601936" lon="138.84623348283566"><ele>795.2611553343013</ele><time>2023-11-12T07:51:56Z</time></trkpt><trkpt lat="36.057737290007545" lon="138.84608482934783"><ele>795.824698690325</ele><time>2023-11-12T07:52:09Z</time></trkpt><trkpt lat="36.05778856035445" lon="138.84586537542717"><ele>795.6963186254725</ele><time>2023-11-12T07:52:27Z</time></trkpt><trkpt lat="36.05790192331487" lon="138.84567994108093"><ele>797.7431792905554</ele><time>2023-11-12T07:52:42Z</time></trkpt><trkpt lat="36.05802526052026" lon="138.8455017496004"><ele>799.5258055627346</ele><time>2023-11-12T07:52:56Z</time></trkpt><trkpt lat="36.05820821973949" lon="138.84543594768203"><ele>798.9983848938718</ele><time>2023-11-12T07:53:05Z</time></trkpt><trkpt lat="36.05837799882533" lon="138.84534746943837"><ele>797.4123436715454</ele><time>2023-11-12T07:53:19Z</time></trkpt><trkpt lat="36.058573248193866" lon="138.84530096037156"><ele>798.0679273679852</ele><time>2023-11-12T07:53:31Z</time></trkpt><trkpt lat="36.05875548083781" lon="138.84535580291322"><ele>797.1823738934472</ele><time>2023-11-12T07:53:43Z</time></trkpt><trkpt lat="36.058887913094985" lon="138.84550834374178"><ele>789.713813373819</ele><time>2023-11-12T07:54:02Z</time></trkpt><trkpt lat="36.058965738770105" lon="138.84530603090576"><ele>775.17331231758</ele><time>2023-11-12T07:55:20Z</time></trkpt><trkpt lat="36.059143467551266" lon="138.84536973477498"><ele>776.081421229057</ele><time>2023-11-12T07:55:39Z</time></trkpt><trkpt lat="36.05933652323241" lon="138.84286694115067"><ele>779.1571132428944</ele><time>2023-11-12T07:58:01Z</time></trkpt><trkpt lat="36.05927191976885" lon="138.84233527112997"><ele>793.6862465012819</ele><time>2023-11-12T07:58:04Z</time></trkpt><trkpt lat="36.059299528656126" lon="138.8420832990873"><ele>801.8783506434411</ele><time>2023-11-12T07:58:11Z</time></trkpt><trkpt lat="36.059144086206125" lon="138.84219779770808"><ele>806.0179655039683</ele><time>2023-11-12T07:58:49Z</time></trkpt></trkseg></trk></gpx>