<?xml version='1.0' encoding='UTF-8'?><gpx creator="YAMAP - https://yamap.com" xsi:schemaLocation="http://www.topografix.com/GPX/1/1 http://www.topografix.com/GPX/1/1/gpx.xsd" version="1.1" xmlns="http://www.topografix.com/GPX/1/1" xmlns:xsi="http://www.w3.org/2001/XMLSchema-instance"><metadata><bounds maxlat="36.845229979436674" maxlon="138.82563161808292" minlat="36.80749846229893" minlon="138.77838284153916"/></metadata><trk><name>平標山</name><number>1</number><trkseg><trkpt lat="36.81113762696477" lon="138.78391692728712"><ele>986.1263365112245</ele><time>2023-02-17T21:44:26Z</time></trkpt><trkpt lat="36.811320860700526" lon="138.78388872173034"><ele>986.5278130257502</ele><time>2023-02-17T21:47:33Z</time></trkpt><trkpt lat="36.811499170037074" lon="138.78383322940755"><ele>986.3882679399103</ele><time>2023-02-17T21:47:52Z</time></trkpt><trkpt lat="36.81168610762536" lon="138.78380870487132"><ele>984.8936554389074</ele><time>2023-02-17T21:48:11Z</time></trkpt><trkpt lat="36.81184547021311" lon="138.78393346167508"><ele>984.7944037094712</ele><time>2023-02-17T21:48:32Z</time></trkpt><trkpt lat="36.811825738556564" lon="138.78416495636046"><ele>983.4800020437688</ele><time>2023-02-17T21:49:09Z</time></trkpt><trkpt lat="36.81174350987674" lon="138.78436718237262"><ele>983.8200344946235</ele><time>2023-02-17T21:49:32Z</time></trkpt><trkpt lat="36.81161573746473" lon="138.78453437674474"><ele>983.3665573839098</ele><time>2023-02-17T21:50:00Z</time></trkpt><trkpt lat="36.81157737418657" lon="138.78475801945137"><ele>986.1962437527254</ele><time>2023-02-17T21:50:27Z</time></trkpt><trkpt lat="36.811486732166905" lon="138.78495530090467"><ele>989.3487430280074</ele><time>2023-02-17T21:51:01Z</time></trkpt><trkpt lat="36.81141796937894" lon="138.78517203307672"><ele>989.0727378679439</ele><time>2023-02-17T21:51:36Z</time></trkpt><trkpt lat="36.81134306783859" lon="138.7853846134057"><ele>990.2379790535197</ele><time>2023-02-17T21:52:00Z</time></trkpt><trkpt lat="36.811267628010484" lon="138.78559457445445"><ele>991.9862569207326</ele><time>2023-02-17T21:52:21Z</time></trkpt><trkpt lat="36.811196685683136" lon="138.78580777684044"><ele>995.0360071668401</ele><time>2023-02-17T21:52:41Z</time></trkpt><trkpt lat="36.811116461759255" lon="138.7860154159614"><ele>997.7155396295711</ele><time>2023-02-17T21:53:04Z</time></trkpt><trkpt lat="36.81103447647077" lon="138.78621662599204"><ele>998.2041225535795</ele><time>2023-02-17T21:53:29Z</time></trkpt><trkpt lat="36.8109611204181" lon="138.786422414579"><ele>998.6427371380851</ele><time>2023-02-17T21:53:53Z</time></trkpt><trkpt lat="36.81091852124732" lon="138.78665368377963"><ele>1000.2429499207065</ele><time>2023-02-17T21:54:15Z</time></trkpt><trkpt lat="36.81087482012817" lon="138.7868772947799"><ele>1003.2045572819188</ele><time>2023-02-17T21:54:35Z</time></trkpt><trkpt lat="36.81082168237799" lon="138.78709914148467"><ele>1004.2536520762369</ele><time>2023-02-17T21:54:55Z</time></trkpt><trkpt lat="36.810761722413815" lon="138.78732305957212"><ele>1002.3939272789285</ele><time>2023-02-17T21:55:19Z</time></trkpt><trkpt lat="36.81073052062705" lon="138.78755394244126"><ele>1004.458332952112</ele><time>2023-02-17T21:56:28Z</time></trkpt><trkpt lat="36.81067088914949" lon="138.78776585199313"><ele>1005.4520722962916</ele><time>2023-02-17T21:56:48Z</time></trkpt><trkpt lat="36.81069997839525" lon="138.78799086031293"><ele>1005.4700859850273</ele><time>2023-02-17T21:57:16Z</time></trkpt><trkpt lat="36.81076855640503" lon="138.78820484165763"><ele>1006.8157876273617</ele><time>2023-02-17T21:57:38Z</time></trkpt><trkpt lat="36.81073494484152" lon="138.78843642790818"><ele>1004.9413261134177</ele><time>2023-02-17T21:58:02Z</time></trkpt><trkpt lat="36.810710911327796" lon="138.78867169138383"><ele>1010.2371298661456</ele><time>2023-02-17T21:58:27Z</time></trkpt><trkpt lat="36.81060508409803" lon="138.78886393081604"><ele>1008.9423581557348</ele><time>2023-02-17T21:59:38Z</time></trkpt><trkpt lat="36.81062601243847" lon="138.789094643426"><ele>1009.3622202631086</ele><time>2023-02-17T21:59:59Z</time></trkpt><trkpt lat="36.81050111173413" lon="138.78926318190497"><ele>1011.9188736090437</ele><time>2023-02-17T22:00:19Z</time></trkpt><trkpt lat="36.810411056171276" lon="138.78946244351886"><ele>1012.7447538068518</ele><time>2023-02-17T22:00:41Z</time></trkpt><trkpt lat="36.81029191492272" lon="138.7896450749276"><ele>1012.4127541277558</ele><time>2023-02-17T22:01:03Z</time></trkpt><trkpt lat="36.81016931799581" lon="138.78981282170218"><ele>1014.3742175688967</ele><time>2023-02-17T22:01:23Z</time></trkpt><trkpt lat="36.81007129229761" lon="138.79000208325206"><ele>1014.9418495157734</ele><time>2023-02-17T22:01:48Z</time></trkpt><trkpt lat="36.81000048232409" lon="138.79020919588936"><ele>1015.3600737350062</ele><time>2023-02-17T22:02:11Z</time></trkpt><trkpt lat="36.80985973944748" lon="138.79036225930273"><ele>1017.6515023345128</ele><time>2023-02-17T22:02:47Z</time></trkpt><trkpt lat="36.80981846026862" lon="138.79058137044404"><ele>1017.5536568919197</ele><time>2023-02-17T22:03:13Z</time></trkpt><trkpt lat="36.809728994415394" lon="138.79077601848053"><ele>1021.186697371304</ele><time>2023-02-17T22:03:39Z</time></trkpt><trkpt lat="36.80957508883304" lon="138.790903231172"><ele>1024.7435773890465</ele><time>2023-02-17T22:03:57Z</time></trkpt><trkpt lat="36.80956584357807" lon="138.79113392885301"><ele>1024.3958876393735</ele><time>2023-02-17T22:07:33Z</time></trkpt><trkpt lat="36.80946279937927" lon="138.79132178431507"><ele>1029.5173558471724</ele><time>2023-02-17T22:07:51Z</time></trkpt><trkpt lat="36.80935866200456" lon="138.79150708456666"><ele>1030.9012187235057</ele><time>2023-02-17T22:08:14Z</time></trkpt><trkpt lat="36.80924109838547" lon="138.7916830608722"><ele>1034.2028200086206</ele><time>2023-02-17T22:08:39Z</time></trkpt><trkpt lat="36.80911398433463" lon="138.7918424782468"><ele>1032.0190510367975</ele><time>2023-02-17T22:09:05Z</time></trkpt><trkpt lat="36.80900627419501" lon="138.79203702934345"><ele>1039.3206035159528</ele><time>2023-02-17T22:09:26Z</time></trkpt><trkpt lat="36.80890539477682" lon="138.79222474739552"><ele>1043.3724326035008</ele><time>2023-02-17T22:09:45Z</time></trkpt><trkpt lat="36.80884332203857" lon="138.7924553070257"><ele>1044.26162993256</ele><time>2023-02-17T22:10:15Z</time></trkpt><trkpt lat="36.8087855716766" lon="138.7926887897924"><ele>1042.5046768421307</ele><time>2023-02-17T22:10:37Z</time></trkpt><trkpt lat="36.80871880827468" lon="138.79290268277614"><ele>1041.8262111032382</ele><time>2023-02-17T22:10:56Z</time></trkpt><trkpt lat="36.808589445185554" lon="138.79306023755524"><ele>1046.2289842450991</ele><time>2023-02-17T22:11:11Z</time></trkpt><trkpt lat="36.808461797466535" lon="138.79322511086633"><ele>1047.857750063762</ele><time>2023-02-17T22:11:30Z</time></trkpt><trkpt lat="36.80835473393792" lon="138.79340673189665"><ele>1044.1997849391773</ele><time>2023-02-17T22:12:08Z</time></trkpt><trkpt lat="36.80829715712185" lon="138.7936264000107"><ele>1045.953239057213</ele><time>2023-02-17T22:12:25Z</time></trkpt><trkpt lat="36.808186115125054" lon="138.7938212356259"><ele>1046.1715393504128</ele><time>2023-02-17T22:12:43Z</time></trkpt><trkpt lat="36.80805850340225" lon="138.79400014911047"><ele>1047.3838052889332</ele><time>2023-02-17T22:13:01Z</time></trkpt><trkpt lat="36.808036381333096" lon="138.79422303964606"><ele>1048.409823546186</ele><time>2023-02-17T22:13:20Z</time></trkpt><trkpt lat="36.80793445275998" lon="138.79442312130675"><ele>1044.8446004958823</ele><time>2023-02-17T22:13:37Z</time></trkpt><trkpt lat="36.80778628406336" lon="138.79456290318674"><ele>1050.3683043224737</ele><time>2023-02-17T22:13:50Z</time></trkpt><trkpt lat="36.80774056068426" lon="138.79479317937694"><ele>1044.490340755321</ele><time>2023-02-17T22:14:13Z</time></trkpt><trkpt lat="36.80774734412849" lon="138.7950178978512"><ele>1044.0741466395557</ele><time>2023-02-17T22:14:31Z</time></trkpt><trkpt lat="36.807746869231906" lon="138.79524703515483"><ele>1045.0876887980849</ele><time>2023-02-17T22:14:51Z</time></trkpt><trkpt lat="36.80776568633844" lon="138.79547921823158"><ele>1047.1225509131327</ele><time>2023-02-17T22:15:14Z</time></trkpt><trkpt lat="36.807774346972344" lon="138.7957058318481"><ele>1046.7659020852298</ele><time>2023-02-17T22:15:36Z</time></trkpt><trkpt lat="36.80777698476905" lon="138.79593817864648"><ele>1048.7875518463552</ele><time>2023-02-17T22:15:57Z</time></trkpt><trkpt lat="36.807734888798066" lon="138.79616184058833"><ele>1050.481419059448</ele><time>2023-02-17T22:16:18Z</time></trkpt><trkpt lat="36.80770023522172" lon="138.79638363833098"><ele>1051.7505433224142</ele><time>2023-02-17T22:16:37Z</time></trkpt><trkpt lat="36.80762632445316" lon="138.79659201119935"><ele>1053.6104391291738</ele><time>2023-02-17T22:16:58Z</time></trkpt><trkpt lat="36.80751777266494" lon="138.79678278383682"><ele>1056.7265146747231</ele><time>2023-02-17T22:17:23Z</time></trkpt><trkpt lat="36.80756821712939" lon="138.79700326776285"><ele>1061.8800922576338</ele><time>2023-02-17T22:24:35Z</time></trkpt><trkpt lat="36.8075034855828" lon="138.79721370785825"><ele>1067.0042203282937</ele><time>2023-02-17T22:25:09Z</time></trkpt><trkpt lat="36.80750597431264" lon="138.79744643634723"><ele>1070.8825969314203</ele><time>2023-02-17T22:25:35Z</time></trkpt><trkpt lat="36.80749846229893" lon="138.79767446840768"><ele>1075.3691383302212</ele><time>2023-02-17T22:26:04Z</time></trkpt><trkpt lat="36.80754397313338" lon="138.79790317470182"><ele>1079.954022185877</ele><time>2023-02-17T22:26:29Z</time></trkpt><trkpt lat="36.80764624871126" lon="138.79808950751973"><ele>1083.276456689462</ele><time>2023-02-17T22:26:54Z</time></trkpt><trkpt lat="36.80771970611894" lon="138.7982978290893"><ele>1085.9956305567175</ele><time>2023-02-17T22:27:21Z</time></trkpt><trkpt lat="36.807804712982175" lon="138.79849631055663"><ele>1089.2782039074227</ele><time>2023-02-17T22:27:46Z</time></trkpt><trkpt lat="36.80792757128099" lon="138.79866419417507"><ele>1093.5465948870406</ele><time>2023-02-17T22:28:10Z</time></trkpt><trkpt lat="36.80803710394755" lon="138.7988513380334"><ele>1095.1150301219895</ele><time>2023-02-17T22:28:36Z</time></trkpt><trkpt lat="36.80813925599059" lon="138.79904388031545"><ele>1098.1192254163325</ele><time>2023-02-17T22:29:02Z</time></trkpt><trkpt lat="36.808237747543465" lon="138.79923364031941"><ele>1102.730558237061</ele><time>2023-02-17T22:29:27Z</time></trkpt><trkpt lat="36.80833123584382" lon="138.79943011563904"><ele>1105.1901322947815</ele><time>2023-02-17T22:29:54Z</time></trkpt><trkpt lat="36.808417057334985" lon="138.7996367047373"><ele>1104.0628407113254</ele><time>2023-02-17T22:33:03Z</time></trkpt><trkpt lat="36.80851878487679" lon="138.79982566673743"><ele>1110.9632725743577</ele><time>2023-02-17T22:33:30Z</time></trkpt><trkpt lat="36.80858033537565" lon="138.80004154912015"><ele>1111.0067161684856</ele><time>2023-02-17T22:34:02Z</time></trkpt><trkpt lat="36.808611331748494" lon="138.8002664580054"><ele>1114.663426837884</ele><time>2023-02-17T22:34:35Z</time></trkpt><trkpt lat="36.80857106861923" lon="138.80049644986616"><ele>1118.6406048750505</ele><time>2023-02-17T22:35:03Z</time></trkpt><trkpt lat="36.808611580937566" lon="138.80071660199485"><ele>1124.2426125081256</ele><time>2023-02-17T22:35:53Z</time></trkpt><trkpt lat="36.808719690385765" lon="138.8009090205834"><ele>1126.0597445266321</ele><time>2023-02-17T22:36:22Z</time></trkpt><trkpt lat="36.80878699029042" lon="138.80111886948546"><ele>1130.0416928809136</ele><time>2023-02-17T22:36:55Z</time></trkpt><trkpt lat="36.80881593520191" lon="138.80134042987555"><ele>1132.6877891644835</ele><time>2023-02-17T22:37:24Z</time></trkpt><trkpt lat="36.80894621095421" lon="138.8015070293446"><ele>1135.3669063476846</ele><time>2023-02-17T22:37:57Z</time></trkpt><trkpt lat="36.809052603963394" lon="138.8016913023299"><ele>1137.0658198669553</ele><time>2023-02-17T22:38:28Z</time></trkpt><trkpt lat="36.80916016827358" lon="138.80187720623894"><ele>1143.015051273629</ele><time>2023-02-17T22:39:00Z</time></trkpt><trkpt lat="36.80926405572485" lon="138.80206856502846"><ele>1146.714037518017</ele><time>2023-02-17T22:39:27Z</time></trkpt><trkpt lat="36.80937912959833" lon="138.80224986723533"><ele>1149.243641242385</ele><time>2023-02-17T22:39:58Z</time></trkpt><trkpt lat="36.80947924590719" lon="138.80244469882038"><ele>1149.783238437958</ele><time>2023-02-17T22:40:23Z</time></trkpt><trkpt lat="36.80960874372061" lon="138.80260093979692"><ele>1153.339741573669</ele><time>2023-02-17T22:40:55Z</time></trkpt><trkpt lat="36.80975923709054" lon="138.80272619967053"><ele>1156.7487077824771</ele><time>2023-02-17T22:41:24Z</time></trkpt><trkpt lat="36.80992513810879" lon="138.80281458737514"><ele>1158.5855149626732</ele><time>2023-02-17T22:41:50Z</time></trkpt><trkpt lat="36.80988339253624" lon="138.80303952929836"><ele>1160.9233304467052</ele><time>2023-02-17T22:43:08Z</time></trkpt><trkpt lat="36.80988864259176" lon="138.80326981868234"><ele>1163.5423007449135</ele><time>2023-02-17T22:43:39Z</time></trkpt><trkpt lat="36.80988825983396" lon="138.80349511658912"><ele>1167.4267855342478</ele><time>2023-02-17T22:44:18Z</time></trkpt><trkpt lat="36.80990488373618" lon="138.80372136755412"><ele>1170.7465108362958</ele><time>2023-02-17T22:44:50Z</time></trkpt><trkpt lat="36.8099309946032" lon="138.80394926962418"><ele>1177.93931231834</ele><time>2023-02-17T22:45:46Z</time></trkpt><trkpt lat="36.80994267630764" lon="138.80417432398625"><ele>1180.610925522633</ele><time>2023-02-17T22:46:49Z</time></trkpt><trkpt lat="36.80994918044786" lon="138.80439944004806"><ele>1185.1520178755745</ele><time>2023-02-17T22:49:29Z</time></trkpt><trkpt lat="36.809991704246706" lon="138.80462276218236"><ele>1188.6211256980896</ele><time>2023-02-17T22:50:00Z</time></trkpt><trkpt lat="36.8099685140374" lon="138.80485488155207"><ele>1193.9091441659257</ele><time>2023-02-17T22:50:39Z</time></trkpt><trkpt lat="36.809934151377334" lon="138.80508291050563"><ele>1199.9648116054013</ele><time>2023-02-17T22:52:46Z</time></trkpt><trkpt lat="36.81000320371226" lon="138.80529072374273"><ele>1203.877175135538</ele><time>2023-02-17T22:53:24Z</time></trkpt><trkpt lat="36.81013352447463" lon="138.80544897290406"><ele>1208.7727939318866</ele><time>2023-02-17T22:53:51Z</time></trkpt><trkpt lat="36.81018689733434" lon="138.80567022763086"><ele>1212.392952493392</ele><time>2023-02-17T22:54:17Z</time></trkpt><trkpt lat="36.81023188747679" lon="138.80589123198905"><ele>1213.1722249621525</ele><time>2023-02-17T22:54:45Z</time></trkpt><trkpt lat="36.81030122814338" lon="138.80609951686708"><ele>1216.136902906932</ele><time>2023-02-17T22:55:12Z</time></trkpt><trkpt lat="36.81035037609428" lon="138.80632360404647"><ele>1222.2339845197275</ele><time>2023-02-17T22:55:39Z</time></trkpt><trkpt lat="36.810460979370816" lon="138.80650390328282"><ele>1228.06487504486</ele><time>2023-02-17T22:56:14Z</time></trkpt><trkpt lat="36.81057690980707" lon="138.80668729754782"><ele>1232.3259639758617</ele><time>2023-02-17T22:56:52Z</time></trkpt><trkpt lat="36.81063196853863" lon="138.80690107817955"><ele>1233.8648930545896</ele><time>2023-02-17T22:57:28Z</time></trkpt><trkpt lat="36.810691531452655" lon="138.80711426207594"><ele>1238.7908022031188</ele><time>2023-02-17T22:57:59Z</time></trkpt><trkpt lat="36.81076604119693" lon="138.80733125261884"><ele>1243.7015770310536</ele><time>2023-02-17T22:58:45Z</time></trkpt><trkpt lat="36.810846465374446" lon="138.80753208934206"><ele>1248.8098110761493</ele><time>2023-02-17T22:59:19Z</time></trkpt><trkpt lat="36.81093832782354" lon="138.80773087751024"><ele>1254.4042310351506</ele><time>2023-02-17T22:59:55Z</time></trkpt><trkpt lat="36.81103877913295" lon="138.80792091119247"><ele>1258.9883231930435</ele><time>2023-02-17T23:00:27Z</time></trkpt><trkpt lat="36.81117097729004" lon="138.80809012615214"><ele>1265.0507958056405</ele><time>2023-02-17T23:01:02Z</time></trkpt><trkpt lat="36.811297384651446" lon="138.80825320664715"><ele>1268.975485727191</ele><time>2023-02-17T23:01:38Z</time></trkpt><trkpt lat="36.8113797562052" lon="138.80845346099733"><ele>1273.0140060540289</ele><time>2023-02-17T23:02:16Z</time></trkpt><trkpt lat="36.811477719376114" lon="138.8086436949902"><ele>1278.989640135318</ele><time>2023-02-17T23:02:59Z</time></trkpt><trkpt lat="36.81154527042841" lon="138.808857792863"><ele>1286.1835588943213</ele><time>2023-02-17T23:03:40Z</time></trkpt><trkpt lat="36.81172494288587" lon="138.808904607871"><ele>1290.5586570529267</ele><time>2023-02-17T23:04:14Z</time></trkpt><trkpt lat="36.811793807391915" lon="138.80911737271933"><ele>1294.8496744036674</ele><time>2023-02-17T23:04:49Z</time></trkpt><trkpt lat="36.8119189916972" lon="138.80927903840774"><ele>1301.6375700635836</ele><time>2023-02-17T23:05:21Z</time></trkpt><trkpt lat="36.81206339567565" lon="138.80942599732956"><ele>1306.478365299292</ele><time>2023-02-17T23:05:59Z</time></trkpt><trkpt lat="36.81213406498319" lon="138.80963804435123"><ele>1311.929536767304</ele><time>2023-02-17T23:06:37Z</time></trkpt><trkpt lat="36.81220023082429" lon="138.80984894564594"><ele>1320.203302172944</ele><time>2023-02-17T23:07:47Z</time></trkpt><trkpt lat="36.81226561154562" lon="138.81005837892272"><ele>1322.9288603859022</ele><time>2023-02-17T23:08:18Z</time></trkpt><trkpt lat="36.81232145115684" lon="138.81028064026276"><ele>1330.7205222863704</ele><time>2023-02-17T23:08:59Z</time></trkpt><trkpt lat="36.81242981893384" lon="138.81046248348002"><ele>1335.480406104587</ele><time>2023-02-17T23:09:37Z</time></trkpt><trkpt lat="36.81249829211194" lon="138.81067658669576"><ele>1339.985881020315</ele><time>2023-02-17T23:10:12Z</time></trkpt><trkpt lat="36.812618653480804" lon="138.81084521562573"><ele>1348.957339528948</ele><time>2023-02-17T23:10:58Z</time></trkpt><trkpt lat="36.812661802649444" lon="138.81106830073423"><ele>1351.9055344024673</ele><time>2023-02-17T23:11:33Z</time></trkpt><trkpt lat="36.81281259376117" lon="138.81119425668678"><ele>1359.6348810624331</ele><time>2023-02-17T23:12:19Z</time></trkpt><trkpt lat="36.812845263174566" lon="138.81142034561043"><ele>1365.131255183369</ele><time>2023-02-17T23:13:01Z</time></trkpt><trkpt lat="36.812855253564386" lon="138.81164906353052"><ele>1376.6552643943578</ele><time>2023-02-17T23:14:00Z</time></trkpt><trkpt lat="36.81284739814795" lon="138.8118772614435"><ele>1383.5529634179547</ele><time>2023-02-17T23:15:46Z</time></trkpt><trkpt lat="36.81276361320556" lon="138.81208203108525"><ele>1392.1950620217249</ele><time>2023-02-17T23:16:42Z</time></trkpt><trkpt lat="36.81279148130797" lon="138.81231585281853"><ele>1399.4090100675821</ele><time>2023-02-17T23:17:27Z</time></trkpt><trkpt lat="36.81277194888945" lon="138.8125401593008"><ele>1405.7463322188705</ele><time>2023-02-17T23:18:10Z</time></trkpt><trkpt lat="36.812664180613496" lon="138.8127209619308"><ele>1413.052341165021</ele><time>2023-02-17T23:18:57Z</time></trkpt><trkpt lat="36.81275123803622" lon="138.81292230880345"><ele>1423.1397313922644</ele><time>2023-02-17T23:19:50Z</time></trkpt><trkpt lat="36.812769357643354" lon="138.81315075403165"><ele>1429.349724327214</ele><time>2023-02-17T23:20:44Z</time></trkpt><trkpt lat="36.812631514523936" lon="138.81330179036107"><ele>1434.2122556697577</ele><time>2023-02-17T23:22:01Z</time></trkpt><trkpt lat="36.81247882779625" lon="138.81342451858004"><ele>1441.4399219471961</ele><time>2023-02-17T23:22:40Z</time></trkpt><trkpt lat="36.812400789605896" lon="138.81362985881"><ele>1447.073372288607</ele><time>2023-02-17T23:23:26Z</time></trkpt><trkpt lat="36.812338722898915" lon="138.81384359114082"><ele>1457.5505315475166</ele><time>2023-02-17T23:24:42Z</time></trkpt><trkpt lat="36.81220143053091" lon="138.813993686436"><ele>1462.2729374468327</ele><time>2023-02-17T23:25:24Z</time></trkpt><trkpt lat="36.81217876268233" lon="138.81421647179792"><ele>1475.3036946328357</ele><time>2023-02-17T23:26:23Z</time></trkpt><trkpt lat="36.81216525628279" lon="138.81444972665344"><ele>1479.2287140395492</ele><time>2023-02-17T23:27:08Z</time></trkpt><trkpt lat="36.81208039693015" lon="138.8146538146605"><ele>1485.6726439315826</ele><time>2023-02-17T23:27:54Z</time></trkpt><trkpt lat="36.81202489115938" lon="138.81486829454363"><ele>1493.8183151520789</ele><time>2023-02-17T23:28:52Z</time></trkpt><trkpt lat="36.81190285684465" lon="138.8150399158877"><ele>1509.456867231056</ele><time>2023-02-17T23:29:49Z</time></trkpt><trkpt lat="36.81181426835814" lon="138.8152358159"><ele>1517.1929207369685</ele><time>2023-02-17T23:30:39Z</time></trkpt><trkpt lat="36.81162947820054" lon="138.81519059496787"><ele>1522.6316081127152</ele><time>2023-02-17T23:31:20Z</time></trkpt><trkpt lat="36.811525947068276" lon="138.8153779261622"><ele>1535.8113349853083</ele><time>2023-02-17T23:32:45Z</time></trkpt><trkpt lat="36.811338833883156" lon="138.81541799332146"><ele>1543.2540896255523</ele><time>2023-02-17T23:34:07Z</time></trkpt><trkpt lat="36.811179042315345" lon="138.81529746276536"><ele>1551.2673539705575</ele><time>2023-02-17T23:35:12Z</time></trkpt><trkpt lat="36.81099659939822" lon="138.81530169823725"><ele>1561.7044082749635</ele><time>2023-02-17T23:36:20Z</time></trkpt><trkpt lat="36.81082493459156" lon="138.81523009450942"><ele>1564.3413597438484</ele><time>2023-02-17T23:37:08Z</time></trkpt><trkpt lat="36.810644917768435" lon="138.81519304751652"><ele>1569.9797210935503</ele><time>2023-02-17T23:38:12Z</time></trkpt><trkpt lat="36.81049092313791" lon="138.81531848699288"><ele>1581.9419767530635</ele><time>2023-02-17T23:39:57Z</time></trkpt><trkpt lat="36.810378624199735" lon="138.81550392617007"><ele>1592.9552910942584</ele><time>2023-02-17T23:41:10Z</time></trkpt><trkpt lat="36.8103377476484" lon="138.8157347487158"><ele>1602.3164960555732</ele><time>2023-02-17T23:42:22Z</time></trkpt><trkpt lat="36.81032493316718" lon="138.81595861941994"><ele>1605.3078340636566</ele><time>2023-02-17T23:43:18Z</time></trkpt><trkpt lat="36.81023791822304" lon="138.81615745725395"><ele>1611.4085678607225</ele><time>2023-02-17T23:44:01Z</time></trkpt><trkpt lat="36.81016434104254" lon="138.8163636268958"><ele>1620.660813129507</ele><time>2023-02-17T23:45:07Z</time></trkpt><trkpt lat="36.810149529861086" lon="138.81660057491993"><ele>1626.436703327112</ele><time>2023-02-17T23:46:11Z</time></trkpt><trkpt lat="36.81016068306087" lon="138.8168258835137"><ele>1637.9209581371397</ele><time>2023-02-17T23:47:28Z</time></trkpt><trkpt lat="36.81013356029519" lon="138.8170515077643"><ele>1642.1688646096736</ele><time>2023-02-17T23:48:19Z</time></trkpt><trkpt lat="36.80998815138813" lon="138.8171863672113"><ele>1651.803396797739</ele><time>2023-02-17T23:49:22Z</time></trkpt><trkpt lat="36.809990330628736" lon="138.81741198913292"><ele>1662.1497363587841</ele><time>2023-02-17T23:50:35Z</time></trkpt><trkpt lat="36.810067688135895" lon="138.817614432442"><ele>1665.8448284650221</ele><time>2023-02-17T23:51:13Z</time></trkpt><trkpt lat="36.81016264630068" lon="138.8178098642491"><ele>1670.864102723077</ele><time>2023-02-17T23:52:27Z</time></trkpt><trkpt lat="36.81023623162848" lon="138.81801738121078"><ele>1680.3548121526837</ele><time>2023-02-17T23:53:52Z</time></trkpt><trkpt lat="36.810364168511654" lon="138.81817620333072"><ele>1687.0526767224073</ele><time>2023-02-17T23:54:48Z</time></trkpt><trkpt lat="36.8104018716661" lon="138.8183989699981"><ele>1697.4262491641566</ele><time>2023-02-17T23:55:44Z</time></trkpt><trkpt lat="36.810512303115715" lon="138.81858376461057"><ele>1705.1073377598077</ele><time>2023-02-17T23:56:50Z</time></trkpt><trkpt lat="36.81068408021853" lon="138.81865983051966"><ele>1713.2575574759394</ele><time>2023-02-17T23:57:56Z</time></trkpt><trkpt lat="36.810854354545235" lon="138.8187418811543"><ele>1719.8147612223402</ele><time>2023-02-17T23:58:41Z</time></trkpt><trkpt lat="36.8110380366086" lon="138.8187185653129"><ele>1720.3340528002009</ele><time>2023-02-17T23:59:18Z</time></trkpt><trkpt lat="36.811204778604484" lon="138.8188101375552"><ele>1727.3246226385236</ele><time>2023-02-18T00:00:00Z</time></trkpt><trkpt lat="36.81121142616856" lon="138.81904302551877"><ele>1737.5059052146971</ele><time>2023-02-18T00:00:46Z</time></trkpt><trkpt lat="36.81115275758517" lon="138.8192577339398"><ele>1746.7388713425025</ele><time>2023-02-18T00:01:47Z</time></trkpt><trkpt lat="36.81109559987758" lon="138.81947485183537"><ele>1755.7859038999304</ele><time>2023-02-18T00:02:51Z</time></trkpt><trkpt lat="36.811019622421675" lon="138.81968214833327"><ele>1757.65894861985</ele><time>2023-02-18T00:03:24Z</time></trkpt><trkpt lat="36.811173392490225" lon="138.8198117935046"><ele>1764.468668723479</ele><time>2023-02-18T00:04:38Z</time></trkpt><trkpt lat="36.81134314961387" lon="138.81988943121056"><ele>1772.1894220123067</ele><time>2023-02-18T00:11:54Z</time></trkpt><trkpt lat="36.811509929304066" lon="138.81998256180523"><ele>1780.8845558082685</ele><time>2023-02-18T00:12:38Z</time></trkpt><trkpt lat="36.811673262423334" lon="138.82008986673816"><ele>1787.2517638672143</ele><time>2023-02-18T00:13:19Z</time></trkpt><trkpt lat="36.81184081972992" lon="138.82017771355336"><ele>1794.8712717127055</ele><time>2023-02-18T00:14:05Z</time></trkpt><trkpt lat="36.81201137965391" lon="138.82025949416175"><ele>1802.0407805088907</ele><time>2023-02-18T00:14:55Z</time></trkpt><trkpt lat="36.81217575438676" lon="138.82036080283265"><ele>1808.000312014483</ele><time>2023-02-18T00:15:47Z</time></trkpt><trkpt lat="36.81233292569274" lon="138.82047151898112"><ele>1814.6610941411927</ele><time>2023-02-18T00:16:45Z</time></trkpt><trkpt lat="36.812432588723304" lon="138.82066781277967"><ele>1820.7736329324543</ele><time>2023-02-18T00:17:40Z</time></trkpt><trkpt lat="36.81254697845429" lon="138.8208487112354"><ele>1830.145671035163</ele><time>2023-02-18T00:18:32Z</time></trkpt><trkpt lat="36.81263426089455" lon="138.82104678222817"><ele>1839.0977128520608</ele><time>2023-02-18T00:19:45Z</time></trkpt><trkpt lat="36.81271587627859" lon="138.82125142544544"><ele>1845.8586379392073</ele><time>2023-02-18T00:20:26Z</time></trkpt><trkpt lat="36.812844442540175" lon="138.82141033859085"><ele>1854.909776690416</ele><time>2023-02-18T00:21:26Z</time></trkpt><trkpt lat="36.812962691726995" lon="138.82158237267294"><ele>1861.8404801329598</ele><time>2023-02-18T00:22:15Z</time></trkpt><trkpt lat="36.8130895922466" lon="138.82174334173368"><ele>1868.407007034868</ele><time>2023-02-18T00:22:53Z</time></trkpt><trkpt lat="36.81325281551387" lon="138.82184898385694"><ele>1872.9838452469558</ele><time>2023-02-18T00:23:25Z</time></trkpt><trkpt lat="36.8134346080187" lon="138.82187329996353"><ele>1876.1076950831339</ele><time>2023-02-18T00:23:54Z</time></trkpt><trkpt lat="36.813615168166734" lon="138.82189948501872"><ele>1878.945421651937</ele><time>2023-02-18T00:24:25Z</time></trkpt><trkpt lat="36.813800934676664" lon="138.82188258029987"><ele>1883.1265726564452</ele><time>2023-02-18T00:25:00Z</time></trkpt><trkpt lat="36.81397969617985" lon="138.82185210110762"><ele>1886.816660296172</ele><time>2023-02-18T00:25:32Z</time></trkpt><trkpt lat="36.81416455350354" lon="138.82182753831574"><ele>1890.2036333028227</ele><time>2023-02-18T00:26:05Z</time></trkpt><trkpt lat="36.81435074262415" lon="138.821792992064"><ele>1893.4065635520965</ele><time>2023-02-18T00:26:39Z</time></trkpt><trkpt lat="36.8145323474648" lon="138.8217532183493"><ele>1895.6861835429445</ele><time>2023-02-18T00:27:18Z</time></trkpt><trkpt lat="36.81471811284399" lon="138.82174156460454"><ele>1900.6212347494438</ele><time>2023-02-18T00:27:54Z</time></trkpt><trkpt lat="36.814894223431125" lon="138.8216908151522"><ele>1908.7665143785998</ele><time>2023-02-18T00:29:31Z</time></trkpt><trkpt lat="36.815073727863975" lon="138.82164363094262"><ele>1912.3429797552526</ele><time>2023-02-18T00:30:21Z</time></trkpt><trkpt lat="36.815254387324124" lon="138.8216168257486"><ele>1915.7798434402794</ele><time>2023-02-18T00:31:00Z</time></trkpt><trkpt lat="36.815441538853825" lon="138.82161261267632"><ele>1921.4172298824415</ele><time>2023-02-18T00:31:38Z</time></trkpt><trkpt lat="36.81562295783967" lon="138.8215927630484"><ele>1925.9359778789803</ele><time>2023-02-18T00:32:13Z</time></trkpt><trkpt lat="36.81580656999361" lon="138.8216113513574"><ele>1928.9920999733731</ele><time>2023-02-18T00:32:52Z</time></trkpt><trkpt lat="36.81598726363693" lon="138.82166698587636"><ele>1932.6158475438133</ele><time>2023-02-18T00:33:25Z</time></trkpt><trkpt lat="36.816170036666776" lon="138.82166243952497"><ele>1932.4091787338257</ele><time>2023-02-18T00:33:57Z</time></trkpt><trkpt lat="36.81635799050235" lon="138.82167499707373"><ele>1935.6236490216106</ele><time>2023-02-18T00:34:22Z</time></trkpt><trkpt lat="36.81654184043869" lon="138.8216839998057"><ele>1938.6327294902876</ele><time>2023-02-18T00:34:59Z</time></trkpt><trkpt lat="36.81672253431465" lon="138.82171297874487"><ele>1942.6513855457306</ele><time>2023-02-18T00:35:37Z</time></trkpt><trkpt lat="36.81690365215562" lon="138.82172576429107"><ele>1947.692379243672</ele><time>2023-02-18T00:36:37Z</time></trkpt><trkpt lat="36.81708418376961" lon="138.82176466061114"><ele>1955.5441220356151</ele><time>2023-02-18T00:37:16Z</time></trkpt><trkpt lat="36.81726458359888" lon="138.8217845064168"><ele>1959.9571329187602</ele><time>2023-02-18T00:37:53Z</time></trkpt><trkpt lat="36.81743532461213" lon="138.82188295829204"><ele>1966.3367564249784</ele><time>2023-02-18T00:38:33Z</time></trkpt><trkpt lat="36.81761790530947" lon="138.82185704246155"><ele>1974.708965732716</ele><time>2023-02-18T00:39:24Z</time></trkpt><trkpt lat="36.81776178047976" lon="138.8220046572022"><ele>1980.3214783119038</ele><time>2023-02-18T00:39:45Z</time></trkpt><trkpt lat="36.81788810850726" lon="138.82183820815956"><ele>1981.8478500461206</ele><time>2023-02-18T00:52:57Z</time></trkpt><trkpt lat="36.81781268785221" lon="138.8220444342731"><ele>1982.1130373645574</ele><time>2023-02-18T00:55:18Z</time></trkpt><trkpt lat="36.817632111069315" lon="138.82220543678693"><ele>1977.3406670745462</ele><time>2023-02-18T01:12:18Z</time></trkpt><trkpt lat="36.81754197041699" lon="138.82240563555314"><ele>1972.9808534132317</ele><time>2023-02-18T01:12:22Z</time></trkpt><trkpt lat="36.8174914233134" lon="138.8226207518316"><ele>1968.108475475572</ele><time>2023-02-18T01:12:26Z</time></trkpt><trkpt lat="36.817422765518835" lon="138.82283885666774"><ele>1962.0881610354409</ele><time>2023-02-18T01:19:19Z</time></trkpt><trkpt lat="36.81754579327069" lon="138.82301537427492"><ele>1962.8910043388605</ele><time>2023-02-18T01:19:37Z</time></trkpt><trkpt lat="36.81751008764662" lon="138.8232475028506"><ele>1957.0366776334122</ele><time>2023-02-18T01:19:43Z</time></trkpt><trkpt lat="36.81768878916129" lon="138.82334450210692"><ele>1956.7818414764479</ele><time>2023-02-18T01:19:50Z</time></trkpt><trkpt lat="36.81784302294902" lon="138.82347343171088"><ele>1954.0003786198795</ele><time>2023-02-18T01:20:03Z</time></trkpt><trkpt lat="36.81803644743474" lon="138.82343875728404"><ele>1949.630393113941</ele><time>2023-02-18T01:20:49Z</time></trkpt><trkpt lat="36.81815623531229" lon="138.8232563793523"><ele>1943.7556997826323</ele><time>2023-02-18T01:21:46Z</time></trkpt><trkpt lat="36.81828600461374" lon="138.8230627726649"><ele>1938.7506409706548</ele><time>2023-02-18T01:21:54Z</time></trkpt><trkpt lat="36.81841021106609" lon="138.82287297060648"><ele>1935.6192745668814</ele><time>2023-02-18T01:21:58Z</time></trkpt><trkpt lat="36.81857593828968" lon="138.82269120324665"><ele>1932.0887836162</ele><time>2023-02-18T01:22:05Z</time></trkpt><trkpt lat="36.818723121673955" lon="138.82255019770082"><ele>1926.379646175541</ele><time>2023-02-18T01:22:13Z</time></trkpt><trkpt lat="36.81884403174992" lon="138.82234713242516"><ele>1921.3432852709666</ele><time>2023-02-18T01:23:11Z</time></trkpt><trkpt lat="36.818956474482206" lon="138.82215884820488"><ele>1917.1421564640477</ele><time>2023-02-18T01:23:16Z</time></trkpt><trkpt lat="36.819060128531845" lon="138.8219377401211"><ele>1914.8331468366086</ele><time>2023-02-18T01:23:22Z</time></trkpt><trkpt lat="36.81922562086551" lon="138.82183367843595"><ele>1908.613420702517</ele><time>2023-02-18T01:23:26Z</time></trkpt><trkpt lat="36.819459552465545" lon="138.8219249986556"><ele>1898.7963641695678</ele><time>2023-02-18T01:23:29Z</time></trkpt><trkpt lat="36.819690063126934" lon="138.82199734971354"><ele>1888.3251485330984</ele><time>2023-02-18T01:23:32Z</time></trkpt><trkpt lat="36.81988057183282" lon="138.82201796276496"><ele>1883.2228735089302</ele><time>2023-02-18T01:25:12Z</time></trkpt><trkpt lat="36.820095946068506" lon="138.82195897755275"><ele>1877.7701827287674</ele><time>2023-02-18T01:25:17Z</time></trkpt><trkpt lat="36.82009467979294" lon="138.8222324072616"><ele>1870.642321624793</ele><time>2023-02-18T01:25:21Z</time></trkpt><trkpt lat="36.82030726330097" lon="138.82221574119959"><ele>1864.0653771087527</ele><time>2023-02-18T01:25:25Z</time></trkpt><trkpt lat="36.82049607315777" lon="138.82209337388036"><ele>1860.603064189665</ele><time>2023-02-18T01:25:30Z</time></trkpt><trkpt lat="36.82066050644273" lon="138.82219562572138"><ele>1853.0352103877813</ele><time>2023-02-18T01:25:35Z</time></trkpt><trkpt lat="36.82086344520339" lon="138.82223092843904"><ele>1844.0679906532168</ele><time>2023-02-18T01:25:39Z</time></trkpt><trkpt lat="36.82093252242317" lon="138.8225009341815"><ele>1834.8466739458963</ele><time>2023-02-18T01:25:42Z</time></trkpt><trkpt lat="36.821131192694594" lon="138.82248107675278"><ele>1828.3918523453176</ele><time>2023-02-18T01:27:39Z</time></trkpt><trkpt lat="36.82131839283667" lon="138.8224630476558"><ele>1824.8266725111753</ele><time>2023-02-18T01:27:43Z</time></trkpt><trkpt lat="36.821411979191694" lon="138.82269748252352"><ele>1813.6055074874312</ele><time>2023-02-18T01:27:56Z</time></trkpt><trkpt lat="36.82149632690172" lon="138.82291248370865"><ele>1802.779801032506</ele><time>2023-02-18T01:28:00Z</time></trkpt><trkpt lat="36.82169826166927" lon="138.82296099259256"><ele>1793.6637280108407</ele><time>2023-02-18T01:28:03Z</time></trkpt><trkpt lat="36.8217661203941" lon="138.82318305212075"><ele>1784.5645134467632</ele><time>2023-02-18T01:29:45Z</time></trkpt><trkpt lat="36.8216496839454" lon="138.82340271184086"><ele>1780.432500431314</ele><time>2023-02-18T01:29:48Z</time></trkpt><trkpt lat="36.82152504847082" lon="138.82360740999684"><ele>1778.5747112827376</ele><time>2023-02-18T01:29:52Z</time></trkpt><trkpt lat="36.821500877126695" lon="138.82383896956807"><ele>1774.0751076955348</ele><time>2023-02-18T01:29:58Z</time></trkpt><trkpt lat="36.82163970278161" lon="138.82401601827897"><ele>1766.0241554984823</ele><time>2023-02-18T01:30:03Z</time></trkpt><trkpt lat="36.8218334463138" lon="138.823988506036"><ele>1759.6220887452364</ele><time>2023-02-18T01:31:05Z</time></trkpt><trkpt lat="36.82199500091393" lon="138.82382990051528"><ele>1754.5602310458198</ele><time>2023-02-18T01:32:48Z</time></trkpt><trkpt lat="36.82212795621897" lon="138.82367777222478"><ele>1750.757697692141</ele><time>2023-02-18T01:32:52Z</time></trkpt><trkpt lat="36.82228356489681" lon="138.82352485618142"><ele>1749.2700988464057</ele><time>2023-02-18T01:32:57Z</time></trkpt><trkpt lat="36.822436559830535" lon="138.82336286769842"><ele>1745.4696938488632</ele><time>2023-02-18T01:33:42Z</time></trkpt><trkpt lat="36.82267460467823" lon="138.82326052345965"><ele>1735.3574598869309</ele><time>2023-02-18T01:33:47Z</time></trkpt><trkpt lat="36.82270916493138" lon="138.82356784254668"><ele>1725.6366203455254</ele><time>2023-02-18T01:33:50Z</time></trkpt><trkpt lat="36.82288961027786" lon="138.82365822942506"><ele>1713.9385489011183</ele><time>2023-02-18T01:33:53Z</time></trkpt><trkpt lat="36.823064859035895" lon="138.82358941797014"><ele>1711.5801492519677</ele><time>2023-02-18T01:33:55Z</time></trkpt><trkpt lat="36.823112584826596" lon="138.82383543106116"><ele>1699.4097852231935</ele><time>2023-02-18T01:33:57Z</time></trkpt><trkpt lat="36.82303261557116" lon="138.82406874525347"><ele>1698.9938506158069</ele><time>2023-02-18T01:33:59Z</time></trkpt><trkpt lat="36.82322303450912" lon="138.82405469275483"><ele>1690.0830139815807</ele><time>2023-02-18T01:34:01Z</time></trkpt><trkpt lat="36.82336108016369" lon="138.82390541596234"><ele>1690.3988499781117</ele><time>2023-02-18T01:34:03Z</time></trkpt><trkpt lat="36.82332504114708" lon="138.82421030144494"><ele>1678.4430653396994</ele><time>2023-02-18T01:35:38Z</time></trkpt><trkpt lat="36.82351148454368" lon="138.82430333517613"><ele>1672.4466454116628</ele><time>2023-02-18T01:35:42Z</time></trkpt><trkpt lat="36.82364001692577" lon="138.82453192844244"><ele>1664.9011429408565</ele><time>2023-02-18T01:35:47Z</time></trkpt><trkpt lat="36.82382067750905" lon="138.82447345133446"><ele>1654.078806873411</ele><time>2023-02-18T01:35:50Z</time></trkpt><trkpt lat="36.82393757496924" lon="138.82467837716536"><ele>1648.1116115609184</ele><time>2023-02-18T01:35:58Z</time></trkpt><trkpt lat="36.82411614046611" lon="138.82461880519978"><ele>1640.4938041204587</ele><time>2023-02-18T01:36:02Z</time></trkpt><trkpt lat="36.82418097791099" lon="138.82486352002576"><ele>1634.8851063037291</ele><time>2023-02-18T01:36:06Z</time></trkpt><trkpt lat="36.82436648080362" lon="138.82476301269864"><ele>1628.9114541970193</ele><time>2023-02-18T01:36:09Z</time></trkpt><trkpt lat="36.82436143661951" lon="138.8250041367356"><ele>1621.4075826397166</ele><time>2023-02-18T01:36:15Z</time></trkpt><trkpt lat="36.824532869582825" lon="138.8250741092056"><ele>1613.437386921607</ele><time>2023-02-18T01:37:21Z</time></trkpt><trkpt lat="36.82448955872836" lon="138.8254211045168"><ele>1604.145605288446</ele><time>2023-02-18T01:37:24Z</time></trkpt><trkpt lat="36.82467277671938" lon="138.8254374042047"><ele>1601.1301179789007</ele><time>2023-02-18T01:37:29Z</time></trkpt><trkpt lat="36.82477565681677" lon="138.82563161808292"><ele>1595.4573692297563</ele><time>2023-02-18T01:37:39Z</time></trkpt><trkpt lat="36.82463603595579" lon="138.82548701542268"><ele>1592.6683620745316</ele><time>2023-02-18T02:07:36Z</time></trkpt><trkpt lat="36.82451354902238" lon="138.82531577613614"><ele>1595.8449351284653</ele><time>2023-02-18T02:08:15Z</time></trkpt><trkpt lat="36.82450945994916" lon="138.82508986189268"><ele>1610.303057540208</ele><time>2023-02-18T02:09:27Z</time></trkpt><trkpt lat="36.824412679464174" lon="138.8249004396601"><ele>1620.3739322591573</ele><time>2023-02-18T02:11:13Z</time></trkpt><trkpt lat="36.824258685748184" lon="138.82477557602843"><ele>1632.6084549166262</ele><time>2023-02-18T02:12:17Z</time></trkpt><trkpt lat="36.82410919288815" lon="138.82464504868943"><ele>1636.539968971163</ele><time>2023-02-18T02:13:32Z</time></trkpt><trkpt lat="36.8239439790269" lon="138.82455419159922"><ele>1644.612865156494</ele><time>2023-02-18T02:14:42Z</time></trkpt><trkpt lat="36.823797774951636" lon="138.82441629108678"><ele>1655.5310662342235</ele><time>2023-02-18T02:16:29Z</time></trkpt><trkpt lat="36.82371202208545" lon="138.82421867857525"><ele>1670.0682688904926</ele><time>2023-02-18T02:19:02Z</time></trkpt><trkpt lat="36.823618174224194" lon="138.8240123600463"><ele>1682.4779337793589</ele><time>2023-02-18T02:21:43Z</time></trkpt><trkpt lat="36.823574110898704" lon="138.8237947921088"><ele>1698.0539740826935</ele><time>2023-02-18T02:24:07Z</time></trkpt><trkpt lat="36.82352865995455" lon="138.82357287936267"><ele>1699.8907280620188</ele><time>2023-02-18T02:26:44Z</time></trkpt><trkpt lat="36.82344358546614" lon="138.82337219049046"><ele>1708.6599278468639</ele><time>2023-02-18T02:28:22Z</time></trkpt><trkpt lat="36.82329166100811" lon="138.82324274645228"><ele>1728.603151988238</ele><time>2023-02-18T02:36:44Z</time></trkpt><trkpt lat="36.82343216969523" lon="138.82309933789293"><ele>1727.282198857516</ele><time>2023-02-18T02:38:44Z</time></trkpt><trkpt lat="36.82361175044167" lon="138.82304651822415"><ele>1730.2299795802683</ele><time>2023-02-18T02:39:17Z</time></trkpt><trkpt lat="36.82379712882191" lon="138.8230178909662"><ele>1734.3632431514561</ele><time>2023-02-18T02:39:46Z</time></trkpt><trkpt lat="36.82397336811478" lon="138.82297003339104"><ele>1734.3947146525607</ele><time>2023-02-18T02:40:21Z</time></trkpt><trkpt lat="36.824146280411675" lon="138.82288608607206"><ele>1734.1636832179502</ele><time>2023-02-18T02:41:01Z</time></trkpt><trkpt lat="36.824310297116156" lon="138.82278754800728"><ele>1736.2019969178364</ele><time>2023-02-18T02:41:34Z</time></trkpt><trkpt lat="36.82446783150384" lon="138.82267439838108"><ele>1736.973649402149</ele><time>2023-02-18T02:42:09Z</time></trkpt><trkpt lat="36.82461246858698" lon="138.82253106242896"><ele>1740.0789286214858</ele><time>2023-02-18T02:42:47Z</time></trkpt><trkpt lat="36.82477903127317" lon="138.82243192750528"><ele>1742.6252769725397</ele><time>2023-02-18T02:43:40Z</time></trkpt><trkpt lat="36.8249333416035" lon="138.82231129049603"><ele>1747.650626866147</ele><time>2023-02-18T02:44:32Z</time></trkpt><trkpt lat="36.825073597894594" lon="138.82216589776925"><ele>1752.9367149043828</ele><time>2023-02-18T02:45:54Z</time></trkpt><trkpt lat="36.8252162314424" lon="138.8220247544358"><ele>1755.36813543085</ele><time>2023-02-18T02:46:45Z</time></trkpt><trkpt lat="36.825387162438524" lon="138.82193711661185"><ele>1759.547570189461</ele><time>2023-02-18T02:47:26Z</time></trkpt><trkpt lat="36.825445451361425" lon="138.8217164349578"><ele>1766.815706903115</ele><time>2023-02-18T02:48:38Z</time></trkpt><trkpt lat="36.82537637301839" lon="138.82150533777414"><ele>1776.0454913470894</ele><time>2023-02-18T02:49:16Z</time></trkpt><trkpt lat="36.82529920261226" lon="138.82130043276626"><ele>1777.8269493440166</ele><time>2023-02-18T02:49:50Z</time></trkpt><trkpt lat="36.8252466341001" lon="138.82108047642146"><ele>1780.770459825173</ele><time>2023-02-18T02:50:24Z</time></trkpt><trkpt lat="36.82507612598207" lon="138.8211667543312"><ele>1783.644782836549</ele><time>2023-02-18T02:58:54Z</time></trkpt><trkpt lat="36.824901962150136" lon="138.82110642658483"><ele>1796.1537786778063</ele><time>2023-02-18T03:00:02Z</time></trkpt><trkpt lat="36.824722597982145" lon="138.8210501691477"><ele>1808.3371281698346</ele><time>2023-02-18T03:01:58Z</time></trkpt><trkpt lat="36.824542832818175" lon="138.82109329931063"><ele>1820.328269473277</ele><time>2023-02-18T03:02:55Z</time></trkpt><trkpt lat="36.824400118791864" lon="138.82095245441212"><ele>1830.9674943676218</ele><time>2023-02-18T03:04:40Z</time></trkpt><trkpt lat="36.82425323549407" lon="138.82081994943405"><ele>1842.7200411222875</ele><time>2023-02-18T03:06:00Z</time></trkpt><trkpt lat="36.82408357945117" lon="138.82073500355273"><ele>1850.3994182245806</ele><time>2023-02-18T03:07:06Z</time></trkpt><trkpt lat="36.82393634363777" lon="138.8205958186102"><ele>1854.1638956647366</ele><time>2023-02-18T03:14:18Z</time></trkpt><trkpt lat="36.82380770539317" lon="138.82043349848158"><ele>1854.8576020812616</ele><time>2023-02-18T03:14:40Z</time></trkpt><trkpt lat="36.82362952396986" lon="138.82039714334644"><ele>1858.6691313786432</ele><time>2023-02-18T03:15:08Z</time></trkpt><trkpt lat="36.82346051870388" lon="138.82031232565538"><ele>1860.428564818576</ele><time>2023-02-18T03:15:37Z</time></trkpt><trkpt lat="36.82328867696966" lon="138.82023497691344"><ele>1863.2995846550912</ele><time>2023-02-18T03:16:08Z</time></trkpt><trkpt lat="36.82310491225278" lon="138.8202570823789"><ele>1865.850040346384</ele><time>2023-02-18T03:16:38Z</time></trkpt><trkpt lat="36.822921075724345" lon="138.82030430490008"><ele>1865.139939702116</ele><time>2023-02-18T03:17:11Z</time></trkpt><trkpt lat="36.8227388649164" lon="138.82035111266526"><ele>1856.2765760887414</ele><time>2023-02-18T03:17:31Z</time></trkpt><trkpt lat="36.82255843284907" lon="138.820322123758"><ele>1855.0267771435902</ele><time>2023-02-18T03:18:02Z</time></trkpt><trkpt lat="36.822392579485644" lon="138.82022851917134"><ele>1858.9813288729638</ele><time>2023-02-18T03:18:35Z</time></trkpt><trkpt lat="36.822316621556176" lon="138.82001949232304"><ele>1863.7429905263707</ele><time>2023-02-18T03:19:10Z</time></trkpt><trkpt lat="36.82226866143011" lon="138.81980088442896"><ele>1868.2785452986136</ele><time>2023-02-18T03:19:38Z</time></trkpt><trkpt lat="36.82225941196038" lon="138.81957577177903"><ele>1869.670187631622</ele><time>2023-02-18T03:20:07Z</time></trkpt><trkpt lat="36.82225486589297" lon="138.81934937175023"><ele>1875.365794125013</ele><time>2023-02-18T03:20:57Z</time></trkpt><trkpt lat="36.82214613473114" lon="138.81916140717883"><ele>1878.488019991666</ele><time>2023-02-18T03:21:34Z</time></trkpt><trkpt lat="36.821994570570645" lon="138.81903421070277"><ele>1880.5468909675255</ele><time>2023-02-18T03:22:12Z</time></trkpt><trkpt lat="36.82186441641381" lon="138.81887656825035"><ele>1887.3986814972013</ele><time>2023-02-18T03:22:58Z</time></trkpt><trkpt lat="36.821750173201664" lon="138.8187016993582"><ele>1899.489938011393</ele><time>2023-02-18T03:24:15Z</time></trkpt><trkpt lat="36.82164891809715" lon="138.8185144250997"><ele>1909.26458148472</ele><time>2023-02-18T03:25:26Z</time></trkpt><trkpt lat="36.821533294228246" lon="138.81833913237358"><ele>1915.3835754198954</ele><time>2023-02-18T03:26:34Z</time></trkpt><trkpt lat="36.82139320402786" lon="138.81819667305837"><ele>1923.048289203085</ele><time>2023-02-18T03:27:41Z</time></trkpt><trkpt lat="36.82124700755567" lon="138.818062081215"><ele>1935.759286290966</ele><time>2023-02-18T03:29:12Z</time></trkpt><trkpt lat="36.82123253722917" lon="138.81783025512246"><ele>1936.1681013554335</ele><time>2023-02-18T03:29:57Z</time></trkpt><trkpt lat="36.8212882246442" lon="138.81761568785103"><ele>1935.803121296689</ele><time>2023-02-18T03:30:13Z</time></trkpt><trkpt lat="36.82132614811603" lon="138.81738284808924"><ele>1935.332909069024</ele><time>2023-02-18T03:30:29Z</time></trkpt><trkpt lat="36.821405725814145" lon="138.8171723363384"><ele>1932.625956332311</ele><time>2023-02-18T03:46:10Z</time></trkpt><trkpt lat="36.82149901184299" lon="138.816965793574"><ele>1929.3559903530404</ele><time>2023-02-18T03:46:21Z</time></trkpt><trkpt lat="36.82148520387812" lon="138.81672703359828"><ele>1927.7812135359272</ele><time>2023-02-18T03:46:28Z</time></trkpt><trkpt lat="36.82139311009826" lon="138.81652884800053"><ele>1924.3032802380621</ele><time>2023-02-18T03:46:39Z</time></trkpt><trkpt lat="36.821204845501484" lon="138.81645648583128"><ele>1919.7971177184954</ele><time>2023-02-18T03:48:47Z</time></trkpt><trkpt lat="36.821238460102975" lon="138.81621544030222"><ele>1912.1071121040732</ele><time>2023-02-18T03:48:57Z</time></trkpt><trkpt lat="36.821290950622675" lon="138.81599145280236"><ele>1906.4968462986872</ele><time>2023-02-18T03:49:04Z</time></trkpt><trkpt lat="36.821369292514014" lon="138.81578069749037"><ele>1900.798274403438</ele><time>2023-02-18T03:49:13Z</time></trkpt><trkpt lat="36.821474998038795" lon="138.8155815943208"><ele>1897.9071305999532</ele><time>2023-02-18T03:49:16Z</time></trkpt><trkpt lat="36.821554384768135" lon="138.81535570276"><ele>1896.8450546655804</ele><time>2023-02-18T03:49:19Z</time></trkpt><trkpt lat="36.82163663856347" lon="138.81513860215205"><ele>1895.2897105747834</ele><time>2023-02-18T03:49:22Z</time></trkpt><trkpt lat="36.821723371537" lon="138.8149269590516"><ele>1893.4519484229386</ele><time>2023-02-18T03:49:25Z</time></trkpt><trkpt lat="36.821801589120334" lon="138.81469061357302"><ele>1890.8795018801466</ele><time>2023-02-18T03:49:28Z</time></trkpt><trkpt lat="36.82185246525473" lon="138.81447369057642"><ele>1890.2842993699014</ele><time>2023-02-18T03:49:31Z</time></trkpt><trkpt lat="36.821914242545674" lon="138.81424732716593"><ele>1891.7628189241514</ele><time>2023-02-18T03:49:37Z</time></trkpt><trkpt lat="36.82194538342533" lon="138.81400945478762"><ele>1890.3177999816835</ele><time>2023-02-18T03:50:03Z</time></trkpt><trkpt lat="36.82197461952356" lon="138.81377960682246"><ele>1889.182884930633</ele><time>2023-02-18T03:50:22Z</time></trkpt><trkpt lat="36.822017384232524" lon="138.8135607332852"><ele>1888.2155162962154</ele><time>2023-02-18T03:50:45Z</time></trkpt><trkpt lat="36.82219548310126" lon="138.81362262615724"><ele>1883.1800471115857</ele><time>2023-02-18T03:51:21Z</time></trkpt><trkpt lat="36.82233701261077" lon="138.813773622678"><ele>1881.199478926137</ele><time>2023-02-18T03:51:26Z</time></trkpt><trkpt lat="36.822521932679955" lon="138.81378546838937"><ele>1872.0103562781587</ele><time>2023-02-18T03:51:55Z</time></trkpt><trkpt lat="36.822715337488425" lon="138.81373931104048"><ele>1862.4286361858249</ele><time>2023-02-18T03:52:07Z</time></trkpt><trkpt lat="36.822859348414326" lon="138.8138886566155"><ele>1855.7382184462622</ele><time>2023-02-18T03:52:12Z</time></trkpt><trkpt lat="36.8229708326595" lon="138.81367582954917"><ele>1852.108690190129</ele><time>2023-02-18T03:52:21Z</time></trkpt><trkpt lat="36.82315824297653" lon="138.81358128784234"><ele>1845.339593945071</ele><time>2023-02-18T03:52:44Z</time></trkpt><trkpt lat="36.82333328449576" lon="138.81348661202014"><ele>1838.78884367086</ele><time>2023-02-18T03:52:49Z</time></trkpt><trkpt lat="36.82354335821855" lon="138.81339963803197"><ele>1832.416543699801</ele><time>2023-02-18T03:52:53Z</time></trkpt><trkpt lat="36.82374560682937" lon="138.8132995877889"><ele>1829.7127378834412</ele><time>2023-02-18T03:52:57Z</time></trkpt><trkpt lat="36.82392290497356" lon="138.81323726709496"><ele>1826.426660977304</ele><time>2023-02-18T03:53:00Z</time></trkpt><trkpt lat="36.82410568884236" lon="138.81307935167123"><ele>1823.5268283886835</ele><time>2023-02-18T03:53:04Z</time></trkpt><trkpt lat="36.82430976457863" lon="138.81307221993399"><ele>1820.093394741416</ele><time>2023-02-18T03:53:08Z</time></trkpt><trkpt lat="36.82449016491943" lon="138.81308767389788"><ele>1814.395723038353</ele><time>2023-02-18T03:54:03Z</time></trkpt><trkpt lat="36.82470450480145" lon="138.8130969910015"><ele>1807.4346367586404</ele><time>2023-02-18T03:54:08Z</time></trkpt><trkpt lat="36.82487894087783" lon="138.81299291908383"><ele>1803.8561981990933</ele><time>2023-02-18T03:54:12Z</time></trkpt><trkpt lat="36.82504334133667" lon="138.81287237478304"><ele>1799.2374097229913</ele><time>2023-02-18T03:54:15Z</time></trkpt><trkpt lat="36.82523281337524" lon="138.81280103610402"><ele>1797.2248346731067</ele><time>2023-02-18T03:54:18Z</time></trkpt><trkpt lat="36.825453811553" lon="138.8126738029376"><ele>1792.3448715163395</ele><time>2023-02-18T03:54:22Z</time></trkpt><trkpt lat="36.82562147680636" lon="138.81257300173533"><ele>1792.8780957292765</ele><time>2023-02-18T03:54:25Z</time></trkpt><trkpt lat="36.82579562102347" lon="138.81248963425162"><ele>1790.5638235257939</ele><time>2023-02-18T03:54:32Z</time></trkpt><trkpt lat="36.82597896349364" lon="138.81245993868842"><ele>1786.40123687312</ele><time>2023-02-18T03:54:47Z</time></trkpt><trkpt lat="36.82621178907184" lon="138.81238172677516"><ele>1782.211685740389</ele><time>2023-02-18T03:54:51Z</time></trkpt><trkpt lat="36.82639626321692" lon="138.81229699784302"><ele>1778.8437950145453</ele><time>2023-02-18T03:55:04Z</time></trkpt><trkpt lat="36.82659086510236" lon="138.81236073951968"><ele>1771.808906567283</ele><time>2023-02-18T03:56:10Z</time></trkpt><trkpt lat="36.82680821036428" lon="138.81235106882514"><ele>1766.0071749398485</ele><time>2023-02-18T03:56:13Z</time></trkpt><trkpt lat="36.82698896654362" lon="138.81232627975965"><ele>1762.0411786762998</ele><time>2023-02-18T03:56:17Z</time></trkpt><trkpt lat="36.82716943159566" lon="138.81224565760314"><ele>1759.4077055025846</ele><time>2023-02-18T03:56:22Z</time></trkpt><trkpt lat="36.827347972993415" lon="138.8121650326668"><ele>1757.1911173127592</ele><time>2023-02-18T03:56:27Z</time></trkpt><trkpt lat="36.827516794521785" lon="138.81206108811708"><ele>1754.6045227982104</ele><time>2023-02-18T03:56:35Z</time></trkpt><trkpt lat="36.82766589863262" lon="138.8118749628267"><ele>1749.8706799680367</ele><time>2023-02-18T03:57:14Z</time></trkpt><trkpt lat="36.82785576468587" lon="138.81178919105216"><ele>1744.0702721336856</ele><time>2023-02-18T03:57:19Z</time></trkpt><trkpt lat="36.82784905717395" lon="138.81153860461146"><ele>1737.2588598541915</ele><time>2023-02-18T03:59:50Z</time></trkpt><trkpt lat="36.828035576521835" lon="138.81144068115913"><ele>1731.4633533842862</ele><time>2023-02-18T03:59:54Z</time></trkpt><trkpt lat="36.82822552642946" lon="138.81138440661132"><ele>1725.8724938426167</ele><time>2023-02-18T03:59:59Z</time></trkpt><trkpt lat="36.828297361587545" lon="138.81113632909964"><ele>1717.7350905630738</ele><time>2023-02-18T04:00:50Z</time></trkpt><trkpt lat="36.82845375937383" lon="138.81093148813255"><ele>1707.8909315392375</ele><time>2023-02-18T04:00:53Z</time></trkpt><trkpt lat="36.828440253215604" lon="138.81070133010914"><ele>1703.6487114690244</ele><time>2023-02-18T04:00:56Z</time></trkpt><trkpt lat="36.82861802761317" lon="138.81063618567848"><ele>1695.309666737914</ele><time>2023-02-18T04:01:27Z</time></trkpt><trkpt lat="36.828824799342954" lon="138.8106976175582"><ele>1680.650776551105</ele><time>2023-02-18T04:01:49Z</time></trkpt><trkpt lat="36.82891948303621" lon="138.81049798640925"><ele>1673.240847574547</ele><time>2023-02-18T04:02:16Z</time></trkpt><trkpt lat="36.828909337527136" lon="138.8102704069591"><ele>1666.31525984779</ele><time>2023-02-18T04:02:22Z</time></trkpt><trkpt lat="36.8288764699673" lon="138.80999680317865"><ele>1659.5330769671127</ele><time>2023-02-18T04:02:47Z</time></trkpt><trkpt lat="36.82884732228883" lon="138.8097586040224"><ele>1654.796621447429</ele><time>2023-02-18T04:02:51Z</time></trkpt><trkpt lat="36.82883618866341" lon="138.80952985818578"><ele>1649.5944593781605</ele><time>2023-02-18T04:02:54Z</time></trkpt><trkpt lat="36.8290961343831" lon="138.80960586950442"><ele>1633.764714980498</ele><time>2023-02-18T04:02:58Z</time></trkpt><trkpt lat="36.82920594763275" lon="138.80938516360973"><ele>1624.8662892878056</ele><time>2023-02-18T04:03:01Z</time></trkpt><trkpt lat="36.829389694049844" lon="138.80935783513672"><ele>1607.8337233867496</ele><time>2023-02-18T04:03:28Z</time></trkpt><trkpt lat="36.829594553756216" lon="138.8094469841181"><ele>1591.914891274646</ele><time>2023-02-18T04:03:36Z</time></trkpt><trkpt lat="36.829625425409425" lon="138.80916380099944"><ele>1583.5313696078956</ele><time>2023-02-18T04:03:39Z</time></trkpt><trkpt lat="36.82980869888243" lon="138.80906465842534"><ele>1564.5965159386396</ele><time>2023-02-18T04:03:42Z</time></trkpt><trkpt lat="36.82992974420432" lon="138.80888571578635"><ele>1553.0587075520307</ele><time>2023-02-18T04:04:15Z</time></trkpt><trkpt lat="36.83013192062221" lon="138.80893717126622"><ele>1539.0418781992048</ele><time>2023-02-18T04:04:21Z</time></trkpt><trkpt lat="36.83032980214395" lon="138.80903184457196"><ele>1529.0436799982563</ele><time>2023-02-18T04:04:25Z</time></trkpt><trkpt lat="36.83039327447262" lon="138.80882186532736"><ele>1531.1162023004144</ele><time>2023-02-18T04:04:45Z</time></trkpt><trkpt lat="36.830609154953414" lon="138.80882506116538"><ele>1510.6210216656327</ele><time>2023-02-18T04:05:22Z</time></trkpt><trkpt lat="36.83079697774836" lon="138.80877158737528"><ele>1497.5831897500902</ele><time>2023-02-18T04:05:25Z</time></trkpt><trkpt lat="36.83096061150966" lon="138.80887954497788"><ele>1486.496482389979</ele><time>2023-02-18T04:05:30Z</time></trkpt><trkpt lat="36.831063897260115" lon="138.8086772713627"><ele>1476.8176437029615</ele><time>2023-02-18T04:07:22Z</time></trkpt><trkpt lat="36.831087579098714" lon="138.8084387801597"><ele>1470.6606633896008</ele><time>2023-02-18T04:07:26Z</time></trkpt><trkpt lat="36.83131561649957" lon="138.80844659523748"><ele>1454.2928178077564</ele><time>2023-02-18T04:07:31Z</time></trkpt><trkpt lat="36.831498306994554" lon="138.8083817225572"><ele>1441.135365691036</ele><time>2023-02-18T04:07:36Z</time></trkpt><trkpt lat="36.83156306447888" lon="138.8081615757289"><ele>1435.820965305902</ele><time>2023-02-18T04:09:10Z</time></trkpt><trkpt lat="36.83165243971675" lon="138.80792020027243"><ele>1430.1643397230655</ele><time>2023-02-18T04:09:14Z</time></trkpt><trkpt lat="36.831786195457404" lon="138.80771113914847"><ele>1421.7059802897274</ele><time>2023-02-18T04:09:19Z</time></trkpt><trkpt lat="36.83185208705772" lon="138.8074901385041"><ele>1418.0820247875527</ele><time>2023-02-18T04:09:25Z</time></trkpt><trkpt lat="36.83200361280944" lon="138.80734060565328"><ele>1403.3103181421757</ele><time>2023-02-18T04:09:39Z</time></trkpt><trkpt lat="36.83216328366874" lon="138.80746832979247"><ele>1391.466396363452</ele><time>2023-02-18T04:09:43Z</time></trkpt><trkpt lat="36.832187708987455" lon="138.80723761492607"><ele>1390.7048880383372</ele><time>2023-02-18T04:09:57Z</time></trkpt><trkpt lat="36.83224674978194" lon="138.8070052858072"><ele>1383.6928727664053</ele><time>2023-02-18T04:10:01Z</time></trkpt><trkpt lat="36.83235027493531" lon="138.80680388584713"><ele>1378.1849469924346</ele><time>2023-02-18T04:10:06Z</time></trkpt><trkpt lat="36.83253124443285" lon="138.8067970267977"><ele>1360.72956645675</ele><time>2023-02-18T04:10:11Z</time></trkpt><trkpt lat="36.83271034076541" lon="138.80682548068728"><ele>1344.6086723683402</ele><time>2023-02-18T04:10:16Z</time></trkpt><trkpt lat="36.83291469310681" lon="138.80690687451911"><ele>1333.0402136994526</ele><time>2023-02-18T04:10:22Z</time></trkpt><trkpt lat="36.83306418801502" lon="138.80672022114976"><ele>1330.7529692621902</ele><time>2023-02-18T04:17:33Z</time></trkpt><trkpt lat="36.83309302047369" lon="138.8064828515766"><ele>1326.292846317403</ele><time>2023-02-18T04:17:41Z</time></trkpt><trkpt lat="36.833124238256076" lon="138.80625344535179"><ele>1325.1358317984268</ele><time>2023-02-18T04:17:48Z</time></trkpt><trkpt lat="36.83320379782218" lon="138.80604040871526"><ele>1314.3697176193818</ele><time>2023-02-18T04:18:10Z</time></trkpt><trkpt lat="36.83325725152884" lon="138.80581305386684"><ele>1308.6746236365288</ele><time>2023-02-18T04:18:18Z</time></trkpt><trkpt lat="36.833338825533616" lon="138.80558718099795"><ele>1303.1289321612567</ele><time>2023-02-18T04:18:23Z</time></trkpt><trkpt lat="36.83353063565039" lon="138.80568845462668"><ele>1288.7030184715986</ele><time>2023-02-18T04:18:28Z</time></trkpt><trkpt lat="36.833739772501474" lon="138.80568184493274"><ele>1274.131784055382</ele><time>2023-02-18T04:18:32Z</time></trkpt><trkpt lat="36.833898827715316" lon="138.80556546542553"><ele>1273.5028682155535</ele><time>2023-02-18T04:19:01Z</time></trkpt><trkpt lat="36.83398290448643" lon="138.80535944624023"><ele>1252.3021067809314</ele><time>2023-02-18T04:19:12Z</time></trkpt><trkpt lat="36.83408322234334" lon="138.80512316724946"><ele>1243.7866795416921</ele><time>2023-02-18T04:20:12Z</time></trkpt><trkpt lat="36.83409692842583" lon="138.8048897615758"><ele>1241.1341898394749</ele><time>2023-02-18T04:20:17Z</time></trkpt><trkpt lat="36.83411938771976" lon="138.8046626182935"><ele>1235.107986792922</ele><time>2023-02-18T04:20:24Z</time></trkpt><trkpt lat="36.83425344250534" lon="138.80450404543004"><ele>1223.2793206991628</ele><time>2023-02-18T04:20:33Z</time></trkpt><trkpt lat="36.83430157896377" lon="138.8042444021097"><ele>1217.5000258944929</ele><time>2023-02-18T04:20:38Z</time></trkpt><trkpt lat="36.83441706801282" lon="138.8040549582063"><ele>1204.7689615441486</ele><time>2023-02-18T04:20:44Z</time></trkpt><trkpt lat="36.83459303562268" lon="138.80412812140574"><ele>1199.8361354935914</ele><time>2023-02-18T04:21:17Z</time></trkpt><trkpt lat="36.83451941605902" lon="138.8038917112749"><ele>1195.721547735855</ele><time>2023-02-18T04:30:25Z</time></trkpt><trkpt lat="36.83453237560988" lon="138.80363890521753"><ele>1189.619268736802</ele><time>2023-02-18T04:30:31Z</time></trkpt><trkpt lat="36.83465669882908" lon="138.803430503842"><ele>1179.47600144241</ele><time>2023-02-18T04:30:35Z</time></trkpt><trkpt lat="36.834888363227485" lon="138.8033900866122"><ele>1165.5544603290036</ele><time>2023-02-18T04:30:41Z</time></trkpt><trkpt lat="36.83499960037239" lon="138.80317596072544"><ele>1158.7410322269425</ele><time>2023-02-18T04:30:45Z</time></trkpt><trkpt lat="36.83496243537293" lon="138.802942408251"><ele>1153.672426625155</ele><time>2023-02-18T04:31:39Z</time></trkpt><trkpt lat="36.83498674127904" lon="138.8027088343896"><ele>1154.295380328782</ele><time>2023-02-18T04:31:48Z</time></trkpt><trkpt lat="36.83507682052364" lon="138.80245846249724"><ele>1144.8558502029628</ele><time>2023-02-18T04:33:08Z</time></trkpt><trkpt lat="36.83504210321457" lon="138.80220780320693"><ele>1141.8150183223188</ele><time>2023-02-18T04:33:22Z</time></trkpt><trkpt lat="36.83521891984266" lon="138.80205933200708"><ele>1135.8335432363674</ele><time>2023-02-18T04:34:03Z</time></trkpt><trkpt lat="36.83528135076017" lon="138.8018339643279"><ele>1127.461198036559</ele><time>2023-02-18T04:37:10Z</time></trkpt><trkpt lat="36.83540390914979" lon="138.80166939784135"><ele>1125.4399640494958</ele><time>2023-02-18T04:38:00Z</time></trkpt><trkpt lat="36.83537479010917" lon="138.8014363425411"><ele>1114.5439175479114</ele><time>2023-02-18T04:38:18Z</time></trkpt><trkpt lat="36.83542566319771" lon="138.80120695891327"><ele>1113.7528175711632</ele><time>2023-02-18T04:38:25Z</time></trkpt><trkpt lat="36.83555149922803" lon="138.80104340701703"><ele>1106.4998456947505</ele><time>2023-02-18T04:39:01Z</time></trkpt><trkpt lat="36.8356610866629" lon="138.80082485121756"><ele>1101.606053641066</ele><time>2023-02-18T04:39:26Z</time></trkpt><trkpt lat="36.83573556988655" lon="138.8005763281782"><ele>1098.7259034365416</ele><time>2023-02-18T04:39:33Z</time></trkpt><trkpt lat="36.83573147942369" lon="138.80034117290967"><ele>1092.2600995162502</ele><time>2023-02-18T04:39:44Z</time></trkpt><trkpt lat="36.835799954606685" lon="138.80012089228757"><ele>1086.6212231162935</ele><time>2023-02-18T04:43:29Z</time></trkpt><trkpt lat="36.8358483009023" lon="138.7998966963555"><ele>1082.210161597468</ele><time>2023-02-18T04:43:46Z</time></trkpt><trkpt lat="36.835910052543944" lon="138.79967978091847"><ele>1076.481804520823</ele><time>2023-02-18T04:44:06Z</time></trkpt><trkpt lat="36.835991257950845" lon="138.7994491373241"><ele>1070.524944556877</ele><time>2023-02-18T04:44:20Z</time></trkpt><trkpt lat="36.83598035249173" lon="138.79921558927919"><ele>1066.6209670864046</ele><time>2023-02-18T04:44:32Z</time></trkpt><trkpt lat="36.8360033775617" lon="138.79897761612347"><ele>1064.256362435408</ele><time>2023-02-18T04:45:00Z</time></trkpt><trkpt lat="36.835972717913975" lon="138.79874893451665"><ele>1060.0016862647608</ele><time>2023-02-18T04:45:32Z</time></trkpt><trkpt lat="36.835889970461565" lon="138.79852251406393"><ele>1053.145656443201</ele><time>2023-02-18T04:45:39Z</time></trkpt><trkpt lat="36.83578824388724" lon="138.79830245322233"><ele>1048.6028070757166</ele><time>2023-02-18T04:45:45Z</time></trkpt><trkpt lat="36.83586587330043" lon="138.798083097446"><ele>1044.608825753443</ele><time>2023-02-18T04:45:53Z</time></trkpt><trkpt lat="36.83594658549514" lon="138.7978740123598"><ele>1041.8237247103825</ele><time>2023-02-18T04:45:59Z</time></trkpt><trkpt lat="36.83601606596609" lon="138.79765456998703"><ele>1037.2396691208705</ele><time>2023-02-18T04:46:05Z</time></trkpt><trkpt lat="36.83612033051538" lon="138.79744859118102"><ele>1030.1607901798561</ele><time>2023-02-18T04:46:10Z</time></trkpt><trkpt lat="36.83612743872934" lon="138.7972033073404"><ele>1023.9178553307429</ele><time>2023-02-18T04:46:15Z</time></trkpt><trkpt lat="36.83623467864389" lon="138.79700102399897"><ele>1021.8514307541773</ele><time>2023-02-18T04:46:21Z</time></trkpt><trkpt lat="36.836063407693814" lon="138.79690444706864"><ele>1016.0555087011307</ele><time>2023-02-18T04:46:56Z</time></trkpt><trkpt lat="36.836017063136424" lon="138.79668311835349"><ele>1004.7666184734553</ele><time>2023-02-18T04:47:21Z</time></trkpt><trkpt lat="36.83619650306215" lon="138.79658615755073"><ele>1007.4168506860733</ele><time>2023-02-18T04:47:30Z</time></trkpt><trkpt lat="36.83637806652732" lon="138.7965397556595"><ele>1008.4359231060371</ele><time>2023-02-18T04:47:40Z</time></trkpt><trkpt lat="36.83656715396601" lon="138.79643420270995"><ele>999.6561530763283</ele><time>2023-02-18T04:47:55Z</time></trkpt><trkpt lat="36.8367325377398" lon="138.79630761419435"><ele>998.86183695402</ele><time>2023-02-18T04:50:01Z</time></trkpt><trkpt lat="36.836769923437124" lon="138.7960741673162"><ele>994.6587819773704</ele><time>2023-02-18T04:50:04Z</time></trkpt><trkpt lat="36.83687172175109" lon="138.7958719903416"><ele>994.2959117330611</ele><time>2023-02-18T04:50:09Z</time></trkpt><trkpt lat="36.83700015809406" lon="138.79568077204723"><ele>994.333139934577</ele><time>2023-02-18T04:50:16Z</time></trkpt><trkpt lat="36.837127249946576" lon="138.79548178214685"><ele>992.762204640545</ele><time>2023-02-18T04:50:22Z</time></trkpt><trkpt lat="36.83727676846352" lon="138.79530866636193"><ele>991.1984295248985</ele><time>2023-02-18T04:50:28Z</time></trkpt><trkpt lat="36.83744187131733" lon="138.79512511501818"><ele>988.3309948472306</ele><time>2023-02-18T04:50:35Z</time></trkpt><trkpt lat="36.837587783652815" lon="138.7949400452188"><ele>984.84691410698</ele><time>2023-02-18T04:50:41Z</time></trkpt><trkpt lat="36.83775850395264" lon="138.79480337628436"><ele>983.0728191453964</ele><time>2023-02-18T04:50:47Z</time></trkpt><trkpt lat="36.83793167186817" lon="138.79473322269922"><ele>979.7629593163729</ele><time>2023-02-18T04:50:52Z</time></trkpt><trkpt lat="36.83814281338411" lon="138.79470010353785"><ele>977.2444227524102</ele><time>2023-02-18T04:50:58Z</time></trkpt><trkpt lat="36.838335446208774" lon="138.7946914590905"><ele>975.3698463328183</ele><time>2023-02-18T04:51:03Z</time></trkpt><trkpt lat="36.83849619578596" lon="138.7945575435914"><ele>971.7673914581537</ele><time>2023-02-18T04:51:09Z</time></trkpt><trkpt lat="36.83857935354778" lon="138.79433875326703"><ele>968.7349307276309</ele><time>2023-02-18T04:51:15Z</time></trkpt><trkpt lat="36.83868155624117" lon="138.7941375227513"><ele>965.8222438348457</ele><time>2023-02-18T04:51:20Z</time></trkpt><trkpt lat="36.83878576696176" lon="138.7939532984642"><ele>962.1214678930119</ele><time>2023-02-18T04:51:27Z</time></trkpt><trkpt lat="36.838882765396555" lon="138.79375540626552"><ele>958.7902302574366</ele><time>2023-02-18T04:51:35Z</time></trkpt><trkpt lat="36.83907693986915" lon="138.7936332657692"><ele>954.8379780501127</ele><time>2023-02-18T04:51:41Z</time></trkpt><trkpt lat="36.83923520206467" lon="138.7935145514502"><ele>951.5303752804175</ele><time>2023-02-18T04:51:46Z</time></trkpt><trkpt lat="36.839350054486204" lon="138.79332626242854"><ele>947.6443749498576</ele><time>2023-02-18T04:51:51Z</time></trkpt><trkpt lat="36.8395520496715" lon="138.79321827671995"><ele>945.2721986407414</ele><time>2023-02-18T04:51:57Z</time></trkpt><trkpt lat="36.83973163801359" lon="138.7931755302157"><ele>942.5300451843068</ele><time>2023-02-18T04:52:01Z</time></trkpt><trkpt lat="36.839927718689495" lon="138.79309269150488"><ele>942.0117773674428</ele><time>2023-02-18T04:52:06Z</time></trkpt><trkpt lat="36.84007037106617" lon="138.79291038440923"><ele>939.5680390261114</ele><time>2023-02-18T04:52:14Z</time></trkpt><trkpt lat="36.84020975461083" lon="138.7927571279866"><ele>938.9136057831347</ele><time>2023-02-18T04:52:23Z</time></trkpt><trkpt lat="36.840362247955944" lon="138.7926281009288"><ele>937.6242926260456</ele><time>2023-02-18T04:52:30Z</time></trkpt><trkpt lat="36.84053329291889" lon="138.79247812374933"><ele>932.8854338359088</ele><time>2023-02-18T04:52:35Z</time></trkpt><trkpt lat="36.84069122234299" lon="138.7923064015199"><ele>930.048332657665</ele><time>2023-02-18T04:52:40Z</time></trkpt><trkpt lat="36.840844924059894" lon="138.79214616681207"><ele>926.6395238991827</ele><time>2023-02-18T04:52:47Z</time></trkpt><trkpt lat="36.840998038834115" lon="138.79198612972158"><ele>923.3233353402466</ele><time>2023-02-18T04:52:53Z</time></trkpt><trkpt lat="36.84112403794291" lon="138.79181413189968"><ele>919.4991945959628</ele><time>2023-02-18T04:52:59Z</time></trkpt><trkpt lat="36.84127969405848" lon="138.79163114286615"><ele>917.7967407777905</ele><time>2023-02-18T04:53:06Z</time></trkpt><trkpt lat="36.8414159769965" lon="138.79144402969666"><ele>917.6322945309803</ele><time>2023-02-18T04:53:13Z</time></trkpt><trkpt lat="36.84156964406005" lon="138.79129710519314"><ele>915.9222639566287</ele><time>2023-02-18T04:53:19Z</time></trkpt><trkpt lat="36.84175368696577" lon="138.79126034788973"><ele>915.0036175800487</ele><time>2023-02-18T04:53:25Z</time></trkpt><trkpt lat="36.84193436676634" lon="138.79120597375214"><ele>914.7875450560823</ele><time>2023-02-18T04:53:35Z</time></trkpt><trkpt lat="36.842109659494" lon="138.79115211367457"><ele>912.1065161637962</ele><time>2023-02-18T04:54:12Z</time></trkpt><trkpt lat="36.84230193312726" lon="138.79114705483656"><ele>910.321053548716</ele><time>2023-02-18T04:54:25Z</time></trkpt><trkpt lat="36.8424850702384" lon="138.791196120798"><ele>911.4004455134273</ele><time>2023-02-18T04:54:50Z</time></trkpt><trkpt lat="36.84259700663327" lon="138.7913859386427"><ele>912.3565820464864</ele><time>2023-02-18T04:55:14Z</time></trkpt><trkpt lat="36.842761076371026" lon="138.79148025074062"><ele>915.3212440432981</ele><time>2023-02-18T04:56:24Z</time></trkpt><trkpt lat="36.842931601379846" lon="138.7915799906897"><ele>911.5195403452963</ele><time>2023-02-18T04:56:43Z</time></trkpt><trkpt lat="36.843090095820266" lon="138.79170220600997"><ele>911.2389269135892</ele><time>2023-02-18T04:57:01Z</time></trkpt><trkpt lat="36.843195074945434" lon="138.79188480246088"><ele>910.0036167167127</ele><time>2023-02-18T04:57:18Z</time></trkpt><trkpt lat="36.84336212421403" lon="138.79198163742726"><ele>905.3343332419172</ele><time>2023-02-18T04:58:07Z</time></trkpt><trkpt lat="36.84354258953358" lon="138.79202730194166"><ele>904.8977645151317</ele><time>2023-02-18T04:59:51Z</time></trkpt><trkpt lat="36.84372810237401" lon="138.79198563022118"><ele>904.9419191712514</ele><time>2023-02-18T05:00:09Z</time></trkpt><trkpt lat="36.843876570487446" lon="138.79185030673818"><ele>911.0292173074558</ele><time>2023-02-18T05:10:33Z</time></trkpt><trkpt lat="36.84392413519035" lon="138.79162448793699"><ele>908.832103879191</ele><time>2023-02-18T05:10:50Z</time></trkpt><trkpt lat="36.8439453129018" lon="138.79139676467298"><ele>910.2110831690952</ele><time>2023-02-18T05:11:04Z</time></trkpt><trkpt lat="36.84399876872069" lon="138.791164286962"><ele>907.2275640638545</ele><time>2023-02-18T05:11:24Z</time></trkpt><trkpt lat="36.84405594743796" lon="138.79093629247822"><ele>904.873543670401</ele><time>2023-02-18T05:11:38Z</time></trkpt><trkpt lat="36.84406749895421" lon="138.79070906380184"><ele>905.4428341332823</ele><time>2023-02-18T05:11:57Z</time></trkpt><trkpt lat="36.84409170965785" lon="138.79047097967364"><ele>905.1436256458983</ele><time>2023-02-18T05:12:14Z</time></trkpt><trkpt lat="36.84405457966149" lon="138.79025031802306"><ele>902.2308197859675</ele><time>2023-02-18T05:12:27Z</time></trkpt><trkpt lat="36.84408010764743" lon="138.7900219740921"><ele>898.7155607398599</ele><time>2023-02-18T05:12:40Z</time></trkpt><trkpt lat="36.84406855833792" lon="138.78978960747781"><ele>895.3185284109786</ele><time>2023-02-18T05:12:54Z</time></trkpt><trkpt lat="36.84404943818378" lon="138.7895543065739"><ele>894.6760395560414</ele><time>2023-02-18T05:13:09Z</time></trkpt><trkpt lat="36.844020948602015" lon="138.78932608202928"><ele>890.8883370216936</ele><time>2023-02-18T05:13:22Z</time></trkpt><trkpt lat="36.84405905836707" lon="138.78908669355414"><ele>888.706391456537</ele><time>2023-02-18T05:13:36Z</time></trkpt><trkpt lat="36.84411278054055" lon="138.78886710988286"><ele>888.506601460278</ele><time>2023-02-18T05:13:50Z</time></trkpt><trkpt lat="36.84420024517416" lon="138.78865667672625"><ele>886.4489281745628</ele><time>2023-02-18T05:14:05Z</time></trkpt><trkpt lat="36.844300481223534" lon="138.7884596522169"><ele>886.6449656430632</ele><time>2023-02-18T05:14:20Z</time></trkpt><trkpt lat="36.844403502113316" lon="138.7882626236018"><ele>886.0298252496868</ele><time>2023-02-18T05:14:36Z</time></trkpt><trkpt lat="36.84448754147775" lon="138.78805941351163"><ele>887.2527662664652</ele><time>2023-02-18T05:14:53Z</time></trkpt><trkpt lat="36.844551422384654" lon="138.78784918286348"><ele>885.210904638283</ele><time>2023-02-18T05:15:08Z</time></trkpt><trkpt lat="36.84460664548495" lon="138.78762258771187"><ele>883.7583738043904</ele><time>2023-02-18T05:15:24Z</time></trkpt><trkpt lat="36.844630665578656" lon="138.78739387460155"><ele>881.5546738691628</ele><time>2023-02-18T05:15:43Z</time></trkpt><trkpt lat="36.84467237556302" lon="138.78716651014443"><ele>883.2019648049027</ele><time>2023-02-18T05:15:58Z</time></trkpt><trkpt lat="36.84472720487507" lon="138.78695133956492"><ele>882.4455318152905</ele><time>2023-02-18T05:16:17Z</time></trkpt><trkpt lat="36.84474878612977" lon="138.7867281589318"><ele>879.7186610819772</ele><time>2023-02-18T05:16:33Z</time></trkpt><trkpt lat="36.84481032563547" lon="138.7865018973924"><ele>879.9442560542375</ele><time>2023-02-18T05:16:49Z</time></trkpt><trkpt lat="36.84486053416227" lon="138.78627661990222"><ele>881.1955705992877</ele><time>2023-02-18T05:17:07Z</time></trkpt><trkpt lat="36.84491458661933" lon="138.78605705114398"><ele>879.4319142615423</ele><time>2023-02-18T05:17:22Z</time></trkpt><trkpt lat="36.84493038355305" lon="138.78582743065672"><ele>879.9725878145546</ele><time>2023-02-18T05:17:36Z</time></trkpt><trkpt lat="36.844954249717" lon="138.78559516481252"><ele>880.3749470990151</ele><time>2023-02-18T05:17:49Z</time></trkpt><trkpt lat="36.84498497192895" lon="138.7853573816357"><ele>880.3992350036278</ele><time>2023-02-18T05:18:01Z</time></trkpt><trkpt lat="36.845070406415594" lon="138.7851524502638"><ele>878.7789469044656</ele><time>2023-02-18T05:18:18Z</time></trkpt><trkpt lat="36.844985326936" lon="138.78494389644237"><ele>878.2476924313232</ele><time>2023-02-18T05:18:36Z</time></trkpt><trkpt lat="36.844840488604355" lon="138.7847949566598"><ele>875.4575902689248</ele><time>2023-02-18T05:18:52Z</time></trkpt><trkpt lat="36.84470077210928" lon="138.78464763038005"><ele>871.6062619537115</ele><time>2023-02-18T05:19:10Z</time></trkpt><trkpt lat="36.844565752920765" lon="138.78449358751556"><ele>863.6556662525982</ele><time>2023-02-18T05:20:53Z</time></trkpt><trkpt lat="36.8444346257236" lon="138.78433459720438"><ele>862.0150667047128</ele><time>2023-02-18T05:21:12Z</time></trkpt><trkpt lat="36.844420347247656" lon="138.7841013605625"><ele>858.3664834648371</ele><time>2023-02-18T05:21:32Z</time></trkpt><trkpt lat="36.84441246039328" lon="138.78387670637474"><ele>851.148485692218</ele><time>2023-02-18T05:22:09Z</time></trkpt><trkpt lat="36.844479498471664" lon="138.7836678311383"><ele>846.7870923317969</ele><time>2023-02-18T05:34:32Z</time></trkpt><trkpt lat="36.84447192978953" lon="138.78343673151483"><ele>843.2465773196891</ele><time>2023-02-18T05:34:47Z</time></trkpt><trkpt lat="36.844323391529514" lon="138.78328013994698"><ele>841.3951593162492</ele><time>2023-02-18T05:35:01Z</time></trkpt><trkpt lat="36.8442006350959" lon="138.78309236025171"><ele>842.0114155858755</ele><time>2023-02-18T05:35:14Z</time></trkpt><trkpt lat="36.84411439291889" lon="138.78287863114076"><ele>842.8489754861221</ele><time>2023-02-18T05:35:26Z</time></trkpt><trkpt lat="36.84406233397416" lon="138.78265733654945"><ele>840.4319675248116</ele><time>2023-02-18T05:35:41Z</time></trkpt><trkpt lat="36.84401713029647" lon="138.78243979649307"><ele>841.634490202181</ele><time>2023-02-18T05:36:08Z</time></trkpt><trkpt lat="36.84393435798512" lon="138.78223980391095"><ele>836.5716661987826</ele><time>2023-02-18T05:36:58Z</time></trkpt><trkpt lat="36.84399622445111" lon="138.7820185628147"><ele>834.9263521321118</ele><time>2023-02-18T05:37:14Z</time></trkpt><trkpt lat="36.84406680042145" lon="138.78180019663358"><ele>832.62672014907</ele><time>2023-02-18T05:37:33Z</time></trkpt><trkpt lat="36.84412459284075" lon="138.7815852551062"><ele>832.6041672509164</ele><time>2023-02-18T05:37:48Z</time></trkpt><trkpt lat="36.844142968770925" lon="138.78136105677743"><ele>831.6089227795601</ele><time>2023-02-18T05:38:02Z</time></trkpt><trkpt lat="36.844209564203226" lon="138.781152456766"><ele>826.2831442123279</ele><time>2023-02-18T05:38:35Z</time></trkpt><trkpt lat="36.84428431318907" lon="138.78092632258256"><ele>826.1569202924147</ele><time>2023-02-18T05:38:52Z</time></trkpt><trkpt lat="36.844335032970456" lon="138.780706536295"><ele>824.032300259918</ele><time>2023-02-18T05:39:09Z</time></trkpt><trkpt lat="36.844367814247875" lon="138.78047909127855"><ele>822.3607127480209</ele><time>2023-02-18T05:39:23Z</time></trkpt><trkpt lat="36.844342566431926" lon="138.78025259114239"><ele>821.6100650634617</ele><time>2023-02-18T05:39:36Z</time></trkpt><trkpt lat="36.84432408654832" lon="138.78001570790988"><ele>820.4674715232104</ele><time>2023-02-18T05:39:50Z</time></trkpt><trkpt lat="36.84448563285102" lon="138.77991412666637"><ele>822.6471517886966</ele><time>2023-02-18T05:40:19Z</time></trkpt><trkpt lat="36.84466867019921" lon="138.77985772213182"><ele>821.5685249725357</ele><time>2023-02-18T05:41:02Z</time></trkpt><trkpt lat="36.84477612631928" lon="138.7796723753531"><ele>814.5981974126771</ele><time>2023-02-18T05:41:27Z</time></trkpt><trkpt lat="36.8448792532896" lon="138.77947311155245"><ele>814.119401531294</ele><time>2023-02-18T05:41:45Z</time></trkpt><trkpt lat="36.84496781425903" lon="138.77927387825065"><ele>814.5715620657429</ele><time>2023-02-18T05:41:59Z</time></trkpt><trkpt lat="36.84503698634661" lon="138.7790579467277"><ele>814.7585776429623</ele><time>2023-02-18T05:42:15Z</time></trkpt><trkpt lat="36.84517738797015" lon="138.77890872254127"><ele>815.7952779028565</ele><time>2023-02-18T05:42:30Z</time></trkpt><trkpt lat="36.845229979436674" lon="138.7786880671938"><ele>811.5679465709254</ele><time>2023-02-18T05:42:47Z</time></trkpt><trkpt lat="36.845062601054664" lon="138.7785910876308"><ele>812.824713518843</ele><time>2023-02-18T05:43:16Z</time></trkpt><trkpt lat="36.845136617528674" lon="138.77838284153916"><ele>810.0150094563141</ele><time>2023-02-18T05:43:36Z</time></trkpt></trkseg></trk></gpx>