<?xml version='1.0' encoding='UTF-8'?><gpx creator="YAMAP - https://yamap.com" xsi:schemaLocation="http://www.topografix.com/GPX/1/1 http://www.topografix.com/GPX/1/1/gpx.xsd" version="1.1" xmlns="http://www.topografix.com/GPX/1/1" xmlns:xsi="http://www.w3.org/2001/XMLSchema-instance"><metadata><bounds maxlat="36.86353443231912" maxlon="138.6906792364145" minlat="36.84324859836431" minlon="138.63730469357836"/></metadata><trk><name>苗場山</name><number>1</number><trkseg><trkpt lat="36.863056824551144" lon="138.6375133487749"><ele>808.248712522909</ele><time>2023-03-04T22:45:38Z</time></trkpt><trkpt lat="36.86305429241994" lon="138.637749778477"><ele>807.6801212048158</ele><time>2023-03-04T22:45:55Z</time></trkpt><trkpt lat="36.86304397179793" lon="138.63799562950578"><ele>810.4324242686853</ele><time>2023-03-04T22:46:13Z</time></trkpt><trkpt lat="36.86318922365074" lon="138.63814470370096"><ele>814.6440833481029</ele><time>2023-03-04T22:46:32Z</time></trkpt><trkpt lat="36.86329839201711" lon="138.63833416844798"><ele>816.1955116949975</ele><time>2023-03-04T22:46:49Z</time></trkpt><trkpt lat="36.863396732302654" lon="138.63852407374762"><ele>817.8047105893493</ele><time>2023-03-04T22:47:10Z</time></trkpt><trkpt lat="36.863412982595854" lon="138.6387518750398"><ele>819.8729954957962</ele><time>2023-03-04T22:47:34Z</time></trkpt><trkpt lat="36.863341506305105" lon="138.63897117204064"><ele>823.7973911697045</ele><time>2023-03-04T22:51:35Z</time></trkpt><trkpt lat="36.8632841263366" lon="138.63918675881936"><ele>827.9579269858077</ele><time>2023-03-04T22:52:03Z</time></trkpt><trkpt lat="36.863219148627536" lon="138.63939613170783"><ele>833.238152355887</ele><time>2023-03-04T22:52:25Z</time></trkpt><trkpt lat="36.863120160962396" lon="138.63959090068133"><ele>833.0295236343518</ele><time>2023-03-04T22:52:49Z</time></trkpt><trkpt lat="36.86304699609358" lon="138.63980517284077"><ele>833.1336002983153</ele><time>2023-03-04T22:53:15Z</time></trkpt><trkpt lat="36.863019994005406" lon="138.64002995269882"><ele>834.2718753227964</ele><time>2023-03-04T22:53:43Z</time></trkpt><trkpt lat="36.86294422549373" lon="138.64023476536616"><ele>836.4591864505783</ele><time>2023-03-04T22:54:08Z</time></trkpt><trkpt lat="36.86283804959675" lon="138.64041697147692"><ele>840.0221831398085</ele><time>2023-03-04T22:54:33Z</time></trkpt><trkpt lat="36.86274402295091" lon="138.6406128044379"><ele>842.5435080667958</ele><time>2023-03-04T22:55:02Z</time></trkpt><trkpt lat="36.8626442690014" lon="138.64080096812373"><ele>846.4811477661133</ele><time>2023-03-04T22:55:29Z</time></trkpt><trkpt lat="36.86253770697375" lon="138.64099110871953"><ele>849.4118605321273</ele><time>2023-03-04T22:56:01Z</time></trkpt><trkpt lat="36.86241111698991" lon="138.641151018225"><ele>852.4205945422873</ele><time>2023-03-04T22:56:29Z</time></trkpt><trkpt lat="36.86228626834691" lon="138.64131487706834"><ele>856.9053454138339</ele><time>2023-03-04T22:56:54Z</time></trkpt><trkpt lat="36.862139296592574" lon="138.64145260443235"><ele>859.2930180793628</ele><time>2023-03-04T22:57:22Z</time></trkpt><trkpt lat="36.862061087866934" lon="138.64165576438663"><ele>863.4465214768425</ele><time>2023-03-04T22:57:52Z</time></trkpt><trkpt lat="36.86197057327828" lon="138.64185171324664"><ele>865.2189729008824</ele><time>2023-03-04T22:58:18Z</time></trkpt><trkpt lat="36.861885302671105" lon="138.6420519323183"><ele>866.7847150657326</ele><time>2023-03-04T22:58:43Z</time></trkpt><trkpt lat="36.86180800625242" lon="138.6422628699597"><ele>865.7876954684034</ele><time>2023-03-04T22:59:09Z</time></trkpt><trkpt lat="36.861721990961456" lon="138.64246650446074"><ele>868.100825522095</ele><time>2023-03-04T22:59:34Z</time></trkpt><trkpt lat="36.86164337010916" lon="138.64267396081428"><ele>873.2624839143828</ele><time>2023-03-04T22:59:58Z</time></trkpt><trkpt lat="36.86154520397931" lon="138.64286814227296"><ele>875.5720607591793</ele><time>2023-03-04T23:00:26Z</time></trkpt><trkpt lat="36.861459919170215" lon="138.6430795659286"><ele>875.8582300469279</ele><time>2023-03-04T23:00:50Z</time></trkpt><trkpt lat="36.861385886448595" lon="138.64328705213129"><ele>877.1767995730042</ele><time>2023-03-04T23:01:13Z</time></trkpt><trkpt lat="36.86131226542971" lon="138.64349809756982"><ele>879.1005639666691</ele><time>2023-03-04T23:01:37Z</time></trkpt><trkpt lat="36.8612469249683" lon="138.64372305758832"><ele>883.709381563589</ele><time>2023-03-04T23:02:01Z</time></trkpt><trkpt lat="36.861179909790096" lon="138.64394130197908"><ele>886.5869117407128</ele><time>2023-03-04T23:02:30Z</time></trkpt><trkpt lat="36.861107225532095" lon="138.64415568109126"><ele>892.145492747426</ele><time>2023-03-04T23:02:56Z</time></trkpt><trkpt lat="36.86101681056919" lon="138.64437504948683"><ele>896.6478418912739</ele><time>2023-03-04T23:03:25Z</time></trkpt><trkpt lat="36.86093999557035" lon="138.64459371105374"><ele>900.0809236075729</ele><time>2023-03-04T23:03:53Z</time></trkpt><trkpt lat="36.8608628541914" lon="138.64479690319575"><ele>903.4839911321178</ele><time>2023-03-04T23:04:19Z</time></trkpt><trkpt lat="36.860778651894634" lon="138.64499547288406"><ele>907.6020837426186</ele><time>2023-03-04T23:04:42Z</time></trkpt><trkpt lat="36.86069958541885" lon="138.64520212441508"><ele>911.9883705116808</ele><time>2023-03-04T23:05:11Z</time></trkpt><trkpt lat="36.86063477775344" lon="138.6454231326076"><ele>914.1285387091339</ele><time>2023-03-04T23:05:37Z</time></trkpt><trkpt lat="36.860581730686654" lon="138.6456380118589"><ele>919.3742758408189</ele><time>2023-03-04T23:06:06Z</time></trkpt><trkpt lat="36.86052145901273" lon="138.64585272673597"><ele>922.240371410735</ele><time>2023-03-04T23:06:30Z</time></trkpt><trkpt lat="36.860485410683445" lon="138.64607473666734"><ele>925.6283125737682</ele><time>2023-03-04T23:07:09Z</time></trkpt><trkpt lat="36.860366127683285" lon="138.64624748168475"><ele>926.6531822467223</ele><time>2023-03-04T23:07:29Z</time></trkpt><trkpt lat="36.86024918989991" lon="138.64642830864685"><ele>926.2687991708517</ele><time>2023-03-04T23:08:00Z</time></trkpt><trkpt lat="36.86012866733458" lon="138.64660219994008"><ele>929.759231954813</ele><time>2023-03-04T23:08:24Z</time></trkpt><trkpt lat="36.86000234650626" lon="138.646778024303"><ele>932.5609698612243</ele><time>2023-03-04T23:08:55Z</time></trkpt><trkpt lat="36.85989869838157" lon="138.64697256845685"><ele>938.7399633266032</ele><time>2023-03-04T23:09:22Z</time></trkpt><trkpt lat="36.85982540034096" lon="138.64718738573038"><ele>943.7540785707533</ele><time>2023-03-04T23:09:46Z</time></trkpt><trkpt lat="36.85973319736812" lon="138.64738487093786"><ele>943.8488680329174</ele><time>2023-03-04T23:10:10Z</time></trkpt><trkpt lat="36.85960176750052" lon="138.64757305006154"><ele>945.9988086773083</ele><time>2023-03-04T23:10:38Z</time></trkpt><trkpt lat="36.859423888299844" lon="138.64766999795876"><ele>951.5848380513489</ele><time>2023-03-04T23:11:01Z</time></trkpt><trkpt lat="36.859247148128006" lon="138.64760335548948"><ele>956.1778123797849</ele><time>2023-03-04T23:11:26Z</time></trkpt><trkpt lat="36.859093234067345" lon="138.64747908501244"><ele>961.7839534264058</ele><time>2023-03-04T23:11:46Z</time></trkpt><trkpt lat="36.85891802664829" lon="138.6474102538431"><ele>961.0219694003463</ele><time>2023-03-04T23:12:16Z</time></trkpt><trkpt lat="36.858930433392636" lon="138.64764216260738"><ele>966.2476637689397</ele><time>2023-03-04T23:12:41Z</time></trkpt><trkpt lat="36.85906809607091" lon="138.64779482109955"><ele>962.46907317359</ele><time>2023-03-04T23:13:10Z</time></trkpt><trkpt lat="36.85911154965535" lon="138.6480138920448"><ele>962.5850767632946</ele><time>2023-03-04T23:13:35Z</time></trkpt><trkpt lat="36.85901048055777" lon="138.64821825048432"><ele>961.9001845913008</ele><time>2023-03-04T23:14:15Z</time></trkpt><trkpt lat="36.858873407516974" lon="138.64837024024277"><ele>971.8929187171161</ele><time>2023-03-04T23:20:41Z</time></trkpt><trkpt lat="36.8587501154358" lon="138.64817234636087"><ele>972.483686462976</ele><time>2023-03-04T23:22:30Z</time></trkpt><trkpt lat="36.858697121323544" lon="138.647954287072"><ele>973.1957672890276</ele><time>2023-03-04T23:22:48Z</time></trkpt><trkpt lat="36.8586059026769" lon="138.6477590254594"><ele>974.848996154964</ele><time>2023-03-04T23:23:05Z</time></trkpt><trkpt lat="36.85842781024368" lon="138.6476966198717"><ele>978.9709959123284</ele><time>2023-03-04T23:23:25Z</time></trkpt><trkpt lat="36.858245725673754" lon="138.64768433056216"><ele>986.0621030125767</ele><time>2023-03-04T23:23:44Z</time></trkpt><trkpt lat="36.85812304379181" lon="138.64787298547537"><ele>989.732070797123</ele><time>2023-03-04T23:24:05Z</time></trkpt><trkpt lat="36.858066012886944" lon="138.64809231593188"><ele>989.4168996922672</ele><time>2023-03-04T23:24:29Z</time></trkpt><trkpt lat="36.857947126457816" lon="138.6482687616163"><ele>992.8883086303249</ele><time>2023-03-04T23:24:50Z</time></trkpt><trkpt lat="36.85797766789408" lon="138.64849013902287"><ele>994.5842438293621</ele><time>2023-03-04T23:25:19Z</time></trkpt><trkpt lat="36.858162534459005" lon="138.64840008105017"><ele>991.6554375411943</ele><time>2023-03-04T23:25:37Z</time></trkpt><trkpt lat="36.85816178850359" lon="138.64862540424474"><ele>988.8393008885905</ele><time>2023-03-04T23:26:12Z</time></trkpt><trkpt lat="36.8579729248462" lon="138.648634176253"><ele>991.4073307095096</ele><time>2023-03-04T23:26:28Z</time></trkpt><trkpt lat="36.85779718890742" lon="138.64871629211189"><ele>995.5842828210443</ele><time>2023-03-04T23:26:45Z</time></trkpt><trkpt lat="36.85761287312951" lon="138.64871183491056"><ele>1002.5328105036169</ele><time>2023-03-04T23:27:07Z</time></trkpt><trkpt lat="36.85750521694968" lon="138.64891268354683"><ele>1006.8783761328086</ele><time>2023-03-04T23:27:22Z</time></trkpt><trkpt lat="36.857309499254114" lon="138.64889914213336"><ele>1010.8726378073916</ele><time>2023-03-04T23:27:45Z</time></trkpt><trkpt lat="36.85722926351142" lon="138.64914895727296"><ele>1022.1087475707754</ele><time>2023-03-04T23:29:52Z</time></trkpt><trkpt lat="36.857105405526056" lon="138.649326226839"><ele>1027.8325331695378</ele><time>2023-03-04T23:30:23Z</time></trkpt><trkpt lat="36.85692515284031" lon="138.6493769643795"><ele>1032.4637929722667</ele><time>2023-03-04T23:30:54Z</time></trkpt><trkpt lat="36.856815880750936" lon="138.64958264928836"><ele>1034.8284831503406</ele><time>2023-03-04T23:31:13Z</time></trkpt><trkpt lat="36.85689356705443" lon="138.6498159431457"><ele>1035.7046386403963</ele><time>2023-03-04T23:31:24Z</time></trkpt><trkpt lat="36.85670237995034" lon="138.64973410159558"><ele>1035.9183512656018</ele><time>2023-03-04T23:31:34Z</time></trkpt><trkpt lat="36.85651303298515" lon="138.6496428322304"><ele>1039.0075321737677</ele><time>2023-03-04T23:32:01Z</time></trkpt><trkpt lat="36.85640275608757" lon="138.64982204300586"><ele>1043.3988061985</ele><time>2023-03-04T23:32:25Z</time></trkpt><trkpt lat="36.85632966562199" lon="138.65003480322557"><ele>1045.8475645100698</ele><time>2023-03-04T23:32:48Z</time></trkpt><trkpt lat="36.85613758627732" lon="138.65001472721715"><ele>1047.5741491373628</ele><time>2023-03-04T23:33:06Z</time></trkpt><trkpt lat="36.85622133897287" lon="138.65021537668457"><ele>1049.757565700449</ele><time>2023-03-04T23:33:30Z</time></trkpt><trkpt lat="36.85616425376269" lon="138.65046575615375"><ele>1048.9296027841046</ele><time>2023-03-04T23:35:06Z</time></trkpt><trkpt lat="36.856010999003985" lon="138.6505845658858"><ele>1049.4264385467395</ele><time>2023-03-04T23:35:45Z</time></trkpt><trkpt lat="36.85595988615134" lon="138.65080784619678"><ele>1053.8233443219215</ele><time>2023-03-04T23:36:37Z</time></trkpt><trkpt lat="36.85593152741362" lon="138.65103377793113"><ele>1058.3120880825445</ele><time>2023-03-04T23:37:04Z</time></trkpt><trkpt lat="36.85584200008571" lon="138.65123349739045"><ele>1061.6129052275792</ele><time>2023-03-04T23:37:31Z</time></trkpt><trkpt lat="36.85587572085764" lon="138.6514644046321"><ele>1068.4593058666214</ele><time>2023-03-04T23:38:09Z</time></trkpt><trkpt lat="36.85577737069868" lon="138.65166707628745"><ele>1074.2024923749268</ele><time>2023-03-04T23:39:02Z</time></trkpt><trkpt lat="36.8559117355654" lon="138.65181902459656"><ele>1076.3455593399704</ele><time>2023-03-04T23:39:36Z</time></trkpt><trkpt lat="36.85593866737712" lon="138.65204618904949"><ele>1081.9009892614558</ele><time>2023-03-04T23:40:18Z</time></trkpt><trkpt lat="36.85593783566034" lon="138.65227905191117"><ele>1085.6978937676176</ele><time>2023-03-04T23:42:59Z</time></trkpt><trkpt lat="36.855873887801856" lon="138.6525001937127"><ele>1094.674867566675</ele><time>2023-03-04T23:43:36Z</time></trkpt><trkpt lat="36.85576259558665" lon="138.6526771524456"><ele>1097.3127754665911</ele><time>2023-03-04T23:44:05Z</time></trkpt><trkpt lat="36.85577748474878" lon="138.65290205483552"><ele>1101.848341314122</ele><time>2023-03-04T23:44:38Z</time></trkpt><trkpt lat="36.85573874593095" lon="138.6531214631105"><ele>1107.2508941292763</ele><time>2023-03-04T23:45:00Z</time></trkpt><trkpt lat="36.855865428559476" lon="138.65328213346055"><ele>1108.1011168323457</ele><time>2023-03-04T23:45:29Z</time></trkpt><trkpt lat="36.85574347216888" lon="138.65346563271896"><ele>1109.0727364830673</ele><time>2023-03-04T23:46:11Z</time></trkpt><trkpt lat="36.85560484234294" lon="138.65361427460817"><ele>1116.7456833831966</ele><time>2023-03-04T23:46:30Z</time></trkpt><trkpt lat="36.8554996262461" lon="138.65379934013487"><ele>1123.5091419154778</ele><time>2023-03-04T23:48:59Z</time></trkpt><trkpt lat="36.85541737772836" lon="138.65400550124536"><ele>1128.862205046229</ele><time>2023-03-04T23:50:04Z</time></trkpt><trkpt lat="36.855556643902" lon="138.65385452967354"><ele>1124.0811830256134</ele><time>2023-03-04T23:50:43Z</time></trkpt><trkpt lat="36.8557259278513" lon="138.65396101885742"><ele>1116.7887995513156</ele><time>2023-03-04T23:51:42Z</time></trkpt><trkpt lat="36.855714760812" lon="138.65418781563812"><ele>1115.850463048555</ele><time>2023-03-04T23:53:08Z</time></trkpt><trkpt lat="36.85581610186611" lon="138.6539955693673"><ele>1111.028415190056</ele><time>2023-03-04T23:54:36Z</time></trkpt><trkpt lat="36.85590050575474" lon="138.65420701182208"><ele>1108.9779820078984</ele><time>2023-03-04T23:55:46Z</time></trkpt><trkpt lat="36.85587476059166" lon="138.6544302268583"><ele>1113.3559058252722</ele><time>2023-03-04T23:56:06Z</time></trkpt><trkpt lat="36.855752944649275" lon="138.65460260869185"><ele>1120.0214780764654</ele><time>2023-03-04T23:57:04Z</time></trkpt><trkpt lat="36.855576288720584" lon="138.654664623781"><ele>1121.9102319926023</ele><time>2023-03-04T23:57:23Z</time></trkpt><trkpt lat="36.85566967755295" lon="138.65486364005082"><ele>1128.2677266839892</ele><time>2023-03-04T23:58:12Z</time></trkpt><trkpt lat="36.85550486501189" lon="138.6550761429512"><ele>1137.2379901362583</ele><time>2023-03-05T00:03:24Z</time></trkpt><trkpt lat="36.855680144164765" lon="138.65517898850044"><ele>1133.8669804716483</ele><time>2023-03-05T00:05:27Z</time></trkpt><trkpt lat="36.85580693820003" lon="138.65501295861628"><ele>1135.4185121450573</ele><time>2023-03-05T00:06:22Z</time></trkpt><trkpt lat="36.85562344413035" lon="138.65502657857903"><ele>1133.381739936769</ele><time>2023-03-05T00:06:52Z</time></trkpt><trkpt lat="36.8557211209537" lon="138.65522843418748"><ele>1140.077556528151</ele><time>2023-03-05T00:14:58Z</time></trkpt><trkpt lat="36.855909469116455" lon="138.65521347875006"><ele>1144.2161442721263</ele><time>2023-03-05T00:17:55Z</time></trkpt><trkpt lat="36.855937715579884" lon="138.65543791996458"><ele>1148.5740809766576</ele><time>2023-03-05T00:24:48Z</time></trkpt><trkpt lat="36.856118610797836" lon="138.6554445982202"><ele>1159.7296415613964</ele><time>2023-03-05T00:26:34Z</time></trkpt><trkpt lat="36.856202713556904" lon="138.6552419672356"><ele>1154.9309293767437</ele><time>2023-03-05T00:29:26Z</time></trkpt><trkpt lat="36.8561215328888" lon="138.65544814285917"><ele>1158.766620655544</ele><time>2023-03-05T00:38:50Z</time></trkpt><trkpt lat="36.85629890937781" lon="138.6554062252541"><ele>1161.2870347108692</ele><time>2023-03-05T00:39:48Z</time></trkpt><trkpt lat="36.856263876367244" lon="138.65563401878865"><ele>1164.5747087299824</ele><time>2023-03-05T00:40:26Z</time></trkpt><trkpt lat="36.856216519784915" lon="138.65586698417476"><ele>1170.5593659011647</ele><time>2023-03-05T00:41:01Z</time></trkpt><trkpt lat="36.85619668797948" lon="138.6561023498897"><ele>1173.8036286551505</ele><time>2023-03-05T00:41:28Z</time></trkpt><trkpt lat="36.85617998205615" lon="138.65632691482895"><ele>1178.3961152052507</ele><time>2023-03-05T00:42:01Z</time></trkpt><trkpt lat="36.856333738123226" lon="138.6564549471159"><ele>1186.5427880380303</ele><time>2023-03-05T00:42:39Z</time></trkpt><trkpt lat="36.85650939975338" lon="138.6563937742396"><ele>1187.7210694337264</ele><time>2023-03-05T00:43:06Z</time></trkpt><trkpt lat="36.85647915810651" lon="138.65662079701937"><ele>1189.2178577100858</ele><time>2023-03-05T00:43:45Z</time></trkpt><trkpt lat="36.85659246984398" lon="138.6568165545323"><ele>1193.0055887354538</ele><time>2023-03-05T00:44:19Z</time></trkpt><trkpt lat="36.85649783477314" lon="138.6570097323717"><ele>1199.983914900571</ele><time>2023-03-05T00:45:19Z</time></trkpt><trkpt lat="36.85668853286074" lon="138.65700387605514"><ele>1202.1818838045</ele><time>2023-03-05T00:45:39Z</time></trkpt><trkpt lat="36.85687207452044" lon="138.65703242271718"><ele>1205.741352607496</ele><time>2023-03-05T00:46:08Z</time></trkpt><trkpt lat="36.85704864028613" lon="138.65712950434724"><ele>1209.7109760101885</ele><time>2023-03-05T00:46:41Z</time></trkpt><trkpt lat="36.85710474986378" lon="138.65736839319604"><ele>1218.69210373424</ele><time>2023-03-05T00:47:54Z</time></trkpt><trkpt lat="36.85698612298964" lon="138.65754072385678"><ele>1219.1617366531864</ele><time>2023-03-05T00:49:14Z</time></trkpt><trkpt lat="36.85715600123838" lon="138.6574515459976"><ele>1223.030800588429</ele><time>2023-03-05T00:49:36Z</time></trkpt><trkpt lat="36.85712092557138" lon="138.65767371311742"><ele>1226.9866553479806</ele><time>2023-03-05T00:50:13Z</time></trkpt><trkpt lat="36.857257161404995" lon="138.65782242232797"><ele>1236.6930469544604</ele><time>2023-03-05T00:50:54Z</time></trkpt><trkpt lat="36.85717407730379" lon="138.65803584383374"><ele>1240.9205396976322</ele><time>2023-03-05T00:54:24Z</time></trkpt><trkpt lat="36.857051098713974" lon="138.65824566353103"><ele>1244.8329246658832</ele><time>2023-03-05T00:55:05Z</time></trkpt><trkpt lat="36.856871571760394" lon="138.65834130493636"><ele>1246.9215742852539</ele><time>2023-03-05T00:55:56Z</time></trkpt><trkpt lat="36.85670260655707" lon="138.6584474883591"><ele>1248.7720847250894</ele><time>2023-03-05T00:56:20Z</time></trkpt><trkpt lat="36.85655273765057" lon="138.65857237400434"><ele>1251.9497994370759</ele><time>2023-03-05T00:56:43Z</time></trkpt><trkpt lat="36.85638858259721" lon="138.65868266055912"><ele>1255.8131769793108</ele><time>2023-03-05T00:57:20Z</time></trkpt><trkpt lat="36.85625074064682" lon="138.65883561277158"><ele>1258.2539294203743</ele><time>2023-03-05T00:57:42Z</time></trkpt><trkpt lat="36.856100728538756" lon="138.65900281208712"><ele>1260.8145981226116</ele><time>2023-03-05T00:58:05Z</time></trkpt><trkpt lat="36.855986774408635" lon="138.6591843476137"><ele>1264.722938183695</ele><time>2023-03-05T00:58:34Z</time></trkpt><trkpt lat="36.85593957174304" lon="138.65943445871744"><ele>1265.3352389028296</ele><time>2023-03-05T00:58:54Z</time></trkpt><trkpt lat="36.85594275817319" lon="138.659670554279"><ele>1271.3792326478288</ele><time>2023-03-05T00:59:18Z</time></trkpt><trkpt lat="36.855982228400684" lon="138.65988981629283"><ele>1274.6655331850052</ele><time>2023-03-05T01:00:02Z</time></trkpt><trkpt lat="36.855987040691936" lon="138.66011805168742"><ele>1273.6655986336991</ele><time>2023-03-05T01:01:09Z</time></trkpt><trkpt lat="36.85612505924106" lon="138.6602743027045"><ele>1278.7586775021628</ele><time>2023-03-05T01:01:28Z</time></trkpt><trkpt lat="36.85606404160697" lon="138.6605007146361"><ele>1279.5755277127028</ele><time>2023-03-05T01:01:50Z</time></trkpt><trkpt lat="36.85616310825677" lon="138.66069684566892"><ele>1282.7474678726867</ele><time>2023-03-05T01:02:52Z</time></trkpt><trkpt lat="36.85635536084802" lon="138.6607257652653"><ele>1285.978788045235</ele><time>2023-03-05T01:03:21Z</time></trkpt><trkpt lat="36.85628811135808" lon="138.66094837701957"><ele>1288.1727641467005</ele><time>2023-03-05T01:03:40Z</time></trkpt><trkpt lat="36.856334328592574" lon="138.66117067760268"><ele>1295.4446760974824</ele><time>2023-03-05T01:04:33Z</time></trkpt><trkpt lat="36.85633297604685" lon="138.66139765581823"><ele>1301.27920869831</ele><time>2023-03-05T01:05:15Z</time></trkpt><trkpt lat="36.85636431810731" lon="138.66162197402633"><ele>1307.1249026115984</ele><time>2023-03-05T01:06:03Z</time></trkpt><trkpt lat="36.856192705553475" lon="138.66153571995906"><ele>1303.7014056472108</ele><time>2023-03-05T01:06:38Z</time></trkpt><trkpt lat="36.85602985881113" lon="138.66165279182508"><ele>1303.9567844802514</ele><time>2023-03-05T01:07:04Z</time></trkpt><trkpt lat="36.85589846862793" lon="138.66182695473273"><ele>1306.6986919464543</ele><time>2023-03-05T01:07:25Z</time></trkpt><trkpt lat="36.85579206212127" lon="138.6620210831179"><ele>1310.3080196874216</ele><time>2023-03-05T01:07:50Z</time></trkpt><trkpt lat="36.85568114157287" lon="138.66220076203712"><ele>1313.1174868941307</ele><time>2023-03-05T01:08:18Z</time></trkpt><trkpt lat="36.85562205981531" lon="138.66242035923673"><ele>1313.4123386330903</ele><time>2023-03-05T01:08:38Z</time></trkpt><trkpt lat="36.85558807622731" lon="138.66264865056198"><ele>1314.9776152130216</ele><time>2023-03-05T01:09:04Z</time></trkpt><trkpt lat="36.85553341025581" lon="138.66286507422495"><ele>1312.5656542535871</ele><time>2023-03-05T01:09:31Z</time></trkpt><trkpt lat="36.8553949028826" lon="138.66302254219718"><ele>1311.931129376404</ele><time>2023-03-05T01:09:53Z</time></trkpt><trkpt lat="36.85528582259489" lon="138.66320474210312"><ele>1312.1502243615687</ele><time>2023-03-05T01:10:16Z</time></trkpt><trkpt lat="36.85517163501243" lon="138.66338544710388"><ele>1312.5103492215276</ele><time>2023-03-05T01:10:43Z</time></trkpt><trkpt lat="36.855073577981784" lon="138.66358260072064"><ele>1313.5348440837115</ele><time>2023-03-05T01:11:07Z</time></trkpt><trkpt lat="36.85500310522608" lon="138.66379103582454"><ele>1314.8889284981415</ele><time>2023-03-05T01:11:28Z</time></trkpt><trkpt lat="36.85493960798224" lon="138.6640030544098"><ele>1318.178489160724</ele><time>2023-03-05T01:12:01Z</time></trkpt><trkpt lat="36.8548130697577" lon="138.6641738314663"><ele>1321.046268556267</ele><time>2023-03-05T01:12:26Z</time></trkpt><trkpt lat="36.854725901371204" lon="138.66437672526175"><ele>1325.10743746534</ele><time>2023-03-05T01:12:47Z</time></trkpt><trkpt lat="36.854597355778466" lon="138.66453924399684"><ele>1330.7724692374468</ele><time>2023-03-05T01:13:12Z</time></trkpt><trkpt lat="36.8545901136755" lon="138.6647687604021"><ele>1335.0452094487846</ele><time>2023-03-05T01:13:42Z</time></trkpt><trkpt lat="36.85456599997717" lon="138.6649966282367"><ele>1337.6535276891664</ele><time>2023-03-05T01:14:07Z</time></trkpt><trkpt lat="36.85453446948777" lon="138.66522193106377"><ele>1341.2321518473327</ele><time>2023-03-05T01:14:33Z</time></trkpt><trkpt lat="36.85444490408" lon="138.66542584228074"><ele>1344.526615805924</ele><time>2023-03-05T01:15:01Z</time></trkpt><trkpt lat="36.854382190564344" lon="138.66564251127576"><ele>1348.579776530154</ele><time>2023-03-05T01:15:40Z</time></trkpt><trkpt lat="36.85427546054473" lon="138.66583613105067"><ele>1353.3482216550037</ele><time>2023-03-05T01:16:09Z</time></trkpt><trkpt lat="36.85425754499223" lon="138.66606279037893"><ele>1356.5533778807148</ele><time>2023-03-05T01:16:35Z</time></trkpt><trkpt lat="36.854226280986666" lon="138.66628448651045"><ele>1357.7809754265472</ele><time>2023-03-05T01:17:00Z</time></trkpt><trkpt lat="36.85421936619818" lon="138.66651267305798"><ele>1362.2715235035866</ele><time>2023-03-05T01:17:32Z</time></trkpt><trkpt lat="36.85418486012185" lon="138.6667363423504"><ele>1368.2313942378387</ele><time>2023-03-05T01:18:10Z</time></trkpt><trkpt lat="36.85405688988048" lon="138.66689623339025"><ele>1375.124224868603</ele><time>2023-03-05T01:18:57Z</time></trkpt><trkpt lat="36.85390851304339" lon="138.6670236663017"><ele>1386.792436748743</ele><time>2023-03-05T01:20:03Z</time></trkpt><trkpt lat="36.853846248042466" lon="138.66724081331654"><ele>1391.7617242708802</ele><time>2023-03-05T01:21:19Z</time></trkpt><trkpt lat="36.853794302204655" lon="138.66745711986158"><ele>1397.276242369786</ele><time>2023-03-05T01:22:15Z</time></trkpt><trkpt lat="36.85364689830246" lon="138.6675958664422"><ele>1403.3364240275696</ele><time>2023-03-05T01:23:14Z</time></trkpt><trkpt lat="36.85350183670645" lon="138.66746133901253"><ele>1409.4520269762725</ele><time>2023-03-05T01:24:08Z</time></trkpt><trkpt lat="36.8535263909378" lon="138.6676838625054"><ele>1411.674812615849</ele><time>2023-03-05T01:25:09Z</time></trkpt><trkpt lat="36.85345675443235" lon="138.66746434997182"><ele>1412.1276293760166</ele><time>2023-03-05T01:26:01Z</time></trkpt><trkpt lat="36.85343516906044" lon="138.6672288548606"><ele>1410.968829904683</ele><time>2023-03-05T01:26:36Z</time></trkpt><trkpt lat="36.853392173295134" lon="138.6670062292054"><ele>1407.8912236765027</ele><time>2023-03-05T01:27:52Z</time></trkpt><trkpt lat="36.85330796522817" lon="138.667208897573"><ele>1426.3952752817422</ele><time>2023-03-05T01:30:03Z</time></trkpt><trkpt lat="36.85324375368373" lon="138.66742148144337"><ele>1418.8663589367643</ele><time>2023-03-05T01:30:46Z</time></trkpt><trkpt lat="36.85319195933622" lon="138.66763781316055"><ele>1419.2138764243573</ele><time>2023-03-05T01:31:26Z</time></trkpt><trkpt lat="36.853142915332604" lon="138.66785433530683"><ele>1422.8369274633005</ele><time>2023-03-05T01:32:00Z</time></trkpt><trkpt lat="36.85314980088931" lon="138.66808150355897"><ele>1433.4784103985876</ele><time>2023-03-05T01:32:50Z</time></trkpt><trkpt lat="36.853066725479415" lon="138.6682823998485"><ele>1437.6456601750106</ele><time>2023-03-05T01:33:50Z</time></trkpt><trkpt lat="36.853002819454126" lon="138.66849906539943"><ele>1441.559080792591</ele><time>2023-03-05T01:34:36Z</time></trkpt><trkpt lat="36.85292970061891" lon="138.66871294870603"><ele>1449.4509927546605</ele><time>2023-03-05T01:35:38Z</time></trkpt><trkpt lat="36.85285283072853" lon="138.66892095393777"><ele>1452.2168760923669</ele><time>2023-03-05T01:36:50Z</time></trkpt><trkpt lat="36.85280752292694" lon="138.66914839603515"><ele>1453.6492459280416</ele><time>2023-03-05T01:37:49Z</time></trkpt><trkpt lat="36.852758079603994" lon="138.66937305676302"><ele>1466.2310350211337</ele><time>2023-03-05T01:38:43Z</time></trkpt><trkpt lat="36.85265890259893" lon="138.66956293698638"><ele>1466.439426488243</ele><time>2023-03-05T01:39:50Z</time></trkpt><trkpt lat="36.85263708731085" lon="138.6697973050204"><ele>1476.453576634638</ele><time>2023-03-05T01:40:49Z</time></trkpt><trkpt lat="36.8526723089039" lon="138.67002089814042"><ele>1481.3610625481233</ele><time>2023-03-05T01:41:33Z</time></trkpt><trkpt lat="36.85275473798749" lon="138.67022243636688"><ele>1484.41522436589</ele><time>2023-03-05T01:46:08Z</time></trkpt><trkpt lat="36.85284484963634" lon="138.6704229762986"><ele>1495.449412916787</ele><time>2023-03-05T01:46:48Z</time></trkpt><trkpt lat="36.85284723848485" lon="138.67065176187884"><ele>1502.0718198651448</ele><time>2023-03-05T01:47:20Z</time></trkpt><trkpt lat="36.85282097834259" lon="138.67088090886864"><ele>1508.5420199204236</ele><time>2023-03-05T01:48:14Z</time></trkpt><trkpt lat="36.85263736737905" lon="138.6708973304363"><ele>1511.7182600330561</ele><time>2023-03-05T01:48:48Z</time></trkpt><trkpt lat="36.85251129404631" lon="138.6710581183232"><ele>1515.708654188551</ele><time>2023-03-05T01:49:37Z</time></trkpt><trkpt lat="36.852432851753036" lon="138.67126833048556"><ele>1520.4436691803858</ele><time>2023-03-05T01:50:27Z</time></trkpt><trkpt lat="36.85248927813668" lon="138.6714938146437"><ele>1524.1956642456353</ele><time>2023-03-05T01:50:56Z</time></trkpt><trkpt lat="36.85251708185026" lon="138.67171542874596"><ele>1529.3428214816377</ele><time>2023-03-05T01:51:36Z</time></trkpt><trkpt lat="36.85241429773589" lon="138.67190076555121"><ele>1530.5635235877708</ele><time>2023-03-05T01:52:22Z</time></trkpt><trkpt lat="36.85237322286124" lon="138.67212013652798"><ele>1532.539179943502</ele><time>2023-03-05T01:53:13Z</time></trkpt><trkpt lat="36.85243177733813" lon="138.6723335185615"><ele>1538.5503391958773</ele><time>2023-03-05T01:53:52Z</time></trkpt><trkpt lat="36.85225125012178" lon="138.67240754346832"><ele>1539.8823725720868</ele><time>2023-03-05T01:54:22Z</time></trkpt><trkpt lat="36.852198284323826" lon="138.67262208608335"><ele>1543.4029277153313</ele><time>2023-03-05T01:55:11Z</time></trkpt><trkpt lat="36.85219196359124" lon="138.6728736538263"><ele>1550.09580330085</ele><time>2023-03-05T01:55:48Z</time></trkpt><trkpt lat="36.85203733079245" lon="138.6729954119197"><ele>1555.5791914761066</ele><time>2023-03-05T01:56:48Z</time></trkpt><trkpt lat="36.851875197218305" lon="138.67309527750766"><ele>1558.8795482134447</ele><time>2023-03-05T01:57:24Z</time></trkpt><trkpt lat="36.851983517814425" lon="138.6732807006259"><ele>1564.234963113442</ele><time>2023-03-05T01:58:01Z</time></trkpt><trkpt lat="36.85201729482191" lon="138.67350464048025"><ele>1569.2645419873297</ele><time>2023-03-05T01:58:33Z</time></trkpt><trkpt lat="36.85183668489332" lon="138.67353662674796"><ele>1573.4117111591622</ele><time>2023-03-05T01:59:05Z</time></trkpt><trkpt lat="36.85187121927772" lon="138.67375721638064"><ele>1575.8511578040197</ele><time>2023-03-05T01:59:53Z</time></trkpt><trkpt lat="36.851689976851766" lon="138.6737857795102"><ele>1579.6964676408097</ele><time>2023-03-05T02:00:38Z</time></trkpt><trkpt lat="36.85152309957248" lon="138.67389349223237"><ele>1581.7177575193346</ele><time>2023-03-05T02:01:29Z</time></trkpt><trkpt lat="36.851554132766225" lon="138.67411463327653"><ele>1587.307736790739</ele><time>2023-03-05T02:02:14Z</time></trkpt><trkpt lat="36.85164453300099" lon="138.67431162646344"><ele>1589.3512121401727</ele><time>2023-03-05T02:02:49Z</time></trkpt><trkpt lat="36.8517492191836" lon="138.67450171588976"><ele>1589.4718534583226</ele><time>2023-03-05T02:03:24Z</time></trkpt><trkpt lat="36.85173243160256" lon="138.6747263071156"><ele>1592.1902066580951</ele><time>2023-03-05T02:03:58Z</time></trkpt><trkpt lat="36.8516420960246" lon="138.67492127333088"><ele>1593.7929170271382</ele><time>2023-03-05T02:04:34Z</time></trkpt><trkpt lat="36.851667240327366" lon="138.6751453801877"><ele>1596.1862333919853</ele><time>2023-03-05T02:05:14Z</time></trkpt><trkpt lat="36.85158497382458" lon="138.67535531635434"><ele>1600.1807632716373</ele><time>2023-03-05T02:05:52Z</time></trkpt><trkpt lat="36.85154711874559" lon="138.67557572705633"><ele>1600.4564645309001</ele><time>2023-03-05T02:06:31Z</time></trkpt><trkpt lat="36.85163253342645" lon="138.67577783162517"><ele>1602.9569050343707</ele><time>2023-03-05T02:07:05Z</time></trkpt><trkpt lat="36.85159689924011" lon="138.6760004126486"><ele>1605.9642341816798</ele><time>2023-03-05T02:07:36Z</time></trkpt><trkpt lat="36.85161690506262" lon="138.67623384238192"><ele>1610.3509917836636</ele><time>2023-03-05T02:08:24Z</time></trkpt><trkpt lat="36.851535755125255" lon="138.67644078781035"><ele>1611.853044545278</ele><time>2023-03-05T02:09:06Z</time></trkpt><trkpt lat="36.851416750188754" lon="138.67661486064057"><ele>1618.3955842284486</ele><time>2023-03-05T02:10:16Z</time></trkpt><trkpt lat="36.8514534466779" lon="138.6768410069887"><ele>1624.5174300465733</ele><time>2023-03-05T02:11:23Z</time></trkpt><trkpt lat="36.851316929096264" lon="138.67700362746606"><ele>1628.6710057295859</ele><time>2023-03-05T02:12:05Z</time></trkpt><trkpt lat="36.85118464914389" lon="138.67716089429126"><ele>1633.3098643021658</ele><time>2023-03-05T02:13:03Z</time></trkpt><trkpt lat="36.8511326590065" lon="138.6773764324269"><ele>1634.5516468957067</ele><time>2023-03-05T02:13:49Z</time></trkpt><trkpt lat="36.851015454565385" lon="138.6775469272008"><ele>1639.3767207395285</ele><time>2023-03-05T02:14:32Z</time></trkpt><trkpt lat="36.85092200084368" lon="138.6777480898003"><ele>1646.1186021789908</ele><time>2023-03-05T02:16:30Z</time></trkpt><trkpt lat="36.850817056536364" lon="138.67793130677472"><ele>1653.4243619441986</ele><time>2023-03-05T02:17:26Z</time></trkpt><trkpt lat="36.85064164846627" lon="138.67800067544755"><ele>1658.027862984687</ele><time>2023-03-05T02:18:22Z</time></trkpt><trkpt lat="36.8504614526414" lon="138.6779971075991"><ele>1659.853597057052</ele><time>2023-03-05T02:19:53Z</time></trkpt><trkpt lat="36.850338337971024" lon="138.6781719636469"><ele>1662.5171030852944</ele><time>2023-03-05T02:24:37Z</time></trkpt><trkpt lat="36.85022343801178" lon="138.6783578923232"><ele>1664.2069405578077</ele><time>2023-03-05T02:40:21Z</time></trkpt><trkpt lat="36.85012345158554" lon="138.67854551850965"><ele>1668.615420134738</ele><time>2023-03-05T02:40:43Z</time></trkpt><trkpt lat="36.850085689931156" lon="138.67876895527567"><ele>1673.8082219138741</ele><time>2023-03-05T02:41:09Z</time></trkpt><trkpt lat="36.850115639474055" lon="138.67899724702337"><ele>1678.697509497404</ele><time>2023-03-05T02:41:42Z</time></trkpt><trkpt lat="36.8502132595196" lon="138.67918998289093"><ele>1682.715192318894</ele><time>2023-03-05T02:42:08Z</time></trkpt><trkpt lat="36.85030452484852" lon="138.67938511772226"><ele>1687.6402745880187</ele><time>2023-03-05T02:42:51Z</time></trkpt><trkpt lat="36.85026892496794" lon="138.67960985937475"><ele>1688.9076815191656</ele><time>2023-03-05T02:43:45Z</time></trkpt><trkpt lat="36.850104091817286" lon="138.67950118020747"><ele>1691.25716482196</ele><time>2023-03-05T02:44:01Z</time></trkpt><trkpt lat="36.84992411116343" lon="138.67946464407297"><ele>1696.837058504112</ele><time>2023-03-05T02:45:05Z</time></trkpt><trkpt lat="36.849834159224905" lon="138.67966082810403"><ele>1701.8736239587888</ele><time>2023-03-05T02:45:40Z</time></trkpt><trkpt lat="36.84983356476114" lon="138.67988533046"><ele>1707.767841115594</ele><time>2023-03-05T02:46:30Z</time></trkpt><trkpt lat="36.84965331224049" lon="138.67990247559152"><ele>1714.7040552115068</ele><time>2023-03-05T02:47:28Z</time></trkpt><trkpt lat="36.84947963534664" lon="138.67982423834832"><ele>1715.49014036078</ele><time>2023-03-05T02:48:03Z</time></trkpt><trkpt lat="36.84929610579678" lon="138.67990095597222"><ele>1719.1874294085428</ele><time>2023-03-05T02:49:41Z</time></trkpt><trkpt lat="36.849110542038105" lon="138.67991833116113"><ele>1722.1212732456625</ele><time>2023-03-05T02:50:21Z</time></trkpt><trkpt lat="36.84893096133502" lon="138.67986779167614"><ele>1728.4796391846612</ele><time>2023-03-05T02:51:06Z</time></trkpt><trkpt lat="36.84876717907725" lon="138.67996355213194"><ele>1735.4336648732424</ele><time>2023-03-05T02:52:33Z</time></trkpt><trkpt lat="36.848648391963316" lon="138.68013895865087"><ele>1743.4082636851817</ele><time>2023-03-05T02:53:48Z</time></trkpt><trkpt lat="36.84866008820831" lon="138.68036338056012"><ele>1743.6128332512453</ele><time>2023-03-05T02:54:40Z</time></trkpt><trkpt lat="36.84860658457781" lon="138.6805829589924"><ele>1749.089146964252</ele><time>2023-03-05T02:55:37Z</time></trkpt><trkpt lat="36.84854318702859" lon="138.68079404718824"><ele>1753.507512435317</ele><time>2023-03-05T02:56:35Z</time></trkpt><trkpt lat="36.848478684471" lon="138.68100402316924"><ele>1758.8989897957072</ele><time>2023-03-05T02:57:32Z</time></trkpt><trkpt lat="36.84831707009792" lon="138.6811144314021"><ele>1764.1790539491922</ele><time>2023-03-05T02:58:46Z</time></trkpt><trkpt lat="36.84814032678015" lon="138.68105107553512"><ele>1778.5866507468745</ele><time>2023-03-05T03:00:34Z</time></trkpt><trkpt lat="36.84796587363016" lon="138.68099299286862"><ele>1788.554028145969</ele><time>2023-03-05T03:02:56Z</time></trkpt><trkpt lat="36.847884101146626" lon="138.68079121612024"><ele>1795.1446921089664</ele><time>2023-03-05T03:04:18Z</time></trkpt><trkpt lat="36.84781816989217" lon="138.68057024713227"><ele>1799.281867469661</ele><time>2023-03-05T03:05:13Z</time></trkpt><trkpt lat="36.84773652597576" lon="138.68036682318314"><ele>1804.0965333459899</ele><time>2023-03-05T03:06:14Z</time></trkpt><trkpt lat="36.847680492650404" lon="138.6801523224462"><ele>1805.5998488301411</ele><time>2023-03-05T03:07:14Z</time></trkpt><trkpt lat="36.84767400150322" lon="138.6799266953526"><ele>1809.0732800085098</ele><time>2023-03-05T03:08:14Z</time></trkpt><trkpt lat="36.8475917844531" lon="138.67972629737602"><ele>1813.9791815280914</ele><time>2023-03-05T03:09:12Z</time></trkpt><trkpt lat="36.84749506194906" lon="138.67953004141566"><ele>1817.0999969718978</ele><time>2023-03-05T03:10:02Z</time></trkpt><trkpt lat="36.847325044772624" lon="138.67940532091274"><ele>1820.2837636414915</ele><time>2023-03-05T03:10:49Z</time></trkpt><trkpt lat="36.84714310584908" lon="138.6794249603332"><ele>1827.2423415565863</ele><time>2023-03-05T03:11:38Z</time></trkpt><trkpt lat="36.84699270795834" lon="138.6792963104521"><ele>1829.01677475404</ele><time>2023-03-05T03:13:20Z</time></trkpt><trkpt lat="36.84682037005957" lon="138.67922457901983"><ele>1836.9271670384333</ele><time>2023-03-05T03:14:18Z</time></trkpt><trkpt lat="36.84664099564233" lon="138.67918527688593"><ele>1841.3666542926803</ele><time>2023-03-05T03:15:14Z</time></trkpt><trkpt lat="36.84647252847533" lon="138.67910543999548"><ele>1843.4572993228212</ele><time>2023-03-05T03:16:23Z</time></trkpt><trkpt lat="36.84633353003918" lon="138.67896028984381"><ele>1852.1395097794011</ele><time>2023-03-05T03:17:27Z</time></trkpt><trkpt lat="36.84620760445827" lon="138.67879515952583"><ele>1851.4794999472797</ele><time>2023-03-05T03:18:37Z</time></trkpt><trkpt lat="36.84603461436226" lon="138.67888544891042"><ele>1865.1854305788875</ele><time>2023-03-05T03:23:32Z</time></trkpt><trkpt lat="36.84589003423974" lon="138.6787496844532"><ele>1871.6796780312434</ele><time>2023-03-05T03:26:05Z</time></trkpt><trkpt lat="36.845709066447895" lon="138.6787389706642"><ele>1881.4462034059688</ele><time>2023-03-05T03:28:05Z</time></trkpt><trkpt lat="36.84552886499592" lon="138.6787519915788"><ele>1891.0647527631372</ele><time>2023-03-05T03:30:51Z</time></trkpt><trkpt lat="36.845349974057186" lon="138.67869460773343"><ele>1900.7977076768875</ele><time>2023-03-05T03:32:55Z</time></trkpt><trkpt lat="36.84517691386227" lon="138.67863164467437"><ele>1903.5651614693925</ele><time>2023-03-05T03:34:07Z</time></trkpt><trkpt lat="36.845020680726066" lon="138.6787480201053"><ele>1922.280370081775</ele><time>2023-03-05T03:37:33Z</time></trkpt><trkpt lat="36.84489321224515" lon="138.67890900987354"><ele>1925.5029051126912</ele><time>2023-03-05T03:43:12Z</time></trkpt><trkpt lat="36.84484705515083" lon="138.6791282622945"><ele>1944.513400101103</ele><time>2023-03-05T03:45:31Z</time></trkpt><trkpt lat="36.84466636373045" lon="138.6790858079191"><ele>1949.617567983456</ele><time>2023-03-05T03:47:09Z</time></trkpt><trkpt lat="36.8445604948097" lon="138.67927096351897"><ele>1956.5404879143462</ele><time>2023-03-05T03:49:44Z</time></trkpt><trkpt lat="36.84468569217849" lon="138.67943584365733"><ele>1967.4454978080466</ele><time>2023-03-05T03:50:57Z</time></trkpt><trkpt lat="36.84469879119227" lon="138.67966177970067"><ele>1979.039729946293</ele><time>2023-03-05T03:54:06Z</time></trkpt><trkpt lat="36.84451961401694" lon="138.67968714315177"><ele>1979.4596888273954</ele><time>2023-03-05T03:55:10Z</time></trkpt><trkpt lat="36.84443490238329" lon="138.6798856589356"><ele>1998.0648278156295</ele><time>2023-03-05T03:58:21Z</time></trkpt><trkpt lat="36.844331268707414" lon="138.6800701465426"><ele>2011.7975009037182</ele><time>2023-03-05T04:00:51Z</time></trkpt><trkpt lat="36.844207411047414" lon="138.68023876658972"><ele>2029.167289013043</ele><time>2023-03-05T04:02:45Z</time></trkpt><trkpt lat="36.844183902500134" lon="138.68046534655014"><ele>2036.8676980724558</ele><time>2023-03-05T04:04:05Z</time></trkpt><trkpt lat="36.844102115122745" lon="138.68066584772896"><ele>2046.4153863508254</ele><time>2023-03-05T04:05:36Z</time></trkpt><trkpt lat="36.844045787373815" lon="138.68088187578874"><ele>2047.8770876098424</ele><time>2023-03-05T04:06:12Z</time></trkpt><trkpt lat="36.844031226586765" lon="138.68110702996228"><ele>2050.6648619109765</ele><time>2023-03-05T04:06:48Z</time></trkpt><trkpt lat="36.84395178565397" lon="138.68132055343682"><ele>2054.7229028670117</ele><time>2023-03-05T04:07:20Z</time></trkpt><trkpt lat="36.84397022813043" lon="138.68154491968465"><ele>2056.972889861092</ele><time>2023-03-05T04:08:08Z</time></trkpt><trkpt lat="36.84397988491855" lon="138.68177552390645"><ele>2060.4634970985353</ele><time>2023-03-05T04:09:03Z</time></trkpt><trkpt lat="36.84405279719102" lon="138.68198295508952"><ele>2064.508458049968</ele><time>2023-03-05T04:10:13Z</time></trkpt><trkpt lat="36.84423328344396" lon="138.68201357959308"><ele>2066.149091096595</ele><time>2023-03-05T04:14:37Z</time></trkpt><trkpt lat="36.84437815828523" lon="138.68215316892162"><ele>2071.991043968126</ele><time>2023-03-05T04:15:29Z</time></trkpt><trkpt lat="36.844541807689545" lon="138.68225574301658"><ele>2076.1217832667753</ele><time>2023-03-05T04:16:06Z</time></trkpt><trkpt lat="36.84467040869654" lon="138.68241958056734"><ele>2085.287945951335</ele><time>2023-03-05T04:16:42Z</time></trkpt><trkpt lat="36.84479415287609" lon="138.68258366523654"><ele>2095.5738746942952</ele><time>2023-03-05T04:17:32Z</time></trkpt><trkpt lat="36.844849208809826" lon="138.68280245818653"><ele>2099.34876473248</ele><time>2023-03-05T04:18:24Z</time></trkpt><trkpt lat="36.844812431192416" lon="138.68303301455458"><ele>2098.1736603137106</ele><time>2023-03-05T04:18:48Z</time></trkpt><trkpt lat="36.84465131469371" lon="138.68314568574263"><ele>2101.964837796986</ele><time>2023-03-05T04:20:22Z</time></trkpt><trkpt lat="36.84452630197391" lon="138.68331016668355"><ele>2102.518534096889</ele><time>2023-03-05T04:20:44Z</time></trkpt><trkpt lat="36.84445721983754" lon="138.68351905030505"><ele>2103.89099589549</ele><time>2023-03-05T04:21:04Z</time></trkpt><trkpt lat="36.84438108288003" lon="138.68372955127842"><ele>2107.826393404044</ele><time>2023-03-05T04:21:30Z</time></trkpt><trkpt lat="36.84428733277037" lon="138.6839239148518"><ele>2106.75672572013</ele><time>2023-03-05T04:21:58Z</time></trkpt><trkpt lat="36.844217670936224" lon="138.68414745103664"><ele>2105.4400826068595</ele><time>2023-03-05T04:22:25Z</time></trkpt><trkpt lat="36.844203520135935" lon="138.68437148906457"><ele>2109.3119314089417</ele><time>2023-03-05T04:22:59Z</time></trkpt><trkpt lat="36.844081933983766" lon="138.68455334924545"><ele>2114.013787600212</ele><time>2023-03-05T04:23:30Z</time></trkpt><trkpt lat="36.844027847573265" lon="138.68476898414156"><ele>2116.547432407737</ele><time>2023-03-05T04:24:01Z</time></trkpt><trkpt lat="36.84397656003209" lon="138.68499024601624"><ele>2117.9302586494014</ele><time>2023-03-05T04:24:52Z</time></trkpt><trkpt lat="36.84409247844901" lon="138.6851639651154"><ele>2113.0149485841393</ele><time>2023-03-05T04:25:51Z</time></trkpt><trkpt lat="36.8442383210032" lon="138.6853004183476"><ele>2117.446117412299</ele><time>2023-03-05T04:26:26Z</time></trkpt><trkpt lat="36.84432368354672" lon="138.68550839670084"><ele>2122.6309410575777</ele><time>2023-03-05T04:27:04Z</time></trkpt><trkpt lat="36.84442219311349" lon="138.68570416975473"><ele>2125.7596132969484</ele><time>2023-03-05T04:28:02Z</time></trkpt><trkpt lat="36.844448644420474" lon="138.6859260948614"><ele>2130.9580362001434</ele><time>2023-03-05T04:28:32Z</time></trkpt><trkpt lat="36.844428406340796" lon="138.68615318576767"><ele>2137.0312661370263</ele><time>2023-03-05T04:29:00Z</time></trkpt><trkpt lat="36.84441271291363" lon="138.68637711453022"><ele>2138.6482338467613</ele><time>2023-03-05T04:29:44Z</time></trkpt><trkpt lat="36.84434803866481" lon="138.6865895420521"><ele>2135.5272977678105</ele><time>2023-03-05T04:30:44Z</time></trkpt><trkpt lat="36.844382268839105" lon="138.68681525976925"><ele>2133.4147339239717</ele><time>2023-03-05T04:31:12Z</time></trkpt><trkpt lat="36.84441922575164" lon="138.68703979002524"><ele>2133.476034251973</ele><time>2023-03-05T04:31:37Z</time></trkpt><trkpt lat="36.84447312108583" lon="138.68726280490728"><ele>2131.364807209</ele><time>2023-03-05T04:32:39Z</time></trkpt><trkpt lat="36.84453714808738" lon="138.68748005188817"><ele>2134.23746193666</ele><time>2023-03-05T04:33:10Z</time></trkpt><trkpt lat="36.844602597903034" lon="138.68769436643166"><ele>2135.1919922111556</ele><time>2023-03-05T04:33:33Z</time></trkpt><trkpt lat="36.84466740158144" lon="138.68791004931873"><ele>2135.9422593628988</ele><time>2023-03-05T04:34:06Z</time></trkpt><trkpt lat="36.84469174216609" lon="138.6881367265444"><ele>2138.065139262937</ele><time>2023-03-05T04:35:01Z</time></trkpt><trkpt lat="36.844765099930704" lon="138.6883427471094"><ele>2135.941872207448</ele><time>2023-03-05T04:35:28Z</time></trkpt><trkpt lat="36.84485074572535" lon="138.68854114211254"><ele>2135.9406941197813</ele><time>2023-03-05T04:35:51Z</time></trkpt><trkpt lat="36.84494886276843" lon="138.68873523092387"><ele>2138.5460058702156</ele><time>2023-03-05T04:36:15Z</time></trkpt><trkpt lat="36.84505339261651" lon="138.68892467926761"><ele>2138.472724609077</ele><time>2023-03-05T04:36:41Z</time></trkpt><trkpt lat="36.84511718481817" lon="138.68914636242314"><ele>2140.7032495737076</ele><time>2023-03-05T04:37:01Z</time></trkpt><trkpt lat="36.8451560889301" lon="138.68938016770366"><ele>2141.9822472101077</ele><time>2023-03-05T04:37:28Z</time></trkpt><trkpt lat="36.84524673202893" lon="138.6895800415922"><ele>2143.9275308875367</ele><time>2023-03-05T04:37:54Z</time></trkpt><trkpt lat="36.84537859623538" lon="138.6897400578884"><ele>2141.9506241614</ele><time>2023-03-05T04:38:27Z</time></trkpt><trkpt lat="36.84546562307109" lon="138.68994280425073"><ele>2146.0979804089293</ele><time>2023-03-05T04:38:50Z</time></trkpt><trkpt lat="36.84556871265165" lon="138.6901274983952"><ele>2145.956759695895</ele><time>2023-03-05T04:39:20Z</time></trkpt><trkpt lat="36.84566725189264" lon="138.6903222253181"><ele>2146.7361630741507</ele><time>2023-03-05T04:39:43Z</time></trkpt><trkpt lat="36.84576544384347" lon="138.69051332920034"><ele>2147.632685222663</ele><time>2023-03-05T04:40:07Z</time></trkpt><trkpt lat="36.84588757539957" lon="138.6906792364145"><ele>2154.868650279939</ele><time>2023-03-05T04:41:36Z</time></trkpt><trkpt lat="36.84595811375205" lon="138.69046689311085"><ele>2150.9643581751734</ele><time>2023-03-05T05:19:46Z</time></trkpt><trkpt lat="36.84595400537486" lon="138.69024181009806"><ele>2151.357935566455</ele><time>2023-03-05T05:21:42Z</time></trkpt><trkpt lat="36.84580918523454" lon="138.69006031533928"><ele>2153.40350346826</ele><time>2023-03-05T05:22:40Z</time></trkpt><trkpt lat="36.8456819747949" lon="138.68987184035512"><ele>2152.096690438688</ele><time>2023-03-05T05:22:46Z</time></trkpt><trkpt lat="36.845520297026866" lon="138.6896951891051"><ele>2151.190955833532</ele><time>2023-03-05T05:22:52Z</time></trkpt><trkpt lat="36.84533149368485" lon="138.68961486898584"><ele>2153.5143692418933</ele><time>2023-03-05T05:23:04Z</time></trkpt><trkpt lat="36.845178739107375" lon="138.68942272765244"><ele>2151.4351314837113</ele><time>2023-03-05T05:23:11Z</time></trkpt><trkpt lat="36.84510368007292" lon="138.68921516718697"><ele>2149.163887662813</ele><time>2023-03-05T05:23:16Z</time></trkpt><trkpt lat="36.84503433185344" lon="138.68898109864446"><ele>2147.6062791580334</ele><time>2023-03-05T05:23:23Z</time></trkpt><trkpt lat="36.84496363177072" lon="138.6887561509435"><ele>2145.3813532162458</ele><time>2023-03-05T05:23:28Z</time></trkpt><trkpt lat="36.844882433755345" lon="138.68851761148176"><ele>2142.9022442083806</ele><time>2023-03-05T05:23:33Z</time></trkpt><trkpt lat="36.8447914856436" lon="138.6883109994985"><ele>2141.7973152287304</ele><time>2023-03-05T05:23:37Z</time></trkpt><trkpt lat="36.844750052436844" lon="138.68804403296855"><ele>2141.011027473025</ele><time>2023-03-05T05:23:55Z</time></trkpt><trkpt lat="36.844739425449035" lon="138.68781795898448"><ele>2143.025611483492</ele><time>2023-03-05T05:24:38Z</time></trkpt><trkpt lat="36.84465594251747" lon="138.6875923845132"><ele>2139.087184935808</ele><time>2023-03-05T05:25:15Z</time></trkpt><trkpt lat="36.8446270375733" lon="138.6873606330751"><ele>2138.3603961970657</ele><time>2023-03-05T05:25:25Z</time></trkpt><trkpt lat="36.84458502791093" lon="138.68713962807985"><ele>2136.347514904104</ele><time>2023-03-05T05:26:03Z</time></trkpt><trkpt lat="36.84451440202363" lon="138.68691284602568"><ele>2135.21840459574</ele><time>2023-03-05T05:26:16Z</time></trkpt><trkpt lat="36.84444885169739" lon="138.68668900871444"><ele>2135.7089112009853</ele><time>2023-03-05T05:26:27Z</time></trkpt><trkpt lat="36.84440017076993" lon="138.6864639472328"><ele>2135.673908474855</ele><time>2023-03-05T05:26:36Z</time></trkpt><trkpt lat="36.84441589168315" lon="138.68621150137534"><ele>2132.943244838156</ele><time>2023-03-05T05:28:21Z</time></trkpt><trkpt lat="36.844446069763066" lon="138.68596354091554"><ele>2130.7330611236393</ele><time>2023-03-05T05:28:48Z</time></trkpt><trkpt lat="36.844512054642216" lon="138.6857535585559"><ele>2127.5720407487825</ele><time>2023-03-05T05:29:01Z</time></trkpt><trkpt lat="36.844417478284534" lon="138.68555104688767"><ele>2124.5836344417185</ele><time>2023-03-05T05:29:08Z</time></trkpt><trkpt lat="36.8442802673359" lon="138.68536486416153"><ele>2126.435322632082</ele><time>2023-03-05T05:30:19Z</time></trkpt><trkpt lat="36.84412308504651" lon="138.68521683093616"><ele>2123.6926389774308</ele><time>2023-03-05T05:30:25Z</time></trkpt><trkpt lat="36.84402457860363" lon="138.68496767026545"><ele>2116.013510934077</ele><time>2023-03-05T05:30:29Z</time></trkpt><trkpt lat="36.84410654684034" lon="138.68469131042752"><ele>2110.675234168768</ele><time>2023-03-05T05:30:32Z</time></trkpt><trkpt lat="36.844196876607185" lon="138.68444874289304"><ele>2107.6906177401543</ele><time>2023-03-05T05:30:35Z</time></trkpt><trkpt lat="36.844251667755216" lon="138.68418998722393"><ele>2104.551591604948</ele><time>2023-03-05T05:30:38Z</time></trkpt><trkpt lat="36.84428419303719" lon="138.68395808332986"><ele>2100.7743553919718</ele><time>2023-03-05T05:30:42Z</time></trkpt><trkpt lat="36.8443321294313" lon="138.6837353399297"><ele>2097.8107279790565</ele><time>2023-03-05T05:30:45Z</time></trkpt><trkpt lat="36.84440918859724" lon="138.68350261474447"><ele>2093.1752546578646</ele><time>2023-03-05T05:30:49Z</time></trkpt><trkpt lat="36.84445697364716" lon="138.68328421823736"><ele>2090.550740729086</ele><time>2023-03-05T05:30:53Z</time></trkpt><trkpt lat="36.84457237620974" lon="138.68310702299172"><ele>2092.3987875999883</ele><time>2023-03-05T05:31:28Z</time></trkpt><trkpt lat="36.844581298911116" lon="138.68287989726534"><ele>2085.9785143034533</ele><time>2023-03-05T05:31:31Z</time></trkpt><trkpt lat="36.84454847167971" lon="138.68261913393235"><ele>2082.8518833313137</ele><time>2023-03-05T05:31:34Z</time></trkpt><trkpt lat="36.84445224644668" lon="138.682381733292"><ele>2081.8958394648507</ele><time>2023-03-05T05:31:37Z</time></trkpt><trkpt lat="36.84443163611464" lon="138.68213136387578"><ele>2079.2765035834163</ele><time>2023-03-05T05:31:42Z</time></trkpt><trkpt lat="36.84422073655114" lon="138.6820559388127"><ele>2078.621952158399</ele><time>2023-03-05T05:33:29Z</time></trkpt><trkpt lat="36.84402906692097" lon="138.6819709778155"><ele>2068.0156005099416</ele><time>2023-03-05T05:33:32Z</time></trkpt><trkpt lat="36.843906192158215" lon="138.68179533198796"><ele>2059.6340807350352</ele><time>2023-03-05T05:33:34Z</time></trkpt><trkpt lat="36.843758119600395" lon="138.68159738965917"><ele>2051.643348495476</ele><time>2023-03-05T05:33:36Z</time></trkpt><trkpt lat="36.8436639472795" lon="138.68136003757235"><ele>2045.5963145010173</ele><time>2023-03-05T05:33:38Z</time></trkpt><trkpt lat="36.84362471696533" lon="138.68111949641144"><ele>2038.9755217954516</ele><time>2023-03-05T05:33:40Z</time></trkpt><trkpt lat="36.84358630582024" lon="138.68085315945663"><ele>2036.9024673420936</ele><time>2023-03-05T05:33:42Z</time></trkpt><trkpt lat="36.84357409313396" lon="138.68061559558276"><ele>2035.50212302804</ele><time>2023-03-05T05:33:44Z</time></trkpt><trkpt lat="36.84354657948098" lon="138.68038006728102"><ele>2035.0172335645184</ele><time>2023-03-05T05:33:46Z</time></trkpt><trkpt lat="36.84351546176165" lon="138.68015887809761"><ele>2030.4817442670465</ele><time>2023-03-05T05:33:48Z</time></trkpt><trkpt lat="36.84345592971366" lon="138.67986322480328"><ele>2028.5294878585264</ele><time>2023-03-05T05:33:51Z</time></trkpt><trkpt lat="36.843422905153524" lon="138.6795707882265"><ele>2025.4996261559427</ele><time>2023-03-05T05:33:54Z</time></trkpt><trkpt lat="36.84335334795356" lon="138.67931799505433"><ele>2024.371047209017</ele><time>2023-03-05T05:33:57Z</time></trkpt><trkpt lat="36.843278441919516" lon="138.67908994658148"><ele>2024.0939395977184</ele><time>2023-03-05T05:34:01Z</time></trkpt><trkpt lat="36.84324859836431" lon="138.6788443490295"><ele>2023.041063589044</ele><time>2023-03-05T05:34:07Z</time></trkpt><trkpt lat="36.84326835347277" lon="138.6786005694407"><ele>2019.9483855329454</ele><time>2023-03-05T05:34:45Z</time></trkpt><trkpt lat="36.843298125432" lon="138.67836512535817"><ele>2018.6034002471715</ele><time>2023-03-05T05:34:59Z</time></trkpt><trkpt lat="36.843296031015065" lon="138.67813299130336"><ele>2017.154756992124</ele><time>2023-03-05T05:35:50Z</time></trkpt><trkpt lat="36.84325552352924" lon="138.67791010110443"><ele>2013.9204804738984</ele><time>2023-03-05T05:37:02Z</time></trkpt><trkpt lat="36.84335080238414" lon="138.67771244046762"><ele>2014.217452865094</ele><time>2023-03-05T05:39:13Z</time></trkpt><trkpt lat="36.84343748804197" lon="138.6775149053911"><ele>2011.7744956696406</ele><time>2023-03-05T05:39:36Z</time></trkpt><trkpt lat="36.84350056259899" lon="138.67730019221727"><ele>2010.3270199941471</ele><time>2023-03-05T05:39:46Z</time></trkpt><trkpt lat="36.843549666381556" lon="138.67706541069592"><ele>2007.342457423918</ele><time>2023-03-05T05:39:52Z</time></trkpt><trkpt lat="36.84357126445437" lon="138.6768425441153"><ele>2001.296905993484</ele><time>2023-03-05T05:40:43Z</time></trkpt><trkpt lat="36.84360736486057" lon="138.67658809859316"><ele>1999.0602822490036</ele><time>2023-03-05T05:40:48Z</time></trkpt><trkpt lat="36.84371631770507" lon="138.67640523812108"><ele>1998.1284306533635</ele><time>2023-03-05T05:41:14Z</time></trkpt><trkpt lat="36.843872202835094" lon="138.67627718480568"><ele>1993.8722357787192</ele><time>2023-03-05T05:42:22Z</time></trkpt><trkpt lat="36.84400990298291" lon="138.67611773488707"><ele>1987.3869799617678</ele><time>2023-03-05T05:42:34Z</time></trkpt><trkpt lat="36.84413112407384" lon="138.67629438756458"><ele>1978.778288571164</ele><time>2023-03-05T05:43:45Z</time></trkpt><trkpt lat="36.84431739857052" lon="138.67636223728172"><ele>1966.017117517069</ele><time>2023-03-05T05:44:03Z</time></trkpt><trkpt lat="36.84451641831872" lon="138.6762686133028"><ele>1956.6711211567745</ele><time>2023-03-05T05:44:08Z</time></trkpt><trkpt lat="36.84465505951457" lon="138.6764192176296"><ele>1943.5734223900363</ele><time>2023-03-05T05:44:12Z</time></trkpt><trkpt lat="36.84474905820764" lon="138.67621496119997"><ele>1940.462020705454</ele><time>2023-03-05T05:44:16Z</time></trkpt><trkpt lat="36.84485723531392" lon="138.67640673052827"><ele>1922.0902266092598</ele><time>2023-03-05T05:50:01Z</time></trkpt><trkpt lat="36.84505836248302" lon="138.67623995314673"><ele>1912.5763869127259</ele><time>2023-03-05T05:50:04Z</time></trkpt><trkpt lat="36.84524921769707" lon="138.67614480371802"><ele>1906.6423666169867</ele><time>2023-03-05T05:50:07Z</time></trkpt><trkpt lat="36.84522626736177" lon="138.67644149267178"><ele>1900.002289880067</ele><time>2023-03-05T05:50:10Z</time></trkpt><trkpt lat="36.84541947721996" lon="138.67629971591634"><ele>1889.516896236688</ele><time>2023-03-05T05:50:13Z</time></trkpt><trkpt lat="36.845587578964924" lon="138.6764946186258"><ele>1874.281038385816</ele><time>2023-03-05T05:50:18Z</time></trkpt><trkpt lat="36.84576614392387" lon="138.6763968371377"><ele>1861.17156284675</ele><time>2023-03-05T05:50:21Z</time></trkpt><trkpt lat="36.8459440564192" lon="138.67643667401404"><ele>1848.8913098536432</ele><time>2023-03-05T05:50:31Z</time></trkpt><trkpt lat="36.846117812236535" lon="138.67655876528082"><ele>1822.046570350416</ele><time>2023-03-05T05:51:23Z</time></trkpt><trkpt lat="36.84630637892209" lon="138.67643830738498"><ele>1812.7612337004393</ele><time>2023-03-05T05:51:26Z</time></trkpt><trkpt lat="36.84646734552352" lon="138.67659677064373"><ele>1801.781085478142</ele><time>2023-03-05T05:51:31Z</time></trkpt><trkpt lat="36.846600054804334" lon="138.67675670944521"><ele>1792.973239689134</ele><time>2023-03-05T05:58:28Z</time></trkpt><trkpt lat="36.84680708617181" lon="138.6769905956535"><ele>1781.5393528705463</ele><time>2023-03-05T05:58:31Z</time></trkpt><trkpt lat="36.84700267006851" lon="138.67712781341834"><ele>1776.8464483981952</ele><time>2023-03-05T05:58:33Z</time></trkpt><trkpt lat="36.84718169718429" lon="138.67721086315188"><ele>1776.975968462415</ele><time>2023-03-05T05:58:35Z</time></trkpt><trkpt lat="36.84740901490319" lon="138.6773436127661"><ele>1773.7778917467222</ele><time>2023-03-05T05:58:38Z</time></trkpt><trkpt lat="36.84759944665324" lon="138.67745601410664"><ele>1770.7201883476228</ele><time>2023-03-05T05:58:41Z</time></trkpt><trkpt lat="36.847722266561966" lon="138.6776213089745"><ele>1776.0622059097514</ele><time>2023-03-05T05:58:55Z</time></trkpt><trkpt lat="36.8478764844934" lon="138.6777641817441"><ele>1779.723809815012</ele><time>2023-03-05T05:59:58Z</time></trkpt><trkpt lat="36.848052285065606" lon="138.6778517670983"><ele>1771.9685906991363</ele><time>2023-03-05T06:00:21Z</time></trkpt><trkpt lat="36.8482322586743" lon="138.67790660593027"><ele>1760.1490232236683</ele><time>2023-03-05T06:01:44Z</time></trkpt><trkpt lat="36.84838451115869" lon="138.678129272002"><ele>1751.8980376431718</ele><time>2023-03-05T06:01:49Z</time></trkpt><trkpt lat="36.848490548229805" lon="138.6783586531987"><ele>1747.4823064114898</ele><time>2023-03-05T06:01:57Z</time></trkpt><trkpt lat="36.84866258959368" lon="138.6782717503096"><ele>1727.8121095625684</ele><time>2023-03-05T06:02:02Z</time></trkpt><trkpt lat="36.84880135926104" lon="138.6781236910552"><ele>1712.035984938033</ele><time>2023-03-05T06:02:08Z</time></trkpt><trkpt lat="36.84897213056722" lon="138.67804814129263"><ele>1703.7135565886274</ele><time>2023-03-05T06:02:55Z</time></trkpt><trkpt lat="36.84900638649199" lon="138.67782360625333"><ele>1698.3845703387633</ele><time>2023-03-05T06:03:03Z</time></trkpt><trkpt lat="36.84918962568041" lon="138.677931885403"><ele>1679.0235996292904</ele><time>2023-03-05T06:03:11Z</time></trkpt><trkpt lat="36.8493258401315" lon="138.67813953253827"><ele>1676.6524883396924</ele><time>2023-03-05T06:03:15Z</time></trkpt><trkpt lat="36.84949532794259" lon="138.6782178865185"><ele>1677.4048782708123</ele><time>2023-03-05T06:03:18Z</time></trkpt><trkpt lat="36.8496154997492" lon="138.67840993031973"><ele>1675.8920546155423</ele><time>2023-03-05T06:03:26Z</time></trkpt><trkpt lat="36.849770506177094" lon="138.6785279736754"><ele>1672.9281387105584</ele><time>2023-03-05T06:03:32Z</time></trkpt><trkpt lat="36.849951134055324" lon="138.67848343291763"><ele>1670.3720169495791</ele><time>2023-03-05T06:03:54Z</time></trkpt><trkpt lat="36.85008821565006" lon="138.67833102139622"><ele>1663.3179804636165</ele><time>2023-03-05T06:04:25Z</time></trkpt><trkpt lat="36.850261730426396" lon="138.67823846168417"><ele>1661.9073648154736</ele><time>2023-03-05T06:05:04Z</time></trkpt><trkpt lat="36.8504065804481" lon="138.67810433591217"><ele>1661.5448223790154</ele><time>2023-03-05T06:05:26Z</time></trkpt><trkpt lat="36.85059827445091" lon="138.67809379938382"><ele>1655.6509010223672</ele><time>2023-03-05T06:07:19Z</time></trkpt><trkpt lat="36.8507867586755" lon="138.67803707680358"><ele>1650.6228764746338</ele><time>2023-03-05T06:07:24Z</time></trkpt><trkpt lat="36.8509583742443" lon="138.67791772248896"><ele>1647.9340237993747</ele><time>2023-03-05T06:07:30Z</time></trkpt><trkpt lat="36.85114058995437" lon="138.67772274772736"><ele>1636.9327990161255</ele><time>2023-03-05T06:07:45Z</time></trkpt><trkpt lat="36.85115548764103" lon="138.67748753121361"><ele>1631.8899996271357</ele><time>2023-03-05T06:07:49Z</time></trkpt><trkpt lat="36.85117740174789" lon="138.67724486556784"><ele>1626.525137112476</ele><time>2023-03-05T06:07:52Z</time></trkpt><trkpt lat="36.85126584430438" lon="138.6770344506999"><ele>1625.631561651826</ele><time>2023-03-05T06:07:57Z</time></trkpt><trkpt lat="36.851440590037605" lon="138.67684955319646"><ele>1617.2246363703161</ele><time>2023-03-05T06:08:04Z</time></trkpt><trkpt lat="36.85149635792196" lon="138.67655524822405"><ele>1611.740052741021</ele><time>2023-03-05T06:08:14Z</time></trkpt><trkpt lat="36.851611786088654" lon="138.67633466619134"><ele>1609.573022200726</ele><time>2023-03-05T06:08:16Z</time></trkpt><trkpt lat="36.851668621442386" lon="138.6760566606159"><ele>1605.1046316707507</ele><time>2023-03-05T06:08:20Z</time></trkpt><trkpt lat="36.85169405780892" lon="138.67582793080345"><ele>1602.0733001222834</ele><time>2023-03-05T06:08:29Z</time></trkpt><trkpt lat="36.851656617042806" lon="138.6755890093621"><ele>1599.9746924871579</ele><time>2023-03-05T06:08:34Z</time></trkpt><trkpt lat="36.85165100351921" lon="138.6753604889839"><ele>1596.2179503673688</ele><time>2023-03-05T06:09:15Z</time></trkpt><trkpt lat="36.85171690123021" lon="138.67512744935237"><ele>1592.9411964965984</ele><time>2023-03-05T06:10:17Z</time></trkpt><trkpt lat="36.85174130507781" lon="138.6748680776297"><ele>1590.3890421539545</ele><time>2023-03-05T06:10:22Z</time></trkpt><trkpt lat="36.851769972334054" lon="138.67462833805578"><ele>1587.1525869248435</ele><time>2023-03-05T06:10:26Z</time></trkpt><trkpt lat="36.851776363580164" lon="138.67438698881614"><ele>1583.9706190256402</ele><time>2023-03-05T06:10:31Z</time></trkpt><trkpt lat="36.851641483928944" lon="138.67422304092602"><ele>1584.7764237830415</ele><time>2023-03-05T06:10:39Z</time></trkpt><trkpt lat="36.85158437413735" lon="138.6739615970896"><ele>1580.095487255603</ele><time>2023-03-05T06:10:46Z</time></trkpt><trkpt lat="36.85164623428551" lon="138.67371013813673"><ele>1574.9663825407624</ele><time>2023-03-05T06:10:54Z</time></trkpt><trkpt lat="36.85174008217336" lon="138.6734962631198"><ele>1566.5224952874705</ele><time>2023-03-05T06:10:57Z</time></trkpt><trkpt lat="36.85185040145534" lon="138.67330153011764"><ele>1562.2417425690219</ele><time>2023-03-05T06:11:00Z</time></trkpt><trkpt lat="36.85200017961475" lon="138.67309829879372"><ele>1556.8881168710068</ele><time>2023-03-05T06:11:04Z</time></trkpt><trkpt lat="36.85211628113798" lon="138.67290772944068"><ele>1552.6115040443838</ele><time>2023-03-05T06:12:26Z</time></trkpt><trkpt lat="36.852198649933335" lon="138.6726676824669"><ele>1545.2233074512333</ele><time>2023-03-05T06:12:30Z</time></trkpt><trkpt lat="36.8523186716114" lon="138.67245962340854"><ele>1543.1744735864922</ele><time>2023-03-05T06:12:33Z</time></trkpt><trkpt lat="36.85248147427105" lon="138.67228794000494"><ele>1530.0537402546033</ele><time>2023-03-05T06:12:51Z</time></trkpt><trkpt lat="36.852442248882625" lon="138.67203460192917"><ele>1529.8167730560526</ele><time>2023-03-05T06:12:55Z</time></trkpt><trkpt lat="36.85240101972433" lon="138.6718135526262"><ele>1527.1473312098533</ele><time>2023-03-05T06:13:05Z</time></trkpt><trkpt lat="36.85246427582558" lon="138.6715605721584"><ele>1522.213609076105</ele><time>2023-03-05T06:13:09Z</time></trkpt><trkpt lat="36.85248691426609" lon="138.67133788575086"><ele>1517.1502236314118</ele><time>2023-03-05T06:13:14Z</time></trkpt><trkpt lat="36.85250724297862" lon="138.67107818707882"><ele>1515.9105451405048</ele><time>2023-03-05T06:13:19Z</time></trkpt><trkpt lat="36.85263597150848" lon="138.67086779880174"><ele>1507.7969527784735</ele><time>2023-03-05T06:13:28Z</time></trkpt><trkpt lat="36.85276895940471" lon="138.67064833302422"><ele>1500.2250037845224</ele><time>2023-03-05T06:15:11Z</time></trkpt><trkpt lat="36.85283167460434" lon="138.6703782363895"><ele>1492.118132578209</ele><time>2023-03-05T06:15:15Z</time></trkpt><trkpt lat="36.85275691722906" lon="138.67011612940536"><ele>1485.8213024903089</ele><time>2023-03-05T06:15:19Z</time></trkpt><trkpt lat="36.85274381799686" lon="138.669878814325"><ele>1482.2141396794468</ele><time>2023-03-05T06:15:28Z</time></trkpt><trkpt lat="36.852716655432815" lon="138.66963997141272"><ele>1478.71906163916</ele><time>2023-03-05T06:15:31Z</time></trkpt><trkpt lat="36.8527895348516" lon="138.66942830764376"><ele>1476.0367512740195</ele><time>2023-03-05T06:15:53Z</time></trkpt><trkpt lat="36.852962268748556" lon="138.66953019810663"><ele>1460.6959231896326</ele><time>2023-03-05T06:18:19Z</time></trkpt><trkpt lat="36.85317417140277" lon="138.66946754249756"><ele>1439.8476633876562</ele><time>2023-03-05T06:18:28Z</time></trkpt><trkpt lat="36.853377537990255" lon="138.66941922582637"><ele>1425.7799366991967</ele><time>2023-03-05T06:18:31Z</time></trkpt><trkpt lat="36.85348220551928" lon="138.66919413107496"><ele>1417.3874920560047</ele><time>2023-03-05T06:18:33Z</time></trkpt><trkpt lat="36.85363775444961" lon="138.66899804356524"><ele>1410.519751788117</ele><time>2023-03-05T06:18:36Z</time></trkpt><trkpt lat="36.85369381979787" lon="138.6687742242024"><ele>1410.9914885638282</ele><time>2023-03-05T06:20:11Z</time></trkpt><trkpt lat="36.85362582886138" lon="138.66854805889037"><ele>1409.7383697060868</ele><time>2023-03-05T06:20:16Z</time></trkpt><trkpt lat="36.85373747482352" lon="138.66834056445427"><ele>1401.0669192355126</ele><time>2023-03-05T06:20:20Z</time></trkpt><trkpt lat="36.85382132977034" lon="138.66813662248597"><ele>1398.0721145020798</ele><time>2023-03-05T06:20:23Z</time></trkpt><trkpt lat="36.85391476057156" lon="138.66791407538216"><ele>1389.3333388296887</ele><time>2023-03-05T06:20:26Z</time></trkpt><trkpt lat="36.854067810673236" lon="138.66774882302047"><ele>1385.9485304001719</ele><time>2023-03-05T06:20:29Z</time></trkpt><trkpt lat="36.85412153961686" lon="138.66750280515652"><ele>1381.758882115595</ele><time>2023-03-05T06:20:32Z</time></trkpt><trkpt lat="36.85411646091236" lon="138.66726668567162"><ele>1378.340393608436</ele><time>2023-03-05T06:20:36Z</time></trkpt><trkpt lat="36.85414055925264" lon="138.66702537889014"><ele>1372.405426358804</ele><time>2023-03-05T06:20:50Z</time></trkpt><trkpt lat="36.85397065572199" lon="138.66688493457835"><ele>1367.5720381019637</ele><time>2023-03-05T06:20:58Z</time></trkpt><trkpt lat="36.85410853442589" lon="138.66673134030916"><ele>1365.4696550872177</ele><time>2023-03-05T06:21:04Z</time></trkpt><trkpt lat="36.85425210965077" lon="138.6665532153657"><ele>1352.709970191121</ele><time>2023-03-05T06:21:08Z</time></trkpt><trkpt lat="36.85435844754629" lon="138.66634599256412"><ele>1353.763493728824</ele><time>2023-03-05T06:21:10Z</time></trkpt><trkpt lat="36.85436180718086" lon="138.66608182835014"><ele>1347.8201929656789</ele><time>2023-03-05T06:21:13Z</time></trkpt><trkpt lat="36.85442207787519" lon="138.66583829885752"><ele>1343.2539286045358</ele><time>2023-03-05T06:21:16Z</time></trkpt><trkpt lat="36.85446137985168" lon="138.66561904369257"><ele>1340.634458879009</ele><time>2023-03-05T06:21:19Z</time></trkpt><trkpt lat="36.85455569964641" lon="138.6653783696812"><ele>1335.7594270016998</ele><time>2023-03-05T06:21:23Z</time></trkpt><trkpt lat="36.85460291160561" lon="138.6651509769925"><ele>1333.33077375032</ele><time>2023-03-05T06:21:28Z</time></trkpt><trkpt lat="36.85463877545163" lon="138.6646295494205"><ele>1327.6629102574661</ele><time>2023-03-05T06:21:34Z</time></trkpt><trkpt lat="36.854705514129755" lon="138.66438145999814"><ele>1322.8400337547064</ele><time>2023-03-05T06:21:38Z</time></trkpt><trkpt lat="36.85485819847179" lon="138.6641209788575"><ele>1319.7019735081121</ele><time>2023-03-05T06:21:42Z</time></trkpt><trkpt lat="36.85497358976645" lon="138.66394477095514"><ele>1317.8495554607362</ele><time>2023-03-05T06:21:45Z</time></trkpt><trkpt lat="36.85509468514873" lon="138.6637426383687"><ele>1315.6537552010268</ele><time>2023-03-05T06:21:48Z</time></trkpt><trkpt lat="36.85518681673612" lon="138.66351893667783"><ele>1313.4268264789134</ele><time>2023-03-05T06:21:51Z</time></trkpt><trkpt lat="36.855297248392844" lon="138.66329854273576"><ele>1308.9172882987186</ele><time>2023-03-05T06:21:55Z</time></trkpt><trkpt lat="36.85539575168399" lon="138.66310676716373"><ele>1309.592517213896</ele><time>2023-03-05T06:22:01Z</time></trkpt><trkpt lat="36.855482717756075" lon="138.66289984312274"><ele>1309.8080116575584</ele><time>2023-03-05T06:22:08Z</time></trkpt><trkpt lat="36.8556470284724" lon="138.66278332478004"><ele>1310.1650485489517</ele><time>2023-03-05T06:22:23Z</time></trkpt><trkpt lat="36.8557652816299" lon="138.66258530357868"><ele>1307.6945406850427</ele><time>2023-03-05T06:22:42Z</time></trkpt><trkpt lat="36.855826274929726" lon="138.66236649105565"><ele>1305.7418152606115</ele><time>2023-03-05T06:22:52Z</time></trkpt><trkpt lat="36.85586435254794" lon="138.6621470826798"><ele>1306.3378034029156</ele><time>2023-03-05T06:23:20Z</time></trkpt><trkpt lat="36.85592482192578" lon="138.6619253269994"><ele>1307.638075224124</ele><time>2023-03-05T06:23:55Z</time></trkpt><trkpt lat="36.856051059741446" lon="138.66175429312915"><ele>1305.4973147986457</ele><time>2023-03-05T06:24:48Z</time></trkpt><trkpt lat="36.85606859289303" lon="138.66151513052478"><ele>1306.2142317518592</ele><time>2023-03-05T06:25:41Z</time></trkpt><trkpt lat="36.85615618455269" lon="138.66125492841147"><ele>1298.3313680635765</ele><time>2023-03-05T06:28:10Z</time></trkpt><trkpt lat="36.856346057916646" lon="138.66111136867946"><ele>1289.1759732896462</ele><time>2023-03-05T06:28:18Z</time></trkpt><trkpt lat="36.856316105052436" lon="138.6608890614243"><ele>1286.2890199190006</ele><time>2023-03-05T06:28:24Z</time></trkpt><trkpt lat="36.85634930830569" lon="138.66063259300404"><ele>1276.4198401840404</ele><time>2023-03-05T06:28:27Z</time></trkpt><trkpt lat="36.856291267518316" lon="138.66040997353136"><ele>1277.7710337229073</ele><time>2023-03-05T06:28:39Z</time></trkpt><trkpt lat="36.85611576336967" lon="138.66015946815855"><ele>1278.4932018890977</ele><time>2023-03-05T06:28:43Z</time></trkpt><trkpt lat="36.856031587936286" lon="138.6599287863256"><ele>1274.688067550771</ele><time>2023-03-05T06:28:47Z</time></trkpt><trkpt lat="36.856021804614706" lon="138.65968844726993"><ele>1272.8507952401415</ele><time>2023-03-05T06:28:53Z</time></trkpt><trkpt lat="36.856055051831504" lon="138.65942226788144"><ele>1268.6817924035713</ele><time>2023-03-05T06:28:57Z</time></trkpt><trkpt lat="36.856106216292076" lon="138.65919446406645"><ele>1268.9116056226194</ele><time>2023-03-05T06:29:03Z</time></trkpt><trkpt lat="36.8562040525131" lon="138.65900532086025"><ele>1266.9140537707135</ele><time>2023-03-05T06:29:41Z</time></trkpt><trkpt lat="36.856308784103376" lon="138.65880237437653"><ele>1263.3471236592159</ele><time>2023-03-05T06:29:57Z</time></trkpt><trkpt lat="36.85641169599098" lon="138.65859105156463"><ele>1254.2251770459116</ele><time>2023-03-05T06:31:29Z</time></trkpt><trkpt lat="36.85658983750604" lon="138.65851936043498"><ele>1252.1621814277023</ele><time>2023-03-05T06:31:38Z</time></trkpt><trkpt lat="36.85675914983589" lon="138.65841641204196"><ele>1250.787620770745</ele><time>2023-03-05T06:31:43Z</time></trkpt><trkpt lat="36.85692725504253" lon="138.65832809110967"><ele>1249.184683904983</ele><time>2023-03-05T06:31:55Z</time></trkpt><trkpt lat="36.85709021021321" lon="138.65821404908792"><ele>1250.680358191952</ele><time>2023-03-05T06:32:25Z</time></trkpt><trkpt lat="36.85726891038802" lon="138.6580568991135"><ele>1243.5190760195255</ele><time>2023-03-05T06:32:33Z</time></trkpt><trkpt lat="36.85725432726364" lon="138.65778875331065"><ele>1238.472110713832</ele><time>2023-03-05T06:32:43Z</time></trkpt><trkpt lat="36.8573416611737" lon="138.65758659935705"><ele>1233.363807269372</ele><time>2023-03-05T06:32:46Z</time></trkpt><trkpt lat="36.85716091667338" lon="138.6575249179939"><ele>1236.9428045200184</ele><time>2023-03-05T06:35:12Z</time></trkpt><trkpt lat="36.857158106547864" lon="138.65728224364906"><ele>1224.0843221358955</ele><time>2023-03-05T06:35:33Z</time></trkpt><trkpt lat="36.85702441559405" lon="138.65713025945033"><ele>1214.3945984821767</ele><time>2023-03-05T06:35:41Z</time></trkpt><trkpt lat="36.856837738022584" lon="138.65701608347337"><ele>1205.6335641751066</ele><time>2023-03-05T06:35:48Z</time></trkpt><trkpt lat="36.856619176651705" lon="138.6569025605893"><ele>1198.1069626929238</ele><time>2023-03-05T06:35:54Z</time></trkpt><trkpt lat="36.856444472088306" lon="138.65684235201206"><ele>1199.1899720542133</ele><time>2023-03-05T06:36:04Z</time></trkpt><trkpt lat="36.85629218039825" lon="138.65671410404622"><ele>1189.8169706519693</ele><time>2023-03-05T06:36:12Z</time></trkpt><trkpt lat="36.85618813518059" lon="138.65651187555437"><ele>1184.9978257091716</ele><time>2023-03-05T06:36:18Z</time></trkpt><trkpt lat="36.85613976551321" lon="138.6562668425086"><ele>1179.3284972487018</ele><time>2023-03-05T06:36:22Z</time></trkpt><trkpt lat="36.85610523127119" lon="138.65603205820108"><ele>1175.399923033081</ele><time>2023-03-05T06:38:17Z</time></trkpt><trkpt lat="36.85606722441819" lon="138.65580905070325"><ele>1171.2366325212643</ele><time>2023-03-05T06:38:22Z</time></trkpt><trkpt lat="36.85592926674387" lon="138.6556402872073"><ele>1174.583851008676</ele><time>2023-03-05T06:38:57Z</time></trkpt><trkpt lat="36.85576994022658" lon="138.65575259267123"><ele>1168.5505338506773</ele><time>2023-03-05T06:39:07Z</time></trkpt><trkpt lat="36.855645358141096" lon="138.6559326779659"><ele>1157.3262519724667</ele><time>2023-03-05T06:39:24Z</time></trkpt><trkpt lat="36.85555612497931" lon="138.65615238980598"><ele>1153.9163587903604</ele><time>2023-03-05T06:39:28Z</time></trkpt><trkpt lat="36.855363025903124" lon="138.65610731920043"><ele>1151.8187298150733</ele><time>2023-03-05T06:39:32Z</time></trkpt><trkpt lat="36.855193369793284" lon="138.65597191013083"><ele>1154.1744889784604</ele><time>2023-03-05T06:40:00Z</time></trkpt><trkpt lat="36.85501688977044" lon="138.65589432613922"><ele>1153.4345845161006</ele><time>2023-03-05T06:41:46Z</time></trkpt><trkpt lat="36.85517731475017" lon="138.65579196251542"><ele>1147.9891240773723</ele><time>2023-03-05T06:42:54Z</time></trkpt><trkpt lat="36.85511564407174" lon="138.65557220985093"><ele>1148.8889897614717</ele><time>2023-03-05T06:43:42Z</time></trkpt><trkpt lat="36.85525970196463" lon="138.65574594076037"><ele>1149.490533426404</ele><time>2023-03-05T06:44:02Z</time></trkpt><trkpt lat="36.85535808940336" lon="138.65554397329433"><ele>1142.3576542977244</ele><time>2023-03-05T06:45:17Z</time></trkpt><trkpt lat="36.85541945064934" lon="138.65527775481414"><ele>1136.2206972334534</ele><time>2023-03-05T06:45:22Z</time></trkpt><trkpt lat="36.85544922921038" lon="138.65502429001074"><ele>1132.865633174777</ele><time>2023-03-05T06:45:26Z</time></trkpt><trkpt lat="36.85554499811626" lon="138.65481549127995"><ele>1126.7760438704863</ele><time>2023-03-05T06:47:12Z</time></trkpt><trkpt lat="36.85546818731077" lon="138.65461210584792"><ele>1129.0720100030303</ele><time>2023-03-05T06:48:24Z</time></trkpt><trkpt lat="36.85549987197455" lon="138.65437990585156"><ele>1126.426130771637</ele><time>2023-03-05T06:49:19Z</time></trkpt><trkpt lat="36.85563226507547" lon="138.65416655726582"><ele>1112.3374924445525</ele><time>2023-03-05T06:51:39Z</time></trkpt><trkpt lat="36.8555311025787" lon="138.65397473835256"><ele>1118.415157513693</ele><time>2023-03-05T06:52:24Z</time></trkpt><trkpt lat="36.855701060283415" lon="138.65386972911216"><ele>1113.8765977174044</ele><time>2023-03-05T06:55:06Z</time></trkpt><trkpt lat="36.85559832907307" lon="138.6536843102517"><ele>1115.6467423429713</ele><time>2023-03-05T06:57:20Z</time></trkpt><trkpt lat="36.85578023713774" lon="138.65365658793988"><ele>1111.1784777715802</ele><time>2023-03-05T06:57:42Z</time></trkpt><trkpt lat="36.855810129871124" lon="138.6534354212797"><ele>1107.51378257107</ele><time>2023-03-05T06:58:14Z</time></trkpt><trkpt lat="36.85588349111746" lon="138.65322018623718"><ele>1100.2294001588598</ele><time>2023-03-05T06:58:27Z</time></trkpt><trkpt lat="36.85599541858924" lon="138.6530407995933"><ele>1095.354366434738</ele><time>2023-03-05T06:58:34Z</time></trkpt><trkpt lat="36.85600840629905" lon="138.65278236988195"><ele>1095.3948656851426</ele><time>2023-03-05T06:58:52Z</time></trkpt><trkpt lat="36.85598149923812" lon="138.6525535622207"><ele>1091.3099529771134</ele><time>2023-03-05T06:59:01Z</time></trkpt><trkpt lat="36.85599856546347" lon="138.65229120189878"><ele>1083.9213988892734</ele><time>2023-03-05T06:59:15Z</time></trkpt><trkpt lat="36.8560180946956" lon="138.65200379020087"><ele>1081.1768453503028</ele><time>2023-03-05T06:59:29Z</time></trkpt><trkpt lat="36.85598725859906" lon="138.65177975896515"><ele>1078.1170898573473</ele><time>2023-03-05T06:59:34Z</time></trkpt><trkpt lat="36.85593473120103" lon="138.65155340488948"><ele>1069.6101394155994</ele><time>2023-03-05T06:59:47Z</time></trkpt><trkpt lat="36.85585764159001" lon="138.65130452320173"><ele>1059.148298656568</ele><time>2023-03-05T06:59:51Z</time></trkpt><trkpt lat="36.85584889392781" lon="138.65108013474563"><ele>1058.4574624337256</ele><time>2023-03-05T06:59:54Z</time></trkpt><trkpt lat="36.85601684849117" lon="138.65093877841971"><ele>1053.1177707444876</ele><time>2023-03-05T06:59:59Z</time></trkpt><trkpt lat="36.85612199034862" lon="138.65072478583568"><ele>1050.1006924482062</ele><time>2023-03-05T07:00:14Z</time></trkpt><trkpt lat="36.8561346112416" lon="138.65048168981355"><ele>1043.504454286769</ele><time>2023-03-05T07:00:24Z</time></trkpt><trkpt lat="36.85622556806127" lon="138.65028113975688"><ele>1039.3815482575446</ele><time>2023-03-05T07:00:32Z</time></trkpt><trkpt lat="36.85621607898733" lon="138.65003102922938"><ele>1039.6396291041747</ele><time>2023-03-05T07:00:49Z</time></trkpt><trkpt lat="36.85637736550607" lon="138.64990041563726"><ele>1036.056501264684</ele><time>2023-03-05T07:00:55Z</time></trkpt><trkpt lat="36.856560172119096" lon="138.64975273205988"><ele>1033.5557675501332</ele><time>2023-03-05T07:01:09Z</time></trkpt><trkpt lat="36.856700879375886" lon="138.6495916075992"><ele>1032.2501036841422</ele><time>2023-03-05T07:01:15Z</time></trkpt><trkpt lat="36.85685783703617" lon="138.64945511739734"><ele>1030.9018754512072</ele><time>2023-03-05T07:01:24Z</time></trkpt><trkpt lat="36.85702124066778" lon="138.64934264389015"><ele>1025.054308786057</ele><time>2023-03-05T07:01:36Z</time></trkpt><trkpt lat="36.85720094060923" lon="138.64922505330503"><ele>1019.9739083210006</ele><time>2023-03-05T07:01:43Z</time></trkpt><trkpt lat="36.85734392965697" lon="138.64906540047213"><ele>1018.2633893573657</ele><time>2023-03-05T07:01:47Z</time></trkpt><trkpt lat="36.85748782660858" lon="138.6489227307808"><ele>1015.503461076878</ele><time>2023-03-05T07:02:50Z</time></trkpt><trkpt lat="36.85767835348067" lon="138.6489409615117"><ele>1006.3050839575008</ele><time>2023-03-05T07:04:35Z</time></trkpt><trkpt lat="36.85783550015245" lon="138.64882896726172"><ele>1002.2077865833417</ele><time>2023-03-05T07:04:42Z</time></trkpt><trkpt lat="36.8580083269089" lon="138.6486847496696"><ele>997.1443140180781</ele><time>2023-03-05T07:04:47Z</time></trkpt><trkpt lat="36.85818916282207" lon="138.6486616371603"><ele>995.5576298087835</ele><time>2023-03-05T07:04:51Z</time></trkpt><trkpt lat="36.85838018263792" lon="138.64859921659593"><ele>990.3130506817251</ele><time>2023-03-05T07:04:58Z</time></trkpt><trkpt lat="36.85830281261192" lon="138.64838662128534"><ele>986.3528784206137</ele><time>2023-03-05T07:05:04Z</time></trkpt><trkpt lat="36.85827620360753" lon="138.64815312364016"><ele>983.4450462469831</ele><time>2023-03-05T07:05:51Z</time></trkpt><trkpt lat="36.85837637018622" lon="138.64794922739853"><ele>980.3846156019717</ele><time>2023-03-05T07:06:01Z</time></trkpt><trkpt lat="36.8585565968724" lon="138.64804884161677"><ele>975.0515232356265</ele><time>2023-03-05T07:06:20Z</time></trkpt><trkpt lat="36.85862050687684" lon="138.64828856359483"><ele>971.694093531929</ele><time>2023-03-05T07:06:27Z</time></trkpt><trkpt lat="36.85877199059905" lon="138.64841318777337"><ele>969.3770612971857</ele><time>2023-03-05T07:06:37Z</time></trkpt><trkpt lat="36.85895336283668" lon="138.6483238268257"><ele>965.7040224829689</ele><time>2023-03-05T07:06:42Z</time></trkpt><trkpt lat="36.85910485372717" lon="138.64819380191574"><ele>963.6876595234498</ele><time>2023-03-05T07:06:45Z</time></trkpt><trkpt lat="36.859118960551136" lon="138.64795317377553"><ele>962.5642309188843</ele><time>2023-03-05T07:06:51Z</time></trkpt><trkpt lat="36.85922152496445" lon="138.64775849804516"><ele>953.1815933519974</ele><time>2023-03-05T07:07:04Z</time></trkpt><trkpt lat="36.85937715065475" lon="138.64787481878733"><ele>952.9784998074174</ele><time>2023-03-05T07:07:11Z</time></trkpt><trkpt lat="36.85952839029335" lon="138.64774201965193"><ele>952.6417846651748</ele><time>2023-03-05T07:07:21Z</time></trkpt><trkpt lat="36.85972399946833" lon="138.647675814318"><ele>946.5632641399279</ele><time>2023-03-05T07:07:43Z</time></trkpt><trkpt lat="36.85986043016549" lon="138.64749845404057"><ele>944.8647805862129</ele><time>2023-03-05T07:07:49Z</time></trkpt><trkpt lat="36.85999003653198" lon="138.64731944261027"><ele>940.7926530754194</ele><time>2023-03-05T07:07:56Z</time></trkpt><trkpt lat="36.860111740877166" lon="138.6471262300384"><ele>938.7600417276844</ele><time>2023-03-05T07:08:02Z</time></trkpt><trkpt lat="36.86017846694825" lon="138.64688171650613"><ele>935.2705867998302</ele><time>2023-03-05T07:08:22Z</time></trkpt><trkpt lat="36.860277295175095" lon="138.64665421083876"><ele>932.8281600447372</ele><time>2023-03-05T07:08:27Z</time></trkpt><trkpt lat="36.86043172101873" lon="138.64648536221458"><ele>931.625821470283</ele><time>2023-03-05T07:08:31Z</time></trkpt><trkpt lat="36.8604813625041" lon="138.64624192717113"><ele>927.5758415935561</ele><time>2023-03-05T07:09:35Z</time></trkpt><trkpt lat="36.8606127318069" lon="138.64605795282358"><ele>924.5218492578715</ele><time>2023-03-05T07:09:40Z</time></trkpt><trkpt lat="36.860638448715235" lon="138.64580679888317"><ele>919.9761617174372</ele><time>2023-03-05T07:09:54Z</time></trkpt><trkpt lat="36.86076290416228" lon="138.64559475070794"><ele>918.0282690273598</ele><time>2023-03-05T07:09:59Z</time></trkpt><trkpt lat="36.86080500900544" lon="138.6453761521109"><ele>914.2544687846676</ele><time>2023-03-05T07:10:03Z</time></trkpt><trkpt lat="36.86091891436713" lon="138.64514667070696"><ele>910.374762237072</ele><time>2023-03-05T07:10:07Z</time></trkpt><trkpt lat="36.86098902530381" lon="138.64480057092715"><ele>903.8350283997133</ele><time>2023-03-05T07:10:13Z</time></trkpt><trkpt lat="36.86108215610313" lon="138.64460202701983"><ele>902.3436944326386</ele><time>2023-03-05T07:10:17Z</time></trkpt><trkpt lat="36.86116401998469" lon="138.64439459780004"><ele>898.0543867284432</ele><time>2023-03-05T07:10:26Z</time></trkpt><trkpt lat="36.861247626184706" lon="138.64414648289042"><ele>892.8983817370608</ele><time>2023-03-05T07:10:31Z</time></trkpt><trkpt lat="36.861333061105896" lon="138.64392021493506"><ele>889.9175148569047</ele><time>2023-03-05T07:10:35Z</time></trkpt><trkpt lat="36.86142019938825" lon="138.64366318064424"><ele>886.2269211765379</ele><time>2023-03-05T07:10:38Z</time></trkpt><trkpt lat="36.861494998425094" lon="138.64343352259127"><ele>884.5621255701408</ele><time>2023-03-05T07:10:41Z</time></trkpt><trkpt lat="36.8615650146933" lon="138.643208147298"><ele>882.0859503550455</ele><time>2023-03-05T07:10:45Z</time></trkpt><trkpt lat="36.86161598498951" lon="138.64298235868878"><ele>877.5936802774668</ele><time>2023-03-05T07:10:49Z</time></trkpt><trkpt lat="36.86168464879538" lon="138.64276737329521"><ele>873.633675863035</ele><time>2023-03-05T07:10:55Z</time></trkpt><trkpt lat="36.8618373440045" lon="138.64255282964672"><ele>873.3848453834653</ele><time>2023-03-05T07:10:59Z</time></trkpt><trkpt lat="36.861906738184345" lon="138.64230053779752"><ele>869.6292223772034</ele><time>2023-03-05T07:11:04Z</time></trkpt><trkpt lat="36.8619810131405" lon="138.6420811858887"><ele>865.7634567581117</ele><time>2023-03-05T07:11:08Z</time></trkpt><trkpt lat="36.86206112043639" lon="138.64185353872375"><ele>864.1450731223449</ele><time>2023-03-05T07:11:15Z</time></trkpt><trkpt lat="36.86216206485989" lon="138.64161906571724"><ele>863.910142715089</ele><time>2023-03-05T07:11:23Z</time></trkpt><trkpt lat="36.86227431711251" lon="138.64140918156036"><ele>862.2558565391228</ele><time>2023-03-05T07:11:29Z</time></trkpt><trkpt lat="36.862448218312075" lon="138.64127762312728"><ele>857.4315379150212</ele><time>2023-03-05T07:11:36Z</time></trkpt><trkpt lat="36.8625920898422" lon="138.64107133696322"><ele>854.0528745045885</ele><time>2023-03-05T07:11:41Z</time></trkpt><trkpt lat="36.8627127609494" lon="138.64089823404527"><ele>849.7172041451558</ele><time>2023-03-05T07:11:44Z</time></trkpt><trkpt lat="36.86281866678706" lon="138.64071426438795"><ele>845.640235052444</ele><time>2023-03-05T07:11:48Z</time></trkpt><trkpt lat="36.86290579910187" lon="138.64051351784744"><ele>846.0420626495034</ele><time>2023-03-05T07:12:11Z</time></trkpt><trkpt lat="36.86302804044018" lon="138.6403269061533"><ele>841.5044574784115</ele><time>2023-03-05T07:12:16Z</time></trkpt><trkpt lat="36.86313035858785" lon="138.64009843351616"><ele>838.8561002733186</ele><time>2023-03-05T07:12:20Z</time></trkpt><trkpt lat="36.86314772008452" lon="138.63982773230006"><ele>834.6874304125085</ele><time>2023-03-05T07:12:26Z</time></trkpt><trkpt lat="36.863263015199614" lon="138.63962552702557"><ele>832.6415584990755</ele><time>2023-03-05T07:12:30Z</time></trkpt><trkpt lat="36.86334475684468" lon="138.63937292206512"><ele>830.8039755690843</ele><time>2023-03-05T07:12:35Z</time></trkpt><trkpt lat="36.863399065701806" lon="138.63910793497348"><ele>827.8353943759575</ele><time>2023-03-05T07:12:41Z</time></trkpt><trkpt lat="36.86349591269052" lon="138.63886941194446"><ele>826.6465493366122</ele><time>2023-03-05T07:12:45Z</time></trkpt><trkpt lat="36.86353443231912" lon="138.63864692113964"><ele>823.5337686929852</ele><time>2023-03-05T07:12:51Z</time></trkpt><trkpt lat="36.863414567054505" lon="138.63840010019453"><ele>817.3501432808116</ele><time>2023-03-05T07:12:55Z</time></trkpt><trkpt lat="36.863322801225536" lon="138.63817034270014"><ele>814.1320191696286</ele><time>2023-03-05T07:13:00Z</time></trkpt><trkpt lat="36.8631905751867" lon="138.6379518355399"><ele>811.1392450295389</ele><time>2023-03-05T07:13:05Z</time></trkpt><trkpt lat="36.86312609370481" lon="138.63771199902635"><ele>807.9380309870467</ele><time>2023-03-05T07:13:21Z</time></trkpt><trkpt lat="36.86305023544381" lon="138.63748973874925"><ele>806.3385729193687</ele><time>2023-03-05T07:13:56Z</time></trkpt><trkpt lat="36.86294325524451" lon="138.63730469357836"><ele>803.767729178071</ele><time>2023-03-05T07:14:10Z</time></trkpt></trkseg></trk></gpx>