<?xml version='1.0' encoding='UTF-8'?><gpx creator="YAMAP - https://yamap.com" xsi:schemaLocation="http://www.topografix.com/GPX/1/1 http://www.topografix.com/GPX/1/1/gpx.xsd" version="1.1" xmlns="http://www.topografix.com/GPX/1/1" xmlns:xsi="http://www.w3.org/2001/XMLSchema-instance"><metadata><bounds maxlat="36.8659172" maxlon="138.6902398" minlat="36.8429878" minlon="138.6334782"/></metadata><trk><name>お前ら体力ありすぎ❗苗場山2023/2/17</name><number>1</number><trkseg><trkpt lat="36.8659172" lon="138.6346587"><ele>754.07</ele><time>2023-02-16T21:31:06Z</time></trkpt><trkpt lat="36.8657576" lon="138.6345496"><ele>754.955</ele><time>2023-02-16T21:38:27Z</time></trkpt><trkpt lat="36.8657485" lon="138.6343204"><ele>754.5733333333334</ele><time>2023-02-16T21:38:58Z</time></trkpt><trkpt lat="36.8655696" lon="138.6342918"><ele>754.0866666666667</ele><time>2023-02-16T21:39:13Z</time></trkpt><trkpt lat="36.865397" lon="138.6343826"><ele>753.4433333333333</ele><time>2023-02-16T21:39:40Z</time></trkpt><trkpt lat="36.8653057" lon="138.6345919"><ele>755.7599999999999</ele><time>2023-02-16T21:40:02Z</time></trkpt><trkpt lat="36.8652364" lon="138.6348046"><ele>759.4333333333334</ele><time>2023-02-16T21:40:16Z</time></trkpt><trkpt lat="36.8650444" lon="138.63481"><ele>762.5033333333332</ele><time>2023-02-16T21:41:45Z</time></trkpt><trkpt lat="36.8649132" lon="138.6349907"><ele>764.0366666666667</ele><time>2023-02-16T21:41:54Z</time></trkpt><trkpt lat="36.8647652" lon="138.6351276"><ele>765.5966666666667</ele><time>2023-02-16T21:42:08Z</time></trkpt><trkpt lat="36.8645882" lon="138.6351764"><ele>766.0500000000001</ele><time>2023-02-16T21:42:23Z</time></trkpt><trkpt lat="36.8644503" lon="138.6350207"><ele>763.4699999999999</ele><time>2023-02-16T21:42:34Z</time></trkpt><trkpt lat="36.8643575" lon="138.6348272"><ele>760.6733333333333</ele><time>2023-02-16T21:42:44Z</time></trkpt><trkpt lat="36.8642127" lon="138.6346852"><ele>759.8833333333333</ele><time>2023-02-16T21:42:57Z</time></trkpt><trkpt lat="36.8640333" lon="138.6346428"><ele>762.2633333333333</ele><time>2023-02-16T21:43:08Z</time></trkpt><trkpt lat="36.8638661" lon="138.6345528"><ele>764.4166666666666</ele><time>2023-02-16T21:43:19Z</time></trkpt><trkpt lat="36.8638564" lon="138.6343256"><ele>765.7733333333332</ele><time>2023-02-16T21:43:33Z</time></trkpt><trkpt lat="36.8638916" lon="138.6340973"><ele>765.9566666666666</ele><time>2023-02-16T21:43:46Z</time></trkpt><trkpt lat="36.8638468" lon="138.6338792"><ele>764.9500000000002</ele><time>2023-02-16T21:43:58Z</time></trkpt><trkpt lat="36.8638053" lon="138.6336599"><ele>764.5033333333334</ele><time>2023-02-16T21:44:11Z</time></trkpt><trkpt lat="36.8636995" lon="138.6334782"><ele>765.4900000000001</ele><time>2023-02-16T21:44:26Z</time></trkpt><trkpt lat="36.8635416" lon="138.6335955"><ele>769.0966666666667</ele><time>2023-02-16T21:44:42Z</time></trkpt><trkpt lat="36.8634419" lon="138.6337845"><ele>772.3533333333334</ele><time>2023-02-16T21:44:59Z</time></trkpt><trkpt lat="36.8633588" lon="138.6339997"><ele>774.57</ele><time>2023-02-16T21:45:12Z</time></trkpt><trkpt lat="36.8632574" lon="138.6341958"><ele>775.7566666666668</ele><time>2023-02-16T21:45:25Z</time></trkpt><trkpt lat="36.8631516" lon="138.6343861"><ele>776.5533333333333</ele><time>2023-02-16T21:45:41Z</time></trkpt><trkpt lat="36.8630015" lon="138.6345421"><ele>777.8033333333333</ele><time>2023-02-16T21:45:54Z</time></trkpt><trkpt lat="36.8628898" lon="138.6347237"><ele>778.37</ele><time>2023-02-16T21:46:11Z</time></trkpt><trkpt lat="36.8627831" lon="138.6349109"><ele>781.2733333333334</ele><time>2023-02-16T21:46:23Z</time></trkpt><trkpt lat="36.862758" lon="138.6351393"><ele>784.3133333333334</ele><time>2023-02-16T21:46:37Z</time></trkpt><trkpt lat="36.8627088" lon="138.6353615"><ele>786.9666666666667</ele><time>2023-02-16T21:46:50Z</time></trkpt><trkpt lat="36.8626295" lon="138.6355691"><ele>787.7333333333332</ele><time>2023-02-16T21:47:05Z</time></trkpt><trkpt lat="36.8624835" lon="138.6357199"><ele>788.0966666666667</ele><time>2023-02-16T21:47:19Z</time></trkpt><trkpt lat="36.8623762" lon="138.6359065"><ele>788.9866666666667</ele><time>2023-02-16T21:47:35Z</time></trkpt><trkpt lat="36.8623538" lon="138.6361348"><ele>790.4699999999999</ele><time>2023-02-16T21:47:51Z</time></trkpt><trkpt lat="36.8623523" lon="138.6363677"><ele>793.0166666666668</ele><time>2023-02-16T21:48:04Z</time></trkpt><trkpt lat="36.8624154" lon="138.6365859"><ele>795.77</ele><time>2023-02-16T21:48:17Z</time></trkpt><trkpt lat="36.862519" lon="138.6367855"><ele>797.82</ele><time>2023-02-16T21:48:30Z</time></trkpt><trkpt lat="36.8626094" lon="138.6369842"><ele>798.3633333333333</ele><time>2023-02-16T21:48:46Z</time></trkpt><trkpt lat="36.8626649" lon="138.6372007"><ele>800.0566666666667</ele><time>2023-02-16T21:49:04Z</time></trkpt><trkpt lat="36.8626712" lon="138.6374291"><ele>803.79</ele><time>2023-02-16T21:49:30Z</time></trkpt><trkpt lat="36.8627681" lon="138.6376268"><ele>807.9366666666666</ele><time>2023-02-16T21:49:48Z</time></trkpt><trkpt lat="36.8628667" lon="138.6378215"><ele>810.9866666666667</ele><time>2023-02-16T21:50:05Z</time></trkpt><trkpt lat="36.8629818" lon="138.6379952"><ele>812.5166666666668</ele><time>2023-02-16T21:50:26Z</time></trkpt><trkpt lat="36.8631463" lon="138.6378968"><ele>812.48</ele><time>2023-02-16T21:55:19Z</time></trkpt><trkpt lat="36.8629842" lon="138.6380018"><ele>813.0933333333334</ele><time>2023-02-16T22:03:06Z</time></trkpt><trkpt lat="36.8631221" lon="138.6381543"><ele>813.4833333333335</ele><time>2023-02-16T22:08:07Z</time></trkpt><trkpt lat="36.863276" lon="138.6382758"><ele>814.91</ele><time>2023-02-16T22:08:26Z</time></trkpt><trkpt lat="36.8633929" lon="138.6384509"><ele>815.8033333333333</ele><time>2023-02-16T22:08:55Z</time></trkpt><trkpt lat="36.8634775" lon="138.6386538"><ele>816.8333333333334</ele><time>2023-02-16T22:09:26Z</time></trkpt><trkpt lat="36.8634313" lon="138.6388706"><ele>818.85</ele><time>2023-02-16T22:09:44Z</time></trkpt><trkpt lat="36.8633379" lon="138.6390687"><ele>820.5966666666667</ele><time>2023-02-16T22:10:05Z</time></trkpt><trkpt lat="36.8632537" lon="138.6392733"><ele>821.8666666666668</ele><time>2023-02-16T22:10:32Z</time></trkpt><trkpt lat="36.8631639" lon="138.6394729"><ele>823.48</ele><time>2023-02-16T22:11:04Z</time></trkpt><trkpt lat="36.8630754" lon="138.6396696"><ele>826.2133333333333</ele><time>2023-02-16T22:11:28Z</time></trkpt><trkpt lat="36.8630168" lon="138.6398863"><ele>829.7333333333332</ele><time>2023-02-16T22:11:53Z</time></trkpt><trkpt lat="36.8629968" lon="138.6401161"><ele>832.9699999999999</ele><time>2023-02-16T22:12:08Z</time></trkpt><trkpt lat="36.8628797" lon="138.6402941"><ele>835.3266666666667</ele><time>2023-02-16T22:12:32Z</time></trkpt><trkpt lat="36.862777" lon="138.6404832"><ele>838.21</ele><time>2023-02-16T22:12:51Z</time></trkpt><trkpt lat="36.8626823" lon="138.6406792"><ele>841.1866666666666</ele><time>2023-02-16T22:13:15Z</time></trkpt><trkpt lat="36.8625834" lon="138.6408701"><ele>844.82</ele><time>2023-02-16T22:13:52Z</time></trkpt><trkpt lat="36.8624715" lon="138.6410467"><ele>847.7333333333332</ele><time>2023-02-16T22:14:15Z</time></trkpt><trkpt lat="36.8623388" lon="138.6412069"><ele>850.2466666666668</ele><time>2023-02-16T22:14:35Z</time></trkpt><trkpt lat="36.8622019" lon="138.6413683"><ele>851.6433333333334</ele><time>2023-02-16T22:14:56Z</time></trkpt><trkpt lat="36.8620524" lon="138.6414955"><ele>853.58</ele><time>2023-02-16T22:15:30Z</time></trkpt><trkpt lat="36.8619854" lon="138.641708"><ele>855.4333333333334</ele><time>2023-02-16T22:15:52Z</time></trkpt><trkpt lat="36.8619104" lon="138.6419153"><ele>856.9366666666666</ele><time>2023-02-16T22:16:17Z</time></trkpt><trkpt lat="36.8618159" lon="138.6421125"><ele>859.0933333333332</ele><time>2023-02-16T22:16:43Z</time></trkpt><trkpt lat="36.8617062" lon="138.642299"><ele>861.7400000000001</ele><time>2023-02-16T22:17:10Z</time></trkpt><trkpt lat="36.8616534" lon="138.6425225"><ele>864.8600000000001</ele><time>2023-02-16T22:17:29Z</time></trkpt><trkpt lat="36.8615658" lon="138.6427283"><ele>867.1766666666667</ele><time>2023-02-16T22:17:51Z</time></trkpt><trkpt lat="36.8614811" lon="138.6429283"><ele>870.0566666666667</ele><time>2023-02-16T22:18:10Z</time></trkpt><trkpt lat="36.8614036" lon="138.6431399"><ele>873.48</ele><time>2023-02-16T22:18:27Z</time></trkpt><trkpt lat="36.8613353" lon="138.643351"><ele>877.2166666666667</ele><time>2023-02-16T22:18:48Z</time></trkpt><trkpt lat="36.8612696" lon="138.6435642"><ele>880.0266666666666</ele><time>2023-02-16T22:19:13Z</time></trkpt><trkpt lat="36.8612145" lon="138.6437821"><ele>881.8866666666667</ele><time>2023-02-16T22:19:34Z</time></trkpt><trkpt lat="36.861127" lon="138.6439865"><ele>882.8366666666667</ele><time>2023-02-16T22:19:55Z</time></trkpt><trkpt lat="36.8610549" lon="138.6441959"><ele>884.0033333333334</ele><time>2023-02-16T22:20:20Z</time></trkpt><trkpt lat="36.8609817" lon="138.6444086"><ele>887.0300000000001</ele><time>2023-02-16T22:20:42Z</time></trkpt><trkpt lat="36.8609139" lon="138.6446269"><ele>890.5066666666667</ele><time>2023-02-16T22:21:04Z</time></trkpt><trkpt lat="36.8607982" lon="138.6448185"><ele>895.02</ele><time>2023-02-16T22:21:25Z</time></trkpt><trkpt lat="36.8607022" lon="138.6450145"><ele>899.0933333333332</ele><time>2023-02-16T22:21:48Z</time></trkpt><trkpt lat="36.8606571" lon="138.6452382"><ele>902.8133333333334</ele><time>2023-02-16T22:22:09Z</time></trkpt><trkpt lat="36.8606302" lon="138.6454628"><ele>904.6999999999999</ele><time>2023-02-16T22:22:34Z</time></trkpt><trkpt lat="36.8605107" lon="138.6456308"><ele>906.41</ele><time>2023-02-16T22:23:03Z</time></trkpt><trkpt lat="36.8604848" lon="138.6458562"><ele>908.7333333333332</ele><time>2023-02-16T22:23:34Z</time></trkpt><trkpt lat="36.8604145" lon="138.6460697"><ele>911.5133333333333</ele><time>2023-02-16T22:23:54Z</time></trkpt><trkpt lat="36.8603232" lon="138.6462679"><ele>914.9366666666666</ele><time>2023-02-16T22:24:14Z</time></trkpt><trkpt lat="36.8602381" lon="138.6464741"><ele>918.1533333333333</ele><time>2023-02-16T22:24:33Z</time></trkpt><trkpt lat="36.8601325" lon="138.6466565"><ele>921.1</ele><time>2023-02-16T22:24:57Z</time></trkpt><trkpt lat="36.8599935" lon="138.6468123"><ele>922.6533333333333</ele><time>2023-02-16T22:25:21Z</time></trkpt><trkpt lat="36.8598606" lon="138.6469679"><ele>925.3033333333333</ele><time>2023-02-16T22:25:49Z</time></trkpt><trkpt lat="36.8597792" lon="138.6471775"><ele>928.5533333333333</ele><time>2023-02-16T22:26:36Z</time></trkpt><trkpt lat="36.8596943" lon="138.6473822"><ele>931.96</ele><time>2023-02-16T22:27:02Z</time></trkpt><trkpt lat="36.8595524" lon="138.6475281"><ele>935.3866666666667</ele><time>2023-02-16T22:27:31Z</time></trkpt><trkpt lat="36.8593699" lon="138.6475325"><ele>938.9633333333335</ele><time>2023-02-16T22:27:56Z</time></trkpt><trkpt lat="36.8592068" lon="138.6474352"><ele>943.1533333333333</ele><time>2023-02-16T22:28:22Z</time></trkpt><trkpt lat="36.8590296" lon="138.6473703"><ele>946.0666666666666</ele><time>2023-02-16T22:28:45Z</time></trkpt><trkpt lat="36.8588621" lon="138.647463"><ele>947.4633333333335</ele><time>2023-02-16T22:29:13Z</time></trkpt><trkpt lat="36.8589071" lon="138.6476827"><ele>947.7200000000001</ele><time>2023-02-16T22:29:37Z</time></trkpt><trkpt lat="36.8589841" lon="138.6478869"><ele>947.1133333333333</ele><time>2023-02-16T22:30:00Z</time></trkpt><trkpt lat="36.8590043" lon="138.6481113"><ele>947.3633333333333</ele><time>2023-02-16T22:30:24Z</time></trkpt><trkpt lat="36.8588482" lon="138.6482331"><ele>949.2566666666667</ele><time>2023-02-16T22:30:57Z</time></trkpt><trkpt lat="36.858752" lon="138.6480364"><ele>952.7466666666666</ele><time>2023-02-16T22:31:26Z</time></trkpt><trkpt lat="36.85866" lon="138.6478367"><ele>957.7466666666666</ele><time>2023-02-16T22:31:54Z</time></trkpt><trkpt lat="36.8585211" lon="138.6476842"><ele>960.9033333333333</ele><time>2023-02-16T22:32:17Z</time></trkpt><trkpt lat="36.8583472" lon="138.6476152"><ele>962.9033333333333</ele><time>2023-02-16T22:32:47Z</time></trkpt><trkpt lat="36.8581909" lon="138.6477421"><ele>965.1866666666666</ele><time>2023-02-16T22:33:14Z</time></trkpt><trkpt lat="36.8581205" lon="138.6479523"><ele>967.85</ele><time>2023-02-16T22:33:36Z</time></trkpt><trkpt lat="36.8580237" lon="138.6481421"><ele>970.5100000000001</ele><time>2023-02-16T22:34:12Z</time></trkpt><trkpt lat="36.8580656" lon="138.6483611"><ele>972.8033333333333</ele><time>2023-02-16T22:35:08Z</time></trkpt><trkpt lat="36.8582462" lon="138.6483901"><ele>974.73</ele><time>2023-02-16T22:35:30Z</time></trkpt><trkpt lat="36.8581557" lon="138.6485848"><ele>978.1366666666667</ele><time>2023-02-16T22:35:57Z</time></trkpt><trkpt lat="36.8579726" lon="138.6485695"><ele>979.3766666666667</ele><time>2023-02-16T22:36:27Z</time></trkpt><trkpt lat="36.8578067" lon="138.6486726"><ele>982.0833333333334</ele><time>2023-02-16T22:36:50Z</time></trkpt><trkpt lat="36.857653" lon="138.6487946"><ele>983.4566666666666</ele><time>2023-02-16T22:37:14Z</time></trkpt><trkpt lat="36.857458" lon="138.6488501"><ele>987.0733333333334</ele><time>2023-02-16T22:37:36Z</time></trkpt><trkpt lat="36.8572629" lon="138.648876"><ele>990.2333333333335</ele><time>2023-02-16T22:40:42Z</time></trkpt><trkpt lat="36.8571458" lon="138.6490475"><ele>993.91</ele><time>2023-02-16T22:41:14Z</time></trkpt><trkpt lat="36.8570886" lon="138.6492651"><ele>996.6966666666667</ele><time>2023-02-16T22:41:46Z</time></trkpt><trkpt lat="36.8569904" lon="138.649455"><ele>1000.3666666666667</ele><time>2023-02-16T22:42:16Z</time></trkpt><trkpt lat="36.8568357" lon="138.6495706"><ele>1004.0833333333334</ele><time>2023-02-16T22:42:39Z</time></trkpt><trkpt lat="36.8566917" lon="138.6497121"><ele>1009.57</ele><time>2023-02-16T22:43:01Z</time></trkpt><trkpt lat="36.8565045" lon="138.649709"><ele>1012.5866666666667</ele><time>2023-02-16T22:43:33Z</time></trkpt><trkpt lat="36.8564032" lon="138.6498997"><ele>1016.1999999999999</ele><time>2023-02-16T22:44:18Z</time></trkpt><trkpt lat="36.8562933" lon="138.6500858"><ele>1018.9866666666667</ele><time>2023-02-16T22:44:57Z</time></trkpt><trkpt lat="36.8561764" lon="138.6502566"><ele>1023.9699999999999</ele><time>2023-02-16T22:45:36Z</time></trkpt><trkpt lat="36.8560109" lon="138.6503486"><ele>1027.86</ele><time>2023-02-16T22:46:11Z</time></trkpt><trkpt lat="36.8559283" lon="138.6505482"><ele>1031.6299999999999</ele><time>2023-02-16T22:46:53Z</time></trkpt><trkpt lat="36.8557999" lon="138.6507099"><ele>1035.1566666666668</ele><time>2023-02-16T22:47:28Z</time></trkpt><trkpt lat="36.8556857" lon="138.6508875"><ele>1040.25</ele><time>2023-02-16T22:48:01Z</time></trkpt><trkpt lat="36.8557407" lon="138.6511063"><ele>1044.2233333333334</ele><time>2023-02-16T22:48:28Z</time></trkpt><trkpt lat="36.8557641" lon="138.6513302"><ele>1048.6266666666668</ele><time>2023-02-16T22:48:54Z</time></trkpt><trkpt lat="36.8557286" lon="138.6515514"><ele>1052.2</ele><time>2023-02-16T22:49:16Z</time></trkpt><trkpt lat="36.855808" lon="138.6517536"><ele>1057.61</ele><time>2023-02-16T22:50:10Z</time></trkpt><trkpt lat="36.8558813" lon="138.651959"><ele>1063.1533333333334</ele><time>2023-02-16T22:51:04Z</time></trkpt><trkpt lat="36.8558114" lon="138.6521681"><ele>1067.5566666666666</ele><time>2023-02-16T22:51:59Z</time></trkpt><trkpt lat="36.8557645" lon="138.6523896"><ele>1072.8866666666665</ele><time>2023-02-16T22:52:34Z</time></trkpt><trkpt lat="36.8558464" lon="138.6526013"><ele>1077.5966666666668</ele><time>2023-02-16T22:53:12Z</time></trkpt><trkpt lat="36.8559434" lon="138.652795"><ele>1084.2266666666667</ele><time>2023-02-16T22:53:45Z</time></trkpt><trkpt lat="36.8559308" lon="138.6530226"><ele>1088.4366666666667</ele><time>2023-02-16T22:54:21Z</time></trkpt><trkpt lat="36.8558875" lon="138.6532427"><ele>1092.4333333333334</ele><time>2023-02-16T22:55:14Z</time></trkpt><trkpt lat="36.8557771" lon="138.6534272"><ele>1095.6333333333334</ele><time>2023-02-16T22:55:31Z</time></trkpt><trkpt lat="36.8557363" lon="138.6536471"><ele>1097.0833333333335</ele><time>2023-02-16T22:56:07Z</time></trkpt><trkpt lat="36.8555978" lon="138.6537956"><ele>1098.5466666666669</ele><time>2023-02-16T22:56:47Z</time></trkpt><trkpt lat="36.8556396" lon="138.6540141"><ele>1098.0533333333335</ele><time>2023-02-16T22:59:27Z</time></trkpt><trkpt lat="36.8556961" lon="138.6542329"><ele>1098.6566666666668</ele><time>2023-02-16T22:59:46Z</time></trkpt><trkpt lat="36.855659" lon="138.6544528"><ele>1099.7966666666669</ele><time>2023-02-16T23:00:10Z</time></trkpt><trkpt lat="36.8556214" lon="138.6546742"><ele>1103.3466666666666</ele><time>2023-02-16T23:00:34Z</time></trkpt><trkpt lat="36.855723" lon="138.6548597"><ele>1108.6466666666665</ele><time>2023-02-16T23:01:39Z</time></trkpt><trkpt lat="36.8559048" lon="138.6548618"><ele>1115.83</ele><time>2023-02-16T23:04:22Z</time></trkpt><trkpt lat="36.856039" lon="138.6550194"><ele>1126.93</ele><time>2023-02-16T23:05:00Z</time></trkpt><trkpt lat="36.8560375" lon="138.6547946"><ele>1131.8100000000002</ele><time>2023-02-16T23:05:37Z</time></trkpt><trkpt lat="36.8561767" lon="138.6546447"><ele>1133.0633333333335</ele><time>2023-02-16T23:06:14Z</time></trkpt><trkpt lat="36.8562998" lon="138.6548099"><ele>1134.9933333333336</ele><time>2023-02-16T23:07:00Z</time></trkpt><trkpt lat="36.8562855" lon="138.6550361"><ele>1143.0866666666668</ele><time>2023-02-16T23:10:04Z</time></trkpt><trkpt lat="36.8562342" lon="138.6552538"><ele>1152.02</ele><time>2023-02-16T23:10:30Z</time></trkpt><trkpt lat="36.8561509" lon="138.6554595"><ele>1155.8333333333333</ele><time>2023-02-16T23:10:56Z</time></trkpt><trkpt lat="36.8561026" lon="138.6556809"><ele>1158.4833333333333</ele><time>2023-02-16T23:11:13Z</time></trkpt><trkpt lat="36.8560983" lon="138.6559117"><ele>1161.6333333333334</ele><time>2023-02-16T23:11:40Z</time></trkpt><trkpt lat="36.8561028" lon="138.6561369"><ele>1164.6000000000001</ele><time>2023-02-16T23:12:03Z</time></trkpt><trkpt lat="36.8560825" lon="138.6563603"><ele>1167.3433333333335</ele><time>2023-02-16T23:12:28Z</time></trkpt><trkpt lat="36.8561789" lon="138.6565515"><ele>1170.2333333333336</ele><time>2023-02-16T23:12:58Z</time></trkpt><trkpt lat="36.856213" lon="138.6567723"><ele>1174.5633333333335</ele><time>2023-02-16T23:13:41Z</time></trkpt><trkpt lat="36.8562899" lon="138.6569755"><ele>1180.3433333333332</ele><time>2023-02-16T23:14:26Z</time></trkpt><trkpt lat="36.8564646" lon="138.6570454"><ele>1186.6866666666667</ele><time>2023-02-16T23:15:14Z</time></trkpt><trkpt lat="36.8565472" lon="138.6572524"><ele>1194.1333333333334</ele><time>2023-02-16T23:16:29Z</time></trkpt><trkpt lat="36.8564083" lon="138.6574033"><ele>1200.426666666667</ele><time>2023-02-16T23:17:12Z</time></trkpt><trkpt lat="36.8565185" lon="138.6575817"><ele>1206.99</ele><time>2023-02-16T23:17:47Z</time></trkpt><trkpt lat="36.8563686" lon="138.6577128"><ele>1212.2133333333334</ele><time>2023-02-16T23:19:03Z</time></trkpt><trkpt lat="36.8562099" lon="138.6578211"><ele>1218.1833333333334</ele><time>2023-02-16T23:19:30Z</time></trkpt><trkpt lat="36.8561583" lon="138.6580385"><ele>1225.91</ele><time>2023-02-16T23:20:06Z</time></trkpt><trkpt lat="36.8560776" lon="138.6582396"><ele>1234.3500000000001</ele><time>2023-02-16T23:20:57Z</time></trkpt><trkpt lat="36.8560718" lon="138.6584671"><ele>1243.5866666666668</ele><time>2023-02-16T23:21:33Z</time></trkpt><trkpt lat="36.8561317" lon="138.6586822"><ele>1250.0266666666669</ele><time>2023-02-16T23:22:08Z</time></trkpt><trkpt lat="36.8559805" lon="138.6588118"><ele>1255.2266666666667</ele><time>2023-02-16T23:22:47Z</time></trkpt><trkpt lat="36.8558437" lon="138.6589584"><ele>1258.5433333333333</ele><time>2023-02-16T23:23:35Z</time></trkpt><trkpt lat="36.8557385" lon="138.6591435"><ele>1262.1733333333334</ele><time>2023-02-16T23:24:03Z</time></trkpt><trkpt lat="36.8556456" lon="138.6593367"><ele>1265.34</ele><time>2023-02-16T23:24:31Z</time></trkpt><trkpt lat="36.8555413" lon="138.6595244"><ele>1268.6233333333332</ele><time>2023-02-16T23:25:05Z</time></trkpt><trkpt lat="36.8554107" lon="138.6596819"><ele>1271.0166666666667</ele><time>2023-02-16T23:25:32Z</time></trkpt><trkpt lat="36.8553154" lon="138.6598844"><ele>1272.8799999999999</ele><time>2023-02-16T23:26:08Z</time></trkpt><trkpt lat="36.8552106" lon="138.6600706"><ele>1275.1933333333334</ele><time>2023-02-16T23:26:36Z</time></trkpt><trkpt lat="36.8551571" lon="138.6602871"><ele>1278.13</ele><time>2023-02-16T23:27:14Z</time></trkpt><trkpt lat="36.8551175" lon="138.6605095"><ele>1281.2033333333331</ele><time>2023-02-16T23:27:43Z</time></trkpt><trkpt lat="36.8550935" lon="138.6607364"><ele>1283.8366666666666</ele><time>2023-02-16T23:28:08Z</time></trkpt><trkpt lat="36.8550079" lon="138.6609385"><ele>1285.6333333333334</ele><time>2023-02-16T23:28:26Z</time></trkpt><trkpt lat="36.8548957" lon="138.6611175"><ele>1286.7666666666667</ele><time>2023-02-16T23:28:51Z</time></trkpt><trkpt lat="36.8547093" lon="138.6611376"><ele>1287.96</ele><time>2023-02-16T23:29:30Z</time></trkpt><trkpt lat="36.8545518" lon="138.6612507"><ele>1290.99</ele><time>2023-02-16T23:30:02Z</time></trkpt><trkpt lat="36.8545492" lon="138.6614783"><ele>1295.6499999999999</ele><time>2023-02-16T23:30:53Z</time></trkpt><trkpt lat="36.854664" lon="138.6616601"><ele>1300.92</ele><time>2023-02-16T23:31:22Z</time></trkpt><trkpt lat="36.8548245" lon="138.6617668"><ele>1304.9133333333332</ele><time>2023-02-16T23:31:48Z</time></trkpt><trkpt lat="36.8550087" lon="138.6617644"><ele>1304.7766666666666</ele><time>2023-02-16T23:32:14Z</time></trkpt><trkpt lat="36.8549263" lon="138.6619662"><ele>1305.5366666666666</ele><time>2023-02-16T23:32:38Z</time></trkpt><trkpt lat="36.8548416" lon="138.662168"><ele>1305.7933333333333</ele><time>2023-02-16T23:33:13Z</time></trkpt><trkpt lat="36.8548018" lon="138.6623924"><ele>1308.47</ele><time>2023-02-16T23:33:41Z</time></trkpt><trkpt lat="36.8547574" lon="138.6626123"><ele>1308.6200000000001</ele><time>2023-02-16T23:48:22Z</time></trkpt><trkpt lat="36.8546371" lon="138.6627844"><ele>1308.5533333333333</ele><time>2023-02-16T23:48:58Z</time></trkpt><trkpt lat="36.8544932" lon="138.6629247"><ele>1308.7166666666665</ele><time>2023-02-16T23:49:20Z</time></trkpt><trkpt lat="36.8543705" lon="138.6630975"><ele>1310.5366666666666</ele><time>2023-02-16T23:49:34Z</time></trkpt><trkpt lat="36.8542638" lon="138.6632849"><ele>1313.65</ele><time>2023-02-16T23:49:59Z</time></trkpt><trkpt lat="36.8541404" lon="138.663456"><ele>1317.96</ele><time>2023-02-16T23:50:57Z</time></trkpt><trkpt lat="36.8539951" lon="138.663591"><ele>1323.756666666667</ele><time>2023-02-16T23:51:46Z</time></trkpt><trkpt lat="36.853817" lon="138.6636374"><ele>1331.67</ele><time>2023-02-16T23:54:14Z</time></trkpt><trkpt lat="36.8538186" lon="138.6638635"><ele>1338.2133333333334</ele><time>2023-02-16T23:55:01Z</time></trkpt><trkpt lat="36.8537293" lon="138.6640645"><ele>1345.8166666666668</ele><time>2023-02-16T23:56:51Z</time></trkpt><trkpt lat="36.8536849" lon="138.6642826"><ele>1350.7600000000002</ele><time>2023-02-16T23:57:30Z</time></trkpt><trkpt lat="36.8537447" lon="138.664496"><ele>1356.8666666666668</ele><time>2023-02-16T23:59:28Z</time></trkpt><trkpt lat="36.85367" lon="138.6647003"><ele>1361.4066666666668</ele><time>2023-02-17T00:00:19Z</time></trkpt><trkpt lat="36.853708" lon="138.6649227"><ele>1365.1899999999998</ele><time>2023-02-17T00:01:07Z</time></trkpt><trkpt lat="36.8536682" lon="138.6651502"><ele>1367.22</ele><time>2023-02-17T00:01:23Z</time></trkpt><trkpt lat="36.8536185" lon="138.6653774"><ele>1367.89</ele><time>2023-02-17T00:01:39Z</time></trkpt><trkpt lat="36.8535104" lon="138.6655679"><ele>1371.1866666666665</ele><time>2023-02-17T00:02:40Z</time></trkpt><trkpt lat="36.8534384" lon="138.6657763"><ele>1376.95</ele><time>2023-02-17T00:03:18Z</time></trkpt><trkpt lat="36.8534196" lon="138.6660022"><ele>1384.1000000000001</ele><time>2023-02-17T00:04:39Z</time></trkpt><trkpt lat="36.853483" lon="138.6662184"><ele>1388.64</ele><time>2023-02-17T00:05:17Z</time></trkpt><trkpt lat="36.8534367" lon="138.6664362"><ele>1393.3533333333335</ele><time>2023-02-17T00:05:42Z</time></trkpt><trkpt lat="36.8533943" lon="138.6666547"><ele>1396.7366666666667</ele><time>2023-02-17T00:07:04Z</time></trkpt><trkpt lat="36.8533637" lon="138.6668798"><ele>1401.1366666666665</ele><time>2023-02-17T00:07:33Z</time></trkpt><trkpt lat="36.8533302" lon="138.6671078"><ele>1404.3333333333333</ele><time>2023-02-17T00:07:57Z</time></trkpt><trkpt lat="36.8532629" lon="138.6673163"><ele>1408.5</ele><time>2023-02-17T00:08:26Z</time></trkpt><trkpt lat="36.8531836" lon="138.6675269"><ele>1413.0766666666668</ele><time>2023-02-17T00:09:12Z</time></trkpt><trkpt lat="36.8531402" lon="138.6677478"><ele>1419.0133333333333</ele><time>2023-02-17T00:09:30Z</time></trkpt><trkpt lat="36.8531011" lon="138.6679672"><ele>1425.0</ele><time>2023-02-17T00:09:50Z</time></trkpt><trkpt lat="36.8530958" lon="138.6681962"><ele>1430.3700000000001</ele><time>2023-02-17T00:10:22Z</time></trkpt><trkpt lat="36.8530359" lon="138.6684085"><ele>1435.9966666666667</ele><time>2023-02-17T00:11:07Z</time></trkpt><trkpt lat="36.85292" lon="138.6685815"><ele>1441.506666666667</ele><time>2023-02-17T00:11:39Z</time></trkpt><trkpt lat="36.8528445" lon="138.6687935"><ele>1447.7666666666667</ele><time>2023-02-17T00:15:05Z</time></trkpt><trkpt lat="36.8528182" lon="138.6690161"><ele>1454.2366666666667</ele><time>2023-02-17T00:15:41Z</time></trkpt><trkpt lat="36.8527734" lon="138.6692352"><ele>1459.7133333333334</ele><time>2023-02-17T00:16:15Z</time></trkpt><trkpt lat="36.8527446" lon="138.6694608"><ele>1466.3999999999999</ele><time>2023-02-17T00:16:56Z</time></trkpt><trkpt lat="36.8527786" lon="138.6696909"><ele>1470.9666666666665</ele><time>2023-02-17T00:18:01Z</time></trkpt><trkpt lat="36.8527805" lon="138.6699196"><ele>1476.7633333333333</ele><time>2023-02-17T00:18:28Z</time></trkpt><trkpt lat="36.8527707" lon="138.6701681"><ele>1481.5966666666666</ele><time>2023-02-17T00:19:08Z</time></trkpt><trkpt lat="36.8527295" lon="138.6703875"><ele>1487.3066666666666</ele><time>2023-02-17T00:20:14Z</time></trkpt><trkpt lat="36.8528086" lon="138.6705922"><ele>1492.67</ele><time>2023-02-17T00:20:53Z</time></trkpt><trkpt lat="36.8527017" lon="138.6707857"><ele>1497.7466666666667</ele><time>2023-02-17T00:21:30Z</time></trkpt><trkpt lat="36.852676" lon="138.6710177"><ele>1503.3233333333335</ele><time>2023-02-17T00:21:43Z</time></trkpt><trkpt lat="36.8526594" lon="138.6712487"><ele>1508.58</ele><time>2023-02-17T00:22:47Z</time></trkpt><trkpt lat="36.85261" lon="138.6714659"><ele>1513.3433333333335</ele><time>2023-02-17T00:23:05Z</time></trkpt><trkpt lat="36.8525936" lon="138.6716917"><ele>1517.5433333333333</ele><time>2023-02-17T00:24:00Z</time></trkpt><trkpt lat="36.852589" lon="138.6719169"><ele>1521.2266666666667</ele><time>2023-02-17T00:24:29Z</time></trkpt><trkpt lat="36.8525838" lon="138.6721411"><ele>1524.8666666666668</ele><time>2023-02-17T00:24:56Z</time></trkpt><trkpt lat="36.8525721" lon="138.6723689"><ele>1528.2466666666667</ele><time>2023-02-17T00:25:42Z</time></trkpt><trkpt lat="36.8524993" lon="138.6725818"><ele>1532.05</ele><time>2023-02-17T00:26:07Z</time></trkpt><trkpt lat="36.8523631" lon="138.6727341"><ele>1536.3633333333335</ele><time>2023-02-17T00:26:37Z</time></trkpt><trkpt lat="36.8523663" lon="138.6729653"><ele>1540.8866666666665</ele><time>2023-02-17T00:27:12Z</time></trkpt><trkpt lat="36.8522974" lon="138.6731759"><ele>1545.2966666666664</ele><time>2023-02-17T00:27:50Z</time></trkpt><trkpt lat="36.8521572" lon="138.6733214"><ele>1549.5500000000002</ele><time>2023-02-17T00:28:29Z</time></trkpt><trkpt lat="36.8520637" lon="138.673518"><ele>1553.9033333333334</ele><time>2023-02-17T00:29:02Z</time></trkpt><trkpt lat="36.8519056" lon="138.673633"><ele>1558.7233333333334</ele><time>2023-02-17T00:29:58Z</time></trkpt><trkpt lat="36.8517503" lon="138.6737631"><ele>1565.13</ele><time>2023-02-17T00:30:25Z</time></trkpt><trkpt lat="36.8515971" lon="138.6738827"><ele>1572.2733333333333</ele><time>2023-02-17T00:31:12Z</time></trkpt><trkpt lat="36.8517127" lon="138.6740569"><ele>1578.2166666666665</ele><time>2023-02-17T00:32:17Z</time></trkpt><trkpt lat="36.8517039" lon="138.6742845"><ele>1581.8400000000001</ele><time>2023-02-17T00:32:40Z</time></trkpt><trkpt lat="36.8517307" lon="138.6745064"><ele>1584.0033333333333</ele><time>2023-02-17T00:32:58Z</time></trkpt><trkpt lat="36.8517275" lon="138.6747379"><ele>1586.1966666666667</ele><time>2023-02-17T00:33:21Z</time></trkpt><trkpt lat="36.8517486" lon="138.6749633"><ele>1588.25</ele><time>2023-02-17T00:33:56Z</time></trkpt><trkpt lat="36.8518061" lon="138.6751817"><ele>1589.9166666666667</ele><time>2023-02-17T00:35:06Z</time></trkpt><trkpt lat="36.8519043" lon="138.6753853"><ele>1592.4066666666668</ele><time>2023-02-17T00:35:30Z</time></trkpt><trkpt lat="36.8519423" lon="138.6756073"><ele>1595.36</ele><time>2023-02-17T00:35:52Z</time></trkpt><trkpt lat="36.8518462" lon="138.6758129"><ele>1598.5933333333335</ele><time>2023-02-17T00:37:27Z</time></trkpt><trkpt lat="36.8517623" lon="138.6760168"><ele>1600.7333333333333</ele><time>2023-02-17T00:37:45Z</time></trkpt><trkpt lat="36.8516323" lon="138.6761743"><ele>1602.1666666666667</ele><time>2023-02-17T00:38:17Z</time></trkpt><trkpt lat="36.8515401" lon="138.6763683"><ele>1603.6633333333332</ele><time>2023-02-17T00:38:35Z</time></trkpt><trkpt lat="36.8514998" lon="138.6765913"><ele>1606.1233333333332</ele><time>2023-02-17T00:39:29Z</time></trkpt><trkpt lat="36.8513179" lon="138.6765614"><ele>1608.7833333333335</ele><time>2023-02-17T00:39:53Z</time></trkpt><trkpt lat="36.8511853" lon="138.6767255"><ele>1612.68</ele><time>2023-02-17T00:40:37Z</time></trkpt><trkpt lat="36.8510498" lon="138.6768747"><ele>1617.1033333333335</ele><time>2023-02-17T00:41:14Z</time></trkpt><trkpt lat="36.8508699" lon="138.6769181"><ele>1621.7266666666667</ele><time>2023-02-17T00:41:31Z</time></trkpt><trkpt lat="36.8507404" lon="138.6770782"><ele>1625.493333333333</ele><time>2023-02-17T00:41:59Z</time></trkpt><trkpt lat="36.8506077" lon="138.6772423"><ele>1628.3533333333335</ele><time>2023-02-17T00:43:02Z</time></trkpt><trkpt lat="36.850427" lon="138.6773026"><ele>1631.7733333333333</ele><time>2023-02-17T00:43:50Z</time></trkpt><trkpt lat="36.8502415" lon="138.6773317"><ele>1635.1166666666668</ele><time>2023-02-17T00:44:21Z</time></trkpt><trkpt lat="36.8500648" lon="138.6773772"><ele>1637.68</ele><time>2023-02-17T00:44:45Z</time></trkpt><trkpt lat="36.8499078" lon="138.6774985"><ele>1639.83</ele><time>2023-02-17T00:45:16Z</time></trkpt><trkpt lat="36.8497264" lon="138.677519"><ele>1642.8333333333333</ele><time>2023-02-17T00:45:35Z</time></trkpt><trkpt lat="36.8495489" lon="138.6774765"><ele>1646.2533333333333</ele><time>2023-02-17T00:46:02Z</time></trkpt><trkpt lat="36.8494591" lon="138.6772644"><ele>1650.3999999999999</ele><time>2023-02-17T00:46:53Z</time></trkpt><trkpt lat="36.8492775" lon="138.6772836"><ele>1655.28</ele><time>2023-02-17T00:48:38Z</time></trkpt><trkpt lat="36.8491223" lon="138.6771679"><ele>1662.8133333333335</ele><time>2023-02-17T00:49:19Z</time></trkpt><trkpt lat="36.8490245" lon="138.6773605"><ele>1670.8333333333333</ele><time>2023-02-17T00:50:44Z</time></trkpt><trkpt lat="36.848843" lon="138.6773739"><ele>1681.1233333333332</ele><time>2023-02-17T00:51:23Z</time></trkpt><trkpt lat="36.8489408" lon="138.6775688"><ele>1685.5133333333333</ele><time>2023-02-17T00:52:11Z</time></trkpt><trkpt lat="36.8489071" lon="138.6777898"><ele>1690.75</ele><time>2023-02-17T00:52:50Z</time></trkpt><trkpt lat="36.8487276" lon="138.6778159"><ele>1694.25</ele><time>2023-02-17T00:53:52Z</time></trkpt><trkpt lat="36.8486497" lon="138.6776073"><ele>1703.01</ele><time>2023-02-17T00:54:42Z</time></trkpt><trkpt lat="36.8485279" lon="138.6774393"><ele>1710.3333333333333</ele><time>2023-02-17T00:55:44Z</time></trkpt><trkpt lat="36.8484616" lon="138.6776512"><ele>1717.39</ele><time>2023-02-17T00:56:35Z</time></trkpt><trkpt lat="36.8485157" lon="138.6778652"><ele>1721.1466666666665</ele><time>2023-02-17T00:57:11Z</time></trkpt><trkpt lat="36.8485426" lon="138.6780892"><ele>1724.3999999999999</ele><time>2023-02-17T00:58:24Z</time></trkpt><trkpt lat="36.8483612" lon="138.6781117"><ele>1731.05</ele><time>2023-02-17T01:00:49Z</time></trkpt><trkpt lat="36.8482828" lon="138.6779043"><ele>1738.743333333333</ele><time>2023-02-17T01:01:28Z</time></trkpt><trkpt lat="36.8481483" lon="138.6777472"><ele>1747.9233333333334</ele><time>2023-02-17T01:01:57Z</time></trkpt><trkpt lat="36.8479842" lon="138.6776494"><ele>1752.4466666666667</ele><time>2023-02-17T01:02:34Z</time></trkpt><trkpt lat="36.8478092" lon="138.6775876"><ele>1758.72</ele><time>2023-02-17T01:04:20Z</time></trkpt><trkpt lat="36.8476322" lon="138.6776472"><ele>1763.1833333333334</ele><time>2023-02-17T01:06:29Z</time></trkpt><trkpt lat="36.8474642" lon="138.6775521"><ele>1766.6033333333332</ele><time>2023-02-17T01:06:43Z</time></trkpt><trkpt lat="36.8473236" lon="138.677402"><ele>1768.3500000000001</ele><time>2023-02-17T01:07:05Z</time></trkpt><trkpt lat="36.8471578" lon="138.6773012"><ele>1770.1866666666667</ele><time>2023-02-17T01:07:24Z</time></trkpt><trkpt lat="36.84701" lon="138.6771651"><ele>1772.2933333333333</ele><time>2023-02-17T01:07:45Z</time></trkpt><trkpt lat="36.8468533" lon="138.6770405"><ele>1775.07</ele><time>2023-02-17T01:08:08Z</time></trkpt><trkpt lat="36.8466959" lon="138.6769288"><ele>1777.6466666666668</ele><time>2023-02-17T01:08:29Z</time></trkpt><trkpt lat="36.846613" lon="138.6767293"><ele>1780.3633333333335</ele><time>2023-02-17T01:09:12Z</time></trkpt><trkpt lat="36.8465179" lon="138.6765352"><ele>1784.7866666666669</ele><time>2023-02-17T01:09:50Z</time></trkpt><trkpt lat="36.8463699" lon="138.6764035"><ele>1791.61</ele><time>2023-02-17T01:10:21Z</time></trkpt><trkpt lat="36.8464197" lon="138.6761855"><ele>1797.53</ele><time>2023-02-17T01:11:22Z</time></trkpt><trkpt lat="36.8464567" lon="138.6759645"><ele>1800.1433333333334</ele><time>2023-02-17T01:11:53Z</time></trkpt><trkpt lat="36.8464108" lon="138.675746"><ele>1802.68</ele><time>2023-02-17T01:12:39Z</time></trkpt><trkpt lat="36.8463093" lon="138.6755592"><ele>1808.1133333333335</ele><time>2023-02-17T01:13:31Z</time></trkpt><trkpt lat="36.8462222" lon="138.6757625"><ele>1816.3066666666666</ele><time>2023-02-17T01:14:24Z</time></trkpt><trkpt lat="36.8461242" lon="138.6759512"><ele>1823.28</ele><time>2023-02-17T01:15:42Z</time></trkpt><trkpt lat="36.846019" lon="138.6761537"><ele>1829.7366666666667</ele><time>2023-02-17T01:18:21Z</time></trkpt><trkpt lat="36.8458936" lon="138.6759792"><ele>1838.0933333333335</ele><time>2023-02-17T01:19:08Z</time></trkpt><trkpt lat="36.845902" lon="138.6757466"><ele>1845.0533333333333</ele><time>2023-02-17T01:19:39Z</time></trkpt><trkpt lat="36.8457513" lon="138.6756217"><ele>1853.5199999999998</ele><time>2023-02-17T01:20:23Z</time></trkpt><trkpt lat="36.8456385" lon="138.6754454"><ele>1860.2066666666667</ele><time>2023-02-17T01:22:05Z</time></trkpt><trkpt lat="36.8455414" lon="138.6756485"><ele>1870.7633333333333</ele><time>2023-02-17T01:23:08Z</time></trkpt><trkpt lat="36.8453823" lon="138.67554"><ele>1880.506666666667</ele><time>2023-02-17T01:24:56Z</time></trkpt><trkpt lat="36.8453056" lon="138.6757471"><ele>1889.8366666666668</ele><time>2023-02-17T01:26:10Z</time></trkpt><trkpt lat="36.8451746" lon="138.6759038"><ele>1897.6433333333334</ele><time>2023-02-17T01:26:42Z</time></trkpt><trkpt lat="36.8450616" lon="138.6757224"><ele>1906.1033333333335</ele><time>2023-02-17T01:27:49Z</time></trkpt><trkpt lat="36.8449541" lon="138.6755344"><ele>1914.8999999999999</ele><time>2023-02-17T01:28:47Z</time></trkpt><trkpt lat="36.8447821" lon="138.6756118"><ele>1926.54</ele><time>2023-02-17T01:36:20Z</time></trkpt><trkpt lat="36.8446573" lon="138.6757822"><ele>1937.55</ele><time>2023-02-17T01:37:26Z</time></trkpt><trkpt lat="36.8444979" lon="138.6759103"><ele>1948.1633333333332</ele><time>2023-02-17T01:38:08Z</time></trkpt><trkpt lat="36.844348" lon="138.6760388"><ele>1955.39</ele><time>2023-02-17T01:44:36Z</time></trkpt><trkpt lat="36.8441703" lon="138.6760841"><ele>1964.1766666666665</ele><time>2023-02-17T01:45:14Z</time></trkpt><trkpt lat="36.8439966" lon="138.676148"><ele>1974.0433333333333</ele><time>2023-02-17T01:46:57Z</time></trkpt><trkpt lat="36.8438212" lon="138.6760934"><ele>1986.9766666666667</ele><time>2023-02-17T01:48:30Z</time></trkpt><trkpt lat="36.8436511" lon="138.676182"><ele>1997.0233333333333</ele><time>2023-02-17T01:49:18Z</time></trkpt><trkpt lat="36.8434812" lon="138.6762609"><ele>2005.4133333333332</ele><time>2023-02-17T01:50:31Z</time></trkpt><trkpt lat="36.8434018" lon="138.6764628"><ele>2007.9399999999998</ele><time>2023-02-17T01:51:56Z</time></trkpt><trkpt lat="36.8434305" lon="138.6766903"><ele>2007.3400000000001</ele><time>2023-02-17T01:52:13Z</time></trkpt><trkpt lat="36.8434979" lon="138.6769007"><ele>2004.96</ele><time>2023-02-17T01:55:02Z</time></trkpt><trkpt lat="36.8435109" lon="138.6771494"><ele>2003.1566666666668</ele><time>2023-02-17T01:55:26Z</time></trkpt><trkpt lat="36.8434716" lon="138.6774003"><ele>2003.53</ele><time>2023-02-17T01:55:47Z</time></trkpt><trkpt lat="36.8433619" lon="138.6775939"><ele>2005.6633333333332</ele><time>2023-02-17T01:56:11Z</time></trkpt><trkpt lat="36.8432451" lon="138.6777657"><ele>2008.5833333333333</ele><time>2023-02-17T01:56:32Z</time></trkpt><trkpt lat="36.8431712" lon="138.6779753"><ele>2010.8233333333335</ele><time>2023-02-17T01:56:56Z</time></trkpt><trkpt lat="36.8431454" lon="138.678213"><ele>2012.25</ele><time>2023-02-17T01:57:17Z</time></trkpt><trkpt lat="36.8431232" lon="138.678456"><ele>2013.2766666666666</ele><time>2023-02-17T01:57:35Z</time></trkpt><trkpt lat="36.8431047" lon="138.6787013"><ele>2014.37</ele><time>2023-02-17T01:57:56Z</time></trkpt><trkpt lat="36.8430744" lon="138.6789341"><ele>2016.2700000000002</ele><time>2023-02-17T01:58:20Z</time></trkpt><trkpt lat="36.8431719" lon="138.6791443"><ele>2018.3566666666666</ele><time>2023-02-17T01:58:51Z</time></trkpt><trkpt lat="36.8433146" lon="138.6792839"><ele>2020.0166666666667</ele><time>2023-02-17T01:59:18Z</time></trkpt><trkpt lat="36.8433646" lon="138.6795102"><ele>2021.1066666666666</ele><time>2023-02-17T01:59:42Z</time></trkpt><trkpt lat="36.843417" lon="138.6797638"><ele>2022.4133333333332</ele><time>2023-02-17T02:00:03Z</time></trkpt><trkpt lat="36.84344" lon="138.6800141"><ele>2024.3466666666666</ele><time>2023-02-17T02:00:33Z</time></trkpt><trkpt lat="36.8435262" lon="138.6802467"><ele>2026.0933333333335</ele><time>2023-02-17T02:00:51Z</time></trkpt><trkpt lat="36.8435358" lon="138.6804715"><ele>2027.8100000000002</ele><time>2023-02-17T02:01:36Z</time></trkpt><trkpt lat="36.8435909" lon="138.6806915"><ele>2029.8666666666668</ele><time>2023-02-17T02:01:57Z</time></trkpt><trkpt lat="36.84361" lon="138.6809187"><ele>2031.8466666666666</ele><time>2023-02-17T02:02:22Z</time></trkpt><trkpt lat="36.8436486" lon="138.6811384"><ele>2034.3066666666666</ele><time>2023-02-17T02:02:46Z</time></trkpt><trkpt lat="36.8436491" lon="138.6813676"><ele>2036.8533333333332</ele><time>2023-02-17T02:03:13Z</time></trkpt><trkpt lat="36.84375" lon="138.6815614"><ele>2040.5633333333335</ele><time>2023-02-17T02:04:18Z</time></trkpt><trkpt lat="36.8438446" lon="138.6817534"><ele>2045.28</ele><time>2023-02-17T02:04:42Z</time></trkpt><trkpt lat="36.8440111" lon="138.6818413"><ele>2050.8933333333334</ele><time>2023-02-17T02:05:18Z</time></trkpt><trkpt lat="36.8440692" lon="138.6820539"><ele>2056.3933333333334</ele><time>2023-02-17T02:05:56Z</time></trkpt><trkpt lat="36.8442327" lon="138.6821525"><ele>2061.5466666666666</ele><time>2023-02-17T02:06:49Z</time></trkpt><trkpt lat="36.844396" lon="138.6822663"><ele>2066.8533333333335</ele><time>2023-02-17T02:07:28Z</time></trkpt><trkpt lat="36.8444978" lon="138.6824519"><ele>2071.7000000000003</ele><time>2023-02-17T02:08:10Z</time></trkpt><trkpt lat="36.8445909" lon="138.6826443"><ele>2075.5333333333333</ele><time>2023-02-17T02:08:33Z</time></trkpt><trkpt lat="36.8446141" lon="138.6828719"><ele>2078.3533333333335</ele><time>2023-02-17T02:09:14Z</time></trkpt><trkpt lat="36.8445687" lon="138.6830914"><ele>2080.956666666667</ele><time>2023-02-17T02:09:30Z</time></trkpt><trkpt lat="36.8444284" lon="138.6832358"><ele>2082.0466666666666</ele><time>2023-02-17T02:10:00Z</time></trkpt><trkpt lat="36.8443634" lon="138.6834484"><ele>2083.2366666666667</ele><time>2023-02-17T02:10:42Z</time></trkpt><trkpt lat="36.8443021" lon="138.6836636"><ele>2084.4666666666667</ele><time>2023-02-17T02:11:03Z</time></trkpt><trkpt lat="36.8442149" lon="138.6838631"><ele>2087.1833333333334</ele><time>2023-02-17T02:11:18Z</time></trkpt><trkpt lat="36.8441677" lon="138.6841015"><ele>2089.3366666666666</ele><time>2023-02-17T02:13:16Z</time></trkpt><trkpt lat="36.8441231" lon="138.684322"><ele>2092.1433333333334</ele><time>2023-02-17T02:13:30Z</time></trkpt><trkpt lat="36.8440952" lon="138.6845488"><ele>2095.3366666666666</ele><time>2023-02-17T02:13:48Z</time></trkpt><trkpt lat="36.844094" lon="138.684774"><ele>2098.8566666666666</ele><time>2023-02-17T02:14:29Z</time></trkpt><trkpt lat="36.8439786" lon="138.6849487"><ele>2102.0099999999998</ele><time>2023-02-17T02:14:50Z</time></trkpt><trkpt lat="36.843924" lon="138.6851675"><ele>2105.6</ele><time>2023-02-17T02:15:18Z</time></trkpt><trkpt lat="36.8439484" lon="138.6853944"><ele>2109.243333333334</ele><time>2023-02-17T02:15:38Z</time></trkpt><trkpt lat="36.8441317" lon="138.6854286"><ele>2112.6566666666668</ele><time>2023-02-17T02:16:18Z</time></trkpt><trkpt lat="36.8440006" lon="138.6855858"><ele>2115.0866666666666</ele><time>2023-02-17T02:17:30Z</time></trkpt><trkpt lat="36.8438459" lon="138.6857029"><ele>2116.5166666666664</ele><time>2023-02-17T02:17:52Z</time></trkpt><trkpt lat="36.8437082" lon="138.6858524"><ele>2117.5066666666667</ele><time>2023-02-17T02:18:19Z</time></trkpt><trkpt lat="36.8435854" lon="138.6860191"><ele>2118.21</ele><time>2023-02-17T02:18:39Z</time></trkpt><trkpt lat="36.8434691" lon="138.6861996"><ele>2118.9500000000003</ele><time>2023-02-17T02:18:58Z</time></trkpt><trkpt lat="36.8433694" lon="138.6863942"><ele>2119.4666666666667</ele><time>2023-02-17T02:19:15Z</time></trkpt><trkpt lat="36.8433888" lon="138.6866248"><ele>2119.9933333333333</ele><time>2023-02-17T02:19:29Z</time></trkpt><trkpt lat="36.8434581" lon="138.6868333"><ele>2120.9266666666667</ele><time>2023-02-17T02:19:51Z</time></trkpt><trkpt lat="36.843521" lon="138.6870456"><ele>2122.0533333333333</ele><time>2023-02-17T02:20:09Z</time></trkpt><trkpt lat="36.8436505" lon="138.6872113"><ele>2123.31</ele><time>2023-02-17T02:20:47Z</time></trkpt><trkpt lat="36.8437828" lon="138.6873637"><ele>2124.646666666667</ele><time>2023-02-17T02:21:11Z</time></trkpt><trkpt lat="36.8439107" lon="138.6875268"><ele>2125.883333333333</ele><time>2023-02-17T02:21:36Z</time></trkpt><trkpt lat="36.8440432" lon="138.6876832"><ele>2127.103333333333</ele><time>2023-02-17T02:22:03Z</time></trkpt><trkpt lat="36.844178" lon="138.6878329"><ele>2128.4333333333334</ele><time>2023-02-17T02:22:27Z</time></trkpt><trkpt lat="36.8442786" lon="138.6880244"><ele>2130.0933333333332</ele><time>2023-02-17T02:22:51Z</time></trkpt><trkpt lat="36.844408" lon="138.6881853"><ele>2131.866666666667</ele><time>2023-02-17T02:23:19Z</time></trkpt><trkpt lat="36.8444998" lon="138.6883796"><ele>2133.38</ele><time>2023-02-17T02:23:45Z</time></trkpt><trkpt lat="36.8446029" lon="138.6885742"><ele>2134.866666666667</ele><time>2023-02-17T02:24:04Z</time></trkpt><trkpt lat="36.8447175" lon="138.6887674"><ele>2135.9166666666665</ele><time>2023-02-17T02:24:18Z</time></trkpt><trkpt lat="36.84482" lon="138.6889545"><ele>2136.866666666667</ele><time>2023-02-17T02:24:38Z</time></trkpt><trkpt lat="36.8449112" lon="138.6891556"><ele>2137.5400000000004</ele><time>2023-02-17T02:24:59Z</time></trkpt><trkpt lat="36.8450131" lon="138.6893448"><ele>2138.46</ele><time>2023-02-17T02:25:17Z</time></trkpt><trkpt lat="36.8451131" lon="138.689535"><ele>2139.2533333333336</ele><time>2023-02-17T02:26:00Z</time></trkpt><trkpt lat="36.8452766" lon="138.6896388"><ele>2139.94</ele><time>2023-02-17T02:26:21Z</time></trkpt><trkpt lat="36.8454336" lon="138.6897492"><ele>2140.4833333333336</ele><time>2023-02-17T02:26:44Z</time></trkpt><trkpt lat="36.845541" lon="138.6899328"><ele>2141.01</ele><time>2023-02-17T02:27:00Z</time></trkpt><trkpt lat="36.84569" lon="138.6900652"><ele>2141.5533333333337</ele><time>2023-02-17T02:27:19Z</time></trkpt><trkpt lat="36.8458073" lon="138.6902398"><ele>2142.27</ele><time>2023-02-17T02:27:52Z</time></trkpt><trkpt lat="36.8451912" lon="138.6896549"><ele>2141.86</ele><time>2023-02-17T02:45:09Z</time></trkpt><trkpt lat="36.8449691" lon="138.6894123"><ele>2140.7900000000004</ele><time>2023-02-17T02:45:12Z</time></trkpt><trkpt lat="36.8448885" lon="138.6892057"><ele>2139.1633333333334</ele><time>2023-02-17T02:45:18Z</time></trkpt><trkpt lat="36.8447611" lon="138.6890071"><ele>2138.1966666666667</ele><time>2023-02-17T02:45:26Z</time></trkpt><trkpt lat="36.844609" lon="138.6888198"><ele>2137.42</ele><time>2023-02-17T02:45:32Z</time></trkpt><trkpt lat="36.8444656" lon="138.6886052"><ele>2136.2466666666664</ele><time>2023-02-17T02:45:39Z</time></trkpt><trkpt lat="36.8443342" lon="138.6884003"><ele>2134.7966666666666</ele><time>2023-02-17T02:45:45Z</time></trkpt><trkpt lat="36.8442412" lon="138.6881985"><ele>2132.9900000000002</ele><time>2023-02-17T02:45:51Z</time></trkpt><trkpt lat="36.8441715" lon="138.6879494"><ele>2131.3766666666666</ele><time>2023-02-17T02:46:17Z</time></trkpt><trkpt lat="36.8439933" lon="138.687681"><ele>2129.8266666666664</ele><time>2023-02-17T02:46:27Z</time></trkpt><trkpt lat="36.8438592" lon="138.6875221"><ele>2128.43</ele><time>2023-02-17T02:46:32Z</time></trkpt><trkpt lat="36.8437338" lon="138.6873417"><ele>2126.8766666666666</ele><time>2023-02-17T02:46:41Z</time></trkpt><trkpt lat="36.8436485" lon="138.6871317"><ele>2125.633333333333</ele><time>2023-02-17T02:47:03Z</time></trkpt><trkpt lat="36.8434727" lon="138.6870118"><ele>2124.14</ele><time>2023-02-17T02:47:11Z</time></trkpt><trkpt lat="36.8433762" lon="138.6868046"><ele>2122.806666666667</ele><time>2023-02-17T02:47:26Z</time></trkpt><trkpt lat="36.8433581" lon="138.6865147"><ele>2121.2533333333336</ele><time>2023-02-17T02:48:02Z</time></trkpt><trkpt lat="36.8433477" lon="138.6862774"><ele>2119.94</ele><time>2023-02-17T02:48:09Z</time></trkpt><trkpt lat="36.8434415" lon="138.6860567"><ele>2118.7099999999996</ele><time>2023-02-17T02:48:29Z</time></trkpt><trkpt lat="36.8435059" lon="138.6858431"><ele>2117.536666666667</ele><time>2023-02-17T02:48:44Z</time></trkpt><trkpt lat="36.8435672" lon="138.6856001"><ele>2115.72</ele><time>2023-02-17T02:48:57Z</time></trkpt><trkpt lat="36.8436573" lon="138.6853707"><ele>2113.3533333333335</ele><time>2023-02-17T02:49:09Z</time></trkpt><trkpt lat="36.8437559" lon="138.6851225"><ele>2110.2233333333334</ele><time>2023-02-17T02:49:21Z</time></trkpt><trkpt lat="36.8439801" lon="138.6846835"><ele>2106.0066666666667</ele><time>2023-02-17T02:50:03Z</time></trkpt><trkpt lat="36.8440601" lon="138.6844436"><ele>2101.2833333333333</ele><time>2023-02-17T02:50:06Z</time></trkpt><trkpt lat="36.8441247" lon="138.6841812"><ele>2096.5533333333333</ele><time>2023-02-17T02:50:12Z</time></trkpt><trkpt lat="36.8441429" lon="138.683897"><ele>2092.596666666667</ele><time>2023-02-17T02:50:18Z</time></trkpt><trkpt lat="36.8441816" lon="138.6836743"><ele>2088.883333333333</ele><time>2023-02-17T02:50:24Z</time></trkpt><trkpt lat="36.8442108" lon="138.6834174"><ele>2084.9166666666665</ele><time>2023-02-17T02:50:30Z</time></trkpt><trkpt lat="36.8442525" lon="138.6831659"><ele>2080.2000000000003</ele><time>2023-02-17T02:50:33Z</time></trkpt><trkpt lat="36.8442348" lon="138.6827148"><ele>2073.9833333333336</ele><time>2023-02-17T02:50:39Z</time></trkpt><trkpt lat="36.8442015" lon="138.6824644"><ele>2069.3933333333334</ele><time>2023-02-17T02:50:42Z</time></trkpt><trkpt lat="36.844112" lon="138.682243"><ele>2065.0366666666664</ele><time>2023-02-17T02:50:48Z</time></trkpt><trkpt lat="36.8438383" lon="138.6818772"><ele>2059.4600000000005</ele><time>2023-02-17T02:50:54Z</time></trkpt><trkpt lat="36.8437977" lon="138.6816503"><ele>2053.013333333333</ele><time>2023-02-17T02:51:03Z</time></trkpt><trkpt lat="36.8435342" lon="138.681173"><ele>2044.0733333333335</ele><time>2023-02-17T02:51:21Z</time></trkpt><trkpt lat="36.8434957" lon="138.6808731"><ele>2037.7933333333333</ele><time>2023-02-17T02:51:24Z</time></trkpt><trkpt lat="36.8434768" lon="138.6806262"><ele>2031.8266666666668</ele><time>2023-02-17T02:51:27Z</time></trkpt><trkpt lat="36.8434355" lon="138.6803148"><ele>2029.7700000000002</ele><time>2023-02-17T02:51:33Z</time></trkpt><trkpt lat="36.8433832" lon="138.6800445"><ele>2028.3</ele><time>2023-02-17T02:51:39Z</time></trkpt><trkpt lat="36.8433801" lon="138.6797811"><ele>2026.493333333333</ele><time>2023-02-17T03:04:03Z</time></trkpt><trkpt lat="36.843284" lon="138.6795508"><ele>2024.7533333333333</ele><time>2023-02-17T03:04:07Z</time></trkpt><trkpt lat="36.843207" lon="138.6793034"><ele>2022.96</ele><time>2023-02-17T03:04:10Z</time></trkpt><trkpt lat="36.8431363" lon="138.6790599"><ele>2021.5200000000002</ele><time>2023-02-17T03:04:14Z</time></trkpt><trkpt lat="36.843068" lon="138.6788447"><ele>2019.8733333333332</ele><time>2023-02-17T03:04:24Z</time></trkpt><trkpt lat="36.8429878" lon="138.6786336"><ele>2018.4700000000003</ele><time>2023-02-17T03:05:32Z</time></trkpt><trkpt lat="36.8430359" lon="138.6783894"><ele>2016.6500000000003</ele><time>2023-02-17T03:05:38Z</time></trkpt><trkpt lat="36.8430452" lon="138.6781252"><ele>2015.2333333333336</ele><time>2023-02-17T03:05:47Z</time></trkpt><trkpt lat="36.8431121" lon="138.6779084"><ele>2013.67</ele><time>2023-02-17T03:05:54Z</time></trkpt><trkpt lat="36.8432134" lon="138.6777062"><ele>2012.4333333333334</ele><time>2023-02-17T03:06:05Z</time></trkpt><trkpt lat="36.8433769" lon="138.6775448"><ele>2010.46</ele><time>2023-02-17T03:06:16Z</time></trkpt><trkpt lat="36.8434829" lon="138.6773585"><ele>2008.14</ele><time>2023-02-17T03:06:25Z</time></trkpt><trkpt lat="36.8434957" lon="138.6770494"><ele>2005.3233333333335</ele><time>2023-02-17T03:07:13Z</time></trkpt><trkpt lat="36.8435166" lon="138.6767822"><ele>2003.5133333333333</ele><time>2023-02-17T03:07:17Z</time></trkpt><trkpt lat="36.8435555" lon="138.6765438"><ele>2003.4399999999998</ele><time>2023-02-17T03:07:26Z</time></trkpt><trkpt lat="36.8437087" lon="138.6764071"><ele>2001.9266666666665</ele><time>2023-02-17T03:08:16Z</time></trkpt><trkpt lat="36.8438866" lon="138.6762922"><ele>1998.4666666666665</ele><time>2023-02-17T03:08:22Z</time></trkpt><trkpt lat="36.8440404" lon="138.6761619"><ele>1991.6033333333335</ele><time>2023-02-17T03:08:25Z</time></trkpt><trkpt lat="36.8442103" lon="138.676018"><ele>1983.3233333333335</ele><time>2023-02-17T03:08:32Z</time></trkpt><trkpt lat="36.8445365" lon="138.6758999"><ele>1969.6966666666667</ele><time>2023-02-17T03:09:04Z</time></trkpt><trkpt lat="36.8447463" lon="138.6758442"><ele>1953.7866666666666</ele><time>2023-02-17T03:09:08Z</time></trkpt><trkpt lat="36.8449289" lon="138.6757767"><ele>1938.2300000000002</ele><time>2023-02-17T03:09:18Z</time></trkpt><trkpt lat="36.8451156" lon="138.6756993"><ele>1925.0033333333333</ele><time>2023-02-17T03:09:23Z</time></trkpt><trkpt lat="36.8452951" lon="138.6757349"><ele>1911.6366666666665</ele><time>2023-02-17T03:09:25Z</time></trkpt><trkpt lat="36.8454677" lon="138.675482"><ele>1898.1533333333334</ele><time>2023-02-17T03:09:55Z</time></trkpt><trkpt lat="36.8457662" lon="138.6754063"><ele>1879.1499999999999</ele><time>2023-02-17T03:09:59Z</time></trkpt><trkpt lat="36.8459239" lon="138.6755246"><ele>1861.1900000000003</ele><time>2023-02-17T03:10:40Z</time></trkpt><trkpt lat="36.8460859" lon="138.6756996"><ele>1843.92</ele><time>2023-02-17T03:10:49Z</time></trkpt><trkpt lat="36.846258" lon="138.6758992"><ele>1831.5100000000002</ele><time>2023-02-17T03:10:58Z</time></trkpt><trkpt lat="36.8463535" lon="138.6762561"><ele>1818.6833333333334</ele><time>2023-02-17T03:11:08Z</time></trkpt><trkpt lat="36.8464411" lon="138.6765763"><ele>1805.0500000000002</ele><time>2023-02-17T03:11:13Z</time></trkpt><trkpt lat="36.8466915" lon="138.676851"><ele>1792.7166666666665</ele><time>2023-02-17T03:11:17Z</time></trkpt><trkpt lat="36.8469197" lon="138.6770224"><ele>1783.5866666666668</ele><time>2023-02-17T03:11:19Z</time></trkpt><trkpt lat="36.84715" lon="138.6772176"><ele>1776.7666666666667</ele><time>2023-02-17T03:11:22Z</time></trkpt><trkpt lat="36.847354" lon="138.6774345"><ele>1772.9566666666667</ele><time>2023-02-17T03:11:28Z</time></trkpt><trkpt lat="36.847529" lon="138.677573"><ele>1769.7900000000002</ele><time>2023-02-17T03:11:41Z</time></trkpt><trkpt lat="36.8476994" lon="138.6776788"><ele>1767.9333333333332</ele><time>2023-02-17T03:16:46Z</time></trkpt><trkpt lat="36.847869" lon="138.6775414"><ele>1765.3166666666666</ele><time>2023-02-17T03:17:55Z</time></trkpt><trkpt lat="36.8480382" lon="138.6776261"><ele>1761.2833333333335</ele><time>2023-02-17T03:18:25Z</time></trkpt><trkpt lat="36.8482029" lon="138.6777505"><ele>1755.0233333333333</ele><time>2023-02-17T03:18:40Z</time></trkpt><trkpt lat="36.8482858" lon="138.6779627"><ele>1750.45</ele><time>2023-02-17T03:18:46Z</time></trkpt><trkpt lat="36.8485198" lon="138.6777472"><ele>1738.2900000000002</ele><time>2023-02-17T03:19:37Z</time></trkpt><trkpt lat="36.8488155" lon="138.6778897"><ele>1722.1899999999998</ele><time>2023-02-17T03:19:44Z</time></trkpt><trkpt lat="36.849049" lon="138.677659"><ele>1700.1666666666667</ele><time>2023-02-17T03:19:49Z</time></trkpt><trkpt lat="36.8492303" lon="138.6777031"><ele>1683.7300000000002</ele><time>2023-02-17T03:19:52Z</time></trkpt><trkpt lat="36.849499" lon="138.6776882"><ele>1669.1733333333334</ele><time>2023-02-17T03:19:56Z</time></trkpt><trkpt lat="36.8499396" lon="138.6775952"><ele>1657.3933333333334</ele><time>2023-02-17T03:20:01Z</time></trkpt><trkpt lat="36.8500624" lon="138.6773961"><ele>1647.1533333333334</ele><time>2023-02-17T03:20:08Z</time></trkpt><trkpt lat="36.8502641" lon="138.6773374"><ele>1641.2066666666667</ele><time>2023-02-17T03:22:20Z</time></trkpt><trkpt lat="36.8504453" lon="138.6773308"><ele>1638.3833333333332</ele><time>2023-02-17T03:22:24Z</time></trkpt><trkpt lat="36.8505947" lon="138.6771549"><ele>1635.28</ele><time>2023-02-17T03:22:28Z</time></trkpt><trkpt lat="36.8507284" lon="138.6769522"><ele>1631.1666666666667</ele><time>2023-02-17T03:22:34Z</time></trkpt><trkpt lat="36.8508657" lon="138.6767866"><ele>1626.28</ele><time>2023-02-17T03:22:40Z</time></trkpt><trkpt lat="36.8510083" lon="138.676646"><ele>1623.0933333333332</ele><time>2023-02-17T03:22:49Z</time></trkpt><trkpt lat="36.8511898" lon="138.676639"><ele>1619.1999999999998</ele><time>2023-02-17T03:26:18Z</time></trkpt><trkpt lat="36.851411" lon="138.676532"><ele>1614.3633333333335</ele><time>2023-02-17T03:26:22Z</time></trkpt><trkpt lat="36.8515532" lon="138.6763328"><ele>1609.57</ele><time>2023-02-17T03:26:25Z</time></trkpt><trkpt lat="36.8516297" lon="138.6760974"><ele>1605.3566666666666</ele><time>2023-02-17T03:26:33Z</time></trkpt><trkpt lat="36.8517369" lon="138.6758696"><ele>1602.5666666666668</ele><time>2023-02-17T03:26:42Z</time></trkpt><trkpt lat="36.8518586" lon="138.6756956"><ele>1600.58</ele><time>2023-02-17T03:26:49Z</time></trkpt><trkpt lat="36.8518582" lon="138.67539"><ele>1598.4233333333334</ele><time>2023-02-17T03:27:31Z</time></trkpt><trkpt lat="36.8517992" lon="138.675148"><ele>1595.6133333333335</ele><time>2023-02-17T03:27:35Z</time></trkpt><trkpt lat="36.8517388" lon="138.6749082"><ele>1592.3566666666668</ele><time>2023-02-17T03:27:41Z</time></trkpt><trkpt lat="36.8516636" lon="138.6746878"><ele>1590.1733333333334</ele><time>2023-02-17T03:27:48Z</time></trkpt><trkpt lat="36.8516951" lon="138.6744242"><ele>1588.2133333333334</ele><time>2023-02-17T03:27:52Z</time></trkpt><trkpt lat="36.8517169" lon="138.674163"><ele>1585.9399999999998</ele><time>2023-02-17T03:27:57Z</time></trkpt><trkpt lat="36.8517972" lon="138.6738567"><ele>1581.7533333333333</ele><time>2023-02-17T03:33:14Z</time></trkpt><trkpt lat="36.8519704" lon="138.6736468"><ele>1574.5433333333333</ele><time>2023-02-17T03:33:17Z</time></trkpt><trkpt lat="36.8521227" lon="138.6734834"><ele>1565.95</ele><time>2023-02-17T03:33:20Z</time></trkpt><trkpt lat="36.8522516" lon="138.6732777"><ele>1557.6566666666668</ele><time>2023-02-17T03:33:23Z</time></trkpt><trkpt lat="36.8523538" lon="138.6730544"><ele>1552.3866666666665</ele><time>2023-02-17T03:33:26Z</time></trkpt><trkpt lat="36.8524745" lon="138.6726731"><ele>1546.0866666666668</ele><time>2023-02-17T03:33:31Z</time></trkpt><trkpt lat="36.8525753" lon="138.6723248"><ele>1539.0133333333333</ele><time>2023-02-17T03:33:35Z</time></trkpt><trkpt lat="36.852559" lon="138.6719679"><ele>1531.9533333333336</ele><time>2023-02-17T03:33:40Z</time></trkpt><trkpt lat="36.8526036" lon="138.6715882"><ele>1525.9866666666667</ele><time>2023-02-17T03:33:46Z</time></trkpt><trkpt lat="36.8526904" lon="138.671136"><ele>1519.4233333333334</ele><time>2023-02-17T03:33:53Z</time></trkpt><trkpt lat="36.8528053" lon="138.670745"><ele>1511.216666666667</ele><time>2023-02-17T03:33:59Z</time></trkpt><trkpt lat="36.8528171" lon="138.6702567"><ele>1500.75</ele><time>2023-02-17T03:34:05Z</time></trkpt><trkpt lat="36.8528298" lon="138.6699912"><ele>1491.6800000000003</ele><time>2023-02-17T03:34:10Z</time></trkpt><trkpt lat="36.8527645" lon="138.6697779"><ele>1484.8433333333335</ele><time>2023-02-17T03:37:12Z</time></trkpt><trkpt lat="36.8528181" lon="138.6694195"><ele>1477.7233333333334</ele><time>2023-02-17T03:37:16Z</time></trkpt><trkpt lat="36.8528584" lon="138.6691648"><ele>1469.0600000000002</ele><time>2023-02-17T03:37:23Z</time></trkpt><trkpt lat="36.8530825" lon="138.6691529"><ele>1454.5866666666668</ele><time>2023-02-17T03:37:34Z</time></trkpt><trkpt lat="36.853311" lon="138.6687668"><ele>1437.6966666666667</ele><time>2023-02-17T03:37:46Z</time></trkpt><trkpt lat="36.853405" lon="138.6685102"><ele>1419.746666666667</ele><time>2023-02-17T03:37:49Z</time></trkpt><trkpt lat="36.8535254" lon="138.668168"><ele>1405.7300000000002</ele><time>2023-02-17T03:37:52Z</time></trkpt><trkpt lat="36.8536628" lon="138.6678234"><ele>1396.2766666666666</ele><time>2023-02-17T03:37:55Z</time></trkpt><trkpt lat="36.8537786" lon="138.6675444"><ele>1389.4833333333333</ele><time>2023-02-17T03:37:58Z</time></trkpt><trkpt lat="36.8538262" lon="138.6671701"><ele>1382.01</ele><time>2023-02-17T03:38:02Z</time></trkpt><trkpt lat="36.8538809" lon="138.6668145"><ele>1373.13</ele><time>2023-02-17T03:38:07Z</time></trkpt><trkpt lat="36.8539778" lon="138.6665615"><ele>1363.38</ele><time>2023-02-17T03:38:10Z</time></trkpt><trkpt lat="36.8540816" lon="138.6662792"><ele>1354.5733333333335</ele><time>2023-02-17T03:38:13Z</time></trkpt><trkpt lat="36.8540464" lon="138.6660185"><ele>1349.5766666666666</ele><time>2023-02-17T03:38:19Z</time></trkpt><trkpt lat="36.8541027" lon="138.6657633"><ele>1346.0533333333335</ele><time>2023-02-17T03:38:55Z</time></trkpt><trkpt lat="36.8541789" lon="138.6655535"><ele>1343.756666666667</ele><time>2023-02-17T03:39:10Z</time></trkpt><trkpt lat="36.8543275" lon="138.6653256"><ele>1339.55</ele><time>2023-02-17T03:39:16Z</time></trkpt><trkpt lat="36.8544611" lon="138.6651175"><ele>1334.7633333333333</ele><time>2023-02-17T03:39:22Z</time></trkpt><trkpt lat="36.8545678" lon="138.6649036"><ele>1329.9666666666665</ele><time>2023-02-17T03:39:25Z</time></trkpt><trkpt lat="36.8545917" lon="138.6645621"><ele>1325.5433333333333</ele><time>2023-02-17T03:39:31Z</time></trkpt><trkpt lat="36.8546271" lon="138.6643295"><ele>1321.7833333333335</ele><time>2023-02-17T03:39:34Z</time></trkpt><trkpt lat="36.854644" lon="138.6639983"><ele>1317.8133333333333</ele><time>2023-02-17T03:39:40Z</time></trkpt><trkpt lat="36.8545782" lon="138.6637874"><ele>1315.38</ele><time>2023-02-17T03:40:31Z</time></trkpt><trkpt lat="36.8545267" lon="138.6635697"><ele>1313.3533333333335</ele><time>2023-02-17T03:40:56Z</time></trkpt><trkpt lat="36.8545189" lon="138.6633442"><ele>1311.97</ele><time>2023-02-17T03:41:10Z</time></trkpt><trkpt lat="36.854522" lon="138.6631143"><ele>1310.5133333333333</ele><time>2023-02-17T03:42:30Z</time></trkpt><trkpt lat="36.8544819" lon="138.6628935"><ele>1310.26</ele><time>2023-02-17T03:43:01Z</time></trkpt><trkpt lat="36.8545252" lon="138.6626717"><ele>1309.8666666666668</ele><time>2023-02-17T03:43:34Z</time></trkpt><trkpt lat="36.8544962" lon="138.6624356"><ele>1309.3366666666668</ele><time>2023-02-17T03:44:27Z</time></trkpt><trkpt lat="36.8545528" lon="138.6622155"><ele>1307.9266666666667</ele><time>2023-02-17T03:44:52Z</time></trkpt><trkpt lat="36.8546193" lon="138.6620053"><ele>1307.4333333333334</ele><time>2023-02-17T03:45:15Z</time></trkpt><trkpt lat="36.8547021" lon="138.661799"><ele>1307.7733333333333</ele><time>2023-02-17T03:45:39Z</time></trkpt><trkpt lat="36.8545936" lon="138.661597"><ele>1306.756666666667</ele><time>2023-02-17T03:48:13Z</time></trkpt><trkpt lat="36.8545853" lon="138.6613361"><ele>1303.2266666666667</ele><time>2023-02-17T03:54:04Z</time></trkpt><trkpt lat="36.8546463" lon="138.6611133"><ele>1297.1633333333332</ele><time>2023-02-17T03:54:10Z</time></trkpt><trkpt lat="36.8548214" lon="138.6610084"><ele>1291.2233333333334</ele><time>2023-02-17T03:54:13Z</time></trkpt><trkpt lat="36.8550129" lon="138.6608143"><ele>1287.33</ele><time>2023-02-17T03:54:16Z</time></trkpt><trkpt lat="36.8551181" lon="138.6606114"><ele>1285.5066666666667</ele><time>2023-02-17T03:54:25Z</time></trkpt><trkpt lat="36.855117" lon="138.6603848"><ele>1284.29</ele><time>2023-02-17T03:54:31Z</time></trkpt><trkpt lat="36.855249" lon="138.6601889"><ele>1281.7166666666667</ele><time>2023-02-17T03:55:04Z</time></trkpt><trkpt lat="36.8553407" lon="138.6599853"><ele>1278.2833333333333</ele><time>2023-02-17T03:55:08Z</time></trkpt><trkpt lat="36.8554222" lon="138.6597616"><ele>1275.4833333333333</ele><time>2023-02-17T03:55:15Z</time></trkpt><trkpt lat="36.8555754" lon="138.6595847"><ele>1273.4233333333334</ele><time>2023-02-17T03:55:25Z</time></trkpt><trkpt lat="36.855708" lon="138.6594263"><ele>1271.5466666666669</ele><time>2023-02-17T03:55:32Z</time></trkpt><trkpt lat="36.8557742" lon="138.6591995"><ele>1268.79</ele><time>2023-02-17T03:55:46Z</time></trkpt><trkpt lat="36.8558566" lon="138.6589903"><ele>1265.9766666666667</ele><time>2023-02-17T03:55:49Z</time></trkpt><trkpt lat="36.8559231" lon="138.6587589"><ele>1262.1966666666667</ele><time>2023-02-17T03:55:56Z</time></trkpt><trkpt lat="36.8560553" lon="138.658491"><ele>1257.5166666666667</ele><time>2023-02-17T03:57:14Z</time></trkpt><trkpt lat="36.8561107" lon="138.6582399"><ele>1251.2533333333333</ele><time>2023-02-17T03:57:16Z</time></trkpt><trkpt lat="36.8561712" lon="138.6579903"><ele>1241.96</ele><time>2023-02-17T03:57:19Z</time></trkpt><trkpt lat="36.8562475" lon="138.6577319"><ele>1231.7633333333333</ele><time>2023-02-17T03:57:23Z</time></trkpt><trkpt lat="36.8563885" lon="138.6575132"><ele>1221.1833333333334</ele><time>2023-02-17T03:57:31Z</time></trkpt><trkpt lat="36.8565294" lon="138.6572982"><ele>1212.1733333333334</ele><time>2023-02-17T03:57:38Z</time></trkpt><trkpt lat="36.8565189" lon="138.6570304"><ele>1203.18</ele><time>2023-02-17T03:57:46Z</time></trkpt><trkpt lat="36.8564959" lon="138.6567571"><ele>1194.6000000000001</ele><time>2023-02-17T03:58:07Z</time></trkpt><trkpt lat="36.8563835" lon="138.6563837"><ele>1184.6733333333334</ele><time>2023-02-17T03:58:11Z</time></trkpt><trkpt lat="36.856316" lon="138.6561755"><ele>1176.45</ele><time>2023-02-17T03:58:14Z</time></trkpt><trkpt lat="36.8562495" lon="138.6559604"><ele>1169.7366666666667</ele><time>2023-02-17T03:58:18Z</time></trkpt><trkpt lat="36.8562525" lon="138.6557239"><ele>1165.8466666666666</ele><time>2023-02-17T03:58:28Z</time></trkpt><trkpt lat="36.8563072" lon="138.6554686"><ele>1162.18</ele><time>2023-02-17T03:58:32Z</time></trkpt><trkpt lat="36.8563881" lon="138.6552317"><ele>1158.4766666666667</ele><time>2023-02-17T03:58:40Z</time></trkpt><trkpt lat="36.8563223" lon="138.654997"><ele>1155.2266666666667</ele><time>2023-02-17T03:58:52Z</time></trkpt><trkpt lat="36.8561855" lon="138.6548273"><ele>1148.3400000000001</ele><time>2023-02-17T04:06:25Z</time></trkpt><trkpt lat="36.8559922" lon="138.6548777"><ele>1139.49</ele><time>2023-02-17T04:07:00Z</time></trkpt><trkpt lat="36.8557742" lon="138.6548376"><ele>1127.0333333333335</ele><time>2023-02-17T04:07:05Z</time></trkpt><trkpt lat="36.8555804" lon="138.6547829"><ele>1117.4533333333334</ele><time>2023-02-17T04:07:09Z</time></trkpt><trkpt lat="36.8556589" lon="138.6545667"><ele>1109.66</ele><time>2023-02-17T04:07:15Z</time></trkpt><trkpt lat="36.8558045" lon="138.6543914"><ele>1105.7766666666666</ele><time>2023-02-17T04:07:20Z</time></trkpt><trkpt lat="36.8557748" lon="138.654151"><ele>1101.8866666666668</ele><time>2023-02-17T04:07:29Z</time></trkpt><trkpt lat="36.8557306" lon="138.6539322"><ele>1098.1033333333335</ele><time>2023-02-17T04:08:32Z</time></trkpt><trkpt lat="36.8557583" lon="138.653677"><ele>1095.986666666667</ele><time>2023-02-17T04:20:38Z</time></trkpt><trkpt lat="36.8558569" lon="138.6534022"><ele>1095.986666666667</ele><time>2023-02-17T04:20:40Z</time></trkpt><trkpt lat="36.8559555" lon="138.6531705"><ele>1096.0433333333333</ele><time>2023-02-17T04:20:45Z</time></trkpt><trkpt lat="36.8559897" lon="138.6528871"><ele>1094.16</ele><time>2023-02-17T04:20:50Z</time></trkpt><trkpt lat="36.8559607" lon="138.6526324"><ele>1090.5766666666666</ele><time>2023-02-17T04:20:53Z</time></trkpt><trkpt lat="36.8559335" lon="138.6523696"><ele>1085.8033333333333</ele><time>2023-02-17T04:20:56Z</time></trkpt><trkpt lat="36.8558732" lon="138.6520004"><ele>1078.5733333333333</ele><time>2023-02-17T04:21:02Z</time></trkpt><trkpt lat="36.8558425" lon="138.6517583"><ele>1070.9733333333334</ele><time>2023-02-17T04:21:08Z</time></trkpt><trkpt lat="36.8558739" lon="138.6512945"><ele>1063.4966666666667</ele><time>2023-02-17T04:21:13Z</time></trkpt><trkpt lat="36.8558877" lon="138.6510703"><ele>1057.8433333333335</ele><time>2023-02-17T04:21:16Z</time></trkpt><trkpt lat="36.8559205" lon="138.650732"><ele>1050.31</ele><time>2023-02-17T04:21:23Z</time></trkpt><trkpt lat="36.8561297" lon="138.6504062"><ele>1042.2166666666665</ele><time>2023-02-17T04:21:32Z</time></trkpt><trkpt lat="36.8563965" lon="138.6500473"><ele>1033.11</ele><time>2023-02-17T04:21:38Z</time></trkpt><trkpt lat="36.8565365" lon="138.6498357"><ele>1025.2933333333333</ele><time>2023-02-17T04:21:43Z</time></trkpt><trkpt lat="36.8568127" lon="138.6495744"><ele>1016.8333333333334</ele><time>2023-02-17T04:21:50Z</time></trkpt><trkpt lat="36.8569943" lon="138.6494093"><ele>1009.0566666666667</ele><time>2023-02-17T04:21:56Z</time></trkpt><trkpt lat="36.8571509" lon="138.6492086"><ele>1002.39</ele><time>2023-02-17T04:22:02Z</time></trkpt><trkpt lat="36.8573418" lon="138.6489483"><ele>997.4733333333334</ele><time>2023-02-17T04:22:08Z</time></trkpt><trkpt lat="36.8575231" lon="138.6488522"><ele>993.5533333333334</ele><time>2023-02-17T04:27:11Z</time></trkpt><trkpt lat="36.857741" lon="138.6487539"><ele>989.6533333333333</ele><time>2023-02-17T04:27:20Z</time></trkpt><trkpt lat="36.8579668" lon="138.6486173"><ele>986.15</ele><time>2023-02-17T04:27:26Z</time></trkpt><trkpt lat="36.8582642" lon="138.6484822"><ele>981.9433333333333</ele><time>2023-02-17T04:27:32Z</time></trkpt><trkpt lat="36.8580869" lon="138.6484411"><ele>979.33</ele><time>2023-02-17T04:27:43Z</time></trkpt><trkpt lat="36.8579363" lon="138.6482589"><ele>976.34</ele><time>2023-02-17T04:27:55Z</time></trkpt><trkpt lat="36.8581124" lon="138.6479589"><ele>974.0666666666667</ele><time>2023-02-17T04:28:04Z</time></trkpt><trkpt lat="36.8583561" lon="138.6477106"><ele>970.7633333333333</ele><time>2023-02-17T04:28:10Z</time></trkpt><trkpt lat="36.8585395" lon="138.6477544"><ele>968.0233333333332</ele><time>2023-02-17T04:28:16Z</time></trkpt><trkpt lat="36.8586741" lon="138.6480456"><ele>965.6366666666668</ele><time>2023-02-17T04:28:23Z</time></trkpt><trkpt lat="36.8589021" lon="138.6482162"><ele>959.8233333333334</ele><time>2023-02-17T04:28:28Z</time></trkpt><trkpt lat="36.8589861" lon="138.6479935"><ele>953.8933333333334</ele><time>2023-02-17T04:28:51Z</time></trkpt><trkpt lat="36.8589355" lon="138.6477673"><ele>948.8666666666668</ele><time>2023-02-17T04:28:58Z</time></trkpt><trkpt lat="36.8588091" lon="138.6475932"><ele>948.3166666666667</ele><time>2023-02-17T04:29:03Z</time></trkpt><trkpt lat="36.858917" lon="138.6474121"><ele>948.39</ele><time>2023-02-17T04:29:10Z</time></trkpt><trkpt lat="36.8591268" lon="138.6475102"><ele>947.5</ele><time>2023-02-17T04:29:15Z</time></trkpt><trkpt lat="36.8593523" lon="138.6475477"><ele>945.6</ele><time>2023-02-17T04:29:20Z</time></trkpt><trkpt lat="36.8595423" lon="138.6475178"><ele>943.0166666666668</ele><time>2023-02-17T04:29:23Z</time></trkpt><trkpt lat="36.8596939" lon="138.647371"><ele>939.29</ele><time>2023-02-17T04:29:27Z</time></trkpt><trkpt lat="36.8598138" lon="138.6471456"><ele>935.5166666666668</ele><time>2023-02-17T04:29:31Z</time></trkpt><trkpt lat="36.8598875" lon="138.6469288"><ele>931.9933333333333</ele><time>2023-02-17T04:29:36Z</time></trkpt><trkpt lat="36.8600204" lon="138.6467003"><ele>928.7966666666667</ele><time>2023-02-17T04:29:40Z</time></trkpt><trkpt lat="36.8601541" lon="138.646474"><ele>925.9466666666667</ele><time>2023-02-17T04:29:44Z</time></trkpt><trkpt lat="36.8602885" lon="138.6462907"><ele>922.4533333333334</ele><time>2023-02-17T04:29:48Z</time></trkpt><trkpt lat="36.8604072" lon="138.6461184"><ele>918.46</ele><time>2023-02-17T04:29:51Z</time></trkpt><trkpt lat="36.8604974" lon="138.6459169"><ele>914.71</ele><time>2023-02-17T04:29:54Z</time></trkpt><trkpt lat="36.8605703" lon="138.6456478"><ele>910.9533333333334</ele><time>2023-02-17T04:29:58Z</time></trkpt><trkpt lat="36.8606339" lon="138.6454356"><ele>908.3866666666667</ele><time>2023-02-17T04:30:02Z</time></trkpt><trkpt lat="36.8607177" lon="138.6451804"><ele>905.6333333333333</ele><time>2023-02-17T04:30:07Z</time></trkpt><trkpt lat="36.8607805" lon="138.6449592"><ele>903.4900000000001</ele><time>2023-02-17T04:30:11Z</time></trkpt><trkpt lat="36.8608729" lon="138.644718"><ele>900.5366666666665</ele><time>2023-02-17T04:30:15Z</time></trkpt><trkpt lat="36.8609836" lon="138.6444594"><ele>896.4266666666666</ele><time>2023-02-17T04:30:19Z</time></trkpt><trkpt lat="36.8610582" lon="138.6442486"><ele>891.5833333333334</ele><time>2023-02-17T04:30:22Z</time></trkpt><trkpt lat="36.8611355" lon="138.6440073"><ele>887.4066666666668</ele><time>2023-02-17T04:30:25Z</time></trkpt><trkpt lat="36.861229" lon="138.6437386"><ele>884.1166666666667</ele><time>2023-02-17T04:30:28Z</time></trkpt><trkpt lat="36.8613097" lon="138.643482"><ele>882.1966666666667</ele><time>2023-02-17T04:30:31Z</time></trkpt><trkpt lat="36.8613783" lon="138.6432613"><ele>880.5033333333334</ele><time>2023-02-17T04:30:34Z</time></trkpt><trkpt lat="36.8614483" lon="138.6430178"><ele>878.0533333333333</ele><time>2023-02-17T04:30:38Z</time></trkpt><trkpt lat="36.8615464" lon="138.6427606"><ele>874.8333333333334</ele><time>2023-02-17T04:30:42Z</time></trkpt><trkpt lat="36.8616506" lon="138.6425193"><ele>870.8066666666667</ele><time>2023-02-17T04:30:46Z</time></trkpt><trkpt lat="36.8617741" lon="138.6422681"><ele>867.1833333333334</ele><time>2023-02-17T04:30:50Z</time></trkpt><trkpt lat="36.8618514" lon="138.6420652"><ele>863.7800000000001</ele><time>2023-02-17T04:30:53Z</time></trkpt><trkpt lat="36.8619401" lon="138.6418432"><ele>860.7733333333332</ele><time>2023-02-17T04:30:56Z</time></trkpt><trkpt lat="36.8620207" lon="138.6416366"><ele>858.7199999999999</ele><time>2023-02-17T04:30:59Z</time></trkpt><trkpt lat="36.8621449" lon="138.6414008"><ele>856.3800000000001</ele><time>2023-02-17T04:31:03Z</time></trkpt><trkpt lat="36.8623071" lon="138.6412077"><ele>854.91</ele><time>2023-02-17T04:31:07Z</time></trkpt><trkpt lat="36.8624362" lon="138.641035"><ele>852.9900000000001</ele><time>2023-02-17T04:31:10Z</time></trkpt><trkpt lat="36.862571" lon="138.6408472"><ele>850.8433333333332</ele><time>2023-02-17T04:31:13Z</time></trkpt><trkpt lat="36.8626798" lon="138.6406264"><ele>847.9</ele><time>2023-02-17T04:31:16Z</time></trkpt><trkpt lat="36.8627874" lon="138.6404148"><ele>844.2166666666667</ele><time>2023-02-17T04:31:19Z</time></trkpt><trkpt lat="36.8629206" lon="138.6401879"><ele>840.6166666666667</ele><time>2023-02-17T04:31:23Z</time></trkpt><trkpt lat="36.8629666" lon="138.6399367"><ele>837.3033333333333</ele><time>2023-02-17T04:31:27Z</time></trkpt><trkpt lat="36.8630112" lon="138.6397045"><ele>834.21</ele><time>2023-02-17T04:31:31Z</time></trkpt><trkpt lat="36.8630998" lon="138.6394632"><ele>830.7866666666667</ele><time>2023-02-17T04:31:35Z</time></trkpt><trkpt lat="36.8631685" lon="138.6392226"><ele>827.2400000000001</ele><time>2023-02-17T04:31:39Z</time></trkpt><trkpt lat="36.8632447" lon="138.6389964"><ele>824.8966666666666</ele><time>2023-02-17T04:31:43Z</time></trkpt><trkpt lat="36.8633208" lon="138.6387581"><ele>822.91</ele><time>2023-02-17T04:31:48Z</time></trkpt><trkpt lat="36.8632994" lon="138.63851"><ele>820.73</ele><time>2023-02-17T04:31:54Z</time></trkpt><trkpt lat="36.8632002" lon="138.6383064"><ele>818.2400000000001</ele><time>2023-02-17T04:31:59Z</time></trkpt><trkpt lat="36.8630642" lon="138.6381041"><ele>816.3933333333334</ele><time>2023-02-17T04:33:05Z</time></trkpt><trkpt lat="36.8629958" lon="138.6378948"><ele>814.5433333333334</ele><time>2023-02-17T04:38:57Z</time></trkpt></trkseg></trk></gpx>