<?xml version="1.0" encoding="UTF-8"?>
<gpx xmlns:xsi="http://www.w3.org/2001/XMLSchema-instance" xmlns="http://www.topografix.com/GPX/1/1" xsi:schemaLocation="http://www.topografix.com/GPX/1/1 http://www.topografix.com/GPX/1/1/gpx.xsd" creator="Yamareco iOS 6.73 - www.yamareco.com">
<trk><name>track</name><number>1</number><trkseg>
<trkpt lat="37.62083303506591" lon="140.03511616672944"><ele>1112</ele><time>2024-02-18T02:07:25Z</time></trkpt>
<trkpt lat="37.62177394999811" lon="140.0364538688356"><ele>1089</ele><time>2024-02-18T02:07:59Z</time></trkpt>
<trkpt lat="37.62304079771883" lon="140.03755200565578"><ele>1074</ele><time>2024-02-18T02:08:20Z</time></trkpt>
<trkpt lat="37.62368737972097" lon="140.0382335113793"><ele>1069</ele><time>2024-02-18T02:08:40Z</time></trkpt>
<trkpt lat="37.62360075737938" lon="140.0381257357997"><ele>1070</ele><time>2024-02-18T02:10:12Z</time></trkpt>
<trkpt lat="37.62373156959117" lon="140.03810810757352"><ele>1069</ele><time>2024-02-18T02:11:02Z</time></trkpt>
<trkpt lat="37.623602813054156" lon="140.0380672497941"><ele>1070</ele><time>2024-02-18T02:12:12Z</time></trkpt>
<trkpt lat="37.62372281528432" lon="140.03806058534533"><ele>1069</ele><time>2024-02-18T02:13:25Z</time></trkpt>
<trkpt lat="37.62357966740543" lon="140.03805513067556"><ele>1069</ele><time>2024-02-18T02:14:13Z</time></trkpt>
<trkpt lat="37.623453928642654" lon="140.03801006462754"><ele>1071</ele><time>2024-02-18T02:15:02Z</time></trkpt>
<trkpt lat="37.62306235047641" lon="140.0380133269716"><ele>1075</ele><time>2024-02-18T02:15:44Z</time></trkpt>
<trkpt lat="37.622667470659216" lon="140.03801610730892"><ele>1075</ele><time>2024-02-18T02:16:08Z</time></trkpt>
<trkpt lat="37.622270329867824" lon="140.03802928019712"><ele>1079</ele><time>2024-02-18T02:16:31Z</time></trkpt>
<trkpt lat="37.62189892682872" lon="140.03807206655898"><ele>1099</ele><time>2024-02-18T02:16:55Z</time></trkpt>
<trkpt lat="37.62149869412001" lon="140.03809566906872"><ele>1121</ele><time>2024-02-18T02:17:21Z</time></trkpt>
<trkpt lat="37.62113085456677" lon="140.03813541782043"><ele>1147</ele><time>2024-02-18T02:17:46Z</time></trkpt>
<trkpt lat="37.6207048375355" lon="140.0381593053122"><ele>1168</ele><time>2024-02-18T02:18:15Z</time></trkpt>
<trkpt lat="37.62029446514607" lon="140.03817484746602"><ele>1187</ele><time>2024-02-18T02:18:41Z</time></trkpt>
<trkpt lat="37.619943822374466" lon="140.0382043939719"><ele>1205</ele><time>2024-02-18T02:19:04Z</time></trkpt>
<trkpt lat="37.61955709389759" lon="140.03821212465"><ele>1223</ele><time>2024-02-18T02:19:29Z</time></trkpt>
<trkpt lat="37.61915289250684" lon="140.03823289300206"><ele>1240</ele><time>2024-02-18T02:19:55Z</time></trkpt>
<trkpt lat="37.61873338712535" lon="140.03826441317173"><ele>1255</ele><time>2024-02-18T02:20:21Z</time></trkpt>
<trkpt lat="37.61833479427606" lon="140.0382873519182"><ele>1270</ele><time>2024-02-18T02:20:46Z</time></trkpt>
<trkpt lat="37.61795187092803" lon="140.038302042939"><ele>1282</ele><time>2024-02-18T02:21:10Z</time></trkpt>
<trkpt lat="37.61749702321117" lon="140.03835756467308"><ele>1289</ele><time>2024-02-18T02:21:34Z</time></trkpt>
<trkpt lat="37.61729649680642" lon="140.03833402868472"><ele>1292</ele><time>2024-02-18T02:22:22Z</time></trkpt>
<trkpt lat="37.61740246158097" lon="140.03850071524215"><ele>1290</ele><time>2024-02-18T02:32:24Z</time></trkpt>
<trkpt lat="37.61721461954749" lon="140.03840422797776"><ele>1292</ele><time>2024-02-18T02:32:59Z</time></trkpt>
<trkpt lat="37.61690899386855" lon="140.0383080567907"><ele>1299</ele><time>2024-02-18T02:33:26Z</time></trkpt>
<trkpt lat="37.61653418735998" lon="140.03817550699677"><ele>1296</ele><time>2024-02-18T02:33:50Z</time></trkpt>
<trkpt lat="37.61614335428787" lon="140.03803961105535"><ele>1298</ele><time>2024-02-18T02:34:15Z</time></trkpt>
<trkpt lat="37.61573321367522" lon="140.03790701410566"><ele>1303</ele><time>2024-02-18T02:34:41Z</time></trkpt>
<trkpt lat="37.61532021097911" lon="140.03776184995996"><ele>1305</ele><time>2024-02-18T02:35:06Z</time></trkpt>
<trkpt lat="37.61493374392831" lon="140.03762716831497"><ele>1312</ele><time>2024-02-18T02:35:31Z</time></trkpt>
<trkpt lat="37.61456660948102" lon="140.03752436391213"><ele>1315</ele><time>2024-02-18T02:35:57Z</time></trkpt>
<trkpt lat="37.6141496310315" lon="140.0374027232681"><ele>1317</ele><time>2024-02-18T02:36:22Z</time></trkpt>
<trkpt lat="37.6137626405308" lon="140.03724825685697"><ele>1320</ele><time>2024-02-18T02:36:47Z</time></trkpt>
<trkpt lat="37.61340041614726" lon="140.03712828882735"><ele>1312</ele><time>2024-02-18T02:37:12Z</time></trkpt>
<trkpt lat="37.61301737440831" lon="140.0370096172631"><ele>1291</ele><time>2024-02-18T02:37:40Z</time></trkpt>
<trkpt lat="37.612682923534415" lon="140.03688059204885"><ele>1275</ele><time>2024-02-18T02:38:05Z</time></trkpt>
<trkpt lat="37.612301682187" lon="140.03675926105592"><ele>1251</ele><time>2024-02-18T02:38:30Z</time></trkpt>
<trkpt lat="37.61186549581597" lon="140.0366145266485"><ele>1238</ele><time>2024-02-18T02:38:59Z</time></trkpt>
<trkpt lat="37.61153233636868" lon="140.03647360192625"><ele>1221</ele><time>2024-02-18T02:39:22Z</time></trkpt>
<trkpt lat="37.61102996932941" lon="140.0363195223109"><ele>1209</ele><time>2024-02-18T02:39:54Z</time></trkpt>
<trkpt lat="37.610691752522854" lon="140.03617900556995"><ele>1195</ele><time>2024-02-18T02:40:19Z</time></trkpt>
<trkpt lat="37.610286348879484" lon="140.03612688243115"><ele>1184</ele><time>2024-02-18T02:40:44Z</time></trkpt>
<trkpt lat="37.61035438356792" lon="140.0364086515843"><ele>1180</ele><time>2024-02-18T02:41:17Z</time></trkpt>
<trkpt lat="37.60996638357193" lon="140.0368810573299"><ele>1167</ele><time>2024-02-18T02:41:38Z</time></trkpt>
<trkpt lat="37.609803413599906" lon="140.03734809215095"><ele>1162</ele><time>2024-02-18T02:42:02Z</time></trkpt>
<trkpt lat="37.60951636363119" lon="140.0384228096722"><ele>1145</ele><time>2024-02-18T02:42:32Z</time></trkpt>
<trkpt lat="37.60906525125109" lon="140.03940808381407"><ele>1137</ele><time>2024-02-18T02:42:53Z</time></trkpt>
<trkpt lat="37.60844189132925" lon="140.04083576386034"><ele>1117</ele><time>2024-02-18T02:43:14Z</time></trkpt>
<trkpt lat="37.60809074062186" lon="140.0410023034523"><ele>1109</ele><time>2024-02-18T02:43:36Z</time></trkpt>
<trkpt lat="37.60730800055295" lon="140.04138974941404"><ele>1084</ele><time>2024-02-18T02:44:04Z</time></trkpt>
<trkpt lat="37.607231505546075" lon="140.04128792697006"><ele>1079</ele><time>2024-02-18T02:47:20Z</time></trkpt>
<trkpt lat="37.60721308891966" lon="140.04115062998363"><ele>1083</ele><time>2024-02-18T02:48:15Z</time></trkpt>
<trkpt lat="37.607240452303515" lon="140.04131678957037"><ele>1081</ele><time>2024-02-18T02:48:49Z</time></trkpt>
<trkpt lat="37.60725176159281" lon="140.04143373421533"><ele>1084</ele><time>2024-02-18T02:59:11Z</time></trkpt>
<trkpt lat="37.60728133957868" lon="140.04132046230538"><ele>1085</ele><time>2024-02-18T03:07:55Z</time></trkpt>
<trkpt lat="37.60723411574752" lon="140.04144687218596"><ele>1096</ele><time>2024-02-18T03:09:11Z</time></trkpt>
<trkpt lat="37.60730047754552" lon="140.04129062093318"><ele>1084</ele><time>2024-02-18T03:10:47Z</time></trkpt>
<trkpt lat="37.607265842178535" lon="140.0414501005075"><ele>1087</ele><time>2024-02-18T03:11:35Z</time></trkpt>
<trkpt lat="37.60715754630503" lon="140.0420513383517"><ele>1073</ele><time>2024-02-18T03:12:04Z</time></trkpt>
<trkpt lat="37.606701566293744" lon="140.04303841134117"><ele>1054</ele><time>2024-02-18T03:12:32Z</time></trkpt>
<trkpt lat="37.60691117779218" lon="140.04327233507095"><ele>1051</ele><time>2024-02-18T03:12:58Z</time></trkpt>
<trkpt lat="37.60725416408442" lon="140.04313686891862"><ele>1065</ele><time>2024-02-18T03:13:31Z</time></trkpt>
<trkpt lat="37.60763985394877" lon="140.0429399301636"><ele>1081</ele><time>2024-02-18T03:13:58Z</time></trkpt>
<trkpt lat="37.60800400348305" lon="140.04278115842598"><ele>1100</ele><time>2024-02-18T03:14:25Z</time></trkpt>
<trkpt lat="37.6083237657499" lon="140.04263109303554"><ele>1116</ele><time>2024-02-18T03:14:50Z</time></trkpt>
<trkpt lat="37.60871205582529" lon="140.04245354463797"><ele>1131</ele><time>2024-02-18T03:15:20Z</time></trkpt>
<trkpt lat="37.60903331305533" lon="140.04231149469774"><ele>1143</ele><time>2024-02-18T03:15:43Z</time></trkpt>
<trkpt lat="37.60940727170725" lon="140.04212092502638"><ele>1157</ele><time>2024-02-18T03:16:10Z</time></trkpt>
<trkpt lat="37.609800870131274" lon="140.04192826693242"><ele>1168</ele><time>2024-02-18T03:16:37Z</time></trkpt>
<trkpt lat="37.61012979892401" lon="140.04176628271736"><ele>1179</ele><time>2024-02-18T03:17:05Z</time></trkpt>
<trkpt lat="37.61047847491067" lon="140.04161819815027"><ele>1195</ele><time>2024-02-18T03:17:31Z</time></trkpt>
<trkpt lat="37.61083745705597" lon="140.04144693265567"><ele>1205</ele><time>2024-02-18T03:17:56Z</time></trkpt>
<trkpt lat="37.611161414161884" lon="140.04130653156034"><ele>1226</ele><time>2024-02-18T03:18:21Z</time></trkpt>
<trkpt lat="37.61151150537324" lon="140.04114727743402"><ele>1244</ele><time>2024-02-18T03:18:48Z</time></trkpt>
<trkpt lat="37.61188845679849" lon="140.04097605288845"><ele>1255</ele><time>2024-02-18T03:19:14Z</time></trkpt>
<trkpt lat="37.612251763568516" lon="140.04080713665456"><ele>1275</ele><time>2024-02-18T03:19:41Z</time></trkpt>
<trkpt lat="37.61265694832558" lon="140.0406945651251"><ele>1287</ele><time>2024-02-18T03:20:05Z</time></trkpt>
<trkpt lat="37.61268718434353" lon="140.0410427275666"><ele>1288</ele><time>2024-02-18T03:20:30Z</time></trkpt>
<trkpt lat="37.612712588858216" lon="140.04132642722067"><ele>1288</ele><time>2024-02-18T03:20:58Z</time></trkpt>
<trkpt lat="37.612925752697436" lon="140.04202389666565"><ele>1276</ele><time>2024-02-18T03:22:23Z</time></trkpt>
<trkpt lat="37.61292066696652" lon="140.04341835192267"><ele>1268</ele><time>2024-02-18T03:22:44Z</time></trkpt>
<trkpt lat="37.612804577682674" lon="140.04406923928917"><ele>1267</ele><time>2024-02-18T03:23:06Z</time></trkpt>
<trkpt lat="37.61241628975901" lon="140.04448576700588"><ele>1263</ele><time>2024-02-18T03:23:31Z</time></trkpt>
<trkpt lat="37.612232176975496" lon="140.04493871619715"><ele>1260</ele><time>2024-02-18T03:23:55Z</time></trkpt>
<trkpt lat="37.61195491430151" lon="140.04540692531796"><ele>1250</ele><time>2024-02-18T03:24:17Z</time></trkpt>
<trkpt lat="37.61167485280258" lon="140.04537386501704"><ele>1239</ele><time>2024-02-18T03:24:40Z</time></trkpt>
<trkpt lat="37.61099786175321" lon="140.0453115729467"><ele>1207</ele><time>2024-02-18T03:25:04Z</time></trkpt>
<trkpt lat="37.61018437060633" lon="140.04534047526607"><ele>1168</ele><time>2024-02-18T03:25:26Z</time></trkpt>
<trkpt lat="37.61006744915697" lon="140.04540458213904"><ele>1166</ele><time>2024-02-18T03:25:50Z</time></trkpt>
<trkpt lat="37.60994581281194" lon="140.04555388371304"><ele>1164</ele><time>2024-02-18T03:27:46Z</time></trkpt>
<trkpt lat="37.6090345696322" lon="140.04488296919897"><ele>1115</ele><time>2024-02-18T03:28:08Z</time></trkpt>
<trkpt lat="37.60850848618494" lon="140.0445624439378"><ele>1103</ele><time>2024-02-18T03:29:17Z</time></trkpt>
<trkpt lat="37.6077769245957" lon="140.04362343889056"><ele>1086</ele><time>2024-02-18T03:29:47Z</time></trkpt>
<trkpt lat="37.60697349779391" lon="140.04269417985466"><ele>1060</ele><time>2024-02-18T03:30:08Z</time></trkpt>
<trkpt lat="37.60640637209254" lon="140.04245194783917"><ele>1059</ele><time>2024-02-18T03:30:36Z</time></trkpt>
<trkpt lat="37.606493176316214" lon="140.042059843868"><ele>1059</ele><time>2024-02-18T03:31:30Z</time></trkpt>
<trkpt lat="37.60664596658202" lon="140.04160894357585"><ele>1069</ele><time>2024-02-18T03:31:56Z</time></trkpt>
<trkpt lat="37.606794255550724" lon="140.04116087500316"><ele>1079</ele><time>2024-02-18T03:32:21Z</time></trkpt>
<trkpt lat="37.60684155088429" lon="140.0409504648505"><ele>1083</ele><time>2024-02-18T03:33:01Z</time></trkpt>
<trkpt lat="37.606968783562245" lon="140.0405236494845"><ele>1088</ele><time>2024-02-18T03:33:52Z</time></trkpt>
<trkpt lat="37.60710846797408" lon="140.04012806694064"><ele>1094</ele><time>2024-02-18T03:34:23Z</time></trkpt>
<trkpt lat="37.607259037490714" lon="140.0397951714985"><ele>1102</ele><time>2024-02-18T03:34:51Z</time></trkpt>
<trkpt lat="37.60738017449632" lon="140.03936952859104"><ele>1115</ele><time>2024-02-18T03:35:17Z</time></trkpt>
<trkpt lat="37.60750389186131" lon="140.03899326607234"><ele>1127</ele><time>2024-02-18T03:35:41Z</time></trkpt>
<trkpt lat="37.6076751926413" lon="140.03853234187162"><ele>1148</ele><time>2024-02-18T03:36:06Z</time></trkpt>
<trkpt lat="37.607845527572685" lon="140.03808126332976"><ele>1174</ele><time>2024-02-18T03:36:33Z</time></trkpt>
<trkpt lat="37.60798234525221" lon="140.03767985028773"><ele>1190</ele><time>2024-02-18T03:36:58Z</time></trkpt>
<trkpt lat="37.60817003785922" lon="140.03711096852345"><ele>1195</ele><time>2024-02-18T03:37:23Z</time></trkpt>
<trkpt lat="37.6081929579389" lon="140.0369655136062"><ele>1199</ele><time>2024-02-18T03:38:06Z</time></trkpt>
<trkpt lat="37.60830552597043" lon="140.0360159300574"><ele>1182</ele><time>2024-02-18T03:38:31Z</time></trkpt>
<trkpt lat="37.60840306993886" lon="140.03543025597742"><ele>1167</ele><time>2024-02-18T03:38:52Z</time></trkpt>
<trkpt lat="37.60770700003344" lon="140.0357505540287"><ele>1152</ele><time>2024-02-18T03:39:24Z</time></trkpt>
<trkpt lat="37.6068659221636" lon="140.03631724633928"><ele>1133</ele><time>2024-02-18T03:39:47Z</time></trkpt>
<trkpt lat="37.60666130743804" lon="140.03646252458506"><ele>1121</ele><time>2024-02-18T03:40:30Z</time></trkpt>
<trkpt lat="37.6064917842111" lon="140.03627755070957"><ele>1109</ele><time>2024-02-18T03:40:54Z</time></trkpt>
<trkpt lat="37.60601023168066" lon="140.0359786483262"><ele>1081</ele><time>2024-02-18T03:41:17Z</time></trkpt>
<trkpt lat="37.60580704213184" lon="140.0358430815422"><ele>1069</ele><time>2024-02-18T03:41:48Z</time></trkpt>
<trkpt lat="37.6045390873483" lon="140.03619600459015"><ele>1040</ele><time>2024-02-18T03:42:09Z</time></trkpt>
<trkpt lat="37.60384729465019" lon="140.03629120697707"><ele>1010</ele><time>2024-02-18T03:42:31Z</time></trkpt>
<trkpt lat="37.60307757583669" lon="140.03639498719537"><ele>990</ele><time>2024-02-18T03:42:53Z</time></trkpt>
<trkpt lat="37.60304375736966" lon="140.03719017140855"><ele>978</ele><time>2024-02-18T03:43:17Z</time></trkpt>
<trkpt lat="37.603346948963335" lon="140.03709055064897"><ele>974</ele><time>2024-02-18T03:44:04Z</time></trkpt>
<trkpt lat="37.60396719122234" lon="140.03686661702324"><ele>1000</ele><time>2024-02-18T03:44:25Z</time></trkpt>
<trkpt lat="37.60460723843892" lon="140.03662888245603"><ele>1018</ele><time>2024-02-18T03:44:48Z</time></trkpt>
<trkpt lat="37.605191903631415" lon="140.03635297056508"><ele>1034</ele><time>2024-02-18T03:45:08Z</time></trkpt>
<trkpt lat="37.605849442454456" lon="140.0361675489662"><ele>1067</ele><time>2024-02-18T03:45:32Z</time></trkpt>
<trkpt lat="37.60650936540763" lon="140.03590506849386"><ele>1090</ele><time>2024-02-18T03:45:55Z</time></trkpt>
<trkpt lat="37.607153984002885" lon="140.03563830894146"><ele>1116</ele><time>2024-02-18T03:46:18Z</time></trkpt>
<trkpt lat="37.607811862049665" lon="140.0353814051575"><ele>1135</ele><time>2024-02-18T03:46:41Z</time></trkpt>
<trkpt lat="37.608430996469515" lon="140.0351485793894"><ele>1159</ele><time>2024-02-18T03:47:03Z</time></trkpt>
<trkpt lat="37.609034801257266" lon="140.03494242164643"><ele>1191</ele><time>2024-02-18T03:47:25Z</time></trkpt>
<trkpt lat="37.60949870633909" lon="140.0347733282927"><ele>1198</ele><time>2024-02-18T03:47:49Z</time></trkpt>
<trkpt lat="37.60985671377982" lon="140.034946895103"><ele>1197</ele><time>2024-02-18T03:48:12Z</time></trkpt>
<trkpt lat="37.61027637330397" lon="140.03581058514843"><ele>1185</ele><time>2024-02-18T03:48:34Z</time></trkpt>
<trkpt lat="37.61041810274789" lon="140.03600601062533"><ele>1185</ele><time>2024-02-18T03:48:59Z</time></trkpt>
<trkpt lat="37.61077923544111" lon="140.03615312482145"><ele>1190</ele><time>2024-02-18T03:49:29Z</time></trkpt>
<trkpt lat="37.611146269515274" lon="140.03628210437296"><ele>1203</ele><time>2024-02-18T03:49:56Z</time></trkpt>
<trkpt lat="37.61151186729797" lon="140.0364009649375"><ele>1215</ele><time>2024-02-18T03:50:20Z</time></trkpt>
<trkpt lat="37.611935988594745" lon="140.0365560186797"><ele>1226</ele><time>2024-02-18T03:50:48Z</time></trkpt>
<trkpt lat="37.61228156660639" lon="140.03666742922738"><ele>1242</ele><time>2024-02-18T03:51:11Z</time></trkpt>
<trkpt lat="37.61260896956211" lon="140.03677854392134"><ele>1259</ele><time>2024-02-18T03:51:36Z</time></trkpt>
<trkpt lat="37.612990251627984" lon="140.0369160067523"><ele>1282</ele><time>2024-02-18T03:52:02Z</time></trkpt>
<trkpt lat="37.61334073112502" lon="140.0370411480606"><ele>1301</ele><time>2024-02-18T03:52:27Z</time></trkpt>
<trkpt lat="37.61369816440319" lon="140.03716165646574"><ele>1315</ele><time>2024-02-18T03:52:53Z</time></trkpt>
<trkpt lat="37.61408152550297" lon="140.03729089456783"><ele>1314</ele><time>2024-02-18T03:53:18Z</time></trkpt>
<trkpt lat="37.614451296575844" lon="140.03741755105028"><ele>1311</ele><time>2024-02-18T03:53:42Z</time></trkpt>
<trkpt lat="37.61454874352342" lon="140.03743653168132"><ele>1312</ele><time>2024-02-18T03:54:18Z</time></trkpt>
<trkpt lat="37.61493764061844" lon="140.03758575751561"><ele>1307</ele><time>2024-02-18T03:54:46Z</time></trkpt>
<trkpt lat="37.615300341658426" lon="140.0377052418712"><ele>1303</ele><time>2024-02-18T03:55:09Z</time></trkpt>
<trkpt lat="37.6156302583447" lon="140.0378074614592"><ele>1302</ele><time>2024-02-18T03:55:33Z</time></trkpt>
<trkpt lat="37.61597849630784" lon="140.03792390085357"><ele>1297</ele><time>2024-02-18T03:55:57Z</time></trkpt>
<trkpt lat="37.616366914476096" lon="140.03807213768224"><ele>1293</ele><time>2024-02-18T03:56:22Z</time></trkpt>
<trkpt lat="37.61673026409843" lon="140.03819463113751"><ele>1292</ele><time>2024-02-18T03:56:45Z</time></trkpt>
<trkpt lat="37.6171392546344" lon="140.03832819321164"><ele>1290</ele><time>2024-02-18T03:57:11Z</time></trkpt>
<trkpt lat="37.61738443030578" lon="140.0382726233624"><ele>1287</ele><time>2024-02-18T03:57:36Z</time></trkpt>
<trkpt lat="37.61701887516843" lon="140.03763630903035"><ele>1284</ele><time>2024-02-18T03:58:00Z</time></trkpt>
<trkpt lat="37.6168751080276" lon="140.03751710687456"><ele>1284</ele><time>2024-02-18T03:58:25Z</time></trkpt>
<trkpt lat="37.61680345207957" lon="140.03738826884046"><ele>1278</ele><time>2024-02-18T03:58:56Z</time></trkpt>
<trkpt lat="37.61660667361613" lon="140.03720615703313"><ele>1269</ele><time>2024-02-18T03:59:22Z</time></trkpt>
<trkpt lat="37.61672059187311" lon="140.03700416858055"><ele>1264</ele><time>2024-02-18T04:00:41Z</time></trkpt>
<trkpt lat="37.61676976602737" lon="140.03665472882096"><ele>1251</ele><time>2024-02-18T04:01:08Z</time></trkpt>
<trkpt lat="37.617306888478474" lon="140.03596896032943"><ele>1223</ele><time>2024-02-18T04:01:40Z</time></trkpt>
<trkpt lat="37.61766882771319" lon="140.03559205692102"><ele>1203</ele><time>2024-02-18T04:02:02Z</time></trkpt>
<trkpt lat="37.618812596735154" lon="140.03504351538092"><ele>1155</ele><time>2024-02-18T04:02:23Z</time></trkpt>
<trkpt lat="37.61903423427121" lon="140.03472030236117"><ele>1145</ele><time>2024-02-18T04:02:49Z</time></trkpt>
<trkpt lat="37.62033959345252" lon="140.03453332683927"><ele>1116</ele><time>2024-02-18T04:03:18Z</time></trkpt>
<trkpt lat="37.621021604154436" lon="140.03538255428325"><ele>1105</ele><time>2024-02-18T04:03:39Z</time></trkpt>
<trkpt lat="37.62198320836496" lon="140.03616239672633"><ele>1088</ele><time>2024-02-18T04:04:01Z</time></trkpt>
<trkpt lat="37.62302876576328" lon="140.03662788758106"><ele>1079</ele><time>2024-02-18T04:04:23Z</time></trkpt>
<trkpt lat="37.62388644119516" lon="140.03693890284538"><ele>1070</ele><time>2024-02-18T04:04:44Z</time></trkpt>
<trkpt lat="37.62504278493004" lon="140.03743023039192"><ele>1055</ele><time>2024-02-18T04:05:05Z</time></trkpt>
<trkpt lat="37.62639645067997" lon="140.03794674111123"><ele>1038</ele><time>2024-02-18T04:05:26Z</time></trkpt>
<trkpt lat="37.62717357259967" lon="140.03783457131718"><ele>1032</ele><time>2024-02-18T04:05:52Z</time></trkpt>
<trkpt lat="37.627354152965765" lon="140.03788707475522"><ele>1033</ele><time>2024-02-18T04:09:23Z</time></trkpt>
<trkpt lat="37.62729363229992" lon="140.03804649404188"><ele>1033</ele><time>2024-02-18T04:13:58Z</time></trkpt>
<trkpt lat="37.62744301686777" lon="140.03794614158713"><ele>1032</ele><time>2024-02-18T04:14:39Z</time></trkpt>
<trkpt lat="37.627355114274025" lon="140.03804647743831"><ele>1035</ele><time>2024-02-18T04:28:09Z</time></trkpt>
<trkpt lat="37.62744340579959" lon="140.0378978423495"><ele>1032</ele><time>2024-02-18T04:29:15Z</time></trkpt>
<trkpt lat="37.62737180639609" lon="140.03802991274827"><ele>1031</ele><time>2024-02-18T04:35:27Z</time></trkpt>
<trkpt lat="37.62744586680713" lon="140.03790466208326"><ele>1033</ele><time>2024-02-18T04:36:41Z</time></trkpt>
<trkpt lat="37.62734976277242" lon="140.0380954210642"><ele>1029</ele><time>2024-02-18T04:39:32Z</time></trkpt>
<trkpt lat="37.627472429289575" lon="140.03794568565453"><ele>1032</ele><time>2024-02-18T04:40:23Z</time></trkpt>
<trkpt lat="37.627416169647596" lon="140.03784725595472"><ele>1033</ele><time>2024-02-18T04:42:55Z</time></trkpt>
<trkpt lat="37.627315532745925" lon="140.03801653010768"><ele>1032</ele><time>2024-02-18T04:48:52Z</time></trkpt>
<trkpt lat="37.62747000587028" lon="140.03781790865094"><ele>1031</ele><time>2024-02-18T04:58:22Z</time></trkpt>
<trkpt lat="37.62738580465085" lon="140.03790645254819"><ele>1032</ele><time>2024-02-18T04:59:02Z</time></trkpt>
<trkpt lat="37.627470379319654" lon="140.03776586055756"><ele>1033</ele><time>2024-02-18T05:00:49Z</time></trkpt>
<trkpt lat="37.62734556561299" lon="140.0380321102207"><ele>1035</ele><time>2024-02-18T05:01:19Z</time></trkpt>
<trkpt lat="37.62725731091193" lon="140.03806342590065"><ele>1029</ele><time>2024-02-18T05:03:07Z</time></trkpt>
<trkpt lat="37.62736868673084" lon="140.03786149645586"><ele>1033</ele><time>2024-02-18T05:04:20Z</time></trkpt>
<trkpt lat="37.62728605911646" lon="140.0380031114451"><ele>1031</ele><time>2024-02-18T05:05:32Z</time></trkpt>
<trkpt lat="37.62732074738139" lon="140.0378810051668"><ele>1036</ele><time>2024-02-18T05:09:21Z</time></trkpt>
<trkpt lat="37.62720601726169" lon="140.0371749272045"><ele>1029</ele><time>2024-02-18T05:10:00Z</time></trkpt>
<trkpt lat="37.627148568488785" lon="140.03788224719693"><ele>1038</ele><time>2024-02-18T05:10:21Z</time></trkpt>
<trkpt lat="37.62697214272063" lon="140.03767005234036"><ele>1038</ele><time>2024-02-18T05:13:24Z</time></trkpt>
<trkpt lat="37.62676492250679" lon="140.03763932246346"><ele>1034</ele><time>2024-02-18T05:14:50Z</time></trkpt>
<trkpt lat="37.6266833951307" lon="140.03754039583214"><ele>1036</ele><time>2024-02-18T05:16:15Z</time></trkpt>
<trkpt lat="37.626631811285854" lon="140.03770130802283"><ele>1037</ele><time>2024-02-18T05:17:52Z</time></trkpt>
<trkpt lat="37.62663053893196" lon="140.0375685138208"><ele>1037</ele><time>2024-02-18T05:19:32Z</time></trkpt>
<trkpt lat="37.62649604542107" lon="140.0373608907913"><ele>1035</ele><time>2024-02-18T05:20:46Z</time></trkpt>
<trkpt lat="37.62624999839859" lon="140.0370838920864"><ele>1041</ele><time>2024-02-18T05:21:23Z</time></trkpt>
<trkpt lat="37.62601602779778" lon="140.03676268710242"><ele>1051</ele><time>2024-02-18T05:21:47Z</time></trkpt>
<trkpt lat="37.62573291807764" lon="140.03641607093462"><ele>1057</ele><time>2024-02-18T05:22:15Z</time></trkpt>
<trkpt lat="37.62544465294765" lon="140.03607994834226"><ele>1060</ele><time>2024-02-18T05:22:40Z</time></trkpt>
<trkpt lat="37.62519015448888" lon="140.0357548623861"><ele>1066</ele><time>2024-02-18T05:23:09Z</time></trkpt>
<trkpt lat="37.62488885070007" lon="140.0354217759214"><ele>1072</ele><time>2024-02-18T05:23:35Z</time></trkpt>
<trkpt lat="37.62460489846556" lon="140.03507808585044"><ele>1079</ele><time>2024-02-18T05:24:01Z</time></trkpt>
<trkpt lat="37.62433031084951" lon="140.03473835916557"><ele>1090</ele><time>2024-02-18T05:24:24Z</time></trkpt>
<trkpt lat="37.62407209488187" lon="140.03445390730633"><ele>1103</ele><time>2024-02-18T05:24:48Z</time></trkpt>
<trkpt lat="37.62376402623615" lon="140.03408904236096"><ele>1121</ele><time>2024-02-18T05:25:17Z</time></trkpt>
<trkpt lat="37.62349421562067" lon="140.03374891263934"><ele>1137</ele><time>2024-02-18T05:25:44Z</time></trkpt>
<trkpt lat="37.62341830556612" lon="140.03365335372536"><ele>1143</ele><time>2024-02-18T05:26:25Z</time></trkpt>
<trkpt lat="37.62313501175857" lon="140.03334206190496"><ele>1158</ele><time>2024-02-18T05:26:49Z</time></trkpt>
<trkpt lat="37.62287892741448" lon="140.03301304052079"><ele>1176</ele><time>2024-02-18T05:27:15Z</time></trkpt>
<trkpt lat="37.622624749638064" lon="140.03270814736285"><ele>1196</ele><time>2024-02-18T05:27:41Z</time></trkpt>
<trkpt lat="37.62242933085783" lon="140.0324292267645"><ele>1203</ele><time>2024-02-18T05:28:07Z</time></trkpt>
<trkpt lat="37.62218492034923" lon="140.03221313558754"><ele>1207</ele><time>2024-02-18T05:28:46Z</time></trkpt>
<trkpt lat="37.622042749061556" lon="140.03146328705796"><ele>1196</ele><time>2024-02-18T05:29:10Z</time></trkpt>
<trkpt lat="37.62266226371849" lon="140.03133879693326"><ele>1176</ele><time>2024-02-18T05:29:34Z</time></trkpt>
<trkpt lat="37.62287069015432" lon="140.0314710048855"><ele>1168</ele><time>2024-02-18T05:30:07Z</time></trkpt>
<trkpt lat="37.6233546122765" lon="140.0317208669433"><ele>1150</ele><time>2024-02-18T05:30:47Z</time></trkpt>
<trkpt lat="37.62388234593105" lon="140.03226901229377"><ele>1131</ele><time>2024-02-18T05:31:08Z</time></trkpt>
<trkpt lat="37.62420615954721" lon="140.03305570622243"><ele>1114</ele><time>2024-02-18T05:31:45Z</time></trkpt>
<trkpt lat="37.62418568761452" lon="140.0332914967022"><ele>1112</ele><time>2024-02-18T05:32:06Z</time></trkpt>
<trkpt lat="37.624885885364584" lon="140.03500760429992"><ele>1078</ele><time>2024-02-18T05:32:28Z</time></trkpt>
<trkpt lat="37.62497506356345" lon="140.03562362646016"><ele>1068</ele><time>2024-02-18T05:32:49Z</time></trkpt>
<trkpt lat="37.625308809937884" lon="140.03609107864244"><ele>1060</ele><time>2024-02-18T05:33:34Z</time></trkpt>
<trkpt lat="37.62576593673011" lon="140.0371609817005"><ele>1048</ele><time>2024-02-18T05:33:56Z</time></trkpt>
<trkpt lat="37.62644242735072" lon="140.03804491465294"><ele>1036</ele><time>2024-02-18T05:34:17Z</time></trkpt>
<trkpt lat="37.62657326441082" lon="140.03829244530235"><ele>1037</ele><time>2024-02-18T05:34:53Z</time></trkpt>
<trkpt lat="37.626467852621374" lon="140.03841098365868"><ele>1037</ele><time>2024-02-18T05:36:06Z</time></trkpt>
<trkpt lat="37.62617452852671" lon="140.038411141861"><ele>1043</ele><time>2024-02-18T05:36:33Z</time></trkpt>
<trkpt lat="37.62586011851118" lon="140.03842981212472"><ele>1049</ele><time>2024-02-18T05:37:01Z</time></trkpt>
<trkpt lat="37.62547911143402" lon="140.03846342249543"><ele>1057</ele><time>2024-02-18T05:37:24Z</time></trkpt>
<trkpt lat="37.6251153904828" lon="140.03848841761535"><ele>1058</ele><time>2024-02-18T05:37:51Z</time></trkpt>
<trkpt lat="37.624750028167" lon="140.03850482984737"><ele>1060</ele><time>2024-02-18T05:38:16Z</time></trkpt>
<trkpt lat="37.624345290270966" lon="140.03854470425802"><ele>1066</ele><time>2024-02-18T05:38:41Z</time></trkpt>
<trkpt lat="37.623948808516374" lon="140.0385703972788"><ele>1071</ele><time>2024-02-18T05:39:06Z</time></trkpt>
<trkpt lat="37.62356325726136" lon="140.03859903315438"><ele>1068</ele><time>2024-02-18T05:39:30Z</time></trkpt>
<trkpt lat="37.62341779868616" lon="140.03836088251094"><ele>1069</ele><time>2024-02-18T05:39:56Z</time></trkpt>
<trkpt lat="37.6235871040641" lon="140.03808754360352"><ele>1068</ele><time>2024-02-18T05:40:22Z</time></trkpt>
<trkpt lat="37.6232959534435" lon="140.03801582099416"><ele>1071</ele><time>2024-02-18T05:40:55Z</time></trkpt>
<trkpt lat="37.62287036274025" lon="140.038048689315"><ele>1074</ele><time>2024-02-18T05:41:21Z</time></trkpt>
<trkpt lat="37.62245330495898" lon="140.03806834880385"><ele>1078</ele><time>2024-02-18T05:41:45Z</time></trkpt>
<trkpt lat="37.622044082714396" lon="140.03809159347597"><ele>1094</ele><time>2024-02-18T05:42:11Z</time></trkpt>
<trkpt lat="37.62167104882926" lon="140.03811735593175"><ele>1114</ele><time>2024-02-18T05:42:36Z</time></trkpt>
<trkpt lat="37.6212647986235" lon="140.03815796526584"><ele>1134</ele><time>2024-02-18T05:43:02Z</time></trkpt>
<trkpt lat="37.62089738792477" lon="140.03817814621956"><ele>1158</ele><time>2024-02-18T05:43:28Z</time></trkpt>
<trkpt lat="37.6204962417732" lon="140.0381825453576"><ele>1176</ele><time>2024-02-18T05:43:54Z</time></trkpt>
<trkpt lat="37.62009680240885" lon="140.03819181094258"><ele>1196</ele><time>2024-02-18T05:44:20Z</time></trkpt>
<trkpt lat="37.61968207788803" lon="140.03823371619282"><ele>1211</ele><time>2024-02-18T05:44:47Z</time></trkpt>
<trkpt lat="37.61928801136906" lon="140.03826856093931"><ele>1234</ele><time>2024-02-18T05:45:13Z</time></trkpt>
<trkpt lat="37.61890975793881" lon="140.03827234146158"><ele>1247</ele><time>2024-02-18T05:45:37Z</time></trkpt>
<trkpt lat="37.6185246992261" lon="140.03827366483878"><ele>1262</ele><time>2024-02-18T05:46:02Z</time></trkpt>
<trkpt lat="37.61812723194482" lon="140.03830641002918"><ele>1272</ele><time>2024-02-18T05:46:26Z</time></trkpt>
<trkpt lat="37.61771589249662" lon="140.03832959858923"><ele>1287</ele><time>2024-02-18T05:46:52Z</time></trkpt>
<trkpt lat="37.61722923644154" lon="140.03795417755114"><ele>1286</ele><time>2024-02-18T05:47:16Z</time></trkpt>
<trkpt lat="37.61711395381486" lon="140.03772793360602"><ele>1285</ele><time>2024-02-18T05:48:03Z</time></trkpt>
<trkpt lat="37.61671578606773" lon="140.03756495536481"><ele>1284</ele><time>2024-02-18T05:48:29Z</time></trkpt>
<trkpt lat="37.61641867818184" lon="140.03719322494084"><ele>1269</ele><time>2024-02-18T05:48:53Z</time></trkpt>
<trkpt lat="37.61657722815052" lon="140.03685235166427"><ele>1261</ele><time>2024-02-18T05:49:18Z</time></trkpt>
<trkpt lat="37.61679306455948" lon="140.03675341919322"><ele>1250</ele><time>2024-02-18T05:50:12Z</time></trkpt>
<trkpt lat="37.61719610768597" lon="140.03627597144796"><ele>1229</ele><time>2024-02-18T05:50:36Z</time></trkpt>
<trkpt lat="37.61792985882517" lon="140.03574223726073"><ele>1197</ele><time>2024-02-18T05:51:00Z</time></trkpt>
<trkpt lat="37.619090001157595" lon="140.03526479493945"><ele>1149</ele><time>2024-02-18T05:51:51Z</time></trkpt>
<trkpt lat="37.62073964805267" lon="140.03563651473831"><ele>1102</ele><time>2024-02-18T05:52:11Z</time></trkpt>
<trkpt lat="37.62244694803107" lon="140.03665385712947"><ele>1079</ele><time>2024-02-18T05:52:32Z</time></trkpt>
<trkpt lat="37.62353430749219" lon="140.037696611172"><ele>1070</ele><time>2024-02-18T05:52:53Z</time></trkpt>
<trkpt lat="37.6236160664694" lon="140.03805402544808"><ele>1069</ele><time>2024-02-18T05:53:16Z</time></trkpt>
<trkpt lat="37.62339414159318" lon="140.03802899905634"><ele>1070</ele><time>2024-02-18T05:54:11Z</time></trkpt>
<trkpt lat="37.62296179112952" lon="140.0380552619362"><ele>1073</ele><time>2024-02-18T05:54:38Z</time></trkpt>
<trkpt lat="37.62269611546665" lon="140.03806755227745"><ele>1080</ele><time>2024-02-18T05:55:24Z</time></trkpt>
<trkpt lat="37.62231067064246" lon="140.03808715146954"><ele>1083</ele><time>2024-02-18T05:55:59Z</time></trkpt>
<trkpt lat="37.62189340463692" lon="140.03809116177845"><ele>1100</ele><time>2024-02-18T05:56:24Z</time></trkpt>
<trkpt lat="37.62148535877089" lon="140.0381127295658"><ele>1122</ele><time>2024-02-18T05:56:52Z</time></trkpt>
<trkpt lat="37.621104790558995" lon="140.03815224672076"><ele>1143</ele><time>2024-02-18T05:57:17Z</time></trkpt>
<trkpt lat="37.62069787638971" lon="140.03816825951517"><ele>1165</ele><time>2024-02-18T05:57:44Z</time></trkpt>
<trkpt lat="37.62031283894743" lon="140.0381931993225"><ele>1180</ele><time>2024-02-18T05:58:08Z</time></trkpt>
<trkpt lat="37.61996526655812" lon="140.03821256132483"><ele>1198</ele><time>2024-02-18T05:58:31Z</time></trkpt>
<trkpt lat="37.61958652279766" lon="140.03821418646075"><ele>1216</ele><time>2024-02-18T05:58:56Z</time></trkpt>
<trkpt lat="37.61918950959683" lon="140.0382483630497"><ele>1238</ele><time>2024-02-18T05:59:22Z</time></trkpt>
<trkpt lat="37.61882500136464" lon="140.0382505827969"><ele>1251</ele><time>2024-02-18T05:59:46Z</time></trkpt>
<trkpt lat="37.61843579778392" lon="140.03827266674423"><ele>1265</ele><time>2024-02-18T06:00:12Z</time></trkpt>
<trkpt lat="37.618023810700315" lon="140.03832244898055"><ele>1274</ele><time>2024-02-18T06:00:39Z</time></trkpt>
<trkpt lat="37.617564138949085" lon="140.0383738104617"><ele>1286</ele><time>2024-02-18T06:01:04Z</time></trkpt>
<trkpt lat="37.617705927854516" lon="140.03839777503123"><ele>1288</ele><time>2024-02-18T06:01:32Z</time></trkpt>
<trkpt lat="37.618895656417656" lon="140.03863923129657"><ele>1248</ele><time>2024-02-18T06:01:55Z</time></trkpt>
<trkpt lat="37.619974543983744" lon="140.03872597572877"><ele>1203</ele><time>2024-02-18T06:02:28Z</time></trkpt>
<trkpt lat="37.620178292452685" lon="140.03870089138138"><ele>1198</ele><time>2024-02-18T06:03:19Z</time></trkpt>
<trkpt lat="37.621035676798115" lon="140.0385366292559"><ele>1153</ele><time>2024-02-18T06:03:42Z</time></trkpt>
<trkpt lat="37.62182429123569" lon="140.03862012481505"><ele>1106</ele><time>2024-02-18T06:05:50Z</time></trkpt>
<trkpt lat="37.622053275178075" lon="140.0384790333386"><ele>1095</ele><time>2024-02-18T06:06:44Z</time></trkpt>
<trkpt lat="37.62362618000326" lon="140.03816689459836"><ele>1065</ele><time>2024-02-18T06:07:48Z</time></trkpt>
<trkpt lat="37.62340254224786" lon="140.03803140988586"><ele>1067</ele><time>2024-02-18T06:08:27Z</time></trkpt>
<trkpt lat="37.62299422180415" lon="140.0380457710179"><ele>1074</ele><time>2024-02-18T06:08:52Z</time></trkpt>
<trkpt lat="37.62257982750464" lon="140.03807393181225"><ele>1081</ele><time>2024-02-18T06:09:17Z</time></trkpt>
<trkpt lat="37.622173194149156" lon="140.03808833335515"><ele>1089</ele><time>2024-02-18T06:09:42Z</time></trkpt>
<trkpt lat="37.62180406961866" lon="140.03809380225854"><ele>1107</ele><time>2024-02-18T06:10:06Z</time></trkpt>
<trkpt lat="37.62142798142131" lon="140.0381227198245"><ele>1124</ele><time>2024-02-18T06:10:30Z</time></trkpt>
<trkpt lat="37.62104415638516" lon="140.03815195073065"><ele>1145</ele><time>2024-02-18T06:10:56Z</time></trkpt>
<trkpt lat="37.62062664156927" lon="140.03816994487673"><ele>1169</ele><time>2024-02-18T06:11:24Z</time></trkpt>
<trkpt lat="37.620274216223095" lon="140.03819377238324"><ele>1184</ele><time>2024-02-18T06:11:48Z</time></trkpt>
<trkpt lat="37.61988345127327" lon="140.03818605039598"><ele>1200</ele><time>2024-02-18T06:12:13Z</time></trkpt>
<trkpt lat="37.61949931565577" lon="140.0381999616309"><ele>1220</ele><time>2024-02-18T06:12:39Z</time></trkpt>
<trkpt lat="37.619196665112234" lon="140.03824231315582"><ele>1235</ele><time>2024-02-18T06:13:03Z</time></trkpt>
<trkpt lat="37.61876808004352" lon="140.038282701603"><ele>1253</ele><time>2024-02-18T06:13:30Z</time></trkpt>
<trkpt lat="37.618357441291614" lon="140.0383083422302"><ele>1266</ele><time>2024-02-18T06:13:56Z</time></trkpt>
<trkpt lat="37.61794419317976" lon="140.03833274697848"><ele>1275</ele><time>2024-02-18T06:14:21Z</time></trkpt>
<trkpt lat="37.617586443453426" lon="140.03837943648603"><ele>1284</ele><time>2024-02-18T06:14:49Z</time></trkpt>
<trkpt lat="37.61718203407734" lon="140.0378289463756"><ele>1285</ele><time>2024-02-18T06:15:49Z</time></trkpt>
<trkpt lat="37.616764279532475" lon="140.03756468243805"><ele>1279</ele><time>2024-02-18T06:16:12Z</time></trkpt>
<trkpt lat="37.616349724356375" lon="140.03744383658866"><ele>1279</ele><time>2024-02-18T06:16:39Z</time></trkpt>
<trkpt lat="37.61644656074272" lon="140.03695167350494"><ele>1264</ele><time>2024-02-18T06:17:10Z</time></trkpt>
<trkpt lat="37.61676495411577" lon="140.03665858281323"><ele>1250</ele><time>2024-02-18T06:17:39Z</time></trkpt>
<trkpt lat="37.61722631821028" lon="140.03651062480267"><ele>1242</ele><time>2024-02-18T06:18:47Z</time></trkpt>
<trkpt lat="37.618120835623294" lon="140.03528820731518"><ele>1183</ele><time>2024-02-18T06:19:52Z</time></trkpt>
<trkpt lat="37.61919006538368" lon="140.0352741251355"><ele>1152</ele><time>2024-02-18T06:20:13Z</time></trkpt>
<trkpt lat="37.620319743968196" lon="140.03560053098948"><ele>1122</ele><time>2024-02-18T06:21:41Z</time></trkpt>
<trkpt lat="37.621734054874885" lon="140.03634204748764"><ele>1091</ele><time>2024-02-18T06:22:02Z</time></trkpt>
<trkpt lat="37.623253367056044" lon="140.0371583463915"><ele>1072</ele><time>2024-02-18T06:22:23Z</time></trkpt>
<trkpt lat="37.62432739775587" lon="140.03756544177017"><ele>1065</ele><time>2024-02-18T06:22:44Z</time></trkpt>
<trkpt lat="37.62561510912446" lon="140.03792696808674"><ele>1044</ele><time>2024-02-18T06:23:05Z</time></trkpt>
<trkpt lat="37.626745553770675" lon="140.0387130533384"><ele>1038</ele><time>2024-02-18T06:23:26Z</time></trkpt>
<trkpt lat="37.626820164780476" lon="140.03903731531796"><ele>1036</ele><time>2024-02-18T06:23:54Z</time></trkpt>
<trkpt lat="37.62685323472834" lon="140.0393722696622"><ele>1039</ele><time>2024-02-18T06:26:37Z</time></trkpt>
<trkpt lat="37.62710675883962" lon="140.0394435785941"><ele>1037</ele><time>2024-02-18T06:27:06Z</time></trkpt>
<trkpt lat="37.62725210324054" lon="140.0395513949421"><ele>1039</ele><time>2024-02-18T06:27:34Z</time></trkpt>
</trkseg>
</trk>
</gpx>