<?xml version="1.0" encoding="UTF-8"?>
<gpx xmlns:xsi="http://www.w3.org/2001/XMLSchema-instance" xmlns="http://www.topografix.com/GPX/1/1" xsi:schemaLocation="http://www.topografix.com/GPX/1/1 http://www.topografix.com/GPX/1/1/gpx.xsd" creator="Yamareco iOS 7.06 - www.yamareco.com">
<trk><name>track</name><number>1</number><trkseg>
<trkpt lat="36.81655112657399" lon="139.39769726259578"><ele>1775</ele><time>2024-09-27T22:05:40Z</time></trkpt>
<trkpt lat="36.81664047766194" lon="139.39778577549328"><ele>1841</ele><time>2024-09-27T22:06:10Z</time></trkpt>
<trkpt lat="36.816779835701176" lon="139.3975322893471"><ele>1848</ele><time>2024-09-27T22:07:01Z</time></trkpt>
<trkpt lat="36.81693983487295" lon="139.3975949481206"><ele>1857</ele><time>2024-09-27T22:07:38Z</time></trkpt>
<trkpt lat="36.817058386425245" lon="139.3974578243282"><ele>1864</ele><time>2024-09-27T22:08:12Z</time></trkpt>
<trkpt lat="36.81723663052208" lon="139.3975519717863"><ele>1875</ele><time>2024-09-27T22:08:52Z</time></trkpt>
<trkpt lat="36.81734213417993" lon="139.39757434728853"><ele>1884</ele><time>2024-09-27T22:09:42Z</time></trkpt>
<trkpt lat="36.817454001570276" lon="139.39748299256775"><ele>1892</ele><time>2024-09-27T22:10:18Z</time></trkpt>
<trkpt lat="36.81755789544701" lon="139.39735416445887"><ele>1900</ele><time>2024-09-27T22:11:13Z</time></trkpt>
<trkpt lat="36.81766185500146" lon="139.39722748979594"><ele>1911</ele><time>2024-09-27T22:11:53Z</time></trkpt>
<trkpt lat="36.81785688207548" lon="139.39713848320653"><ele>1914</ele><time>2024-09-27T22:12:26Z</time></trkpt>
<trkpt lat="36.818040576226046" lon="139.39707767750087"><ele>1921</ele><time>2024-09-27T22:13:01Z</time></trkpt>
<trkpt lat="36.818250549662146" lon="139.39699327792277"><ele>1924</ele><time>2024-09-27T22:13:37Z</time></trkpt>
<trkpt lat="36.81838674592791" lon="139.39690769817412"><ele>1926</ele><time>2024-09-27T22:14:24Z</time></trkpt>
<trkpt lat="36.818496342947135" lon="139.39689097318976"><ele>1940</ele><time>2024-09-27T22:15:18Z</time></trkpt>
<trkpt lat="36.8185139988498" lon="139.39664138739573"><ele>1956</ele><time>2024-09-27T22:17:20Z</time></trkpt>
<trkpt lat="36.81838896336832" lon="139.39648586551036"><ele>1962</ele><time>2024-09-27T22:18:12Z</time></trkpt>
<trkpt lat="36.818489301406466" lon="139.39637510331383"><ele>1968</ele><time>2024-09-27T22:19:06Z</time></trkpt>
<trkpt lat="36.81854539371742" lon="139.39621373390113"><ele>1979</ele><time>2024-09-27T22:20:03Z</time></trkpt>
<trkpt lat="36.818669940280394" lon="139.39607532855246"><ele>1992</ele><time>2024-09-27T22:20:57Z</time></trkpt>
<trkpt lat="36.81876255463827" lon="139.39591404257328"><ele>2001</ele><time>2024-09-27T22:21:48Z</time></trkpt>
<trkpt lat="36.81882495057993" lon="139.39577587771174"><ele>2009</ele><time>2024-09-27T22:22:58Z</time></trkpt>
<trkpt lat="36.81896954989944" lon="139.39572723589077"><ele>2019</ele><time>2024-09-27T22:24:00Z</time></trkpt>
<trkpt lat="36.81900595606791" lon="139.395450462443"><ele>2016</ele><time>2024-09-27T22:24:37Z</time></trkpt>
<trkpt lat="36.818931671395646" lon="139.39514472242618"><ele>2011</ele><time>2024-09-27T22:25:13Z</time></trkpt>
<trkpt lat="36.818866714956776" lon="139.3948842766146"><ele>2018</ele><time>2024-09-27T22:25:42Z</time></trkpt>
<trkpt lat="36.81872234814937" lon="139.39472896713565"><ele>2026</ele><time>2024-09-27T22:28:33Z</time></trkpt>
<trkpt lat="36.81865370533022" lon="139.39450229934045"><ele>2033</ele><time>2024-09-27T22:29:05Z</time></trkpt>
<trkpt lat="36.8185206949959" lon="139.39430802782942"><ele>2038</ele><time>2024-09-27T22:29:34Z</time></trkpt>
<trkpt lat="36.818379787349464" lon="139.39410872535092"><ele>2043</ele><time>2024-09-27T22:30:04Z</time></trkpt>
<trkpt lat="36.818187857295655" lon="139.3938548408242"><ele>2048</ele><time>2024-09-27T22:30:40Z</time></trkpt>
<trkpt lat="36.8180625525211" lon="139.39373966543806"><ele>2054</ele><time>2024-09-27T22:31:15Z</time></trkpt>
<trkpt lat="36.81780565816778" lon="139.39359662005555"><ele>2051</ele><time>2024-09-27T22:31:52Z</time></trkpt>
<trkpt lat="36.81748404988443" lon="139.39348878048978"><ele>2051</ele><time>2024-09-27T22:32:19Z</time></trkpt>
<trkpt lat="36.81726763534546" lon="139.39338701403744"><ele>2053</ele><time>2024-09-27T22:32:54Z</time></trkpt>
<trkpt lat="36.81702132792197" lon="139.39329003672788"><ele>2059</ele><time>2024-09-27T22:33:32Z</time></trkpt>
<trkpt lat="36.81687243996441" lon="139.3932411610469"><ele>2061</ele><time>2024-09-27T22:34:11Z</time></trkpt>
<trkpt lat="36.8167420070568" lon="139.39311489487636"><ele>2067</ele><time>2024-09-27T22:34:49Z</time></trkpt>
<trkpt lat="36.81656497897403" lon="139.39294477936755"><ele>2069</ele><time>2024-09-27T22:35:19Z</time></trkpt>
<trkpt lat="36.81644754348834" lon="139.3928649926898"><ele>2077</ele><time>2024-09-27T22:35:54Z</time></trkpt>
<trkpt lat="36.81645204123569" lon="139.3926752053446"><ele>2084</ele><time>2024-09-27T22:36:32Z</time></trkpt>
<trkpt lat="36.81633616447" lon="139.3926570759147"><ele>2091</ele><time>2024-09-27T22:37:06Z</time></trkpt>
<trkpt lat="36.816243705198865" lon="139.39246919402805"><ele>2101</ele><time>2024-09-27T22:37:50Z</time></trkpt>
<trkpt lat="36.81618268747696" lon="139.39228077264085"><ele>2104</ele><time>2024-09-27T22:38:26Z</time></trkpt>
<trkpt lat="36.8162731958399" lon="139.39210380178056"><ele>2105</ele><time>2024-09-27T22:39:18Z</time></trkpt>
<trkpt lat="36.816250684360746" lon="139.39194676521583"><ele>2104</ele><time>2024-09-27T22:40:46Z</time></trkpt>
<trkpt lat="36.81625667074822" lon="139.39174337833722"><ele>2107</ele><time>2024-09-27T22:41:39Z</time></trkpt>
<trkpt lat="36.81617152160021" lon="139.3916028498671"><ele>2112</ele><time>2024-09-27T22:42:16Z</time></trkpt>
<trkpt lat="36.816142247903834" lon="139.39147215216184"><ele>2120</ele><time>2024-09-27T22:43:15Z</time></trkpt>
<trkpt lat="36.81603217816183" lon="139.39142089426423"><ele>2125</ele><time>2024-09-27T22:43:59Z</time></trkpt>
<trkpt lat="36.815935433869164" lon="139.39149791064898"><ele>2132</ele><time>2024-09-27T22:44:37Z</time></trkpt>
<trkpt lat="36.815876282638385" lon="139.39137257870058"><ele>2145</ele><time>2024-09-27T22:45:58Z</time></trkpt>
<trkpt lat="36.81581846900606" lon="139.39149456745264"><ele>2150</ele><time>2024-09-27T22:47:04Z</time></trkpt>
<trkpt lat="36.81574058736546" lon="139.39136588559518"><ele>2169</ele><time>2024-09-27T22:49:13Z</time></trkpt>
<trkpt lat="36.815624473811795" lon="139.39120041124468"><ele>2174</ele><time>2024-09-27T22:50:19Z</time></trkpt>
<trkpt lat="36.815453920919225" lon="139.39109294263827"><ele>2183</ele><time>2024-09-27T22:51:20Z</time></trkpt>
<trkpt lat="36.815296761713284" lon="139.3910875158636"><ele>2196</ele><time>2024-09-27T22:52:24Z</time></trkpt>
<trkpt lat="36.815201114773984" lon="139.39122478584542"><ele>2198</ele><time>2024-09-27T22:53:01Z</time></trkpt>
<trkpt lat="36.815062357073565" lon="139.39118076184786"><ele>2207</ele><time>2024-09-27T22:54:38Z</time></trkpt>
<trkpt lat="36.81495382528085" lon="139.39133025193976"><ele>2213</ele><time>2024-09-27T22:55:27Z</time></trkpt>
<trkpt lat="36.81494512752415" lon="139.39146607832492"><ele>2218</ele><time>2024-09-27T22:56:04Z</time></trkpt>
<trkpt lat="36.81488711741533" lon="139.39134675619619"><ele>2223</ele><time>2024-09-27T22:58:35Z</time></trkpt>
<trkpt lat="36.8147644705894" lon="139.39114923470308"><ele>2228</ele><time>2024-09-27T22:59:38Z</time></trkpt>
<trkpt lat="36.81463392174185" lon="139.39106053796084"><ele>2233</ele><time>2024-09-27T23:02:37Z</time></trkpt>
<trkpt lat="36.81447349535371" lon="139.39096654306712"><ele>2237</ele><time>2024-09-27T23:03:18Z</time></trkpt>
<trkpt lat="36.81434936349759" lon="139.3909843202915"><ele>2239</ele><time>2024-09-27T23:05:36Z</time></trkpt>
<trkpt lat="36.8142905150312" lon="139.39085425812638"><ele>2234</ele><time>2024-09-27T23:12:27Z</time></trkpt>
<trkpt lat="36.81411301125539" lon="139.39092562642094"><ele>2224</ele><time>2024-09-27T23:13:23Z</time></trkpt>
<trkpt lat="36.81396387339824" lon="139.39098290015696"><ele>2219</ele><time>2024-09-27T23:14:23Z</time></trkpt>
<trkpt lat="36.81380977656716" lon="139.3909715964928"><ele>2205</ele><time>2024-09-27T23:16:04Z</time></trkpt>
<trkpt lat="36.81367066316874" lon="139.39103960052836"><ele>2200</ele><time>2024-09-27T23:16:46Z</time></trkpt>
<trkpt lat="36.81357240037647" lon="139.39096518543337"><ele>2193</ele><time>2024-09-27T23:18:02Z</time></trkpt>
<trkpt lat="36.81351911836053" lon="139.3908647796576"><ele>2187</ele><time>2024-09-27T23:18:49Z</time></trkpt>
<trkpt lat="36.813366242379914" lon="139.3908349665794"><ele>2182</ele><time>2024-09-27T23:19:30Z</time></trkpt>
<trkpt lat="36.813126107857634" lon="139.39095099316242"><ele>2178</ele><time>2024-09-27T23:20:01Z</time></trkpt>
<trkpt lat="36.81296467723565" lon="139.39093598591163"><ele>2175</ele><time>2024-09-27T23:20:34Z</time></trkpt>
<trkpt lat="36.81273652703475" lon="139.39099650587633"><ele>2170</ele><time>2024-09-27T23:21:02Z</time></trkpt>
<trkpt lat="36.81249098707149" lon="139.3911707721649"><ele>2170</ele><time>2024-09-27T23:21:30Z</time></trkpt>
<trkpt lat="36.81218822373985" lon="139.39128922643522"><ele>2172</ele><time>2024-09-27T23:22:04Z</time></trkpt>
<trkpt lat="36.81194151460592" lon="139.39139126448526"><ele>2176</ele><time>2024-09-27T23:22:33Z</time></trkpt>
<trkpt lat="36.8117519467869" lon="139.39150117130876"><ele>2180</ele><time>2024-09-27T23:22:58Z</time></trkpt>
<trkpt lat="36.811522732334915" lon="139.39156544869155"><ele>2185</ele><time>2024-09-27T23:23:38Z</time></trkpt>
<trkpt lat="36.81135623415148" lon="139.39166060640838"><ele>2191</ele><time>2024-09-27T23:24:12Z</time></trkpt>
<trkpt lat="36.811250906845785" lon="139.39181384978647"><ele>2198</ele><time>2024-09-27T23:24:43Z</time></trkpt>
<trkpt lat="36.81108415128204" lon="139.39193223335707"><ele>2207</ele><time>2024-09-27T23:25:31Z</time></trkpt>
<trkpt lat="36.81081397913272" lon="139.392096306787"><ele>2209</ele><time>2024-09-27T23:26:00Z</time></trkpt>
<trkpt lat="36.81053310929463" lon="139.3923332494941"><ele>2212</ele><time>2024-09-27T23:26:26Z</time></trkpt>
<trkpt lat="36.81032577009049" lon="139.39254389466677"><ele>2215</ele><time>2024-09-27T23:26:56Z</time></trkpt>
<trkpt lat="36.81007711624254" lon="139.39261275505777"><ele>2219</ele><time>2024-09-27T23:27:27Z</time></trkpt>
<trkpt lat="36.80983727531953" lon="139.392642650619"><ele>2222</ele><time>2024-09-27T23:27:58Z</time></trkpt>
<trkpt lat="36.80966198636244" lon="139.3924499987599"><ele>2228</ele><time>2024-09-27T23:28:47Z</time></trkpt>
<trkpt lat="36.80943133222503" lon="139.39247798673733"><ele>2234</ele><time>2024-09-27T23:29:31Z</time></trkpt>
<trkpt lat="36.8093023697734" lon="139.39237098386207"><ele>2240</ele><time>2024-09-27T23:30:01Z</time></trkpt>
<trkpt lat="36.80917662191406" lon="139.3921998119679"><ele>2253</ele><time>2024-09-27T23:30:58Z</time></trkpt>
<trkpt lat="36.809017898121354" lon="139.39215095795703"><ele>2257</ele><time>2024-09-27T23:31:35Z</time></trkpt>
<trkpt lat="36.8088870739859" lon="139.39200076955663"><ele>2266</ele><time>2024-09-27T23:32:18Z</time></trkpt>
<trkpt lat="36.80882972381374" lon="139.39184011119755"><ele>2275</ele><time>2024-09-27T23:32:58Z</time></trkpt>
<trkpt lat="36.808743307747385" lon="139.3916106944818"><ele>2279</ele><time>2024-09-27T23:33:32Z</time></trkpt>
<trkpt lat="36.80862437633809" lon="139.39134069738932"><ele>2288</ele><time>2024-09-27T23:34:04Z</time></trkpt>
<trkpt lat="36.8085144535782" lon="139.39114262776593"><ele>2293</ele><time>2024-09-27T23:34:49Z</time></trkpt>
<trkpt lat="36.8082304346291" lon="139.39097749721284"><ele>2297</ele><time>2024-09-27T23:35:22Z</time></trkpt>
<trkpt lat="36.80797648364779" lon="139.3908530583163"><ele>2300</ele><time>2024-09-27T23:35:52Z</time></trkpt>
<trkpt lat="36.80777031510637" lon="139.3906867874008"><ele>2303</ele><time>2024-09-27T23:36:23Z</time></trkpt>
<trkpt lat="36.8076117356012" lon="139.39051066580262"><ele>2296</ele><time>2024-09-27T23:36:51Z</time></trkpt>
<trkpt lat="36.80744122138047" lon="139.3902622667243"><ele>2295</ele><time>2024-09-27T23:37:22Z</time></trkpt>
<trkpt lat="36.807285801034574" lon="139.3900428390528"><ele>2298</ele><time>2024-09-27T23:37:50Z</time></trkpt>
<trkpt lat="36.80718468504578" lon="139.3899496750081"><ele>2305</ele><time>2024-09-27T23:38:42Z</time></trkpt>
<trkpt lat="36.80701597988867" lon="139.38976745244278"><ele>2310</ele><time>2024-09-27T23:39:17Z</time></trkpt>
<trkpt lat="36.80691086269434" lon="139.38958629189685"><ele>2317</ele><time>2024-09-27T23:39:55Z</time></trkpt>
<trkpt lat="36.80681025493518" lon="139.3893400823531"><ele>2326</ele><time>2024-09-27T23:40:39Z</time></trkpt>
<trkpt lat="36.80658370178005" lon="139.3892471243121"><ele>2330</ele><time>2024-09-27T23:41:12Z</time></trkpt>
<trkpt lat="36.80638842799183" lon="139.38917468441804"><ele>2337</ele><time>2024-09-27T23:41:51Z</time></trkpt>
<trkpt lat="36.80621736676741" lon="139.38915349970824"><ele>2345</ele><time>2024-09-27T23:42:28Z</time></trkpt>
<trkpt lat="36.806032545028565" lon="139.38913646813037"><ele>2352</ele><time>2024-09-27T23:43:08Z</time></trkpt>
<trkpt lat="36.80585916122403" lon="139.3890910747654"><ele>2358</ele><time>2024-09-27T23:43:48Z</time></trkpt>
<trkpt lat="36.80569205244503" lon="139.38907840000928"><ele>2363</ele><time>2024-09-27T23:44:24Z</time></trkpt>
<trkpt lat="36.805499886057476" lon="139.38895646866237"><ele>2366</ele><time>2024-09-27T23:44:58Z</time></trkpt>
<trkpt lat="36.80530302170305" lon="139.3888131823151"><ele>2366</ele><time>2024-09-27T23:45:31Z</time></trkpt>
<trkpt lat="36.805169670756804" lon="139.3887548967793"><ele>2368</ele><time>2024-09-27T23:46:01Z</time></trkpt>
<trkpt lat="36.804964130657105" lon="139.38864494994576"><ele>2374</ele><time>2024-09-27T23:46:38Z</time></trkpt>
<trkpt lat="36.8047538148934" lon="139.38849399255534"><ele>2372</ele><time>2024-09-27T23:48:05Z</time></trkpt>
<trkpt lat="36.804726386060565" lon="139.3886286423252"><ele>2374</ele><time>2024-09-27T23:57:08Z</time></trkpt>
<trkpt lat="36.80455444692747" lon="139.3886574584788"><ele>2370</ele><time>2024-09-27T23:57:38Z</time></trkpt>
<trkpt lat="36.804392594802295" lon="139.38872665930387"><ele>2362</ele><time>2024-09-27T23:58:14Z</time></trkpt>
<trkpt lat="36.80422451052858" lon="139.38872852345483"><ele>2355</ele><time>2024-09-27T23:58:55Z</time></trkpt>
<trkpt lat="36.804062654237725" lon="139.38882225599758"><ele>2351</ele><time>2024-09-27T23:59:27Z</time></trkpt>
<trkpt lat="36.8039193177657" lon="139.38883035258783"><ele>2343</ele><time>2024-09-28T00:00:14Z</time></trkpt>
<trkpt lat="36.80373452917583" lon="139.38883835268777"><ele>2338</ele><time>2024-09-28T00:00:53Z</time></trkpt>
<trkpt lat="36.80361054720776" lon="139.3888941445879"><ele>2330</ele><time>2024-09-28T00:01:38Z</time></trkpt>
<trkpt lat="36.803428571737314" lon="139.3888961163709"><ele>2322</ele><time>2024-09-28T00:02:30Z</time></trkpt>
<trkpt lat="36.803237953144055" lon="139.38901167043574"><ele>2318</ele><time>2024-09-28T00:03:03Z</time></trkpt>
<trkpt lat="36.80302717581766" lon="139.38911852815244"><ele>2315</ele><time>2024-09-28T00:03:29Z</time></trkpt>
<trkpt lat="36.802815716258344" lon="139.38929485875556"><ele>2319</ele><time>2024-09-28T00:04:02Z</time></trkpt>
<trkpt lat="36.8025413757603" lon="139.38936504487438"><ele>2319</ele><time>2024-09-28T00:04:33Z</time></trkpt>
<trkpt lat="36.80226604171962" lon="139.38941282730147"><ele>2322</ele><time>2024-09-28T00:05:01Z</time></trkpt>
<trkpt lat="36.80203281743231" lon="139.38956338274903"><ele>2323</ele><time>2024-09-28T00:05:34Z</time></trkpt>
<trkpt lat="36.80174039195215" lon="139.38968855733168"><ele>2325</ele><time>2024-09-28T00:06:04Z</time></trkpt>
<trkpt lat="36.801572921441384" lon="139.38983253563882"><ele>2321</ele><time>2024-09-28T00:06:37Z</time></trkpt>
<trkpt lat="36.80142632572752" lon="139.38994330247377"><ele>2314</ele><time>2024-09-28T00:07:13Z</time></trkpt>
<trkpt lat="36.801251996559394" lon="139.3900705068042"><ele>2320</ele><time>2024-09-28T00:07:47Z</time></trkpt>
<trkpt lat="36.80118394464054" lon="139.39022415860947"><ele>2330</ele><time>2024-09-28T00:08:49Z</time></trkpt>
<trkpt lat="36.8012130927905" lon="139.3904108792337"><ele>2341</ele><time>2024-09-28T00:09:30Z</time></trkpt>
<trkpt lat="36.801095412392485" lon="139.3905648842592"><ele>2348</ele><time>2024-09-28T00:10:38Z</time></trkpt>
<trkpt lat="36.80095851696274" lon="139.39070115681625"><ele>2353</ele><time>2024-09-28T00:11:57Z</time></trkpt>
<trkpt lat="36.80082465816323" lon="139.3909730385631"><ele>2353</ele><time>2024-09-28T00:12:24Z</time></trkpt>
<trkpt lat="36.80064000644891" lon="139.3912138174339"><ele>2351</ele><time>2024-09-28T00:12:53Z</time></trkpt>
<trkpt lat="36.800462466430055" lon="139.3914172046979"><ele>2349</ele><time>2024-09-28T00:13:26Z</time></trkpt>
<trkpt lat="36.80035087485669" lon="139.3916680269137"><ele>2351</ele><time>2024-09-28T00:14:02Z</time></trkpt>
<trkpt lat="36.80020272500668" lon="139.3918553442656"><ele>2355</ele><time>2024-09-28T00:14:32Z</time></trkpt>
<trkpt lat="36.80000457086783" lon="139.39197119794596"><ele>2361</ele><time>2024-09-28T00:15:02Z</time></trkpt>
<trkpt lat="36.799876002841536" lon="139.39195978407284"><ele>2363</ele><time>2024-09-28T00:17:20Z</time></trkpt>
<trkpt lat="36.7997602514745" lon="139.39183688593488"><ele>2362</ele><time>2024-09-28T00:17:49Z</time></trkpt>
<trkpt lat="36.799631196304176" lon="139.391679233647"><ele>2367</ele><time>2024-09-28T00:18:31Z</time></trkpt>
<trkpt lat="36.7993991051536" lon="139.39176321940994"><ele>2370</ele><time>2024-09-28T00:19:29Z</time></trkpt>
<trkpt lat="36.79913755319637" lon="139.39188264982664"><ele>2367</ele><time>2024-09-28T00:19:58Z</time></trkpt>
<trkpt lat="36.79895507948558" lon="139.39212378765436"><ele>2368</ele><time>2024-09-28T00:20:26Z</time></trkpt>
<trkpt lat="36.799129410799" lon="139.39184196916895"><ele>2368</ele><time>2024-09-28T00:27:01Z</time></trkpt>
<trkpt lat="36.799111472232326" lon="139.3915892155517"><ele>2363</ele><time>2024-09-28T00:27:31Z</time></trkpt>
<trkpt lat="36.79921206592785" lon="139.3912980595519"><ele>2359</ele><time>2024-09-28T00:28:03Z</time></trkpt>
<trkpt lat="36.79925442273621" lon="139.3909973130014"><ele>2351</ele><time>2024-09-28T00:28:31Z</time></trkpt>
<trkpt lat="36.79930865648692" lon="139.39088527218755"><ele>2350</ele><time>2024-09-28T00:29:56Z</time></trkpt>
<trkpt lat="36.799213748096555" lon="139.39080999102615"><ele>2342</ele><time>2024-09-28T00:30:52Z</time></trkpt>
<trkpt lat="36.79926941265884" lon="139.39066040813327"><ele>2334</ele><time>2024-09-28T00:31:39Z</time></trkpt>
<trkpt lat="36.79919014986095" lon="139.3904731723851"><ele>2324</ele><time>2024-09-28T00:32:39Z</time></trkpt>
<trkpt lat="36.79907246035446" lon="139.3903945263421"><ele>2318</ele><time>2024-09-28T00:33:54Z</time></trkpt>
<trkpt lat="36.79897721881092" lon="139.39024337583524"><ele>2314</ele><time>2024-09-28T00:34:50Z</time></trkpt>
<trkpt lat="36.79893327014195" lon="139.38985903754323"><ele>2308</ele><time>2024-09-28T00:35:15Z</time></trkpt>
<trkpt lat="36.79875912553179" lon="139.38954093425596"><ele>2308</ele><time>2024-09-28T00:36:07Z</time></trkpt>
<trkpt lat="36.79860331599417" lon="139.38931015148955"><ele>2314</ele><time>2024-09-28T00:36:35Z</time></trkpt>
<trkpt lat="36.79848265689364" lon="139.38918068036912"><ele>2318</ele><time>2024-09-28T00:37:15Z</time></trkpt>
<trkpt lat="36.798388595880766" lon="139.38897615297623"><ele>2324</ele><time>2024-09-28T00:37:45Z</time></trkpt>
<trkpt lat="36.79818405986286" lon="139.3888125258402"><ele>2327</ele><time>2024-09-28T00:38:13Z</time></trkpt>
<trkpt lat="36.79803891180954" lon="139.388606632608"><ele>2333</ele><time>2024-09-28T00:38:43Z</time></trkpt>
<trkpt lat="36.797892174525174" lon="139.38847210224137"><ele>2339</ele><time>2024-09-28T00:39:16Z</time></trkpt>
<trkpt lat="36.79768769540105" lon="139.38835840809662"><ele>2340</ele><time>2024-09-28T00:39:54Z</time></trkpt>
<trkpt lat="36.79737897308977" lon="139.3883460954882"><ele>2337</ele><time>2024-09-28T00:40:22Z</time></trkpt>
<trkpt lat="36.79720008093942" lon="139.38821295604288"><ele>2333</ele><time>2024-09-28T00:40:53Z</time></trkpt>
<trkpt lat="36.7969394444273" lon="139.38806300592603"><ele>2331</ele><time>2024-09-28T00:41:19Z</time></trkpt>
<trkpt lat="36.79668016504341" lon="139.38791467714645"><ele>2329</ele><time>2024-09-28T00:41:47Z</time></trkpt>
<trkpt lat="36.79665598800634" lon="139.38768264556222"><ele>2327</ele><time>2024-09-28T00:42:34Z</time></trkpt>
<trkpt lat="36.796648299227165" lon="139.38750586138974"><ele>2324</ele><time>2024-09-28T00:43:19Z</time></trkpt>
<trkpt lat="36.79664657089996" lon="139.38724099081256"><ele>2313</ele><time>2024-09-28T00:44:17Z</time></trkpt>
<trkpt lat="36.796628526563325" lon="139.38707142913083"><ele>2312</ele><time>2024-09-28T00:45:18Z</time></trkpt>
<trkpt lat="36.79653725959596" lon="139.38692545305483"><ele>2306</ele><time>2024-09-28T00:46:11Z</time></trkpt>
<trkpt lat="36.79657138109819" lon="139.38674804347949"><ele>2300</ele><time>2024-09-28T00:47:21Z</time></trkpt>
<trkpt lat="36.79655798017283" lon="139.38663398072956"><ele>2298</ele><time>2024-09-28T00:48:06Z</time></trkpt>
<trkpt lat="36.796476275505746" lon="139.38646417381275"><ele>2292</ele><time>2024-09-28T00:49:18Z</time></trkpt>
<trkpt lat="36.79641021188665" lon="139.38628374660058"><ele>2286</ele><time>2024-09-28T00:49:58Z</time></trkpt>
<trkpt lat="36.79631688516245" lon="139.38618291097825"><ele>2281</ele><time>2024-09-28T00:51:11Z</time></trkpt>
<trkpt lat="36.796215798653975" lon="139.38603559823815"><ele>2280</ele><time>2024-09-28T00:51:57Z</time></trkpt>
<trkpt lat="36.796131788125784" lon="139.38580683356005"><ele>2276</ele><time>2024-09-28T00:53:06Z</time></trkpt>
<trkpt lat="36.7960520621992" lon="139.38566939601773"><ele>2275</ele><time>2024-09-28T00:53:53Z</time></trkpt>
<trkpt lat="36.79602356383503" lon="139.38551336998268"><ele>2271</ele><time>2024-09-28T00:54:43Z</time></trkpt>
<trkpt lat="36.79606645935423" lon="139.38535660207427"><ele>2262</ele><time>2024-09-28T00:55:57Z</time></trkpt>
<trkpt lat="36.79607849468581" lon="139.38518805779287"><ele>2258</ele><time>2024-09-28T00:57:56Z</time></trkpt>
<trkpt lat="36.79622079234534" lon="139.38499044015526"><ele>2249</ele><time>2024-09-28T00:59:01Z</time></trkpt>
<trkpt lat="36.79619534767204" lon="139.38479097270087"><ele>2252</ele><time>2024-09-28T00:59:42Z</time></trkpt>
<trkpt lat="36.79601889215906" lon="139.38467232169978"><ele>2252</ele><time>2024-09-28T01:03:03Z</time></trkpt>
<trkpt lat="36.79591632740368" lon="139.38440035635082"><ele>2247</ele><time>2024-09-28T01:03:40Z</time></trkpt>
<trkpt lat="36.795679428096555" lon="139.38423591478806"><ele>2251</ele><time>2024-09-28T01:04:07Z</time></trkpt>
<trkpt lat="36.795447780516554" lon="139.3840694750006"><ele>2253</ele><time>2024-09-28T01:04:36Z</time></trkpt>
<trkpt lat="36.79527884129637" lon="139.3838170501719"><ele>2253</ele><time>2024-09-28T01:05:06Z</time></trkpt>
<trkpt lat="36.79511368355049" lon="139.38352347728298"><ele>2255</ele><time>2024-09-28T01:05:33Z</time></trkpt>
<trkpt lat="36.7950335576175" lon="139.38321023684097"><ele>2256</ele><time>2024-09-28T01:06:04Z</time></trkpt>
<trkpt lat="36.79514069289345" lon="139.38302099409185"><ele>2263</ele><time>2024-09-28T01:06:36Z</time></trkpt>
<trkpt lat="36.795204202947644" lon="139.38287789891362"><ele>2267</ele><time>2024-09-28T01:07:06Z</time></trkpt>
<trkpt lat="36.79535812408105" lon="139.3827846062211"><ele>2274</ele><time>2024-09-28T01:07:46Z</time></trkpt>
<trkpt lat="36.79546414844178" lon="139.3826037416662"><ele>2279</ele><time>2024-09-28T01:08:26Z</time></trkpt>
<trkpt lat="36.795518461176734" lon="139.38238031780455"><ele>2285</ele><time>2024-09-28T01:08:58Z</time></trkpt>
<trkpt lat="36.79563074026225" lon="139.38212813706136"><ele>2290</ele><time>2024-09-28T01:09:45Z</time></trkpt>
<trkpt lat="36.795694045955834" lon="139.38197818035295"><ele>2302</ele><time>2024-09-28T01:10:25Z</time></trkpt>
<trkpt lat="36.79584261864848" lon="139.38188406173458"><ele>2307</ele><time>2024-09-28T01:11:11Z</time></trkpt>
<trkpt lat="36.79599153977509" lon="139.3817543352678"><ele>2312</ele><time>2024-09-28T01:11:48Z</time></trkpt>
<trkpt lat="36.79605055268078" lon="139.3815810539427"><ele>2317</ele><time>2024-09-28T01:12:25Z</time></trkpt>
<trkpt lat="36.7960170404781" lon="139.3813735397501"><ele>2324</ele><time>2024-09-28T01:13:06Z</time></trkpt>
<trkpt lat="36.79608341235159" lon="139.38121913071862"><ele>2330</ele><time>2024-09-28T01:13:57Z</time></trkpt>
<trkpt lat="36.79608147985555" lon="139.38104490931312"><ele>2334</ele><time>2024-09-28T01:14:35Z</time></trkpt>
<trkpt lat="36.79613457435851" lon="139.38090846939426"><ele>2342</ele><time>2024-09-28T01:15:23Z</time></trkpt>
<trkpt lat="36.79615520548638" lon="139.3807821344122"><ele>2348</ele><time>2024-09-28T01:16:08Z</time></trkpt>
<trkpt lat="36.79615737128168" lon="139.38059938111957"><ele>2353</ele><time>2024-09-28T01:16:57Z</time></trkpt>
<trkpt lat="36.79619046266366" lon="139.38047668285978"><ele>2361</ele><time>2024-09-28T01:17:47Z</time></trkpt>
<trkpt lat="36.79632925596804" lon="139.38037791661694"><ele>2369</ele><time>2024-09-28T01:18:34Z</time></trkpt>
<trkpt lat="36.79635673040385" lon="139.3802475000092"><ele>2379</ele><time>2024-09-28T01:19:28Z</time></trkpt>
<trkpt lat="36.796305353729274" lon="139.38013117177843"><ele>2386</ele><time>2024-09-28T01:20:25Z</time></trkpt>
<trkpt lat="36.796306250933405" lon="139.37995082654905"><ele>2395</ele><time>2024-09-28T01:21:33Z</time></trkpt>
<trkpt lat="36.79633675759212" lon="139.37976194830318"><ele>2407</ele><time>2024-09-28T01:22:38Z</time></trkpt>
<trkpt lat="36.796408477697206" lon="139.37968064633657"><ele>2416</ele><time>2024-09-28T01:24:32Z</time></trkpt>
<trkpt lat="36.79658031384967" lon="139.3795474244147"><ele>2423</ele><time>2024-09-28T01:27:00Z</time></trkpt>
<trkpt lat="36.79657475280419" lon="139.37935980950428"><ele>2431</ele><time>2024-09-28T01:27:39Z</time></trkpt>
<trkpt lat="36.7963311356086" lon="139.3792702923488"><ele>2438</ele><time>2024-09-28T01:28:19Z</time></trkpt>
<trkpt lat="36.79610426504618" lon="139.37910733643506"><ele>2441</ele><time>2024-09-28T01:28:56Z</time></trkpt>
<trkpt lat="36.795949263893164" lon="139.378924852212"><ele>2446</ele><time>2024-09-28T01:29:29Z</time></trkpt>
<trkpt lat="36.795831989495255" lon="139.3787270791987"><ele>2452</ele><time>2024-09-28T01:30:11Z</time></trkpt>
<trkpt lat="36.795886048652704" lon="139.3785969870611"><ele>2464</ele><time>2024-09-28T01:31:01Z</time></trkpt>
<trkpt lat="36.79605172075786" lon="139.37861162526644"><ele>2469</ele><time>2024-09-28T01:31:36Z</time></trkpt>
<trkpt lat="36.796270020033184" lon="139.37865092019624"><ele>2475</ele><time>2024-09-28T01:32:13Z</time></trkpt>
<trkpt lat="36.79631008646095" lon="139.378473510651"><ele>2481</ele><time>2024-09-28T01:32:58Z</time></trkpt>
<trkpt lat="36.796211972645985" lon="139.3782934750675"><ele>2488</ele><time>2024-09-28T01:33:46Z</time></trkpt>
<trkpt lat="36.79611218097742" lon="139.37807912751748"><ele>2493</ele><time>2024-09-28T01:34:22Z</time></trkpt>
<trkpt lat="36.79614608466677" lon="139.3778575980001"><ele>2501</ele><time>2024-09-28T01:35:05Z</time></trkpt>
<trkpt lat="36.79612208970387" lon="139.37770070275997"><ele>2504</ele><time>2024-09-28T01:36:02Z</time></trkpt>
<trkpt lat="36.796261500555" lon="139.37769492631193"><ele>2510</ele><time>2024-09-28T01:36:36Z</time></trkpt>
<trkpt lat="36.79639750420966" lon="139.3776934424743"><ele>2514</ele><time>2024-09-28T01:37:13Z</time></trkpt>
<trkpt lat="36.79660121454923" lon="139.3777953209612"><ele>2524</ele><time>2024-09-28T01:37:59Z</time></trkpt>
<trkpt lat="36.79678404363739" lon="139.3778088960778"><ele>2527</ele><time>2024-09-28T01:38:29Z</time></trkpt>
<trkpt lat="36.79689952011476" lon="139.37766404955198"><ele>2534</ele><time>2024-09-28T01:39:05Z</time></trkpt>
<trkpt lat="36.79700337144416" lon="139.3774149876529"><ele>2539</ele><time>2024-09-28T01:39:40Z</time></trkpt>
<trkpt lat="36.797099399934496" lon="139.37707069752588"><ele>2543</ele><time>2024-09-28T01:54:07Z</time></trkpt>
<trkpt lat="36.79715738210169" lon="139.3767522819967"><ele>2545</ele><time>2024-09-28T01:54:34Z</time></trkpt>
<trkpt lat="36.79743180440712" lon="139.3764908229543"><ele>2543</ele><time>2024-09-28T01:55:07Z</time></trkpt>
<trkpt lat="36.79737896093901" lon="139.3761064352687"><ele>2545</ele><time>2024-09-28T01:55:51Z</time></trkpt>
<trkpt lat="36.79751158032562" lon="139.37591354958937"><ele>2551</ele><time>2024-09-28T01:56:18Z</time></trkpt>
<trkpt lat="36.797674715904925" lon="139.37585595871045"><ele>2553</ele><time>2024-09-28T01:57:04Z</time></trkpt>
<trkpt lat="36.79784142516301" lon="139.37580411682873"><ele>2557</ele><time>2024-09-28T01:57:37Z</time></trkpt>
<trkpt lat="36.79797367678152" lon="139.37564248353257"><ele>2560</ele><time>2024-09-28T01:58:09Z</time></trkpt>
<trkpt lat="36.79809379582763" lon="139.3756563480653"><ele>2560</ele><time>2024-09-28T01:58:51Z</time></trkpt>
<trkpt lat="36.79817352930523" lon="139.37583187756746"><ele>2555</ele><time>2024-09-28T01:59:43Z</time></trkpt>
<trkpt lat="36.798351254802654" lon="139.37569901113767"><ele>2565</ele><time>2024-09-28T02:00:12Z</time></trkpt>
<trkpt lat="36.798488127163914" lon="139.3757410521761"><ele>2570</ele><time>2024-09-28T02:00:54Z</time></trkpt>
<trkpt lat="36.798590763879986" lon="139.3758809725092"><ele>2577</ele><time>2024-09-28T02:02:00Z</time></trkpt>
<trkpt lat="36.79844059409393" lon="139.37601619354334"><ele>2573</ele><time>2024-09-28T02:08:01Z</time></trkpt>
<trkpt lat="36.79843788428418" lon="139.37618058177998"><ele>2573</ele><time>2024-09-28T02:08:37Z</time></trkpt>
<trkpt lat="36.79839247382272" lon="139.37630043485316"><ele>2558</ele><time>2024-09-28T02:39:31Z</time></trkpt>
<trkpt lat="36.7983814518343" lon="139.37615462683527"><ele>2571</ele><time>2024-09-28T02:43:48Z</time></trkpt>
<trkpt lat="36.79841992749366" lon="139.3759272034292"><ele>2570</ele><time>2024-09-28T02:45:30Z</time></trkpt>
<trkpt lat="36.79850021698428" lon="139.3758246880715"><ele>2567</ele><time>2024-09-28T02:46:21Z</time></trkpt>
<trkpt lat="36.79869998058462" lon="139.37564818357853"><ele>2568</ele><time>2024-09-28T02:46:55Z</time></trkpt>
<trkpt lat="36.79868821510431" lon="139.37582545307055"><ele>2561</ele><time>2024-09-28T02:49:58Z</time></trkpt>
<trkpt lat="36.79879258158038" lon="139.37599735028553"><ele>2559</ele><time>2024-09-28T02:50:28Z</time></trkpt>
<trkpt lat="36.79899529243637" lon="139.37605675902506"><ele>2564</ele><time>2024-09-28T02:51:18Z</time></trkpt>
<trkpt lat="36.799135891328376" lon="139.37594658601938"><ele>2565</ele><time>2024-09-28T02:52:05Z</time></trkpt>
<trkpt lat="36.79924613575105" lon="139.37570804279957"><ele>2564</ele><time>2024-09-28T02:52:58Z</time></trkpt>
<trkpt lat="36.799357624147035" lon="139.3755758039461"><ele>2560</ele><time>2024-09-28T02:53:25Z</time></trkpt>
<trkpt lat="36.79945131815334" lon="139.37546993598164"><ele>2552</ele><time>2024-09-28T02:54:27Z</time></trkpt>
<trkpt lat="36.79950997901099" lon="139.37537550571545"><ele>2543</ele><time>2024-09-28T02:57:29Z</time></trkpt>
<trkpt lat="36.799617506170875" lon="139.37529906491483"><ele>2537</ele><time>2024-09-28T02:58:42Z</time></trkpt>
<trkpt lat="36.799749943881224" lon="139.37506125452074"><ele>2529</ele><time>2024-09-28T03:00:00Z</time></trkpt>
<trkpt lat="36.7998651838337" lon="139.37507387313582"><ele>2524</ele><time>2024-09-28T03:00:49Z</time></trkpt>
<trkpt lat="36.7999682387839" lon="139.37515714091586"><ele>2514</ele><time>2024-09-28T03:02:03Z</time></trkpt>
<trkpt lat="36.79993179212512" lon="139.37536993009584"><ele>2511</ele><time>2024-09-28T03:03:57Z</time></trkpt>
<trkpt lat="36.800087182349124" lon="139.37537980546347"><ele>2495</ele><time>2024-09-28T03:04:47Z</time></trkpt>
<trkpt lat="36.80023291524426" lon="139.37545128937978"><ele>2479</ele><time>2024-09-28T03:05:51Z</time></trkpt>
<trkpt lat="36.80040656013259" lon="139.37548593259712"><ele>2471</ele><time>2024-09-28T03:07:44Z</time></trkpt>
<trkpt lat="36.80054354777652" lon="139.37551739022527"><ele>2461</ele><time>2024-09-28T03:08:28Z</time></trkpt>
<trkpt lat="36.800611566290776" lon="139.37539763869006"><ele>2460</ele><time>2024-09-28T03:11:15Z</time></trkpt>
<trkpt lat="36.80073108332134" lon="139.37531939665644"><ele>2443</ele><time>2024-09-28T03:12:50Z</time></trkpt>
<trkpt lat="36.80085641250731" lon="139.3753327947208"><ele>2434</ele><time>2024-09-28T03:14:05Z</time></trkpt>
<trkpt lat="36.801039142994384" lon="139.37542702325183"><ele>2418</ele><time>2024-09-28T03:14:53Z</time></trkpt>
<trkpt lat="36.801212505327484" lon="139.37537966730284"><ele>2407</ele><time>2024-09-28T03:15:27Z</time></trkpt>
<trkpt lat="36.801414405021184" lon="139.3756888045742"><ele>2406</ele><time>2024-09-28T03:16:00Z</time></trkpt>
<trkpt lat="36.80158546764418" lon="139.3756462283452"><ele>2393</ele><time>2024-09-28T03:16:29Z</time></trkpt>
<trkpt lat="36.80177681244035" lon="139.37553019597559"><ele>2386</ele><time>2024-09-28T03:17:03Z</time></trkpt>
<trkpt lat="36.801952786669574" lon="139.3753174582246"><ele>2379</ele><time>2024-09-28T03:17:27Z</time></trkpt>
<trkpt lat="36.80211289145129" lon="139.37521650906305"><ele>2369</ele><time>2024-09-28T03:18:42Z</time></trkpt>
<trkpt lat="36.80230356221018" lon="139.37519485995531"><ele>2363</ele><time>2024-09-28T03:19:14Z</time></trkpt>
<trkpt lat="36.802547242986144" lon="139.37526807178747"><ele>2354</ele><time>2024-09-28T03:19:49Z</time></trkpt>
<trkpt lat="36.80272300102534" lon="139.37511389133968"><ele>2346</ele><time>2024-09-28T03:20:21Z</time></trkpt>
<trkpt lat="36.80287013350088" lon="139.37489415848773"><ele>2340</ele><time>2024-09-28T03:20:48Z</time></trkpt>
<trkpt lat="36.8030773493584" lon="139.37463160100995"><ele>2332</ele><time>2024-09-28T03:21:21Z</time></trkpt>
<trkpt lat="36.80322469427768" lon="139.37430273268188"><ele>2331</ele><time>2024-09-28T03:21:49Z</time></trkpt>
<trkpt lat="36.803370643961244" lon="139.37410980382452"><ele>2319</ele><time>2024-09-28T03:22:25Z</time></trkpt>
<trkpt lat="36.80348989675598" lon="139.37412226045976"><ele>2312</ele><time>2024-09-28T03:23:00Z</time></trkpt>
<trkpt lat="36.803652034481296" lon="139.374046667172"><ele>2297</ele><time>2024-09-28T03:23:50Z</time></trkpt>
<trkpt lat="36.80375339217695" lon="139.37421245500173"><ele>2288</ele><time>2024-09-28T03:24:29Z</time></trkpt>
<trkpt lat="36.803898548093365" lon="139.37418774726407"><ele>2281</ele><time>2024-09-28T03:25:07Z</time></trkpt>
<trkpt lat="36.80395229591051" lon="139.37446471658615"><ele>2278</ele><time>2024-09-28T03:25:35Z</time></trkpt>
<trkpt lat="36.8039662060566" lon="139.37490930173044"><ele>2273</ele><time>2024-09-28T03:26:04Z</time></trkpt>
<trkpt lat="36.8040503918141" lon="139.37524479134643"><ele>2268</ele><time>2024-09-28T03:26:31Z</time></trkpt>
<trkpt lat="36.80405102079044" lon="139.37558889376263"><ele>2255</ele><time>2024-09-28T03:27:29Z</time></trkpt>
<trkpt lat="36.80418511734385" lon="139.37625333310166"><ele>2256</ele><time>2024-09-28T03:27:52Z</time></trkpt>
<trkpt lat="36.80427344136846" lon="139.37644882188025"><ele>2254</ele><time>2024-09-28T03:28:36Z</time></trkpt>
<trkpt lat="36.80434819182022" lon="139.37651572754916"><ele>2253</ele><time>2024-09-28T03:31:47Z</time></trkpt>
<trkpt lat="36.804208570004285" lon="139.37644055307874"><ele>2255</ele><time>2024-09-28T03:37:30Z</time></trkpt>
<trkpt lat="36.80430312714135" lon="139.376428520506"><ele>2256</ele><time>2024-09-28T03:44:30Z</time></trkpt>
<trkpt lat="36.804208081754695" lon="139.37636348214656"><ele>2259</ele><time>2024-09-28T03:47:57Z</time></trkpt>
<trkpt lat="36.80400898649889" lon="139.37638482345304"><ele>2256</ele><time>2024-09-28T03:54:38Z</time></trkpt>
<trkpt lat="36.803800346583216" lon="139.3764793838337"><ele>2258</ele><time>2024-09-28T03:55:07Z</time></trkpt>
<trkpt lat="36.80358358003016" lon="139.37652064815623"><ele>2260</ele><time>2024-09-28T03:55:44Z</time></trkpt>
<trkpt lat="36.80346521208116" lon="139.37671736980576"><ele>2263</ele><time>2024-09-28T03:56:14Z</time></trkpt>
<trkpt lat="36.803313612875776" lon="139.37683338263437"><ele>2267</ele><time>2024-09-28T03:56:57Z</time></trkpt>
<trkpt lat="36.803290633869764" lon="139.3770185891894"><ele>2268</ele><time>2024-09-28T03:57:36Z</time></trkpt>
<trkpt lat="36.80316102259568" lon="139.37728569682517"><ele>2272</ele><time>2024-09-28T03:58:11Z</time></trkpt>
<trkpt lat="36.803082301264446" lon="139.3775987466751"><ele>2275</ele><time>2024-09-28T03:58:45Z</time></trkpt>
<trkpt lat="36.80318315736744" lon="139.37776184916174"><ele>2281</ele><time>2024-09-28T03:59:19Z</time></trkpt>
<trkpt lat="36.80322449546123" lon="139.37797596908007"><ele>2291</ele><time>2024-09-28T04:00:07Z</time></trkpt>
<trkpt lat="36.80334144692136" lon="139.3781091905661"><ele>2295</ele><time>2024-09-28T04:00:51Z</time></trkpt>
<trkpt lat="36.80351657027847" lon="139.37822839246073"><ele>2296</ele><time>2024-09-28T04:01:33Z</time></trkpt>
<trkpt lat="36.80362840293517" lon="139.37845611790826"><ele>2290</ele><time>2024-09-28T04:02:19Z</time></trkpt>
<trkpt lat="36.80373475985001" lon="139.37873721668763"><ele>2290</ele><time>2024-09-28T04:02:48Z</time></trkpt>
<trkpt lat="36.80361792505725" lon="139.37902342371814"><ele>2292</ele><time>2024-09-28T04:03:39Z</time></trkpt>
<trkpt lat="36.80354908986483" lon="139.37923787598737"><ele>2290</ele><time>2024-09-28T04:04:18Z</time></trkpt>
<trkpt lat="36.80368739568161" lon="139.37925378179344"><ele>2291</ele><time>2024-09-28T04:04:59Z</time></trkpt>
<trkpt lat="36.80374502679376" lon="139.37904408022013"><ele>2289</ele><time>2024-09-28T04:06:07Z</time></trkpt>
<trkpt lat="36.80392852704164" lon="139.37914011000998"><ele>2291</ele><time>2024-09-28T04:06:49Z</time></trkpt>
<trkpt lat="36.80411364945887" lon="139.3791210029134"><ele>2289</ele><time>2024-09-28T04:07:30Z</time></trkpt>
<trkpt lat="36.80425075608025" lon="139.3791962034345"><ele>2286</ele><time>2024-09-28T04:08:08Z</time></trkpt>
<trkpt lat="36.804400128169505" lon="139.3793446780116"><ele>2282</ele><time>2024-09-28T04:08:45Z</time></trkpt>
<trkpt lat="36.8044370522848" lon="139.37952080948517"><ele>2283</ele><time>2024-09-28T04:09:31Z</time></trkpt>
<trkpt lat="36.80437852943051" lon="139.37965854726482"><ele>2280</ele><time>2024-09-28T04:10:10Z</time></trkpt>
<trkpt lat="36.80433960815596" lon="139.37982187250046"><ele>2274</ele><time>2024-09-28T04:11:07Z</time></trkpt>
<trkpt lat="36.80439655107515" lon="139.37995192306212"><ele>2267</ele><time>2024-09-28T04:12:08Z</time></trkpt>
<trkpt lat="36.8044672844248" lon="139.38009983423868"><ele>2260</ele><time>2024-09-28T04:12:57Z</time></trkpt>
<trkpt lat="36.80445004264927" lon="139.38026789272942"><ele>2254</ele><time>2024-09-28T04:14:05Z</time></trkpt>
<trkpt lat="36.80437148266743" lon="139.38047692138662"><ele>2245</ele><time>2024-09-28T04:15:30Z</time></trkpt>
<trkpt lat="36.8043760459579" lon="139.38070668290973"><ele>2238</ele><time>2024-09-28T04:16:38Z</time></trkpt>
<trkpt lat="36.804514771859026" lon="139.38096976948887"><ele>2238</ele><time>2024-09-28T04:17:12Z</time></trkpt>
<trkpt lat="36.8045830801708" lon="139.38114100537155"><ele>2240</ele><time>2024-09-28T04:17:46Z</time></trkpt>
<trkpt lat="36.804641309519944" lon="139.38131844983926"><ele>2247</ele><time>2024-09-28T04:18:31Z</time></trkpt>
<trkpt lat="36.80469344073923" lon="139.38152178854097"><ele>2252</ele><time>2024-09-28T04:19:08Z</time></trkpt>
<trkpt lat="36.80475643172287" lon="139.3816641322814"><ele>2258</ele><time>2024-09-28T04:20:01Z</time></trkpt>
<trkpt lat="36.80477627441854" lon="139.38183124809927"><ele>2264</ele><time>2024-09-28T04:20:43Z</time></trkpt>
<trkpt lat="36.804732059418775" lon="139.38198087980805"><ele>2268</ele><time>2024-09-28T04:21:32Z</time></trkpt>
<trkpt lat="36.804698807239966" lon="139.38217473688405"><ele>2278</ele><time>2024-09-28T04:22:32Z</time></trkpt>
<trkpt lat="36.80481100614969" lon="139.3822527117613"><ele>2288</ele><time>2024-09-28T04:25:10Z</time></trkpt>
<trkpt lat="36.804914186891" lon="139.38234930533076"><ele>2291</ele><time>2024-09-28T04:25:52Z</time></trkpt>
<trkpt lat="36.80502025139085" lon="139.38243024812684"><ele>2294</ele><time>2024-09-28T04:28:10Z</time></trkpt>
<trkpt lat="36.805146039331866" lon="139.38258046690575"><ele>2302</ele><time>2024-09-28T04:28:55Z</time></trkpt>
<trkpt lat="36.80528154151401" lon="139.38275119440112"><ele>2311</ele><time>2024-09-28T04:29:31Z</time></trkpt>
<trkpt lat="36.80548706531247" lon="139.3828465136589"><ele>2312</ele><time>2024-09-28T04:30:03Z</time></trkpt>
<trkpt lat="36.80550287846872" lon="139.38309066845906"><ele>2319</ele><time>2024-09-28T04:30:33Z</time></trkpt>
<trkpt lat="36.80561576911435" lon="139.38325020653014"><ele>2326</ele><time>2024-09-28T04:31:08Z</time></trkpt>
<trkpt lat="36.805668975416324" lon="139.3834465405688"><ele>2329</ele><time>2024-09-28T04:31:45Z</time></trkpt>
<trkpt lat="36.80569107940791" lon="139.3836936354025"><ele>2333</ele><time>2024-09-28T04:32:23Z</time></trkpt>
<trkpt lat="36.805755891678785" lon="139.38387873211252"><ele>2343</ele><time>2024-09-28T04:33:12Z</time></trkpt>
<trkpt lat="36.805761724198845" lon="139.38412003387535"><ele>2347</ele><time>2024-09-28T04:33:52Z</time></trkpt>
<trkpt lat="36.80572198696732" lon="139.38436986960244"><ele>2351</ele><time>2024-09-28T04:34:31Z</time></trkpt>
<trkpt lat="36.80572662351218" lon="139.38460473466782"><ele>2354</ele><time>2024-09-28T04:35:13Z</time></trkpt>
<trkpt lat="36.80567380852749" lon="139.38485030605625"><ele>2356</ele><time>2024-09-28T04:35:48Z</time></trkpt>
<trkpt lat="36.80559378515838" lon="139.385062326005"><ele>2354</ele><time>2024-09-28T04:36:19Z</time></trkpt>
<trkpt lat="36.80553457389412" lon="139.38524438568197"><ele>2354</ele><time>2024-09-28T04:36:56Z</time></trkpt>
<trkpt lat="36.805418138403766" lon="139.38540513030335"><ele>2355</ele><time>2024-09-28T04:37:31Z</time></trkpt>
<trkpt lat="36.80535399874525" lon="139.3855206463604"><ele>2356</ele><time>2024-09-28T04:38:17Z</time></trkpt>
<trkpt lat="36.80515729244692" lon="139.38567495043733"><ele>2356</ele><time>2024-09-28T04:38:56Z</time></trkpt>
<trkpt lat="36.80506411099229" lon="139.385877087742"><ele>2357</ele><time>2024-09-28T04:40:44Z</time></trkpt>
<trkpt lat="36.805051160524435" lon="139.3860846210528"><ele>2362</ele><time>2024-09-28T04:41:19Z</time></trkpt>
<trkpt lat="36.80510664325087" lon="139.38629388388654"><ele>2361</ele><time>2024-09-28T04:41:52Z</time></trkpt>
<trkpt lat="36.80505016369302" lon="139.38657008205237"><ele>2364</ele><time>2024-09-28T04:42:47Z</time></trkpt>
<trkpt lat="36.805051745055856" lon="139.38686078542037"><ele>2368</ele><time>2024-09-28T04:43:29Z</time></trkpt>
<trkpt lat="36.80512590589313" lon="139.38713585954082"><ele>2366</ele><time>2024-09-28T04:44:06Z</time></trkpt>
<trkpt lat="36.80526968329525" lon="139.3873691650087"><ele>2364</ele><time>2024-09-28T04:44:38Z</time></trkpt>
<trkpt lat="36.805273331047545" lon="139.38760227353362"><ele>2364</ele><time>2024-09-28T04:45:08Z</time></trkpt>
<trkpt lat="36.80533396359054" lon="139.38778946120644"><ele>2367</ele><time>2024-09-28T04:45:44Z</time></trkpt>
<trkpt lat="36.80527575086735" lon="139.38795763205377"><ele>2368</ele><time>2024-09-28T04:46:24Z</time></trkpt>
<trkpt lat="36.80522713708658" lon="139.3881933102839"><ele>2372</ele><time>2024-09-28T04:47:00Z</time></trkpt>
<trkpt lat="36.80506136505882" lon="139.38833830855893"><ele>2376</ele><time>2024-09-28T04:47:34Z</time></trkpt>
<trkpt lat="36.804866010334976" lon="139.38854214161654"><ele>2375</ele><time>2024-09-28T04:48:33Z</time></trkpt>
<trkpt lat="36.80496707322409" lon="139.38865717768394"><ele>2374</ele><time>2024-09-28T04:50:33Z</time></trkpt>
<trkpt lat="36.8051115559544" lon="139.3886974627723"><ele>2371</ele><time>2024-09-28T04:51:14Z</time></trkpt>
<trkpt lat="36.805257092897094" lon="139.38878512271583"><ele>2369</ele><time>2024-09-28T04:51:53Z</time></trkpt>
<trkpt lat="36.805496781385195" lon="139.38890045351812"><ele>2368</ele><time>2024-09-28T04:52:38Z</time></trkpt>
<trkpt lat="36.805640035571116" lon="139.38896648286817"><ele>2367</ele><time>2024-09-28T04:53:19Z</time></trkpt>
<trkpt lat="36.80569642136818" lon="139.38906219220743"><ele>2363</ele><time>2024-09-28T04:54:00Z</time></trkpt>
<trkpt lat="36.80581437988571" lon="139.38910004628704"><ele>2359</ele><time>2024-09-28T04:54:49Z</time></trkpt>
<trkpt lat="36.80594507729503" lon="139.38911171593367"><ele>2354</ele><time>2024-09-28T04:55:35Z</time></trkpt>
<trkpt lat="36.80604083852302" lon="139.38913870383595"><ele>2351</ele><time>2024-09-28T04:59:23Z</time></trkpt>
<trkpt lat="36.80623868775905" lon="139.3891450954022"><ele>2341</ele><time>2024-09-28T04:59:56Z</time></trkpt>
<trkpt lat="36.80645935647891" lon="139.38919803729405"><ele>2334</ele><time>2024-09-28T05:00:42Z</time></trkpt>
<trkpt lat="36.80658380009187" lon="139.38920397140913"><ele>2330</ele><time>2024-09-28T05:01:44Z</time></trkpt>
<trkpt lat="36.8066854106096" lon="139.389318556186"><ele>2325</ele><time>2024-09-28T05:02:36Z</time></trkpt>
<trkpt lat="36.806827921317726" lon="139.38935776480227"><ele>2323</ele><time>2024-09-28T05:03:18Z</time></trkpt>
<trkpt lat="36.80689549050731" lon="139.38947802216185"><ele>2319</ele><time>2024-09-28T05:04:15Z</time></trkpt>
<trkpt lat="36.806999688656525" lon="139.38971322196218"><ele>2311</ele><time>2024-09-28T05:06:01Z</time></trkpt>
<trkpt lat="36.80710201673674" lon="139.38983173900166"><ele>2307</ele><time>2024-09-28T05:06:58Z</time></trkpt>
<trkpt lat="36.80718169934908" lon="139.38991084481293"><ele>2305</ele><time>2024-09-28T05:08:17Z</time></trkpt>
<trkpt lat="36.80726562404423" lon="139.38999492164552"><ele>2299</ele><time>2024-09-28T05:09:43Z</time></trkpt>
<trkpt lat="36.80737721194138" lon="139.3900512992078"><ele>2293</ele><time>2024-09-28T05:10:33Z</time></trkpt>
<trkpt lat="36.80751549471046" lon="139.39028645131896"><ele>2293</ele><time>2024-09-28T05:11:05Z</time></trkpt>
<trkpt lat="36.80761865671364" lon="139.39046502439604"><ele>2294</ele><time>2024-09-28T05:11:37Z</time></trkpt>
<trkpt lat="36.8077798412789" lon="139.39067049240109"><ele>2296</ele><time>2024-09-28T05:12:27Z</time></trkpt>
<trkpt lat="36.80792463209963" lon="139.39083703827012"><ele>2295</ele><time>2024-09-28T05:13:08Z</time></trkpt>
<trkpt lat="36.80813197153564" lon="139.39094886986445"><ele>2293</ele><time>2024-09-28T05:13:49Z</time></trkpt>
<trkpt lat="36.80835829190624" lon="139.3909876965009"><ele>2291</ele><time>2024-09-28T05:14:24Z</time></trkpt>
<trkpt lat="36.80853247344501" lon="139.39107047092816"><ele>2292</ele><time>2024-09-28T05:14:56Z</time></trkpt>
<trkpt lat="36.808591604325926" lon="139.3913116298163"><ele>2287</ele><time>2024-09-28T05:15:43Z</time></trkpt>
<trkpt lat="36.808703768667044" lon="139.39148662664738"><ele>2279</ele><time>2024-09-28T05:16:56Z</time></trkpt>
<trkpt lat="36.808776693687726" lon="139.39171860829245"><ele>2274</ele><time>2024-09-28T05:17:38Z</time></trkpt>
<trkpt lat="36.808836475458754" lon="139.39190021887254"><ele>2272</ele><time>2024-09-28T05:18:39Z</time></trkpt>
<trkpt lat="36.80891728793111" lon="139.39202596316858"><ele>2261</ele><time>2024-09-28T05:19:22Z</time></trkpt>
<trkpt lat="36.809037727321105" lon="139.39216708125403"><ele>2253</ele><time>2024-09-28T05:20:10Z</time></trkpt>
<trkpt lat="36.809171264821785" lon="139.392176596211"><ele>2247</ele><time>2024-09-28T05:21:10Z</time></trkpt>
<trkpt lat="36.80927177100499" lon="139.3922730496843"><ele>2244</ele><time>2024-09-28T05:22:08Z</time></trkpt>
<trkpt lat="36.80933473249285" lon="139.3924233659374"><ele>2235</ele><time>2024-09-28T05:23:15Z</time></trkpt>
<trkpt lat="36.80953916149358" lon="139.3924860153385"><ele>2228</ele><time>2024-09-28T05:24:16Z</time></trkpt>
<trkpt lat="36.809679129712386" lon="139.39246252229094"><ele>2222</ele><time>2024-09-28T05:25:02Z</time></trkpt>
<trkpt lat="36.80979786893962" lon="139.39252367157772"><ele>2218</ele><time>2024-09-28T05:25:40Z</time></trkpt>
<trkpt lat="36.80995724285957" lon="139.39259125688946"><ele>2216</ele><time>2024-09-28T05:26:24Z</time></trkpt>
<trkpt lat="36.81019119634456" lon="139.39263971490473"><ele>2214</ele><time>2024-09-28T05:26:57Z</time></trkpt>
<trkpt lat="36.81033747112688" lon="139.39253301216505"><ele>2213</ele><time>2024-09-28T05:27:35Z</time></trkpt>
<trkpt lat="36.81049241406905" lon="139.3924366932054"><ele>2210</ele><time>2024-09-28T05:28:10Z</time></trkpt>
<trkpt lat="36.81055861672904" lon="139.3923434530349"><ele>2210</ele><time>2024-09-28T05:28:49Z</time></trkpt>
<trkpt lat="36.81069573168365" lon="139.3922312232787"><ele>2208</ele><time>2024-09-28T05:29:26Z</time></trkpt>
<trkpt lat="36.810935090918676" lon="139.39206514844554"><ele>2205</ele><time>2024-09-28T05:29:59Z</time></trkpt>
<trkpt lat="36.811132652769885" lon="139.39195676712387"><ele>2204</ele><time>2024-09-28T05:30:34Z</time></trkpt>
<trkpt lat="36.81125282734919" lon="139.39187435756003"><ele>2198</ele><time>2024-09-28T05:31:13Z</time></trkpt>
<trkpt lat="36.81134376510193" lon="139.39176025382608"><ele>2192</ele><time>2024-09-28T05:32:11Z</time></trkpt>
<trkpt lat="36.81144255056298" lon="139.39164614381835"><ele>2188</ele><time>2024-09-28T05:33:54Z</time></trkpt>
<trkpt lat="36.811624919810875" lon="139.3915683657454"><ele>2181</ele><time>2024-09-28T05:34:28Z</time></trkpt>
<trkpt lat="36.811782742659645" lon="139.39152971248353"><ele>2176</ele><time>2024-09-28T05:35:11Z</time></trkpt>
<trkpt lat="36.81193200989504" lon="139.39141307889454"><ele>2171</ele><time>2024-09-28T05:36:06Z</time></trkpt>
<trkpt lat="36.81214417469442" lon="139.39134978615817"><ele>2168</ele><time>2024-09-28T05:36:42Z</time></trkpt>
<trkpt lat="36.812334017440534" lon="139.39127358742624"><ele>2171</ele><time>2024-09-28T05:37:16Z</time></trkpt>
<trkpt lat="36.81253611017922" lon="139.39116674113833"><ele>2167</ele><time>2024-09-28T05:37:56Z</time></trkpt>
<trkpt lat="36.81272963081756" lon="139.3910095062386"><ele>2166</ele><time>2024-09-28T05:38:38Z</time></trkpt>
<trkpt lat="36.812893871901636" lon="139.39098132082214"><ele>2170</ele><time>2024-09-28T05:39:16Z</time></trkpt>
<trkpt lat="36.81309487073394" lon="139.3909561343994"><ele>2175</ele><time>2024-09-28T05:40:05Z</time></trkpt>
<trkpt lat="36.813290461526805" lon="139.3908887103476"><ele>2180</ele><time>2024-09-28T05:40:44Z</time></trkpt>
<trkpt lat="36.813494075073294" lon="139.39083932621065"><ele>2179</ele><time>2024-09-28T05:41:13Z</time></trkpt>
<trkpt lat="36.81360463771271" lon="139.3909342475971"><ele>2190</ele><time>2024-09-28T05:42:57Z</time></trkpt>
<trkpt lat="36.81376701597713" lon="139.39087691162726"><ele>2195</ele><time>2024-09-28T05:43:35Z</time></trkpt>
<trkpt lat="36.8137037949663" lon="139.39104079438223"><ele>2200</ele><time>2024-09-28T05:44:16Z</time></trkpt>
<trkpt lat="36.81387496844322" lon="139.3909686377245"><ele>2205</ele><time>2024-09-28T05:45:15Z</time></trkpt>
<trkpt lat="36.8139653427254" lon="139.39093219064955"><ele>2211</ele><time>2024-09-28T05:46:27Z</time></trkpt>
<trkpt lat="36.81408036108438" lon="139.3908690631315"><ele>2216</ele><time>2024-09-28T05:48:18Z</time></trkpt>
<trkpt lat="36.81413281789738" lon="139.39077255350074"><ele>2215</ele><time>2024-09-28T05:48:56Z</time></trkpt>
<trkpt lat="36.81410227256788" lon="139.39093181137196"><ele>2218</ele><time>2024-09-28T05:49:56Z</time></trkpt>
<trkpt lat="36.81423649830982" lon="139.39084343298916"><ele>2227</ele><time>2024-09-28T05:51:30Z</time></trkpt>
<trkpt lat="36.81434599278148" lon="139.39090000392937"><ele>2234</ele><time>2024-09-28T05:52:33Z</time></trkpt>
<trkpt lat="36.81456158029611" lon="139.39099101381038"><ele>2231</ele><time>2024-09-28T05:53:20Z</time></trkpt>
<trkpt lat="36.81472481561844" lon="139.39111924492522"><ele>2225</ele><time>2024-09-28T05:54:21Z</time></trkpt>
<trkpt lat="36.81487351149793" lon="139.39121639373397"><ele>2220</ele><time>2024-09-28T05:55:37Z</time></trkpt>
<trkpt lat="36.81495709299086" lon="139.3913896301193"><ele>2215</ele><time>2024-09-28T05:56:42Z</time></trkpt>
<trkpt lat="36.81502737506022" lon="139.39127897572556"><ele>2208</ele><time>2024-09-28T05:58:31Z</time></trkpt>
<trkpt lat="36.815060915180794" lon="139.3911517163769"><ele>2202</ele><time>2024-09-28T05:59:32Z</time></trkpt>
<trkpt lat="36.81516600636462" lon="139.3912965577466"><ele>2203</ele><time>2024-09-28T06:00:48Z</time></trkpt>
<trkpt lat="36.81529478212597" lon="139.39130868487842"><ele>2195</ele><time>2024-09-28T06:01:30Z</time></trkpt>
<trkpt lat="36.815238523734614" lon="139.39114996774862"><ele>2192</ele><time>2024-09-28T06:02:28Z</time></trkpt>
<trkpt lat="36.81533662157475" lon="139.39114356387887"><ele>2185</ele><time>2024-09-28T06:03:55Z</time></trkpt>
<trkpt lat="36.81525778682428" lon="139.39107400655712"><ele>2178</ele><time>2024-09-28T06:13:03Z</time></trkpt>
<trkpt lat="36.81532840474643" lon="139.39116157745565"><ele>2180</ele><time>2024-09-28T06:15:46Z</time></trkpt>
<trkpt lat="36.815419870019376" lon="139.39113530282415"><ele>2190</ele><time>2024-09-28T06:17:26Z</time></trkpt>
<trkpt lat="36.81531276563136" lon="139.39119649780343"><ele>2182</ele><time>2024-09-28T06:18:07Z</time></trkpt>
<trkpt lat="36.81550651509773" lon="139.3911717090322"><ele>2173</ele><time>2024-09-28T06:20:10Z</time></trkpt>
<trkpt lat="36.81564183053404" lon="139.39127606723375"><ele>2158</ele><time>2024-09-28T06:21:11Z</time></trkpt>
<trkpt lat="36.81572924359477" lon="139.39147544780604"><ele>2149</ele><time>2024-09-28T06:24:57Z</time></trkpt>
<trkpt lat="36.8157941150332" lon="139.39156460398124"><ele>2152</ele><time>2024-09-28T06:25:48Z</time></trkpt>
<trkpt lat="36.81592269563565" lon="139.3914327607245"><ele>2136</ele><time>2024-09-28T06:27:49Z</time></trkpt>
<trkpt lat="36.81588522035011" lon="139.39153887518458"><ele>2134</ele><time>2024-09-28T06:29:41Z</time></trkpt>
<trkpt lat="36.81608256570679" lon="139.39144452299615"><ele>2117</ele><time>2024-09-28T06:31:08Z</time></trkpt>
<trkpt lat="36.81614233011612" lon="139.39160910593867"><ele>2098</ele><time>2024-09-28T06:34:38Z</time></trkpt>
<trkpt lat="36.816227961941905" lon="139.39178236780592"><ele>2095</ele><time>2024-09-28T06:35:19Z</time></trkpt>
<trkpt lat="36.81624325728191" lon="139.39204087255274"><ele>2098</ele><time>2024-09-28T06:36:38Z</time></trkpt>
<trkpt lat="36.8161673511163" lon="139.39226130706118"><ele>2097</ele><time>2024-09-28T06:37:50Z</time></trkpt>
<trkpt lat="36.81623849099647" lon="139.3925163121097"><ele>2089</ele><time>2024-09-28T06:41:28Z</time></trkpt>
<trkpt lat="36.81639818141394" lon="139.39262654957807"><ele>2082</ele><time>2024-09-28T06:41:58Z</time></trkpt>
<trkpt lat="36.81644680962331" lon="139.39289979100448"><ele>2071</ele><time>2024-09-28T06:42:33Z</time></trkpt>
<trkpt lat="36.81667649490021" lon="139.39299939447554"><ele>2066</ele><time>2024-09-28T06:42:57Z</time></trkpt>
<trkpt lat="36.8167785952176" lon="139.39320456266955"><ele>2065</ele><time>2024-09-28T06:43:34Z</time></trkpt>
<trkpt lat="36.81691563516716" lon="139.39329176963258"><ele>2054</ele><time>2024-09-28T06:45:02Z</time></trkpt>
<trkpt lat="36.81709326400149" lon="139.39326617721065"><ele>2052</ele><time>2024-09-28T06:45:52Z</time></trkpt>
<trkpt lat="36.817177538719356" lon="139.39336580023132"><ele>2055</ele><time>2024-09-28T06:46:26Z</time></trkpt>
<trkpt lat="36.817315357866974" lon="139.3934396041296"><ele>2046</ele><time>2024-09-28T06:47:10Z</time></trkpt>
<trkpt lat="36.817508873354065" lon="139.39349390497625"><ele>2047</ele><time>2024-09-28T06:48:04Z</time></trkpt>
<trkpt lat="36.817717809771395" lon="139.39357701905743"><ele>2044</ele><time>2024-09-28T06:48:35Z</time></trkpt>
<trkpt lat="36.81791599016915" lon="139.39365629313946"><ele>2046</ele><time>2024-09-28T06:49:11Z</time></trkpt>
<trkpt lat="36.81801604293215" lon="139.39369984831455"><ele>2043</ele><time>2024-09-28T06:49:52Z</time></trkpt>
<trkpt lat="36.81809514786477" lon="139.39380210730332"><ele>2043</ele><time>2024-09-28T06:50:52Z</time></trkpt>
<trkpt lat="36.818296189742995" lon="139.39401251985936"><ele>2040</ele><time>2024-09-28T06:51:54Z</time></trkpt>
<trkpt lat="36.81842799342649" lon="139.3941480466917"><ele>2036</ele><time>2024-09-28T06:52:30Z</time></trkpt>
<trkpt lat="36.818556272283374" lon="139.39438084506716"><ele>2032</ele><time>2024-09-28T06:53:10Z</time></trkpt>
<trkpt lat="36.818633512478044" lon="139.3945302991804"><ele>2031</ele><time>2024-09-28T06:53:42Z</time></trkpt>
<trkpt lat="36.81871020098863" lon="139.39473444031833"><ele>2031</ele><time>2024-09-28T06:54:18Z</time></trkpt>
<trkpt lat="36.81887603253887" lon="139.39482455297977"><ele>2023</ele><time>2024-09-28T06:55:14Z</time></trkpt>
<trkpt lat="36.81891917223474" lon="139.39501496912675"><ele>2020</ele><time>2024-09-28T06:55:59Z</time></trkpt>
<trkpt lat="36.818949194051825" lon="139.39529870800976"><ele>2013</ele><time>2024-09-28T06:56:51Z</time></trkpt>
<trkpt lat="36.81899979068612" lon="139.3955461805686"><ele>2015</ele><time>2024-09-28T06:57:43Z</time></trkpt>
<trkpt lat="36.81896559639692" lon="139.39571174732038"><ele>2017</ele><time>2024-09-28T06:58:24Z</time></trkpt>
<trkpt lat="36.818853527545905" lon="139.39573465787524"><ele>2022</ele><time>2024-09-28T06:59:04Z</time></trkpt>
<trkpt lat="36.81883664523662" lon="139.39588012256888"><ele>2003</ele><time>2024-09-28T07:01:17Z</time></trkpt>
<trkpt lat="36.818694686327305" lon="139.39597072497526"><ele>1992</ele><time>2024-09-28T07:02:30Z</time></trkpt>
<trkpt lat="36.81860824117525" lon="139.39613449955914"><ele>1985</ele><time>2024-09-28T07:03:46Z</time></trkpt>
<trkpt lat="36.81852842379061" lon="139.39623285163046"><ele>1975</ele><time>2024-09-28T07:05:18Z</time></trkpt>
<trkpt lat="36.81847903593379" lon="139.39636997975256"><ele>1968</ele><time>2024-09-28T07:06:28Z</time></trkpt>
<trkpt lat="36.81835619651334" lon="139.3964326408607"><ele>1961</ele><time>2024-09-28T07:07:59Z</time></trkpt>
<trkpt lat="36.81846761046367" lon="139.3965246862012"><ele>1957</ele><time>2024-09-28T07:08:39Z</time></trkpt>
<trkpt lat="36.81848352792496" lon="139.39670139389077"><ele>1958</ele><time>2024-09-28T07:09:44Z</time></trkpt>
<trkpt lat="36.81845894273744" lon="139.3968648193198"><ele>1949</ele><time>2024-09-28T07:11:10Z</time></trkpt>
<trkpt lat="36.818467510511255" lon="139.39709441268906"><ele>1950</ele><time>2024-09-28T07:12:14Z</time></trkpt>
<trkpt lat="36.81836713682898" lon="139.39695272203863"><ele>1937</ele><time>2024-09-28T07:13:16Z</time></trkpt>
<trkpt lat="36.818236856120514" lon="139.3970109939632"><ele>1927</ele><time>2024-09-28T07:13:58Z</time></trkpt>
<trkpt lat="36.81807271810779" lon="139.3969931495231"><ele>1931</ele><time>2024-09-28T07:14:42Z</time></trkpt>
<trkpt lat="36.81793753618766" lon="139.3970344147299"><ele>1916</ele><time>2024-09-28T07:16:36Z</time></trkpt>
<trkpt lat="36.81779314058242" lon="139.39715698793225"><ele>1910</ele><time>2024-09-28T07:17:11Z</time></trkpt>
<trkpt lat="36.817686976096994" lon="139.39720979828365"><ele>1915</ele><time>2024-09-28T07:17:58Z</time></trkpt>
<trkpt lat="36.81756921105384" lon="139.39732046528715"><ele>1895</ele><time>2024-09-28T07:19:26Z</time></trkpt>
<trkpt lat="36.817464240135806" lon="139.39736494501048"><ele>1892</ele><time>2024-09-28T07:21:10Z</time></trkpt>
<trkpt lat="36.81741205764931" lon="139.39752545136298"><ele>1884</ele><time>2024-09-28T07:22:09Z</time></trkpt>
<trkpt lat="36.81729955198066" lon="139.3974905804403"><ele>1886</ele><time>2024-09-28T07:24:31Z</time></trkpt>
<trkpt lat="36.817154047738384" lon="139.39749228124577"><ele>1872</ele><time>2024-09-28T07:25:26Z</time></trkpt>
<trkpt lat="36.817003388086476" lon="139.39755492079544"><ele>1858</ele><time>2024-09-28T07:26:11Z</time></trkpt>
<trkpt lat="36.816841368041075" lon="139.3975901494076"><ele>1854</ele><time>2024-09-28T07:27:04Z</time></trkpt>
<trkpt lat="36.81671954619918" lon="139.39749490341507"><ele>1853</ele><time>2024-09-28T07:28:43Z</time></trkpt>
<trkpt lat="36.81667744620332" lon="139.39760072519493"><ele>1852</ele><time>2024-09-28T07:28:53Z</time></trkpt>
</trkseg>
</trk>
</gpx>