<?xml version="1.0" encoding="UTF-8"?>
<gpx xmlns:xsi="http://www.w3.org/2001/XMLSchema-instance" xmlns="http://www.topografix.com/GPX/1/1" xsi:schemaLocation="http://www.topografix.com/GPX/1/1 http://www.topografix.com/GPX/1/1/gpx.xsd" creator="Yamareco iOS 6.84 - www.yamareco.com">
<trk><name>track</name><number>1</number><trkseg>
<trkpt lat="35.2282316889943" lon="139.00264182140958"><ele>828</ele><time>2024-05-17T23:36:27Z</time></trkpt>
<trkpt lat="35.2281733914927" lon="139.0027694230384"><ele>826</ele><time>2024-05-17T23:37:05Z</time></trkpt>
<trkpt lat="35.22790313197941" lon="139.00279924474822"><ele>826</ele><time>2024-05-17T23:39:19Z</time></trkpt>
<trkpt lat="35.22759690598356" lon="139.00290690413686"><ele>823</ele><time>2024-05-17T23:39:47Z</time></trkpt>
<trkpt lat="35.22733405161852" lon="139.00304720704406"><ele>824</ele><time>2024-05-17T23:40:13Z</time></trkpt>
<trkpt lat="35.227059198159395" lon="139.00324918919637"><ele>823</ele><time>2024-05-17T23:40:39Z</time></trkpt>
<trkpt lat="35.22683099783261" lon="139.00352633471863"><ele>825</ele><time>2024-05-17T23:41:04Z</time></trkpt>
<trkpt lat="35.226597193801595" lon="139.00383375920308"><ele>825</ele><time>2024-05-17T23:41:35Z</time></trkpt>
<trkpt lat="35.22635758866783" lon="139.0041100279852"><ele>830</ele><time>2024-05-17T23:42:02Z</time></trkpt>
<trkpt lat="35.226104617782305" lon="139.004323911729"><ele>835</ele><time>2024-05-17T23:42:28Z</time></trkpt>
<trkpt lat="35.225857038206364" lon="139.00434520852255"><ele>837</ele><time>2024-05-17T23:42:53Z</time></trkpt>
<trkpt lat="35.22558537909925" lon="139.0041923113152"><ele>839</ele><time>2024-05-17T23:43:22Z</time></trkpt>
<trkpt lat="35.22526245544445" lon="139.00413968575523"><ele>843</ele><time>2024-05-17T23:43:49Z</time></trkpt>
<trkpt lat="35.22492144811435" lon="139.00417453743952"><ele>852</ele><time>2024-05-17T23:44:17Z</time></trkpt>
<trkpt lat="35.22485939158644" lon="139.0043197396681"><ele>850</ele><time>2024-05-17T23:44:46Z</time></trkpt>
<trkpt lat="35.22481789267542" lon="139.00466055010526"><ele>855</ele><time>2024-05-17T23:45:18Z</time></trkpt>
<trkpt lat="35.2249123569191" lon="139.00488795978717"><ele>864</ele><time>2024-05-17T23:45:54Z</time></trkpt>
<trkpt lat="35.22503802650227" lon="139.00505743884653"><ele>866</ele><time>2024-05-17T23:46:27Z</time></trkpt>
<trkpt lat="35.22511422200469" lon="139.00533471899877"><ele>870</ele><time>2024-05-17T23:46:58Z</time></trkpt>
<trkpt lat="35.224987622532836" lon="139.00535238029107"><ele>869</ele><time>2024-05-17T23:47:42Z</time></trkpt>
<trkpt lat="35.22482196380884" lon="139.00555129482865"><ele>873</ele><time>2024-05-17T23:48:09Z</time></trkpt>
<trkpt lat="35.22470316742812" lon="139.00581745147494"><ele>876</ele><time>2024-05-17T23:48:40Z</time></trkpt>
<trkpt lat="35.22464853484444" lon="139.00602108277008"><ele>882</ele><time>2024-05-17T23:49:10Z</time></trkpt>
<trkpt lat="35.22459271840689" lon="139.00630883459118"><ele>885</ele><time>2024-05-17T23:49:47Z</time></trkpt>
<trkpt lat="35.22454976577456" lon="139.00659068555711"><ele>887</ele><time>2024-05-17T23:50:13Z</time></trkpt>
<trkpt lat="35.22457519501646" lon="139.00690675078386"><ele>894</ele><time>2024-05-17T23:50:44Z</time></trkpt>
<trkpt lat="35.22466019582511" lon="139.00709121455594"><ele>900</ele><time>2024-05-17T23:51:16Z</time></trkpt>
<trkpt lat="35.224707793238515" lon="139.00733604343807"><ele>903</ele><time>2024-05-17T23:51:48Z</time></trkpt>
<trkpt lat="35.22475842401569" lon="139.00753314476262"><ele>904</ele><time>2024-05-17T23:52:25Z</time></trkpt>
<trkpt lat="35.224868813323845" lon="139.00781644310322"><ele>909</ele><time>2024-05-17T23:53:02Z</time></trkpt>
<trkpt lat="35.22490764775119" lon="139.0079434733574"><ele>920</ele><time>2024-05-17T23:54:23Z</time></trkpt>
<trkpt lat="35.22481413439662" lon="139.0080565756197"><ele>925</ele><time>2024-05-17T23:55:04Z</time></trkpt>
<trkpt lat="35.2246541148507" lon="139.0081754207991"><ele>934</ele><time>2024-05-17T23:56:35Z</time></trkpt>
<trkpt lat="35.22474479776546" lon="139.0083175157026"><ele>943</ele><time>2024-05-17T23:57:22Z</time></trkpt>
<trkpt lat="35.224584590727176" lon="139.0083819917157"><ele>951</ele><time>2024-05-17T23:58:24Z</time></trkpt>
<trkpt lat="35.22454287813775" lon="139.00851844924406"><ele>960</ele><time>2024-05-17T23:59:08Z</time></trkpt>
<trkpt lat="35.22466316295246" lon="139.0086525569217"><ele>965</ele><time>2024-05-17T23:59:33Z</time></trkpt>
<trkpt lat="35.224716323899194" lon="139.00877243200156"><ele>966</ele><time>2024-05-18T00:00:07Z</time></trkpt>
<trkpt lat="35.22453440678996" lon="139.0088563872618"><ele>968</ele><time>2024-05-18T00:00:41Z</time></trkpt>
<trkpt lat="35.22460484228432" lon="139.00903545297697"><ele>974</ele><time>2024-05-18T00:01:14Z</time></trkpt>
<trkpt lat="35.22466359595006" lon="139.00919106358012"><ele>981</ele><time>2024-05-18T00:01:44Z</time></trkpt>
<trkpt lat="35.224785566991926" lon="139.00933954272296"><ele>986</ele><time>2024-05-18T00:02:19Z</time></trkpt>
<trkpt lat="35.22490386928154" lon="139.0095285490285"><ele>990</ele><time>2024-05-18T00:02:59Z</time></trkpt>
<trkpt lat="35.2249932552514" lon="139.0096973007844"><ele>998</ele><time>2024-05-18T00:03:37Z</time></trkpt>
<trkpt lat="35.22514672965397" lon="139.00981146437968"><ele>1000</ele><time>2024-05-18T00:04:09Z</time></trkpt>
<trkpt lat="35.22526747765711" lon="139.00996306040415"><ele>1006</ele><time>2024-05-18T00:04:45Z</time></trkpt>
<trkpt lat="35.22537924497901" lon="139.01018964192642"><ele>1014</ele><time>2024-05-18T00:05:19Z</time></trkpt>
<trkpt lat="35.2255085537294" lon="139.01036083878864"><ele>1019</ele><time>2024-05-18T00:06:01Z</time></trkpt>
<trkpt lat="35.225594857483095" lon="139.0105625934389"><ele>1027</ele><time>2024-05-18T00:06:59Z</time></trkpt>
<trkpt lat="35.22564928586393" lon="139.01079015069354"><ele>1034</ele><time>2024-05-18T00:07:55Z</time></trkpt>
<trkpt lat="35.22568345557426" lon="139.01102262038793"><ele>1044</ele><time>2024-05-18T00:12:01Z</time></trkpt>
<trkpt lat="35.22573054079685" lon="139.01118699227467"><ele>1050</ele><time>2024-05-18T00:12:38Z</time></trkpt>
<trkpt lat="35.2257222373111" lon="139.0113560415308"><ele>1055</ele><time>2024-05-18T00:13:13Z</time></trkpt>
<trkpt lat="35.22576386707654" lon="139.01162895302843"><ele>1061</ele><time>2024-05-18T00:13:59Z</time></trkpt>
<trkpt lat="35.22580641283609" lon="139.011756320958"><ele>1066</ele><time>2024-05-18T00:14:33Z</time></trkpt>
<trkpt lat="35.225955396382965" lon="139.01191772011603"><ele>1071</ele><time>2024-05-18T00:15:12Z</time></trkpt>
<trkpt lat="35.22599735783542" lon="139.0120924581366"><ele>1079</ele><time>2024-05-18T00:15:53Z</time></trkpt>
<trkpt lat="35.22602464072553" lon="139.0122960476001"><ele>1083</ele><time>2024-05-18T00:16:24Z</time></trkpt>
<trkpt lat="35.22604420907207" lon="139.0125258542566"><ele>1091</ele><time>2024-05-18T00:16:58Z</time></trkpt>
<trkpt lat="35.22595599365228" lon="139.01271732167064"><ele>1097</ele><time>2024-05-18T00:17:43Z</time></trkpt>
<trkpt lat="35.22599246695841" lon="139.0128775089685"><ele>1103</ele><time>2024-05-18T00:18:20Z</time></trkpt>
<trkpt lat="35.22596425689501" lon="139.01309104146404"><ele>1110</ele><time>2024-05-18T00:18:56Z</time></trkpt>
<trkpt lat="35.22583611193239" lon="139.0133084307559"><ele>1115</ele><time>2024-05-18T00:19:29Z</time></trkpt>
<trkpt lat="35.225679108329025" lon="139.01341067651666"><ele>1118</ele><time>2024-05-18T00:19:58Z</time></trkpt>
<trkpt lat="35.2255265049878" lon="139.01360672500064"><ele>1123</ele><time>2024-05-18T00:20:35Z</time></trkpt>
<trkpt lat="35.22550815581828" lon="139.01378804291426"><ele>1136</ele><time>2024-05-18T00:21:51Z</time></trkpt>
<trkpt lat="35.2252924089619" lon="139.0138600088223"><ele>1138</ele><time>2024-05-18T00:22:28Z</time></trkpt>
<trkpt lat="35.22544764874049" lon="139.01407299732583"><ele>1146</ele><time>2024-05-18T00:23:13Z</time></trkpt>
<trkpt lat="35.22554542821746" lon="139.01408750664135"><ele>1150</ele><time>2024-05-18T00:23:51Z</time></trkpt>
<trkpt lat="35.22566504626348" lon="139.01430333143247"><ele>1158</ele><time>2024-05-18T00:24:30Z</time></trkpt>
<trkpt lat="35.22585241937327" lon="139.01447922513543"><ele>1165</ele><time>2024-05-18T00:25:16Z</time></trkpt>
<trkpt lat="35.225937264245005" lon="139.01457422971822"><ele>1171</ele><time>2024-05-18T00:25:54Z</time></trkpt>
<trkpt lat="35.225819393625066" lon="139.01465733973944"><ele>1174</ele><time>2024-05-18T00:26:33Z</time></trkpt>
<trkpt lat="35.225879192949726" lon="139.0147904923791"><ele>1182</ele><time>2024-05-18T00:27:17Z</time></trkpt>
<trkpt lat="35.22578039295131" lon="139.01495141043458"><ele>1186</ele><time>2024-05-18T00:27:53Z</time></trkpt>
<trkpt lat="35.22572980400506" lon="139.0151935684739"><ele>1197</ele><time>2024-05-18T00:28:52Z</time></trkpt>
<trkpt lat="35.22561529030719" lon="139.01546563041802"><ele>1198</ele><time>2024-05-18T00:29:27Z</time></trkpt>
<trkpt lat="35.22557987867646" lon="139.0157732106933"><ele>1204</ele><time>2024-05-18T00:29:59Z</time></trkpt>
<trkpt lat="35.225546339889966" lon="139.01609518404632"><ele>1207</ele><time>2024-05-18T00:30:32Z</time></trkpt>
<trkpt lat="35.22556411211374" lon="139.01632118420457"><ele>1212</ele><time>2024-05-18T00:31:02Z</time></trkpt>
<trkpt lat="35.225548451951205" lon="139.01662734883095"><ele>1214</ele><time>2024-05-18T00:31:35Z</time></trkpt>
<trkpt lat="35.225518527694106" lon="139.01688959931076"><ele>1217</ele><time>2024-05-18T00:32:07Z</time></trkpt>
<trkpt lat="35.225514624704644" lon="139.01725196592778"><ele>1224</ele><time>2024-05-18T00:32:58Z</time></trkpt>
<trkpt lat="35.225507413737425" lon="139.01755418367304"><ele>1229</ele><time>2024-05-18T00:33:30Z</time></trkpt>
<trkpt lat="35.225602108853224" lon="139.0178285348222"><ele>1233</ele><time>2024-05-18T00:34:03Z</time></trkpt>
<trkpt lat="35.225571579199624" lon="139.0181529623355"><ele>1233</ele><time>2024-05-18T00:34:43Z</time></trkpt>
<trkpt lat="35.22558029842682" lon="139.01841699790296"><ele>1232</ele><time>2024-05-18T00:35:13Z</time></trkpt>
<trkpt lat="35.2256096462203" lon="139.0187120106638"><ele>1232</ele><time>2024-05-18T00:35:43Z</time></trkpt>
<trkpt lat="35.2256753710878" lon="139.01900589401873"><ele>1228</ele><time>2024-05-18T00:36:14Z</time></trkpt>
<trkpt lat="35.225818629678415" lon="139.01925724692833"><ele>1228</ele><time>2024-05-18T00:36:42Z</time></trkpt>
<trkpt lat="35.2259168236974" lon="139.01951365696905"><ele>1224</ele><time>2024-05-18T00:37:10Z</time></trkpt>
<trkpt lat="35.22606208675454" lon="139.019778702924"><ele>1221</ele><time>2024-05-18T00:37:41Z</time></trkpt>
<trkpt lat="35.22627881093605" lon="139.0199984937075"><ele>1225</ele><time>2024-05-18T00:38:09Z</time></trkpt>
<trkpt lat="35.22650295717627" lon="139.02019463249067"><ele>1227</ele><time>2024-05-18T00:38:41Z</time></trkpt>
<trkpt lat="35.22670384677206" lon="139.02038338697477"><ele>1230</ele><time>2024-05-18T00:39:11Z</time></trkpt>
<trkpt lat="35.226916691356735" lon="139.02054520452987"><ele>1235</ele><time>2024-05-18T00:39:45Z</time></trkpt>
<trkpt lat="35.22712950973034" lon="139.02068262900215"><ele>1239</ele><time>2024-05-18T00:40:17Z</time></trkpt>
<trkpt lat="35.227255945285535" lon="139.02082888646464"><ele>1241</ele><time>2024-05-18T00:40:54Z</time></trkpt>
<trkpt lat="35.22704750744369" lon="139.02084300638043"><ele>1238</ele><time>2024-05-18T00:44:19Z</time></trkpt>
<trkpt lat="35.22673732203715" lon="139.02088947669347"><ele>1241</ele><time>2024-05-18T00:44:50Z</time></trkpt>
<trkpt lat="35.22645028236466" lon="139.02078343273476"><ele>1246</ele><time>2024-05-18T00:45:21Z</time></trkpt>
<trkpt lat="35.226325458208834" lon="139.0209073523571"><ele>1250</ele><time>2024-05-18T00:45:53Z</time></trkpt>
<trkpt lat="35.22639713535893" lon="139.02115720283243"><ele>1258</ele><time>2024-05-18T00:46:24Z</time></trkpt>
<trkpt lat="35.226502029325964" lon="139.02140572639826"><ele>1267</ele><time>2024-05-18T00:46:54Z</time></trkpt>
<trkpt lat="35.22654073812696" lon="139.02166334645912"><ele>1268</ele><time>2024-05-18T00:47:25Z</time></trkpt>
<trkpt lat="35.22652876660502" lon="139.02190806623278"><ele>1271</ele><time>2024-05-18T00:47:53Z</time></trkpt>
<trkpt lat="35.22633599859793" lon="139.02194444079387"><ele>1277</ele><time>2024-05-18T00:48:42Z</time></trkpt>
<trkpt lat="35.22614962014075" lon="139.02200854084668"><ele>1279</ele><time>2024-05-18T00:49:14Z</time></trkpt>
<trkpt lat="35.226020438656846" lon="139.02217912275293"><ele>1286</ele><time>2024-05-18T00:50:02Z</time></trkpt>
<trkpt lat="35.225942822745125" lon="139.02238662379946"><ele>1292</ele><time>2024-05-18T00:50:38Z</time></trkpt>
<trkpt lat="35.2256935843955" lon="139.02238838202072"><ele>1296</ele><time>2024-05-18T00:51:15Z</time></trkpt>
<trkpt lat="35.225577391314516" lon="139.02249851377445"><ele>1304</ele><time>2024-05-18T00:51:47Z</time></trkpt>
<trkpt lat="35.22538495601011" lon="139.0225810395542"><ele>1306</ele><time>2024-05-18T00:52:15Z</time></trkpt>
<trkpt lat="35.22519055296793" lon="139.02270451093693"><ele>1313</ele><time>2024-05-18T00:52:51Z</time></trkpt>
<trkpt lat="35.22502713920758" lon="139.0228640275685"><ele>1319</ele><time>2024-05-18T00:53:23Z</time></trkpt>
<trkpt lat="35.22485122522835" lon="139.02297633040422"><ele>1321</ele><time>2024-05-18T00:53:52Z</time></trkpt>
<trkpt lat="35.22472384010303" lon="139.02313765530522"><ele>1326</ele><time>2024-05-18T00:54:21Z</time></trkpt>
<trkpt lat="35.22458507883417" lon="139.02343309312513"><ele>1328</ele><time>2024-05-18T00:54:57Z</time></trkpt>
<trkpt lat="35.22437716123574" lon="139.02348045508592"><ele>1330</ele><time>2024-05-18T00:55:28Z</time></trkpt>
<trkpt lat="35.2241639393488" lon="139.02361535718035"><ele>1333</ele><time>2024-05-18T00:56:03Z</time></trkpt>
<trkpt lat="35.22399025967581" lon="139.0238645130845"><ele>1335</ele><time>2024-05-18T00:56:35Z</time></trkpt>
<trkpt lat="35.22384677342967" lon="139.02364479621863"><ele>1334</ele><time>2024-05-18T00:57:31Z</time></trkpt>
<trkpt lat="35.22395622645065" lon="139.02395725832756"><ele>1333</ele><time>2024-05-18T01:05:53Z</time></trkpt>
<trkpt lat="35.22383726803325" lon="139.02424904929654"><ele>1338</ele><time>2024-05-18T01:06:19Z</time></trkpt>
<trkpt lat="35.22366602306991" lon="139.02437981755523"><ele>1339</ele><time>2024-05-18T01:06:56Z</time></trkpt>
<trkpt lat="35.223452055051" lon="139.02418807517432"><ele>1339</ele><time>2024-05-18T01:07:49Z</time></trkpt>
<trkpt lat="35.22330256499136" lon="139.02446721410257"><ele>1337</ele><time>2024-05-18T01:10:56Z</time></trkpt>
<trkpt lat="35.22328169164213" lon="139.02477202834288"><ele>1337</ele><time>2024-05-18T01:11:39Z</time></trkpt>
<trkpt lat="35.22317857519649" lon="139.02504546623163"><ele>1339</ele><time>2024-05-18T01:12:08Z</time></trkpt>
<trkpt lat="35.223067739231524" lon="139.02536779510245"><ele>1338</ele><time>2024-05-18T01:12:34Z</time></trkpt>
<trkpt lat="35.223036366285434" lon="139.02575949056205"><ele>1338</ele><time>2024-05-18T01:13:02Z</time></trkpt>
<trkpt lat="35.22295839045816" lon="139.0261601289801"><ele>1336</ele><time>2024-05-18T01:13:28Z</time></trkpt>
<trkpt lat="35.222889025513304" lon="139.02653758257807"><ele>1337</ele><time>2024-05-18T01:13:56Z</time></trkpt>
<trkpt lat="35.22299804329332" lon="139.02679881814177"><ele>1331</ele><time>2024-05-18T01:14:22Z</time></trkpt>
<trkpt lat="35.22310283384372" lon="139.026922007756"><ele>1331</ele><time>2024-05-18T01:15:01Z</time></trkpt>
<trkpt lat="35.223280666341275" lon="139.0271749885422"><ele>1335</ele><time>2024-05-18T01:15:28Z</time></trkpt>
<trkpt lat="35.223491297501894" lon="139.02730288065553"><ele>1336</ele><time>2024-05-18T01:15:57Z</time></trkpt>
<trkpt lat="35.22342966113268" lon="139.0269852040917"><ele>1334</ele><time>2024-05-18T01:17:51Z</time></trkpt>
<trkpt lat="35.22351583237791" lon="139.02662497810257"><ele>1333</ele><time>2024-05-18T01:18:17Z</time></trkpt>
<trkpt lat="35.223575904857206" lon="139.02627273996674"><ele>1333</ele><time>2024-05-18T01:18:44Z</time></trkpt>
<trkpt lat="35.223718243601745" lon="139.0259647821946"><ele>1331</ele><time>2024-05-18T01:19:12Z</time></trkpt>
<trkpt lat="35.22398510896001" lon="139.02583977562395"><ele>1334</ele><time>2024-05-18T01:19:38Z</time></trkpt>
<trkpt lat="35.22417375215937" lon="139.02563282683806"><ele>1338</ele><time>2024-05-18T01:20:08Z</time></trkpt>
<trkpt lat="35.224355278460486" lon="139.02548989655355"><ele>1345</ele><time>2024-05-18T01:20:39Z</time></trkpt>
<trkpt lat="35.22457006245636" lon="139.02537585256925"><ele>1352</ele><time>2024-05-18T01:21:09Z</time></trkpt>
<trkpt lat="35.22471993689421" lon="139.0252581450802"><ele>1353</ele><time>2024-05-18T01:21:41Z</time></trkpt>
<trkpt lat="35.22483314687435" lon="139.02501741331966"><ele>1353</ele><time>2024-05-18T01:22:35Z</time></trkpt>
<trkpt lat="35.22494213369727" lon="139.02499356215523"><ele>1355</ele><time>2024-05-18T01:23:10Z</time></trkpt>
<trkpt lat="35.22476532318628" lon="139.02490743286629"><ele>1351</ele><time>2024-05-18T01:23:55Z</time></trkpt>
<trkpt lat="35.224790049874414" lon="139.02461708891647"><ele>1351</ele><time>2024-05-18T01:24:28Z</time></trkpt>
<trkpt lat="35.22458792878207" lon="139.02456636593183"><ele>1347</ele><time>2024-05-18T01:25:04Z</time></trkpt>
<trkpt lat="35.22435128543506" lon="139.02442353761577"><ele>1340</ele><time>2024-05-18T01:25:39Z</time></trkpt>
<trkpt lat="35.224124342559755" lon="139.02440072901155"><ele>1336</ele><time>2024-05-18T01:26:06Z</time></trkpt>
<trkpt lat="35.22385620770964" lon="139.0246237550984"><ele>1336</ele><time>2024-05-18T01:26:34Z</time></trkpt>
<trkpt lat="35.22367671555483" lon="139.0247290985711"><ele>1335</ele><time>2024-05-18T01:27:04Z</time></trkpt>
<trkpt lat="35.223675067905695" lon="139.0244221999628"><ele>1337</ele><time>2024-05-18T01:27:31Z</time></trkpt>
<trkpt lat="35.223880901978625" lon="139.02420180835617"><ele>1336</ele><time>2024-05-18T01:27:58Z</time></trkpt>
<trkpt lat="35.22397776535471" lon="139.02389383694407"><ele>1335</ele><time>2024-05-18T01:28:24Z</time></trkpt>
<trkpt lat="35.224192802698056" lon="139.0236225328048"><ele>1333</ele><time>2024-05-18T01:28:54Z</time></trkpt>
<trkpt lat="35.224337728830655" lon="139.0235017433182"><ele>1330</ele><time>2024-05-18T01:29:21Z</time></trkpt>
<trkpt lat="35.22461174702231" lon="139.02343898282933"><ele>1328</ele><time>2024-05-18T01:29:52Z</time></trkpt>
<trkpt lat="35.22476734477206" lon="139.02316236228694"><ele>1325</ele><time>2024-05-18T01:30:20Z</time></trkpt>
<trkpt lat="35.224938307367744" lon="139.02295981365563"><ele>1322</ele><time>2024-05-18T01:30:58Z</time></trkpt>
<trkpt lat="35.22510565437657" lon="139.0228247078116"><ele>1316</ele><time>2024-05-18T01:31:27Z</time></trkpt>
<trkpt lat="35.225273934494474" lon="139.0226497385677"><ele>1310</ele><time>2024-05-18T01:31:53Z</time></trkpt>
<trkpt lat="35.2255011884386" lon="139.0225997385698"><ele>1304</ele><time>2024-05-18T01:32:24Z</time></trkpt>
<trkpt lat="35.22563991795284" lon="139.02241224529243"><ele>1299</ele><time>2024-05-18T01:32:57Z</time></trkpt>
<trkpt lat="35.22587091145964" lon="139.02242627472788"><ele>1294</ele><time>2024-05-18T01:33:28Z</time></trkpt>
<trkpt lat="35.22603975903245" lon="139.02227607493572"><ele>1289</ele><time>2024-05-18T01:34:03Z</time></trkpt>
<trkpt lat="35.226131895784754" lon="139.0221161628341"><ele>1280</ele><time>2024-05-18T01:34:48Z</time></trkpt>
<trkpt lat="35.22631029391765" lon="139.02198715293136"><ele>1276</ele><time>2024-05-18T01:35:30Z</time></trkpt>
<trkpt lat="35.22652467391163" lon="139.02204634636152"><ele>1271</ele><time>2024-05-18T01:36:03Z</time></trkpt>
<trkpt lat="35.22656857263989" lon="139.02179338947937"><ele>1266</ele><time>2024-05-18T01:36:34Z</time></trkpt>
<trkpt lat="35.22655190683037" lon="139.0214954052484"><ele>1264</ele><time>2024-05-18T01:37:03Z</time></trkpt>
<trkpt lat="35.22645174361829" lon="139.02117586535346"><ele>1260</ele><time>2024-05-18T01:37:35Z</time></trkpt>
<trkpt lat="35.226350378349245" lon="139.02091128134762"><ele>1253</ele><time>2024-05-18T01:38:07Z</time></trkpt>
<trkpt lat="35.22656279375823" lon="139.02086749083705"><ele>1244</ele><time>2024-05-18T01:38:56Z</time></trkpt>
<trkpt lat="35.22681490806356" lon="139.0209467293106"><ele>1242</ele><time>2024-05-18T01:39:22Z</time></trkpt>
<trkpt lat="35.22710988325752" lon="139.0208795404109"><ele>1240</ele><time>2024-05-18T01:39:51Z</time></trkpt>
<trkpt lat="35.22729794798355" lon="139.020790410277"><ele>1237</ele><time>2024-05-18T01:40:20Z</time></trkpt>
<trkpt lat="35.22752573962828" lon="139.020718967588"><ele>1237</ele><time>2024-05-18T01:40:54Z</time></trkpt>
<trkpt lat="35.22778052177675" lon="139.02078809675749"><ele>1238</ele><time>2024-05-18T01:41:21Z</time></trkpt>
<trkpt lat="35.2279851479105" lon="139.02073074006327"><ele>1244</ele><time>2024-05-18T01:42:00Z</time></trkpt>
<trkpt lat="35.2280258058126" lon="139.02058139101626"><ele>1250</ele><time>2024-05-18T01:42:39Z</time></trkpt>
<trkpt lat="35.22810177250823" lon="139.02038366593524"><ele>1256</ele><time>2024-05-18T01:43:30Z</time></trkpt>
<trkpt lat="35.2281014229539" lon="139.0201653248595"><ele>1258</ele><time>2024-05-18T01:44:07Z</time></trkpt>
<trkpt lat="35.22812532336252" lon="139.01985498141576"><ele>1263</ele><time>2024-05-18T01:44:40Z</time></trkpt>
<trkpt lat="35.2282549651703" lon="139.01960388397782"><ele>1273</ele><time>2024-05-18T01:45:14Z</time></trkpt>
<trkpt lat="35.22841006682828" lon="139.01934238794897"><ele>1283</ele><time>2024-05-18T01:45:53Z</time></trkpt>
<trkpt lat="35.22853036576984" lon="139.01912542817942"><ele>1286</ele><time>2024-05-18T01:46:32Z</time></trkpt>
<trkpt lat="35.22871812992857" lon="139.01905092987704"><ele>1292</ele><time>2024-05-18T01:47:11Z</time></trkpt>
<trkpt lat="35.22889966893823" lon="139.01886154888692"><ele>1293</ele><time>2024-05-18T01:47:41Z</time></trkpt>
<trkpt lat="35.22910007364354" lon="139.0186914913296"><ele>1294</ele><time>2024-05-18T01:48:09Z</time></trkpt>
<trkpt lat="35.22936260687771" lon="139.01853103377152"><ele>1296</ele><time>2024-05-18T01:48:39Z</time></trkpt>
<trkpt lat="35.229554734074235" lon="139.0182957032908"><ele>1299</ele><time>2024-05-18T01:49:12Z</time></trkpt>
<trkpt lat="35.22972961777086" lon="139.01816204366847"><ele>1304</ele><time>2024-05-18T01:49:41Z</time></trkpt>
<trkpt lat="35.229943883150916" lon="139.01816156923616"><ele>1310</ele><time>2024-05-18T01:50:16Z</time></trkpt>
<trkpt lat="35.230158898072894" lon="139.01817146459567"><ele>1314</ele><time>2024-05-18T01:50:51Z</time></trkpt>
<trkpt lat="35.23041823749848" lon="139.0182708123311"><ele>1319</ele><time>2024-05-18T01:51:24Z</time></trkpt>
<trkpt lat="35.23068613881715" lon="139.0182580113174"><ele>1323</ele><time>2024-05-18T01:51:58Z</time></trkpt>
<trkpt lat="35.23087456058922" lon="139.0181175400809"><ele>1327</ele><time>2024-05-18T01:52:26Z</time></trkpt>
<trkpt lat="35.23104934658582" lon="139.01807222174565"><ele>1330</ele><time>2024-05-18T01:52:54Z</time></trkpt>
<trkpt lat="35.23119330188611" lon="139.01822585758984"><ele>1335</ele><time>2024-05-18T01:53:31Z</time></trkpt>
<trkpt lat="35.231374197110995" lon="139.01825390970183"><ele>1338</ele><time>2024-05-18T01:54:01Z</time></trkpt>
<trkpt lat="35.23158220921106" lon="139.01840110245473"><ele>1347</ele><time>2024-05-18T01:54:41Z</time></trkpt>
<trkpt lat="35.231748297406114" lon="139.01850906551803"><ele>1357</ele><time>2024-05-18T01:55:21Z</time></trkpt>
<trkpt lat="35.23185638179292" lon="139.01864012402257"><ele>1362</ele><time>2024-05-18T01:56:08Z</time></trkpt>
<trkpt lat="35.231952274334326" lon="139.01885115811845"><ele>1367</ele><time>2024-05-18T01:56:52Z</time></trkpt>
<trkpt lat="35.232123135589674" lon="139.01887287175288"><ele>1378</ele><time>2024-05-18T01:57:43Z</time></trkpt>
<trkpt lat="35.232270962793805" lon="139.01887092886201"><ele>1381</ele><time>2024-05-18T01:58:18Z</time></trkpt>
<trkpt lat="35.232451963624115" lon="139.01870699262344"><ele>1390</ele><time>2024-05-18T02:00:03Z</time></trkpt>
<trkpt lat="35.23246163131862" lon="139.01894207629405"><ele>1396</ele><time>2024-05-18T02:01:08Z</time></trkpt>
<trkpt lat="35.23255445858724" lon="139.01920164628856"><ele>1398</ele><time>2024-05-18T02:01:55Z</time></trkpt>
<trkpt lat="35.23255996477496" lon="139.0194703267133"><ele>1400</ele><time>2024-05-18T02:02:22Z</time></trkpt>
<trkpt lat="35.232593250761234" lon="139.0198119383991"><ele>1403</ele><time>2024-05-18T02:02:54Z</time></trkpt>
<trkpt lat="35.232545679689125" lon="139.02008929545215"><ele>1407</ele><time>2024-05-18T02:03:32Z</time></trkpt>
<trkpt lat="35.23264560571305" lon="139.02030013484176"><ele>1410</ele><time>2024-05-18T02:04:05Z</time></trkpt>
<trkpt lat="35.23275187521757" lon="139.02046946985743"><ele>1417</ele><time>2024-05-18T02:04:53Z</time></trkpt>
<trkpt lat="35.23290861362303" lon="139.02047728788335"><ele>1424</ele><time>2024-05-18T02:05:29Z</time></trkpt>
<trkpt lat="35.233154311175056" lon="139.02041626706907"><ele>1426</ele><time>2024-05-18T02:06:03Z</time></trkpt>
<trkpt lat="35.23334373172069" lon="139.02059971816243"><ele>1432</ele><time>2024-05-18T02:06:36Z</time></trkpt>
<trkpt lat="35.233458659493" lon="139.02079929699636"><ele>1434</ele><time>2024-05-18T02:07:11Z</time></trkpt>
<trkpt lat="35.23341850073361" lon="139.02089974928955"><ele>1437</ele><time>2024-05-18T02:22:59Z</time></trkpt>
<trkpt lat="35.2334504881778" lon="139.02066381400488"><ele>1434</ele><time>2024-05-18T02:23:44Z</time></trkpt>
<trkpt lat="35.233274465317436" lon="139.0204780556693"><ele>1429</ele><time>2024-05-18T02:24:25Z</time></trkpt>
<trkpt lat="35.233049356900004" lon="139.02034843277727"><ele>1428</ele><time>2024-05-18T02:24:55Z</time></trkpt>
<trkpt lat="35.232846797357304" lon="139.02046928205715"><ele>1424</ele><time>2024-05-18T02:25:34Z</time></trkpt>
<trkpt lat="35.232691189439564" lon="139.0203791355976"><ele>1418</ele><time>2024-05-18T02:26:18Z</time></trkpt>
<trkpt lat="35.23264830183813" lon="139.0201675811604"><ele>1410</ele><time>2024-05-18T02:26:59Z</time></trkpt>
<trkpt lat="35.23256260291754" lon="139.02005273947557"><ele>1407</ele><time>2024-05-18T02:27:33Z</time></trkpt>
<trkpt lat="35.23260772945827" lon="139.0197542892108"><ele>1403</ele><time>2024-05-18T02:28:08Z</time></trkpt>
<trkpt lat="35.23258155288017" lon="139.01942570918786"><ele>1402</ele><time>2024-05-18T02:28:38Z</time></trkpt>
<trkpt lat="35.23252752680146" lon="139.01914736908572"><ele>1399</ele><time>2024-05-18T02:29:08Z</time></trkpt>
<trkpt lat="35.23252729378419" lon="139.01891823149677"><ele>1396</ele><time>2024-05-18T02:29:48Z</time></trkpt>
<trkpt lat="35.23255122760639" lon="139.01861993046714"><ele>1396</ele><time>2024-05-18T02:30:26Z</time></trkpt>
<trkpt lat="35.23236206826451" lon="139.01873145641179"><ele>1389</ele><time>2024-05-18T02:30:58Z</time></trkpt>
<trkpt lat="35.232192472826284" lon="139.01890441189514"><ele>1382</ele><time>2024-05-18T02:31:31Z</time></trkpt>
<trkpt lat="35.23200271982203" lon="139.0188923330712"><ele>1377</ele><time>2024-05-18T02:32:17Z</time></trkpt>
<trkpt lat="35.231893062444534" lon="139.018709750447"><ele>1367</ele><time>2024-05-18T02:32:55Z</time></trkpt>
<trkpt lat="35.23182881102068" lon="139.01846369084728"><ele>1360</ele><time>2024-05-18T02:33:39Z</time></trkpt>
<trkpt lat="35.23165930265468" lon="139.01840513016683"><ele>1355</ele><time>2024-05-18T02:34:15Z</time></trkpt>
<trkpt lat="35.23144110747537" lon="139.0182787635133"><ele>1343</ele><time>2024-05-18T02:34:48Z</time></trkpt>
<trkpt lat="35.23123180661418" lon="139.01820605777507"><ele>1334</ele><time>2024-05-18T02:35:20Z</time></trkpt>
<trkpt lat="35.23106471861543" lon="139.01802723342556"><ele>1330</ele><time>2024-05-18T02:35:53Z</time></trkpt>
<trkpt lat="35.23079953937133" lon="139.01808415003643"><ele>1327</ele><time>2024-05-18T02:36:25Z</time></trkpt>
<trkpt lat="35.23056398065795" lon="139.01824223619815"><ele>1322</ele><time>2024-05-18T02:36:55Z</time></trkpt>
<trkpt lat="35.23030275415867" lon="139.01820279420787"><ele>1319</ele><time>2024-05-18T02:37:25Z</time></trkpt>
<trkpt lat="35.230067275684625" lon="139.01813546128844"><ele>1314</ele><time>2024-05-18T02:37:57Z</time></trkpt>
<trkpt lat="35.22984051336152" lon="139.01814313441352"><ele>1307</ele><time>2024-05-18T02:38:29Z</time></trkpt>
<trkpt lat="35.229590502324164" lon="139.01822746493576"><ele>1300</ele><time>2024-05-18T02:39:01Z</time></trkpt>
<trkpt lat="35.229374909081685" lon="139.01843170832362"><ele>1299</ele><time>2024-05-18T02:39:28Z</time></trkpt>
<trkpt lat="35.22917164526844" lon="139.01861360848952"><ele>1295</ele><time>2024-05-18T02:39:56Z</time></trkpt>
<trkpt lat="35.22897470708625" lon="139.0187647515245"><ele>1292</ele><time>2024-05-18T02:40:22Z</time></trkpt>
<trkpt lat="35.22875685692182" lon="139.01895229654605"><ele>1291</ele><time>2024-05-18T02:40:53Z</time></trkpt>
<trkpt lat="35.228579102023474" lon="139.0190962138143"><ele>1286</ele><time>2024-05-18T02:41:23Z</time></trkpt>
<trkpt lat="35.22838759514397" lon="139.0192583680403"><ele>1284</ele><time>2024-05-18T02:41:54Z</time></trkpt>
<trkpt lat="35.22826685087594" lon="139.01951411628957"><ele>1280</ele><time>2024-05-18T02:42:22Z</time></trkpt>
<trkpt lat="35.228137239830524" lon="139.019756363026"><ele>1272</ele><time>2024-05-18T02:42:52Z</time></trkpt>
<trkpt lat="35.22808225726441" lon="139.02005361783668"><ele>1263</ele><time>2024-05-18T02:43:27Z</time></trkpt>
<trkpt lat="35.22809963702668" lon="139.0203894752746"><ele>1257</ele><time>2024-05-18T02:43:57Z</time></trkpt>
<trkpt lat="35.22805831445992" lon="139.02057748579816"><ele>1255</ele><time>2024-05-18T02:44:28Z</time></trkpt>
<trkpt lat="35.227917945835706" lon="139.0207651317263"><ele>1242</ele><time>2024-05-18T02:45:12Z</time></trkpt>
<trkpt lat="35.22765064392542" lon="139.0207837715168"><ele>1237</ele><time>2024-05-18T02:45:44Z</time></trkpt>
<trkpt lat="35.2273964398506" lon="139.02066897157292"><ele>1237</ele><time>2024-05-18T02:46:13Z</time></trkpt>
<trkpt lat="35.22726241895098" lon="139.02080069984274"><ele>1239</ele><time>2024-05-18T02:47:03Z</time></trkpt>
<trkpt lat="35.227049889226" lon="139.0205747404549"><ele>1239</ele><time>2024-05-18T02:50:41Z</time></trkpt>
<trkpt lat="35.226841516965706" lon="139.02044067411623"><ele>1236</ele><time>2024-05-18T02:51:10Z</time></trkpt>
<trkpt lat="35.226663320208196" lon="139.02028157931457"><ele>1231</ele><time>2024-05-18T02:51:41Z</time></trkpt>
<trkpt lat="35.226458458251564" lon="139.02007358793236"><ele>1228</ele><time>2024-05-18T02:52:09Z</time></trkpt>
<trkpt lat="35.22629502145229" lon="139.01996444385335"><ele>1225</ele><time>2024-05-18T02:52:38Z</time></trkpt>
<trkpt lat="35.2260775013129" lon="139.0197630531911"><ele>1225</ele><time>2024-05-18T02:53:06Z</time></trkpt>
<trkpt lat="35.22593271157251" lon="139.01950579349872"><ele>1225</ele><time>2024-05-18T02:53:32Z</time></trkpt>
<trkpt lat="35.225843772948906" lon="139.01926759359063"><ele>1229</ele><time>2024-05-18T02:54:00Z</time></trkpt>
<trkpt lat="35.22570628876224" lon="139.01901384086932"><ele>1229</ele><time>2024-05-18T02:54:27Z</time></trkpt>
<trkpt lat="35.22562717384506" lon="139.01874831557404"><ele>1232</ele><time>2024-05-18T02:55:00Z</time></trkpt>
<trkpt lat="35.22558643089926" lon="139.01845535863328"><ele>1234</ele><time>2024-05-18T02:55:32Z</time></trkpt>
<trkpt lat="35.225580503959705" lon="139.01819644954233"><ele>1234</ele><time>2024-05-18T02:55:58Z</time></trkpt>
<trkpt lat="35.22559892650614" lon="139.01789801522"><ele>1234</ele><time>2024-05-18T02:56:27Z</time></trkpt>
<trkpt lat="35.22551953705334" lon="139.01762725773654"><ele>1232</ele><time>2024-05-18T02:56:59Z</time></trkpt>
<trkpt lat="35.225525245597225" lon="139.01731612635487"><ele>1230</ele><time>2024-05-18T02:57:26Z</time></trkpt>
<trkpt lat="35.22553832123062" lon="139.01701316833052"><ele>1224</ele><time>2024-05-18T02:57:54Z</time></trkpt>
<trkpt lat="35.225561802822874" lon="139.01678764697579"><ele>1215</ele><time>2024-05-18T02:58:40Z</time></trkpt>
<trkpt lat="35.225601194749046" lon="139.01651488339897"><ele>1217</ele><time>2024-05-18T02:59:06Z</time></trkpt>
<trkpt lat="35.22560873911124" lon="139.01618456953742"><ele>1214</ele><time>2024-05-18T02:59:34Z</time></trkpt>
<trkpt lat="35.2255699732353" lon="139.0158735069184"><ele>1207</ele><time>2024-05-18T03:00:06Z</time></trkpt>
<trkpt lat="35.22561693507227" lon="139.01550661525485"><ele>1202</ele><time>2024-05-18T03:00:39Z</time></trkpt>
<trkpt lat="35.22574686522266" lon="139.01523707533528"><ele>1198</ele><time>2024-05-18T03:01:05Z</time></trkpt>
<trkpt lat="35.22585833833475" lon="139.0150108365328"><ele>1192</ele><time>2024-05-18T03:01:35Z</time></trkpt>
<trkpt lat="35.22580489858717" lon="139.01483655385033"><ele>1186</ele><time>2024-05-18T03:02:06Z</time></trkpt>
<trkpt lat="35.22585299026292" lon="139.01469771808718"><ele>1178</ele><time>2024-05-18T03:02:51Z</time></trkpt>
<trkpt lat="35.22591266020722" lon="139.0144694331584"><ele>1165</ele><time>2024-05-18T03:03:51Z</time></trkpt>
<trkpt lat="35.22575289803823" lon="139.01434529286672"><ele>1160</ele><time>2024-05-18T03:04:18Z</time></trkpt>
<trkpt lat="35.22553258570094" lon="139.01420969498955"><ele>1156</ele><time>2024-05-18T03:04:51Z</time></trkpt>
<trkpt lat="35.22540587189935" lon="139.01400076669205"><ele>1146</ele><time>2024-05-18T03:05:38Z</time></trkpt>
<trkpt lat="35.22527851078225" lon="139.01386294973247"><ele>1137</ele><time>2024-05-18T03:06:10Z</time></trkpt>
<trkpt lat="35.225484108939305" lon="139.01386611645108"><ele>1138</ele><time>2024-05-18T03:06:38Z</time></trkpt>
<trkpt lat="35.225482343258186" lon="139.0136767318183"><ele>1128</ele><time>2024-05-18T03:07:12Z</time></trkpt>
<trkpt lat="35.22558025128097" lon="139.0134859240338"><ele>1121</ele><time>2024-05-18T03:07:52Z</time></trkpt>
<trkpt lat="35.225796932270256" lon="139.01341060328946"><ele>1120</ele><time>2024-05-18T03:08:27Z</time></trkpt>
<trkpt lat="35.22600185585595" lon="139.0132233316101"><ele>1115</ele><time>2024-05-18T03:08:57Z</time></trkpt>
<trkpt lat="35.226030556222746" lon="139.01295844365583"><ele>1108</ele><time>2024-05-18T03:09:42Z</time></trkpt>
<trkpt lat="35.22596984533947" lon="139.01275030509458"><ele>1100</ele><time>2024-05-18T03:10:14Z</time></trkpt>
<trkpt lat="35.226074159703025" lon="139.01250149513234"><ele>1092</ele><time>2024-05-18T03:10:53Z</time></trkpt>
<trkpt lat="35.22602066694013" lon="139.0122609997203"><ele>1081</ele><time>2024-05-18T03:11:25Z</time></trkpt>
<trkpt lat="35.22597805892849" lon="139.01195189242577"><ele>1077</ele><time>2024-05-18T03:11:56Z</time></trkpt>
<trkpt lat="35.22583225053697" lon="139.01181160044376"><ele>1068</ele><time>2024-05-18T03:12:37Z</time></trkpt>
<trkpt lat="35.22575168948721" lon="139.0115440074664"><ele>1060</ele><time>2024-05-18T03:13:13Z</time></trkpt>
<trkpt lat="35.2257405963825" lon="139.01126596991264"><ele>1055</ele><time>2024-05-18T03:13:45Z</time></trkpt>
<trkpt lat="35.22571148778124" lon="139.01105980807353"><ele>1046</ele><time>2024-05-18T03:14:22Z</time></trkpt>
<trkpt lat="35.225694569146405" lon="139.0108185511134"><ele>1036</ele><time>2024-05-18T03:15:11Z</time></trkpt>
<trkpt lat="35.22564947624465" lon="139.0106465031694"><ele>1033</ele><time>2024-05-18T03:15:40Z</time></trkpt>
<trkpt lat="35.225562506067796" lon="139.0104601039591"><ele>1024</ele><time>2024-05-18T03:16:17Z</time></trkpt>
<trkpt lat="35.22540864307579" lon="139.01025241860322"><ele>1015</ele><time>2024-05-18T03:17:03Z</time></trkpt>
<trkpt lat="35.225288247864846" lon="139.00994491243924"><ele>1007</ele><time>2024-05-18T03:17:37Z</time></trkpt>
<trkpt lat="35.22510521955396" lon="139.00976769704914"><ele>1000</ele><time>2024-05-18T03:18:07Z</time></trkpt>
<trkpt lat="35.22498018494275" lon="139.0095366352019"><ele>992</ele><time>2024-05-18T03:18:41Z</time></trkpt>
<trkpt lat="35.224829992618844" lon="139.00931792057696"><ele>986</ele><time>2024-05-18T03:19:14Z</time></trkpt>
<trkpt lat="35.22468112609431" lon="139.0091081926754"><ele>977</ele><time>2024-05-18T03:19:46Z</time></trkpt>
<trkpt lat="35.224560766783235" lon="139.00888903221303"><ele>971</ele><time>2024-05-18T03:20:21Z</time></trkpt>
<trkpt lat="35.22475694485141" lon="139.00880049621557"><ele>965</ele><time>2024-05-18T03:20:59Z</time></trkpt>
<trkpt lat="35.224620903091655" lon="139.00860694252842"><ele>962</ele><time>2024-05-18T03:21:37Z</time></trkpt>
<trkpt lat="35.22452512314841" lon="139.00844441635968"><ele>952</ele><time>2024-05-18T03:22:15Z</time></trkpt>
<trkpt lat="35.224758339743886" lon="139.0083997575676"><ele>949</ele><time>2024-05-18T03:22:49Z</time></trkpt>
<trkpt lat="35.22464393873493" lon="139.0082260229004"><ele>936</ele><time>2024-05-18T03:23:42Z</time></trkpt>
<trkpt lat="35.22484146937092" lon="139.00818619362974"><ele>931</ele><time>2024-05-18T03:24:21Z</time></trkpt>
<trkpt lat="35.22487449272224" lon="139.0080315903396"><ele>919</ele><time>2024-05-18T03:25:17Z</time></trkpt>
<trkpt lat="35.22492301450041" lon="139.00788234009354"><ele>911</ele><time>2024-05-18T03:26:04Z</time></trkpt>
<trkpt lat="35.224886202390515" lon="139.00763495179615"><ele>906</ele><time>2024-05-18T03:26:37Z</time></trkpt>
<trkpt lat="35.22473936327457" lon="139.00734797210993"><ele>899</ele><time>2024-05-18T03:27:14Z</time></trkpt>
<trkpt lat="35.22469860433364" lon="139.00704123377267"><ele>897</ele><time>2024-05-18T03:27:45Z</time></trkpt>
<trkpt lat="35.22465287042429" lon="139.00671390864215"><ele>892</ele><time>2024-05-18T03:28:24Z</time></trkpt>
<trkpt lat="35.22463880158095" lon="139.00640127571535"><ele>886</ele><time>2024-05-18T03:28:49Z</time></trkpt>
<trkpt lat="35.22472046571166" lon="139.00610163119984"><ele>880</ele><time>2024-05-18T03:29:20Z</time></trkpt>
<trkpt lat="35.224829962299204" lon="139.00578194961753"><ele>875</ele><time>2024-05-18T03:29:47Z</time></trkpt>
<trkpt lat="35.224868322219734" lon="139.00555331821988"><ele>871</ele><time>2024-05-18T03:30:18Z</time></trkpt>
<trkpt lat="35.22501418834745" lon="139.00546004670667"><ele>866</ele><time>2024-05-18T03:31:19Z</time></trkpt>
<trkpt lat="35.2251719386964" lon="139.0053833206876"><ele>868</ele><time>2024-05-18T03:31:45Z</time></trkpt>
<trkpt lat="35.22511867275188" lon="139.0049898038919"><ele>866</ele><time>2024-05-18T03:32:26Z</time></trkpt>
<trkpt lat="35.22496306563609" lon="139.00475189638243"><ele>857</ele><time>2024-05-18T03:32:55Z</time></trkpt>
<trkpt lat="35.22486879609194" lon="139.00438745943143"><ele>853</ele><time>2024-05-18T03:33:32Z</time></trkpt>
<trkpt lat="35.225200139585276" lon="139.00430136805002"><ele>851</ele><time>2024-05-18T03:34:23Z</time></trkpt>
<trkpt lat="35.22551225191063" lon="139.0042898145339"><ele>848</ele><time>2024-05-18T03:34:52Z</time></trkpt>
<trkpt lat="35.225828735337664" lon="139.0044381604247"><ele>845</ele><time>2024-05-18T03:35:19Z</time></trkpt>
<trkpt lat="35.22620314542073" lon="139.00444761234618"><ele>841</ele><time>2024-05-18T03:35:49Z</time></trkpt>
<trkpt lat="35.22645000059103" lon="139.0041991776989"><ele>837</ele><time>2024-05-18T03:36:15Z</time></trkpt>
<trkpt lat="35.226594012673225" lon="139.00383846887993"><ele>829</ele><time>2024-05-18T03:36:41Z</time></trkpt>
<trkpt lat="35.22679906904043" lon="139.00354646290415"><ele>826</ele><time>2024-05-18T03:37:08Z</time></trkpt>
<trkpt lat="35.2270617678026" lon="139.0033595676522"><ele>824</ele><time>2024-05-18T03:37:34Z</time></trkpt>
<trkpt lat="35.22713801408321" lon="139.00320414542702"><ele>822</ele><time>2024-05-18T03:38:54Z</time></trkpt>
<trkpt lat="35.22742214349249" lon="139.00306935138164"><ele>823</ele><time>2024-05-18T03:39:22Z</time></trkpt>
<trkpt lat="35.2277042787684" lon="139.00296164694885"><ele>827</ele><time>2024-05-18T03:39:48Z</time></trkpt>
<trkpt lat="35.22800348552089" lon="139.00287619947667"><ele>826</ele><time>2024-05-18T03:40:14Z</time></trkpt>
<trkpt lat="35.228227639079016" lon="139.00276379093756"><ele>830</ele><time>2024-05-18T03:40:44Z</time></trkpt>
<trkpt lat="35.22815969567178" lon="139.00277174441337"><ele>828</ele><time>2024-05-18T03:41:39Z</time></trkpt>
</trkseg>
</trk>
</gpx>