<?xml version="1.0" encoding="UTF-8"?>
<gpx xmlns:xsi="http://www.w3.org/2001/XMLSchema-instance" xmlns="http://www.topografix.com/GPX/1/1" xsi:schemaLocation="http://www.topografix.com/GPX/1/1 http://www.topografix.com/GPX/1/1/gpx.xsd" creator="Yamareco iOS 7.11 - www.yamareco.com">
<trk><name>track</name><number>1</number><trkseg>
<trkpt lat="36.507003242087755" lon="140.27647990122406"><ele>217</ele><time>2024-11-03T04:13:28Z</time></trkpt>
<trkpt lat="36.50710926127721" lon="140.2767446441785"><ele>220</ele><time>2024-11-03T04:14:11Z</time></trkpt>
<trkpt lat="36.50725509305609" lon="140.276766246176"><ele>222</ele><time>2024-11-03T04:14:49Z</time></trkpt>
<trkpt lat="36.50707163140313" lon="140.27698160110694"><ele>221</ele><time>2024-11-03T04:15:15Z</time></trkpt>
<trkpt lat="36.5071242100612" lon="140.2771416710519"><ele>224</ele><time>2024-11-03T04:16:07Z</time></trkpt>
<trkpt lat="36.50704828433151" lon="140.2772830385919"><ele>228</ele><time>2024-11-03T04:17:04Z</time></trkpt>
<trkpt lat="36.50705457271902" lon="140.2775781226461"><ele>231</ele><time>2024-11-03T04:17:32Z</time></trkpt>
<trkpt lat="36.507051171964775" lon="140.2779121590753"><ele>232</ele><time>2024-11-03T04:18:00Z</time></trkpt>
<trkpt lat="36.5069363473305" lon="140.278272047965"><ele>234</ele><time>2024-11-03T04:18:28Z</time></trkpt>
<trkpt lat="36.50686324332843" lon="140.27858657665442"><ele>236</ele><time>2024-11-03T04:19:00Z</time></trkpt>
<trkpt lat="36.50676424894864" lon="140.27888275329317"><ele>242</ele><time>2024-11-03T04:19:29Z</time></trkpt>
<trkpt lat="36.50679307262036" lon="140.2791030457377"><ele>244</ele><time>2024-11-03T04:20:17Z</time></trkpt>
<trkpt lat="36.506785116275914" lon="140.2793191020179"><ele>248</ele><time>2024-11-03T04:20:54Z</time></trkpt>
<trkpt lat="36.50691355262289" lon="140.2793832712931"><ele>248</ele><time>2024-11-03T04:21:36Z</time></trkpt>
<trkpt lat="36.50698371159142" lon="140.27957398776016"><ele>247</ele><time>2024-11-03T04:22:26Z</time></trkpt>
<trkpt lat="36.50692194189654" lon="140.27969687031933"><ele>250</ele><time>2024-11-03T04:22:52Z</time></trkpt>
<trkpt lat="36.507112582375754" lon="140.27977872140724"><ele>251</ele><time>2024-11-03T04:23:17Z</time></trkpt>
<trkpt lat="36.507007092736686" lon="140.28000131929068"><ele>256</ele><time>2024-11-03T04:24:03Z</time></trkpt>
<trkpt lat="36.50689658545006" lon="140.28010621061716"><ele>259</ele><time>2024-11-03T04:24:48Z</time></trkpt>
<trkpt lat="36.506786045711706" lon="140.28033551453754"><ele>264</ele><time>2024-11-03T04:25:29Z</time></trkpt>
<trkpt lat="36.50683479286586" lon="140.2806249111137"><ele>262</ele><time>2024-11-03T04:26:04Z</time></trkpt>
<trkpt lat="36.50697130698728" lon="140.28092151335255"><ele>261</ele><time>2024-11-03T04:26:38Z</time></trkpt>
<trkpt lat="36.50710827542707" lon="140.2812562130146"><ele>261</ele><time>2024-11-03T04:27:06Z</time></trkpt>
<trkpt lat="36.50718685089224" lon="140.2815815168317"><ele>267</ele><time>2024-11-03T04:27:52Z</time></trkpt>
<trkpt lat="36.50727924218958" lon="140.28170752882392"><ele>268</ele><time>2024-11-03T04:28:16Z</time></trkpt>
<trkpt lat="36.507132037432996" lon="140.28165026314895"><ele>270</ele><time>2024-11-03T04:28:47Z</time></trkpt>
<trkpt lat="36.50707609120919" lon="140.28177431889554"><ele>271</ele><time>2024-11-03T04:30:42Z</time></trkpt>
<trkpt lat="36.50718584913009" lon="140.28178439187394"><ele>271</ele><time>2024-11-03T04:32:08Z</time></trkpt>
<trkpt lat="36.50732470510093" lon="140.28182992508425"><ele>270</ele><time>2024-11-03T04:33:21Z</time></trkpt>
<trkpt lat="36.507185175927184" lon="140.28178032198997"><ele>271</ele><time>2024-11-03T04:34:14Z</time></trkpt>
<trkpt lat="36.507308103566295" lon="140.28171786517"><ele>270</ele><time>2024-11-03T04:35:19Z</time></trkpt>
<trkpt lat="36.50710037277909" lon="140.28178066082145"><ele>271</ele><time>2024-11-03T04:36:08Z</time></trkpt>
<trkpt lat="36.507410138900354" lon="140.28188264841714"><ele>272</ele><time>2024-11-03T04:36:45Z</time></trkpt>
<trkpt lat="36.50759660820901" lon="140.28175928794323"><ele>273</ele><time>2024-11-03T04:37:27Z</time></trkpt>
<trkpt lat="36.50784230868028" lon="140.28193712262302"><ele>274</ele><time>2024-11-03T04:38:02Z</time></trkpt>
<trkpt lat="36.50781301661912" lon="140.28224263681605"><ele>278</ele><time>2024-11-03T04:38:32Z</time></trkpt>
<trkpt lat="36.50762262020542" lon="140.28254808166494"><ele>281</ele><time>2024-11-03T04:38:59Z</time></trkpt>
<trkpt lat="36.50768948955432" lon="140.28281241680602"><ele>281</ele><time>2024-11-03T04:39:35Z</time></trkpt>
<trkpt lat="36.50762171549152" lon="140.28307845409228"><ele>282</ele><time>2024-11-03T04:40:17Z</time></trkpt>
<trkpt lat="36.50733185422214" lon="140.28308710988745"><ele>286</ele><time>2024-11-03T04:40:48Z</time></trkpt>
<trkpt lat="36.5071488588869" lon="140.28323620539365"><ele>286</ele><time>2024-11-03T04:41:24Z</time></trkpt>
<trkpt lat="36.50701036196745" lon="140.28348916165822"><ele>290</ele><time>2024-11-03T04:41:54Z</time></trkpt>
<trkpt lat="36.506887522919975" lon="140.28363281852197"><ele>297</ele><time>2024-11-03T04:42:31Z</time></trkpt>
<trkpt lat="36.50671849307747" lon="140.283739472051"><ele>302</ele><time>2024-11-03T04:43:28Z</time></trkpt>
<trkpt lat="36.506771842057404" lon="140.2838881995896"><ele>305</ele><time>2024-11-03T04:43:55Z</time></trkpt>
<trkpt lat="36.50653358047808" lon="140.28398551109174"><ele>308</ele><time>2024-11-03T04:45:59Z</time></trkpt>
<trkpt lat="36.50633788813324" lon="140.2840513018927"><ele>314</ele><time>2024-11-03T04:46:59Z</time></trkpt>
<trkpt lat="36.506130944611535" lon="140.2841026898046"><ele>318</ele><time>2024-11-03T04:47:30Z</time></trkpt>
<trkpt lat="36.50599850591695" lon="140.28418729658537"><ele>323</ele><time>2024-11-03T04:48:08Z</time></trkpt>
<trkpt lat="36.505813364388516" lon="140.28426280925532"><ele>328</ele><time>2024-11-03T04:48:50Z</time></trkpt>
<trkpt lat="36.50568663734081" lon="140.28446479835358"><ele>332</ele><time>2024-11-03T04:49:22Z</time></trkpt>
<trkpt lat="36.50555890889749" lon="140.28460621524272"><ele>339</ele><time>2024-11-03T04:50:06Z</time></trkpt>
<trkpt lat="36.505528337867695" lon="140.28480039567353"><ele>342</ele><time>2024-11-03T04:50:42Z</time></trkpt>
<trkpt lat="36.50560238831683" lon="140.28505164212703"><ele>344</ele><time>2024-11-03T04:51:14Z</time></trkpt>
<trkpt lat="36.505662509549325" lon="140.2852079341682"><ele>349</ele><time>2024-11-03T04:51:59Z</time></trkpt>
<trkpt lat="36.50567301154663" lon="140.2853804350651"><ele>353</ele><time>2024-11-03T04:53:15Z</time></trkpt>
<trkpt lat="36.505819226438135" lon="140.28531744328063"><ele>351</ele><time>2024-11-03T04:54:06Z</time></trkpt>
<trkpt lat="36.5060628728294" lon="140.28535232232994"><ele>350</ele><time>2024-11-03T04:54:46Z</time></trkpt>
<trkpt lat="36.50625640832957" lon="140.28538080780822"><ele>343</ele><time>2024-11-03T04:55:23Z</time></trkpt>
<trkpt lat="36.506423285449394" lon="140.28543376599225"><ele>340</ele><time>2024-11-03T04:56:20Z</time></trkpt>
<trkpt lat="36.506632609841894" lon="140.28546332616753"><ele>338</ele><time>2024-11-03T04:56:54Z</time></trkpt>
<trkpt lat="36.50679094459712" lon="140.28555940383063"><ele>337</ele><time>2024-11-03T04:57:26Z</time></trkpt>
<trkpt lat="36.50697937982536" lon="140.28560072366136"><ele>331</ele><time>2024-11-03T04:58:08Z</time></trkpt>
<trkpt lat="36.507148531393035" lon="140.28561961021094"><ele>325</ele><time>2024-11-03T04:58:50Z</time></trkpt>
<trkpt lat="36.50726518932529" lon="140.28557414929554"><ele>320</ele><time>2024-11-03T04:59:22Z</time></trkpt>
<trkpt lat="36.50736593570485" lon="140.28558915015375"><ele>316</ele><time>2024-11-03T04:59:55Z</time></trkpt>
<trkpt lat="36.50746441558227" lon="140.28563165546913"><ele>313</ele><time>2024-11-03T05:00:47Z</time></trkpt>
<trkpt lat="36.50758173853588" lon="140.28550956172745"><ele>303</ele><time>2024-11-03T05:01:27Z</time></trkpt>
<trkpt lat="36.50774670904736" lon="140.28562779196508"><ele>296</ele><time>2024-11-03T05:02:31Z</time></trkpt>
<trkpt lat="36.507870567053644" lon="140.28568633419482"><ele>292</ele><time>2024-11-03T05:03:09Z</time></trkpt>
<trkpt lat="36.50801496461289" lon="140.2858569327882"><ele>284</ele><time>2024-11-03T05:03:55Z</time></trkpt>
<trkpt lat="36.508011736129525" lon="140.28601466037986"><ele>279</ele><time>2024-11-03T05:04:53Z</time></trkpt>
<trkpt lat="36.508075093780405" lon="140.2861271246814"><ele>277</ele><time>2024-11-03T05:06:52Z</time></trkpt>
<trkpt lat="36.50816344786791" lon="140.2862455778437"><ele>271</ele><time>2024-11-03T05:08:00Z</time></trkpt>
<trkpt lat="36.50813902360421" lon="140.2864007572309"><ele>268</ele><time>2024-11-03T05:08:49Z</time></trkpt>
<trkpt lat="36.50809231138757" lon="140.28652927042052"><ele>268</ele><time>2024-11-03T05:10:51Z</time></trkpt>
<trkpt lat="36.50801246322537" lon="140.28665169311228"><ele>268</ele><time>2024-11-03T05:12:13Z</time></trkpt>
<trkpt lat="36.50809790147914" lon="140.28684629633298"><ele>266</ele><time>2024-11-03T05:12:38Z</time></trkpt>
<trkpt lat="36.50821171800554" lon="140.28686388585274"><ele>259</ele><time>2024-11-03T05:13:03Z</time></trkpt>
<trkpt lat="36.50811047868068" lon="140.28681090369423"><ele>261</ele><time>2024-11-03T05:15:20Z</time></trkpt>
<trkpt lat="36.50824775291866" lon="140.28677595381254"><ele>261</ele><time>2024-11-03T05:19:48Z</time></trkpt>
<trkpt lat="36.508156989913566" lon="140.28686076961947"><ele>261</ele><time>2024-11-03T05:22:45Z</time></trkpt>
<trkpt lat="36.50811630631631" lon="140.28698998005814"><ele>258</ele><time>2024-11-03T05:45:08Z</time></trkpt>
<trkpt lat="36.507839678765706" lon="140.2870348077175"><ele>261</ele><time>2024-11-03T05:46:00Z</time></trkpt>
<trkpt lat="36.50754530121796" lon="140.28704234181888"><ele>269</ele><time>2024-11-03T05:46:27Z</time></trkpt>
<trkpt lat="36.50734940917841" lon="140.287036422184"><ele>272</ele><time>2024-11-03T05:46:59Z</time></trkpt>
<trkpt lat="36.50706923049557" lon="140.2868674975272"><ele>276</ele><time>2024-11-03T05:47:32Z</time></trkpt>
<trkpt lat="36.506960068590175" lon="140.2869710113798"><ele>278</ele><time>2024-11-03T05:47:56Z</time></trkpt>
<trkpt lat="36.506879919107696" lon="140.28686660540816"><ele>283</ele><time>2024-11-03T05:48:23Z</time></trkpt>
<trkpt lat="36.50671971284977" lon="140.28692840742647"><ele>285</ele><time>2024-11-03T05:49:42Z</time></trkpt>
<trkpt lat="36.506777502404006" lon="140.287162713245"><ele>281</ele><time>2024-11-03T05:50:32Z</time></trkpt>
<trkpt lat="36.50688767918179" lon="140.28720375193953"><ele>276</ele><time>2024-11-03T05:51:11Z</time></trkpt>
<trkpt lat="36.50698648034567" lon="140.28731253403114"><ele>274</ele><time>2024-11-03T05:51:51Z</time></trkpt>
<trkpt lat="36.506861816978365" lon="140.28735373298977"><ele>275</ele><time>2024-11-03T05:52:39Z</time></trkpt>
<trkpt lat="36.50696481143643" lon="140.2873363306097"><ele>275</ele><time>2024-11-03T05:53:22Z</time></trkpt>
<trkpt lat="36.50701449416362" lon="140.28709137741697"><ele>274</ele><time>2024-11-03T05:54:04Z</time></trkpt>
<trkpt lat="36.50687604522978" lon="140.28714426674472"><ele>274</ele><time>2024-11-03T05:55:24Z</time></trkpt>
<trkpt lat="36.50700157429603" lon="140.2873687694088"><ele>275</ele><time>2024-11-03T05:55:57Z</time></trkpt>
<trkpt lat="36.50691056280067" lon="140.28710773914239"><ele>275</ele><time>2024-11-03T05:56:27Z</time></trkpt>
<trkpt lat="36.507074651267295" lon="140.2873319920541"><ele>273</ele><time>2024-11-03T05:57:20Z</time></trkpt>
<trkpt lat="36.50696823924775" lon="140.2873119577217"><ele>273</ele><time>2024-11-03T05:57:55Z</time></trkpt>
<trkpt lat="36.50710873635193" lon="140.2871720442913"><ele>271</ele><time>2024-11-03T05:58:29Z</time></trkpt>
<trkpt lat="36.507099667935094" lon="140.28729288748235"><ele>271</ele><time>2024-11-03T05:59:18Z</time></trkpt>
<trkpt lat="36.50709286264648" lon="140.28716781107457"><ele>273</ele><time>2024-11-03T06:00:47Z</time></trkpt>
<trkpt lat="36.507202087441804" lon="140.28716050104308"><ele>272</ele><time>2024-11-03T06:07:23Z</time></trkpt>
<trkpt lat="36.50708001606961" lon="140.28711968139768"><ele>274</ele><time>2024-11-03T06:13:51Z</time></trkpt>
<trkpt lat="36.50717967632624" lon="140.287195139055"><ele>273</ele><time>2024-11-03T06:14:23Z</time></trkpt>
<trkpt lat="36.507313834369675" lon="140.28721829409434"><ele>270</ele><time>2024-11-03T06:15:27Z</time></trkpt>
<trkpt lat="36.507152226010234" lon="140.28715234706362"><ele>271</ele><time>2024-11-03T06:15:58Z</time></trkpt>
<trkpt lat="36.50706090060376" lon="140.2872438807612"><ele>274</ele><time>2024-11-03T06:19:36Z</time></trkpt>
<trkpt lat="36.50705579644318" lon="140.28704864181182"><ele>275</ele><time>2024-11-03T06:21:57Z</time></trkpt>
<trkpt lat="36.50711562786209" lon="140.2871547774372"><ele>274</ele><time>2024-11-03T06:22:22Z</time></trkpt>
<trkpt lat="36.50703560942595" lon="140.28724179116136"><ele>271</ele><time>2024-11-03T06:23:27Z</time></trkpt>
<trkpt lat="36.507096804816584" lon="140.28702148978735"><ele>275</ele><time>2024-11-03T06:24:24Z</time></trkpt>
<trkpt lat="36.50701441511953" lon="140.28712537804788"><ele>274</ele><time>2024-11-03T06:28:59Z</time></trkpt>
<trkpt lat="36.50711582026275" lon="140.28736021213692"><ele>270</ele><time>2024-11-03T06:30:29Z</time></trkpt>
<trkpt lat="36.507010401751096" lon="140.28715031716882"><ele>272</ele><time>2024-11-03T06:31:07Z</time></trkpt>
<trkpt lat="36.50710070105716" lon="140.28720287843367"><ele>271</ele><time>2024-11-03T06:31:55Z</time></trkpt>
<trkpt lat="36.50697984123096" lon="140.28727144750212"><ele>272</ele><time>2024-11-03T06:35:06Z</time></trkpt>
<trkpt lat="36.50698950315384" lon="140.28707463369298"><ele>276</ele><time>2024-11-03T06:39:12Z</time></trkpt>
<trkpt lat="36.50711748444803" lon="140.28708670249674"><ele>276</ele><time>2024-11-03T06:40:20Z</time></trkpt>
<trkpt lat="36.5069873786347" lon="140.2870766282255"><ele>276</ele><time>2024-11-03T06:41:14Z</time></trkpt>
<trkpt lat="36.506993455049916" lon="140.28695698893733"><ele>280</ele><time>2024-11-03T06:43:19Z</time></trkpt>
<trkpt lat="36.506967000884394" lon="140.2871017224003"><ele>277</ele><time>2024-11-03T06:45:13Z</time></trkpt>
<trkpt lat="36.50693106700681" lon="140.28699504650845"><ele>279</ele><time>2024-11-03T06:46:39Z</time></trkpt>
<trkpt lat="36.506879627309814" lon="140.28710133611412"><ele>280</ele><time>2024-11-03T06:50:46Z</time></trkpt>
<trkpt lat="36.50698652752552" lon="140.28698299635712"><ele>278</ele><time>2024-11-03T06:51:49Z</time></trkpt>
<trkpt lat="36.50696634587845" lon="140.28721524252273"><ele>276</ele><time>2024-11-03T06:53:13Z</time></trkpt>
<trkpt lat="36.50709571136766" lon="140.28729406739674"><ele>271</ele><time>2024-11-03T06:53:55Z</time></trkpt>
<trkpt lat="36.50725231662663" lon="140.28711294601385"><ele>269</ele><time>2024-11-03T06:54:18Z</time></trkpt>
<trkpt lat="36.50733310593896" lon="140.28724516900886"><ele>268</ele><time>2024-11-03T06:55:38Z</time></trkpt>
<trkpt lat="36.507395106819374" lon="140.28741407580958"><ele>265</ele><time>2024-11-03T06:56:17Z</time></trkpt>
<trkpt lat="36.507606406296105" lon="140.2874981671274"><ele>263</ele><time>2024-11-03T06:56:44Z</time></trkpt>
<trkpt lat="36.5078438741991" lon="140.28755580003903"><ele>257</ele><time>2024-11-03T06:57:10Z</time></trkpt>
<trkpt lat="36.50798665835356" lon="140.28755441049447"><ele>254</ele><time>2024-11-03T06:57:47Z</time></trkpt>
<trkpt lat="36.5081645759939" lon="140.2876539089466"><ele>251</ele><time>2024-11-03T06:58:16Z</time></trkpt>
<trkpt lat="36.508429615285436" lon="140.28757339371612"><ele>248</ele><time>2024-11-03T06:59:02Z</time></trkpt>
<trkpt lat="36.50865465758272" lon="140.28768862852348"><ele>244</ele><time>2024-11-03T06:59:37Z</time></trkpt>
<trkpt lat="36.50882300519954" lon="140.2875390602148"><ele>243</ele><time>2024-11-03T07:00:03Z</time></trkpt>
<trkpt lat="36.509080903480125" lon="140.28750684027563"><ele>239</ele><time>2024-11-03T07:00:38Z</time></trkpt>
<trkpt lat="36.50927125140096" lon="140.2875810905645"><ele>232</ele><time>2024-11-03T07:01:22Z</time></trkpt>
<trkpt lat="36.50942092550453" lon="140.28741341024417"><ele>226</ele><time>2024-11-03T07:02:22Z</time></trkpt>
<trkpt lat="36.50935686603653" lon="140.2873175398325"><ele>225</ele><time>2024-11-03T07:04:24Z</time></trkpt>
<trkpt lat="36.509239524182114" lon="140.28701344790477"><ele>228</ele><time>2024-11-03T07:05:01Z</time></trkpt>
<trkpt lat="36.50918959206096" lon="140.2866766446121"><ele>229</ele><time>2024-11-03T07:05:39Z</time></trkpt>
<trkpt lat="36.5091400611286" lon="140.28646238892551"><ele>233</ele><time>2024-11-03T07:06:10Z</time></trkpt>
<trkpt lat="36.50916547972431" lon="140.2861398030836"><ele>236</ele><time>2024-11-03T07:06:55Z</time></trkpt>
<trkpt lat="36.50915126243919" lon="140.28597051324604"><ele>238</ele><time>2024-11-03T07:07:23Z</time></trkpt>
<trkpt lat="36.50908101626837" lon="140.28565832601262"><ele>238</ele><time>2024-11-03T07:08:20Z</time></trkpt>
<trkpt lat="36.50907324372027" lon="140.28545161023388"><ele>241</ele><time>2024-11-03T07:09:02Z</time></trkpt>
<trkpt lat="36.50903420498676" lon="140.2851403432393"><ele>243</ele><time>2024-11-03T07:09:37Z</time></trkpt>
<trkpt lat="36.50900414306376" lon="140.2848258578162"><ele>245</ele><time>2024-11-03T07:10:15Z</time></trkpt>
<trkpt lat="36.50900024934224" lon="140.28454441226586"><ele>249</ele><time>2024-11-03T07:10:50Z</time></trkpt>
<trkpt lat="36.50894667943405" lon="140.28423372312528"><ele>248</ele><time>2024-11-03T07:11:24Z</time></trkpt>
<trkpt lat="36.508882117247964" lon="140.28391491633383"><ele>251</ele><time>2024-11-03T07:11:54Z</time></trkpt>
<trkpt lat="36.50871807763017" lon="140.2836585504065"><ele>255</ele><time>2024-11-03T07:12:22Z</time></trkpt>
<trkpt lat="36.50853531512016" lon="140.28345414834473"><ele>257</ele><time>2024-11-03T07:12:54Z</time></trkpt>
<trkpt lat="36.50827131837793" lon="140.2834024622461"><ele>265</ele><time>2024-11-03T07:13:26Z</time></trkpt>
<trkpt lat="36.50802654936715" lon="140.28341913687544"><ele>271</ele><time>2024-11-03T07:13:58Z</time></trkpt>
<trkpt lat="36.50778135138975" lon="140.28344881232564"><ele>277</ele><time>2024-11-03T07:14:28Z</time></trkpt>
<trkpt lat="36.50758001627581" lon="140.2834279352735"><ele>278</ele><time>2024-11-03T07:15:01Z</time></trkpt>
<trkpt lat="36.50776323731716" lon="140.2832526657159"><ele>274</ele><time>2024-11-03T07:15:36Z</time></trkpt>
<trkpt lat="36.50798292051987" lon="140.2831713292713"><ele>276</ele><time>2024-11-03T07:16:08Z</time></trkpt>
<trkpt lat="36.50809495822073" lon="140.2828673116691"><ele>279</ele><time>2024-11-03T07:16:39Z</time></trkpt>
<trkpt lat="36.50786892872945" lon="140.28281792034272"><ele>282</ele><time>2024-11-03T07:17:06Z</time></trkpt>
<trkpt lat="36.50767645935625" lon="140.2826173691294"><ele>282</ele><time>2024-11-03T07:18:01Z</time></trkpt>
<trkpt lat="36.50781653659775" lon="140.2821747727742"><ele>276</ele><time>2024-11-03T07:18:48Z</time></trkpt>
<trkpt lat="36.507786227727706" lon="140.28183299027074"><ele>274</ele><time>2024-11-03T07:19:17Z</time></trkpt>
<trkpt lat="36.50751605766006" lon="140.28175818058776"><ele>271</ele><time>2024-11-03T07:19:45Z</time></trkpt>
<trkpt lat="36.50730697394177" lon="140.28171331902595"><ele>267</ele><time>2024-11-03T07:20:13Z</time></trkpt>
<trkpt lat="36.50720468992206" lon="140.28154282674572"><ele>267</ele><time>2024-11-03T07:20:44Z</time></trkpt>
<trkpt lat="36.50705039972727" lon="140.28125437646884"><ele>266</ele><time>2024-11-03T07:21:11Z</time></trkpt>
<trkpt lat="36.50701581303127" lon="140.28092736007173"><ele>263</ele><time>2024-11-03T07:21:39Z</time></trkpt>
<trkpt lat="36.50683479389138" lon="140.28060408276875"><ele>261</ele><time>2024-11-03T07:22:06Z</time></trkpt>
<trkpt lat="36.50689464348955" lon="140.2803184227373"><ele>260</ele><time>2024-11-03T07:22:37Z</time></trkpt>
<trkpt lat="36.50693646423332" lon="140.2799786858833"><ele>253</ele><time>2024-11-03T07:23:09Z</time></trkpt>
<trkpt lat="36.50698713686261" lon="140.27974568099575"><ele>250</ele><time>2024-11-03T07:24:01Z</time></trkpt>
<trkpt lat="36.50693716634428" lon="140.27950182351344"><ele>245</ele><time>2024-11-03T07:24:40Z</time></trkpt>
<trkpt lat="36.506837389712814" lon="140.27932917675753"><ele>242</ele><time>2024-11-03T07:25:19Z</time></trkpt>
<trkpt lat="36.50675548345231" lon="140.2790321638775"><ele>239</ele><time>2024-11-03T07:26:05Z</time></trkpt>
<trkpt lat="36.506851217649384" lon="140.2786754328273"><ele>236</ele><time>2024-11-03T07:26:46Z</time></trkpt>
<trkpt lat="36.506885785180685" lon="140.27844307319359"><ele>234</ele><time>2024-11-03T07:27:18Z</time></trkpt>
<trkpt lat="36.507035044386775" lon="140.278105436846"><ele>232</ele><time>2024-11-03T07:27:42Z</time></trkpt>
<trkpt lat="36.50713633939798" lon="140.27767569917762"><ele>229</ele><time>2024-11-03T07:28:10Z</time></trkpt>
<trkpt lat="36.507203821575736" lon="140.27724751861527"><ele>228</ele><time>2024-11-03T07:28:33Z</time></trkpt>
<trkpt lat="36.507223043456705" lon="140.2769854465595"><ele>223</ele><time>2024-11-03T07:28:56Z</time></trkpt>
<trkpt lat="36.50714687606567" lon="140.27660664374616"><ele>221</ele><time>2024-11-03T07:29:24Z</time></trkpt>
<trkpt lat="36.506953648315154" lon="140.27659754491685"><ele>217</ele><time>2024-11-03T07:29:52Z</time></trkpt>
<trkpt lat="36.50704809812619" lon="140.27656282024523"><ele>219</ele><time>2024-11-03T07:36:40Z</time></trkpt>
<trkpt lat="36.50697290635969" lon="140.2766355496358"><ele>220</ele><time>2024-11-03T07:37:23Z</time></trkpt>
<trkpt lat="36.50700068480927" lon="140.27648640825626"><ele>213</ele><time>2024-11-03T07:41:29Z</time></trkpt>
</trkseg>
</trk>
</gpx>