<?xml version="1.0" encoding="UTF-8"?>
<gpx xmlns:xsi="http://www.w3.org/2001/XMLSchema-instance" xmlns="http://www.topografix.com/GPX/1/1" xsi:schemaLocation="http://www.topografix.com/GPX/1/1 http://www.topografix.com/GPX/1/1/gpx.xsd" creator="Yamareco iOS 6.77 - www.yamareco.com">
<trk><name>track</name><number>1</number><trkseg>
<trkpt lat="36.77322884894025" lon="137.82178675691662"><ele>1820</ele><time>2024-04-06T01:49:57Z</time></trkpt>
<trkpt lat="36.773294997865804" lon="137.82165517577067"><ele>1834</ele><time>2024-04-06T01:50:31Z</time></trkpt>
<trkpt lat="36.77359763198883" lon="137.8215454385214"><ele>1823</ele><time>2024-04-06T01:51:08Z</time></trkpt>
<trkpt lat="36.773469653014956" lon="137.82155622741004"><ele>1825</ele><time>2024-04-06T01:51:35Z</time></trkpt>
<trkpt lat="36.77355971602053" lon="137.82139360876826"><ele>1829</ele><time>2024-04-06T01:52:08Z</time></trkpt>
<trkpt lat="36.7738270231461" lon="137.8218780104449"><ele>1828</ele><time>2024-04-06T01:55:43Z</time></trkpt>
<trkpt lat="36.7736050903162" lon="137.82129642233593"><ele>1832</ele><time>2024-04-06T01:56:10Z</time></trkpt>
<trkpt lat="36.7736814164816" lon="137.8214717135023"><ele>1834</ele><time>2024-04-06T01:58:38Z</time></trkpt>
<trkpt lat="36.77380248075916" lon="137.82167346389"><ele>1832</ele><time>2024-04-06T02:02:30Z</time></trkpt>
<trkpt lat="36.77396234183201" lon="137.82206295245606"><ele>1831</ele><time>2024-04-06T02:03:05Z</time></trkpt>
<trkpt lat="36.77395343459265" lon="137.82230231153997"><ele>1833</ele><time>2024-04-06T02:03:33Z</time></trkpt>
<trkpt lat="36.774181633726805" lon="137.82218622743423"><ele>1834</ele><time>2024-04-06T02:04:03Z</time></trkpt>
<trkpt lat="36.77425252800935" lon="137.8224157565951"><ele>1837</ele><time>2024-04-06T02:04:34Z</time></trkpt>
<trkpt lat="36.77439450742534" lon="137.82265414747954"><ele>1838</ele><time>2024-04-06T02:05:05Z</time></trkpt>
<trkpt lat="36.774555356028685" lon="137.8227930644979"><ele>1843</ele><time>2024-04-06T02:05:38Z</time></trkpt>
<trkpt lat="36.77461395693402" lon="137.82253347078628"><ele>1850</ele><time>2024-04-06T02:06:13Z</time></trkpt>
<trkpt lat="36.7746864125115" lon="137.8223961939625"><ele>1853</ele><time>2024-04-06T02:06:47Z</time></trkpt>
<trkpt lat="36.774788896919105" lon="137.82219965386844"><ele>1858</ele><time>2024-04-06T02:07:34Z</time></trkpt>
<trkpt lat="36.77496096483088" lon="137.82210334045976"><ele>1859</ele><time>2024-04-06T02:08:17Z</time></trkpt>
<trkpt lat="36.77511457461517" lon="137.8220011048058"><ele>1864</ele><time>2024-04-06T02:08:45Z</time></trkpt>
<trkpt lat="36.77514486146183" lon="137.8218595926245"><ele>1870</ele><time>2024-04-06T02:09:24Z</time></trkpt>
<trkpt lat="36.7752408048428" lon="137.82165015812132"><ele>1873</ele><time>2024-04-06T02:09:55Z</time></trkpt>
<trkpt lat="36.77531857093487" lon="137.82137873255274"><ele>1878</ele><time>2024-04-06T02:11:03Z</time></trkpt>
<trkpt lat="36.77542838515555" lon="137.82112544119315"><ele>1881</ele><time>2024-04-06T02:11:35Z</time></trkpt>
<trkpt lat="36.775436638846735" lon="137.82084968668144"><ele>1887</ele><time>2024-04-06T02:12:13Z</time></trkpt>
<trkpt lat="36.77544870491398" lon="137.82061611869705"><ele>1895</ele><time>2024-04-06T02:12:52Z</time></trkpt>
<trkpt lat="36.77550849914807" lon="137.820406706227"><ele>1899</ele><time>2024-04-06T02:13:22Z</time></trkpt>
<trkpt lat="36.775610059896" lon="137.82016873125343"><ele>1905</ele><time>2024-04-06T02:14:06Z</time></trkpt>
<trkpt lat="36.77560636228512" lon="137.8199218456842"><ele>1908</ele><time>2024-04-06T02:14:40Z</time></trkpt>
<trkpt lat="36.77568989913375" lon="137.81975119652006"><ele>1912</ele><time>2024-04-06T02:15:16Z</time></trkpt>
<trkpt lat="36.775830399127486" lon="137.81953343423186"><ele>1914</ele><time>2024-04-06T02:15:49Z</time></trkpt>
<trkpt lat="36.77590935565361" lon="137.81933498684282"><ele>1921</ele><time>2024-04-06T02:16:20Z</time></trkpt>
<trkpt lat="36.77607750571655" lon="137.81919039258824"><ele>1925</ele><time>2024-04-06T02:17:02Z</time></trkpt>
<trkpt lat="36.7761518351776" lon="137.81898518168586"><ele>1931</ele><time>2024-04-06T02:17:38Z</time></trkpt>
<trkpt lat="36.77627121698953" lon="137.81881121181377"><ele>1933</ele><time>2024-04-06T02:18:19Z</time></trkpt>
<trkpt lat="36.776399784182274" lon="137.81859385886156"><ele>1939</ele><time>2024-04-06T02:18:56Z</time></trkpt>
<trkpt lat="36.776561400491694" lon="137.818390370132"><ele>1945</ele><time>2024-04-06T02:19:30Z</time></trkpt>
<trkpt lat="36.776725355747374" lon="137.8181871480987"><ele>1950</ele><time>2024-04-06T02:20:01Z</time></trkpt>
<trkpt lat="36.77688433958569" lon="137.81805913299348"><ele>1955</ele><time>2024-04-06T02:20:37Z</time></trkpt>
<trkpt lat="36.77697213377078" lon="137.81803400098903"><ele>1959</ele><time>2024-04-06T02:22:42Z</time></trkpt>
<trkpt lat="36.777143251197664" lon="137.8179195098741"><ele>1963</ele><time>2024-04-06T02:26:15Z</time></trkpt>
<trkpt lat="36.77729430290174" lon="137.81782522118664"><ele>1969</ele><time>2024-04-06T02:26:53Z</time></trkpt>
<trkpt lat="36.777339316187145" lon="137.81768427731902"><ele>1976</ele><time>2024-04-06T02:27:40Z</time></trkpt>
<trkpt lat="36.77732598975082" lon="137.8174459224543"><ele>1982</ele><time>2024-04-06T02:28:12Z</time></trkpt>
<trkpt lat="36.7774621342207" lon="137.8174118395848"><ele>1986</ele><time>2024-04-06T02:29:14Z</time></trkpt>
<trkpt lat="36.7774882766788" lon="137.8171843020521"><ele>1999</ele><time>2024-04-06T02:30:15Z</time></trkpt>
<trkpt lat="36.77748300033233" lon="137.81693538703828"><ele>2002</ele><time>2024-04-06T02:31:08Z</time></trkpt>
<trkpt lat="36.777496233240605" lon="137.81671317201435"><ele>2009</ele><time>2024-04-06T02:31:47Z</time></trkpt>
<trkpt lat="36.77760407424502" lon="137.81660974965314"><ele>2009</ele><time>2024-04-06T02:32:33Z</time></trkpt>
<trkpt lat="36.77775377224993" lon="137.81652108272496"><ele>2016</ele><time>2024-04-06T02:33:59Z</time></trkpt>
<trkpt lat="36.77791277479399" lon="137.81664320285486"><ele>2023</ele><time>2024-04-06T02:35:46Z</time></trkpt>
<trkpt lat="36.77809631308176" lon="137.8167093675924"><ele>2029</ele><time>2024-04-06T02:36:23Z</time></trkpt>
<trkpt lat="36.77816243957721" lon="137.81651637998831"><ele>2040</ele><time>2024-04-06T02:37:26Z</time></trkpt>
<trkpt lat="36.77832360588577" lon="137.81662125376482"><ele>2040</ele><time>2024-04-06T02:38:04Z</time></trkpt>
<trkpt lat="36.7783333802061" lon="137.8164173424467"><ele>2054</ele><time>2024-04-06T02:40:24Z</time></trkpt>
<trkpt lat="36.778382190239604" lon="137.81631608934833"><ele>2051</ele><time>2024-04-06T02:41:12Z</time></trkpt>
<trkpt lat="36.77852280360842" lon="137.81635409571612"><ele>2058</ele><time>2024-04-06T02:42:04Z</time></trkpt>
<trkpt lat="36.77851482784454" lon="137.8161829248253"><ele>2067</ele><time>2024-04-06T02:42:39Z</time></trkpt>
<trkpt lat="36.77862665702942" lon="137.81611348733537"><ele>2067</ele><time>2024-04-06T02:44:27Z</time></trkpt>
<trkpt lat="36.77878760443239" lon="137.81619265546385"><ele>2072</ele><time>2024-04-06T02:45:06Z</time></trkpt>
<trkpt lat="36.77895177192705" lon="137.816131110949"><ele>2081</ele><time>2024-04-06T02:45:48Z</time></trkpt>
<trkpt lat="36.77895740394911" lon="137.81592710559258"><ele>2090</ele><time>2024-04-06T02:46:22Z</time></trkpt>
<trkpt lat="36.77897535989067" lon="137.8156827409737"><ele>2096</ele><time>2024-04-06T02:47:04Z</time></trkpt>
<trkpt lat="36.779012253730635" lon="137.81544927852488"><ele>2102</ele><time>2024-04-06T02:47:48Z</time></trkpt>
<trkpt lat="36.7790900758482" lon="137.8152399833248"><ele>2108</ele><time>2024-04-06T02:48:28Z</time></trkpt>
<trkpt lat="36.779167161063455" lon="137.81506497503852"><ele>2111</ele><time>2024-04-06T02:49:05Z</time></trkpt>
<trkpt lat="36.77922711850468" lon="137.8148752805155"><ele>2117</ele><time>2024-04-06T02:49:45Z</time></trkpt>
<trkpt lat="36.779329122530676" lon="137.81468475164752"><ele>2119</ele><time>2024-04-06T02:50:23Z</time></trkpt>
<trkpt lat="36.77945138110946" lon="137.81450202667511"><ele>2123</ele><time>2024-04-06T02:51:04Z</time></trkpt>
<trkpt lat="36.779515597772935" lon="137.81431022064038"><ele>2128</ele><time>2024-04-06T02:51:41Z</time></trkpt>
<trkpt lat="36.77961012257795" lon="137.81411515982964"><ele>2135</ele><time>2024-04-06T02:52:15Z</time></trkpt>
<trkpt lat="36.77971062608472" lon="137.81392633089203"><ele>2141</ele><time>2024-04-06T02:52:55Z</time></trkpt>
<trkpt lat="36.77982174575612" lon="137.81372515610508"><ele>2146</ele><time>2024-04-06T02:53:32Z</time></trkpt>
<trkpt lat="36.77994632375332" lon="137.81352205654971"><ele>2152</ele><time>2024-04-06T02:54:18Z</time></trkpt>
<trkpt lat="36.780091535649085" lon="137.81333928629778"><ele>2157</ele><time>2024-04-06T02:55:02Z</time></trkpt>
<trkpt lat="36.78019402895378" lon="137.8131559422088"><ele>2161</ele><time>2024-04-06T02:55:37Z</time></trkpt>
<trkpt lat="36.78028117338822" lon="137.8129778684367"><ele>2165</ele><time>2024-04-06T02:56:15Z</time></trkpt>
<trkpt lat="36.78036049380286" lon="137.81276071029112"><ele>2172</ele><time>2024-04-06T02:56:53Z</time></trkpt>
<trkpt lat="36.780437504334486" lon="137.81254952640083"><ele>2178</ele><time>2024-04-06T02:57:29Z</time></trkpt>
<trkpt lat="36.78048975844989" lon="137.81233336166036"><ele>2181</ele><time>2024-04-06T02:58:08Z</time></trkpt>
<trkpt lat="36.7806135227934" lon="137.812109458519"><ele>2185</ele><time>2024-04-06T02:58:50Z</time></trkpt>
<trkpt lat="36.780726957739525" lon="137.81204606362314"><ele>2186</ele><time>2024-04-06T02:59:45Z</time></trkpt>
<trkpt lat="36.78090808553956" lon="137.81183660212213"><ele>2188</ele><time>2024-04-06T03:10:20Z</time></trkpt>
<trkpt lat="36.78112829167828" lon="137.81169170405846"><ele>2192</ele><time>2024-04-06T03:10:51Z</time></trkpt>
<trkpt lat="36.7813424038963" lon="137.81155195592527"><ele>2193</ele><time>2024-04-06T03:11:20Z</time></trkpt>
<trkpt lat="36.78153893636648" lon="137.8113632928681"><ele>2198</ele><time>2024-04-06T03:11:50Z</time></trkpt>
<trkpt lat="36.78172872076551" lon="137.81119708156564"><ele>2199</ele><time>2024-04-06T03:12:21Z</time></trkpt>
<trkpt lat="36.78191032627687" lon="137.81102562156207"><ele>2201</ele><time>2024-04-06T03:12:51Z</time></trkpt>
<trkpt lat="36.78207049089933" lon="137.81077148102537"><ele>2205</ele><time>2024-04-06T03:13:21Z</time></trkpt>
<trkpt lat="36.78217403714626" lon="137.81049891416356"><ele>2208</ele><time>2024-04-06T03:13:52Z</time></trkpt>
<trkpt lat="36.782256953972436" lon="137.8101878936541"><ele>2214</ele><time>2024-04-06T03:14:26Z</time></trkpt>
<trkpt lat="36.78233129884018" lon="137.80996236305555"><ele>2219</ele><time>2024-04-06T03:15:07Z</time></trkpt>
<trkpt lat="36.78239671638501" lon="137.80972523110168"><ele>2223</ele><time>2024-04-06T03:15:38Z</time></trkpt>
<trkpt lat="36.78247655046225" lon="137.80949376668303"><ele>2228</ele><time>2024-04-06T03:16:16Z</time></trkpt>
<trkpt lat="36.78255050283064" lon="137.80927854420005"><ele>2236</ele><time>2024-04-06T03:16:52Z</time></trkpt>
<trkpt lat="36.78257193985568" lon="137.80907561749245"><ele>2245</ele><time>2024-04-06T03:17:34Z</time></trkpt>
<trkpt lat="36.78245456133514" lon="137.80889613506693"><ele>2253</ele><time>2024-04-06T03:18:11Z</time></trkpt>
<trkpt lat="36.78236475189278" lon="137.80872711011762"><ele>2260</ele><time>2024-04-06T03:18:48Z</time></trkpt>
<trkpt lat="36.782497276062315" lon="137.80856584605087"><ele>2266</ele><time>2024-04-06T03:19:30Z</time></trkpt>
<trkpt lat="36.782616385417505" lon="137.80839712662245"><ele>2270</ele><time>2024-04-06T03:20:10Z</time></trkpt>
<trkpt lat="36.78272086126697" lon="137.8082087996088"><ele>2279</ele><time>2024-04-06T03:20:49Z</time></trkpt>
<trkpt lat="36.7828297058423" lon="137.8080456207751"><ele>2282</ele><time>2024-04-06T03:21:27Z</time></trkpt>
<trkpt lat="36.78285930491289" lon="137.8078836978999"><ele>2291</ele><time>2024-04-06T03:22:11Z</time></trkpt>
<trkpt lat="36.78271918725304" lon="137.80777387365447"><ele>2298</ele><time>2024-04-06T03:22:56Z</time></trkpt>
<trkpt lat="36.78277178984206" lon="137.80754495027116"><ele>2307</ele><time>2024-04-06T03:24:03Z</time></trkpt>
<trkpt lat="36.7828736901738" lon="137.80738726240898"><ele>2310</ele><time>2024-04-06T03:24:40Z</time></trkpt>
<trkpt lat="36.782970531519965" lon="137.80723697574157"><ele>2316</ele><time>2024-04-06T03:25:21Z</time></trkpt>
<trkpt lat="36.78305198091047" lon="137.80710250179158"><ele>2324</ele><time>2024-04-06T03:26:23Z</time></trkpt>
<trkpt lat="36.78294432831117" lon="137.80698782439637"><ele>2337</ele><time>2024-04-06T03:27:53Z</time></trkpt>
<trkpt lat="36.78304133370341" lon="137.80680330147942"><ele>2337</ele><time>2024-04-06T03:28:48Z</time></trkpt>
<trkpt lat="36.78313872367407" lon="137.8066295786532"><ele>2345</ele><time>2024-04-06T03:29:34Z</time></trkpt>
<trkpt lat="36.78322819126452" lon="137.80647654194135"><ele>2348</ele><time>2024-04-06T03:30:15Z</time></trkpt>
<trkpt lat="36.7830972137934" lon="137.80645953681483"><ele>2358</ele><time>2024-04-06T03:31:16Z</time></trkpt>
<trkpt lat="36.782974191996516" lon="137.8064397808156"><ele>2365</ele><time>2024-04-06T03:32:56Z</time></trkpt>
<trkpt lat="36.78304128910299" lon="137.80626948313108"><ele>2363</ele><time>2024-04-06T03:34:14Z</time></trkpt>
<trkpt lat="36.78310298822028" lon="137.80608612493515"><ele>2371</ele><time>2024-04-06T03:35:16Z</time></trkpt>
<trkpt lat="36.78301144289309" lon="137.8059610373589"><ele>2377</ele><time>2024-04-06T03:37:12Z</time></trkpt>
<trkpt lat="36.78286990738577" lon="137.80586461521267"><ele>2384</ele><time>2024-04-06T03:38:03Z</time></trkpt>
<trkpt lat="36.78267603421407" lon="137.80574601737283"><ele>2392</ele><time>2024-04-06T03:38:43Z</time></trkpt>
<trkpt lat="36.78256973880254" lon="137.8055547814298"><ele>2398</ele><time>2024-04-06T03:39:23Z</time></trkpt>
<trkpt lat="36.78269292847175" lon="137.80536182696346"><ele>2402</ele><time>2024-04-06T03:39:58Z</time></trkpt>
<trkpt lat="36.78283421246206" lon="137.80522616885233"><ele>2407</ele><time>2024-04-06T03:40:55Z</time></trkpt>
<trkpt lat="36.782993686143406" lon="137.80511944172667"><ele>2413</ele><time>2024-04-06T03:41:42Z</time></trkpt>
<trkpt lat="36.78312928688822" lon="137.80497870478507"><ele>2422</ele><time>2024-04-06T03:42:25Z</time></trkpt>
<trkpt lat="36.78323101046116" lon="137.80490444973745"><ele>2423</ele><time>2024-04-06T03:44:21Z</time></trkpt>
<trkpt lat="36.78336319027313" lon="137.804758855795"><ele>2430</ele><time>2024-04-06T03:45:04Z</time></trkpt>
<trkpt lat="36.78335473086025" lon="137.8046280138182"><ele>2435</ele><time>2024-04-06T03:45:40Z</time></trkpt>
<trkpt lat="36.78342512764033" lon="137.8045268649279"><ele>2443</ele><time>2024-04-06T03:47:17Z</time></trkpt>
<trkpt lat="36.78334382317698" lon="137.80422857972252"><ele>2443</ele><time>2024-04-06T04:06:11Z</time></trkpt>
<trkpt lat="36.783300867345346" lon="137.80402287684774"><ele>2446</ele><time>2024-04-06T04:06:47Z</time></trkpt>
<trkpt lat="36.78320608512218" lon="137.8038298575705"><ele>2450</ele><time>2024-04-06T04:07:20Z</time></trkpt>
<trkpt lat="36.78304857944769" lon="137.80366633995266"><ele>2453</ele><time>2024-04-06T04:07:57Z</time></trkpt>
<trkpt lat="36.78295448937727" lon="137.8034142688693"><ele>2453</ele><time>2024-04-06T04:08:31Z</time></trkpt>
<trkpt lat="36.78288868796719" lon="137.80314445352784"><ele>2452</ele><time>2024-04-06T04:09:06Z</time></trkpt>
<trkpt lat="36.78279658770469" lon="137.8029859196525"><ele>2451</ele><time>2024-04-06T04:10:02Z</time></trkpt>
<trkpt lat="36.782774610156736" lon="137.80272583493704"><ele>2452</ele><time>2024-04-06T04:11:35Z</time></trkpt>
<trkpt lat="36.78269920839019" lon="137.8024137962149"><ele>2453</ele><time>2024-04-06T04:12:04Z</time></trkpt>
<trkpt lat="36.78269434253479" lon="137.8021174321732"><ele>2453</ele><time>2024-04-06T04:12:32Z</time></trkpt>
<trkpt lat="36.78263556431599" lon="137.8017631005285"><ele>2454</ele><time>2024-04-06T04:13:04Z</time></trkpt>
<trkpt lat="36.782501126502495" lon="137.80158122831975"><ele>2456</ele><time>2024-04-06T04:13:38Z</time></trkpt>
<trkpt lat="36.782347062706876" lon="137.80132340940568"><ele>2458</ele><time>2024-04-06T04:14:10Z</time></trkpt>
<trkpt lat="36.78212628062995" lon="137.8011087213436"><ele>2459</ele><time>2024-04-06T04:14:40Z</time></trkpt>
<trkpt lat="36.78192740205487" lon="137.80083048706237"><ele>2459</ele><time>2024-04-06T04:15:09Z</time></trkpt>
<trkpt lat="36.781769354748064" lon="137.80052751994472"><ele>2457</ele><time>2024-04-06T04:15:36Z</time></trkpt>
<trkpt lat="36.78160602839221" lon="137.8002167514011"><ele>2455</ele><time>2024-04-06T04:16:03Z</time></trkpt>
<trkpt lat="36.78143140609958" lon="137.79990711685346"><ele>2453</ele><time>2024-04-06T04:16:31Z</time></trkpt>
<trkpt lat="36.78124888192166" lon="137.79961937419006"><ele>2455</ele><time>2024-04-06T04:17:01Z</time></trkpt>
<trkpt lat="36.78110186678659" lon="137.79932526164455"><ele>2452</ele><time>2024-04-06T04:17:29Z</time></trkpt>
<trkpt lat="36.78105551469784" lon="137.79909796591227"><ele>2446</ele><time>2024-04-06T04:18:01Z</time></trkpt>
<trkpt lat="36.78094764637809" lon="137.79888637103352"><ele>2447</ele><time>2024-04-06T04:18:47Z</time></trkpt>
<trkpt lat="36.78086178305929" lon="137.79868347613447"><ele>2442</ele><time>2024-04-06T04:19:21Z</time></trkpt>
<trkpt lat="36.78081949402385" lon="137.79855825672416"><ele>2435</ele><time>2024-04-06T04:26:25Z</time></trkpt>
<trkpt lat="36.780745370485796" lon="137.79837245712767"><ele>2433</ele><time>2024-04-06T04:27:00Z</time></trkpt>
<trkpt lat="36.78066184549203" lon="137.79818848055217"><ele>2427</ele><time>2024-04-06T04:27:51Z</time></trkpt>
<trkpt lat="36.7806970280755" lon="137.79795832631402"><ele>2421</ele><time>2024-04-06T04:28:35Z</time></trkpt>
<trkpt lat="36.780735666577776" lon="137.797708346158"><ele>2420</ele><time>2024-04-06T04:29:09Z</time></trkpt>
<trkpt lat="36.7806768500257" lon="137.79745723632487"><ele>2415</ele><time>2024-04-06T04:29:53Z</time></trkpt>
<trkpt lat="36.780574750616175" lon="137.79733026873853"><ele>2411</ele><time>2024-04-06T04:30:28Z</time></trkpt>
<trkpt lat="36.78048485847476" lon="137.79737240990124"><ele>2418</ele><time>2024-04-06T04:46:28Z</time></trkpt>
<trkpt lat="36.78036329954313" lon="137.79674279052372"><ele>2404</ele><time>2024-04-06T04:52:41Z</time></trkpt>
<trkpt lat="36.78025898943656" lon="137.79641763636886"><ele>2406</ele><time>2024-04-06T04:53:08Z</time></trkpt>
<trkpt lat="36.780198338789795" lon="137.79613533645482"><ele>2408</ele><time>2024-04-06T04:53:37Z</time></trkpt>
<trkpt lat="36.78012470502746" lon="137.79590000773774"><ele>2411</ele><time>2024-04-06T04:54:13Z</time></trkpt>
<trkpt lat="36.779930309202044" lon="137.795801551522"><ele>2418</ele><time>2024-04-06T04:54:48Z</time></trkpt>
<trkpt lat="36.77972188138764" lon="137.79568781326503"><ele>2428</ele><time>2024-04-06T04:55:28Z</time></trkpt>
<trkpt lat="36.77954106649501" lon="137.79556158733777"><ele>2432</ele><time>2024-04-06T04:56:03Z</time></trkpt>
<trkpt lat="36.77957027959251" lon="137.79535730547656"><ele>2428</ele><time>2024-04-06T04:56:51Z</time></trkpt>
<trkpt lat="36.77966617460547" lon="137.79516683034603"><ele>2432</ele><time>2024-04-06T04:57:29Z</time></trkpt>
<trkpt lat="36.77956655598929" lon="137.7950307126582"><ele>2450</ele><time>2024-04-06T04:58:18Z</time></trkpt>
<trkpt lat="36.77938900293869" lon="137.79489658507154"><ele>2457</ele><time>2024-04-06T04:58:55Z</time></trkpt>
<trkpt lat="36.77950095451365" lon="137.79472071488203"><ele>2451</ele><time>2024-04-06T05:00:03Z</time></trkpt>
<trkpt lat="36.77963360821735" lon="137.7945549687092"><ele>2456</ele><time>2024-04-06T05:00:43Z</time></trkpt>
<trkpt lat="36.779723756356944" lon="137.7943310794231"><ele>2463</ele><time>2024-04-06T05:01:22Z</time></trkpt>
<trkpt lat="36.77975612277007" lon="137.79415669784734"><ele>2473</ele><time>2024-04-06T05:02:07Z</time></trkpt>
<trkpt lat="36.77956220104654" lon="137.79418897710786"><ele>2487</ele><time>2024-04-06T05:02:50Z</time></trkpt>
<trkpt lat="36.77936962217989" lon="137.79414032864267"><ele>2493</ele><time>2024-04-06T05:03:30Z</time></trkpt>
<trkpt lat="36.77949790481063" lon="137.7939699772002"><ele>2485</ele><time>2024-04-06T05:04:11Z</time></trkpt>
<trkpt lat="36.7795760512145" lon="137.79376117862046"><ele>2491</ele><time>2024-04-06T05:04:54Z</time></trkpt>
<trkpt lat="36.77961201830338" lon="137.79355737389008"><ele>2497</ele><time>2024-04-06T05:05:33Z</time></trkpt>
<trkpt lat="36.77963879464336" lon="137.79335019094364"><ele>2502</ele><time>2024-04-06T05:06:15Z</time></trkpt>
<trkpt lat="36.7796731148619" lon="137.79313075342884"><ele>2505</ele><time>2024-04-06T05:07:08Z</time></trkpt>
<trkpt lat="36.77953584362463" lon="137.79315974840802"><ele>2523</ele><time>2024-04-06T05:08:24Z</time></trkpt>
<trkpt lat="36.7794033224839" lon="137.793220806334"><ele>2530</ele><time>2024-04-06T05:09:03Z</time></trkpt>
<trkpt lat="36.77931493673709" lon="137.7931688165387"><ele>2534</ele><time>2024-04-06T05:09:41Z</time></trkpt>
<trkpt lat="36.7793663394964" lon="137.79294516513642"><ele>2532</ele><time>2024-04-06T05:10:15Z</time></trkpt>
<trkpt lat="36.77916997166284" lon="137.79290338678126"><ele>2545</ele><time>2024-04-06T05:11:44Z</time></trkpt>
<trkpt lat="36.779222806293134" lon="137.79269523244363"><ele>2543</ele><time>2024-04-06T05:12:27Z</time></trkpt>
<trkpt lat="36.779206531323524" lon="137.79258104188204"><ele>2541</ele><time>2024-04-06T05:13:48Z</time></trkpt>
<trkpt lat="36.77910777279166" lon="137.79253555300153"><ele>2551</ele><time>2024-04-06T05:14:27Z</time></trkpt>
<trkpt lat="36.779015394744796" lon="137.79231567458382"><ele>2563</ele><time>2024-04-06T05:15:17Z</time></trkpt>
<trkpt lat="36.77893821376339" lon="137.79218456634865"><ele>2569</ele><time>2024-04-06T05:16:02Z</time></trkpt>
<trkpt lat="36.778852322512655" lon="137.79202939636068"><ele>2575</ele><time>2024-04-06T05:17:04Z</time></trkpt>
<trkpt lat="36.778750582903356" lon="137.79181106491296"><ele>2581</ele><time>2024-04-06T05:17:36Z</time></trkpt>
<trkpt lat="36.77869231398508" lon="137.7917095959956"><ele>2581</ele><time>2024-04-06T05:18:33Z</time></trkpt>
<trkpt lat="36.77858504056404" lon="137.79148220037916"><ele>2587</ele><time>2024-04-06T05:19:48Z</time></trkpt>
<trkpt lat="36.77850565228066" lon="137.79135201955668"><ele>2592</ele><time>2024-04-06T05:20:20Z</time></trkpt>
<trkpt lat="36.77843763504917" lon="137.7912185443139"><ele>2595</ele><time>2024-04-06T05:21:11Z</time></trkpt>
<trkpt lat="36.778357159456625" lon="137.7910335955587"><ele>2596</ele><time>2024-04-06T05:22:16Z</time></trkpt>
<trkpt lat="36.77823694532664" lon="137.79078792846352"><ele>2602</ele><time>2024-04-06T05:22:51Z</time></trkpt>
<trkpt lat="36.77810677427211" lon="137.79058129959026"><ele>2605</ele><time>2024-04-06T05:23:29Z</time></trkpt>
<trkpt lat="36.77802300180382" lon="137.7904677915277"><ele>2611</ele><time>2024-04-06T05:24:18Z</time></trkpt>
<trkpt lat="36.7780326968988" lon="137.79033304282402"><ele>2607</ele><time>2024-04-06T05:25:28Z</time></trkpt>
<trkpt lat="36.778059407070984" lon="137.79012994476895"><ele>2602</ele><time>2024-04-06T05:26:09Z</time></trkpt>
<trkpt lat="36.77797004062567" lon="137.79022369046132"><ele>2609</ele><time>2024-04-06T05:29:56Z</time></trkpt>
<trkpt lat="36.77789058082771" lon="137.79037508957663"><ele>2610</ele><time>2024-04-06T06:07:10Z</time></trkpt>
<trkpt lat="36.777809554227126" lon="137.7905584316965"><ele>2605</ele><time>2024-04-06T06:07:44Z</time></trkpt>
<trkpt lat="36.77776883821718" lon="137.79038090775265"><ele>2593</ele><time>2024-04-06T06:08:06Z</time></trkpt>
<trkpt lat="36.77730486217856" lon="137.79025492633414"><ele>2555</ele><time>2024-04-06T06:09:01Z</time></trkpt>
<trkpt lat="36.77644822569672" lon="137.7905076697632"><ele>2496</ele><time>2024-04-06T06:10:29Z</time></trkpt>
<trkpt lat="36.77623049906633" lon="137.79078936735525"><ele>2485</ele><time>2024-04-06T06:10:53Z</time></trkpt>
<trkpt lat="36.7756195419527" lon="137.79170670225045"><ele>2448</ele><time>2024-04-06T06:11:25Z</time></trkpt>
<trkpt lat="36.77460646963845" lon="137.79164931135074"><ele>2395</ele><time>2024-04-06T06:12:59Z</time></trkpt>
<trkpt lat="36.774788678881045" lon="137.79293531859082"><ele>2357</ele><time>2024-04-06T06:13:20Z</time></trkpt>
<trkpt lat="36.77460885114454" lon="137.79422648784478"><ele>2323</ele><time>2024-04-06T06:13:42Z</time></trkpt>
<trkpt lat="36.773859217031934" lon="137.79455905718856"><ele>2296</ele><time>2024-04-06T06:14:45Z</time></trkpt>
<trkpt lat="36.773787425582185" lon="137.79498382525674"><ele>2274</ele><time>2024-04-06T06:15:07Z</time></trkpt>
<trkpt lat="36.774204714225675" lon="137.79610321115078"><ele>2229</ele><time>2024-04-06T06:15:30Z</time></trkpt>
<trkpt lat="36.774077636584906" lon="137.79647018750094"><ele>2205</ele><time>2024-04-06T06:16:18Z</time></trkpt>
<trkpt lat="36.77357583321838" lon="137.79680607578462"><ele>2196</ele><time>2024-04-06T06:16:39Z</time></trkpt>
<trkpt lat="36.773658635327465" lon="137.79714001131532"><ele>2185</ele><time>2024-04-06T06:17:10Z</time></trkpt>
<trkpt lat="36.773446610907456" lon="137.7978089979751"><ele>2151</ele><time>2024-04-06T06:17:45Z</time></trkpt>
<trkpt lat="36.77357556279981" lon="137.79798662590758"><ele>2132</ele><time>2024-04-06T06:19:03Z</time></trkpt>
<trkpt lat="36.77300091085699" lon="137.7989809806392"><ele>2101</ele><time>2024-04-06T06:19:55Z</time></trkpt>
<trkpt lat="36.772900995027726" lon="137.79906281989614"><ele>2102</ele><time>2024-04-06T06:20:21Z</time></trkpt>
<trkpt lat="36.773267686686104" lon="137.7992615385872"><ele>2081</ele><time>2024-04-06T06:20:41Z</time></trkpt>
<trkpt lat="36.773382280919236" lon="137.8009378861843"><ele>2029</ele><time>2024-04-06T06:21:03Z</time></trkpt>
<trkpt lat="36.77228285586804" lon="137.80295785845144"><ele>1972</ele><time>2024-04-06T06:22:23Z</time></trkpt>
<trkpt lat="36.77181381056175" lon="137.8046710298369"><ele>1932</ele><time>2024-04-06T06:23:34Z</time></trkpt>
<trkpt lat="36.77185644462807" lon="137.80494366805314"><ele>1927</ele><time>2024-04-06T06:23:55Z</time></trkpt>
<trkpt lat="36.772138563140885" lon="137.8059356156902"><ele>1913</ele><time>2024-04-06T06:27:42Z</time></trkpt>
<trkpt lat="36.77220552906719" lon="137.8066607507262"><ele>1911</ele><time>2024-04-06T06:28:06Z</time></trkpt>
<trkpt lat="36.772336147505875" lon="137.80724101861134"><ele>1906</ele><time>2024-04-06T06:29:02Z</time></trkpt>
<trkpt lat="36.77252638045852" lon="137.80833491504424"><ele>1887</ele><time>2024-04-06T06:29:26Z</time></trkpt>
<trkpt lat="36.772451137602346" lon="137.8090859237217"><ele>1875</ele><time>2024-04-06T06:29:47Z</time></trkpt>
<trkpt lat="36.77218498808127" lon="137.81026695747718"><ele>1864</ele><time>2024-04-06T06:30:08Z</time></trkpt>
<trkpt lat="36.77214255943504" lon="137.81060972548994"><ele>1866</ele><time>2024-04-06T06:32:11Z</time></trkpt>
<trkpt lat="36.7721595703408" lon="137.81073475322648"><ele>1863</ele><time>2024-04-06T06:33:05Z</time></trkpt>
<trkpt lat="36.77214586322637" lon="137.8112063805978"><ele>1864</ele><time>2024-04-06T06:33:33Z</time></trkpt>
<trkpt lat="36.7721572788117" lon="137.81163284282664"><ele>1865</ele><time>2024-04-06T06:33:57Z</time></trkpt>
<trkpt lat="36.772176697843406" lon="137.81188749162726"><ele>1866</ele><time>2024-04-06T06:34:26Z</time></trkpt>
<trkpt lat="36.772253071531345" lon="137.81215599088486"><ele>1862</ele><time>2024-04-06T06:35:15Z</time></trkpt>
<trkpt lat="36.77234816310286" lon="137.81247455309207"><ele>1865</ele><time>2024-04-06T06:35:49Z</time></trkpt>
<trkpt lat="36.772469031994646" lon="137.81282282989872"><ele>1864</ele><time>2024-04-06T06:36:19Z</time></trkpt>
<trkpt lat="36.77259050317114" lon="137.81318336891889"><ele>1867</ele><time>2024-04-06T06:36:48Z</time></trkpt>
<trkpt lat="36.77271317617356" lon="137.81350094589598"><ele>1868</ele><time>2024-04-06T06:37:17Z</time></trkpt>
<trkpt lat="36.772838786361675" lon="137.81379027121807"><ele>1868</ele><time>2024-04-06T06:37:45Z</time></trkpt>
<trkpt lat="36.772978626091884" lon="137.81412341997265"><ele>1868</ele><time>2024-04-06T06:38:13Z</time></trkpt>
<trkpt lat="36.77308222855824" lon="137.81451671770373"><ele>1869</ele><time>2024-04-06T06:38:38Z</time></trkpt>
<trkpt lat="36.773209101439164" lon="137.81482792982877"><ele>1870</ele><time>2024-04-06T06:39:03Z</time></trkpt>
<trkpt lat="36.773270812233406" lon="137.81503799115978"><ele>1870</ele><time>2024-04-06T06:39:38Z</time></trkpt>
<trkpt lat="36.773454798761996" lon="137.81573586849248"><ele>1862</ele><time>2024-04-06T06:41:28Z</time></trkpt>
<trkpt lat="36.77363600676161" lon="137.81648622072737"><ele>1860</ele><time>2024-04-06T06:41:50Z</time></trkpt>
<trkpt lat="36.77381935970792" lon="137.81707113028713"><ele>1858</ele><time>2024-04-06T06:42:14Z</time></trkpt>
<trkpt lat="36.77395829264941" lon="137.8173883917922"><ele>1854</ele><time>2024-04-06T06:42:38Z</time></trkpt>
<trkpt lat="36.774157122882976" lon="137.81771898211412"><ele>1852</ele><time>2024-04-06T06:43:05Z</time></trkpt>
<trkpt lat="36.77426119466777" lon="137.81813642801615"><ele>1852</ele><time>2024-04-06T06:43:38Z</time></trkpt>
<trkpt lat="36.77430880892833" lon="137.81835498620907"><ele>1854</ele><time>2024-04-06T06:44:23Z</time></trkpt>
<trkpt lat="36.77422594913582" lon="137.8185395633578"><ele>1864</ele><time>2024-04-06T06:44:59Z</time></trkpt>
<trkpt lat="36.77403972500204" lon="137.81918657938093"><ele>1863</ele><time>2024-04-06T06:45:41Z</time></trkpt>
<trkpt lat="36.77387210773767" lon="137.82007701659418"><ele>1857</ele><time>2024-04-06T06:47:58Z</time></trkpt>
<trkpt lat="36.773817596101175" lon="137.82106600337923"><ele>1848</ele><time>2024-04-06T06:48:21Z</time></trkpt>
<trkpt lat="36.77375685299801" lon="137.82117525879826"><ele>1844</ele><time>2024-04-06T06:48:51Z</time></trkpt>
<trkpt lat="36.77391701206782" lon="137.82160771033494"><ele>1831</ele><time>2024-04-06T06:49:57Z</time></trkpt>
<trkpt lat="36.773674360339136" lon="137.8221106300942"><ele>1829</ele><time>2024-04-06T06:50:29Z</time></trkpt>
<trkpt lat="36.773137409486395" lon="137.8221005152503"><ele>1818</ele><time>2024-04-06T06:56:57Z</time></trkpt>
<trkpt lat="36.77246546960614" lon="137.82315609941375"><ele>1799</ele><time>2024-04-06T06:57:25Z</time></trkpt>
<trkpt lat="36.771939593338544" lon="137.82353812013935"><ele>1782</ele><time>2024-04-06T06:57:53Z</time></trkpt>
<trkpt lat="36.77121230941243" lon="137.8236862073469"><ele>1769</ele><time>2024-04-06T06:58:16Z</time></trkpt>
<trkpt lat="36.77109331515779" lon="137.8239748618763"><ele>1752</ele><time>2024-04-06T06:58:40Z</time></trkpt>
<trkpt lat="36.770764865098286" lon="137.82423119066502"><ele>1744</ele><time>2024-04-06T06:59:04Z</time></trkpt>
<trkpt lat="36.77049978818583" lon="137.8244221161148"><ele>1729</ele><time>2024-04-06T06:59:27Z</time></trkpt>
<trkpt lat="36.77041607747381" lon="137.82474926365003"><ele>1730</ele><time>2024-04-06T06:59:51Z</time></trkpt>
<trkpt lat="36.769820301174" lon="137.8245618917206"><ele>1710</ele><time>2024-04-06T07:00:52Z</time></trkpt>
<trkpt lat="36.76993602361594" lon="137.82490226121135"><ele>1705</ele><time>2024-04-06T07:01:28Z</time></trkpt>
<trkpt lat="36.76995187107999" lon="137.82526633716463"><ele>1702</ele><time>2024-04-06T07:01:59Z</time></trkpt>
<trkpt lat="36.7695666551039" lon="137.825526282827"><ele>1683</ele><time>2024-04-06T07:02:27Z</time></trkpt>
<trkpt lat="36.76904355525172" lon="137.82602467654078"><ele>1650</ele><time>2024-04-06T07:03:00Z</time></trkpt>
<trkpt lat="36.76868122229673" lon="137.82667068084154"><ele>1630</ele><time>2024-04-06T07:03:22Z</time></trkpt>
<trkpt lat="36.768452472627665" lon="137.82735732384614"><ele>1622</ele><time>2024-04-06T07:03:45Z</time></trkpt>
<trkpt lat="36.768157904676876" lon="137.82791271522385"><ele>1615</ele><time>2024-04-06T07:04:08Z</time></trkpt>
<trkpt lat="36.76794560803935" lon="137.8285167423216"><ele>1611</ele><time>2024-04-06T07:04:34Z</time></trkpt>
<trkpt lat="36.767694479776836" lon="137.82877011398793"><ele>1614</ele><time>2024-04-06T07:05:06Z</time></trkpt>
<trkpt lat="36.767478935158074" lon="137.8289809718668"><ele>1610</ele><time>2024-04-06T07:05:33Z</time></trkpt>
<trkpt lat="36.76726847261585" lon="137.8293426260164"><ele>1602</ele><time>2024-04-06T07:06:01Z</time></trkpt>
<trkpt lat="36.76695728764742" lon="137.83008583083674"><ele>1593</ele><time>2024-04-06T07:06:23Z</time></trkpt>
<trkpt lat="36.766631104934675" lon="137.83063675592012"><ele>1588</ele><time>2024-04-06T07:06:46Z</time></trkpt>
<trkpt lat="36.76633497511374" lon="137.83076566822737"><ele>1587</ele><time>2024-04-06T07:07:08Z</time></trkpt>
<trkpt lat="36.76586281568275" lon="137.83096671110067"><ele>1587</ele><time>2024-04-06T07:07:34Z</time></trkpt>
<trkpt lat="36.76537333109579" lon="137.8313279902342"><ele>1579</ele><time>2024-04-06T07:07:58Z</time></trkpt>
<trkpt lat="36.7646321556403" lon="137.83128926624906"><ele>1575</ele><time>2024-04-06T07:08:20Z</time></trkpt>
<trkpt lat="36.76365374038698" lon="137.83192028964177"><ele>1562</ele><time>2024-04-06T07:08:43Z</time></trkpt>
<trkpt lat="36.76259082541181" lon="137.83255463073215"><ele>1544</ele><time>2024-04-06T07:09:04Z</time></trkpt>
<trkpt lat="36.76104643407856" lon="137.83342184823286"><ele>1513</ele><time>2024-04-06T07:09:25Z</time></trkpt>
<trkpt lat="36.759722128387224" lon="137.8343174342806"><ele>1489</ele><time>2024-04-06T07:09:46Z</time></trkpt>
<trkpt lat="36.759058792965874" lon="137.83561755243764"><ele>1457</ele><time>2024-04-06T07:10:07Z</time></trkpt>
<trkpt lat="36.75869889545195" lon="137.83625070676356"><ele>1441</ele><time>2024-04-06T07:10:31Z</time></trkpt>
<trkpt lat="36.758632864358596" lon="137.83648962402842"><ele>1428</ele><time>2024-04-06T07:10:54Z</time></trkpt>
<trkpt lat="36.75859341131632" lon="137.836661592321"><ele>1420</ele><time>2024-04-06T07:11:24Z</time></trkpt>
<trkpt lat="36.757833280099085" lon="137.83762135509306"><ele>1381</ele><time>2024-04-06T07:12:35Z</time></trkpt>
<trkpt lat="36.757223543231575" lon="137.83883546293097"><ele>1342</ele><time>2024-04-06T07:12:56Z</time></trkpt>
<trkpt lat="36.757156887938116" lon="137.8392500013068"><ele>1327</ele><time>2024-04-06T07:13:21Z</time></trkpt>
<trkpt lat="36.756205274275814" lon="137.84109103239416"><ele>1264</ele><time>2024-04-06T07:14:08Z</time></trkpt>
<trkpt lat="36.75595749837163" lon="137.842098429849"><ele>1256</ele><time>2024-04-06T07:14:34Z</time></trkpt>
<trkpt lat="36.75619105607792" lon="137.84410533531567"><ele>1206</ele><time>2024-04-06T07:14:57Z</time></trkpt>
<trkpt lat="36.75591570803726" lon="137.84633781787542"><ele>1168</ele><time>2024-04-06T07:15:17Z</time></trkpt>
<trkpt lat="36.75585903536403" lon="137.84664518692418"><ele>1162</ele><time>2024-04-06T07:15:45Z</time></trkpt>
<trkpt lat="36.755090401877275" lon="137.84790531533574"><ele>1125</ele><time>2024-04-06T07:16:18Z</time></trkpt>
<trkpt lat="36.75443609446747" lon="137.85008544162704"><ele>1080</ele><time>2024-04-06T07:16:39Z</time></trkpt>
<trkpt lat="36.754281154977775" lon="137.85086863223913"><ele>1063</ele><time>2024-04-06T07:17:00Z</time></trkpt>
<trkpt lat="36.75410612909008" lon="137.85213557234272"><ele>1045</ele><time>2024-04-06T07:17:21Z</time></trkpt>
<trkpt lat="36.753998004710795" lon="137.85230221834686"><ele>1039</ele><time>2024-04-06T07:17:43Z</time></trkpt>
<trkpt lat="36.753678103925765" lon="137.85427572845842"><ele>1011</ele><time>2024-04-06T07:18:20Z</time></trkpt>
<trkpt lat="36.75357091883081" lon="137.85662126297333"><ele>980</ele><time>2024-04-06T07:18:41Z</time></trkpt>
<trkpt lat="36.75411179071726" lon="137.85852090243122"><ele>960</ele><time>2024-04-06T07:19:02Z</time></trkpt>
<trkpt lat="36.75404394744856" lon="137.85966724692292"><ele>953</ele><time>2024-04-06T07:19:28Z</time></trkpt>
<trkpt lat="36.753831560154815" lon="137.86032118235062"><ele>951</ele><time>2024-04-06T07:19:55Z</time></trkpt>
<trkpt lat="36.75363926835343" lon="137.8611395409564"><ele>945</ele><time>2024-04-06T07:20:19Z</time></trkpt>
<trkpt lat="36.753665530866016" lon="137.86216934411985"><ele>939</ele><time>2024-04-06T07:20:41Z</time></trkpt>
<trkpt lat="36.75362072550411" lon="137.86355571966456"><ele>925</ele><time>2024-04-06T07:21:03Z</time></trkpt>
<trkpt lat="36.75347258488987" lon="137.86476518696608"><ele>916</ele><time>2024-04-06T07:21:24Z</time></trkpt>
<trkpt lat="36.752964568435324" lon="137.8657958783036"><ele>905</ele><time>2024-04-06T07:21:46Z</time></trkpt>
<trkpt lat="36.75236998377586" lon="137.8668502649809"><ele>894</ele><time>2024-04-06T07:22:08Z</time></trkpt>
<trkpt lat="36.75173300934097" lon="137.86788765928546"><ele>879</ele><time>2024-04-06T07:22:29Z</time></trkpt>
<trkpt lat="36.75110270340454" lon="137.86888839482666"><ele>868</ele><time>2024-04-06T07:22:50Z</time></trkpt>
<trkpt lat="36.75035378591403" lon="137.86964196745652"><ele>855</ele><time>2024-04-06T07:23:12Z</time></trkpt>
<trkpt lat="36.74996507578969" lon="137.86994029171234"><ele>847</ele><time>2024-04-06T07:23:43Z</time></trkpt>
<trkpt lat="36.74983250702355" lon="137.86971740225687"><ele>844</ele><time>2024-04-06T07:25:15Z</time></trkpt>
<trkpt lat="36.74956936073231" lon="137.86944554525493"><ele>846</ele><time>2024-04-06T07:25:46Z</time></trkpt>
<trkpt lat="36.74937512336514" lon="137.86912931333552"><ele>845</ele><time>2024-04-06T07:26:13Z</time></trkpt>
<trkpt lat="36.749058351497126" lon="137.8693416792642"><ele>840</ele><time>2024-04-06T07:26:49Z</time></trkpt>
<trkpt lat="36.74878216659437" lon="137.8694845329866"><ele>837</ele><time>2024-04-06T07:27:15Z</time></trkpt>
<trkpt lat="36.748680445466654" lon="137.86961059326555"><ele>836</ele><time>2024-04-06T07:27:40Z</time></trkpt>
<trkpt lat="36.74830990561679" lon="137.8694999303697"><ele>837</ele><time>2024-04-06T07:28:07Z</time></trkpt>
<trkpt lat="36.74800029712362" lon="137.86956036483062"><ele>834</ele><time>2024-04-06T07:28:35Z</time></trkpt>
<trkpt lat="36.747912355751765" lon="137.86995059758823"><ele>825</ele><time>2024-04-06T07:29:02Z</time></trkpt>
<trkpt lat="36.74774121127424" lon="137.8702323813706"><ele>826</ele><time>2024-04-06T07:29:32Z</time></trkpt>
<trkpt lat="36.74775042127622" lon="137.87034746200675"><ele>823</ele><time>2024-04-06T07:29:59Z</time></trkpt>
</trkseg>
</trk>
</gpx>