<?xml version="1.0" encoding="UTF-8"?>
<gpx xmlns:xsi="http://www.w3.org/2001/XMLSchema-instance" xmlns="http://www.topografix.com/GPX/1/1" xsi:schemaLocation="http://www.topografix.com/GPX/1/1 http://www.topografix.com/GPX/1/1/gpx.xsd" creator="Yamareco iOS 6.77 - www.yamareco.com">
<trk><name>track</name><number>1</number><trkseg>
<trkpt lat="36.77360418256072" lon="137.82135640283843"><ele>1813</ele><time>2024-04-06T23:57:19Z</time></trkpt>
<trkpt lat="36.77374621959119" lon="137.82169370606803"><ele>1832</ele><time>2024-04-07T00:00:18Z</time></trkpt>
<trkpt lat="36.773864661120015" lon="137.82173995498692"><ele>1831</ele><time>2024-04-07T00:00:47Z</time></trkpt>
<trkpt lat="36.773957760353355" lon="137.8221215017142"><ele>1827</ele><time>2024-04-07T00:04:54Z</time></trkpt>
<trkpt lat="36.77400380604753" lon="137.8222862277298"><ele>1827</ele><time>2024-04-07T00:05:22Z</time></trkpt>
<trkpt lat="36.77414309185076" lon="137.8221427065655"><ele>1829</ele><time>2024-04-07T00:05:55Z</time></trkpt>
<trkpt lat="36.77427498100938" lon="137.82236676755292"><ele>1831</ele><time>2024-04-07T00:06:27Z</time></trkpt>
<trkpt lat="36.774398630884384" lon="137.8225409884588"><ele>1834</ele><time>2024-04-07T00:06:56Z</time></trkpt>
<trkpt lat="36.77453458003514" lon="137.82269563894053"><ele>1838</ele><time>2024-04-07T00:07:34Z</time></trkpt>
<trkpt lat="36.77459498396514" lon="137.8224583789845"><ele>1845</ele><time>2024-04-07T00:08:07Z</time></trkpt>
<trkpt lat="36.77472958902879" lon="137.82227800394432"><ele>1851</ele><time>2024-04-07T00:08:43Z</time></trkpt>
<trkpt lat="36.774900631591535" lon="137.8222134150215"><ele>1855</ele><time>2024-04-07T00:09:22Z</time></trkpt>
<trkpt lat="36.774835630755405" lon="137.82203406591964"><ele>1861</ele><time>2024-04-07T00:10:36Z</time></trkpt>
<trkpt lat="36.774982738330756" lon="137.82194213087828"><ele>1865</ele><time>2024-04-07T00:11:11Z</time></trkpt>
<trkpt lat="36.77509906758115" lon="137.8217523266937"><ele>1869</ele><time>2024-04-07T00:11:48Z</time></trkpt>
<trkpt lat="36.775288635680724" lon="137.8215822143033"><ele>1872</ele><time>2024-04-07T00:12:21Z</time></trkpt>
<trkpt lat="36.77531420102006" lon="137.82132001214444"><ele>1876</ele><time>2024-04-07T00:12:52Z</time></trkpt>
<trkpt lat="36.775421912969186" lon="137.82107465490887"><ele>1880</ele><time>2024-04-07T00:13:20Z</time></trkpt>
<trkpt lat="36.775433402977214" lon="137.82083814278107"><ele>1885</ele><time>2024-04-07T00:13:58Z</time></trkpt>
<trkpt lat="36.77546517994243" lon="137.82059998742292"><ele>1892</ele><time>2024-04-07T00:14:44Z</time></trkpt>
<trkpt lat="36.7755160760878" lon="137.82030858907405"><ele>1899</ele><time>2024-04-07T00:15:20Z</time></trkpt>
<trkpt lat="36.77560810357444" lon="137.82013646610707"><ele>1904</ele><time>2024-04-07T00:15:51Z</time></trkpt>
<trkpt lat="36.775628201528036" lon="137.81988088665543"><ele>1908</ele><time>2024-04-07T00:16:26Z</time></trkpt>
<trkpt lat="36.77573706386367" lon="137.81968312049915"><ele>1910</ele><time>2024-04-07T00:16:58Z</time></trkpt>
<trkpt lat="36.77582983177673" lon="137.8194707418947"><ele>1913</ele><time>2024-04-07T00:17:37Z</time></trkpt>
<trkpt lat="36.77592311414913" lon="137.81927032000402"><ele>1918</ele><time>2024-04-07T00:18:15Z</time></trkpt>
<trkpt lat="36.77606345319493" lon="137.81910973921427"><ele>1923</ele><time>2024-04-07T00:18:54Z</time></trkpt>
<trkpt lat="36.77619199713089" lon="137.81892199174652"><ele>1930</ele><time>2024-04-07T00:19:32Z</time></trkpt>
<trkpt lat="36.7762997010077" lon="137.81874379127626"><ele>1932</ele><time>2024-04-07T00:20:08Z</time></trkpt>
<trkpt lat="36.77644251349656" lon="137.8185373349257"><ele>1937</ele><time>2024-04-07T00:20:48Z</time></trkpt>
<trkpt lat="36.77654644276352" lon="137.8183626978092"><ele>1941</ele><time>2024-04-07T00:21:22Z</time></trkpt>
<trkpt lat="36.77667877862917" lon="137.81820750292664"><ele>1946</ele><time>2024-04-07T00:21:55Z</time></trkpt>
<trkpt lat="36.7768600445745" lon="137.81808652945293"><ele>1953</ele><time>2024-04-07T00:22:31Z</time></trkpt>
<trkpt lat="36.7769873987863" lon="137.81794242824975"><ele>1959</ele><time>2024-04-07T00:23:09Z</time></trkpt>
<trkpt lat="36.77707060528329" lon="137.8178789430887"><ele>1960</ele><time>2024-04-07T00:24:35Z</time></trkpt>
<trkpt lat="36.7770925180394" lon="137.81764272249274"><ele>1966</ele><time>2024-04-07T00:25:10Z</time></trkpt>
<trkpt lat="36.77706743999799" lon="137.81738646474224"><ele>1968</ele><time>2024-04-07T00:25:45Z</time></trkpt>
<trkpt lat="36.77728615639213" lon="137.81749303445247"><ele>1974</ele><time>2024-04-07T00:26:33Z</time></trkpt>
<trkpt lat="36.77739463355611" lon="137.81750312446047"><ele>1978</ele><time>2024-04-07T00:27:15Z</time></trkpt>
<trkpt lat="36.777354751842246" lon="137.8172305615185"><ele>1984</ele><time>2024-04-07T00:27:57Z</time></trkpt>
<trkpt lat="36.77745757530754" lon="137.81716588932008"><ele>1989</ele><time>2024-04-07T00:28:55Z</time></trkpt>
<trkpt lat="36.77765032998235" lon="137.81720332898183"><ele>1996</ele><time>2024-04-07T00:29:31Z</time></trkpt>
<trkpt lat="36.77779334067836" lon="137.81712732127323"><ele>2003</ele><time>2024-04-07T00:30:14Z</time></trkpt>
<trkpt lat="36.7777244631267" lon="137.8169657023755"><ele>2009</ele><time>2024-04-07T00:30:52Z</time></trkpt>
<trkpt lat="36.77772949028003" lon="137.81679018875897"><ele>2012</ele><time>2024-04-07T00:31:28Z</time></trkpt>
<trkpt lat="36.77779846683559" lon="137.8166565343387"><ele>2012</ele><time>2024-04-07T00:32:04Z</time></trkpt>
<trkpt lat="36.777984727471726" lon="137.81676471387843"><ele>2019</ele><time>2024-04-07T00:32:45Z</time></trkpt>
<trkpt lat="36.77804689530599" lon="137.81653909991766"><ele>2025</ele><time>2024-04-07T00:33:53Z</time></trkpt>
<trkpt lat="36.77807933266438" lon="137.81625096311666"><ele>2031</ele><time>2024-04-07T00:34:39Z</time></trkpt>
<trkpt lat="36.778271149850205" lon="137.81630932654235"><ele>2039</ele><time>2024-04-07T00:35:37Z</time></trkpt>
<trkpt lat="36.77836651665521" lon="137.81623938958612"><ele>2043</ele><time>2024-04-07T00:37:13Z</time></trkpt>
<trkpt lat="36.77841505175072" lon="137.8161109013567"><ele>2049</ele><time>2024-04-07T00:38:07Z</time></trkpt>
<trkpt lat="36.778472475170574" lon="137.8158692311228"><ele>2055</ele><time>2024-04-07T00:38:56Z</time></trkpt>
<trkpt lat="36.77860225525721" lon="137.81584429442356"><ele>2064</ele><time>2024-04-07T00:40:37Z</time></trkpt>
<trkpt lat="36.77872852952072" lon="137.81592796301976"><ele>2073</ele><time>2024-04-07T00:41:50Z</time></trkpt>
<trkpt lat="36.77884805626766" lon="137.81584922928073"><ele>2078</ele><time>2024-04-07T00:42:41Z</time></trkpt>
<trkpt lat="36.77890833372778" lon="137.8156959141176"><ele>2084</ele><time>2024-04-07T00:43:25Z</time></trkpt>
<trkpt lat="36.778954154622035" lon="137.81548575369882"><ele>2092</ele><time>2024-04-07T00:44:07Z</time></trkpt>
<trkpt lat="36.77896599629297" lon="137.81525388469097"><ele>2096</ele><time>2024-04-07T00:44:45Z</time></trkpt>
<trkpt lat="36.77899704488285" lon="137.8150541011557"><ele>2098</ele><time>2024-04-07T00:45:34Z</time></trkpt>
<trkpt lat="36.779063797823575" lon="137.81495838253275"><ele>2100</ele><time>2024-04-07T00:46:12Z</time></trkpt>
<trkpt lat="36.77916804741494" lon="137.8151024623358"><ele>2106</ele><time>2024-04-07T00:46:49Z</time></trkpt>
<trkpt lat="36.77926357489154" lon="137.81493075380303"><ele>2108</ele><time>2024-04-07T00:47:45Z</time></trkpt>
<trkpt lat="36.77941065865008" lon="137.81481551757102"><ele>2117</ele><time>2024-04-07T00:48:43Z</time></trkpt>
<trkpt lat="36.77952205509879" lon="137.81467243100462"><ele>2121</ele><time>2024-04-07T00:49:25Z</time></trkpt>
<trkpt lat="36.779653866940265" lon="137.8145129236901"><ele>2125</ele><time>2024-04-07T00:50:10Z</time></trkpt>
<trkpt lat="36.77975216543195" lon="137.8142862581736"><ele>2130</ele><time>2024-04-07T00:50:51Z</time></trkpt>
<trkpt lat="36.779787507967875" lon="137.8140534025558"><ele>2136</ele><time>2024-04-07T00:51:27Z</time></trkpt>
<trkpt lat="36.779823317794225" lon="137.8138066620879"><ele>2139</ele><time>2024-04-07T00:52:05Z</time></trkpt>
<trkpt lat="36.77993071231469" lon="137.81360450412376"><ele>2143</ele><time>2024-04-07T00:52:45Z</time></trkpt>
<trkpt lat="36.78005005969572" lon="137.81342916561886"><ele>2146</ele><time>2024-04-07T00:53:23Z</time></trkpt>
<trkpt lat="36.78013967584822" lon="137.81320048817497"><ele>2151</ele><time>2024-04-07T00:53:59Z</time></trkpt>
<trkpt lat="36.780176626175155" lon="137.81295941567487"><ele>2156</ele><time>2024-04-07T00:54:38Z</time></trkpt>
<trkpt lat="36.78018076696762" lon="137.812745798232"><ele>2163</ele><time>2024-04-07T00:55:11Z</time></trkpt>
<trkpt lat="36.780168425500605" lon="137.81248971474957"><ele>2168</ele><time>2024-04-07T00:55:49Z</time></trkpt>
<trkpt lat="36.78021412457048" lon="137.81228208910795"><ele>2169</ele><time>2024-04-07T00:56:43Z</time></trkpt>
<trkpt lat="36.780355246779195" lon="137.8120869640959"><ele>2173</ele><time>2024-04-07T01:17:01Z</time></trkpt>
<trkpt lat="36.78051684966971" lon="137.81189946115185"><ele>2178</ele><time>2024-04-07T01:17:36Z</time></trkpt>
<trkpt lat="36.780715076631196" lon="137.81175533605014"><ele>2180</ele><time>2024-04-07T01:18:13Z</time></trkpt>
<trkpt lat="36.780881162745175" lon="137.81165652148587"><ele>2183</ele><time>2024-04-07T01:18:46Z</time></trkpt>
<trkpt lat="36.78107454669145" lon="137.81151495971253"><ele>2185</ele><time>2024-04-07T01:19:30Z</time></trkpt>
<trkpt lat="36.78122053914523" lon="137.8113430566122"><ele>2188</ele><time>2024-04-07T01:20:04Z</time></trkpt>
<trkpt lat="36.78135451691894" lon="137.81113301873455"><ele>2191</ele><time>2024-04-07T01:20:37Z</time></trkpt>
<trkpt lat="36.78149299224722" lon="137.81093678355478"><ele>2194</ele><time>2024-04-07T01:21:13Z</time></trkpt>
<trkpt lat="36.781618150088086" lon="137.8107488412456"><ele>2195</ele><time>2024-04-07T01:21:46Z</time></trkpt>
<trkpt lat="36.781736937305496" lon="137.81057492364613"><ele>2198</ele><time>2024-04-07T01:22:24Z</time></trkpt>
<trkpt lat="36.78188715102174" lon="137.8103726178354"><ele>2203</ele><time>2024-04-07T01:23:00Z</time></trkpt>
<trkpt lat="36.78203459708364" lon="137.81019280866167"><ele>2209</ele><time>2024-04-07T01:23:32Z</time></trkpt>
<trkpt lat="36.782155097893984" lon="137.8100060557014"><ele>2213</ele><time>2024-04-07T01:24:09Z</time></trkpt>
<trkpt lat="36.78228342725174" lon="137.80983653798148"><ele>2220</ele><time>2024-04-07T01:24:45Z</time></trkpt>
<trkpt lat="36.78240102732068" lon="137.809688433771"><ele>2222</ele><time>2024-04-07T01:25:22Z</time></trkpt>
<trkpt lat="36.782553682013145" lon="137.80951345132448"><ele>2227</ele><time>2024-04-07T01:26:01Z</time></trkpt>
<trkpt lat="36.78263101610816" lon="137.80943027391766"><ele>2231</ele><time>2024-04-07T01:26:57Z</time></trkpt>
<trkpt lat="36.78272991922971" lon="137.80927405352583"><ele>2233</ele><time>2024-04-07T01:27:55Z</time></trkpt>
<trkpt lat="36.78261011276319" lon="137.8091142527841"><ele>2242</ele><time>2024-04-07T01:34:42Z</time></trkpt>
<trkpt lat="36.782479210826494" lon="137.80900433437017"><ele>2246</ele><time>2024-04-07T01:35:31Z</time></trkpt>
<trkpt lat="36.78265641984592" lon="137.808831591286"><ele>2248</ele><time>2024-04-07T01:36:54Z</time></trkpt>
<trkpt lat="36.782785998827244" lon="137.8086668585791"><ele>2257</ele><time>2024-04-07T01:37:33Z</time></trkpt>
<trkpt lat="36.782640104441256" lon="137.80859611055413"><ele>2263</ele><time>2024-04-07T01:38:02Z</time></trkpt>
<trkpt lat="36.78245686276414" lon="137.80850067956007"><ele>2268</ele><time>2024-04-07T01:38:32Z</time></trkpt>
<trkpt lat="36.78232013901784" lon="137.80838379633286"><ele>2271</ele><time>2024-04-07T01:39:03Z</time></trkpt>
<trkpt lat="36.78222510567938" lon="137.80829765722774"><ele>2273</ele><time>2024-04-07T01:39:38Z</time></trkpt>
<trkpt lat="36.782396227690825" lon="137.80817229748288"><ele>2277</ele><time>2024-04-07T01:40:10Z</time></trkpt>
<trkpt lat="36.78252314349442" lon="137.80800265384173"><ele>2285</ele><time>2024-04-07T01:40:49Z</time></trkpt>
<trkpt lat="36.78266651196525" lon="137.80786015389168"><ele>2291</ele><time>2024-04-07T01:41:23Z</time></trkpt>
<trkpt lat="36.78279153892708" lon="137.8077060096569"><ele>2299</ele><time>2024-04-07T01:42:01Z</time></trkpt>
<trkpt lat="36.78288559092438" lon="137.807567173019"><ele>2300</ele><time>2024-04-07T01:42:30Z</time></trkpt>
<trkpt lat="36.78266337584905" lon="137.8074859793589"><ele>2310</ele><time>2024-04-07T01:43:02Z</time></trkpt>
<trkpt lat="36.78247380419196" lon="137.80744880705598"><ele>2316</ele><time>2024-04-07T01:43:38Z</time></trkpt>
<trkpt lat="36.78228988984565" lon="137.80737182514446"><ele>2322</ele><time>2024-04-07T01:44:10Z</time></trkpt>
<trkpt lat="36.78214541826517" lon="137.8073538967606"><ele>2324</ele><time>2024-04-07T01:45:01Z</time></trkpt>
<trkpt lat="36.7819797404698" lon="137.80729079952502"><ele>2328</ele><time>2024-04-07T01:45:39Z</time></trkpt>
<trkpt lat="36.78183228421107" lon="137.80729200611475"><ele>2331</ele><time>2024-04-07T01:46:24Z</time></trkpt>
<trkpt lat="36.78172223214915" lon="137.80722446803682"><ele>2334</ele><time>2024-04-07T01:47:00Z</time></trkpt>
<trkpt lat="36.7818722846606" lon="137.8070838787553"><ele>2337</ele><time>2024-04-07T01:47:51Z</time></trkpt>
<trkpt lat="36.78198080803259" lon="137.80698054953425"><ele>2344</ele><time>2024-04-07T01:48:37Z</time></trkpt>
<trkpt lat="36.78208032452834" lon="137.80685464923152"><ele>2348</ele><time>2024-04-07T01:49:17Z</time></trkpt>
<trkpt lat="36.78219036319097" lon="137.80674534010782"><ele>2351</ele><time>2024-04-07T01:50:46Z</time></trkpt>
<trkpt lat="36.78233017276172" lon="137.8065933235818"><ele>2359</ele><time>2024-04-07T01:54:08Z</time></trkpt>
<trkpt lat="36.78240562808641" lon="137.8064998964854"><ele>2367</ele><time>2024-04-07T01:55:10Z</time></trkpt>
<trkpt lat="36.782554863682975" lon="137.8063958445828"><ele>2370</ele><time>2024-04-07T01:55:54Z</time></trkpt>
<trkpt lat="36.78242021470225" lon="137.80631021803129"><ele>2376</ele><time>2024-04-07T01:56:47Z</time></trkpt>
<trkpt lat="36.78222123085733" lon="137.8062632925872"><ele>2384</ele><time>2024-04-07T01:57:31Z</time></trkpt>
<trkpt lat="36.78204848441663" lon="137.80622848250482"><ele>2386</ele><time>2024-04-07T01:58:12Z</time></trkpt>
<trkpt lat="36.781871784873076" lon="137.80618928343432"><ele>2390</ele><time>2024-04-07T01:58:50Z</time></trkpt>
<trkpt lat="36.78172532562457" lon="137.80618573756428"><ele>2391</ele><time>2024-04-07T02:00:08Z</time></trkpt>
<trkpt lat="36.781532203674075" lon="137.80604257008318"><ele>2393</ele><time>2024-04-07T02:00:39Z</time></trkpt>
<trkpt lat="36.78134614996506" lon="137.805857980001"><ele>2393</ele><time>2024-04-07T02:01:17Z</time></trkpt>
<trkpt lat="36.781208532875006" lon="137.80570239560527"><ele>2394</ele><time>2024-04-07T02:02:23Z</time></trkpt>
<trkpt lat="36.78095466975283" lon="137.80561080730206"><ele>2396</ele><time>2024-04-07T02:03:11Z</time></trkpt>
<trkpt lat="36.78072838316129" lon="137.80556126242723"><ele>2396</ele><time>2024-04-07T02:03:44Z</time></trkpt>
<trkpt lat="36.78054798184615" lon="137.80542186052378"><ele>2397</ele><time>2024-04-07T02:04:14Z</time></trkpt>
<trkpt lat="36.78037263949521" lon="137.80521367498034"><ele>2400</ele><time>2024-04-07T02:04:47Z</time></trkpt>
<trkpt lat="36.780193338507985" lon="137.80496391659844"><ele>2402</ele><time>2024-04-07T02:05:18Z</time></trkpt>
<trkpt lat="36.78003627113607" lon="137.80467646765592"><ele>2404</ele><time>2024-04-07T02:05:44Z</time></trkpt>
<trkpt lat="36.7799003979681" lon="137.80431521186713"><ele>2402</ele><time>2024-04-07T02:09:38Z</time></trkpt>
<trkpt lat="36.77985681187698" lon="137.80396236298262"><ele>2402</ele><time>2024-04-07T02:10:07Z</time></trkpt>
<trkpt lat="36.77988578731075" lon="137.8036593917965"><ele>2404</ele><time>2024-04-07T02:10:37Z</time></trkpt>
<trkpt lat="36.779922463048344" lon="137.80349990832957"><ele>2405</ele><time>2024-04-07T02:11:22Z</time></trkpt>
<trkpt lat="36.779945786695436" lon="137.8031943350438"><ele>2407</ele><time>2024-04-07T02:11:53Z</time></trkpt>
<trkpt lat="36.77999393500176" lon="137.80295932880068"><ele>2410</ele><time>2024-04-07T02:12:25Z</time></trkpt>
<trkpt lat="36.7799599356866" lon="137.8026448736776"><ele>2404</ele><time>2024-04-07T02:13:00Z</time></trkpt>
<trkpt lat="36.779999017224" lon="137.80241379701067"><ele>2403</ele><time>2024-04-07T02:13:35Z</time></trkpt>
<trkpt lat="36.78000523695978" lon="137.80222412951574"><ele>2403</ele><time>2024-04-07T02:14:13Z</time></trkpt>
<trkpt lat="36.780054977327" lon="137.80200792724895"><ele>2408</ele><time>2024-04-07T02:14:52Z</time></trkpt>
<trkpt lat="36.78006918791301" lon="137.8017938581007"><ele>2410</ele><time>2024-04-07T02:15:51Z</time></trkpt>
<trkpt lat="36.78007892609568" lon="137.80167622936105"><ele>2413</ele><time>2024-04-07T02:17:01Z</time></trkpt>
<trkpt lat="36.780100465345676" lon="137.80143531865494"><ele>2417</ele><time>2024-04-07T02:17:49Z</time></trkpt>
<trkpt lat="36.7800996964105" lon="137.80119613728587"><ele>2421</ele><time>2024-04-07T02:18:28Z</time></trkpt>
<trkpt lat="36.78010167243845" lon="137.801012125074"><ele>2422</ele><time>2024-04-07T02:19:03Z</time></trkpt>
<trkpt lat="36.780096138514914" lon="137.8006732845781"><ele>2425</ele><time>2024-04-07T02:19:34Z</time></trkpt>
<trkpt lat="36.78009921410954" lon="137.8003310758602"><ele>2426</ele><time>2024-04-07T02:20:03Z</time></trkpt>
<trkpt lat="36.78008374661421" lon="137.8000303420231"><ele>2428</ele><time>2024-04-07T02:20:40Z</time></trkpt>
<trkpt lat="36.78006421954147" lon="137.79977222523107"><ele>2430</ele><time>2024-04-07T02:21:18Z</time></trkpt>
<trkpt lat="36.78003917710388" lon="137.7995331321314"><ele>2432</ele><time>2024-04-07T02:21:57Z</time></trkpt>
<trkpt lat="36.77996866904384" lon="137.79926654086805"><ele>2425</ele><time>2024-04-07T02:23:10Z</time></trkpt>
<trkpt lat="36.779900425870935" lon="137.7993569283074"><ele>2427</ele><time>2024-04-07T02:25:30Z</time></trkpt>
<trkpt lat="36.7797088382054" lon="137.7986655578613"><ele>2407</ele><time>2024-04-07T02:27:26Z</time></trkpt>
<trkpt lat="36.77960946226947" lon="137.79836460839778"><ele>2403</ele><time>2024-04-07T02:28:00Z</time></trkpt>
<trkpt lat="36.77966248318202" lon="137.79814054401743"><ele>2398</ele><time>2024-04-07T02:29:39Z</time></trkpt>
<trkpt lat="36.77973856072496" lon="137.7979590816779"><ele>2400</ele><time>2024-04-07T02:30:19Z</time></trkpt>
<trkpt lat="36.779799846105" lon="137.79771206664262"><ele>2401</ele><time>2024-04-07T02:30:58Z</time></trkpt>
<trkpt lat="36.77986779390226" lon="137.79762842688774"><ele>2399</ele><time>2024-04-07T02:32:32Z</time></trkpt>
<trkpt lat="36.779968843731545" lon="137.79750537220573"><ele>2398</ele><time>2024-04-07T02:33:33Z</time></trkpt>
<trkpt lat="36.779993221764045" lon="137.79700705788554"><ele>2393</ele><time>2024-04-07T02:45:03Z</time></trkpt>
<trkpt lat="36.780007516925124" lon="137.79668305050595"><ele>2398</ele><time>2024-04-07T02:45:54Z</time></trkpt>
<trkpt lat="36.780011101302414" lon="137.7964260673075"><ele>2398</ele><time>2024-04-07T02:46:21Z</time></trkpt>
<trkpt lat="36.7800544342723" lon="137.7961492646092"><ele>2398</ele><time>2024-04-07T02:46:52Z</time></trkpt>
<trkpt lat="36.780056073021385" lon="137.79592533494784"><ele>2401</ele><time>2024-04-07T02:47:31Z</time></trkpt>
<trkpt lat="36.77991511553479" lon="137.79577586061737"><ele>2404</ele><time>2024-04-07T02:48:09Z</time></trkpt>
<trkpt lat="36.77973183091605" lon="137.79569043071623"><ele>2415</ele><time>2024-04-07T02:48:49Z</time></trkpt>
<trkpt lat="36.77954874851185" lon="137.7955652979102"><ele>2425</ele><time>2024-04-07T02:49:23Z</time></trkpt>
<trkpt lat="36.77959498283766" lon="137.7953374870857"><ele>2429</ele><time>2024-04-07T02:50:20Z</time></trkpt>
<trkpt lat="36.779673965650396" lon="137.79516379751513"><ele>2433</ele><time>2024-04-07T02:50:56Z</time></trkpt>
<trkpt lat="36.779555960488004" lon="137.79502298767102"><ele>2445</ele><time>2024-04-07T02:51:45Z</time></trkpt>
<trkpt lat="36.77937570338329" lon="137.7949128049079"><ele>2450</ele><time>2024-04-07T02:52:16Z</time></trkpt>
<trkpt lat="36.77949708770596" lon="137.79473329670788"><ele>2452</ele><time>2024-04-07T02:53:14Z</time></trkpt>
<trkpt lat="36.77960158425083" lon="137.7945647096672"><ele>2456</ele><time>2024-04-07T02:53:47Z</time></trkpt>
<trkpt lat="36.77968171434998" lon="137.7943509721145"><ele>2459</ele><time>2024-04-07T02:54:34Z</time></trkpt>
<trkpt lat="36.779711517306616" lon="137.79418560534506"><ele>2465</ele><time>2024-04-07T02:55:11Z</time></trkpt>
<trkpt lat="36.77955503258963" lon="137.79419521257176"><ele>2475</ele><time>2024-04-07T02:55:48Z</time></trkpt>
<trkpt lat="36.779376526505494" lon="137.79415066947803"><ele>2481</ele><time>2024-04-07T02:56:26Z</time></trkpt>
<trkpt lat="36.77949833096762" lon="137.79393814760394"><ele>2483</ele><time>2024-04-07T02:57:17Z</time></trkpt>
<trkpt lat="36.77955881622909" lon="137.7937467140727"><ele>2484</ele><time>2024-04-07T02:57:55Z</time></trkpt>
<trkpt lat="36.779598303685674" lon="137.79354385926231"><ele>2488</ele><time>2024-04-07T02:58:35Z</time></trkpt>
<trkpt lat="36.77964196523185" lon="137.79332070755973"><ele>2494</ele><time>2024-04-07T02:59:11Z</time></trkpt>
<trkpt lat="36.779661677059195" lon="137.7930898409329"><ele>2502</ele><time>2024-04-07T02:59:53Z</time></trkpt>
<trkpt lat="36.779486061367535" lon="137.7931701723003"><ele>2511</ele><time>2024-04-07T03:00:44Z</time></trkpt>
<trkpt lat="36.779383580852794" lon="137.79322492435728"><ele>2515</ele><time>2024-04-07T03:01:23Z</time></trkpt>
<trkpt lat="36.77927328788954" lon="137.7931927168527"><ele>2523</ele><time>2024-04-07T03:02:03Z</time></trkpt>
<trkpt lat="36.7793274991442" lon="137.79301256042038"><ele>2519</ele><time>2024-04-07T03:02:39Z</time></trkpt>
<trkpt lat="36.77934011100924" lon="137.79286727978757"><ele>2523</ele><time>2024-04-07T03:03:30Z</time></trkpt>
<trkpt lat="36.77915437373381" lon="137.79286538669194"><ele>2540</ele><time>2024-04-07T03:04:18Z</time></trkpt>
<trkpt lat="36.77920023533397" lon="137.79267307736137"><ele>2535</ele><time>2024-04-07T03:05:09Z</time></trkpt>
<trkpt lat="36.77918604742282" lon="137.79247219659507"><ele>2539</ele><time>2024-04-07T03:05:48Z</time></trkpt>
<trkpt lat="36.77914197177509" lon="137.79224791714833"><ele>2545</ele><time>2024-04-07T03:06:25Z</time></trkpt>
<trkpt lat="36.779053557941154" lon="137.79204923724615"><ele>2552</ele><time>2024-04-07T03:07:07Z</time></trkpt>
<trkpt lat="36.778939210215746" lon="137.79205522543074"><ele>2558</ele><time>2024-04-07T03:08:43Z</time></trkpt>
<trkpt lat="36.778893517667285" lon="137.79192951460973"><ele>2555</ele><time>2024-04-07T03:11:10Z</time></trkpt>
<trkpt lat="36.778729657653365" lon="137.79176928633"><ele>2567</ele><time>2024-04-07T03:24:18Z</time></trkpt>
<trkpt lat="36.77861435397623" lon="137.79154746223045"><ele>2573</ele><time>2024-04-07T03:25:01Z</time></trkpt>
<trkpt lat="36.77850195141192" lon="137.79135049501923"><ele>2578</ele><time>2024-04-07T03:25:40Z</time></trkpt>
<trkpt lat="36.778403100316204" lon="137.79113625639272"><ele>2583</ele><time>2024-04-07T03:26:19Z</time></trkpt>
<trkpt lat="36.778288180937025" lon="137.79088129991268"><ele>2589</ele><time>2024-04-07T03:26:59Z</time></trkpt>
<trkpt lat="36.778163033354325" lon="137.79067516440435"><ele>2590</ele><time>2024-04-07T03:27:40Z</time></trkpt>
<trkpt lat="36.77803921260362" lon="137.79045611012802"><ele>2599</ele><time>2024-04-07T03:28:16Z</time></trkpt>
<trkpt lat="36.77798258635095" lon="137.79028404732892"><ele>2595</ele><time>2024-04-07T03:28:57Z</time></trkpt>
<trkpt lat="36.777894948650065" lon="137.78993847176386"><ele>2590</ele><time>2024-04-07T03:29:25Z</time></trkpt>
<trkpt lat="36.77763308354506" lon="137.78939956944916"><ele>2584</ele><time>2024-04-07T03:29:51Z</time></trkpt>
<trkpt lat="36.77749635132765" lon="137.7891409083303"><ele>2589</ele><time>2024-04-07T03:30:20Z</time></trkpt>
<trkpt lat="36.77740611936025" lon="137.78894791571878"><ele>2587</ele><time>2024-04-07T03:31:00Z</time></trkpt>
<trkpt lat="36.777328281725126" lon="137.78868184980868"><ele>2588</ele><time>2024-04-07T03:31:37Z</time></trkpt>
<trkpt lat="36.77728993755259" lon="137.7884828946692"><ele>2590</ele><time>2024-04-07T03:32:37Z</time></trkpt>
<trkpt lat="36.77723177802895" lon="137.7882878529453"><ele>2590</ele><time>2024-04-07T03:33:31Z</time></trkpt>
<trkpt lat="36.777218916135645" lon="137.78814034797188"><ele>2589</ele><time>2024-04-07T03:37:31Z</time></trkpt>
<trkpt lat="36.777198804004065" lon="137.7882932766085"><ele>2592</ele><time>2024-04-07T03:40:47Z</time></trkpt>
<trkpt lat="36.777207461740765" lon="137.78842877213035"><ele>2591</ele><time>2024-04-07T03:42:36Z</time></trkpt>
<trkpt lat="36.77721583958388" lon="137.7885686540575"><ele>2592</ele><time>2024-04-07T03:43:41Z</time></trkpt>
<trkpt lat="36.77705466673513" lon="137.78834325096503"><ele>2604</ele><time>2024-04-07T03:46:41Z</time></trkpt>
<trkpt lat="36.776988481933344" lon="137.78815087241895"><ele>2609</ele><time>2024-04-07T03:47:17Z</time></trkpt>
<trkpt lat="36.776905019700315" lon="137.78799228080928"><ele>2611</ele><time>2024-04-07T03:47:52Z</time></trkpt>
<trkpt lat="36.77687219345923" lon="137.7878811603346"><ele>2609</ele><time>2024-04-07T03:48:45Z</time></trkpt>
<trkpt lat="36.776810867764034" lon="137.78778947343602"><ele>2604</ele><time>2024-04-07T03:49:49Z</time></trkpt>
<trkpt lat="36.7767202913219" lon="137.78784886150677"><ele>2594</ele><time>2024-04-07T03:55:00Z</time></trkpt>
<trkpt lat="36.77662639525212" lon="137.78762071636638"><ele>2596</ele><time>2024-04-07T04:07:18Z</time></trkpt>
<trkpt lat="36.77649657447719" lon="137.7874402020364"><ele>2588</ele><time>2024-04-07T04:07:48Z</time></trkpt>
<trkpt lat="36.77627307679812" lon="137.78719289767068"><ele>2584</ele><time>2024-04-07T04:08:18Z</time></trkpt>
<trkpt lat="36.77603420812059" lon="137.78698304534444"><ele>2584</ele><time>2024-04-07T04:08:46Z</time></trkpt>
<trkpt lat="36.775956026585426" lon="137.78674656855142"><ele>2583</ele><time>2024-04-07T04:09:20Z</time></trkpt>
<trkpt lat="36.775815334956455" lon="137.78657183900424"><ele>2586</ele><time>2024-04-07T04:09:55Z</time></trkpt>
<trkpt lat="36.7757461055305" lon="137.7863342310524"><ele>2591</ele><time>2024-04-07T04:10:31Z</time></trkpt>
<trkpt lat="36.77561587776492" lon="137.78612240609135"><ele>2597</ele><time>2024-04-07T04:11:09Z</time></trkpt>
<trkpt lat="36.775492375336746" lon="137.7859399895625"><ele>2604</ele><time>2024-04-07T04:11:57Z</time></trkpt>
<trkpt lat="36.77540056729516" lon="137.7856887271779"><ele>2606</ele><time>2024-04-07T04:13:26Z</time></trkpt>
<trkpt lat="36.77519618247127" lon="137.7855250447156"><ele>2611</ele><time>2024-04-07T04:14:01Z</time></trkpt>
<trkpt lat="36.775055183075004" lon="137.78528330656394"><ele>2612</ele><time>2024-04-07T04:14:29Z</time></trkpt>
<trkpt lat="36.77493206026229" lon="137.78507434045704"><ele>2613</ele><time>2024-04-07T04:15:04Z</time></trkpt>
<trkpt lat="36.77476048707089" lon="137.78495173526707"><ele>2619</ele><time>2024-04-07T04:15:42Z</time></trkpt>
<trkpt lat="36.77455369330965" lon="137.78479213185457"><ele>2621</ele><time>2024-04-07T04:16:15Z</time></trkpt>
<trkpt lat="36.77441178675624" lon="137.78460258308337"><ele>2625</ele><time>2024-04-07T04:16:51Z</time></trkpt>
<trkpt lat="36.77429761284221" lon="137.78426645346045"><ele>2619</ele><time>2024-04-07T04:17:55Z</time></trkpt>
<trkpt lat="36.77415089432148" lon="137.7839440687861"><ele>2618</ele><time>2024-04-07T04:18:24Z</time></trkpt>
<trkpt lat="36.77400324925153" lon="137.7837843188303"><ele>2621</ele><time>2024-04-07T04:18:52Z</time></trkpt>
<trkpt lat="36.77389147438832" lon="137.7836600878684"><ele>2622</ele><time>2024-04-07T04:19:32Z</time></trkpt>
<trkpt lat="36.77377960282838" lon="137.78346644027246"><ele>2627</ele><time>2024-04-07T04:20:10Z</time></trkpt>
<trkpt lat="36.773693403097504" lon="137.7832847570326"><ele>2630</ele><time>2024-04-07T04:20:44Z</time></trkpt>
<trkpt lat="36.7736101133725" lon="137.78311862632364"><ele>2638</ele><time>2024-04-07T04:21:22Z</time></trkpt>
<trkpt lat="36.77353387352849" lon="137.7829509376455"><ele>2643</ele><time>2024-04-07T04:22:12Z</time></trkpt>
<trkpt lat="36.773457312517756" lon="137.78278031961966"><ele>2648</ele><time>2024-04-07T04:23:10Z</time></trkpt>
<trkpt lat="36.77332791065686" lon="137.78265418119284"><ele>2654</ele><time>2024-04-07T04:23:57Z</time></trkpt>
<trkpt lat="36.7731998244426" lon="137.7825616940857"><ele>2659</ele><time>2024-04-07T04:29:25Z</time></trkpt>
<trkpt lat="36.773252358786245" lon="137.78230538958385"><ele>2660</ele><time>2024-04-07T04:29:57Z</time></trkpt>
<trkpt lat="36.77316117810083" lon="137.78211548221347"><ele>2668</ele><time>2024-04-07T04:30:38Z</time></trkpt>
<trkpt lat="36.77321026115341" lon="137.78186122017271"><ele>2671</ele><time>2024-04-07T04:31:15Z</time></trkpt>
<trkpt lat="36.773138886105926" lon="137.78165941280855"><ele>2679</ele><time>2024-04-07T04:32:09Z</time></trkpt>
<trkpt lat="36.77314988428728" lon="137.78142993381795"><ele>2685</ele><time>2024-04-07T04:32:43Z</time></trkpt>
<trkpt lat="36.77311910921467" lon="137.78117128580675"><ele>2690</ele><time>2024-04-07T04:33:18Z</time></trkpt>
<trkpt lat="36.77310290823685" lon="137.7809047455115"><ele>2695</ele><time>2024-04-07T04:33:53Z</time></trkpt>
<trkpt lat="36.77310263624777" lon="137.7806438431774"><ele>2699</ele><time>2024-04-07T04:34:26Z</time></trkpt>
<trkpt lat="36.773085220830836" lon="137.78039497690648"><ele>2705</ele><time>2024-04-07T04:35:02Z</time></trkpt>
<trkpt lat="36.77310439609552" lon="137.78015603730276"><ele>2709</ele><time>2024-04-07T04:35:40Z</time></trkpt>
<trkpt lat="36.77314793568828" lon="137.77989778977224"><ele>2716</ele><time>2024-04-07T04:36:21Z</time></trkpt>
<trkpt lat="36.773218347240494" lon="137.7796567469489"><ele>2721</ele><time>2024-04-07T04:37:07Z</time></trkpt>
<trkpt lat="36.77325637278799" lon="137.7794119215727"><ele>2727</ele><time>2024-04-07T04:37:43Z</time></trkpt>
<trkpt lat="36.77323132406561" lon="137.77910980579475"><ele>2732</ele><time>2024-04-07T04:38:35Z</time></trkpt>
<trkpt lat="36.77321487193205" lon="137.77883124235524"><ele>2736</ele><time>2024-04-07T04:39:09Z</time></trkpt>
<trkpt lat="36.77324114973116" lon="137.7785537042602"><ele>2739</ele><time>2024-04-07T04:39:42Z</time></trkpt>
<trkpt lat="36.773268197687706" lon="137.77829051922444"><ele>2738</ele><time>2024-04-07T04:40:27Z</time></trkpt>
<trkpt lat="36.77332189727142" lon="137.77806337068972"><ele>2742</ele><time>2024-04-07T04:41:05Z</time></trkpt>
<trkpt lat="36.773365148264794" lon="137.77779942882466"><ele>2744</ele><time>2024-04-07T04:41:37Z</time></trkpt>
<trkpt lat="36.773389269868446" lon="137.7775634165311"><ele>2745</ele><time>2024-04-07T04:42:07Z</time></trkpt>
<trkpt lat="36.77341745537017" lon="137.777359692722"><ele>2749</ele><time>2024-04-07T04:42:46Z</time></trkpt>
<trkpt lat="36.77346927839029" lon="137.77715974491448"><ele>2754</ele><time>2024-04-07T04:43:43Z</time></trkpt>
<trkpt lat="36.773490625287344" lon="137.77691526299188"><ele>2755</ele><time>2024-04-07T04:44:28Z</time></trkpt>
<trkpt lat="36.77352803942666" lon="137.77672731605463"><ele>2757</ele><time>2024-04-07T04:44:58Z</time></trkpt>
<trkpt lat="36.77359088660354" lon="137.77647233125418"><ele>2760</ele><time>2024-04-07T04:45:33Z</time></trkpt>
<trkpt lat="36.77363727032416" lon="137.77623156570795"><ele>2764</ele><time>2024-04-07T04:46:18Z</time></trkpt>
<trkpt lat="36.773776512934" lon="137.77602437008142"><ele>2769</ele><time>2024-04-07T04:47:44Z</time></trkpt>
<trkpt lat="36.77385989872095" lon="137.77591681225087"><ele>2759</ele><time>2024-04-07T05:02:12Z</time></trkpt>
<trkpt lat="36.77378023944835" lon="137.77603721297706"><ele>2757</ele><time>2024-04-07T05:03:47Z</time></trkpt>
<trkpt lat="36.77360525871683" lon="137.77641593337245"><ele>2763</ele><time>2024-04-07T05:32:53Z</time></trkpt>
<trkpt lat="36.773472912055" lon="137.77729136743298"><ele>2756</ele><time>2024-04-07T05:33:23Z</time></trkpt>
<trkpt lat="36.77325657644215" lon="137.77856788723508"><ele>2742</ele><time>2024-04-07T05:33:47Z</time></trkpt>
<trkpt lat="36.77319228361111" lon="137.77921064169794"><ele>2733</ele><time>2024-04-07T05:34:19Z</time></trkpt>
<trkpt lat="36.773134738655116" lon="137.77995361838066"><ele>2721</ele><time>2024-04-07T05:35:47Z</time></trkpt>
<trkpt lat="36.773242992709626" lon="137.7815394013476"><ele>2685</ele><time>2024-04-07T05:36:08Z</time></trkpt>
<trkpt lat="36.773160008118" lon="137.78167601845612"><ele>2676</ele><time>2024-04-07T05:36:34Z</time></trkpt>
<trkpt lat="36.773428974296934" lon="137.78262071273397"><ele>2652</ele><time>2024-04-07T05:37:04Z</time></trkpt>
<trkpt lat="36.77317193610311" lon="137.78289823100923"><ele>2652</ele><time>2024-04-07T05:37:26Z</time></trkpt>
<trkpt lat="36.77348136058429" lon="137.78377535747933"><ele>2615</ele><time>2024-04-07T05:38:04Z</time></trkpt>
<trkpt lat="36.77355500562768" lon="137.78470453806946"><ele>2587</ele><time>2024-04-07T05:39:38Z</time></trkpt>
<trkpt lat="36.7734192880945" lon="137.785708884755"><ele>2540</ele><time>2024-04-07T05:40:06Z</time></trkpt>
<trkpt lat="36.77252720324315" lon="137.7861690329135"><ele>2470</ele><time>2024-04-07T05:41:46Z</time></trkpt>
<trkpt lat="36.7727535467426" lon="137.7868068629696"><ele>2449</ele><time>2024-04-07T05:42:25Z</time></trkpt>
<trkpt lat="36.77270160690316" lon="137.78802934477275"><ele>2386</ele><time>2024-04-07T05:43:34Z</time></trkpt>
<trkpt lat="36.77332743362756" lon="137.78954971823006"><ele>2360</ele><time>2024-04-07T05:43:56Z</time></trkpt>
<trkpt lat="36.77333240659676" lon="137.79077578819155"><ele>2348</ele><time>2024-04-07T05:44:22Z</time></trkpt>
<trkpt lat="36.77337087707405" lon="137.7911480628056"><ele>2340</ele><time>2024-04-07T05:44:44Z</time></trkpt>
<trkpt lat="36.77333451219823" lon="137.79164163063263"><ele>2325</ele><time>2024-04-07T05:45:05Z</time></trkpt>
<trkpt lat="36.77324471847721" lon="137.7916849491034"><ele>2319</ele><time>2024-04-07T05:45:55Z</time></trkpt>
<trkpt lat="36.77248986773625" lon="137.793286759998"><ele>2269</ele><time>2024-04-07T05:46:19Z</time></trkpt>
<trkpt lat="36.77245777574074" lon="137.79449516720038"><ele>2252</ele><time>2024-04-07T05:46:40Z</time></trkpt>
<trkpt lat="36.772080695304155" lon="137.79508895424334"><ele>2220</ele><time>2024-04-07T05:47:37Z</time></trkpt>
<trkpt lat="36.7723159407421" lon="137.79618259110373"><ele>2175</ele><time>2024-04-07T05:48:15Z</time></trkpt>
<trkpt lat="36.77250322262891" lon="137.7964458038954"><ele>2175</ele><time>2024-04-07T05:48:46Z</time></trkpt>
<trkpt lat="36.77250310102447" lon="137.7976560336114"><ele>2138</ele><time>2024-04-07T05:49:21Z</time></trkpt>
<trkpt lat="36.77184695896539" lon="137.79797377712543"><ele>2122</ele><time>2024-04-07T05:49:45Z</time></trkpt>
<trkpt lat="36.77162995640854" lon="137.79896389821099"><ele>2088</ele><time>2024-04-07T05:50:06Z</time></trkpt>
<trkpt lat="36.77165294826234" lon="137.79920869370414"><ele>2086</ele><time>2024-04-07T05:51:07Z</time></trkpt>
<trkpt lat="36.77133601772915" lon="137.79974548011495"><ele>2056</ele><time>2024-04-07T05:52:04Z</time></trkpt>
<trkpt lat="36.77095832106044" lon="137.80038925681433"><ele>2023</ele><time>2024-04-07T05:52:24Z</time></trkpt>
<trkpt lat="36.771135148859656" lon="137.80091697312443"><ele>2010</ele><time>2024-04-07T05:53:05Z</time></trkpt>
<trkpt lat="36.771680885919764" lon="137.8024487566689"><ele>1972</ele><time>2024-04-07T05:53:29Z</time></trkpt>
<trkpt lat="36.771611491467525" lon="137.80486743998625"><ele>1927</ele><time>2024-04-07T05:53:50Z</time></trkpt>
<trkpt lat="36.77134354626279" lon="137.80736999821212"><ele>1895</ele><time>2024-04-07T05:54:11Z</time></trkpt>
<trkpt lat="36.77155970498851" lon="137.80807785254106"><ele>1882</ele><time>2024-04-07T05:54:32Z</time></trkpt>
<trkpt lat="36.771930211474" lon="137.80956254092672"><ele>1866</ele><time>2024-04-07T05:54:53Z</time></trkpt>
<trkpt lat="36.77208293604172" lon="137.8102374855997"><ele>1862</ele><time>2024-04-07T05:55:45Z</time></trkpt>
<trkpt lat="36.77212439245919" lon="137.8104062857408"><ele>1861</ele><time>2024-04-07T06:02:27Z</time></trkpt>
<trkpt lat="36.77210242684532" lon="137.81085667871017"><ele>1865</ele><time>2024-04-07T06:03:06Z</time></trkpt>
<trkpt lat="36.772068473647195" lon="137.81136114625554"><ele>1865</ele><time>2024-04-07T06:03:32Z</time></trkpt>
<trkpt lat="36.772151885591235" lon="137.81175518983747"><ele>1863</ele><time>2024-04-07T06:04:00Z</time></trkpt>
<trkpt lat="36.77224292337342" lon="137.81210764013377"><ele>1863</ele><time>2024-04-07T06:04:28Z</time></trkpt>
<trkpt lat="36.772333024290695" lon="137.8124904178398"><ele>1866</ele><time>2024-04-07T06:04:55Z</time></trkpt>
<trkpt lat="36.77247792438285" lon="137.81294769565514"><ele>1865</ele><time>2024-04-07T06:05:24Z</time></trkpt>
<trkpt lat="36.772617821513464" lon="137.8133521612808"><ele>1868</ele><time>2024-04-07T06:05:49Z</time></trkpt>
<trkpt lat="36.77277383429005" lon="137.81369637229665"><ele>1869</ele><time>2024-04-07T06:06:15Z</time></trkpt>
<trkpt lat="36.77294306312915" lon="137.8141037369755"><ele>1870</ele><time>2024-04-07T06:06:44Z</time></trkpt>
<trkpt lat="36.773075468071156" lon="137.81451952047763"><ele>1871</ele><time>2024-04-07T06:07:07Z</time></trkpt>
<trkpt lat="36.773217383718425" lon="137.8149429979031"><ele>1870</ele><time>2024-04-07T06:07:33Z</time></trkpt>
<trkpt lat="36.773391331935045" lon="137.8156329368086"><ele>1867</ele><time>2024-04-07T06:07:58Z</time></trkpt>
<trkpt lat="36.77359925082577" lon="137.8164266490288"><ele>1863</ele><time>2024-04-07T06:08:20Z</time></trkpt>
<trkpt lat="36.77374327428352" lon="137.81694446320586"><ele>1864</ele><time>2024-04-07T06:08:43Z</time></trkpt>
<trkpt lat="36.7739657691842" lon="137.81732051654186"><ele>1863</ele><time>2024-04-07T06:09:07Z</time></trkpt>
<trkpt lat="36.774254508489655" lon="137.817698698402"><ele>1857</ele><time>2024-04-07T06:09:35Z</time></trkpt>
<trkpt lat="36.77452551272231" lon="137.81819298151365"><ele>1856</ele><time>2024-04-07T06:09:59Z</time></trkpt>
<trkpt lat="36.774404457009034" lon="137.81867742746525"><ele>1858</ele><time>2024-04-07T06:10:24Z</time></trkpt>
<trkpt lat="36.77407245974333" lon="137.81929311755334"><ele>1854</ele><time>2024-04-07T06:10:48Z</time></trkpt>
<trkpt lat="36.77395557924529" lon="137.8196179225035"><ele>1856</ele><time>2024-04-07T06:11:14Z</time></trkpt>
<trkpt lat="36.77385052676038" lon="137.82014105825277"><ele>1850</ele><time>2024-04-07T06:13:47Z</time></trkpt>
<trkpt lat="36.77379380567386" lon="137.8210420484362"><ele>1841</ele><time>2024-04-07T06:14:10Z</time></trkpt>
<trkpt lat="36.773819429297795" lon="137.82136164491303"><ele>1836</ele><time>2024-04-07T06:14:57Z</time></trkpt>
<trkpt lat="36.77377466704068" lon="137.821850609626"><ele>1829</ele><time>2024-04-07T06:16:17Z</time></trkpt>
<trkpt lat="36.77333586993071" lon="137.82197657431402"><ele>1823</ele><time>2024-04-07T06:16:40Z</time></trkpt>
<trkpt lat="36.772914038952045" lon="137.8223288551988"><ele>1802</ele><time>2024-04-07T06:17:04Z</time></trkpt>
<trkpt lat="36.77240607342795" lon="137.82308425371048"><ele>1792</ele><time>2024-04-07T06:17:26Z</time></trkpt>
<trkpt lat="36.772039722527786" lon="137.8235670162989"><ele>1778</ele><time>2024-04-07T06:17:52Z</time></trkpt>
<trkpt lat="36.771791175022514" lon="137.82432931738714"><ele>1763</ele><time>2024-04-07T06:18:32Z</time></trkpt>
<trkpt lat="36.77161389544758" lon="137.82459348192936"><ele>1757</ele><time>2024-04-07T06:18:55Z</time></trkpt>
<trkpt lat="36.7708507512172" lon="137.82443927495095"><ele>1734</ele><time>2024-04-07T06:19:30Z</time></trkpt>
<trkpt lat="36.770132272679206" lon="137.82433729914598"><ele>1716</ele><time>2024-04-07T06:19:52Z</time></trkpt>
<trkpt lat="36.77001346465609" lon="137.82479472356144"><ele>1709</ele><time>2024-04-07T06:20:19Z</time></trkpt>
<trkpt lat="36.76986000530568" lon="137.82540105138244"><ele>1689</ele><time>2024-04-07T06:21:10Z</time></trkpt>
<trkpt lat="36.769406970919114" lon="137.82586434214636"><ele>1677</ele><time>2024-04-07T06:21:32Z</time></trkpt>
<trkpt lat="36.76916706428783" lon="137.82617209026358"><ele>1663</ele><time>2024-04-07T06:22:06Z</time></trkpt>
<trkpt lat="36.76884970330125" lon="137.82618949826647"><ele>1633</ele><time>2024-04-07T06:22:33Z</time></trkpt>
<trkpt lat="36.768577891582694" lon="137.82704091759527"><ele>1622</ele><time>2024-04-07T06:22:55Z</time></trkpt>
<trkpt lat="36.76823833925503" lon="137.8276017455454"><ele>1616</ele><time>2024-04-07T06:23:17Z</time></trkpt>
<trkpt lat="36.76806313983526" lon="137.82814041262245"><ele>1612</ele><time>2024-04-07T06:23:40Z</time></trkpt>
<trkpt lat="36.76786234908261" lon="137.82858656275357"><ele>1611</ele><time>2024-04-07T06:24:08Z</time></trkpt>
<trkpt lat="36.767668373410935" lon="137.8288178789098"><ele>1610</ele><time>2024-04-07T06:24:36Z</time></trkpt>
<trkpt lat="36.76737116189843" lon="137.829009291727"><ele>1607</ele><time>2024-04-07T06:25:02Z</time></trkpt>
<trkpt lat="36.767122951854326" lon="137.82954679682854"><ele>1599</ele><time>2024-04-07T06:25:27Z</time></trkpt>
<trkpt lat="36.76701787324521" lon="137.82997989592855"><ele>1592</ele><time>2024-04-07T06:25:53Z</time></trkpt>
<trkpt lat="36.766660009723786" lon="137.83052341747825"><ele>1588</ele><time>2024-04-07T06:26:19Z</time></trkpt>
<trkpt lat="36.766351363743325" lon="137.83075566861106"><ele>1588</ele><time>2024-04-07T06:26:42Z</time></trkpt>
<trkpt lat="36.76591883156061" lon="137.83090915971934"><ele>1588</ele><time>2024-04-07T06:27:08Z</time></trkpt>
<trkpt lat="36.76565863094236" lon="137.83115036490213"><ele>1584</ele><time>2024-04-07T06:27:35Z</time></trkpt>
<trkpt lat="36.76494884857828" lon="137.83138295419934"><ele>1576</ele><time>2024-04-07T06:28:14Z</time></trkpt>
<trkpt lat="36.76437490694086" lon="137.83129919166703"><ele>1571</ele><time>2024-04-07T06:28:36Z</time></trkpt>
<trkpt lat="36.76357708618094" lon="137.83194285047273"><ele>1560</ele><time>2024-04-07T06:28:58Z</time></trkpt>
<trkpt lat="36.76271174080771" lon="137.8323541534407"><ele>1544</ele><time>2024-04-07T06:29:20Z</time></trkpt>
<trkpt lat="36.76125750707866" lon="137.83327466106647"><ele>1514</ele><time>2024-04-07T06:29:42Z</time></trkpt>
<trkpt lat="36.76002863143089" lon="137.83416415558787"><ele>1494</ele><time>2024-04-07T06:30:02Z</time></trkpt>
<trkpt lat="36.759243400202536" lon="137.8353024416912"><ele>1466</ele><time>2024-04-07T06:30:25Z</time></trkpt>
<trkpt lat="36.75859918076176" lon="137.83642595809323"><ele>1428</ele><time>2024-04-07T06:30:46Z</time></trkpt>
<trkpt lat="36.75829680225657" lon="137.8372091099479"><ele>1404</ele><time>2024-04-07T06:31:08Z</time></trkpt>
<trkpt lat="36.75756007239098" lon="137.8382964142671"><ele>1369</ele><time>2024-04-07T06:31:37Z</time></trkpt>
<trkpt lat="36.75734584759257" lon="137.8394590023975"><ele>1321</ele><time>2024-04-07T06:32:05Z</time></trkpt>
<trkpt lat="36.75727796481767" lon="137.8397402809885"><ele>1312</ele><time>2024-04-07T06:32:31Z</time></trkpt>
<trkpt lat="36.75689261787202" lon="137.84022703060103"><ele>1290</ele><time>2024-04-07T06:33:09Z</time></trkpt>
<trkpt lat="36.756039804304486" lon="137.84167029882445"><ele>1270</ele><time>2024-04-07T06:33:39Z</time></trkpt>
<trkpt lat="36.75616745044551" lon="137.8422922597682"><ele>1255</ele><time>2024-04-07T06:34:05Z</time></trkpt>
<trkpt lat="36.75616938424451" lon="137.84432319326754"><ele>1206</ele><time>2024-04-07T06:34:26Z</time></trkpt>
<trkpt lat="36.75586146381837" lon="137.84650581150098"><ele>1172</ele><time>2024-04-07T06:34:47Z</time></trkpt>
<trkpt lat="36.755274359740106" lon="137.84714762945606"><ele>1153</ele><time>2024-04-07T06:35:08Z</time></trkpt>
<trkpt lat="36.75490527253879" lon="137.84869592490404"><ele>1114</ele><time>2024-04-07T06:35:51Z</time></trkpt>
<trkpt lat="36.75420692357217" lon="137.85097793484312"><ele>1065</ele><time>2024-04-07T06:36:12Z</time></trkpt>
<trkpt lat="36.75392413410829" lon="137.85327896601527"><ele>1031</ele><time>2024-04-07T06:36:33Z</time></trkpt>
<trkpt lat="36.75364217880257" lon="137.8550652408929"><ele>1006</ele><time>2024-04-07T06:36:54Z</time></trkpt>
<trkpt lat="36.75367762144457" lon="137.85702513118395"><ele>980</ele><time>2024-04-07T06:37:15Z</time></trkpt>
<trkpt lat="36.754100635912536" lon="137.85847439691955"><ele>961</ele><time>2024-04-07T06:37:36Z</time></trkpt>
<trkpt lat="36.754077367127444" lon="137.85956129769485"><ele>957</ele><time>2024-04-07T06:37:57Z</time></trkpt>
<trkpt lat="36.75388395424262" lon="137.8601691343758"><ele>955</ele><time>2024-04-07T06:38:19Z</time></trkpt>
<trkpt lat="36.753685150543596" lon="137.86086919222322"><ele>940</ele><time>2024-04-07T06:38:43Z</time></trkpt>
<trkpt lat="36.7537096696194" lon="137.861972429163"><ele>933</ele><time>2024-04-07T06:39:04Z</time></trkpt>
<trkpt lat="36.75359538166117" lon="137.8640858321591"><ele>918</ele><time>2024-04-07T06:39:26Z</time></trkpt>
<trkpt lat="36.75335360629923" lon="137.86514202048366"><ele>910</ele><time>2024-04-07T06:39:47Z</time></trkpt>
<trkpt lat="36.752797012184615" lon="137.8661232304504"><ele>903</ele><time>2024-04-07T06:40:08Z</time></trkpt>
<trkpt lat="36.75223396340388" lon="137.86707432589617"><ele>893</ele><time>2024-04-07T06:40:30Z</time></trkpt>
<trkpt lat="36.75145041815865" lon="137.86806433171984"><ele>881</ele><time>2024-04-07T06:40:52Z</time></trkpt>
<trkpt lat="36.75090531732853" lon="137.868878246485"><ele>871</ele><time>2024-04-07T06:41:13Z</time></trkpt>
<trkpt lat="36.75015983133963" lon="137.86973129296226"><ele>859</ele><time>2024-04-07T06:41:35Z</time></trkpt>
<trkpt lat="36.74990994914853" lon="137.87066805874142"><ele>849</ele><time>2024-04-07T06:41:57Z</time></trkpt>
<trkpt lat="36.74967413282112" lon="137.87102725942404"><ele>842</ele><time>2024-04-07T06:43:36Z</time></trkpt>
<trkpt lat="36.74945592055201" lon="137.87129740245575"><ele>841</ele><time>2024-04-07T06:44:01Z</time></trkpt>
<trkpt lat="36.749213082737384" lon="137.87156044228087"><ele>833</ele><time>2024-04-07T06:44:27Z</time></trkpt>
<trkpt lat="36.748947440235575" lon="137.871679382299"><ele>842</ele><time>2024-04-07T06:44:52Z</time></trkpt>
<trkpt lat="36.7488006574102" lon="137.87159286132626"><ele>836</ele><time>2024-04-07T06:45:22Z</time></trkpt>
</trkseg>
</trk>
</gpx>