<?xml version="1.0" encoding="UTF-8"?>
<gpx xmlns:xsi="http://www.w3.org/2001/XMLSchema-instance" xmlns="http://www.topografix.com/GPX/1/1" xsi:schemaLocation="http://www.topografix.com/GPX/1/1 http://www.topografix.com/GPX/1/1/gpx.xsd" creator="Yamareco iOS 6.71 - www.yamareco.com">
<trk><name>track</name><number>1</number><trkseg>
<trkpt lat="36.80756455290765" lon="139.41762766813804"><ele>1517</ele><time>2024-02-12T01:20:40Z</time></trkpt>
<trkpt lat="36.807602507545404" lon="139.4173822297008"><ele>1529</ele><time>2024-02-12T01:25:20Z</time></trkpt>
<trkpt lat="36.80774479185139" lon="139.41716663626212"><ele>1530</ele><time>2024-02-12T01:25:55Z</time></trkpt>
<trkpt lat="36.80783816427582" lon="139.41698702680267"><ele>1530</ele><time>2024-02-12T01:27:01Z</time></trkpt>
<trkpt lat="36.807959834793195" lon="139.41688225503785"><ele>1529</ele><time>2024-02-12T01:27:34Z</time></trkpt>
<trkpt lat="36.808060937489614" lon="139.41680144412405"><ele>1524</ele><time>2024-02-12T01:29:46Z</time></trkpt>
<trkpt lat="36.80818754422512" lon="139.41664129981177"><ele>1526</ele><time>2024-02-12T01:30:20Z</time></trkpt>
<trkpt lat="36.808285118239255" lon="139.4164768812272"><ele>1533</ele><time>2024-02-12T01:30:53Z</time></trkpt>
<trkpt lat="36.80841928138171" lon="139.41625372933154"><ele>1531</ele><time>2024-02-12T01:31:22Z</time></trkpt>
<trkpt lat="36.80855077159433" lon="139.41597738348398"><ele>1534</ele><time>2024-02-12T01:31:53Z</time></trkpt>
<trkpt lat="36.80865707208669" lon="139.41591667840223"><ele>1539</ele><time>2024-02-12T01:32:22Z</time></trkpt>
<trkpt lat="36.808727763239986" lon="139.41569228715562"><ele>1548</ele><time>2024-02-12T01:33:00Z</time></trkpt>
<trkpt lat="36.8088332741806" lon="139.41543496389747"><ele>1554</ele><time>2024-02-12T01:33:34Z</time></trkpt>
<trkpt lat="36.80886818426091" lon="139.41525548526525"><ele>1555</ele><time>2024-02-12T01:34:13Z</time></trkpt>
<trkpt lat="36.80901024588015" lon="139.41509404410473"><ele>1557</ele><time>2024-02-12T01:34:42Z</time></trkpt>
<trkpt lat="36.80911861823709" lon="139.41489009974478"><ele>1560</ele><time>2024-02-12T01:35:17Z</time></trkpt>
<trkpt lat="36.80923462556203" lon="139.41469099222329"><ele>1564</ele><time>2024-02-12T01:35:56Z</time></trkpt>
<trkpt lat="36.80936250170045" lon="139.4144757320563"><ele>1568</ele><time>2024-02-12T01:36:34Z</time></trkpt>
<trkpt lat="36.809519351712744" lon="139.41434864011828"><ele>1572</ele><time>2024-02-12T01:37:11Z</time></trkpt>
<trkpt lat="36.80963671414233" lon="139.4142089173123"><ele>1571</ele><time>2024-02-12T01:37:43Z</time></trkpt>
<trkpt lat="36.80978931743589" lon="139.41419038105377"><ele>1575</ele><time>2024-02-12T01:38:19Z</time></trkpt>
<trkpt lat="36.809894425284774" lon="139.41408407349365"><ele>1580</ele><time>2024-02-12T01:38:56Z</time></trkpt>
<trkpt lat="36.80990418082364" lon="139.41382777695708"><ele>1582</ele><time>2024-02-12T01:43:18Z</time></trkpt>
<trkpt lat="36.80986101329982" lon="139.41355130799198"><ele>1583</ele><time>2024-02-12T01:43:49Z</time></trkpt>
<trkpt lat="36.80989319761385" lon="139.41327696881638"><ele>1585</ele><time>2024-02-12T01:44:20Z</time></trkpt>
<trkpt lat="36.809973025777495" lon="139.4130281793786"><ele>1584</ele><time>2024-02-12T01:44:51Z</time></trkpt>
<trkpt lat="36.810070055306184" lon="139.41275555883513"><ele>1586</ele><time>2024-02-12T01:45:22Z</time></trkpt>
<trkpt lat="36.8101186054452" lon="139.41247481998917"><ele>1586</ele><time>2024-02-12T01:45:56Z</time></trkpt>
<trkpt lat="36.81007091021702" lon="139.41217857333996"><ele>1584</ele><time>2024-02-12T01:46:26Z</time></trkpt>
<trkpt lat="36.810035025382156" lon="139.4118834467751"><ele>1584</ele><time>2024-02-12T01:46:57Z</time></trkpt>
<trkpt lat="36.810001822980325" lon="139.4116393852023"><ele>1585</ele><time>2024-02-12T01:47:32Z</time></trkpt>
<trkpt lat="36.80995035699075" lon="139.41138061504475"><ele>1588</ele><time>2024-02-12T01:48:03Z</time></trkpt>
<trkpt lat="36.80995786160721" lon="139.41114195546012"><ele>1590</ele><time>2024-02-12T01:48:37Z</time></trkpt>
<trkpt lat="36.810056864418605" lon="139.41088777233645"><ele>1597</ele><time>2024-02-12T01:49:12Z</time></trkpt>
<trkpt lat="36.810090318862706" lon="139.41063975720735"><ele>1602</ele><time>2024-02-12T01:49:45Z</time></trkpt>
<trkpt lat="36.810105544252146" lon="139.41033509973516"><ele>1603</ele><time>2024-02-12T01:50:19Z</time></trkpt>
<trkpt lat="36.81006654302695" lon="139.41005755444291"><ele>1606</ele><time>2024-02-12T01:50:48Z</time></trkpt>
<trkpt lat="36.81021326565754" lon="139.40989451078835"><ele>1606</ele><time>2024-02-12T01:51:53Z</time></trkpt>
<trkpt lat="36.81027135693613" lon="139.40962514416535"><ele>1607</ele><time>2024-02-12T01:52:26Z</time></trkpt>
<trkpt lat="36.810268013974714" lon="139.40930539674153"><ele>1613</ele><time>2024-02-12T01:53:07Z</time></trkpt>
<trkpt lat="36.81055277263213" lon="139.40923688595998"><ele>1613</ele><time>2024-02-12T01:53:46Z</time></trkpt>
<trkpt lat="36.81075482626625" lon="139.40937048265235"><ele>1616</ele><time>2024-02-12T01:54:12Z</time></trkpt>
<trkpt lat="36.81084668893447" lon="139.40965562983635"><ele>1617</ele><time>2024-02-12T01:54:46Z</time></trkpt>
<trkpt lat="36.8110106599256" lon="139.40956409487237"><ele>1620</ele><time>2024-02-12T01:55:18Z</time></trkpt>
<trkpt lat="36.811080615300234" lon="139.40946653678094"><ele>1625</ele><time>2024-02-12T01:56:52Z</time></trkpt>
<trkpt lat="36.81113868461218" lon="139.40934795368392"><ele>1627</ele><time>2024-02-12T01:58:05Z</time></trkpt>
<trkpt lat="36.81124358264391" lon="139.40914219179763"><ele>1627</ele><time>2024-02-12T01:58:38Z</time></trkpt>
<trkpt lat="36.8113637656686" lon="139.4089170141273"><ele>1633</ele><time>2024-02-12T01:59:11Z</time></trkpt>
<trkpt lat="36.811379633279394" lon="139.40865890552172"><ele>1634</ele><time>2024-02-12T01:59:41Z</time></trkpt>
<trkpt lat="36.811342218920196" lon="139.4084476460394"><ele>1634</ele><time>2024-02-12T02:00:18Z</time></trkpt>
<trkpt lat="36.81133004682288" lon="139.40815313362037"><ele>1633</ele><time>2024-02-12T02:01:07Z</time></trkpt>
<trkpt lat="36.81127867060106" lon="139.40785786269515"><ele>1635</ele><time>2024-02-12T02:01:37Z</time></trkpt>
<trkpt lat="36.81130272390622" lon="139.4075583522899"><ele>1638</ele><time>2024-02-12T02:02:13Z</time></trkpt>
<trkpt lat="36.811278888383505" lon="139.4073019953179"><ele>1638</ele><time>2024-02-12T02:02:47Z</time></trkpt>
<trkpt lat="36.811260265426235" lon="139.4070033221127"><ele>1643</ele><time>2024-02-12T02:03:23Z</time></trkpt>
<trkpt lat="36.81146719605488" lon="139.40685057296614"><ele>1649</ele><time>2024-02-12T02:03:53Z</time></trkpt>
<trkpt lat="36.81168008688989" lon="139.40690186978216"><ele>1646</ele><time>2024-02-12T02:04:26Z</time></trkpt>
<trkpt lat="36.81176199093359" lon="139.40664906495957"><ele>1652</ele><time>2024-02-12T02:04:58Z</time></trkpt>
<trkpt lat="36.8115391821378" lon="139.40651899326087"><ele>1656</ele><time>2024-02-12T02:05:34Z</time></trkpt>
<trkpt lat="36.81137384811068" lon="139.40630112504743"><ele>1657</ele><time>2024-02-12T02:06:05Z</time></trkpt>
<trkpt lat="36.811551109465064" lon="139.40616246906163"><ele>1658</ele><time>2024-02-12T02:06:40Z</time></trkpt>
<trkpt lat="36.811777066870235" lon="139.40612209016928"><ele>1657</ele><time>2024-02-12T02:07:09Z</time></trkpt>
<trkpt lat="36.81200300074591" lon="139.40607810696403"><ele>1660</ele><time>2024-02-12T02:07:37Z</time></trkpt>
<trkpt lat="36.81219043777895" lon="139.40596072656444"><ele>1663</ele><time>2024-02-12T02:08:26Z</time></trkpt>
<trkpt lat="36.81214976663856" lon="139.4057272867768"><ele>1667</ele><time>2024-02-12T02:08:57Z</time></trkpt>
<trkpt lat="36.81206486419133" lon="139.4056553977294"><ele>1668</ele><time>2024-02-12T02:09:29Z</time></trkpt>
<trkpt lat="36.81210453066599" lon="139.40544437587957"><ele>1669</ele><time>2024-02-12T02:10:44Z</time></trkpt>
<trkpt lat="36.81212641625279" lon="139.40526077546372"><ele>1674</ele><time>2024-02-12T02:11:25Z</time></trkpt>
<trkpt lat="36.81233750102799" lon="139.40518127317387"><ele>1676</ele><time>2024-02-12T02:11:56Z</time></trkpt>
<trkpt lat="36.81221975905841" lon="139.4049691072458"><ele>1676</ele><time>2024-02-12T02:12:32Z</time></trkpt>
<trkpt lat="36.812045183165544" lon="139.40481809351314"><ele>1677</ele><time>2024-02-12T02:13:08Z</time></trkpt>
<trkpt lat="36.812171517522195" lon="139.40465913035155"><ele>1680</ele><time>2024-02-12T02:15:06Z</time></trkpt>
<trkpt lat="36.81235636621696" lon="139.404652316331"><ele>1683</ele><time>2024-02-12T02:15:38Z</time></trkpt>
<trkpt lat="36.812565884732614" lon="139.40469781880287"><ele>1686</ele><time>2024-02-12T02:16:08Z</time></trkpt>
<trkpt lat="36.81260454144795" lon="139.40445804892414"><ele>1689</ele><time>2024-02-12T02:16:40Z</time></trkpt>
<trkpt lat="36.81267394409554" lon="139.40419166194445"><ele>1691</ele><time>2024-02-12T02:17:14Z</time></trkpt>
<trkpt lat="36.81260195216931" lon="139.40403963942038"><ele>1691</ele><time>2024-02-12T02:18:16Z</time></trkpt>
<trkpt lat="36.81244042641291" lon="139.4037720679959"><ele>1692</ele><time>2024-02-12T02:18:50Z</time></trkpt>
<trkpt lat="36.81229948317872" lon="139.40351149605198"><ele>1698</ele><time>2024-02-12T02:19:22Z</time></trkpt>
<trkpt lat="36.81219094147289" lon="139.40348657887796"><ele>1704</ele><time>2024-02-12T02:19:52Z</time></trkpt>
<trkpt lat="36.81221570077532" lon="139.40336476395368"><ele>1705</ele><time>2024-02-12T02:21:41Z</time></trkpt>
<trkpt lat="36.812184445214726" lon="139.40351038535252"><ele>1700</ele><time>2024-02-12T02:28:21Z</time></trkpt>
<trkpt lat="36.81192065951981" lon="139.40377232057972"><ele>1700</ele><time>2024-02-12T02:40:43Z</time></trkpt>
<trkpt lat="36.81179961277807" lon="139.40406682303652"><ele>1691</ele><time>2024-02-12T02:41:12Z</time></trkpt>
<trkpt lat="36.81166355105866" lon="139.40424385266917"><ele>1687</ele><time>2024-02-12T02:41:58Z</time></trkpt>
<trkpt lat="36.81154953820311" lon="139.40432530376577"><ele>1681</ele><time>2024-02-12T02:43:22Z</time></trkpt>
<trkpt lat="36.811271755844295" lon="139.40500150097932"><ele>1675</ele><time>2024-02-12T02:43:45Z</time></trkpt>
<trkpt lat="36.810962282979176" lon="139.40564814028795"><ele>1671</ele><time>2024-02-12T02:44:08Z</time></trkpt>
<trkpt lat="36.810911535017176" lon="139.40596980540948"><ele>1661</ele><time>2024-02-12T02:44:46Z</time></trkpt>
<trkpt lat="36.81094829149521" lon="139.40624981053796"><ele>1653</ele><time>2024-02-12T02:45:11Z</time></trkpt>
<trkpt lat="36.81092868667818" lon="139.40657248259237"><ele>1648</ele><time>2024-02-12T02:46:15Z</time></trkpt>
<trkpt lat="36.81079400030813" lon="139.40641944513652"><ele>1650</ele><time>2024-02-12T02:48:06Z</time></trkpt>
<trkpt lat="36.81045747629191" lon="139.40707609192032"><ele>1641</ele><time>2024-02-12T02:50:30Z</time></trkpt>
<trkpt lat="36.810052457904234" lon="139.40762600691292"><ele>1630</ele><time>2024-02-12T02:51:04Z</time></trkpt>
<trkpt lat="36.80998708684693" lon="139.4080032397542"><ele>1620</ele><time>2024-02-12T02:51:26Z</time></trkpt>
<trkpt lat="36.80991745841235" lon="139.40843785780967"><ele>1619</ele><time>2024-02-12T02:51:49Z</time></trkpt>
<trkpt lat="36.809692728604624" lon="139.409035675051"><ele>1609</ele><time>2024-02-12T02:52:19Z</time></trkpt>
<trkpt lat="36.80947752686133" lon="139.40943262431878"><ele>1604</ele><time>2024-02-12T02:52:53Z</time></trkpt>
<trkpt lat="36.809000938238825" lon="139.4098319437007"><ele>1594</ele><time>2024-02-12T02:53:17Z</time></trkpt>
<trkpt lat="36.80835512634187" lon="139.41026169829192"><ele>1582</ele><time>2024-02-12T02:54:15Z</time></trkpt>
<trkpt lat="36.80788349402486" lon="139.41088383085625"><ele>1570</ele><time>2024-02-12T02:54:39Z</time></trkpt>
<trkpt lat="36.80777592689654" lon="139.411213609659"><ele>1573</ele><time>2024-02-12T03:00:15Z</time></trkpt>
<trkpt lat="36.80772886819048" lon="139.41153312929006"><ele>1571</ele><time>2024-02-12T03:00:55Z</time></trkpt>
<trkpt lat="36.80775923020543" lon="139.41214662443443"><ele>1566</ele><time>2024-02-12T03:01:22Z</time></trkpt>
<trkpt lat="36.80783358623233" lon="139.41243089767994"><ele>1561</ele><time>2024-02-12T03:01:54Z</time></trkpt>
<trkpt lat="36.80797903037043" lon="139.41269066507414"><ele>1564</ele><time>2024-02-12T03:02:31Z</time></trkpt>
<trkpt lat="36.80810434095341" lon="139.41319022885264"><ele>1559</ele><time>2024-02-12T03:03:11Z</time></trkpt>
<trkpt lat="36.80812045636978" lon="139.41377995995325"><ele>1549</ele><time>2024-02-12T03:03:36Z</time></trkpt>
<trkpt lat="36.807925690609466" lon="139.41441574857683"><ele>1544</ele><time>2024-02-12T03:04:03Z</time></trkpt>
<trkpt lat="36.80813944166596" lon="139.41451752414892"><ele>1547</ele><time>2024-02-12T03:04:37Z</time></trkpt>
<trkpt lat="36.80813114380032" lon="139.4147407295597"><ele>1542</ele><time>2024-02-12T03:06:03Z</time></trkpt>
<trkpt lat="36.808184105418135" lon="139.41513999451854"><ele>1537</ele><time>2024-02-12T03:06:26Z</time></trkpt>
<trkpt lat="36.807997617979" lon="139.41597621322393"><ele>1529</ele><time>2024-02-12T03:06:49Z</time></trkpt>
<trkpt lat="36.807741986569994" lon="139.41687190022617"><ele>1525</ele><time>2024-02-12T03:07:11Z</time></trkpt>
<trkpt lat="36.80751405551319" lon="139.41764748723034"><ele>1522</ele><time>2024-02-12T03:07:34Z</time></trkpt>
<trkpt lat="36.807365382725926" lon="139.41802870227167"><ele>1517</ele><time>2024-02-12T03:07:55Z</time></trkpt>
<trkpt lat="36.807282903194164" lon="139.41837957087358"><ele>1512</ele><time>2024-02-12T03:08:21Z</time></trkpt>
<trkpt lat="36.80724952905118" lon="139.41864778887762"><ele>1504</ele><time>2024-02-12T03:08:59Z</time></trkpt>
<trkpt lat="36.807186109910425" lon="139.41899758610947"><ele>1509</ele><time>2024-02-12T03:12:35Z</time></trkpt>
<trkpt lat="36.807126415401356" lon="139.4193035028265"><ele>1508</ele><time>2024-02-12T03:13:07Z</time></trkpt>
<trkpt lat="36.80710996922499" lon="139.41964972316913"><ele>1508</ele><time>2024-02-12T03:13:37Z</time></trkpt>
<trkpt lat="36.80709761453485" lon="139.42001077956772"><ele>1507</ele><time>2024-02-12T03:14:04Z</time></trkpt>
<trkpt lat="36.80706768798142" lon="139.42038027687875"><ele>1505</ele><time>2024-02-12T03:14:36Z</time></trkpt>
<trkpt lat="36.80702640802668" lon="139.42068895156524"><ele>1500</ele><time>2024-02-12T03:15:04Z</time></trkpt>
<trkpt lat="36.80695168614285" lon="139.4210445408929"><ele>1501</ele><time>2024-02-12T03:15:32Z</time></trkpt>
<trkpt lat="36.806943997113535" lon="139.42139643725784"><ele>1500</ele><time>2024-02-12T03:16:05Z</time></trkpt>
<trkpt lat="36.8069575904723" lon="139.42174065986225"><ele>1495</ele><time>2024-02-12T03:16:34Z</time></trkpt>
<trkpt lat="36.806935167568845" lon="139.42212789471932"><ele>1492</ele><time>2024-02-12T03:17:03Z</time></trkpt>
<trkpt lat="36.8069231801687" lon="139.42249085978617"><ele>1492</ele><time>2024-02-12T03:17:29Z</time></trkpt>
<trkpt lat="36.806895728885145" lon="139.4226241534826"><ele>1492</ele><time>2024-02-12T03:17:59Z</time></trkpt>
<trkpt lat="36.80667787885135" lon="139.42277061305597"><ele>1491</ele><time>2024-02-12T03:18:28Z</time></trkpt>
<trkpt lat="36.806402344545326" lon="139.42281752471953"><ele>1490</ele><time>2024-02-12T03:18:55Z</time></trkpt>
<trkpt lat="36.8061322961019" lon="139.42289836062002"><ele>1491</ele><time>2024-02-12T03:19:23Z</time></trkpt>
<trkpt lat="36.805861678311196" lon="139.4229722267705"><ele>1490</ele><time>2024-02-12T03:19:49Z</time></trkpt>
<trkpt lat="36.80555067382908" lon="139.42305436497554"><ele>1492</ele><time>2024-02-12T03:20:17Z</time></trkpt>
<trkpt lat="36.80529462720685" lon="139.4232072361291"><ele>1493</ele><time>2024-02-12T03:20:44Z</time></trkpt>
<trkpt lat="36.80530067928953" lon="139.42334479993272"><ele>1491</ele><time>2024-02-12T03:21:21Z</time></trkpt>
<trkpt lat="36.805320294992875" lon="139.42339815676544"><ele>1492</ele><time>2024-02-12T03:24:30Z</time></trkpt>
</trkseg>
</trk>
<trk><name>track</name><number>2</number><trkseg>
<trkpt lat="36.805637134273354" lon="139.42332719465662"><ele>1481</ele><time>2024-02-12T04:34:50Z</time></trkpt>
<trkpt lat="36.80578542300794" lon="139.42371511184493"><ele>1484</ele><time>2024-02-12T04:35:17Z</time></trkpt>
<trkpt lat="36.80584382099509" lon="139.42408674069276"><ele>1484</ele><time>2024-02-12T04:35:43Z</time></trkpt>
<trkpt lat="36.80592263359146" lon="139.42446409503015"><ele>1483</ele><time>2024-02-12T04:36:09Z</time></trkpt>
<trkpt lat="36.806028391541375" lon="139.4248883934276"><ele>1481</ele><time>2024-02-12T04:36:37Z</time></trkpt>
<trkpt lat="36.80610187552382" lon="139.42524050165483"><ele>1484</ele><time>2024-02-12T04:37:04Z</time></trkpt>
<trkpt lat="36.80634335005764" lon="139.42527331478453"><ele>1482</ele><time>2024-02-12T04:37:30Z</time></trkpt>
<trkpt lat="36.806663289598895" lon="139.4251736080458"><ele>1484</ele><time>2024-02-12T04:37:57Z</time></trkpt>
<trkpt lat="36.80698399162394" lon="139.42516438100876"><ele>1479</ele><time>2024-02-12T04:38:23Z</time></trkpt>
<trkpt lat="36.80729375579967" lon="139.42517588430368"><ele>1487</ele><time>2024-02-12T04:38:48Z</time></trkpt>
<trkpt lat="36.80758119260832" lon="139.42515209796542"><ele>1484</ele><time>2024-02-12T04:39:15Z</time></trkpt>
<trkpt lat="36.807888286920594" lon="139.42514283050562"><ele>1486</ele><time>2024-02-12T04:39:44Z</time></trkpt>
<trkpt lat="36.80818243050726" lon="139.4250591226529"><ele>1493</ele><time>2024-02-12T04:40:11Z</time></trkpt>
<trkpt lat="36.80831588330138" lon="139.42502628342777"><ele>1492</ele><time>2024-02-12T04:40:44Z</time></trkpt>
<trkpt lat="36.80854382905748" lon="139.42511569797318"><ele>1489</ele><time>2024-02-12T04:41:21Z</time></trkpt>
<trkpt lat="36.80868239486972" lon="139.42509017876003"><ele>1495</ele><time>2024-02-12T04:42:00Z</time></trkpt>
<trkpt lat="36.808908037340544" lon="139.42501731409934"><ele>1496</ele><time>2024-02-12T04:42:28Z</time></trkpt>
<trkpt lat="36.80904200115251" lon="139.42498206560995"><ele>1500</ele><time>2024-02-12T04:42:58Z</time></trkpt>
<trkpt lat="36.809233071539914" lon="139.42485899910596"><ele>1501</ele><time>2024-02-12T04:43:32Z</time></trkpt>
<trkpt lat="36.80923934166464" lon="139.42503571241474"><ele>1512</ele><time>2024-02-12T04:44:20Z</time></trkpt>
<trkpt lat="36.80925997504813" lon="139.42517783547737"><ele>1514</ele><time>2024-02-12T04:44:57Z</time></trkpt>
<trkpt lat="36.809403582949216" lon="139.42513501960656"><ele>1518</ele><time>2024-02-12T04:45:26Z</time></trkpt>
<trkpt lat="36.80944765662751" lon="139.4253975393472"><ele>1525</ele><time>2024-02-12T04:46:10Z</time></trkpt>
<trkpt lat="36.809558893125704" lon="139.42523909668097"><ele>1531</ele><time>2024-02-12T04:46:51Z</time></trkpt>
<trkpt lat="36.809507004435005" lon="139.42550841451845"><ele>1537</ele><time>2024-02-12T04:47:20Z</time></trkpt>
<trkpt lat="36.809538733796195" lon="139.42570748114616"><ele>1538</ele><time>2024-02-12T04:47:55Z</time></trkpt>
<trkpt lat="36.80957253385983" lon="139.42551414019135"><ele>1545</ele><time>2024-02-12T04:48:42Z</time></trkpt>
<trkpt lat="36.80964732935062" lon="139.4257512404728"><ele>1548</ele><time>2024-02-12T04:50:33Z</time></trkpt>
<trkpt lat="36.80970906362082" lon="139.42551861004978"><ele>1549</ele><time>2024-02-12T04:50:59Z</time></trkpt>
<trkpt lat="36.809871327474156" lon="139.42570185096582"><ele>1551</ele><time>2024-02-12T04:51:27Z</time></trkpt>
<trkpt lat="36.81000516741817" lon="139.4257012569495"><ele>1556</ele><time>2024-02-12T04:51:58Z</time></trkpt>
<trkpt lat="36.81014026195363" lon="139.42559771839203"><ele>1556</ele><time>2024-02-12T04:59:51Z</time></trkpt>
<trkpt lat="36.810250116222186" lon="139.42555649149386"><ele>1557</ele><time>2024-02-12T05:01:21Z</time></trkpt>
<trkpt lat="36.81044719990221" lon="139.42526804254905"><ele>1549</ele><time>2024-02-12T05:02:27Z</time></trkpt>
<trkpt lat="36.810325831471566" lon="139.42522227980317"><ele>1548</ele><time>2024-02-12T05:03:17Z</time></trkpt>
<trkpt lat="36.81038745236744" lon="139.42492246440273"><ele>1541</ele><time>2024-02-12T05:04:39Z</time></trkpt>
<trkpt lat="36.810464978375805" lon="139.42481806298449"><ele>1543</ele><time>2024-02-12T05:05:08Z</time></trkpt>
<trkpt lat="36.81077268673541" lon="139.42463079184222"><ele>1542</ele><time>2024-02-12T05:05:39Z</time></trkpt>
<trkpt lat="36.81110621277557" lon="139.42472498665833"><ele>1535</ele><time>2024-02-12T05:06:07Z</time></trkpt>
<trkpt lat="36.811333831781916" lon="139.4249378768999"><ele>1538</ele><time>2024-02-12T05:06:48Z</time></trkpt>
<trkpt lat="36.811493098611265" lon="139.42502793366097"><ele>1547</ele><time>2024-02-12T05:07:47Z</time></trkpt>
<trkpt lat="36.8116191830869" lon="139.42493250790835"><ele>1549</ele><time>2024-02-12T05:08:29Z</time></trkpt>
<trkpt lat="36.811761888433985" lon="139.42474374220447"><ele>1542</ele><time>2024-02-12T05:09:01Z</time></trkpt>
<trkpt lat="36.8118224266394" lon="139.4243399160038"><ele>1536</ele><time>2024-02-12T05:09:34Z</time></trkpt>
<trkpt lat="36.8118203490371" lon="139.4244980164126"><ele>1537</ele><time>2024-02-12T05:20:35Z</time></trkpt>
<trkpt lat="36.8117315410945" lon="139.4246401105074"><ele>1540</ele><time>2024-02-12T05:21:09Z</time></trkpt>
<trkpt lat="36.81176677568572" lon="139.42486445827325"><ele>1544</ele><time>2024-02-12T05:22:04Z</time></trkpt>
<trkpt lat="36.8115561591631" lon="139.42497473162675"><ele>1544</ele><time>2024-02-12T05:22:31Z</time></trkpt>
<trkpt lat="36.81126140438298" lon="139.42477870347793"><ele>1545</ele><time>2024-02-12T05:23:01Z</time></trkpt>
<trkpt lat="36.810979024404425" lon="139.4246757295315"><ele>1538</ele><time>2024-02-12T05:23:28Z</time></trkpt>
<trkpt lat="36.81073983567514" lon="139.42462742660243"><ele>1538</ele><time>2024-02-12T05:24:01Z</time></trkpt>
<trkpt lat="36.8106594749075" lon="139.42483261315655"><ele>1540</ele><time>2024-02-12T05:24:51Z</time></trkpt>
<trkpt lat="36.810530583809644" lon="139.42497006959255"><ele>1540</ele><time>2024-02-12T05:25:39Z</time></trkpt>
<trkpt lat="36.81069404373131" lon="139.42497631284635"><ele>1542</ele><time>2024-02-12T05:26:22Z</time></trkpt>
<trkpt lat="36.810624409892924" lon="139.4251361302049"><ele>1546</ele><time>2024-02-12T05:27:32Z</time></trkpt>
<trkpt lat="36.810490102215546" lon="139.4253637064035"><ele>1554</ele><time>2024-02-12T05:28:04Z</time></trkpt>
<trkpt lat="36.81036288125525" lon="139.42548857874706"><ele>1557</ele><time>2024-02-12T05:28:37Z</time></trkpt>
<trkpt lat="36.81023982843155" lon="139.42558698171717"><ele>1563</ele><time>2024-02-12T05:29:17Z</time></trkpt>
<trkpt lat="36.810031701735774" lon="139.42560331976546"><ele>1560</ele><time>2024-02-12T05:30:20Z</time></trkpt>
<trkpt lat="36.80994157849232" lon="139.42565752658092"><ele>1558</ele><time>2024-02-12T05:30:57Z</time></trkpt>
<trkpt lat="36.80952488177651" lon="139.4261386512981"><ele>1551</ele><time>2024-02-12T05:39:46Z</time></trkpt>
<trkpt lat="36.80894378620202" lon="139.42638318058593"><ele>1551</ele><time>2024-02-12T05:40:09Z</time></trkpt>
<trkpt lat="36.80838986880345" lon="139.4264566418538"><ele>1546</ele><time>2024-02-12T05:40:32Z</time></trkpt>
<trkpt lat="36.80782437943158" lon="139.4264806051929"><ele>1539</ele><time>2024-02-12T05:40:55Z</time></trkpt>
<trkpt lat="36.80734989298131" lon="139.42658191459316"><ele>1541</ele><time>2024-02-12T05:41:20Z</time></trkpt>
<trkpt lat="36.80696526570936" lon="139.42659687590879"><ele>1541</ele><time>2024-02-12T05:41:59Z</time></trkpt>
<trkpt lat="36.80616371379286" lon="139.4266756241651"><ele>1533</ele><time>2024-02-12T05:42:24Z</time></trkpt>
<trkpt lat="36.805775823194246" lon="139.4266505884714"><ele>1524</ele><time>2024-02-12T05:42:46Z</time></trkpt>
<trkpt lat="36.804696288984175" lon="139.42699621772346"><ele>1516</ele><time>2024-02-12T05:43:51Z</time></trkpt>
<trkpt lat="36.80392547240416" lon="139.42734567074424"><ele>1506</ele><time>2024-02-12T05:44:13Z</time></trkpt>
<trkpt lat="36.80319773164594" lon="139.42675993246962"><ele>1495</ele><time>2024-02-12T05:44:36Z</time></trkpt>
<trkpt lat="36.802679492867206" lon="139.426368780755"><ele>1487</ele><time>2024-02-12T05:44:59Z</time></trkpt>
<trkpt lat="36.802010201379474" lon="139.42658924360455"><ele>1483</ele><time>2024-02-12T05:45:21Z</time></trkpt>
<trkpt lat="36.80191473970791" lon="139.42671515599818"><ele>1487</ele><time>2024-02-12T05:46:12Z</time></trkpt>
<trkpt lat="36.80185350432571" lon="139.42657040399928"><ele>1489</ele><time>2024-02-12T05:50:38Z</time></trkpt>
<trkpt lat="36.80196055554193" lon="139.42626495567254"><ele>1482</ele><time>2024-02-12T05:51:12Z</time></trkpt>
<trkpt lat="36.80220952824467" lon="139.42609071940268"><ele>1484</ele><time>2024-02-12T05:52:15Z</time></trkpt>
<trkpt lat="36.80244643725837" lon="139.42594449005938"><ele>1486</ele><time>2024-02-12T05:52:50Z</time></trkpt>
<trkpt lat="36.802740869708956" lon="139.4259146632423"><ele>1486</ele><time>2024-02-12T05:53:17Z</time></trkpt>
<trkpt lat="36.803008522591405" lon="139.42594328140763"><ele>1486</ele><time>2024-02-12T05:53:44Z</time></trkpt>
<trkpt lat="36.80328167861224" lon="139.42600710204243"><ele>1488</ele><time>2024-02-12T05:54:12Z</time></trkpt>
<trkpt lat="36.8035591706255" lon="139.4260890204819"><ele>1489</ele><time>2024-02-12T05:54:39Z</time></trkpt>
<trkpt lat="36.80380874610447" lon="139.42621722142357"><ele>1491</ele><time>2024-02-12T05:55:05Z</time></trkpt>
<trkpt lat="36.804054247775944" lon="139.42645474173338"><ele>1496</ele><time>2024-02-12T05:55:34Z</time></trkpt>
<trkpt lat="36.80434181112854" lon="139.42654662039098"><ele>1492</ele><time>2024-02-12T05:56:02Z</time></trkpt>
<trkpt lat="36.80450052926269" lon="139.42646312941162"><ele>1487</ele><time>2024-02-12T05:56:32Z</time></trkpt>
<trkpt lat="36.804862199011104" lon="139.4263293979772"><ele>1483</ele><time>2024-02-12T05:57:27Z</time></trkpt>
<trkpt lat="36.80497310586349" lon="139.42598488114038"><ele>1482</ele><time>2024-02-12T05:58:01Z</time></trkpt>
<trkpt lat="36.804913086577464" lon="139.42574864230943"><ele>1480</ele><time>2024-02-12T05:59:46Z</time></trkpt>
<trkpt lat="36.80460949922271" lon="139.42528376736962"><ele>1481</ele><time>2024-02-12T06:01:57Z</time></trkpt>
<trkpt lat="36.804531473834835" lon="139.42510253665375"><ele>1480</ele><time>2024-02-12T06:02:46Z</time></trkpt>
<trkpt lat="36.80432330686178" lon="139.42468698251054"><ele>1479</ele><time>2024-02-12T06:03:17Z</time></trkpt>
<trkpt lat="36.80425257195571" lon="139.4242091485482"><ele>1481</ele><time>2024-02-12T06:03:46Z</time></trkpt>
<trkpt lat="36.8044002276088" lon="139.42416049743176"><ele>1478</ele><time>2024-02-12T06:04:22Z</time></trkpt>
<trkpt lat="36.80467412375817" lon="139.4241890077808"><ele>1485</ele><time>2024-02-12T06:05:40Z</time></trkpt>
<trkpt lat="36.804822768408336" lon="139.42372597314048"><ele>1482</ele><time>2024-02-12T06:06:20Z</time></trkpt>
<trkpt lat="36.80500090743244" lon="139.42352203935323"><ele>1487</ele><time>2024-02-12T06:06:43Z</time></trkpt>
<trkpt lat="36.805186292862345" lon="139.42339433399354"><ele>1487</ele><time>2024-02-12T06:07:19Z</time></trkpt>
<trkpt lat="36.80531151430393" lon="139.42336518593024"><ele>1485</ele><time>2024-02-12T06:07:49Z</time></trkpt>
<trkpt lat="36.80533358178377" lon="139.42328217563417"><ele>1484</ele><time>2024-02-12T06:26:00Z</time></trkpt>
</trkseg>
</trk>
</gpx>