<?xml version="1.0" encoding="UTF-8"?>
<gpx xmlns:xsi="http://www.w3.org/2001/XMLSchema-instance" xmlns="http://www.topografix.com/GPX/1/1" xsi:schemaLocation="http://www.topografix.com/GPX/1/1 http://www.topografix.com/GPX/1/1/gpx.xsd" creator="Yamareco iOS 6.73 - www.yamareco.com">
<trk><name>track</name><number>1</number><trkseg>
<trkpt lat="37.6331502059825" lon="140.06994945010177"><ele>901</ele><time>2024-02-17T01:17:36Z</time></trkpt>
<trkpt lat="37.63298553039249" lon="140.06987807529882"><ele>905</ele><time>2024-02-17T01:29:09Z</time></trkpt>
<trkpt lat="37.63287762258728" lon="140.06963143721282"><ele>909</ele><time>2024-02-17T01:33:01Z</time></trkpt>
<trkpt lat="37.63283197453859" lon="140.06933021930874"><ele>908</ele><time>2024-02-17T01:33:35Z</time></trkpt>
<trkpt lat="37.6328749399359" lon="140.0690482599078"><ele>910</ele><time>2024-02-17T01:34:07Z</time></trkpt>
<trkpt lat="37.63292757263729" lon="140.06885869578454"><ele>912</ele><time>2024-02-17T01:35:01Z</time></trkpt>
<trkpt lat="37.63278113294891" lon="140.06885166837398"><ele>913</ele><time>2024-02-17T01:36:31Z</time></trkpt>
<trkpt lat="37.63270659187285" lon="140.06877112920876"><ele>919</ele><time>2024-02-17T01:38:13Z</time></trkpt>
<trkpt lat="37.63262023619449" lon="140.06857568993672"><ele>925</ele><time>2024-02-17T01:38:52Z</time></trkpt>
<trkpt lat="37.6324635692184" lon="140.06857557640268"><ele>930</ele><time>2024-02-17T01:39:38Z</time></trkpt>
<trkpt lat="37.6323644865974" lon="140.0685032078925"><ele>934</ele><time>2024-02-17T01:40:46Z</time></trkpt>
<trkpt lat="37.63227049127032" lon="140.06850344113607"><ele>931</ele><time>2024-02-17T01:46:25Z</time></trkpt>
<trkpt lat="37.632005222708045" lon="140.06839003345448"><ele>935</ele><time>2024-02-17T01:47:04Z</time></trkpt>
<trkpt lat="37.63188374478823" lon="140.06834885751877"><ele>942</ele><time>2024-02-17T01:47:47Z</time></trkpt>
<trkpt lat="37.63175673458982" lon="140.06813111714607"><ele>938</ele><time>2024-02-17T01:49:57Z</time></trkpt>
<trkpt lat="37.63161251513701" lon="140.06863313387743"><ele>930</ele><time>2024-02-17T01:59:04Z</time></trkpt>
<trkpt lat="37.631691411892305" lon="140.06908542652585"><ele>920</ele><time>2024-02-17T01:59:27Z</time></trkpt>
<trkpt lat="37.6316615634079" lon="140.06986681796207"><ele>917</ele><time>2024-02-17T01:59:48Z</time></trkpt>
<trkpt lat="37.63152978133924" lon="140.06979990414322"><ele>919</ele><time>2024-02-17T02:11:14Z</time></trkpt>
<trkpt lat="37.63135040965474" lon="140.0697889690732"><ele>926</ele><time>2024-02-17T02:12:00Z</time></trkpt>
<trkpt lat="37.631157211984856" lon="140.06975605068598"><ele>933</ele><time>2024-02-17T02:12:36Z</time></trkpt>
<trkpt lat="37.63101661291884" lon="140.06978915718236"><ele>938</ele><time>2024-02-17T02:13:16Z</time></trkpt>
<trkpt lat="37.630788220812356" lon="140.06968987396553"><ele>941</ele><time>2024-02-17T02:13:46Z</time></trkpt>
<trkpt lat="37.630599752439494" lon="140.06966717243168"><ele>946</ele><time>2024-02-17T02:14:20Z</time></trkpt>
<trkpt lat="37.63025981930457" lon="140.06963030978204"><ele>949</ele><time>2024-02-17T02:14:54Z</time></trkpt>
<trkpt lat="37.63010427299215" lon="140.06959707441342"><ele>950</ele><time>2024-02-17T02:15:29Z</time></trkpt>
<trkpt lat="37.6298503454474" lon="140.06958090593713"><ele>953</ele><time>2024-02-17T02:16:03Z</time></trkpt>
<trkpt lat="37.629685910794215" lon="140.06954760948187"><ele>956</ele><time>2024-02-17T02:16:36Z</time></trkpt>
<trkpt lat="37.629479561732595" lon="140.06950670690952"><ele>959</ele><time>2024-02-17T02:17:11Z</time></trkpt>
<trkpt lat="37.62927769401116" lon="140.06952306577324"><ele>963</ele><time>2024-02-17T02:17:42Z</time></trkpt>
<trkpt lat="37.62906989256388" lon="140.06950494279596"><ele>968</ele><time>2024-02-17T02:18:18Z</time></trkpt>
<trkpt lat="37.62883186927111" lon="140.0694279648762"><ele>972</ele><time>2024-02-17T02:23:52Z</time></trkpt>
<trkpt lat="37.628577298095315" lon="140.06936203759795"><ele>974</ele><time>2024-02-17T02:24:25Z</time></trkpt>
<trkpt lat="37.628332086686" lon="140.06934712969536"><ele>979</ele><time>2024-02-17T02:24:53Z</time></trkpt>
<trkpt lat="37.62808131285143" lon="140.0693377191171"><ele>984</ele><time>2024-02-17T02:25:23Z</time></trkpt>
<trkpt lat="37.6278328778354" lon="140.06929779393832"><ele>991</ele><time>2024-02-17T02:26:31Z</time></trkpt>
<trkpt lat="37.627613089247426" lon="140.06925840728792"><ele>1001</ele><time>2024-02-17T02:27:04Z</time></trkpt>
<trkpt lat="37.62739202245791" lon="140.06921052079738"><ele>1007</ele><time>2024-02-17T02:27:37Z</time></trkpt>
<trkpt lat="37.627212700204275" lon="140.06917628761738"><ele>1013</ele><time>2024-02-17T02:28:09Z</time></trkpt>
<trkpt lat="37.627038547376266" lon="140.06918187576832"><ele>1014</ele><time>2024-02-17T02:28:39Z</time></trkpt>
<trkpt lat="37.62679273506644" lon="140.06905469979233"><ele>1016</ele><time>2024-02-17T02:29:06Z</time></trkpt>
<trkpt lat="37.62654104594225" lon="140.06902184449388"><ele>1020</ele><time>2024-02-17T02:29:41Z</time></trkpt>
<trkpt lat="37.62632003946258" lon="140.06902290751322"><ele>1026</ele><time>2024-02-17T02:31:00Z</time></trkpt>
<trkpt lat="37.626354473768174" lon="140.06919263734434"><ele>1032</ele><time>2024-02-17T02:31:50Z</time></trkpt>
<trkpt lat="37.62628378282307" lon="140.06926618848772"><ele>1037</ele><time>2024-02-17T02:38:48Z</time></trkpt>
<trkpt lat="37.62609219306092" lon="140.06922517546357"><ele>1034</ele><time>2024-02-17T02:39:26Z</time></trkpt>
<trkpt lat="37.625923129133035" lon="140.06919520197386"><ele>1042</ele><time>2024-02-17T02:40:00Z</time></trkpt>
<trkpt lat="37.62567242935324" lon="140.06915401875088"><ele>1040</ele><time>2024-02-17T02:40:44Z</time></trkpt>
<trkpt lat="37.62544188393732" lon="140.0692280154099"><ele>1043</ele><time>2024-02-17T02:41:12Z</time></trkpt>
<trkpt lat="37.625269900588755" lon="140.06924555542327"><ele>1044</ele><time>2024-02-17T02:41:41Z</time></trkpt>
<trkpt lat="37.625028579755615" lon="140.069303809955"><ele>1052</ele><time>2024-02-17T02:42:16Z</time></trkpt>
<trkpt lat="37.62486080750498" lon="140.069393514302"><ele>1059</ele><time>2024-02-17T02:43:18Z</time></trkpt>
<trkpt lat="37.62468191525359" lon="140.06945976014487"><ele>1061</ele><time>2024-02-17T02:44:00Z</time></trkpt>
<trkpt lat="37.62449459090529" lon="140.069576694755"><ele>1071</ele><time>2024-02-17T02:44:39Z</time></trkpt>
<trkpt lat="37.62432018344516" lon="140.06967474460708"><ele>1077</ele><time>2024-02-17T02:45:10Z</time></trkpt>
<trkpt lat="37.624119863614084" lon="140.06982928206742"><ele>1083</ele><time>2024-02-17T02:45:44Z</time></trkpt>
<trkpt lat="37.623951528897116" lon="140.06993651986755"><ele>1087</ele><time>2024-02-17T02:46:16Z</time></trkpt>
<trkpt lat="37.62374834990397" lon="140.07004915797648"><ele>1090</ele><time>2024-02-17T02:46:46Z</time></trkpt>
<trkpt lat="37.623658104530975" lon="140.0701633111917"><ele>1089</ele><time>2024-02-17T02:47:27Z</time></trkpt>
<trkpt lat="37.623461247719746" lon="140.07039562683633"><ele>1088</ele><time>2024-02-17T02:48:36Z</time></trkpt>
<trkpt lat="37.623283774025026" lon="140.0706067141255"><ele>1092</ele><time>2024-02-17T02:49:05Z</time></trkpt>
<trkpt lat="37.62312907433419" lon="140.0706578141333"><ele>1094</ele><time>2024-02-17T02:49:34Z</time></trkpt>
<trkpt lat="37.62303735023473" lon="140.07068202463344"><ele>1093</ele><time>2024-02-17T02:50:41Z</time></trkpt>
<trkpt lat="37.622927627764824" lon="140.07089072501097"><ele>1097</ele><time>2024-02-17T02:51:26Z</time></trkpt>
<trkpt lat="37.622742920771756" lon="140.07096923240243"><ele>1099</ele><time>2024-02-17T02:52:05Z</time></trkpt>
<trkpt lat="37.62250132407699" lon="140.07107394380716"><ele>1100</ele><time>2024-02-17T02:52:40Z</time></trkpt>
<trkpt lat="37.62232341727406" lon="140.07095754098376"><ele>1103</ele><time>2024-02-17T02:53:23Z</time></trkpt>
<trkpt lat="37.62214511186853" lon="140.07085256645237"><ele>1106</ele><time>2024-02-17T02:54:04Z</time></trkpt>
<trkpt lat="37.62197712390929" lon="140.0709398334745"><ele>1109</ele><time>2024-02-17T02:54:47Z</time></trkpt>
<trkpt lat="37.62176692694772" lon="140.07109991278648"><ele>1110</ele><time>2024-02-17T02:55:17Z</time></trkpt>
<trkpt lat="37.621532649911885" lon="140.07131009564358"><ele>1113</ele><time>2024-02-17T02:56:00Z</time></trkpt>
<trkpt lat="37.62132773367434" lon="140.07148173872795"><ele>1115</ele><time>2024-02-17T02:56:29Z</time></trkpt>
<trkpt lat="37.621136425856285" lon="140.0717685796231"><ele>1114</ele><time>2024-02-17T03:00:21Z</time></trkpt>
<trkpt lat="37.62098601407177" lon="140.07200203518335"><ele>1117</ele><time>2024-02-17T03:00:50Z</time></trkpt>
<trkpt lat="37.62074877438153" lon="140.07214676822952"><ele>1115</ele><time>2024-02-17T03:01:19Z</time></trkpt>
<trkpt lat="37.62065813183573" lon="140.07244741822913"><ele>1112</ele><time>2024-02-17T03:02:11Z</time></trkpt>
<trkpt lat="37.62043378854655" lon="140.07247744806165"><ele>1111</ele><time>2024-02-17T03:02:54Z</time></trkpt>
<trkpt lat="37.62029451693514" lon="140.07273069977197"><ele>1115</ele><time>2024-02-17T03:03:28Z</time></trkpt>
<trkpt lat="37.62022158427729" lon="140.0728989340394"><ele>1120</ele><time>2024-02-17T03:04:05Z</time></trkpt>
<trkpt lat="37.620177770579225" lon="140.0731617313337"><ele>1123</ele><time>2024-02-17T03:05:42Z</time></trkpt>
<trkpt lat="37.61998093500049" lon="140.073429545389"><ele>1126</ele><time>2024-02-17T03:06:11Z</time></trkpt>
<trkpt lat="37.61978303901028" lon="140.073666088332"><ele>1127</ele><time>2024-02-17T03:06:44Z</time></trkpt>
<trkpt lat="37.61964577907978" lon="140.07390102193352"><ele>1128</ele><time>2024-02-17T03:07:14Z</time></trkpt>
<trkpt lat="37.619444981186156" lon="140.07387638226749"><ele>1130</ele><time>2024-02-17T03:07:58Z</time></trkpt>
<trkpt lat="37.61918740746456" lon="140.0739068236106"><ele>1134</ele><time>2024-02-17T03:08:32Z</time></trkpt>
<trkpt lat="37.61904545195382" lon="140.07414365874837"><ele>1137</ele><time>2024-02-17T03:09:11Z</time></trkpt>
<trkpt lat="37.61899112300598" lon="140.074373051513"><ele>1141</ele><time>2024-02-17T03:10:18Z</time></trkpt>
<trkpt lat="37.61887300165255" lon="140.07454686596952"><ele>1144</ele><time>2024-02-17T03:11:01Z</time></trkpt>
<trkpt lat="37.61872646569768" lon="140.07466455572077"><ele>1147</ele><time>2024-02-17T03:11:39Z</time></trkpt>
<trkpt lat="37.61858658668163" lon="140.07474821978988"><ele>1152</ele><time>2024-02-17T03:12:17Z</time></trkpt>
<trkpt lat="37.61852819751564" lon="140.07503478063538"><ele>1157</ele><time>2024-02-17T03:12:52Z</time></trkpt>
<trkpt lat="37.618430036425664" lon="140.0750236926397"><ele>1155</ele><time>2024-02-17T03:14:17Z</time></trkpt>
<trkpt lat="37.61833987387724" lon="140.07518716215372"><ele>1156</ele><time>2024-02-17T03:15:21Z</time></trkpt>
<trkpt lat="37.61821467223527" lon="140.0753706014782"><ele>1156</ele><time>2024-02-17T03:16:12Z</time></trkpt>
<trkpt lat="37.61810300416948" lon="140.07548012578908"><ele>1151</ele><time>2024-02-17T03:17:19Z</time></trkpt>
<trkpt lat="37.61799247921801" lon="140.0756335308427"><ele>1156</ele><time>2024-02-17T03:17:48Z</time></trkpt>
<trkpt lat="37.617805108539535" lon="140.07574831041944"><ele>1155</ele><time>2024-02-17T03:18:18Z</time></trkpt>
<trkpt lat="37.61783788408972" lon="140.075853902625"><ele>1157</ele><time>2024-02-17T03:20:09Z</time></trkpt>
<trkpt lat="37.61762714103893" lon="140.0759494890717"><ele>1156</ele><time>2024-02-17T03:21:29Z</time></trkpt>
<trkpt lat="37.617343636781946" lon="140.07618365859398"><ele>1145</ele><time>2024-02-17T03:22:05Z</time></trkpt>
<trkpt lat="37.61712462947016" lon="140.07627991960177"><ele>1145</ele><time>2024-02-17T03:22:28Z</time></trkpt>
<trkpt lat="37.617033331202855" lon="140.07618672697507"><ele>1139</ele><time>2024-02-17T03:23:35Z</time></trkpt>
<trkpt lat="37.616882281771275" lon="140.07650222919233"><ele>1139</ele><time>2024-02-17T03:24:04Z</time></trkpt>
<trkpt lat="37.61663425807376" lon="140.07670495029137"><ele>1138</ele><time>2024-02-17T03:25:19Z</time></trkpt>
<trkpt lat="37.6164609103997" lon="140.07693907694775"><ele>1136</ele><time>2024-02-17T03:25:51Z</time></trkpt>
<trkpt lat="37.616306895666355" lon="140.07707461871647"><ele>1136</ele><time>2024-02-17T03:29:20Z</time></trkpt>
<trkpt lat="37.61612928144859" lon="140.0771674731119"><ele>1137</ele><time>2024-02-17T03:29:48Z</time></trkpt>
<trkpt lat="37.615912105925084" lon="140.07723532713413"><ele>1139</ele><time>2024-02-17T03:30:20Z</time></trkpt>
<trkpt lat="37.61571614058675" lon="140.07734964283043"><ele>1141</ele><time>2024-02-17T03:30:52Z</time></trkpt>
<trkpt lat="37.61550472697782" lon="140.07750631746833"><ele>1143</ele><time>2024-02-17T03:31:31Z</time></trkpt>
<trkpt lat="37.615307178718034" lon="140.0775957251168"><ele>1147</ele><time>2024-02-17T03:32:05Z</time></trkpt>
<trkpt lat="37.61512420426243" lon="140.07765584321353"><ele>1151</ele><time>2024-02-17T03:32:37Z</time></trkpt>
<trkpt lat="37.61495477008856" lon="140.0777247114601"><ele>1154</ele><time>2024-02-17T03:33:17Z</time></trkpt>
<trkpt lat="37.61477935153714" lon="140.0778033923616"><ele>1157</ele><time>2024-02-17T03:33:51Z</time></trkpt>
<trkpt lat="37.614574319799786" lon="140.07786476009983"><ele>1162</ele><time>2024-02-17T03:34:28Z</time></trkpt>
<trkpt lat="37.61443884673779" lon="140.0778871027143"><ele>1168</ele><time>2024-02-17T03:35:35Z</time></trkpt>
<trkpt lat="37.614250868404646" lon="140.0781411742055"><ele>1172</ele><time>2024-02-17T03:43:33Z</time></trkpt>
<trkpt lat="37.61403630230651" lon="140.0782688539438"><ele>1175</ele><time>2024-02-17T03:44:05Z</time></trkpt>
<trkpt lat="37.61381778575272" lon="140.07827846853783"><ele>1181</ele><time>2024-02-17T03:44:36Z</time></trkpt>
<trkpt lat="37.613805060501186" lon="140.07801174624743"><ele>1178</ele><time>2024-02-17T03:45:35Z</time></trkpt>
<trkpt lat="37.61394763269548" lon="140.07774743413958"><ele>1171</ele><time>2024-02-17T03:46:07Z</time></trkpt>
<trkpt lat="37.613800687596324" lon="140.07782005330526"><ele>1176</ele><time>2024-02-17T03:47:20Z</time></trkpt>
<trkpt lat="37.61370750461815" lon="140.07785235445021"><ele>1177</ele><time>2024-02-17T03:49:10Z</time></trkpt>
<trkpt lat="37.6134950406005" lon="140.0779705386693"><ele>1187</ele><time>2024-02-17T03:50:24Z</time></trkpt>
<trkpt lat="37.61348717358352" lon="140.07779541660685"><ele>1192</ele><time>2024-02-17T03:51:45Z</time></trkpt>
<trkpt lat="37.61368563807151" lon="140.07792377245306"><ele>1180</ele><time>2024-02-17T03:53:54Z</time></trkpt>
<trkpt lat="37.61383848258415" lon="140.07780322741007"><ele>1175</ele><time>2024-02-17T03:54:34Z</time></trkpt>
<trkpt lat="37.61381897880255" lon="140.0776569397261"><ele>1176</ele><time>2024-02-17T03:55:32Z</time></trkpt>
<trkpt lat="37.61388811166887" lon="140.0775115466619"><ele>1169</ele><time>2024-02-17T03:57:35Z</time></trkpt>
<trkpt lat="37.61365915517811" lon="140.07738729780198"><ele>1169</ele><time>2024-02-17T03:58:07Z</time></trkpt>
<trkpt lat="37.61348432483773" lon="140.07715181856466"><ele>1168</ele><time>2024-02-17T03:58:34Z</time></trkpt>
<trkpt lat="37.61326607008047" lon="140.07694621880407"><ele>1169</ele><time>2024-02-17T03:59:12Z</time></trkpt>
<trkpt lat="37.613038813986044" lon="140.07683450899455"><ele>1175</ele><time>2024-02-17T03:59:41Z</time></trkpt>
<trkpt lat="37.61278998094994" lon="140.0768566801521"><ele>1179</ele><time>2024-02-17T04:00:12Z</time></trkpt>
<trkpt lat="37.61260171957712" lon="140.07674147846166"><ele>1184</ele><time>2024-02-17T04:01:32Z</time></trkpt>
<trkpt lat="37.61236042054861" lon="140.07685842153026"><ele>1189</ele><time>2024-02-17T04:02:05Z</time></trkpt>
<trkpt lat="37.61225801184522" lon="140.0770272595305"><ele>1196</ele><time>2024-02-17T04:02:37Z</time></trkpt>
<trkpt lat="37.61236020541353" lon="140.0770775603195"><ele>1201</ele><time>2024-02-17T04:10:29Z</time></trkpt>
<trkpt lat="37.612259843689245" lon="140.07698779141376"><ele>1194</ele><time>2024-02-17T04:16:09Z</time></trkpt>
<trkpt lat="37.612337580546914" lon="140.07706914494364"><ele>1199</ele><time>2024-02-17T04:17:00Z</time></trkpt>
<trkpt lat="37.61224687034014" lon="140.0769469961792"><ele>1196</ele><time>2024-02-17T04:23:09Z</time></trkpt>
<trkpt lat="37.61248451144861" lon="140.07699169418493"><ele>1194</ele><time>2024-02-17T04:24:13Z</time></trkpt>
<trkpt lat="37.61264083487586" lon="140.07693585350566"><ele>1193</ele><time>2024-02-17T04:24:41Z</time></trkpt>
<trkpt lat="37.612486139741875" lon="140.07682963153954"><ele>1188</ele><time>2024-02-17T04:27:11Z</time></trkpt>
<trkpt lat="37.61232909175628" lon="140.0769467738991"><ele>1190</ele><time>2024-02-17T04:27:43Z</time></trkpt>
<trkpt lat="37.61273913633811" lon="140.0764764887081"><ele>1183</ele><time>2024-02-17T04:30:42Z</time></trkpt>
<trkpt lat="37.61278830406265" lon="140.07623070038372"><ele>1182</ele><time>2024-02-17T04:31:11Z</time></trkpt>
<trkpt lat="37.61297347292964" lon="140.07584634066524"><ele>1180</ele><time>2024-02-17T04:32:01Z</time></trkpt>
<trkpt lat="37.613205295619856" lon="140.07547666189006"><ele>1177</ele><time>2024-02-17T04:32:24Z</time></trkpt>
<trkpt lat="37.61320952385379" lon="140.07530768589413"><ele>1181</ele><time>2024-02-17T04:33:38Z</time></trkpt>
<trkpt lat="37.613521781034365" lon="140.07494931067282"><ele>1177</ele><time>2024-02-17T04:34:48Z</time></trkpt>
<trkpt lat="37.61369743094844" lon="140.07485773865682"><ele>1178</ele><time>2024-02-17T04:35:15Z</time></trkpt>
<trkpt lat="37.61394918378865" lon="140.074609262779"><ele>1169</ele><time>2024-02-17T04:36:05Z</time></trkpt>
<trkpt lat="37.61428591353496" lon="140.0742577139909"><ele>1158</ele><time>2024-02-17T04:36:33Z</time></trkpt>
<trkpt lat="37.61449595143398" lon="140.07416866332596"><ele>1158</ele><time>2024-02-17T04:37:08Z</time></trkpt>
<trkpt lat="37.61459206741646" lon="140.07388986778736"><ele>1157</ele><time>2024-02-17T04:37:45Z</time></trkpt>
<trkpt lat="37.61457427484492" lon="140.07355909144437"><ele>1156</ele><time>2024-02-17T04:38:14Z</time></trkpt>
<trkpt lat="37.614765415599706" lon="140.0733231709187"><ele>1157</ele><time>2024-02-17T04:38:42Z</time></trkpt>
<trkpt lat="37.61477446215685" lon="140.07308257014688"><ele>1156</ele><time>2024-02-17T04:39:34Z</time></trkpt>
<trkpt lat="37.61480723259944" lon="140.07278822371555"><ele>1154</ele><time>2024-02-17T04:40:02Z</time></trkpt>
<trkpt lat="37.614848613808725" lon="140.07268508558792"><ele>1153</ele><time>2024-02-17T04:41:00Z</time></trkpt>
<trkpt lat="37.61495606388653" lon="140.07234554769875"><ele>1147</ele><time>2024-02-17T04:41:23Z</time></trkpt>
<trkpt lat="37.61512278752065" lon="140.07211679632846"><ele>1142</ele><time>2024-02-17T04:41:46Z</time></trkpt>
<trkpt lat="37.61575688389105" lon="140.07197648342708"><ele>1130</ele><time>2024-02-17T04:44:38Z</time></trkpt>
<trkpt lat="37.61613950533361" lon="140.0716445208417"><ele>1123</ele><time>2024-02-17T04:45:58Z</time></trkpt>
<trkpt lat="37.61641853559043" lon="140.0710357663202"><ele>1117</ele><time>2024-02-17T04:46:21Z</time></trkpt>
<trkpt lat="37.61655981238489" lon="140.07062969087985"><ele>1114</ele><time>2024-02-17T04:46:49Z</time></trkpt>
<trkpt lat="37.61666713780206" lon="140.07032906616055"><ele>1114</ele><time>2024-02-17T04:47:16Z</time></trkpt>
<trkpt lat="37.61686417524799" lon="140.07002600658052"><ele>1112</ele><time>2024-02-17T04:47:42Z</time></trkpt>
<trkpt lat="37.617010145629976" lon="140.06966097394172"><ele>1110</ele><time>2024-02-17T04:48:13Z</time></trkpt>
<trkpt lat="37.61730659961475" lon="140.0694678682143"><ele>1108</ele><time>2024-02-17T04:50:53Z</time></trkpt>
<trkpt lat="37.6175946492075" lon="140.06933146879717"><ele>1109</ele><time>2024-02-17T04:51:21Z</time></trkpt>
<trkpt lat="37.61783336898367" lon="140.06920646820606"><ele>1108</ele><time>2024-02-17T04:52:10Z</time></trkpt>
<trkpt lat="37.61790559654649" lon="140.06897247216162"><ele>1108</ele><time>2024-02-17T04:52:46Z</time></trkpt>
<trkpt lat="37.61800796693747" lon="140.06917290316466"><ele>1107</ele><time>2024-02-17T04:55:42Z</time></trkpt>
<trkpt lat="37.618286663875544" lon="140.06926723943047"><ele>1109</ele><time>2024-02-17T04:56:12Z</time></trkpt>
<trkpt lat="37.61838165294451" lon="140.06931382692605"><ele>1108</ele><time>2024-02-17T04:56:50Z</time></trkpt>
<trkpt lat="37.61878671242931" lon="140.06938193791174"><ele>1107</ele><time>2024-02-17T04:57:18Z</time></trkpt>
<trkpt lat="37.619053204900204" lon="140.0693955188315"><ele>1108</ele><time>2024-02-17T04:57:45Z</time></trkpt>
<trkpt lat="37.61932174098387" lon="140.06931516349337"><ele>1108</ele><time>2024-02-17T04:58:10Z</time></trkpt>
<trkpt lat="37.61954839068097" lon="140.0694345869347"><ele>1109</ele><time>2024-02-17T04:58:41Z</time></trkpt>
<trkpt lat="37.619783279413575" lon="140.0695494033352"><ele>1108</ele><time>2024-02-17T04:59:08Z</time></trkpt>
<trkpt lat="37.619765028405226" lon="140.0696683109892"><ele>1107</ele><time>2024-02-17T05:00:00Z</time></trkpt>
<trkpt lat="37.61970689262161" lon="140.06977030506818"><ele>1112</ele><time>2024-02-17T05:10:48Z</time></trkpt>
<trkpt lat="37.61967062200972" lon="140.06964784682728"><ele>1113</ele><time>2024-02-17T05:11:48Z</time></trkpt>
<trkpt lat="37.61977489669642" lon="140.0696605662489"><ele>1112</ele><time>2024-02-17T05:12:46Z</time></trkpt>
<trkpt lat="37.61975696191819" lon="140.06977389345388"><ele>1110</ele><time>2024-02-17T05:18:42Z</time></trkpt>
<trkpt lat="37.61976760285653" lon="140.06965782350096"><ele>1116</ele><time>2024-02-17T05:22:45Z</time></trkpt>
<trkpt lat="37.61984683765287" lon="140.06972648572622"><ele>1118</ele><time>2024-02-17T05:25:09Z</time></trkpt>
<trkpt lat="37.62005987172748" lon="140.06981078212453"><ele>1117</ele><time>2024-02-17T05:27:09Z</time></trkpt>
<trkpt lat="37.62008698356856" lon="140.06964541954645"><ele>1114</ele><time>2024-02-17T05:27:41Z</time></trkpt>
<trkpt lat="37.62042699127871" lon="140.06961919280502"><ele>1114</ele><time>2024-02-17T05:28:16Z</time></trkpt>
<trkpt lat="37.62064194923098" lon="140.06949594533867"><ele>1116</ele><time>2024-02-17T05:29:05Z</time></trkpt>
<trkpt lat="37.62088921224744" lon="140.06942648533098"><ele>1118</ele><time>2024-02-17T05:29:32Z</time></trkpt>
<trkpt lat="37.621018884882105" lon="140.0692130891141"><ele>1120</ele><time>2024-02-17T05:30:06Z</time></trkpt>
<trkpt lat="37.62122057783517" lon="140.06909987967705"><ele>1120</ele><time>2024-02-17T05:31:06Z</time></trkpt>
<trkpt lat="37.62137067369234" lon="140.06880235179383"><ele>1120</ele><time>2024-02-17T05:31:34Z</time></trkpt>
<trkpt lat="37.62173359274747" lon="140.0687515865887"><ele>1117</ele><time>2024-02-17T05:32:28Z</time></trkpt>
<trkpt lat="37.62196409901466" lon="140.0686789363944"><ele>1113</ele><time>2024-02-17T05:32:50Z</time></trkpt>
<trkpt lat="37.62213478231795" lon="140.0685613453691"><ele>1113</ele><time>2024-02-17T05:33:17Z</time></trkpt>
<trkpt lat="37.6225157896515" lon="140.0684466121247"><ele>1111</ele><time>2024-02-17T05:33:43Z</time></trkpt>
<trkpt lat="37.62270434313234" lon="140.06851400663106"><ele>1110</ele><time>2024-02-17T05:34:08Z</time></trkpt>
<trkpt lat="37.62302894671464" lon="140.0685438678371"><ele>1113</ele><time>2024-02-17T05:35:10Z</time></trkpt>
<trkpt lat="37.6233705434174" lon="140.0684165970972"><ele>1110</ele><time>2024-02-17T05:35:35Z</time></trkpt>
<trkpt lat="37.62354359819144" lon="140.06825971656937"><ele>1108</ele><time>2024-02-17T05:35:59Z</time></trkpt>
<trkpt lat="37.62366932833617" lon="140.068285478207"><ele>1106</ele><time>2024-02-17T05:46:58Z</time></trkpt>
<trkpt lat="37.62339037615443" lon="140.0688230830505"><ele>1109</ele><time>2024-02-17T05:47:54Z</time></trkpt>
<trkpt lat="37.62303027582867" lon="140.0693692063314"><ele>1111</ele><time>2024-02-17T05:48:19Z</time></trkpt>
<trkpt lat="37.62281103844048" lon="140.06997598145927"><ele>1112</ele><time>2024-02-17T05:48:40Z</time></trkpt>
<trkpt lat="37.62314969887965" lon="140.07052430306993"><ele>1090</ele><time>2024-02-17T05:49:05Z</time></trkpt>
<trkpt lat="37.623823520208155" lon="140.0699591274244"><ele>1087</ele><time>2024-02-17T05:49:26Z</time></trkpt>
<trkpt lat="37.624406891712695" lon="140.06946308574896"><ele>1075</ele><time>2024-02-17T05:49:55Z</time></trkpt>
<trkpt lat="37.625091024462755" lon="140.06922386604558"><ele>1045</ele><time>2024-02-17T05:51:42Z</time></trkpt>
<trkpt lat="37.626007233499955" lon="140.0690392459468"><ele>1031</ele><time>2024-02-17T05:52:04Z</time></trkpt>
<trkpt lat="37.62628264789484" lon="140.06904211815512"><ele>1032</ele><time>2024-02-17T05:52:27Z</time></trkpt>
<trkpt lat="37.62727869419325" lon="140.0691735826515"><ele>1015</ele><time>2024-02-17T05:53:08Z</time></trkpt>
<trkpt lat="37.62866128301286" lon="140.06883650925033"><ele>980</ele><time>2024-02-17T05:54:00Z</time></trkpt>
<trkpt lat="37.63022417469037" lon="140.0687329871945"><ele>954</ele><time>2024-02-17T05:54:21Z</time></trkpt>
<trkpt lat="37.631647978624365" lon="140.0694240608661"><ele>921</ele><time>2024-02-17T05:54:42Z</time></trkpt>
<trkpt lat="37.63294049533903" lon="140.0698807914073"><ele>907</ele><time>2024-02-17T05:55:03Z</time></trkpt>
<trkpt lat="37.63328727681686" lon="140.06993963463134"><ele>903</ele><time>2024-02-17T05:55:26Z</time></trkpt>
<trkpt lat="37.63349195015404" lon="140.06988198854293"><ele>903</ele><time>2024-02-17T05:56:50Z</time></trkpt>
<trkpt lat="37.63357480820094" lon="140.06964518636542"><ele>906</ele><time>2024-02-17T05:57:19Z</time></trkpt>
</trkseg>
</trk>
</gpx>