<?xml version="1.0" encoding="UTF-8"?>
<gpx xmlns:xsi="http://www.w3.org/2001/XMLSchema-instance" xmlns="http://www.topografix.com/GPX/1/1" xsi:schemaLocation="http://www.topografix.com/GPX/1/1 http://www.topografix.com/GPX/1/1/gpx.xsd" creator="Yamareco iOS 7.03 - www.yamareco.com">
<trk><name>track</name><number>1</number><trkseg>
<trkpt lat="36.29949692441812" lon="138.76596079163352"><ele>400</ele><time>2024-09-21T01:04:41Z</time></trkpt>
<trkpt lat="36.29933108113375" lon="138.76596026135493"><ele>435</ele><time>2024-09-21T01:05:13Z</time></trkpt>
<trkpt lat="36.29945658786013" lon="138.76567073114455"><ele>438</ele><time>2024-09-21T01:05:52Z</time></trkpt>
<trkpt lat="36.29973027043638" lon="138.76556325269038"><ele>436</ele><time>2024-09-21T01:06:18Z</time></trkpt>
<trkpt lat="36.30001320442761" lon="138.76552022844038"><ele>427</ele><time>2024-09-21T01:06:44Z</time></trkpt>
<trkpt lat="36.30032101813197" lon="138.76560406089925"><ele>429</ele><time>2024-09-21T01:07:10Z</time></trkpt>
<trkpt lat="36.30063300035689" lon="138.76566339406705"><ele>432</ele><time>2024-09-21T01:07:36Z</time></trkpt>
<trkpt lat="36.300737387718264" lon="138.76533790284918"><ele>440</ele><time>2024-09-21T01:08:02Z</time></trkpt>
<trkpt lat="36.3007968463497" lon="138.76500194494162"><ele>447</ele><time>2024-09-21T01:08:30Z</time></trkpt>
<trkpt lat="36.300826624120624" lon="138.7646869703186"><ele>451</ele><time>2024-09-21T01:08:59Z</time></trkpt>
<trkpt lat="36.300881435562005" lon="138.76439354057354"><ele>456</ele><time>2024-09-21T01:09:27Z</time></trkpt>
<trkpt lat="36.30095630744947" lon="138.7641381895845"><ele>463</ele><time>2024-09-21T01:09:55Z</time></trkpt>
<trkpt lat="36.30099164397227" lon="138.76378173817582"><ele>466</ele><time>2024-09-21T01:10:31Z</time></trkpt>
<trkpt lat="36.30093950848428" lon="138.7635320987827"><ele>473</ele><time>2024-09-21T01:11:03Z</time></trkpt>
<trkpt lat="36.300855331890496" lon="138.76322024238715"><ele>478</ele><time>2024-09-21T01:11:36Z</time></trkpt>
<trkpt lat="36.30077470565136" lon="138.76302106137777"><ele>480</ele><time>2024-09-21T01:12:19Z</time></trkpt>
<trkpt lat="36.30073249898097" lon="138.76280759850204"><ele>492</ele><time>2024-09-21T01:13:01Z</time></trkpt>
<trkpt lat="36.300686225855046" lon="138.76262640964904"><ele>500</ele><time>2024-09-21T01:13:40Z</time></trkpt>
<trkpt lat="36.3008741192788" lon="138.76235648638763"><ele>501</ele><time>2024-09-21T01:14:10Z</time></trkpt>
<trkpt lat="36.301138107927066" lon="138.7622494173298"><ele>499</ele><time>2024-09-21T01:14:38Z</time></trkpt>
<trkpt lat="36.301169155066596" lon="138.76213113559606"><ele>502</ele><time>2024-09-21T01:15:21Z</time></trkpt>
<trkpt lat="36.301339249805345" lon="138.76204871606717"><ele>507</ele><time>2024-09-21T01:16:00Z</time></trkpt>
<trkpt lat="36.30138659201982" lon="138.76177034484274"><ele>512</ele><time>2024-09-21T01:16:33Z</time></trkpt>
<trkpt lat="36.301302861737035" lon="138.7615821802478"><ele>513</ele><time>2024-09-21T01:17:12Z</time></trkpt>
<trkpt lat="36.301508953562035" lon="138.7613431110999"><ele>521</ele><time>2024-09-21T01:18:12Z</time></trkpt>
<trkpt lat="36.30167270872441" lon="138.76116348545773"><ele>532</ele><time>2024-09-21T01:18:46Z</time></trkpt>
<trkpt lat="36.30164682410855" lon="138.76095205788715"><ele>537</ele><time>2024-09-21T01:19:21Z</time></trkpt>
<trkpt lat="36.301855119890135" lon="138.76110732507738"><ele>541</ele><time>2024-09-21T01:20:12Z</time></trkpt>
<trkpt lat="36.301964009345824" lon="138.76096952739687"><ele>550</ele><time>2024-09-21T01:20:46Z</time></trkpt>
<trkpt lat="36.30195790118232" lon="138.76072880064442"><ele>559</ele><time>2024-09-21T01:21:16Z</time></trkpt>
<trkpt lat="36.30176993000047" lon="138.76052920425724"><ele>569</ele><time>2024-09-21T01:21:47Z</time></trkpt>
<trkpt lat="36.30164892829253" lon="138.76037512278066"><ele>573</ele><time>2024-09-21T01:22:36Z</time></trkpt>
<trkpt lat="36.30179450376122" lon="138.7602205109406"><ele>574</ele><time>2024-09-21T01:23:16Z</time></trkpt>
<trkpt lat="36.30186338184017" lon="138.76010333167252"><ele>580</ele><time>2024-09-21T01:23:50Z</time></trkpt>
<trkpt lat="36.30195078308939" lon="138.7598973884577"><ele>588</ele><time>2024-09-21T01:24:26Z</time></trkpt>
<trkpt lat="36.30205834163992" lon="138.75981913142803"><ele>591</ele><time>2024-09-21T01:24:56Z</time></trkpt>
<trkpt lat="36.30209781535657" lon="138.75961342469475"><ele>600</ele><time>2024-09-21T01:26:00Z</time></trkpt>
<trkpt lat="36.302034196233876" lon="138.75940502512117"><ele>613</ele><time>2024-09-21T01:27:18Z</time></trkpt>
<trkpt lat="36.30206427224102" lon="138.7592601541629"><ele>624</ele><time>2024-09-21T01:28:12Z</time></trkpt>
<trkpt lat="36.302071676352305" lon="138.75904949780056"><ele>629</ele><time>2024-09-21T01:28:57Z</time></trkpt>
<trkpt lat="36.30205179423898" lon="138.7588841225939"><ele>640</ele><time>2024-09-21T01:30:05Z</time></trkpt>
<trkpt lat="36.30224277678397" lon="138.7588348179938"><ele>645</ele><time>2024-09-21T01:30:48Z</time></trkpt>
<trkpt lat="36.30216763737046" lon="138.7587452717351"><ele>649</ele><time>2024-09-21T01:31:53Z</time></trkpt>
<trkpt lat="36.30219592371707" lon="138.75863003477457"><ele>659</ele><time>2024-09-21T01:33:27Z</time></trkpt>
<trkpt lat="36.30215731792063" lon="138.75848909675508"><ele>668</ele><time>2024-09-21T01:34:20Z</time></trkpt>
<trkpt lat="36.302220133151714" lon="138.75830864433394"><ele>680</ele><time>2024-09-21T01:35:29Z</time></trkpt>
<trkpt lat="36.3022656495924" lon="138.75818096540772"><ele>687</ele><time>2024-09-21T01:36:26Z</time></trkpt>
<trkpt lat="36.30234593752278" lon="138.75802200333018"><ele>702</ele><time>2024-09-21T01:37:30Z</time></trkpt>
<trkpt lat="36.30215370602095" lon="138.7579774770205"><ele>703</ele><time>2024-09-21T01:38:06Z</time></trkpt>
<trkpt lat="36.302078269847165" lon="138.75787506445738"><ele>710</ele><time>2024-09-21T01:38:48Z</time></trkpt>
<trkpt lat="36.30208092059808" lon="138.75768968026927"><ele>717</ele><time>2024-09-21T01:39:28Z</time></trkpt>
<trkpt lat="36.30196895953426" lon="138.75768958462493"><ele>718</ele><time>2024-09-21T01:39:55Z</time></trkpt>
<trkpt lat="36.30187869349356" lon="138.75762336489598"><ele>722</ele><time>2024-09-21T01:40:32Z</time></trkpt>
<trkpt lat="36.3017760290884" lon="138.75749547706644"><ele>737</ele><time>2024-09-21T01:41:49Z</time></trkpt>
<trkpt lat="36.3016831983492" lon="138.7573722038717"><ele>749</ele><time>2024-09-21T01:42:58Z</time></trkpt>
<trkpt lat="36.301526876290545" lon="138.75746764788755"><ele>750</ele><time>2024-09-21T01:43:53Z</time></trkpt>
<trkpt lat="36.30143473229566" lon="138.75770733731795"><ele>761</ele><time>2024-09-21T01:45:00Z</time></trkpt>
<trkpt lat="36.30134460581335" lon="138.75767846798567"><ele>760</ele><time>2024-09-21T01:46:33Z</time></trkpt>
<trkpt lat="36.3014663085453" lon="138.75768752920354"><ele>766</ele><time>2024-09-21T01:53:13Z</time></trkpt>
<trkpt lat="36.301502523648836" lon="138.75740701817833"><ele>765</ele><time>2024-09-21T01:53:40Z</time></trkpt>
<trkpt lat="36.30145434014426" lon="138.75724167048259"><ele>765</ele><time>2024-09-21T01:54:24Z</time></trkpt>
<trkpt lat="36.3012847514789" lon="138.75722192651645"><ele>775</ele><time>2024-09-21T01:55:12Z</time></trkpt>
<trkpt lat="36.30141908552099" lon="138.75692420028702"><ele>766</ele><time>2024-09-21T01:55:51Z</time></trkpt>
<trkpt lat="36.301357591486386" lon="138.75664442472507"><ele>771</ele><time>2024-09-21T01:56:22Z</time></trkpt>
<trkpt lat="36.301196705168124" lon="138.75653843666066"><ele>788</ele><time>2024-09-21T01:57:05Z</time></trkpt>
<trkpt lat="36.30121292277405" lon="138.7563863163853"><ele>791</ele><time>2024-09-21T01:57:36Z</time></trkpt>
<trkpt lat="36.30117729554417" lon="138.75618672394114"><ele>802</ele><time>2024-09-21T01:58:43Z</time></trkpt>
<trkpt lat="36.301125288974845" lon="138.7560534643111"><ele>802</ele><time>2024-09-21T01:59:25Z</time></trkpt>
<trkpt lat="36.30102490290238" lon="138.75591414328744"><ele>809</ele><time>2024-09-21T02:00:06Z</time></trkpt>
<trkpt lat="36.300954644325614" lon="138.755702483536"><ele>828</ele><time>2024-09-21T02:01:29Z</time></trkpt>
<trkpt lat="36.301086477802414" lon="138.75575335947926"><ele>825</ele><time>2024-09-21T02:03:19Z</time></trkpt>
<trkpt lat="36.3012091517399" lon="138.75565529820614"><ele>834</ele><time>2024-09-21T02:04:50Z</time></trkpt>
<trkpt lat="36.30136058680112" lon="138.75561326136238"><ele>836</ele><time>2024-09-21T02:05:46Z</time></trkpt>
<trkpt lat="36.30137884919261" lon="138.75576540408034"><ele>853</ele><time>2024-09-21T02:06:54Z</time></trkpt>
<trkpt lat="36.30159307512342" lon="138.75583411085563"><ele>852</ele><time>2024-09-21T02:08:00Z</time></trkpt>
<trkpt lat="36.301638981731315" lon="138.7556981749468"><ele>857</ele><time>2024-09-21T02:08:46Z</time></trkpt>
<trkpt lat="36.30161920717413" lon="138.7558506236837"><ele>865</ele><time>2024-09-21T02:11:46Z</time></trkpt>
<trkpt lat="36.301712710759844" lon="138.75576252978084"><ele>869</ele><time>2024-09-21T02:13:36Z</time></trkpt>
<trkpt lat="36.301757246225094" lon="138.75605614146602"><ele>873</ele><time>2024-09-21T02:14:36Z</time></trkpt>
<trkpt lat="36.30169678866594" lon="138.7558198616329"><ele>876</ele><time>2024-09-21T02:15:02Z</time></trkpt>
<trkpt lat="36.301769230387244" lon="138.7557481129599"><ele>905</ele><time>2024-09-21T02:16:52Z</time></trkpt>
<trkpt lat="36.301916306038635" lon="138.7556631306496"><ele>912</ele><time>2024-09-21T02:18:05Z</time></trkpt>
<trkpt lat="36.30186259188416" lon="138.75581083080587"><ele>917</ele><time>2024-09-21T02:19:03Z</time></trkpt>
<trkpt lat="36.30180266348781" lon="138.75589548088985"><ele>934</ele><time>2024-09-21T02:20:24Z</time></trkpt>
<trkpt lat="36.301948797966936" lon="138.75588230347176"><ele>949</ele><time>2024-09-21T02:21:05Z</time></trkpt>
<trkpt lat="36.30207103104499" lon="138.75586246727738"><ele>951</ele><time>2024-09-21T02:21:54Z</time></trkpt>
<trkpt lat="36.30221805057649" lon="138.75583817443902"><ele>954</ele><time>2024-09-21T02:22:56Z</time></trkpt>
<trkpt lat="36.30231595804472" lon="138.75570868299036"><ele>965</ele><time>2024-09-21T02:25:31Z</time></trkpt>
<trkpt lat="36.30242349402133" lon="138.75572996682018"><ele>993</ele><time>2024-09-21T02:34:40Z</time></trkpt>
<trkpt lat="36.30228852607135" lon="138.75565780607874"><ele>992</ele><time>2024-09-21T02:36:45Z</time></trkpt>
<trkpt lat="36.30214696493491" lon="138.7554771156827"><ele>1008</ele><time>2024-09-21T02:39:04Z</time></trkpt>
<trkpt lat="36.30228709709305" lon="138.75543489470886"><ele>1000</ele><time>2024-09-21T02:40:22Z</time></trkpt>
<trkpt lat="36.30219165819201" lon="138.75537077205135"><ele>1000</ele><time>2024-09-21T02:42:16Z</time></trkpt>
<trkpt lat="36.30207968872757" lon="138.75529952316174"><ele>1015</ele><time>2024-09-21T02:44:05Z</time></trkpt>
<trkpt lat="36.30191371191406" lon="138.7552128006899"><ele>1014</ele><time>2024-09-21T02:45:11Z</time></trkpt>
<trkpt lat="36.301842367175496" lon="138.75501820696053"><ele>1013</ele><time>2024-09-21T02:45:43Z</time></trkpt>
<trkpt lat="36.30175613236782" lon="138.7549634059415"><ele>1020</ele><time>2024-09-21T02:46:33Z</time></trkpt>
<trkpt lat="36.30165639382233" lon="138.7547916196818"><ele>1020</ele><time>2024-09-21T02:47:14Z</time></trkpt>
<trkpt lat="36.30153981679847" lon="138.75474506674414"><ele>1017</ele><time>2024-09-21T02:47:44Z</time></trkpt>
<trkpt lat="36.30151646106616" lon="138.75461445030808"><ele>1018</ele><time>2024-09-21T02:48:20Z</time></trkpt>
<trkpt lat="36.301443027396076" lon="138.7544820867729"><ele>1013</ele><time>2024-09-21T02:49:06Z</time></trkpt>
<trkpt lat="36.30136523464695" lon="138.75434678697115"><ele>1026</ele><time>2024-09-21T02:50:41Z</time></trkpt>
<trkpt lat="36.30124036731016" lon="138.75426979574428"><ele>1018</ele><time>2024-09-21T02:51:38Z</time></trkpt>
<trkpt lat="36.30113863671541" lon="138.7541908797473"><ele>1025</ele><time>2024-09-21T02:54:24Z</time></trkpt>
<trkpt lat="36.30105909781519" lon="138.7541212526218"><ele>1030</ele><time>2024-09-21T02:55:31Z</time></trkpt>
<trkpt lat="36.300980874039254" lon="138.75397184208435"><ele>1030</ele><time>2024-09-21T02:57:26Z</time></trkpt>
<trkpt lat="36.300903240195304" lon="138.75386161336812"><ele>1032</ele><time>2024-09-21T02:59:17Z</time></trkpt>
<trkpt lat="36.30094925546804" lon="138.75373861951732"><ele>1022</ele><time>2024-09-21T03:07:40Z</time></trkpt>
<trkpt lat="36.30106106986477" lon="138.75361675998872"><ele>1014</ele><time>2024-09-21T03:08:54Z</time></trkpt>
<trkpt lat="36.30112175738276" lon="138.7535056424693"><ele>995</ele><time>2024-09-21T03:15:59Z</time></trkpt>
<trkpt lat="36.301059801869016" lon="138.7532887672795"><ele>1006</ele><time>2024-09-21T03:16:52Z</time></trkpt>
<trkpt lat="36.30114712822527" lon="138.75324321187594"><ele>997</ele><time>2024-09-21T03:17:28Z</time></trkpt>
<trkpt lat="36.300996885377266" lon="138.75319755125338"><ele>1016</ele><time>2024-09-21T03:18:37Z</time></trkpt>
<trkpt lat="36.30089892650172" lon="138.75305671471327"><ele>1021</ele><time>2024-09-21T03:19:35Z</time></trkpt>
<trkpt lat="36.30084765953907" lon="138.75285343422829"><ele>1020</ele><time>2024-09-21T03:20:14Z</time></trkpt>
<trkpt lat="36.30069135242539" lon="138.75288074734314"><ele>1023</ele><time>2024-09-21T03:20:50Z</time></trkpt>
<trkpt lat="36.30067866999391" lon="138.75270240372512"><ele>1034</ele><time>2024-09-21T03:21:45Z</time></trkpt>
<trkpt lat="36.30050928355805" lon="138.7528543251227"><ele>1045</ele><time>2024-09-21T03:22:40Z</time></trkpt>
<trkpt lat="36.3004288204578" lon="138.75301687891726"><ele>1041</ele><time>2024-09-21T03:23:40Z</time></trkpt>
<trkpt lat="36.300307119777884" lon="138.7530814337122"><ele>1056</ele><time>2024-09-21T03:25:02Z</time></trkpt>
<trkpt lat="36.30030220569643" lon="138.75291697437748"><ele>1052</ele><time>2024-09-21T03:25:32Z</time></trkpt>
<trkpt lat="36.300298856553084" lon="138.7527100256382"><ele>1058</ele><time>2024-09-21T03:27:07Z</time></trkpt>
<trkpt lat="36.30018284539137" lon="138.75248202640944"><ele>1056</ele><time>2024-09-21T03:27:40Z</time></trkpt>
<trkpt lat="36.300051498103585" lon="138.75230634333042"><ele>1060</ele><time>2024-09-21T03:28:15Z</time></trkpt>
<trkpt lat="36.29988754948817" lon="138.7522814780921"><ele>1067</ele><time>2024-09-21T03:29:09Z</time></trkpt>
<trkpt lat="36.299778814616964" lon="138.75222751182037"><ele>1073</ele><time>2024-09-21T03:29:57Z</time></trkpt>
<trkpt lat="36.29969276430448" lon="138.75213854131167"><ele>1093</ele><time>2024-09-21T03:31:01Z</time></trkpt>
<trkpt lat="36.29965052296922" lon="138.75194522255728"><ele>1093</ele><time>2024-09-21T03:32:24Z</time></trkpt>
<trkpt lat="36.29966475857711" lon="138.75165396798047"><ele>1092</ele><time>2024-09-21T03:32:59Z</time></trkpt>
<trkpt lat="36.29969323804471" lon="138.7513452414783"><ele>1088</ele><time>2024-09-21T03:33:35Z</time></trkpt>
<trkpt lat="36.29991105222838" lon="138.75120494638244"><ele>1088</ele><time>2024-09-21T03:34:07Z</time></trkpt>
<trkpt lat="36.30007746426429" lon="138.75114595298209"><ele>1090</ele><time>2024-09-21T03:34:40Z</time></trkpt>
<trkpt lat="36.30020939637828" lon="138.7511548252182"><ele>1096</ele><time>2024-09-21T03:35:23Z</time></trkpt>
<trkpt lat="36.30021939919841" lon="138.75136494970653"><ele>1090</ele><time>2024-09-21T03:38:23Z</time></trkpt>
<trkpt lat="36.30036191045751" lon="138.75145587388678"><ele>1079</ele><time>2024-09-21T03:38:50Z</time></trkpt>
<trkpt lat="36.300487466960924" lon="138.75142838016657"><ele>1067</ele><time>2024-09-21T03:39:45Z</time></trkpt>
<trkpt lat="36.3005366253004" lon="138.75123653396375"><ele>1067</ele><time>2024-09-21T03:40:43Z</time></trkpt>
<trkpt lat="36.30055456612805" lon="138.75110799037944"><ele>1059</ele><time>2024-09-21T03:41:20Z</time></trkpt>
<trkpt lat="36.30051149997933" lon="138.75094367599254"><ele>1060</ele><time>2024-09-21T03:41:50Z</time></trkpt>
<trkpt lat="36.30060793839794" lon="138.75078963205058"><ele>1053</ele><time>2024-09-21T03:42:19Z</time></trkpt>
<trkpt lat="36.30076886272626" lon="138.75072122880678"><ele>1043</ele><time>2024-09-21T03:42:56Z</time></trkpt>
<trkpt lat="36.30078138528333" lon="138.75056288228916"><ele>1038</ele><time>2024-09-21T03:43:45Z</time></trkpt>
<trkpt lat="36.30091013196818" lon="138.75043748398093"><ele>1025</ele><time>2024-09-21T03:44:52Z</time></trkpt>
<trkpt lat="36.300813006945035" lon="138.75012442904213"><ele>1013</ele><time>2024-09-21T03:46:16Z</time></trkpt>
<trkpt lat="36.30063219387388" lon="138.75018966552557"><ele>1027</ele><time>2024-09-21T03:47:06Z</time></trkpt>
<trkpt lat="36.300506886833375" lon="138.75008404754448"><ele>1032</ele><time>2024-09-21T03:48:08Z</time></trkpt>
<trkpt lat="36.30041961098054" lon="138.75003667686846"><ele>1039</ele><time>2024-09-21T03:49:09Z</time></trkpt>
<trkpt lat="36.30030568807365" lon="138.74993725172038"><ele>1049</ele><time>2024-09-21T03:50:01Z</time></trkpt>
<trkpt lat="36.30024596241542" lon="138.7497763585994"><ele>1055</ele><time>2024-09-21T03:50:36Z</time></trkpt>
<trkpt lat="36.300134046769315" lon="138.74978781071061"><ele>1070</ele><time>2024-09-21T03:51:48Z</time></trkpt>
<trkpt lat="36.30008782171594" lon="138.7496730265982"><ele>1076</ele><time>2024-09-21T03:52:44Z</time></trkpt>
<trkpt lat="36.29988318781658" lon="138.74972821860908"><ele>1084</ele><time>2024-09-21T03:53:15Z</time></trkpt>
<trkpt lat="36.299746132721644" lon="138.7496010228291"><ele>1080</ele><time>2024-09-21T03:53:57Z</time></trkpt>
<trkpt lat="36.29951264854973" lon="138.74956948969427"><ele>1076</ele><time>2024-09-21T03:55:20Z</time></trkpt>
<trkpt lat="36.299326225534244" lon="138.74964067815156"><ele>1078</ele><time>2024-09-21T03:55:56Z</time></trkpt>
<trkpt lat="36.299186983107376" lon="138.74956349163816"><ele>1085</ele><time>2024-09-21T03:56:46Z</time></trkpt>
<trkpt lat="36.29895887386896" lon="138.7494418940472"><ele>1091</ele><time>2024-09-21T03:57:26Z</time></trkpt>
<trkpt lat="36.29875942803502" lon="138.7492460804294"><ele>1094</ele><time>2024-09-21T03:58:01Z</time></trkpt>
<trkpt lat="36.29863365923504" lon="138.74909358161682"><ele>1103</ele><time>2024-09-21T03:58:46Z</time></trkpt>
<trkpt lat="36.298659365140075" lon="138.74886813258036"><ele>1110</ele><time>2024-09-21T03:59:40Z</time></trkpt>
<trkpt lat="36.298739654301414" lon="138.74876152310335"><ele>1100</ele><time>2024-09-21T04:36:25Z</time></trkpt>
<trkpt lat="36.29873604921232" lon="138.74852355900543"><ele>1086</ele><time>2024-09-21T04:37:26Z</time></trkpt>
<trkpt lat="36.29882730403002" lon="138.74852839077715"><ele>1072</ele><time>2024-09-21T04:38:38Z</time></trkpt>
<trkpt lat="36.29887566521519" lon="138.7483971404779"><ele>1065</ele><time>2024-09-21T04:39:15Z</time></trkpt>
<trkpt lat="36.298970187681824" lon="138.74824337896877"><ele>1053</ele><time>2024-09-21T04:40:13Z</time></trkpt>
<trkpt lat="36.29884603000853" lon="138.7479683572355"><ele>1055</ele><time>2024-09-21T04:40:56Z</time></trkpt>
<trkpt lat="36.29876407893012" lon="138.7477759173566"><ele>1061</ele><time>2024-09-21T04:41:46Z</time></trkpt>
<trkpt lat="36.298760060806465" lon="138.74754310424152"><ele>1076</ele><time>2024-09-21T04:43:00Z</time></trkpt>
<trkpt lat="36.298866270015345" lon="138.74741351351977"><ele>1076</ele><time>2024-09-21T04:44:12Z</time></trkpt>
<trkpt lat="36.299085193084075" lon="138.74707413772077"><ele>1065</ele><time>2024-09-21T04:44:44Z</time></trkpt>
<trkpt lat="36.29907914847554" lon="138.74679347815803"><ele>1059</ele><time>2024-09-21T04:45:16Z</time></trkpt>
<trkpt lat="36.298996755909" lon="138.74665694620418"><ele>1053</ele><time>2024-09-21T04:46:29Z</time></trkpt>
<trkpt lat="36.29892954849702" lon="138.7465635953991"><ele>1043</ele><time>2024-09-21T04:48:40Z</time></trkpt>
<trkpt lat="36.298998261477294" lon="138.74637062319385"><ele>1028</ele><time>2024-09-21T04:50:29Z</time></trkpt>
<trkpt lat="36.29891245520381" lon="138.746253100592"><ele>1021</ele><time>2024-09-21T04:52:14Z</time></trkpt>
<trkpt lat="36.29881619595383" lon="138.74615590843973"><ele>1013</ele><time>2024-09-21T04:53:16Z</time></trkpt>
<trkpt lat="36.298704483741304" lon="138.7462012081708"><ele>982</ele><time>2024-09-21T04:54:59Z</time></trkpt>
<trkpt lat="36.29874914522995" lon="138.74601773305258"><ele>986</ele><time>2024-09-21T04:55:36Z</time></trkpt>
<trkpt lat="36.29862455509081" lon="138.7459939441691"><ele>988</ele><time>2024-09-21T04:56:05Z</time></trkpt>
<trkpt lat="36.29858704308761" lon="138.7458369212562"><ele>976</ele><time>2024-09-21T04:56:41Z</time></trkpt>
<trkpt lat="36.29845692396091" lon="138.7458052987059"><ele>966</ele><time>2024-09-21T04:57:35Z</time></trkpt>
<trkpt lat="36.29832786597324" lon="138.74578378573486"><ele>972</ele><time>2024-09-21T04:58:35Z</time></trkpt>
<trkpt lat="36.298310499393565" lon="138.7456068064241"><ele>952</ele><time>2024-09-21T04:59:44Z</time></trkpt>
<trkpt lat="36.298167343197974" lon="138.74561504356575"><ele>948</ele><time>2024-09-21T05:00:14Z</time></trkpt>
<trkpt lat="36.29800604223" lon="138.74554335789435"><ele>940</ele><time>2024-09-21T05:01:20Z</time></trkpt>
<trkpt lat="36.2978784658198" lon="138.74531647113236"><ele>929</ele><time>2024-09-21T05:02:30Z</time></trkpt>
<trkpt lat="36.29771350866085" lon="138.74512855821084"><ele>908</ele><time>2024-09-21T05:03:41Z</time></trkpt>
<trkpt lat="36.29753866830949" lon="138.74495726503866"><ele>898</ele><time>2024-09-21T05:04:11Z</time></trkpt>
<trkpt lat="36.29739150311782" lon="138.7451545048798"><ele>901</ele><time>2024-09-21T05:06:09Z</time></trkpt>
<trkpt lat="36.297242500702986" lon="138.74503587272199"><ele>912</ele><time>2024-09-21T05:06:46Z</time></trkpt>
<trkpt lat="36.296968460334504" lon="138.74494509439796"><ele>938</ele><time>2024-09-21T05:07:32Z</time></trkpt>
<trkpt lat="36.29686582866637" lon="138.7448833420649"><ele>932</ele><time>2024-09-21T05:09:20Z</time></trkpt>
<trkpt lat="36.29688749034657" lon="138.74471618783778"><ele>933</ele><time>2024-09-21T05:10:16Z</time></trkpt>
<trkpt lat="36.29677064661872" lon="138.74451092763093"><ele>935</ele><time>2024-09-21T05:10:55Z</time></trkpt>
<trkpt lat="36.29671310417858" lon="138.74437286757004"><ele>946</ele><time>2024-09-21T05:11:50Z</time></trkpt>
<trkpt lat="36.29663238962798" lon="138.7441458941648"><ele>959</ele><time>2024-09-21T05:13:09Z</time></trkpt>
<trkpt lat="36.296482101677114" lon="138.7440972772995"><ele>963</ele><time>2024-09-21T05:13:40Z</time></trkpt>
<trkpt lat="36.2963524513546" lon="138.743888655531"><ele>954</ele><time>2024-09-21T05:14:34Z</time></trkpt>
<trkpt lat="36.296232193926535" lon="138.7437934346731"><ele>949</ele><time>2024-09-21T05:15:24Z</time></trkpt>
<trkpt lat="36.29621472265414" lon="138.74361420626414"><ele>951</ele><time>2024-09-21T05:15:47Z</time></trkpt>
<trkpt lat="36.29607735762822" lon="138.74357986542512"><ele>958</ele><time>2024-09-21T05:16:36Z</time></trkpt>
<trkpt lat="36.29615184341885" lon="138.74349686232327"><ele>970</ele><time>2024-09-21T05:17:04Z</time></trkpt>
<trkpt lat="36.29590924922205" lon="138.74342344640803"><ele>960</ele><time>2024-09-21T05:17:42Z</time></trkpt>
<trkpt lat="36.29574656244743" lon="138.74337432066608"><ele>972</ele><time>2024-09-21T05:18:16Z</time></trkpt>
<trkpt lat="36.2956725535677" lon="138.74317639495143"><ele>989</ele><time>2024-09-21T05:22:17Z</time></trkpt>
<trkpt lat="36.29557151814433" lon="138.74314712126505"><ele>979</ele><time>2024-09-21T05:24:08Z</time></trkpt>
<trkpt lat="36.29539277129571" lon="138.74318199024842"><ele>985</ele><time>2024-09-21T05:24:51Z</time></trkpt>
<trkpt lat="36.2952258263985" lon="138.74298643279369"><ele>960</ele><time>2024-09-21T05:26:16Z</time></trkpt>
<trkpt lat="36.2949736711081" lon="138.74294243635393"><ele>957</ele><time>2024-09-21T05:26:44Z</time></trkpt>
<trkpt lat="36.2947264639155" lon="138.74284803610246"><ele>955</ele><time>2024-09-21T05:27:12Z</time></trkpt>
<trkpt lat="36.29457441221835" lon="138.74275140330036"><ele>970</ele><time>2024-09-21T05:27:48Z</time></trkpt>
<trkpt lat="36.294452477945605" lon="138.74265337327236"><ele>966</ele><time>2024-09-21T05:28:22Z</time></trkpt>
<trkpt lat="36.294394875408024" lon="138.74244817735683"><ele>954</ele><time>2024-09-21T05:29:20Z</time></trkpt>
<trkpt lat="36.294215879733976" lon="138.7423848749518"><ele>939</ele><time>2024-09-21T05:32:49Z</time></trkpt>
<trkpt lat="36.29404215643815" lon="138.742330516154"><ele>931</ele><time>2024-09-21T05:33:35Z</time></trkpt>
<trkpt lat="36.29384944698829" lon="138.7423018482686"><ele>919</ele><time>2024-09-21T05:34:24Z</time></trkpt>
<trkpt lat="36.293763067774506" lon="138.74224006624232"><ele>897</ele><time>2024-09-21T05:35:40Z</time></trkpt>
<trkpt lat="36.29367264060048" lon="138.74218353263"><ele>905</ele><time>2024-09-21T05:36:08Z</time></trkpt>
<trkpt lat="36.29359152609101" lon="138.74207340262615"><ele>889</ele><time>2024-09-21T05:37:48Z</time></trkpt>
<trkpt lat="36.293455269299734" lon="138.74214085953793"><ele>882</ele><time>2024-09-21T05:38:18Z</time></trkpt>
<trkpt lat="36.293339227934716" lon="138.7422355242276"><ele>872</ele><time>2024-09-21T05:38:51Z</time></trkpt>
<trkpt lat="36.29335198041624" lon="138.74201092850512"><ele>864</ele><time>2024-09-21T05:39:22Z</time></trkpt>
<trkpt lat="36.293228712218045" lon="138.7419255487995"><ele>861</ele><time>2024-09-21T05:40:16Z</time></trkpt>
<trkpt lat="36.293132706082204" lon="138.74188888641828"><ele>849</ele><time>2024-09-21T05:41:03Z</time></trkpt>
<trkpt lat="36.2929822855593" lon="138.74209110356443"><ele>848</ele><time>2024-09-21T05:41:59Z</time></trkpt>
<trkpt lat="36.29283705188768" lon="138.74221130240184"><ele>832</ele><time>2024-09-21T05:42:48Z</time></trkpt>
<trkpt lat="36.29296254338954" lon="138.74253925753067"><ele>826</ele><time>2024-09-21T05:43:15Z</time></trkpt>
<trkpt lat="36.292986229115705" lon="138.74292198333004"><ele>825</ele><time>2024-09-21T05:43:55Z</time></trkpt>
<trkpt lat="36.292829594365585" lon="138.74300669209507"><ele>814</ele><time>2024-09-21T05:44:28Z</time></trkpt>
<trkpt lat="36.292956007773164" lon="138.74323879291876"><ele>806</ele><time>2024-09-21T05:45:00Z</time></trkpt>
<trkpt lat="36.29320729178327" lon="138.7433835904717"><ele>802</ele><time>2024-09-21T05:45:25Z</time></trkpt>
<trkpt lat="36.29324252095603" lon="138.74359702301328"><ele>800</ele><time>2024-09-21T05:46:01Z</time></trkpt>
<trkpt lat="36.293412568893494" lon="138.74388966348783"><ele>784</ele><time>2024-09-21T05:46:26Z</time></trkpt>
<trkpt lat="36.293648525463254" lon="138.7438921984668"><ele>780</ele><time>2024-09-21T05:46:55Z</time></trkpt>
<trkpt lat="36.29374372837363" lon="138.7441497047225"><ele>774</ele><time>2024-09-21T05:47:23Z</time></trkpt>
<trkpt lat="36.29358179203491" lon="138.74422562137661"><ele>772</ele><time>2024-09-21T05:47:59Z</time></trkpt>
<trkpt lat="36.293505866391435" lon="138.7445000459249"><ele>752</ele><time>2024-09-21T05:48:36Z</time></trkpt>
<trkpt lat="36.29334099108758" lon="138.74476292853353"><ele>734</ele><time>2024-09-21T05:49:19Z</time></trkpt>
<trkpt lat="36.29345009541069" lon="138.7449159608998"><ele>721</ele><time>2024-09-21T05:49:45Z</time></trkpt>
<trkpt lat="36.29357413958794" lon="138.74494831591653"><ele>719</ele><time>2024-09-21T05:50:40Z</time></trkpt>
<trkpt lat="36.29365301932125" lon="138.74529634264093"><ele>719</ele><time>2024-09-21T05:53:51Z</time></trkpt>
<trkpt lat="36.29377907451626" lon="138.74559448948781"><ele>726</ele><time>2024-09-21T05:54:23Z</time></trkpt>
<trkpt lat="36.29387653658086" lon="138.74536940967099"><ele>729</ele><time>2024-09-21T05:57:28Z</time></trkpt>
<trkpt lat="36.294135370528714" lon="138.74537893353306"><ele>742</ele><time>2024-09-21T05:58:16Z</time></trkpt>
<trkpt lat="36.29435086669284" lon="138.74543696940336"><ele>745</ele><time>2024-09-21T05:58:49Z</time></trkpt>
<trkpt lat="36.29445779014506" lon="138.7457949650341"><ele>748</ele><time>2024-09-21T05:59:32Z</time></trkpt>
<trkpt lat="36.29470951835925" lon="138.74578049294695"><ele>750</ele><time>2024-09-21T06:00:07Z</time></trkpt>
<trkpt lat="36.29481218056897" lon="138.7460807309334"><ele>752</ele><time>2024-09-21T06:00:45Z</time></trkpt>
<trkpt lat="36.295062079040484" lon="138.74613173582475"><ele>755</ele><time>2024-09-21T06:01:16Z</time></trkpt>
<trkpt lat="36.295285474273136" lon="138.74633616292348"><ele>746</ele><time>2024-09-21T06:01:44Z</time></trkpt>
<trkpt lat="36.295401708824336" lon="138.74664067426565"><ele>752</ele><time>2024-09-21T06:02:12Z</time></trkpt>
<trkpt lat="36.29537107703688" lon="138.74680343258058"><ele>758</ele><time>2024-09-21T06:02:45Z</time></trkpt>
<trkpt lat="36.29549908562703" lon="138.7470176046706"><ele>766</ele><time>2024-09-21T06:03:18Z</time></trkpt>
<trkpt lat="36.29564378410353" lon="138.74714047812887"><ele>773</ele><time>2024-09-21T06:03:53Z</time></trkpt>
<trkpt lat="36.29585161424087" lon="138.74740689260665"><ele>765</ele><time>2024-09-21T06:04:24Z</time></trkpt>
<trkpt lat="36.29579455484347" lon="138.74766908649738"><ele>763</ele><time>2024-09-21T06:05:04Z</time></trkpt>
<trkpt lat="36.29581540945204" lon="138.74791720082555"><ele>751</ele><time>2024-09-21T06:05:39Z</time></trkpt>
<trkpt lat="36.295659013545844" lon="138.74806440023917"><ele>751</ele><time>2024-09-21T06:06:10Z</time></trkpt>
<trkpt lat="36.295573165820336" lon="138.74836019041004"><ele>740</ele><time>2024-09-21T06:06:57Z</time></trkpt>
<trkpt lat="36.29544740039174" lon="138.74852745784563"><ele>728</ele><time>2024-09-21T06:07:47Z</time></trkpt>
<trkpt lat="36.295420978858196" lon="138.7488204484364"><ele>713</ele><time>2024-09-21T06:08:27Z</time></trkpt>
<trkpt lat="36.29545978366764" lon="138.74922299844135"><ele>713</ele><time>2024-09-21T06:08:56Z</time></trkpt>
<trkpt lat="36.29551852756509" lon="138.74948249342896"><ele>716</ele><time>2024-09-21T06:09:38Z</time></trkpt>
<trkpt lat="36.29554170666818" lon="138.7496622675957"><ele>712</ele><time>2024-09-21T06:10:14Z</time></trkpt>
<trkpt lat="36.29547374713332" lon="138.74990616323936"><ele>710</ele><time>2024-09-21T06:10:42Z</time></trkpt>
<trkpt lat="36.29537040733009" lon="138.7502850782461"><ele>706</ele><time>2024-09-21T06:11:20Z</time></trkpt>
<trkpt lat="36.29553198159142" lon="138.7505752110366"><ele>701</ele><time>2024-09-21T06:11:47Z</time></trkpt>
<trkpt lat="36.29567568318698" lon="138.75090389849592"><ele>696</ele><time>2024-09-21T06:12:14Z</time></trkpt>
<trkpt lat="36.29577402638821" lon="138.75123435898692"><ele>704</ele><time>2024-09-21T06:13:05Z</time></trkpt>
<trkpt lat="36.295946445357046" lon="138.7514604195741"><ele>707</ele><time>2024-09-21T06:13:37Z</time></trkpt>
<trkpt lat="36.296122701549024" lon="138.75165972267038"><ele>696</ele><time>2024-09-21T06:14:09Z</time></trkpt>
<trkpt lat="36.29622469193752" lon="138.75181186526444"><ele>695</ele><time>2024-09-21T06:16:02Z</time></trkpt>
<trkpt lat="36.296449979116446" lon="138.75186486710444"><ele>700</ele><time>2024-09-21T06:17:44Z</time></trkpt>
<trkpt lat="36.296716499899205" lon="138.75212725097782"><ele>697</ele><time>2024-09-21T06:18:10Z</time></trkpt>
<trkpt lat="36.2968302695977" lon="138.7521396565229"><ele>700</ele><time>2024-09-21T06:18:35Z</time></trkpt>
<trkpt lat="36.2967891896703" lon="138.752505169059"><ele>703</ele><time>2024-09-21T06:19:06Z</time></trkpt>
<trkpt lat="36.29666959484477" lon="138.75284246313046"><ele>697</ele><time>2024-09-21T06:19:35Z</time></trkpt>
<trkpt lat="36.29644368137237" lon="138.75312997632165"><ele>676</ele><time>2024-09-21T06:20:11Z</time></trkpt>
<trkpt lat="36.29647995896922" lon="138.75337604960055"><ele>666</ele><time>2024-09-21T06:20:43Z</time></trkpt>
<trkpt lat="36.29646488228412" lon="138.75378671936667"><ele>676</ele><time>2024-09-21T06:21:25Z</time></trkpt>
<trkpt lat="36.296577624050215" lon="138.753826330793"><ele>688</ele><time>2024-09-21T06:22:05Z</time></trkpt>
<trkpt lat="36.296710613745574" lon="138.75397346738794"><ele>699</ele><time>2024-09-21T06:22:50Z</time></trkpt>
<trkpt lat="36.29683047454093" lon="138.7543040922311"><ele>695</ele><time>2024-09-21T06:23:33Z</time></trkpt>
<trkpt lat="36.29661419597286" lon="138.7544402668104"><ele>679</ele><time>2024-09-21T06:24:07Z</time></trkpt>
<trkpt lat="36.29683986539109" lon="138.75483518921416"><ele>665</ele><time>2024-09-21T06:24:32Z</time></trkpt>
<trkpt lat="36.297166071640824" lon="138.75504440461305"><ele>652</ele><time>2024-09-21T06:24:57Z</time></trkpt>
<trkpt lat="36.297068629596424" lon="138.75548822525909"><ele>643</ele><time>2024-09-21T06:25:36Z</time></trkpt>
<trkpt lat="36.297363716150294" lon="138.75551123744495"><ele>637</ele><time>2024-09-21T06:26:00Z</time></trkpt>
<trkpt lat="36.29755816844093" lon="138.75571170317502"><ele>643</ele><time>2024-09-21T06:27:37Z</time></trkpt>
<trkpt lat="36.2976211309949" lon="138.75605126478726"><ele>657</ele><time>2024-09-21T06:28:07Z</time></trkpt>
<trkpt lat="36.29762088692349" lon="138.75652983834183"><ele>650</ele><time>2024-09-21T06:28:32Z</time></trkpt>
<trkpt lat="36.297718112058185" lon="138.75689305909054"><ele>654</ele><time>2024-09-21T06:28:55Z</time></trkpt>
<trkpt lat="36.29792033727692" lon="138.75699964245905"><ele>641</ele><time>2024-09-21T06:29:22Z</time></trkpt>
<trkpt lat="36.298023248783856" lon="138.75723239017665"><ele>633</ele><time>2024-09-21T06:29:59Z</time></trkpt>
<trkpt lat="36.29796194647914" lon="138.7574319162784"><ele>641</ele><time>2024-09-21T06:30:25Z</time></trkpt>
<trkpt lat="36.29779219006469" lon="138.7580295608741"><ele>625</ele><time>2024-09-21T06:31:04Z</time></trkpt>
<trkpt lat="36.29796405417505" lon="138.75830926971406"><ele>621</ele><time>2024-09-21T06:31:26Z</time></trkpt>
<trkpt lat="36.29817589715094" lon="138.7585377896025"><ele>609</ele><time>2024-09-21T06:31:51Z</time></trkpt>
<trkpt lat="36.29837779288545" lon="138.758836696041"><ele>609</ele><time>2024-09-21T06:32:15Z</time></trkpt>
<trkpt lat="36.29838467348532" lon="138.75926623843813"><ele>618</ele><time>2024-09-21T06:32:44Z</time></trkpt>
<trkpt lat="36.298378165339436" lon="138.7597289363756"><ele>609</ele><time>2024-09-21T06:33:13Z</time></trkpt>
<trkpt lat="36.29848927652629" lon="138.76003093923475"><ele>612</ele><time>2024-09-21T06:34:11Z</time></trkpt>
<trkpt lat="36.29873526119587" lon="138.76032532312078"><ele>594</ele><time>2024-09-21T06:34:38Z</time></trkpt>
<trkpt lat="36.29896805021179" lon="138.76063322566213"><ele>586</ele><time>2024-09-21T06:35:10Z</time></trkpt>
<trkpt lat="36.29904294968895" lon="138.76101654522276"><ele>587</ele><time>2024-09-21T06:35:41Z</time></trkpt>
<trkpt lat="36.29910317060365" lon="138.76129292327636"><ele>577</ele><time>2024-09-21T06:36:11Z</time></trkpt>
<trkpt lat="36.2992743789873" lon="138.7615544179063"><ele>557</ele><time>2024-09-21T06:36:35Z</time></trkpt>
<trkpt lat="36.29946991654229" lon="138.76207135502437"><ele>546</ele><time>2024-09-21T06:37:04Z</time></trkpt>
<trkpt lat="36.299631943389116" lon="138.7625705644109"><ele>533</ele><time>2024-09-21T06:37:29Z</time></trkpt>
<trkpt lat="36.29998244234601" lon="138.76282634355576"><ele>511</ele><time>2024-09-21T06:37:57Z</time></trkpt>
<trkpt lat="36.300136814584334" lon="138.76289304361677"><ele>508</ele><time>2024-09-21T06:38:22Z</time></trkpt>
<trkpt lat="36.30036797199263" lon="138.76264114747886"><ele>504</ele><time>2024-09-21T06:38:55Z</time></trkpt>
<trkpt lat="36.300508996429876" lon="138.76262484359285"><ele>504</ele><time>2024-09-21T06:39:25Z</time></trkpt>
<trkpt lat="36.30069997156813" lon="138.76256391082325"><ele>501</ele><time>2024-09-21T06:40:06Z</time></trkpt>
<trkpt lat="36.30072091059015" lon="138.76279387093632"><ele>499</ele><time>2024-09-21T06:40:35Z</time></trkpt>
<trkpt lat="36.300787442840345" lon="138.76305948105104"><ele>485</ele><time>2024-09-21T06:41:05Z</time></trkpt>
<trkpt lat="36.30090900349399" lon="138.76348371834615"><ele>476</ele><time>2024-09-21T06:41:37Z</time></trkpt>
<trkpt lat="36.300940394108" lon="138.76385558008636"><ele>470</ele><time>2024-09-21T06:42:10Z</time></trkpt>
<trkpt lat="36.300910824255425" lon="138.7642365312066"><ele>465</ele><time>2024-09-21T06:42:37Z</time></trkpt>
<trkpt lat="36.300803571260815" lon="138.76475492925607"><ele>455</ele><time>2024-09-21T06:43:04Z</time></trkpt>
<trkpt lat="36.300722101229475" lon="138.76528918280863"><ele>446</ele><time>2024-09-21T06:43:30Z</time></trkpt>
<trkpt lat="36.30075487285654" lon="138.76539521368937"><ele>444</ele><time>2024-09-21T06:45:31Z</time></trkpt>
<trkpt lat="36.3003665794217" lon="138.76567980183825"><ele>437</ele><time>2024-09-21T06:47:51Z</time></trkpt>
<trkpt lat="36.29962382594098" lon="138.76579349385517"><ele>437</ele><time>2024-09-21T06:48:14Z</time></trkpt>
<trkpt lat="36.29957296928561" lon="138.7655217320818"><ele>436</ele><time>2024-09-21T06:50:05Z</time></trkpt>
<trkpt lat="36.29961877925923" lon="138.76587196449287"><ele>443</ele><time>2024-09-21T06:52:19Z</time></trkpt>
<trkpt lat="36.299600862989486" lon="138.76580168002775"><ele>440</ele><time>2024-09-21T06:52:55Z</time></trkpt>
</trkseg>
</trk>
</gpx>