<?xml version="1.0" encoding="UTF-8"?>
<gpx xmlns:xsi="http://www.w3.org/2001/XMLSchema-instance" xmlns="http://www.topografix.com/GPX/1/1" xsi:schemaLocation="http://www.topografix.com/GPX/1/1 http://www.topografix.com/GPX/1/1/gpx.xsd" creator="Yamareco iOS 7.12 - www.yamareco.com">
<trk><name>track</name><number>1</number><trkseg>
<trkpt lat="35.878787921410265" lon="138.57853890269814"><ele>1507</ele><time>2024-11-09T01:43:12Z</time></trkpt>
<trkpt lat="35.878917426988174" lon="138.57874296741883"><ele>1522</ele><time>2024-11-09T01:43:49Z</time></trkpt>
<trkpt lat="35.87904804383722" lon="138.57898104539007"><ele>1529</ele><time>2024-11-09T01:44:19Z</time></trkpt>
<trkpt lat="35.87917747015148" lon="138.5792306944911"><ele>1533</ele><time>2024-11-09T01:44:54Z</time></trkpt>
<trkpt lat="35.87939805898959" lon="138.5794030865024"><ele>1539</ele><time>2024-11-09T01:45:22Z</time></trkpt>
<trkpt lat="35.87967669551722" lon="138.5794514468041"><ele>1540</ele><time>2024-11-09T01:45:51Z</time></trkpt>
<trkpt lat="35.88001399518229" lon="138.57942095664586"><ele>1539</ele><time>2024-11-09T01:46:18Z</time></trkpt>
<trkpt lat="35.88025000549344" lon="138.57940200655793"><ele>1543</ele><time>2024-11-09T01:46:49Z</time></trkpt>
<trkpt lat="35.88038475441555" lon="138.57953790462295"><ele>1544</ele><time>2024-11-09T01:47:17Z</time></trkpt>
<trkpt lat="35.8803949862547" lon="138.5798130311488"><ele>1552</ele><time>2024-11-09T01:47:47Z</time></trkpt>
<trkpt lat="35.88046191240389" lon="138.58006673118823"><ele>1555</ele><time>2024-11-09T01:48:14Z</time></trkpt>
<trkpt lat="35.88049784139361" lon="138.58034918654022"><ele>1561</ele><time>2024-11-09T01:48:49Z</time></trkpt>
<trkpt lat="35.88058811030417" lon="138.58058463264211"><ele>1565</ele><time>2024-11-09T01:49:28Z</time></trkpt>
<trkpt lat="35.88067617275529" lon="138.58086012304167"><ele>1569</ele><time>2024-11-09T01:50:04Z</time></trkpt>
<trkpt lat="35.8807196140924" lon="138.58109571083438"><ele>1573</ele><time>2024-11-09T01:50:37Z</time></trkpt>
<trkpt lat="35.88084876649997" lon="138.5812216365997"><ele>1583</ele><time>2024-11-09T01:51:11Z</time></trkpt>
<trkpt lat="35.880946438247946" lon="138.58142659560016"><ele>1587</ele><time>2024-11-09T01:52:15Z</time></trkpt>
<trkpt lat="35.88106362837022" lon="138.58163931199527"><ele>1594</ele><time>2024-11-09T01:52:57Z</time></trkpt>
<trkpt lat="35.881256624284646" lon="138.581705897745"><ele>1597</ele><time>2024-11-09T01:53:25Z</time></trkpt>
<trkpt lat="35.88147230668823" lon="138.58160362886895"><ele>1600</ele><time>2024-11-09T01:53:51Z</time></trkpt>
<trkpt lat="35.88163791362963" lon="138.58170719842494"><ele>1609</ele><time>2024-11-09T01:54:41Z</time></trkpt>
<trkpt lat="35.88163805207703" lon="138.5818285030878"><ele>1609</ele><time>2024-11-09T01:55:47Z</time></trkpt>
<trkpt lat="35.88179439153848" lon="138.58193377647683"><ele>1621</ele><time>2024-11-09T01:56:52Z</time></trkpt>
<trkpt lat="35.88195711928957" lon="138.582050366642"><ele>1630</ele><time>2024-11-09T01:57:52Z</time></trkpt>
<trkpt lat="35.88216438972478" lon="138.5820230414237"><ele>1636</ele><time>2024-11-09T01:58:38Z</time></trkpt>
<trkpt lat="35.88209891789662" lon="138.5821677396965"><ele>1643</ele><time>2024-11-09T01:59:26Z</time></trkpt>
<trkpt lat="35.882189833936145" lon="138.58231593907018"><ele>1645</ele><time>2024-11-09T01:59:54Z</time></trkpt>
<trkpt lat="35.88231176322636" lon="138.5823244020332"><ele>1652</ele><time>2024-11-09T02:00:34Z</time></trkpt>
<trkpt lat="35.88238503593324" lon="138.5825098238669"><ele>1660</ele><time>2024-11-09T02:01:27Z</time></trkpt>
<trkpt lat="35.88241043756922" lon="138.58266319655033"><ele>1670</ele><time>2024-11-09T02:02:25Z</time></trkpt>
<trkpt lat="35.88232501814291" lon="138.58284421787894"><ele>1678</ele><time>2024-11-09T02:03:13Z</time></trkpt>
<trkpt lat="35.882387820510374" lon="138.58293167838136"><ele>1685</ele><time>2024-11-09T02:03:57Z</time></trkpt>
<trkpt lat="35.882455512524935" lon="138.58306490695884"><ele>1700</ele><time>2024-11-09T02:04:56Z</time></trkpt>
<trkpt lat="35.88254382795918" lon="138.583168604843"><ele>1706</ele><time>2024-11-09T02:05:34Z</time></trkpt>
<trkpt lat="35.882480375099036" lon="138.5833751749062"><ele>1713</ele><time>2024-11-09T02:06:11Z</time></trkpt>
<trkpt lat="35.88272675242234" lon="138.58347203605172"><ele>1713</ele><time>2024-11-09T02:07:05Z</time></trkpt>
<trkpt lat="35.882562151005004" lon="138.58364003655615"><ele>1725</ele><time>2024-11-09T02:11:03Z</time></trkpt>
<trkpt lat="35.882453181872904" lon="138.5838042365835"><ele>1729</ele><time>2024-11-09T02:11:44Z</time></trkpt>
<trkpt lat="35.88237757572208" lon="138.58403341739734"><ele>1733</ele><time>2024-11-09T02:12:22Z</time></trkpt>
<trkpt lat="35.88239030826459" lon="138.58432490198604"><ele>1733</ele><time>2024-11-09T02:12:55Z</time></trkpt>
<trkpt lat="35.88244107709561" lon="138.58452727275545"><ele>1739</ele><time>2024-11-09T02:13:27Z</time></trkpt>
<trkpt lat="35.882453615873786" lon="138.58472254209877"><ele>1744</ele><time>2024-11-09T02:14:02Z</time></trkpt>
<trkpt lat="35.88236186368567" lon="138.58491881476215"><ele>1746</ele><time>2024-11-09T02:14:46Z</time></trkpt>
<trkpt lat="35.88231219750426" lon="138.58517619465985"><ele>1755</ele><time>2024-11-09T02:15:24Z</time></trkpt>
<trkpt lat="35.88230898524702" lon="138.58543805939925"><ele>1761</ele><time>2024-11-09T02:16:01Z</time></trkpt>
<trkpt lat="35.88226634598989" lon="138.58570527119815"><ele>1766</ele><time>2024-11-09T02:16:32Z</time></trkpt>
<trkpt lat="35.88231557161161" lon="138.58592826925454"><ele>1774</ele><time>2024-11-09T02:17:00Z</time></trkpt>
<trkpt lat="35.88229327670734" lon="138.58614522558904"><ele>1779</ele><time>2024-11-09T02:17:41Z</time></trkpt>
<trkpt lat="35.88229041084119" lon="138.586349741597"><ele>1786</ele><time>2024-11-09T02:18:12Z</time></trkpt>
<trkpt lat="35.88218135935875" lon="138.5865447919"><ele>1790</ele><time>2024-11-09T02:18:56Z</time></trkpt>
<trkpt lat="35.882161246154595" lon="138.58671045784462"><ele>1798</ele><time>2024-11-09T02:19:32Z</time></trkpt>
<trkpt lat="35.88215313170808" lon="138.58690104116212"><ele>1804</ele><time>2024-11-09T02:20:11Z</time></trkpt>
<trkpt lat="35.882256208248776" lon="138.5870898531684"><ele>1809</ele><time>2024-11-09T02:20:49Z</time></trkpt>
<trkpt lat="35.88228170969448" lon="138.58729374188988"><ele>1811</ele><time>2024-11-09T02:21:28Z</time></trkpt>
<trkpt lat="35.88238938372194" lon="138.58733507479715"><ele>1808</ele><time>2024-11-09T02:22:55Z</time></trkpt>
<trkpt lat="35.88247791828949" lon="138.58737508565525"><ele>1814</ele><time>2024-11-09T02:36:35Z</time></trkpt>
<trkpt lat="35.88267353257701" lon="138.5873931577577"><ele>1817</ele><time>2024-11-09T02:40:37Z</time></trkpt>
<trkpt lat="35.88285927191206" lon="138.58739335698587"><ele>1822</ele><time>2024-11-09T02:41:13Z</time></trkpt>
<trkpt lat="35.883020179416015" lon="138.5874735527625"><ele>1826</ele><time>2024-11-09T02:41:52Z</time></trkpt>
<trkpt lat="35.883179365483535" lon="138.58762610609008"><ele>1829</ele><time>2024-11-09T02:42:39Z</time></trkpt>
<trkpt lat="35.88332118605583" lon="138.58777021182084"><ele>1835</ele><time>2024-11-09T02:43:13Z</time></trkpt>
<trkpt lat="35.883431310116066" lon="138.58781053447044"><ele>1834</ele><time>2024-11-09T02:43:45Z</time></trkpt>
<trkpt lat="35.88357243312936" lon="138.58804058322826"><ele>1839</ele><time>2024-11-09T02:44:31Z</time></trkpt>
<trkpt lat="35.88369823188576" lon="138.58826664388778"><ele>1839</ele><time>2024-11-09T02:45:00Z</time></trkpt>
<trkpt lat="35.88381958290865" lon="138.5885407821988"><ele>1840</ele><time>2024-11-09T02:45:34Z</time></trkpt>
<trkpt lat="35.88386530665415" lon="138.58881853511107"><ele>1841</ele><time>2024-11-09T02:46:10Z</time></trkpt>
<trkpt lat="35.88392590979809" lon="138.58906292866618"><ele>1843</ele><time>2024-11-09T02:46:48Z</time></trkpt>
<trkpt lat="35.88399756348615" lon="138.58936476720726"><ele>1843</ele><time>2024-11-09T02:47:25Z</time></trkpt>
<trkpt lat="35.884085333905965" lon="138.58960782478388"><ele>1845</ele><time>2024-11-09T02:47:56Z</time></trkpt>
<trkpt lat="35.88412441685453" lon="138.5898312818023"><ele>1844</ele><time>2024-11-09T02:48:28Z</time></trkpt>
<trkpt lat="35.884205161293345" lon="138.58997173500003"><ele>1835</ele><time>2024-11-09T02:48:59Z</time></trkpt>
<trkpt lat="35.884340107577316" lon="138.59016039074123"><ele>1835</ele><time>2024-11-09T02:49:31Z</time></trkpt>
<trkpt lat="35.88444574827938" lon="138.59038140817077"><ele>1838</ele><time>2024-11-09T02:50:05Z</time></trkpt>
<trkpt lat="35.8844869333356" lon="138.5906658486067"><ele>1842</ele><time>2024-11-09T02:50:33Z</time></trkpt>
<trkpt lat="35.88459844007329" lon="138.59093599934883"><ele>1845</ele><time>2024-11-09T02:51:07Z</time></trkpt>
<trkpt lat="35.88474760294487" lon="138.5911596998479"><ele>1851</ele><time>2024-11-09T02:51:53Z</time></trkpt>
<trkpt lat="35.88485828314332" lon="138.5914253254648"><ele>1849</ele><time>2024-11-09T02:52:37Z</time></trkpt>
<trkpt lat="35.885038408896136" lon="138.59162859673475"><ele>1859</ele><time>2024-11-09T02:53:08Z</time></trkpt>
<trkpt lat="35.88527681739454" lon="138.59181637370753"><ele>1861</ele><time>2024-11-09T02:53:42Z</time></trkpt>
<trkpt lat="35.885481155132865" lon="138.59193822320353"><ele>1860</ele><time>2024-11-09T02:54:20Z</time></trkpt>
<trkpt lat="35.88565147224851" lon="138.59201332064512"><ele>1861</ele><time>2024-11-09T02:54:57Z</time></trkpt>
<trkpt lat="35.88580639298467" lon="138.5919953013997"><ele>1852</ele><time>2024-11-09T02:56:34Z</time></trkpt>
<trkpt lat="35.88591598416169" lon="138.59205787733282"><ele>1843</ele><time>2024-11-09T02:57:42Z</time></trkpt>
<trkpt lat="35.88605851532686" lon="138.59212962717407"><ele>1834</ele><time>2024-11-09T02:58:25Z</time></trkpt>
<trkpt lat="35.88617090180512" lon="138.59219569950173"><ele>1826</ele><time>2024-11-09T02:58:55Z</time></trkpt>
<trkpt lat="35.88628852323508" lon="138.59228939213074"><ele>1828</ele><time>2024-11-09T02:59:45Z</time></trkpt>
<trkpt lat="35.886406797098175" lon="138.59227943755494"><ele>1821</ele><time>2024-11-09T03:02:10Z</time></trkpt>
<trkpt lat="35.88640019494488" lon="138.59216541535577"><ele>1817</ele><time>2024-11-09T03:12:25Z</time></trkpt>
<trkpt lat="35.886443424242906" lon="138.59229178434214"><ele>1822</ele><time>2024-11-09T03:13:29Z</time></trkpt>
<trkpt lat="35.886580926258134" lon="138.59223625696777"><ele>1819</ele><time>2024-11-09T03:14:35Z</time></trkpt>
<trkpt lat="35.88664860190476" lon="138.5920098133059"><ele>1817</ele><time>2024-11-09T03:17:12Z</time></trkpt>
<trkpt lat="35.886798174741095" lon="138.59192977319825"><ele>1820</ele><time>2024-11-09T03:17:53Z</time></trkpt>
<trkpt lat="35.88678260782141" lon="138.59178917114147"><ele>1823</ele><time>2024-11-09T03:18:20Z</time></trkpt>
<trkpt lat="35.886894997515405" lon="138.5918622965736"><ele>1824</ele><time>2024-11-09T03:19:20Z</time></trkpt>
<trkpt lat="35.88704630491762" lon="138.59180379611726"><ele>1835</ele><time>2024-11-09T03:20:07Z</time></trkpt>
<trkpt lat="35.887189416008134" lon="138.59171090192916"><ele>1840</ele><time>2024-11-09T03:20:33Z</time></trkpt>
<trkpt lat="35.887351820834624" lon="138.59159721669647"><ele>1850</ele><time>2024-11-09T03:21:28Z</time></trkpt>
<trkpt lat="35.88749269443697" lon="138.59163763518993"><ele>1853</ele><time>2024-11-09T03:22:07Z</time></trkpt>
<trkpt lat="35.887616766266575" lon="138.59175428305156"><ele>1859</ele><time>2024-11-09T03:23:01Z</time></trkpt>
<trkpt lat="35.887770103134436" lon="138.591701463467"><ele>1863</ele><time>2024-11-09T03:24:04Z</time></trkpt>
<trkpt lat="35.88780068575699" lon="138.59183890103193"><ele>1869</ele><time>2024-11-09T03:26:51Z</time></trkpt>
<trkpt lat="35.88794389014819" lon="138.59169531751445"><ele>1863</ele><time>2024-11-09T03:27:50Z</time></trkpt>
<trkpt lat="35.88803833961218" lon="138.59180755677352"><ele>1867</ele><time>2024-11-09T03:28:40Z</time></trkpt>
<trkpt lat="35.88827968637224" lon="138.59178379318163"><ele>1875</ele><time>2024-11-09T03:29:50Z</time></trkpt>
<trkpt lat="35.88844740202869" lon="138.59174168825777"><ele>1890</ele><time>2024-11-09T03:31:35Z</time></trkpt>
<trkpt lat="35.88860410362594" lon="138.5916738964407"><ele>1896</ele><time>2024-11-09T03:32:18Z</time></trkpt>
<trkpt lat="35.888755275436154" lon="138.5917754538606"><ele>1900</ele><time>2024-11-09T03:32:57Z</time></trkpt>
<trkpt lat="35.88894372388188" lon="138.5916830691222"><ele>1915</ele><time>2024-11-09T03:33:58Z</time></trkpt>
<trkpt lat="35.88910354950217" lon="138.59174733952847"><ele>1914</ele><time>2024-11-09T03:34:37Z</time></trkpt>
<trkpt lat="35.88921982415273" lon="138.59165321966677"><ele>1920</ele><time>2024-11-09T03:35:11Z</time></trkpt>
<trkpt lat="35.88931685109401" lon="138.59171777942598"><ele>1924</ele><time>2024-11-09T03:36:07Z</time></trkpt>
<trkpt lat="35.88949605500792" lon="138.5917600111201"><ele>1927</ele><time>2024-11-09T03:38:03Z</time></trkpt>
<trkpt lat="35.88958872891214" lon="138.5917532664469"><ele>1933</ele><time>2024-11-09T03:39:25Z</time></trkpt>
<trkpt lat="35.889691583324336" lon="138.59167629311818"><ele>1939</ele><time>2024-11-09T03:40:22Z</time></trkpt>
<trkpt lat="35.88975651456008" lon="138.59152025546655"><ele>1944</ele><time>2024-11-09T03:41:14Z</time></trkpt>
<trkpt lat="35.88983620649805" lon="138.59142375913444"><ele>1952</ele><time>2024-11-09T03:42:55Z</time></trkpt>
<trkpt lat="35.88994506323973" lon="138.5913170594389"><ele>1959</ele><time>2024-11-09T03:43:52Z</time></trkpt>
<trkpt lat="35.890083853285034" lon="138.5911695640809"><ele>1964</ele><time>2024-11-09T03:44:31Z</time></trkpt>
<trkpt lat="35.8901718892203" lon="138.5911370869629"><ele>1969</ele><time>2024-11-09T03:45:24Z</time></trkpt>
<trkpt lat="35.890289163245704" lon="138.59112263113084"><ele>1976</ele><time>2024-11-09T03:46:54Z</time></trkpt>
<trkpt lat="35.8904055505661" lon="138.59103826867357"><ele>1981</ele><time>2024-11-09T03:47:42Z</time></trkpt>
<trkpt lat="35.89049830318644" lon="138.59094702585944"><ele>1987</ele><time>2024-11-09T03:48:37Z</time></trkpt>
<trkpt lat="35.89064315280791" lon="138.5908864244449"><ele>1994</ele><time>2024-11-09T03:49:49Z</time></trkpt>
<trkpt lat="35.890753644271896" lon="138.5908488988345"><ele>2001</ele><time>2024-11-09T03:50:31Z</time></trkpt>
<trkpt lat="35.89090568624669" lon="138.59083384360176"><ele>2005</ele><time>2024-11-09T03:52:14Z</time></trkpt>
<trkpt lat="35.891067703844676" lon="138.59086823254168"><ele>2012</ele><time>2024-11-09T04:01:16Z</time></trkpt>
<trkpt lat="35.891182131703836" lon="138.59075135051535"><ele>2017</ele><time>2024-11-09T04:02:07Z</time></trkpt>
<trkpt lat="35.891298851363025" lon="138.59073002529806"><ele>2025</ele><time>2024-11-09T04:03:35Z</time></trkpt>
<trkpt lat="35.89138549195451" lon="138.59064515362934"><ele>2031</ele><time>2024-11-09T04:04:25Z</time></trkpt>
<trkpt lat="35.89148871666217" lon="138.59077241372106"><ele>2038</ele><time>2024-11-09T04:05:39Z</time></trkpt>
<trkpt lat="35.89149337585363" lon="138.5906072536848"><ele>2039</ele><time>2024-11-09T04:06:19Z</time></trkpt>
<trkpt lat="35.89162302700319" lon="138.5906735920636"><ele>2047</ele><time>2024-11-09T04:07:25Z</time></trkpt>
<trkpt lat="35.89177044912396" lon="138.59082575827546"><ele>2059</ele><time>2024-11-09T04:08:20Z</time></trkpt>
<trkpt lat="35.89185189111657" lon="138.5908819677579"><ele>2063</ele><time>2024-11-09T04:09:21Z</time></trkpt>
<trkpt lat="35.89196293251584" lon="138.5908763708527"><ele>2069</ele><time>2024-11-09T04:10:53Z</time></trkpt>
<trkpt lat="35.89205907328299" lon="138.59089236656018"><ele>2075</ele><time>2024-11-09T04:12:56Z</time></trkpt>
<trkpt lat="35.89214605456199" lon="138.59098444029314"><ele>2079</ele><time>2024-11-09T04:14:10Z</time></trkpt>
<trkpt lat="35.89217711581423" lon="138.59111191557957"><ele>2081</ele><time>2024-11-09T04:15:00Z</time></trkpt>
<trkpt lat="35.892251017656896" lon="138.59119400398592"><ele>2087</ele><time>2024-11-09T04:17:40Z</time></trkpt>
<trkpt lat="35.892345120954566" lon="138.5910296027335"><ele>2092</ele><time>2024-11-09T04:18:52Z</time></trkpt>
<trkpt lat="35.89249279762308" lon="138.59098648878992"><ele>2097</ele><time>2024-11-09T04:20:28Z</time></trkpt>
<trkpt lat="35.89253544700095" lon="138.59115735836065"><ele>2103</ele><time>2024-11-09T04:23:23Z</time></trkpt>
<trkpt lat="35.892594548919284" lon="138.5912924500665"><ele>2125</ele><time>2024-11-09T04:25:22Z</time></trkpt>
<trkpt lat="35.89271528005603" lon="138.59140975945655"><ele>2128</ele><time>2024-11-09T04:26:31Z</time></trkpt>
<trkpt lat="35.89279447106733" lon="138.59128519689924"><ele>2125</ele><time>2024-11-09T04:28:09Z</time></trkpt>
<trkpt lat="35.89289176563524" lon="138.59139184589716"><ele>2136</ele><time>2024-11-09T04:30:55Z</time></trkpt>
<trkpt lat="35.89300563584756" lon="138.59133418476236"><ele>2142</ele><time>2024-11-09T04:31:55Z</time></trkpt>
<trkpt lat="35.893177511425165" lon="138.59144674489565"><ele>2165</ele><time>2024-11-09T04:34:48Z</time></trkpt>
<trkpt lat="35.89329753545718" lon="138.59150549487623"><ele>2161</ele><time>2024-11-09T04:35:59Z</time></trkpt>
<trkpt lat="35.89337354881973" lon="138.59168441445226"><ele>2167</ele><time>2024-11-09T04:37:23Z</time></trkpt>
<trkpt lat="35.89347997721861" lon="138.59155706661937"><ele>2174</ele><time>2024-11-09T04:39:25Z</time></trkpt>
<trkpt lat="35.89347201611389" lon="138.59172231930012"><ele>2172</ele><time>2024-11-09T04:40:01Z</time></trkpt>
<trkpt lat="35.893596066055004" lon="138.59181259786783"><ele>2179</ele><time>2024-11-09T04:42:08Z</time></trkpt>
<trkpt lat="35.89366794335221" lon="138.5916767401995"><ele>2179</ele><time>2024-11-09T04:42:40Z</time></trkpt>
<trkpt lat="35.89379888511567" lon="138.591744506947"><ele>2194</ele><time>2024-11-09T04:44:24Z</time></trkpt>
<trkpt lat="35.89391042147583" lon="138.5916892959186"><ele>2198</ele><time>2024-11-09T04:45:06Z</time></trkpt>
<trkpt lat="35.893876149129014" lon="138.59183066004326"><ele>2189</ele><time>2024-11-09T04:45:55Z</time></trkpt>
<trkpt lat="35.893723855732304" lon="138.59195732740056"><ele>2186</ele><time>2024-11-09T04:46:27Z</time></trkpt>
<trkpt lat="35.893821205212674" lon="138.59205208592132"><ele>2190</ele><time>2024-11-09T04:47:33Z</time></trkpt>
<trkpt lat="35.893658703228105" lon="138.59220053454487"><ele>2186</ele><time>2024-11-09T04:49:35Z</time></trkpt>
<trkpt lat="35.89348892291208" lon="138.59217635853588"><ele>2186</ele><time>2024-11-09T04:52:22Z</time></trkpt>
<trkpt lat="35.89355326922615" lon="138.59202076750023"><ele>2187</ele><time>2024-11-09T04:53:27Z</time></trkpt>
<trkpt lat="35.893547428444236" lon="138.59190413392085"><ele>2231</ele><time>2024-11-09T05:03:16Z</time></trkpt>
<trkpt lat="35.89350644304156" lon="138.5918036091701"><ele>2241</ele><time>2024-11-09T05:05:30Z</time></trkpt>
<trkpt lat="35.89355171330894" lon="138.59190694492932"><ele>2232</ele><time>2024-11-09T05:07:51Z</time></trkpt>
<trkpt lat="35.89345803984657" lon="138.59201144256363"><ele>2196</ele><time>2024-11-09T05:14:04Z</time></trkpt>
<trkpt lat="35.893593505374746" lon="138.59188410775243"><ele>2201</ele><time>2024-11-09T05:14:45Z</time></trkpt>
<trkpt lat="35.89351048646144" lon="138.5919273069251"><ele>2228</ele><time>2024-11-09T05:19:07Z</time></trkpt>
<trkpt lat="35.89355359771298" lon="138.59212576572637"><ele>2224</ele><time>2024-11-09T06:01:52Z</time></trkpt>
<trkpt lat="35.89361293141232" lon="138.59224964954993"><ele>2185</ele><time>2024-11-09T06:04:17Z</time></trkpt>
<trkpt lat="35.893699033320175" lon="138.59215901907305"><ele>2188</ele><time>2024-11-09T06:04:45Z</time></trkpt>
<trkpt lat="35.89375142085199" lon="138.5920580798214"><ele>2189</ele><time>2024-11-09T06:06:34Z</time></trkpt>
<trkpt lat="35.8938787581967" lon="138.59190027830445"><ele>2187</ele><time>2024-11-09T06:07:24Z</time></trkpt>
<trkpt lat="35.89383060562919" lon="138.5917315449657"><ele>2193</ele><time>2024-11-09T06:08:29Z</time></trkpt>
<trkpt lat="35.89370593355164" lon="138.59165446970803"><ele>2191</ele><time>2024-11-09T06:09:23Z</time></trkpt>
<trkpt lat="35.89362443966299" lon="138.59183880227835"><ele>2183</ele><time>2024-11-09T06:10:38Z</time></trkpt>
<trkpt lat="35.8935098304424" lon="138.5916947761863"><ele>2174</ele><time>2024-11-09T06:12:19Z</time></trkpt>
<trkpt lat="35.89338031381306" lon="138.59149074732386"><ele>2183</ele><time>2024-11-09T06:14:20Z</time></trkpt>
<trkpt lat="35.893303767862065" lon="138.5916343015622"><ele>2176</ele><time>2024-11-09T06:16:22Z</time></trkpt>
<trkpt lat="35.89326905359685" lon="138.5914460201901"><ele>2163</ele><time>2024-11-09T06:19:35Z</time></trkpt>
<trkpt lat="35.893109367873954" lon="138.59143742090305"><ele>2146</ele><time>2024-11-09T06:21:27Z</time></trkpt>
<trkpt lat="35.89292028387157" lon="138.59130368966152"><ele>2140</ele><time>2024-11-09T06:24:04Z</time></trkpt>
<trkpt lat="35.89278161278487" lon="138.5912069585257"><ele>2137</ele><time>2024-11-09T06:26:40Z</time></trkpt>
<trkpt lat="35.89261165410171" lon="138.5912218537083"><ele>2118</ele><time>2024-11-09T06:29:02Z</time></trkpt>
<trkpt lat="35.8925139677388" lon="138.59108588414634"><ele>2102</ele><time>2024-11-09T06:30:27Z</time></trkpt>
<trkpt lat="35.89241101354518" lon="138.5909746127062"><ele>2097</ele><time>2024-11-09T06:32:06Z</time></trkpt>
<trkpt lat="35.89225547377565" lon="138.59106904325574"><ele>2092</ele><time>2024-11-09T06:33:06Z</time></trkpt>
<trkpt lat="35.89214843744113" lon="138.59105343831237"><ele>2084</ele><time>2024-11-09T06:34:31Z</time></trkpt>
<trkpt lat="35.89207782749282" lon="138.5909383334171"><ele>2077</ele><time>2024-11-09T06:35:35Z</time></trkpt>
<trkpt lat="35.89200826664573" lon="138.59084466476148"><ele>2070</ele><time>2024-11-09T06:36:54Z</time></trkpt>
<trkpt lat="35.89185402116244" lon="138.59078770991732"><ele>2065</ele><time>2024-11-09T06:38:54Z</time></trkpt>
<trkpt lat="35.89166575659471" lon="138.5907863915575"><ele>2052</ele><time>2024-11-09T06:40:19Z</time></trkpt>
<trkpt lat="35.89155819230516" lon="138.59067501031382"><ele>2044</ele><time>2024-11-09T06:40:57Z</time></trkpt>
<trkpt lat="35.89146298557899" lon="138.59065831677202"><ele>2048</ele><time>2024-11-09T06:42:10Z</time></trkpt>
<trkpt lat="35.89134561520879" lon="138.59067901187808"><ele>2033</ele><time>2024-11-09T06:43:31Z</time></trkpt>
<trkpt lat="35.891231089133555" lon="138.59068878636123"><ele>2022</ele><time>2024-11-09T06:45:22Z</time></trkpt>
<trkpt lat="35.891101645210064" lon="138.59070846117976"><ele>2016</ele><time>2024-11-09T06:46:21Z</time></trkpt>
<trkpt lat="35.89108084608829" lon="138.59083224713518"><ele>2012</ele><time>2024-11-09T06:47:04Z</time></trkpt>
<trkpt lat="35.89093870527003" lon="138.59072701654875"><ele>2007</ele><time>2024-11-09T06:47:44Z</time></trkpt>
<trkpt lat="35.890738127934654" lon="138.59072863938644"><ele>2000</ele><time>2024-11-09T06:48:33Z</time></trkpt>
<trkpt lat="35.89063151058609" lon="138.59084433273375"><ele>1994</ele><time>2024-11-09T06:49:32Z</time></trkpt>
<trkpt lat="35.89045888878708" lon="138.5908614394129"><ele>1989</ele><time>2024-11-09T06:51:02Z</time></trkpt>
<trkpt lat="35.890376237460565" lon="138.59094152956033"><ele>1982</ele><time>2024-11-09T06:52:29Z</time></trkpt>
<trkpt lat="35.89032084106531" lon="138.59105179530306"><ele>1977</ele><time>2024-11-09T06:53:42Z</time></trkpt>
<trkpt lat="35.890176133264994" lon="138.5910793772099"><ele>1973</ele><time>2024-11-09T06:55:13Z</time></trkpt>
<trkpt lat="35.889999420385095" lon="138.59107950831944"><ele>1966</ele><time>2024-11-09T06:56:02Z</time></trkpt>
<trkpt lat="35.88994940668176" lon="138.59120659123184"><ele>1960</ele><time>2024-11-09T06:56:32Z</time></trkpt>
<trkpt lat="35.88985707570398" lon="138.5913498069367"><ele>1954</ele><time>2024-11-09T06:57:17Z</time></trkpt>
<trkpt lat="35.889755196971976" lon="138.59143340101983"><ele>1947</ele><time>2024-11-09T06:59:04Z</time></trkpt>
<trkpt lat="35.88965976984291" lon="138.59151817851458"><ele>1942</ele><time>2024-11-09T06:59:59Z</time></trkpt>
<trkpt lat="35.889637003524285" lon="138.59162767207792"><ele>1940</ele><time>2024-11-09T07:00:33Z</time></trkpt>
<trkpt lat="35.889538874585305" lon="138.59174322368415"><ele>1936</ele><time>2024-11-09T07:02:59Z</time></trkpt>
<trkpt lat="35.889302690997305" lon="138.5916372480571"><ele>1934</ele><time>2024-11-09T07:03:48Z</time></trkpt>
<trkpt lat="35.88904474833629" lon="138.5915671261972"><ele>1925</ele><time>2024-11-09T07:05:08Z</time></trkpt>
<trkpt lat="35.88888439406285" lon="138.59172793205525"><ele>1918</ele><time>2024-11-09T07:06:28Z</time></trkpt>
<trkpt lat="35.88874693694312" lon="138.59159701948062"><ele>1913</ele><time>2024-11-09T07:06:53Z</time></trkpt>
<trkpt lat="35.888578616108425" lon="138.59161059651504"><ele>1908</ele><time>2024-11-09T07:07:35Z</time></trkpt>
<trkpt lat="35.88840650017922" lon="138.59159871112817"><ele>1900</ele><time>2024-11-09T07:08:25Z</time></trkpt>
<trkpt lat="35.88826092443002" lon="138.59164377592813"><ele>1894</ele><time>2024-11-09T07:09:22Z</time></trkpt>
<trkpt lat="35.88839419995017" lon="138.5916813889985"><ele>1899</ele><time>2024-11-09T07:11:11Z</time></trkpt>
<trkpt lat="35.88827734224804" lon="138.59170750838587"><ele>1895</ele><time>2024-11-09T07:17:12Z</time></trkpt>
<trkpt lat="35.88819539563773" lon="138.59162293090785"><ele>1891</ele><time>2024-11-09T07:17:47Z</time></trkpt>
<trkpt lat="35.8880675598374" lon="138.59167400879278"><ele>1881</ele><time>2024-11-09T07:19:58Z</time></trkpt>
<trkpt lat="35.887829391106" lon="138.59165108660008"><ele>1875</ele><time>2024-11-09T07:21:06Z</time></trkpt>
<trkpt lat="35.88773226067374" lon="138.59179330296817"><ele>1867</ele><time>2024-11-09T07:22:19Z</time></trkpt>
<trkpt lat="35.887626030356266" lon="138.59165287438614"><ele>1862</ele><time>2024-11-09T07:23:59Z</time></trkpt>
<trkpt lat="35.88749460407697" lon="138.59158866079434"><ele>1859</ele><time>2024-11-09T07:24:40Z</time></trkpt>
<trkpt lat="35.88736713339932" lon="138.59164204386488"><ele>1853</ele><time>2024-11-09T07:25:41Z</time></trkpt>
<trkpt lat="35.88725879784285" lon="138.5916025749392"><ele>1849</ele><time>2024-11-09T07:26:46Z</time></trkpt>
<trkpt lat="35.8870708015289" lon="138.59160654819874"><ele>1842</ele><time>2024-11-09T07:27:26Z</time></trkpt>
<trkpt lat="35.88696468987668" lon="138.59180322966944"><ele>1837</ele><time>2024-11-09T07:28:00Z</time></trkpt>
<trkpt lat="35.8867803758566" lon="138.5918353453559"><ele>1826</ele><time>2024-11-09T07:29:01Z</time></trkpt>
<trkpt lat="35.88651339892063" lon="138.59187891308696"><ele>1819</ele><time>2024-11-09T07:30:40Z</time></trkpt>
<trkpt lat="35.88649274304927" lon="138.59210749517064"><ele>1819</ele><time>2024-11-09T07:31:18Z</time></trkpt>
<trkpt lat="35.88652347005558" lon="138.59226217217534"><ele>1821</ele><time>2024-11-09T07:31:41Z</time></trkpt>
<trkpt lat="35.886533059947816" lon="138.5921449296755"><ele>1821</ele><time>2024-11-09T07:32:08Z</time></trkpt>
<trkpt lat="35.88641333625958" lon="138.59207267885895"><ele>1824</ele><time>2024-11-09T07:32:51Z</time></trkpt>
<trkpt lat="35.88621765292805" lon="138.5920589689509"><ele>1831</ele><time>2024-11-09T07:33:12Z</time></trkpt>
<trkpt lat="35.88601475674496" lon="138.59190969533725"><ele>1841</ele><time>2024-11-09T07:34:56Z</time></trkpt>
<trkpt lat="35.88588719338973" lon="138.5918312189177"><ele>1853</ele><time>2024-11-09T07:35:51Z</time></trkpt>
<trkpt lat="35.885819594629474" lon="138.59195103694518"><ele>1859</ele><time>2024-11-09T07:36:42Z</time></trkpt>
<trkpt lat="35.885714675621145" lon="138.5920725087942"><ele>1864</ele><time>2024-11-09T07:37:13Z</time></trkpt>
<trkpt lat="35.88555103293702" lon="138.59183658778454"><ele>1864</ele><time>2024-11-09T07:37:46Z</time></trkpt>
<trkpt lat="35.88534272101913" lon="138.59169205164767"><ele>1858</ele><time>2024-11-09T07:38:18Z</time></trkpt>
<trkpt lat="35.88517073262367" lon="138.59169142399176"><ele>1858</ele><time>2024-11-09T07:38:52Z</time></trkpt>
<trkpt lat="35.885074902053375" lon="138.5914896331799"><ele>1858</ele><time>2024-11-09T07:39:17Z</time></trkpt>
<trkpt lat="35.88498129365393" lon="138.59132941723993"><ele>1856</ele><time>2024-11-09T07:39:47Z</time></trkpt>
<trkpt lat="35.88488785649936" lon="138.59116633314537"><ele>1853</ele><time>2024-11-09T07:40:11Z</time></trkpt>
<trkpt lat="35.884687295057354" lon="138.59099275574044"><ele>1850</ele><time>2024-11-09T07:41:15Z</time></trkpt>
<trkpt lat="35.884628909357765" lon="138.5908551251947"><ele>1843</ele><time>2024-11-09T07:41:52Z</time></trkpt>
<trkpt lat="35.88463626605499" lon="138.5905770260019"><ele>1838</ele><time>2024-11-09T07:42:27Z</time></trkpt>
<trkpt lat="35.88461493239099" lon="138.59042878966423"><ele>1833</ele><time>2024-11-09T07:43:18Z</time></trkpt>
<trkpt lat="35.8844921943331" lon="138.59016074235137"><ele>1831</ele><time>2024-11-09T07:43:43Z</time></trkpt>
<trkpt lat="35.88439548517312" lon="138.5898807209749"><ele>1831</ele><time>2024-11-09T07:44:13Z</time></trkpt>
<trkpt lat="35.88423073152793" lon="138.58973762666776"><ele>1840</ele><time>2024-11-09T07:44:51Z</time></trkpt>
<trkpt lat="35.8841523814514" lon="138.58950833194444"><ele>1843</ele><time>2024-11-09T07:45:46Z</time></trkpt>
<trkpt lat="35.88406807007668" lon="138.58924543135055"><ele>1842</ele><time>2024-11-09T07:46:21Z</time></trkpt>
<trkpt lat="35.88405287497808" lon="138.58906046732469"><ele>1836</ele><time>2024-11-09T07:46:54Z</time></trkpt>
<trkpt lat="35.88402525763054" lon="138.58881638999685"><ele>1834</ele><time>2024-11-09T07:47:32Z</time></trkpt>
<trkpt lat="35.883957555627326" lon="138.5885630448514"><ele>1833</ele><time>2024-11-09T07:48:06Z</time></trkpt>
<trkpt lat="35.88390406439968" lon="138.58820725525572"><ele>1834</ele><time>2024-11-09T07:48:48Z</time></trkpt>
<trkpt lat="35.88375348198099" lon="138.58795557224948"><ele>1836</ele><time>2024-11-09T07:49:29Z</time></trkpt>
<trkpt lat="35.883566777736775" lon="138.58779246527064"><ele>1839</ele><time>2024-11-09T07:49:54Z</time></trkpt>
<trkpt lat="35.8833488630265" lon="138.58764373725376"><ele>1840</ele><time>2024-11-09T07:50:28Z</time></trkpt>
<trkpt lat="35.88315004115667" lon="138.58755981711903"><ele>1841</ele><time>2024-11-09T07:51:08Z</time></trkpt>
<trkpt lat="35.883103747642316" lon="138.58737265266916"><ele>1831</ele><time>2024-11-09T07:51:38Z</time></trkpt>
<trkpt lat="35.88291080421059" lon="138.58732940713315"><ele>1826</ele><time>2024-11-09T07:52:10Z</time></trkpt>
<trkpt lat="35.882661787698126" lon="138.58725924998856"><ele>1820</ele><time>2024-11-09T07:52:49Z</time></trkpt>
<trkpt lat="35.882514994729405" lon="138.58725548916007"><ele>1820</ele><time>2024-11-09T07:53:38Z</time></trkpt>
<trkpt lat="35.88236664002985" lon="138.58720470779932"><ele>1817</ele><time>2024-11-09T07:55:01Z</time></trkpt>
<trkpt lat="35.88243232094052" lon="138.5874687442555"><ele>1817</ele><time>2024-11-09T07:55:39Z</time></trkpt>
<trkpt lat="35.88252111775386" lon="138.5874019219682"><ele>1820</ele><time>2024-11-09T07:56:29Z</time></trkpt>
<trkpt lat="35.8824229661955" lon="138.58745710970868"><ele>1820</ele><time>2024-11-09T08:00:26Z</time></trkpt>
<trkpt lat="35.88223714846947" lon="138.58740789700656"><ele>1818</ele><time>2024-11-09T08:01:23Z</time></trkpt>
<trkpt lat="35.882154266726516" lon="138.58713730627622"><ele>1811</ele><time>2024-11-09T08:02:19Z</time></trkpt>
<trkpt lat="35.88193417772146" lon="138.58711196711596"><ele>1807</ele><time>2024-11-09T08:03:13Z</time></trkpt>
<trkpt lat="35.88202865996277" lon="138.58703660940543"><ele>1809</ele><time>2024-11-09T08:04:44Z</time></trkpt>
<trkpt lat="35.88189758397647" lon="138.5870174352023"><ele>1809</ele><time>2024-11-09T08:07:49Z</time></trkpt>
<trkpt lat="35.8820001735406" lon="138.58701839597828"><ele>1808</ele><time>2024-11-09T08:10:30Z</time></trkpt>
<trkpt lat="35.881903810062205" lon="138.5870329410753"><ele>1810</ele><time>2024-11-09T08:15:46Z</time></trkpt>
<trkpt lat="35.88199923575053" lon="138.58703570896282"><ele>1810</ele><time>2024-11-09T08:16:24Z</time></trkpt>
<trkpt lat="35.881897397647805" lon="138.58707920377904"><ele>1811</ele><time>2024-11-09T08:25:13Z</time></trkpt>
<trkpt lat="35.8817846691047" lon="138.58713439510063"><ele>1811</ele><time>2024-11-09T08:27:45Z</time></trkpt>
<trkpt lat="35.88191303673012" lon="138.58708727410072"><ele>1811</ele><time>2024-11-09T08:28:37Z</time></trkpt>
<trkpt lat="35.88190171552543" lon="138.58724163398597"><ele>1807</ele><time>2024-11-09T08:41:30Z</time></trkpt>
<trkpt lat="35.88197896051215" lon="138.5871334147816"><ele>1818</ele><time>2024-11-09T08:53:34Z</time></trkpt>
<trkpt lat="35.88199131655649" lon="138.58707831022755"><ele>1804</ele><time>2024-11-09T09:11:31Z</time></trkpt>
</trkseg>
</trk>
<trk><name>track</name><number>2</number><trkseg>
<trkpt lat="35.88205798066769" lon="138.58720578266175"><ele>1805</ele><time>2024-11-09T23:12:29Z</time></trkpt>
<trkpt lat="35.882025416973995" lon="138.5870726780394"><ele>1805</ele><time>2024-11-09T23:12:53Z</time></trkpt>
<trkpt lat="35.8822257805244" lon="138.58725483761975"><ele>1807</ele><time>2024-11-09T23:16:22Z</time></trkpt>
<trkpt lat="35.882343872659135" lon="138.58748185234435"><ele>1812</ele><time>2024-11-09T23:16:50Z</time></trkpt>
<trkpt lat="35.88250234364337" lon="138.58765416809126"><ele>1824</ele><time>2024-11-09T23:17:29Z</time></trkpt>
<trkpt lat="35.882602358951324" lon="138.5878631973643"><ele>1829</ele><time>2024-11-09T23:18:04Z</time></trkpt>
<trkpt lat="35.8827199854283" lon="138.5880748574755"><ele>1840</ele><time>2024-11-09T23:18:50Z</time></trkpt>
<trkpt lat="35.882773768843684" lon="138.588360235843"><ele>1848</ele><time>2024-11-09T23:19:23Z</time></trkpt>
<trkpt lat="35.88278643341014" lon="138.58872669153223"><ele>1856</ele><time>2024-11-09T23:19:59Z</time></trkpt>
<trkpt lat="35.88285696379207" lon="138.58893148536058"><ele>1863</ele><time>2024-11-09T23:20:42Z</time></trkpt>
<trkpt lat="35.88287124366899" lon="138.58914214847698"><ele>1869</ele><time>2024-11-09T23:21:15Z</time></trkpt>
<trkpt lat="35.88296237088037" lon="138.58932276792913"><ele>1882</ele><time>2024-11-09T23:21:55Z</time></trkpt>
<trkpt lat="35.883102924851286" lon="138.58951785163993"><ele>1884</ele><time>2024-11-09T23:22:38Z</time></trkpt>
<trkpt lat="35.88322334232702" lon="138.58969552291734"><ele>1893</ele><time>2024-11-09T23:23:32Z</time></trkpt>
<trkpt lat="35.88329937518649" lon="138.58992958814105"><ele>1899</ele><time>2024-11-09T23:24:12Z</time></trkpt>
<trkpt lat="35.88331422191872" lon="138.59017528770244"><ele>1902</ele><time>2024-11-09T23:24:46Z</time></trkpt>
<trkpt lat="35.88333927071217" lon="138.59039666567688"><ele>1902</ele><time>2024-11-09T23:25:21Z</time></trkpt>
<trkpt lat="35.88336102689272" lon="138.59063360920536"><ele>1907</ele><time>2024-11-09T23:25:59Z</time></trkpt>
<trkpt lat="35.88335825371614" lon="138.59084901022996"><ele>1914</ele><time>2024-11-09T23:26:32Z</time></trkpt>
<trkpt lat="35.88337573101898" lon="138.59103326071192"><ele>1922</ele><time>2024-11-09T23:27:17Z</time></trkpt>
<trkpt lat="35.883310309794545" lon="138.59124530377773"><ele>1932</ele><time>2024-11-09T23:27:47Z</time></trkpt>
<trkpt lat="35.883418265164" lon="138.59149662114328"><ele>1930</ele><time>2024-11-09T23:28:21Z</time></trkpt>
<trkpt lat="35.88350658304957" lon="138.5917186387368"><ele>1934</ele><time>2024-11-09T23:28:55Z</time></trkpt>
<trkpt lat="35.88354631569232" lon="138.59200060419462"><ele>1942</ele><time>2024-11-09T23:29:39Z</time></trkpt>
<trkpt lat="35.883588381466936" lon="138.5922158679779"><ele>1953</ele><time>2024-11-09T23:30:08Z</time></trkpt>
<trkpt lat="35.88366524448872" lon="138.59245785614146"><ele>1958</ele><time>2024-11-09T23:30:52Z</time></trkpt>
<trkpt lat="35.88368010441643" lon="138.59264922374084"><ele>1964</ele><time>2024-11-09T23:31:28Z</time></trkpt>
<trkpt lat="35.88366916038875" lon="138.59289879745359"><ele>1975</ele><time>2024-11-09T23:32:04Z</time></trkpt>
<trkpt lat="35.883604064861665" lon="138.59313000669"><ele>1984</ele><time>2024-11-09T23:32:42Z</time></trkpt>
<trkpt lat="35.88353149607338" lon="138.59328011684906"><ele>1982</ele><time>2024-11-09T23:33:31Z</time></trkpt>
<trkpt lat="35.88337417171795" lon="138.59348689663167"><ele>1989</ele><time>2024-11-09T23:34:13Z</time></trkpt>
<trkpt lat="35.883229014557244" lon="138.59356991015588"><ele>1991</ele><time>2024-11-09T23:34:38Z</time></trkpt>
<trkpt lat="35.88313058030747" lon="138.59375291356673"><ele>1994</ele><time>2024-11-09T23:35:15Z</time></trkpt>
<trkpt lat="35.88297289235689" lon="138.5938481169214"><ele>2001</ele><time>2024-11-09T23:35:41Z</time></trkpt>
<trkpt lat="35.88289458125768" lon="138.5940578054476"><ele>2004</ele><time>2024-11-09T23:36:27Z</time></trkpt>
<trkpt lat="35.88271054465777" lon="138.59423585767058"><ele>2007</ele><time>2024-11-09T23:37:06Z</time></trkpt>
<trkpt lat="35.882665674012365" lon="138.5943875219715"><ele>2009</ele><time>2024-11-09T23:37:46Z</time></trkpt>
<trkpt lat="35.88252938712685" lon="138.59455553655732"><ele>2015</ele><time>2024-11-09T23:38:30Z</time></trkpt>
<trkpt lat="35.88241335416544" lon="138.59470478758257"><ele>2018</ele><time>2024-11-09T23:39:03Z</time></trkpt>
<trkpt lat="35.88229841853482" lon="138.59489341668257"><ele>2024</ele><time>2024-11-09T23:39:37Z</time></trkpt>
<trkpt lat="35.882224217850016" lon="138.595134838866"><ele>2028</ele><time>2024-11-09T23:40:18Z</time></trkpt>
<trkpt lat="35.88207948499018" lon="138.595293983534"><ele>2034</ele><time>2024-11-09T23:41:00Z</time></trkpt>
<trkpt lat="35.881926369257144" lon="138.59540277235132"><ele>2038</ele><time>2024-11-09T23:41:39Z</time></trkpt>
<trkpt lat="35.88174481579088" lon="138.595565795946"><ele>2033</ele><time>2024-11-09T23:42:19Z</time></trkpt>
<trkpt lat="35.881606168583865" lon="138.5957681040931"><ele>2037</ele><time>2024-11-09T23:42:56Z</time></trkpt>
<trkpt lat="35.88150350952917" lon="138.5960091678654"><ele>2038</ele><time>2024-11-09T23:43:31Z</time></trkpt>
<trkpt lat="35.88136281293354" lon="138.596214368131"><ele>2039</ele><time>2024-11-09T23:43:59Z</time></trkpt>
<trkpt lat="35.881272142670284" lon="138.59650485668436"><ele>2038</ele><time>2024-11-09T23:44:32Z</time></trkpt>
<trkpt lat="35.88119388098855" lon="138.59673614352897"><ele>2041</ele><time>2024-11-09T23:45:03Z</time></trkpt>
<trkpt lat="35.881171285023754" lon="138.59699883691414"><ele>2042</ele><time>2024-11-09T23:45:33Z</time></trkpt>
<trkpt lat="35.88116711486172" lon="138.59727565106408"><ele>2041</ele><time>2024-11-09T23:46:02Z</time></trkpt>
<trkpt lat="35.88108425476855" lon="138.59751759356044"><ele>2036</ele><time>2024-11-09T23:46:33Z</time></trkpt>
<trkpt lat="35.881024328703305" lon="138.59771273238323"><ele>2033</ele><time>2024-11-09T23:47:15Z</time></trkpt>
<trkpt lat="35.880975407709485" lon="138.59800992705664"><ele>2031</ele><time>2024-11-09T23:47:45Z</time></trkpt>
<trkpt lat="35.88100322490778" lon="138.59826074852046"><ele>2027</ele><time>2024-11-09T23:48:37Z</time></trkpt>
<trkpt lat="35.8810710841606" lon="138.5983890455616"><ele>2025</ele><time>2024-11-09T23:49:11Z</time></trkpt>
<trkpt lat="35.88103111374234" lon="138.5985686859014"><ele>2025</ele><time>2024-11-09T23:49:45Z</time></trkpt>
<trkpt lat="35.8811396605902" lon="138.59878602713118"><ele>2022</ele><time>2024-11-09T23:50:18Z</time></trkpt>
<trkpt lat="35.881212978695" lon="138.59898858067888"><ele>2021</ele><time>2024-11-09T23:50:51Z</time></trkpt>
<trkpt lat="35.88136282252895" lon="138.5992279425722"><ele>2012</ele><time>2024-11-09T23:51:43Z</time></trkpt>
<trkpt lat="35.881399622363425" lon="138.59946604830114"><ele>2009</ele><time>2024-11-09T23:52:22Z</time></trkpt>
<trkpt lat="35.881513775804706" lon="138.5996897727417"><ele>2010</ele><time>2024-11-09T23:52:52Z</time></trkpt>
<trkpt lat="35.881645195272775" lon="138.60000124810614"><ele>2005</ele><time>2024-11-09T23:53:25Z</time></trkpt>
<trkpt lat="35.88175510141283" lon="138.6002471885557"><ele>2002</ele><time>2024-11-09T23:54:04Z</time></trkpt>
<trkpt lat="35.881867556620556" lon="138.60050487313208"><ele>2002</ele><time>2024-11-09T23:54:44Z</time></trkpt>
<trkpt lat="35.88182479147341" lon="138.60082880214472"><ele>2002</ele><time>2024-11-09T23:55:14Z</time></trkpt>
<trkpt lat="35.881811949743515" lon="138.60101761988298"><ele>2000</ele><time>2024-11-09T23:55:47Z</time></trkpt>
<trkpt lat="35.881787381939944" lon="138.60126418678732"><ele>2002</ele><time>2024-11-09T23:57:14Z</time></trkpt>
<trkpt lat="35.88165166885381" lon="138.60152588561925"><ele>1997</ele><time>2024-11-10T00:02:23Z</time></trkpt>
<trkpt lat="35.88150906716501" lon="138.60166015432065"><ele>1993</ele><time>2024-11-10T00:02:49Z</time></trkpt>
<trkpt lat="35.88140625332668" lon="138.60189218142534"><ele>1993</ele><time>2024-11-10T00:03:30Z</time></trkpt>
<trkpt lat="35.88149454835729" lon="138.60204074707082"><ele>1997</ele><time>2024-11-10T00:04:09Z</time></trkpt>
<trkpt lat="35.88141305667491" lon="138.60225514708011"><ele>1998</ele><time>2024-11-10T00:04:35Z</time></trkpt>
<trkpt lat="35.881488534256405" lon="138.60255972332521"><ele>2006</ele><time>2024-11-10T00:05:11Z</time></trkpt>
<trkpt lat="35.881464207946664" lon="138.60279345284354"><ele>2012</ele><time>2024-11-10T00:05:46Z</time></trkpt>
<trkpt lat="35.88143352173017" lon="138.6029712567084"><ele>2015</ele><time>2024-11-10T00:06:30Z</time></trkpt>
<trkpt lat="35.88125087029186" lon="138.60312159294367"><ele>2022</ele><time>2024-11-10T00:07:21Z</time></trkpt>
<trkpt lat="35.88116831611238" lon="138.6033016286983"><ele>2026</ele><time>2024-11-10T00:07:52Z</time></trkpt>
<trkpt lat="35.881009292278144" lon="138.6034223180079"><ele>2033</ele><time>2024-11-10T00:08:57Z</time></trkpt>
<trkpt lat="35.88109764871818" lon="138.60353414158305"><ele>2037</ele><time>2024-11-10T00:10:10Z</time></trkpt>
<trkpt lat="35.88116565932849" lon="138.60365560704068"><ele>2046</ele><time>2024-11-10T00:11:15Z</time></trkpt>
<trkpt lat="35.8810525648163" lon="138.60381722999128"><ele>2048</ele><time>2024-11-10T00:12:05Z</time></trkpt>
<trkpt lat="35.88097487975804" lon="138.60398243099056"><ele>2052</ele><time>2024-11-10T00:12:35Z</time></trkpt>
<trkpt lat="35.88088896071406" lon="138.60414907656323"><ele>2058</ele><time>2024-11-10T00:13:18Z</time></trkpt>
<trkpt lat="35.880838629606785" lon="138.6042716529712"><ele>2069</ele><time>2024-11-10T00:14:23Z</time></trkpt>
<trkpt lat="35.88074425247192" lon="138.60434064670676"><ele>2077</ele><time>2024-11-10T00:15:04Z</time></trkpt>
<trkpt lat="35.88069648607483" lon="138.60451362949024"><ele>2083</ele><time>2024-11-10T00:16:24Z</time></trkpt>
<trkpt lat="35.880662637608935" lon="138.60468921516676"><ele>2093</ele><time>2024-11-10T00:17:22Z</time></trkpt>
<trkpt lat="35.88068742616853" lon="138.60488122987203"><ele>2099</ele><time>2024-11-10T00:18:21Z</time></trkpt>
<trkpt lat="35.880614793993566" lon="138.6050063696803"><ele>2108</ele><time>2024-11-10T00:19:16Z</time></trkpt>
<trkpt lat="35.88040694014622" lon="138.60512967856798"><ele>2112</ele><time>2024-11-10T00:25:39Z</time></trkpt>
<trkpt lat="35.880233975047915" lon="138.60531068589515"><ele>2118</ele><time>2024-11-10T00:26:24Z</time></trkpt>
<trkpt lat="35.880165553266544" lon="138.60538379608985"><ele>2121</ele><time>2024-11-10T00:27:18Z</time></trkpt>
<trkpt lat="35.8800301054825" lon="138.60553545857596"><ele>2127</ele><time>2024-11-10T00:28:10Z</time></trkpt>
<trkpt lat="35.87990220841817" lon="138.60565818651736"><ele>2131</ele><time>2024-11-10T00:29:08Z</time></trkpt>
<trkpt lat="35.87990423475945" lon="138.6057902384851"><ele>2130</ele><time>2024-11-10T00:32:24Z</time></trkpt>
<trkpt lat="35.87975496816722" lon="138.60586720204182"><ele>2133</ele><time>2024-11-10T00:32:53Z</time></trkpt>
<trkpt lat="35.879607285320006" lon="138.60596375684077"><ele>2134</ele><time>2024-11-10T00:33:41Z</time></trkpt>
<trkpt lat="35.87953105390678" lon="138.60610648618623"><ele>2142</ele><time>2024-11-10T00:34:38Z</time></trkpt>
<trkpt lat="35.87955581408116" lon="138.60621771343284"><ele>2147</ele><time>2024-11-10T00:35:48Z</time></trkpt>
<trkpt lat="35.879538212989026" lon="138.60637326409363"><ele>2156</ele><time>2024-11-10T00:37:25Z</time></trkpt>
<trkpt lat="35.879468875779594" lon="138.60654183965508"><ele>2156</ele><time>2024-11-10T00:38:13Z</time></trkpt>
<trkpt lat="35.8794253373908" lon="138.60674079706905"><ele>2170</ele><time>2024-11-10T00:39:05Z</time></trkpt>
<trkpt lat="35.87945115081672" lon="138.60701455446866"><ele>2180</ele><time>2024-11-10T00:40:07Z</time></trkpt>
<trkpt lat="35.879563248156195" lon="138.60699271182213"><ele>2175</ele><time>2024-11-10T00:41:43Z</time></trkpt>
<trkpt lat="35.87937069418024" lon="138.60708009268134"><ele>2179</ele><time>2024-11-10T00:42:16Z</time></trkpt>
<trkpt lat="35.879159723100855" lon="138.60719423001996"><ele>2184</ele><time>2024-11-10T00:43:05Z</time></trkpt>
<trkpt lat="35.8789710976754" lon="138.60727867901778"><ele>2182</ele><time>2024-11-10T00:43:39Z</time></trkpt>
<trkpt lat="35.87879354829644" lon="138.60731113553567"><ele>2187</ele><time>2024-11-10T00:44:26Z</time></trkpt>
<trkpt lat="35.87866197639038" lon="138.60724127714118"><ele>2191</ele><time>2024-11-10T00:45:12Z</time></trkpt>
<trkpt lat="35.87855081709277" lon="138.6071868573772"><ele>2193</ele><time>2024-11-10T00:45:52Z</time></trkpt>
<trkpt lat="35.87839443331164" lon="138.60723616724084"><ele>2195</ele><time>2024-11-10T00:46:26Z</time></trkpt>
<trkpt lat="35.87822228277445" lon="138.60732336001504"><ele>2198</ele><time>2024-11-10T00:47:05Z</time></trkpt>
<trkpt lat="35.8780481215352" lon="138.60744797350392"><ele>2198</ele><time>2024-11-10T00:47:37Z</time></trkpt>
<trkpt lat="35.877810613681625" lon="138.60741364828846"><ele>2199</ele><time>2024-11-10T00:48:13Z</time></trkpt>
<trkpt lat="35.877651653334944" lon="138.60748365250672"><ele>2200</ele><time>2024-11-10T00:48:41Z</time></trkpt>
<trkpt lat="35.87750765125176" lon="138.60760427842663"><ele>2198</ele><time>2024-11-10T00:49:14Z</time></trkpt>
<trkpt lat="35.8773457140833" lon="138.60766449981386"><ele>2204</ele><time>2024-11-10T00:49:48Z</time></trkpt>
<trkpt lat="35.877150673112816" lon="138.6078024807578"><ele>2205</ele><time>2024-11-10T00:50:29Z</time></trkpt>
<trkpt lat="35.87710221736455" lon="138.60800782543086"><ele>2205</ele><time>2024-11-10T00:50:59Z</time></trkpt>
<trkpt lat="35.87698327541179" lon="138.60817383535"><ele>2205</ele><time>2024-11-10T00:51:33Z</time></trkpt>
<trkpt lat="35.87685026203474" lon="138.608345195992"><ele>2208</ele><time>2024-11-10T00:52:19Z</time></trkpt>
<trkpt lat="35.87674521139219" lon="138.60852986951028"><ele>2217</ele><time>2024-11-10T00:53:19Z</time></trkpt>
<trkpt lat="35.87660706197184" lon="138.60866096387494"><ele>2222</ele><time>2024-11-10T00:53:58Z</time></trkpt>
<trkpt lat="35.87642753308049" lon="138.60883917609635"><ele>2227</ele><time>2024-11-10T00:54:45Z</time></trkpt>
<trkpt lat="35.876228418338016" lon="138.60897462930194"><ele>2228</ele><time>2024-11-10T00:55:16Z</time></trkpt>
<trkpt lat="35.8759886946882" lon="138.60907812466036"><ele>2229</ele><time>2024-11-10T00:55:47Z</time></trkpt>
<trkpt lat="35.87585115510282" lon="138.60933847232852"><ele>2229</ele><time>2024-11-10T00:56:18Z</time></trkpt>
<trkpt lat="35.875650998403536" lon="138.6094787853377"><ele>2230</ele><time>2024-11-10T00:56:46Z</time></trkpt>
<trkpt lat="35.875467101912385" lon="138.6096666374153"><ele>2235</ele><time>2024-11-10T00:57:17Z</time></trkpt>
<trkpt lat="35.875416112698396" lon="138.6098502630445"><ele>2238</ele><time>2024-11-10T00:58:22Z</time></trkpt>
<trkpt lat="35.87530056815094" lon="138.60993343217868"><ele>2246</ele><time>2024-11-10T00:59:09Z</time></trkpt>
<trkpt lat="35.87524101211261" lon="138.61010458560642"><ele>2248</ele><time>2024-11-10T01:00:13Z</time></trkpt>
<trkpt lat="35.875077407317356" lon="138.61015343525693"><ele>2255</ele><time>2024-11-10T01:01:06Z</time></trkpt>
<trkpt lat="35.874954137484174" lon="138.61022696532362"><ele>2265</ele><time>2024-11-10T01:02:02Z</time></trkpt>
<trkpt lat="35.874869504940364" lon="138.61036742311225"><ele>2271</ele><time>2024-11-10T01:02:58Z</time></trkpt>
<trkpt lat="35.87478286441045" lon="138.61048093714768"><ele>2278</ele><time>2024-11-10T01:03:53Z</time></trkpt>
<trkpt lat="35.87468359945278" lon="138.610579338447"><ele>2284</ele><time>2024-11-10T01:04:29Z</time></trkpt>
<trkpt lat="35.87449887147605" lon="138.6105615723259"><ele>2287</ele><time>2024-11-10T01:05:07Z</time></trkpt>
<trkpt lat="35.8743605457634" lon="138.61064367265695"><ele>2293</ele><time>2024-11-10T01:18:37Z</time></trkpt>
<trkpt lat="35.87418133195199" lon="138.6106610490507"><ele>2299</ele><time>2024-11-10T01:19:18Z</time></trkpt>
<trkpt lat="35.87406791513013" lon="138.61068082782526"><ele>2305</ele><time>2024-11-10T01:20:09Z</time></trkpt>
<trkpt lat="35.873866307387324" lon="138.61060894925643"><ele>2311</ele><time>2024-11-10T01:20:43Z</time></trkpt>
<trkpt lat="35.87364667618127" lon="138.6108409512106"><ele>2314</ele><time>2024-11-10T01:21:22Z</time></trkpt>
<trkpt lat="35.87347771311921" lon="138.6111068364591"><ele>2315</ele><time>2024-11-10T01:21:52Z</time></trkpt>
<trkpt lat="35.87336262322262" lon="138.61138837324296"><ele>2313</ele><time>2024-11-10T01:22:20Z</time></trkpt>
<trkpt lat="35.873192696579146" lon="138.61159941957447"><ele>2308</ele><time>2024-11-10T01:22:54Z</time></trkpt>
<trkpt lat="35.87309131384702" lon="138.6119372540182"><ele>2306</ele><time>2024-11-10T01:23:26Z</time></trkpt>
<trkpt lat="35.87290320235086" lon="138.61218101780088"><ele>2305</ele><time>2024-11-10T01:23:57Z</time></trkpt>
<trkpt lat="35.87277839443769" lon="138.61242311301368"><ele>2304</ele><time>2024-11-10T01:24:29Z</time></trkpt>
<trkpt lat="35.87271356986871" lon="138.61269494752264"><ele>2308</ele><time>2024-11-10T01:24:57Z</time></trkpt>
<trkpt lat="35.87273309657408" lon="138.61302582918682"><ele>2306</ele><time>2024-11-10T01:25:30Z</time></trkpt>
<trkpt lat="35.87267973087297" lon="138.6132734383574"><ele>2308</ele><time>2024-11-10T01:26:03Z</time></trkpt>
<trkpt lat="35.87269560613675" lon="138.61340362355756"><ele>2315</ele><time>2024-11-10T01:26:51Z</time></trkpt>
<trkpt lat="35.87267276937615" lon="138.6135743668437"><ele>2317</ele><time>2024-11-10T01:27:31Z</time></trkpt>
<trkpt lat="35.87260849728865" lon="138.6137680852554"><ele>2321</ele><time>2024-11-10T01:27:59Z</time></trkpt>
<trkpt lat="35.87260361648718" lon="138.61395201811592"><ele>2325</ele><time>2024-11-10T01:28:41Z</time></trkpt>
<trkpt lat="35.872579591932194" lon="138.61415187583333"><ele>2335</ele><time>2024-11-10T01:31:21Z</time></trkpt>
<trkpt lat="35.87256138037855" lon="138.61433219465613"><ele>2342</ele><time>2024-11-10T01:32:07Z</time></trkpt>
<trkpt lat="35.87248606139677" lon="138.6144999710505"><ele>2348</ele><time>2024-11-10T01:32:57Z</time></trkpt>
<trkpt lat="35.87248222014949" lon="138.61470424539726"><ele>2356</ele><time>2024-11-10T01:33:52Z</time></trkpt>
<trkpt lat="35.87246236841182" lon="138.61487513915114"><ele>2365</ele><time>2024-11-10T01:34:50Z</time></trkpt>
<trkpt lat="35.87242825977952" lon="138.61503975301213"><ele>2369</ele><time>2024-11-10T01:35:39Z</time></trkpt>
<trkpt lat="35.87240894169201" lon="138.6151833916078"><ele>2378</ele><time>2024-11-10T01:36:27Z</time></trkpt>
<trkpt lat="35.872413995873785" lon="138.61540922535065"><ele>2382</ele><time>2024-11-10T01:36:59Z</time></trkpt>
<trkpt lat="35.872258899567356" lon="138.6154150132507"><ele>2389</ele><time>2024-11-10T01:38:06Z</time></trkpt>
<trkpt lat="35.87217116119376" lon="138.615609758724"><ele>2396</ele><time>2024-11-10T01:39:15Z</time></trkpt>
<trkpt lat="35.87204189952515" lon="138.6157137744178"><ele>2407</ele><time>2024-11-10T01:40:21Z</time></trkpt>
<trkpt lat="35.871912011462236" lon="138.61573967302655"><ele>2414</ele><time>2024-11-10T01:41:38Z</time></trkpt>
<trkpt lat="35.87179569505031" lon="138.61585488650485"><ele>2420</ele><time>2024-11-10T01:51:41Z</time></trkpt>
<trkpt lat="35.8717328173956" lon="138.61603381631764"><ele>2427</ele><time>2024-11-10T01:52:26Z</time></trkpt>
<trkpt lat="35.87163590151059" lon="138.61614922542657"><ele>2432</ele><time>2024-11-10T01:53:14Z</time></trkpt>
<trkpt lat="35.87159986067985" lon="138.61631698564244"><ele>2434</ele><time>2024-11-10T01:53:57Z</time></trkpt>
<trkpt lat="35.87157031351373" lon="138.61643436026327"><ele>2435</ele><time>2024-11-10T01:55:35Z</time></trkpt>
<trkpt lat="35.87153833203096" lon="138.61662467147295"><ele>2433</ele><time>2024-11-10T01:56:28Z</time></trkpt>
<trkpt lat="35.87150026331952" lon="138.61675451073955"><ele>2432</ele><time>2024-11-10T01:57:29Z</time></trkpt>
<trkpt lat="35.871398812771446" lon="138.6168959912361"><ele>2432</ele><time>2024-11-10T01:58:25Z</time></trkpt>
<trkpt lat="35.87129332161812" lon="138.61693742375465"><ele>2437</ele><time>2024-11-10T01:59:42Z</time></trkpt>
<trkpt lat="35.871191578983094" lon="138.61705304865563"><ele>2443</ele><time>2024-11-10T02:00:48Z</time></trkpt>
<trkpt lat="35.87113767534979" lon="138.61719217171338"><ele>2450</ele><time>2024-11-10T02:01:37Z</time></trkpt>
<trkpt lat="35.87112095957119" lon="138.61732954151861"><ele>2453</ele><time>2024-11-10T02:02:54Z</time></trkpt>
<trkpt lat="35.8710563156226" lon="138.6175808205482"><ele>2457</ele><time>2024-11-10T02:03:48Z</time></trkpt>
<trkpt lat="35.870996819874236" lon="138.61775388816906"><ele>2460</ele><time>2024-11-10T02:04:28Z</time></trkpt>
<trkpt lat="35.87092821918273" lon="138.61792368051488"><ele>2465</ele><time>2024-11-10T02:05:15Z</time></trkpt>
<trkpt lat="35.87092980126311" lon="138.61810453031384"><ele>2460</ele><time>2024-11-10T02:05:59Z</time></trkpt>
<trkpt lat="35.87093963364646" lon="138.6182276949044"><ele>2460</ele><time>2024-11-10T02:06:46Z</time></trkpt>
<trkpt lat="35.870989490717776" lon="138.6183335463608"><ele>2456</ele><time>2024-11-10T02:08:03Z</time></trkpt>
<trkpt lat="35.87100130320331" lon="138.6185331200456"><ele>2455</ele><time>2024-11-10T02:08:50Z</time></trkpt>
<trkpt lat="35.87098227537379" lon="138.61876158895853"><ele>2456</ele><time>2024-11-10T02:09:21Z</time></trkpt>
<trkpt lat="35.870980943267014" lon="138.6189482744361"><ele>2460</ele><time>2024-11-10T02:09:56Z</time></trkpt>
<trkpt lat="35.87101278881172" lon="138.61914310379848"><ele>2464</ele><time>2024-11-10T02:10:37Z</time></trkpt>
<trkpt lat="35.871056262293656" lon="138.61936392827963"><ele>2462</ele><time>2024-11-10T02:11:20Z</time></trkpt>
<trkpt lat="35.87104652900889" lon="138.6194952923531"><ele>2460</ele><time>2024-11-10T02:12:12Z</time></trkpt>
<trkpt lat="35.8709346357166" lon="138.61963280904448"><ele>2469</ele><time>2024-11-10T02:15:55Z</time></trkpt>
<trkpt lat="35.87088658562395" lon="138.61979417838663"><ele>2474</ele><time>2024-11-10T02:17:04Z</time></trkpt>
<trkpt lat="35.870788532926795" lon="138.61981591956"><ele>2480</ele><time>2024-11-10T02:18:19Z</time></trkpt>
<trkpt lat="35.870628933115306" lon="138.61988279037809"><ele>2490</ele><time>2024-11-10T02:19:05Z</time></trkpt>
<trkpt lat="35.8705761639192" lon="138.6201818995153"><ele>2492</ele><time>2024-11-10T02:19:48Z</time></trkpt>
<trkpt lat="35.870502068856794" lon="138.62043052005188"><ele>2495</ele><time>2024-11-10T02:20:23Z</time></trkpt>
<trkpt lat="35.87043255534657" lon="138.6206289669539"><ele>2500</ele><time>2024-11-10T02:20:55Z</time></trkpt>
<trkpt lat="35.870409354113136" lon="138.62084129294536"><ele>2504</ele><time>2024-11-10T02:21:34Z</time></trkpt>
<trkpt lat="35.87043770151047" lon="138.620994059463"><ele>2509</ele><time>2024-11-10T02:22:20Z</time></trkpt>
<trkpt lat="35.87049268923605" lon="138.62117084097372"><ele>2514</ele><time>2024-11-10T02:23:07Z</time></trkpt>
<trkpt lat="35.87052430468516" lon="138.6213629963482"><ele>2522</ele><time>2024-11-10T02:23:59Z</time></trkpt>
<trkpt lat="35.87053289970053" lon="138.62152219551572"><ele>2526</ele><time>2024-11-10T02:24:56Z</time></trkpt>
<trkpt lat="35.87049995746652" lon="138.62168011613213"><ele>2529</ele><time>2024-11-10T02:25:57Z</time></trkpt>
<trkpt lat="35.870455339289116" lon="138.62182773066843"><ele>2535</ele><time>2024-11-10T02:26:47Z</time></trkpt>
<trkpt lat="35.87038262670587" lon="138.62189301998274"><ele>2544</ele><time>2024-11-10T02:29:17Z</time></trkpt>
<trkpt lat="35.870447531110294" lon="138.62203825220647"><ele>2549</ele><time>2024-11-10T02:30:00Z</time></trkpt>
<trkpt lat="35.87053159142556" lon="138.62227734869248"><ele>2545</ele><time>2024-11-10T02:30:40Z</time></trkpt>
<trkpt lat="35.87058578346177" lon="138.62253154605105"><ele>2541</ele><time>2024-11-10T02:31:14Z</time></trkpt>
<trkpt lat="35.870593784811106" lon="138.6226468707675"><ele>2541</ele><time>2024-11-10T02:31:46Z</time></trkpt>
<trkpt lat="35.87066061461487" lon="138.62285006513383"><ele>2543</ele><time>2024-11-10T02:32:27Z</time></trkpt>
<trkpt lat="35.87066365148523" lon="138.62305424824342"><ele>2549</ele><time>2024-11-10T02:33:05Z</time></trkpt>
<trkpt lat="35.87071852056179" lon="138.62327085588248"><ele>2550</ele><time>2024-11-10T02:33:41Z</time></trkpt>
<trkpt lat="35.87077025361715" lon="138.62345348723596"><ele>2551</ele><time>2024-11-10T02:34:14Z</time></trkpt>
<trkpt lat="35.87087538879568" lon="138.62372532744735"><ele>2557</ele><time>2024-11-10T02:34:50Z</time></trkpt>
<trkpt lat="35.87092976796878" lon="138.62394698855738"><ele>2558</ele><time>2024-11-10T02:35:36Z</time></trkpt>
<trkpt lat="35.87093774621689" lon="138.6240995859056"><ele>2564</ele><time>2024-11-10T02:36:28Z</time></trkpt>
<trkpt lat="35.870941477904836" lon="138.62426355785846"><ele>2569</ele><time>2024-11-10T02:37:14Z</time></trkpt>
<trkpt lat="35.87103264102667" lon="138.62444112755637"><ele>2571</ele><time>2024-11-10T02:37:54Z</time></trkpt>
<trkpt lat="35.87107301790703" lon="138.62466512567192"><ele>2572</ele><time>2024-11-10T02:38:43Z</time></trkpt>
<trkpt lat="35.87098927083198" lon="138.62479887809042"><ele>2575</ele><time>2024-11-10T02:39:41Z</time></trkpt>
<trkpt lat="35.871166666892194" lon="138.62488158969822"><ele>2577</ele><time>2024-11-10T02:42:38Z</time></trkpt>
<trkpt lat="35.87137700458921" lon="138.62503308914995"><ele>2581</ele><time>2024-11-10T02:43:28Z</time></trkpt>
<trkpt lat="35.871471231167526" lon="138.6252038351098"><ele>2585</ele><time>2024-11-10T02:44:14Z</time></trkpt>
<trkpt lat="35.87157889784798" lon="138.62531306297282"><ele>2590</ele><time>2024-11-10T02:46:30Z</time></trkpt>
<trkpt lat="35.87158682330898" lon="138.62512572107295"><ele>2581</ele><time>2024-11-10T03:26:07Z</time></trkpt>
<trkpt lat="35.871661797954324" lon="138.6249414311013"><ele>2572</ele><time>2024-11-10T03:27:12Z</time></trkpt>
<trkpt lat="35.87180844180535" lon="138.62483357845963"><ele>2567</ele><time>2024-11-10T03:27:49Z</time></trkpt>
<trkpt lat="35.87194115561957" lon="138.62470850255164"><ele>2557</ele><time>2024-11-10T03:28:27Z</time></trkpt>
<trkpt lat="35.871922367225956" lon="138.62449917133895"><ele>2550</ele><time>2024-11-10T03:29:27Z</time></trkpt>
<trkpt lat="35.8720543496873" lon="138.6243797223609"><ele>2541</ele><time>2024-11-10T03:30:13Z</time></trkpt>
<trkpt lat="35.87223234514217" lon="138.62433268417786"><ele>2534</ele><time>2024-11-10T03:31:06Z</time></trkpt>
<trkpt lat="35.872387185961166" lon="138.62428535218052"><ele>2525</ele><time>2024-11-10T03:32:47Z</time></trkpt>
<trkpt lat="35.87253302770854" lon="138.62420149362703"><ele>2518</ele><time>2024-11-10T03:33:49Z</time></trkpt>
<trkpt lat="35.872650777347275" lon="138.62407130815126"><ele>2508</ele><time>2024-11-10T03:34:53Z</time></trkpt>
<trkpt lat="35.872806282452714" lon="138.62400021217957"><ele>2498</ele><time>2024-11-10T03:35:37Z</time></trkpt>
<trkpt lat="35.87300323689532" lon="138.624063650808"><ele>2492</ele><time>2024-11-10T03:36:19Z</time></trkpt>
<trkpt lat="35.87312419662033" lon="138.62390504705823"><ele>2482</ele><time>2024-11-10T03:37:05Z</time></trkpt>
<trkpt lat="35.87307956631237" lon="138.62372114505683"><ele>2482</ele><time>2024-11-10T03:38:21Z</time></trkpt>
<trkpt lat="35.87309910345621" lon="138.62356329152175"><ele>2475</ele><time>2024-11-10T03:39:05Z</time></trkpt>
<trkpt lat="35.873228573622775" lon="138.62341810035664"><ele>2467</ele><time>2024-11-10T03:39:52Z</time></trkpt>
<trkpt lat="35.873350039587834" lon="138.62330675506686"><ele>2461</ele><time>2024-11-10T03:40:31Z</time></trkpt>
<trkpt lat="35.873497374323726" lon="138.62313402386886"><ele>2455</ele><time>2024-11-10T03:41:09Z</time></trkpt>
<trkpt lat="35.873504411166415" lon="138.62291144468114"><ele>2446</ele><time>2024-11-10T03:42:21Z</time></trkpt>
<trkpt lat="35.87364509032082" lon="138.62295187365"><ele>2443</ele><time>2024-11-10T03:42:53Z</time></trkpt>
<trkpt lat="35.87378173503496" lon="138.623035894411"><ele>2442</ele><time>2024-11-10T03:44:03Z</time></trkpt>
<trkpt lat="35.87387090084031" lon="138.62319792648202"><ele>2438</ele><time>2024-11-10T03:44:37Z</time></trkpt>
<trkpt lat="35.873874718694665" lon="138.62304941493068"><ele>2439</ele><time>2024-11-10T03:45:19Z</time></trkpt>
<trkpt lat="35.87368225043555" lon="138.62293948960195"><ele>2447</ele><time>2024-11-10T03:45:56Z</time></trkpt>
<trkpt lat="35.87341728949844" lon="138.6228540581921"><ele>2448</ele><time>2024-11-10T03:46:28Z</time></trkpt>
<trkpt lat="35.873194271884046" lon="138.6227750832629"><ele>2446</ele><time>2024-11-10T03:46:58Z</time></trkpt>
<trkpt lat="35.87298569013145" lon="138.62261017324104"><ele>2440</ele><time>2024-11-10T03:47:29Z</time></trkpt>
<trkpt lat="35.87274589478734" lon="138.62246998990807"><ele>2443</ele><time>2024-11-10T03:48:01Z</time></trkpt>
<trkpt lat="35.8725421040043" lon="138.62240705170947"><ele>2442</ele><time>2024-11-10T03:48:32Z</time></trkpt>
<trkpt lat="35.87238006401433" lon="138.62219282417266"><ele>2440</ele><time>2024-11-10T03:49:07Z</time></trkpt>
<trkpt lat="35.87227992423566" lon="138.6219765256023"><ele>2438</ele><time>2024-11-10T03:49:37Z</time></trkpt>
<trkpt lat="35.87214184173538" lon="138.6217634449122"><ele>2443</ele><time>2024-11-10T03:50:04Z</time></trkpt>
<trkpt lat="35.87197586677437" lon="138.62157573343862"><ele>2443</ele><time>2024-11-10T03:50:33Z</time></trkpt>
<trkpt lat="35.87181192471078" lon="138.6213672055603"><ele>2446</ele><time>2024-11-10T03:51:03Z</time></trkpt>
<trkpt lat="35.8717051676936" lon="138.62116071235118"><ele>2443</ele><time>2024-11-10T03:51:41Z</time></trkpt>
<trkpt lat="35.87158790705332" lon="138.620939305126"><ele>2445</ele><time>2024-11-10T03:52:13Z</time></trkpt>
<trkpt lat="35.87147263705" lon="138.6207132992429"><ele>2448</ele><time>2024-11-10T03:52:46Z</time></trkpt>
<trkpt lat="35.871346670866245" lon="138.62044281407339"><ele>2448</ele><time>2024-11-10T03:53:21Z</time></trkpt>
<trkpt lat="35.871252739951366" lon="138.62014583648497"><ele>2449</ele><time>2024-11-10T03:53:49Z</time></trkpt>
<trkpt lat="35.871190483182154" lon="138.6198643626057"><ele>2450</ele><time>2024-11-10T03:54:27Z</time></trkpt>
<trkpt lat="35.87112543946812" lon="138.61966580143906"><ele>2450</ele><time>2024-11-10T03:55:08Z</time></trkpt>
<trkpt lat="35.87108711188929" lon="138.61949262639249"><ele>2454</ele><time>2024-11-10T03:55:50Z</time></trkpt>
<trkpt lat="35.8710468996014" lon="138.61924685502254"><ele>2455</ele><time>2024-11-10T03:58:29Z</time></trkpt>
<trkpt lat="35.870999803747495" lon="138.6190044768345"><ele>2455</ele><time>2024-11-10T03:59:09Z</time></trkpt>
<trkpt lat="35.870988594696705" lon="138.61875565482197"><ele>2448</ele><time>2024-11-10T03:59:56Z</time></trkpt>
<trkpt lat="35.87102818990839" lon="138.61862197141585"><ele>2444</ele><time>2024-11-10T04:01:09Z</time></trkpt>
<trkpt lat="35.87101911086775" lon="138.6183951756758"><ele>2447</ele><time>2024-11-10T04:01:43Z</time></trkpt>
<trkpt lat="35.8709705935818" lon="138.61823659381264"><ele>2457</ele><time>2024-11-10T04:02:29Z</time></trkpt>
<trkpt lat="35.87094061935796" lon="138.61803683072185"><ele>2459</ele><time>2024-11-10T04:03:08Z</time></trkpt>
<trkpt lat="35.870952165464566" lon="138.6178012457876"><ele>2457</ele><time>2024-11-10T04:03:45Z</time></trkpt>
<trkpt lat="35.87105303554251" lon="138.61764002562023"><ele>2450</ele><time>2024-11-10T04:04:24Z</time></trkpt>
<trkpt lat="35.8710994620378" lon="138.61738715340275"><ele>2449</ele><time>2024-11-10T04:04:55Z</time></trkpt>
<trkpt lat="35.87115942125613" lon="138.6171841189137"><ele>2445</ele><time>2024-11-10T04:05:45Z</time></trkpt>
<trkpt lat="35.871232308053685" lon="138.6170104508194"><ele>2438</ele><time>2024-11-10T04:06:29Z</time></trkpt>
<trkpt lat="35.8713234657626" lon="138.61693861072536"><ele>2435</ele><time>2024-11-10T04:07:14Z</time></trkpt>
<trkpt lat="35.87147018549609" lon="138.6168255734901"><ele>2423</ele><time>2024-11-10T04:08:45Z</time></trkpt>
<trkpt lat="35.871531836277896" lon="138.61662991981953"><ele>2433</ele><time>2024-11-10T04:09:42Z</time></trkpt>
<trkpt lat="35.871596352505335" lon="138.61638709775588"><ele>2431</ele><time>2024-11-10T04:10:16Z</time></trkpt>
<trkpt lat="35.87162892673115" lon="138.61620238314282"><ele>2428</ele><time>2024-11-10T04:10:49Z</time></trkpt>
<trkpt lat="35.87174236890396" lon="138.61604349408825"><ele>2419</ele><time>2024-11-10T04:11:42Z</time></trkpt>
<trkpt lat="35.871819605342765" lon="138.6158203963105"><ele>2414</ele><time>2024-11-10T04:12:27Z</time></trkpt>
<trkpt lat="35.871887897428586" lon="138.6156759301734"><ele>2409</ele><time>2024-11-10T04:13:20Z</time></trkpt>
<trkpt lat="35.872038044068844" lon="138.61572462146972"><ele>2416</ele><time>2024-11-10T04:18:01Z</time></trkpt>
<trkpt lat="35.871845106993526" lon="138.61574800055817"><ele>2413</ele><time>2024-11-10T04:28:03Z</time></trkpt>
<trkpt lat="35.872001132671855" lon="138.61573464805718"><ele>2417</ele><time>2024-11-10T04:32:04Z</time></trkpt>
<trkpt lat="35.872157153626645" lon="138.61560500265838"><ele>2403</ele><time>2024-11-10T04:32:50Z</time></trkpt>
<trkpt lat="35.87222868517544" lon="138.6154562193409"><ele>2399</ele><time>2024-11-10T04:33:29Z</time></trkpt>
<trkpt lat="35.87231002169439" lon="138.6153338518643"><ele>2392</ele><time>2024-11-10T04:34:11Z</time></trkpt>
<trkpt lat="35.872398830315994" lon="138.61510092120497"><ele>2383</ele><time>2024-11-10T04:34:55Z</time></trkpt>
<trkpt lat="35.87245087990241" lon="138.61489060893805"><ele>2374</ele><time>2024-11-10T04:35:43Z</time></trkpt>
<trkpt lat="35.872464930086515" lon="138.61470749684835"><ele>2367</ele><time>2024-11-10T04:36:23Z</time></trkpt>
<trkpt lat="35.872485077604665" lon="138.61454393450506"><ele>2353</ele><time>2024-11-10T04:37:01Z</time></trkpt>
<trkpt lat="35.87256376885536" lon="138.6143635622731"><ele>2346</ele><time>2024-11-10T04:37:49Z</time></trkpt>
<trkpt lat="35.872579536679645" lon="138.61416937368432"><ele>2341</ele><time>2024-11-10T04:38:34Z</time></trkpt>
<trkpt lat="35.87259287771434" lon="138.61395073558694"><ele>2328</ele><time>2024-11-10T04:39:16Z</time></trkpt>
<trkpt lat="35.87261146094796" lon="138.61372769486368"><ele>2325</ele><time>2024-11-10T04:40:05Z</time></trkpt>
<trkpt lat="35.87264074646221" lon="138.61353606181999"><ele>2317</ele><time>2024-11-10T04:40:44Z</time></trkpt>
<trkpt lat="35.872652342617016" lon="138.61330720650372"><ele>2313</ele><time>2024-11-10T04:41:23Z</time></trkpt>
<trkpt lat="35.8726816626371" lon="138.61302484370023"><ele>2313</ele><time>2024-11-10T04:42:47Z</time></trkpt>
<trkpt lat="35.872720429872786" lon="138.61268247366004"><ele>2309</ele><time>2024-11-10T04:43:15Z</time></trkpt>
<trkpt lat="35.87281871723242" lon="138.6123636056969"><ele>2308</ele><time>2024-11-10T04:43:44Z</time></trkpt>
<trkpt lat="35.87299169479855" lon="138.61210231044282"><ele>2312</ele><time>2024-11-10T04:44:13Z</time></trkpt>
<trkpt lat="35.8730790974519" lon="138.6117926111687"><ele>2314</ele><time>2024-11-10T04:44:41Z</time></trkpt>
<trkpt lat="35.873261833836736" lon="138.61156476976757"><ele>2316</ele><time>2024-11-10T04:45:12Z</time></trkpt>
<trkpt lat="35.87334945918251" lon="138.61130093005522"><ele>2320</ele><time>2024-11-10T04:45:41Z</time></trkpt>
<trkpt lat="35.87350567623891" lon="138.61097785284147"><ele>2321</ele><time>2024-11-10T04:46:10Z</time></trkpt>
<trkpt lat="35.87375925291379" lon="138.610810188248"><ele>2321</ele><time>2024-11-10T04:46:37Z</time></trkpt>
<trkpt lat="35.8739490357553" lon="138.61067733239463"><ele>2318</ele><time>2024-11-10T04:47:13Z</time></trkpt>
<trkpt lat="35.87415402036648" lon="138.610696847186"><ele>2312</ele><time>2024-11-10T04:47:50Z</time></trkpt>
<trkpt lat="35.87434795166418" lon="138.6106212501486"><ele>2304</ele><time>2024-11-10T04:48:27Z</time></trkpt>
<trkpt lat="35.87455728297018" lon="138.6105915480994"><ele>2293</ele><time>2024-11-10T04:49:01Z</time></trkpt>
<trkpt lat="35.874723320016166" lon="138.61048757705487"><ele>2284</ele><time>2024-11-10T04:49:41Z</time></trkpt>
<trkpt lat="35.87485015878989" lon="138.61036828120544"><ele>2279</ele><time>2024-11-10T04:50:34Z</time></trkpt>
<trkpt lat="35.87496500122952" lon="138.6102305958222"><ele>2271</ele><time>2024-11-10T04:51:19Z</time></trkpt>
<trkpt lat="35.87510472761356" lon="138.61017018469332"><ele>2260</ele><time>2024-11-10T04:52:16Z</time></trkpt>
<trkpt lat="35.87521288240331" lon="138.61008279629957"><ele>2257</ele><time>2024-11-10T04:52:57Z</time></trkpt>
<trkpt lat="35.875309303826626" lon="138.60996525993684"><ele>2249</ele><time>2024-11-10T04:53:43Z</time></trkpt>
<trkpt lat="35.875405358905134" lon="138.6098321880933"><ele>2246</ele><time>2024-11-10T04:54:23Z</time></trkpt>
<trkpt lat="35.87550263146338" lon="138.60964623367664"><ele>2240</ele><time>2024-11-10T04:55:08Z</time></trkpt>
<trkpt lat="35.875682905664654" lon="138.60941874732356"><ele>2234</ele><time>2024-11-10T04:55:35Z</time></trkpt>
<trkpt lat="35.87587162266724" lon="138.60927635072352"><ele>2234</ele><time>2024-11-10T04:56:07Z</time></trkpt>
<trkpt lat="35.87606876929397" lon="138.60897996599311"><ele>2225</ele><time>2024-11-10T04:59:15Z</time></trkpt>
<trkpt lat="35.87631367315167" lon="138.60888621053934"><ele>2227</ele><time>2024-11-10T04:59:41Z</time></trkpt>
<trkpt lat="35.87656157687371" lon="138.6088084027774"><ele>2225</ele><time>2024-11-10T05:00:07Z</time></trkpt>
<trkpt lat="35.876715662203424" lon="138.6085485688061"><ele>2221</ele><time>2024-11-10T05:00:41Z</time></trkpt>
<trkpt lat="35.87684828948836" lon="138.60840167687596"><ele>2210</ele><time>2024-11-10T05:01:26Z</time></trkpt>
<trkpt lat="35.87689282250496" lon="138.60821283889373"><ele>2209</ele><time>2024-11-10T05:01:56Z</time></trkpt>
<trkpt lat="35.87705711528576" lon="138.6081083919453"><ele>2203</ele><time>2024-11-10T05:02:23Z</time></trkpt>
<trkpt lat="35.87715832456725" lon="138.60784179058092"><ele>2204</ele><time>2024-11-10T05:02:51Z</time></trkpt>
<trkpt lat="35.87728945802306" lon="138.60765670403615"><ele>2197</ele><time>2024-11-10T05:03:19Z</time></trkpt>
<trkpt lat="35.87752115468719" lon="138.60756709854812"><ele>2195</ele><time>2024-11-10T05:03:58Z</time></trkpt>
<trkpt lat="35.877751015079326" lon="138.6074372096239"><ele>2196</ele><time>2024-11-10T05:04:26Z</time></trkpt>
<trkpt lat="35.8780406464348" lon="138.6074879084153"><ele>2199</ele><time>2024-11-10T05:04:59Z</time></trkpt>
<trkpt lat="35.878265351101234" lon="138.60731113444982"><ele>2200</ele><time>2024-11-10T05:05:30Z</time></trkpt>
<trkpt lat="35.878471556827606" lon="138.60723677163617"><ele>2196</ele><time>2024-11-10T05:05:57Z</time></trkpt>
<trkpt lat="35.8785884670009" lon="138.60720599491154"><ele>2198</ele><time>2024-11-10T05:06:21Z</time></trkpt>
<trkpt lat="35.878849936893886" lon="138.60730041776802"><ele>2188</ele><time>2024-11-10T05:07:06Z</time></trkpt>
<trkpt lat="35.87915913504371" lon="138.60728618912393"><ele>2185</ele><time>2024-11-10T05:07:32Z</time></trkpt>
<trkpt lat="35.87943019258029" lon="138.60712284697053"><ele>2182</ele><time>2024-11-10T05:07:58Z</time></trkpt>
<trkpt lat="35.8794369986065" lon="138.6067958987858"><ele>2175</ele><time>2024-11-10T05:08:27Z</time></trkpt>
<trkpt lat="35.87942390576788" lon="138.60655651102365"><ele>2167</ele><time>2024-11-10T05:09:01Z</time></trkpt>
<trkpt lat="35.87954030810844" lon="138.60632266075334"><ele>2157</ele><time>2024-11-10T05:09:42Z</time></trkpt>
<trkpt lat="35.879464790822674" lon="138.606134470789"><ele>2145</ele><time>2024-11-10T05:10:26Z</time></trkpt>
<trkpt lat="35.879557724952804" lon="138.60597349404486"><ele>2140</ele><time>2024-11-10T05:11:03Z</time></trkpt>
<trkpt lat="35.879697624024324" lon="138.60583928802333"><ele>2135</ele><time>2024-11-10T05:11:31Z</time></trkpt>
<trkpt lat="35.87987720951904" lon="138.60566848213162"><ele>2130</ele><time>2024-11-10T05:12:11Z</time></trkpt>
<trkpt lat="35.88009938407191" lon="138.60550875467632"><ele>2122</ele><time>2024-11-10T05:13:00Z</time></trkpt>
<trkpt lat="35.88019426378644" lon="138.6053328824448"><ele>2116</ele><time>2024-11-10T05:13:38Z</time></trkpt>
<trkpt lat="35.88039265099942" lon="138.60511918515246"><ele>2109</ele><time>2024-11-10T05:14:11Z</time></trkpt>
<trkpt lat="35.88067521289718" lon="138.60497427457483"><ele>2106</ele><time>2024-11-10T05:14:40Z</time></trkpt>
<trkpt lat="35.880659199838476" lon="138.60469840719483"><ele>2096</ele><time>2024-11-10T05:15:18Z</time></trkpt>
<trkpt lat="35.88064427002249" lon="138.60448707842042"><ele>2086</ele><time>2024-11-10T05:15:59Z</time></trkpt>
<trkpt lat="35.88070431464431" lon="138.60431325026235"><ele>2082</ele><time>2024-11-10T05:16:37Z</time></trkpt>
<trkpt lat="35.8808227224347" lon="138.60430398786357"><ele>2076</ele><time>2024-11-10T05:17:16Z</time></trkpt>
<trkpt lat="35.88091088547796" lon="138.60409668769452"><ele>2067</ele><time>2024-11-10T05:17:46Z</time></trkpt>
<trkpt lat="35.88091373336942" lon="138.60389938476388"><ele>2058</ele><time>2024-11-10T05:18:22Z</time></trkpt>
<trkpt lat="35.88109227691461" lon="138.60372300848033"><ele>2050</ele><time>2024-11-10T05:18:49Z</time></trkpt>
<trkpt lat="35.88104035152766" lon="138.60352929867418"><ele>2040</ele><time>2024-11-10T05:19:45Z</time></trkpt>
<trkpt lat="35.88102417458988" lon="138.60336707783608"><ele>2036</ele><time>2024-11-10T05:20:33Z</time></trkpt>
<trkpt lat="35.88119879052145" lon="138.6031432883654"><ele>2028</ele><time>2024-11-10T05:21:30Z</time></trkpt>
<trkpt lat="35.881373596547576" lon="138.60295904452062"><ele>2021</ele><time>2024-11-10T05:22:04Z</time></trkpt>
<trkpt lat="35.88143357422312" lon="138.60273578928303"><ele>2014</ele><time>2024-11-10T05:22:40Z</time></trkpt>
<trkpt lat="35.88138631458501" lon="138.60242814436043"><ele>2006</ele><time>2024-11-10T05:23:08Z</time></trkpt>
<trkpt lat="35.88145347221244" lon="138.60199645160685"><ele>1999</ele><time>2024-11-10T05:23:36Z</time></trkpt>
<trkpt lat="35.88145855418023" lon="138.6016787442135"><ele>1989</ele><time>2024-11-10T05:24:05Z</time></trkpt>
<trkpt lat="35.8816786286595" lon="138.60138843961244"><ele>1991</ele><time>2024-11-10T05:24:34Z</time></trkpt>
<trkpt lat="35.88175641211014" lon="138.60104972068302"><ele>1987</ele><time>2024-11-10T05:25:03Z</time></trkpt>
<trkpt lat="35.8818056316599" lon="138.60068789382444"><ele>1988</ele><time>2024-11-10T05:25:29Z</time></trkpt>
<trkpt lat="35.881695222340824" lon="138.60028833015815"><ele>1994</ele><time>2024-11-10T05:25:56Z</time></trkpt>
<trkpt lat="35.88155602091661" lon="138.59990647902083"><ele>1996</ele><time>2024-11-10T05:26:23Z</time></trkpt>
<trkpt lat="35.88146176853121" lon="138.59953660681506"><ele>2002</ele><time>2024-11-10T05:26:49Z</time></trkpt>
<trkpt lat="35.8812641372607" lon="138.5992744337338"><ele>2005</ele><time>2024-11-10T05:27:17Z</time></trkpt>
<trkpt lat="35.881181525843516" lon="138.59899436188908"><ele>2012</ele><time>2024-11-10T05:27:50Z</time></trkpt>
<trkpt lat="35.88112810512757" lon="138.59876158957724"><ele>2017</ele><time>2024-11-10T05:28:22Z</time></trkpt>
<trkpt lat="35.88103191096179" lon="138.5984607839816"><ele>2022</ele><time>2024-11-10T05:28:51Z</time></trkpt>
<trkpt lat="35.88086767805087" lon="138.59807681450317"><ele>2021</ele><time>2024-11-10T05:29:17Z</time></trkpt>
<trkpt lat="35.880957407567266" lon="138.597841432241"><ele>2026</ele><time>2024-11-10T05:30:17Z</time></trkpt>
<trkpt lat="35.88105926745968" lon="138.59758988158075"><ele>2030</ele><time>2024-11-10T05:30:44Z</time></trkpt>
<trkpt lat="35.8811111104527" lon="138.59725152579236"><ele>2030</ele><time>2024-11-10T05:31:09Z</time></trkpt>
<trkpt lat="35.881096749150444" lon="138.59692356069732"><ele>2029</ele><time>2024-11-10T05:31:35Z</time></trkpt>
<trkpt lat="35.88113631990935" lon="138.59657189552317"><ele>2024</ele><time>2024-11-10T05:32:02Z</time></trkpt>
<trkpt lat="35.88131287445691" lon="138.59626827548985"><ele>2023</ele><time>2024-11-10T05:32:32Z</time></trkpt>
<trkpt lat="35.881447621214186" lon="138.59596340340443"><ele>2021</ele><time>2024-11-10T05:32:59Z</time></trkpt>
<trkpt lat="35.88161458455755" lon="138.59571761598167"><ele>2021</ele><time>2024-11-10T05:33:30Z</time></trkpt>
<trkpt lat="35.881827356241665" lon="138.59551981021056"><ele>2023</ele><time>2024-11-10T05:33:58Z</time></trkpt>
<trkpt lat="35.88200282770954" lon="138.59531341143935"><ele>2022</ele><time>2024-11-10T05:34:28Z</time></trkpt>
<trkpt lat="35.88215106161289" lon="138.5951072036964"><ele>2020</ele><time>2024-11-10T05:34:54Z</time></trkpt>
<trkpt lat="35.88228073768673" lon="138.59483803744638"><ele>2010</ele><time>2024-11-10T05:35:30Z</time></trkpt>
<trkpt lat="35.882458777775845" lon="138.59454649675098"><ele>2007</ele><time>2024-11-10T05:35:58Z</time></trkpt>
<trkpt lat="35.88260756078548" lon="138.59442031047953"><ele>2003</ele><time>2024-11-10T05:36:28Z</time></trkpt>
<trkpt lat="35.88265100507928" lon="138.59428504532397"><ele>1999</ele><time>2024-11-10T05:36:59Z</time></trkpt>
<trkpt lat="35.88284514497318" lon="138.5941235451877"><ele>1996</ele><time>2024-11-10T05:38:07Z</time></trkpt>
<trkpt lat="35.88294422026958" lon="138.5937903082902"><ele>1986</ele><time>2024-11-10T05:38:35Z</time></trkpt>
<trkpt lat="35.883253794403615" lon="138.59352539995842"><ele>1980</ele><time>2024-11-10T05:39:03Z</time></trkpt>
<trkpt lat="35.883480603364866" lon="138.5933000903311"><ele>1978</ele><time>2024-11-10T05:39:28Z</time></trkpt>
<trkpt lat="35.883566965268635" lon="138.59302849507029"><ele>1970</ele><time>2024-11-10T05:39:55Z</time></trkpt>
<trkpt lat="35.88361453008045" lon="138.59269851082635"><ele>1959</ele><time>2024-11-10T05:40:27Z</time></trkpt>
<trkpt lat="35.88360562743885" lon="138.5924586150428"><ele>1949</ele><time>2024-11-10T05:40:57Z</time></trkpt>
<trkpt lat="35.88355709637421" lon="138.59217908976805"><ele>1943</ele><time>2024-11-10T05:41:42Z</time></trkpt>
<trkpt lat="35.88344839938571" lon="138.59176044755012"><ele>1930</ele><time>2024-11-10T05:42:34Z</time></trkpt>
<trkpt lat="35.883305917611736" lon="138.59147971362168"><ele>1916</ele><time>2024-11-10T05:43:00Z</time></trkpt>
<trkpt lat="35.88326926497904" lon="138.59105242801155"><ele>1910</ele><time>2024-11-10T05:43:28Z</time></trkpt>
<trkpt lat="35.88325052612789" lon="138.59086741015676"><ele>1905</ele><time>2024-11-10T05:44:12Z</time></trkpt>
<trkpt lat="35.88330106621506" lon="138.59066101871323"><ele>1901</ele><time>2024-11-10T05:44:48Z</time></trkpt>
<trkpt lat="35.88328077963531" lon="138.5903741516277"><ele>1893</ele><time>2024-11-10T05:45:17Z</time></trkpt>
<trkpt lat="35.883235399482814" lon="138.59009625000684"><ele>1885</ele><time>2024-11-10T05:45:52Z</time></trkpt>
<trkpt lat="35.88317605773191" lon="138.58983617551678"><ele>1880</ele><time>2024-11-10T05:46:25Z</time></trkpt>
<trkpt lat="35.883088089626156" lon="138.58966639226372"><ele>1874</ele><time>2024-11-10T05:47:32Z</time></trkpt>
<trkpt lat="35.882953458445186" lon="138.58948811512963"><ele>1865</ele><time>2024-11-10T05:48:14Z</time></trkpt>
<trkpt lat="35.88285241430766" lon="138.58930852501143"><ele>1858</ele><time>2024-11-10T05:48:50Z</time></trkpt>
<trkpt lat="35.88275353661384" lon="138.58914100648525"><ele>1848</ele><time>2024-11-10T05:49:26Z</time></trkpt>
<trkpt lat="35.88274804736255" lon="138.5888457835783"><ele>1842</ele><time>2024-11-10T05:50:07Z</time></trkpt>
<trkpt lat="35.88269922260232" lon="138.58858954216083"><ele>1837</ele><time>2024-11-10T05:50:59Z</time></trkpt>
<trkpt lat="35.882629965335774" lon="138.58831784769257"><ele>1831</ele><time>2024-11-10T05:51:35Z</time></trkpt>
<trkpt lat="35.882621311909624" lon="138.58806917016136"><ele>1826</ele><time>2024-11-10T05:52:04Z</time></trkpt>
<trkpt lat="35.88253246537547" lon="138.58784841672926"><ele>1818</ele><time>2024-11-10T05:52:38Z</time></trkpt>
<trkpt lat="35.88238060405102" lon="138.58757537974054"><ele>1811</ele><time>2024-11-10T05:53:17Z</time></trkpt>
<trkpt lat="35.882176365126874" lon="138.5873445973182"><ele>1806</ele><time>2024-11-10T05:53:45Z</time></trkpt>
<trkpt lat="35.88201700307561" lon="138.58714467001792"><ele>1806</ele><time>2024-11-10T05:54:13Z</time></trkpt>
<trkpt lat="35.88196680763259" lon="138.5870193552149"><ele>1807</ele><time>2024-11-10T05:54:45Z</time></trkpt>
<trkpt lat="35.88194105062939" lon="138.58714975952466"><ele>1812</ele><time>2024-11-10T05:55:24Z</time></trkpt>
<trkpt lat="35.881996967997566" lon="138.58701268350052"><ele>1807</ele><time>2024-11-10T05:58:08Z</time></trkpt>
<trkpt lat="35.88188202639845" lon="138.58714391989716"><ele>1810</ele><time>2024-11-10T05:59:20Z</time></trkpt>
<trkpt lat="35.881996461620005" lon="138.5870444859381"><ele>1808</ele><time>2024-11-10T06:00:01Z</time></trkpt>
<trkpt lat="35.882167163500036" lon="138.58712271248373"><ele>1810</ele><time>2024-11-10T06:03:19Z</time></trkpt>
<trkpt lat="35.88205055777882" lon="138.58711722159768"><ele>1811</ele><time>2024-11-10T06:03:54Z</time></trkpt>
<trkpt lat="35.88190296160558" lon="138.58705199243028"><ele>1811</ele><time>2024-11-10T06:05:53Z</time></trkpt>
<trkpt lat="35.88197605716533" lon="138.58718220953463"><ele>1810</ele><time>2024-11-10T06:06:56Z</time></trkpt>
<trkpt lat="35.881991579946906" lon="138.5870476507964"><ele>1810</ele><time>2024-11-10T06:07:40Z</time></trkpt>
<trkpt lat="35.881893462987904" lon="138.5870694420522"><ele>1802</ele><time>2024-11-10T06:09:55Z</time></trkpt>
<trkpt lat="35.881895019932884" lon="138.58724020924026"><ele>1815</ele><time>2024-11-10T06:10:23Z</time></trkpt>
<trkpt lat="35.88191357589747" lon="138.58711301673355"><ele>1809</ele><time>2024-11-10T06:11:01Z</time></trkpt>
<trkpt lat="35.882036564318774" lon="138.5871683323855"><ele>1811</ele><time>2024-11-10T06:12:16Z</time></trkpt>
<trkpt lat="35.88197458165785" lon="138.58726987871"><ele>1814</ele><time>2024-11-10T06:18:46Z</time></trkpt>
<trkpt lat="35.88203949642831" lon="138.58717160797897"><ele>1806</ele><time>2024-11-10T06:19:40Z</time></trkpt>
<trkpt lat="35.88195448168065" lon="138.58722577716523"><ele>1813</ele><time>2024-11-10T06:20:58Z</time></trkpt>
<trkpt lat="35.88204062169101" lon="138.5872705108585"><ele>1813</ele><time>2024-11-10T06:21:26Z</time></trkpt>
<trkpt lat="35.8819823197319" lon="138.5871108558575"><ele>1813</ele><time>2024-11-10T06:22:10Z</time></trkpt>
<trkpt lat="35.88189306308948" lon="138.5871846134342"><ele>1813</ele><time>2024-11-10T06:36:14Z</time></trkpt>
<trkpt lat="35.88201641220206" lon="138.58707340920589"><ele>1807</ele><time>2024-11-10T06:39:31Z</time></trkpt>
<trkpt lat="35.88227405465215" lon="138.5869864332084"><ele>1801</ele><time>2024-11-10T06:40:37Z</time></trkpt>
<trkpt lat="35.881960749868796" lon="138.58698077835945"><ele>1805</ele><time>2024-11-10T06:41:08Z</time></trkpt>
<trkpt lat="35.88212812312147" lon="138.58679776327463"><ele>1800</ele><time>2024-11-10T06:41:41Z</time></trkpt>
<trkpt lat="35.882259297389616" lon="138.58665013773185"><ele>1797</ele><time>2024-11-10T06:42:11Z</time></trkpt>
<trkpt lat="35.88226445812451" lon="138.58650818921464"><ele>1792</ele><time>2024-11-10T06:42:57Z</time></trkpt>
<trkpt lat="35.88244250959964" lon="138.58637575121878"><ele>1788</ele><time>2024-11-10T06:43:30Z</time></trkpt>
<trkpt lat="35.88234277333898" lon="138.58616662993893"><ele>1776</ele><time>2024-11-10T06:44:05Z</time></trkpt>
<trkpt lat="35.88235217671959" lon="138.58596348993197"><ele>1778</ele><time>2024-11-10T06:44:52Z</time></trkpt>
<trkpt lat="35.882325704660595" lon="138.58563411298834"><ele>1771</ele><time>2024-11-10T06:45:41Z</time></trkpt>
<trkpt lat="35.882387816912626" lon="138.58538251047196"><ele>1763</ele><time>2024-11-10T06:46:17Z</time></trkpt>
<trkpt lat="35.88237498692219" lon="138.58512623867304"><ele>1755</ele><time>2024-11-10T06:46:58Z</time></trkpt>
<trkpt lat="35.88248655703796" lon="138.5849333080989"><ele>1749</ele><time>2024-11-10T06:47:27Z</time></trkpt>
<trkpt lat="35.88248374471206" lon="138.58471636956338"><ele>1744</ele><time>2024-11-10T06:48:16Z</time></trkpt>
<trkpt lat="35.882468470809314" lon="138.5845110142267"><ele>1741</ele><time>2024-11-10T06:48:49Z</time></trkpt>
<trkpt lat="35.882474439888135" lon="138.58429461161597"><ele>1734</ele><time>2024-11-10T06:49:20Z</time></trkpt>
<trkpt lat="35.882429845262536" lon="138.5839658562335"><ele>1736</ele><time>2024-11-10T06:49:45Z</time></trkpt>
<trkpt lat="35.882577457319975" lon="138.58372721511415"><ele>1727</ele><time>2024-11-10T06:50:15Z</time></trkpt>
<trkpt lat="35.88246717073086" lon="138.58368747418154"><ele>1726</ele><time>2024-11-10T06:50:48Z</time></trkpt>
<trkpt lat="35.88266434500396" lon="138.5836364911202"><ele>1718</ele><time>2024-11-10T06:51:33Z</time></trkpt>
<trkpt lat="35.88276356103456" lon="138.58335372006871"><ele>1710</ele><time>2024-11-10T06:51:59Z</time></trkpt>
<trkpt lat="35.88250101578587" lon="138.5833045557049"><ele>1709</ele><time>2024-11-10T06:52:58Z</time></trkpt>
<trkpt lat="35.88264218635711" lon="138.58303247223608"><ele>1704</ele><time>2024-11-10T06:53:33Z</time></trkpt>
<trkpt lat="35.88246222063334" lon="138.58302594751456"><ele>1698</ele><time>2024-11-10T06:53:59Z</time></trkpt>
<trkpt lat="35.88236009179633" lon="138.5829276067"><ele>1692</ele><time>2024-11-10T06:54:28Z</time></trkpt>
<trkpt lat="35.882421341900816" lon="138.58268671175978"><ele>1686</ele><time>2024-11-10T06:55:03Z</time></trkpt>
<trkpt lat="35.88232794551303" lon="138.58268286474691"><ele>1675</ele><time>2024-11-10T06:55:51Z</time></trkpt>
<trkpt lat="35.88249574218174" lon="138.5825989166225"><ele>1670</ele><time>2024-11-10T06:56:19Z</time></trkpt>
<trkpt lat="35.882403876503304" lon="138.5823833728966"><ele>1655</ele><time>2024-11-10T06:57:46Z</time></trkpt>
<trkpt lat="35.882298600520635" lon="138.58230214245052"><ele>1655</ele><time>2024-11-10T06:58:18Z</time></trkpt>
<trkpt lat="35.88231936198224" lon="138.58217956727827"><ele>1651</ele><time>2024-11-10T06:58:54Z</time></trkpt>
<trkpt lat="35.882157628939" lon="138.58212448476107"><ele>1644</ele><time>2024-11-10T06:59:31Z</time></trkpt>
<trkpt lat="35.88217886642972" lon="138.58188576018665"><ele>1637</ele><time>2024-11-10T07:00:42Z</time></trkpt>
<trkpt lat="35.88200112030985" lon="138.581900841679"><ele>1630</ele><time>2024-11-10T07:01:24Z</time></trkpt>
<trkpt lat="35.881887186881315" lon="138.58182389524976"><ele>1626</ele><time>2024-11-10T07:01:58Z</time></trkpt>
<trkpt lat="35.881672251170016" lon="138.5817580582995"><ele>1617</ele><time>2024-11-10T07:03:01Z</time></trkpt>
<trkpt lat="35.88162230300697" lon="138.58158508757"><ele>1610</ele><time>2024-11-10T07:03:40Z</time></trkpt>
<trkpt lat="35.881523662667526" lon="138.58144482550196"><ele>1602</ele><time>2024-11-10T07:04:27Z</time></trkpt>
<trkpt lat="35.88126379934674" lon="138.58152840430196"><ele>1599</ele><time>2024-11-10T07:05:01Z</time></trkpt>
<trkpt lat="35.881016343731254" lon="138.5814758661141"><ele>1595</ele><time>2024-11-10T07:05:31Z</time></trkpt>
<trkpt lat="35.88099965721389" lon="138.58129682047976"><ele>1589</ele><time>2024-11-10T07:06:17Z</time></trkpt>
<trkpt lat="35.88087893897157" lon="138.58108421760843"><ele>1582</ele><time>2024-11-10T07:07:07Z</time></trkpt>
<trkpt lat="35.880793945135025" lon="138.58085534870986"><ele>1577</ele><time>2024-11-10T07:07:49Z</time></trkpt>
<trkpt lat="35.88070486624529" lon="138.58058904377202"><ele>1570</ele><time>2024-11-10T07:08:22Z</time></trkpt>
<trkpt lat="35.88051955025187" lon="138.58034482527208"><ele>1563</ele><time>2024-11-10T07:08:57Z</time></trkpt>
<trkpt lat="35.88052389305995" lon="138.58011725257998"><ele>1557</ele><time>2024-11-10T07:09:23Z</time></trkpt>
<trkpt lat="35.880563835525976" lon="138.57990437808786"><ele>1553</ele><time>2024-11-10T07:09:50Z</time></trkpt>
<trkpt lat="35.88052990546577" lon="138.5795249716191"><ele>1547</ele><time>2024-11-10T07:10:51Z</time></trkpt>
<trkpt lat="35.88038383381334" lon="138.5792990900471"><ele>1544</ele><time>2024-11-10T07:11:17Z</time></trkpt>
<trkpt lat="35.880050400680794" lon="138.5792190299593"><ele>1548</ele><time>2024-11-10T07:11:43Z</time></trkpt>
<trkpt lat="35.87976985530992" lon="138.57924867687834"><ele>1548</ele><time>2024-11-10T07:12:13Z</time></trkpt>
<trkpt lat="35.879539604599465" lon="138.5792369800366"><ele>1546</ele><time>2024-11-10T07:12:39Z</time></trkpt>
<trkpt lat="35.87927263545959" lon="138.57919908844562"><ele>1543</ele><time>2024-11-10T07:13:05Z</time></trkpt>
<trkpt lat="35.879201783142804" lon="138.57894717205448"><ele>1535</ele><time>2024-11-10T07:13:40Z</time></trkpt>
<trkpt lat="35.87894454513302" lon="138.5787285276774"><ele>1531</ele><time>2024-11-10T07:14:12Z</time></trkpt>
<trkpt lat="35.87884660888029" lon="138.57860655296716"><ele>1525</ele><time>2024-11-10T07:14:39Z</time></trkpt>
<trkpt lat="35.878795299810776" lon="138.57867226321758"><ele>1523</ele><time>2024-11-10T07:14:45Z</time></trkpt>
</trkseg>
</trk>
</gpx>