<?xml version="1.0" encoding="UTF-8"?>
<gpx xmlns:xsi="http://www.w3.org/2001/XMLSchema-instance" xmlns="http://www.topografix.com/GPX/1/1" xsi:schemaLocation="http://www.topografix.com/GPX/1/1 http://www.topografix.com/GPX/1/1/gpx.xsd" creator="Yamareco iOS 6.98 - www.yamareco.com">
<trk><name>track</name><number>1</number><trkseg>
<trkpt lat="36.21186709500496" lon="140.09547066887848"><ele>203</ele><time>2024-08-25T02:09:32Z</time></trkpt>
<trkpt lat="36.2116939802204" lon="140.09564473401124"><ele>206</ele><time>2024-08-25T02:10:05Z</time></trkpt>
<trkpt lat="36.21168289073756" lon="140.0959414012784"><ele>206</ele><time>2024-08-25T02:12:31Z</time></trkpt>
<trkpt lat="36.21177052776481" lon="140.09620946615502"><ele>213</ele><time>2024-08-25T02:13:00Z</time></trkpt>
<trkpt lat="36.21193402603286" lon="140.09629249185707"><ele>217</ele><time>2024-08-25T02:13:50Z</time></trkpt>
<trkpt lat="36.212112883532285" lon="140.09634239974517"><ele>218</ele><time>2024-08-25T02:14:17Z</time></trkpt>
<trkpt lat="36.21224813025214" lon="140.0960945104116"><ele>215</ele><time>2024-08-25T02:14:46Z</time></trkpt>
<trkpt lat="36.21217600832397" lon="140.0962885578669"><ele>217</ele><time>2024-08-25T02:16:40Z</time></trkpt>
<trkpt lat="36.21214074210651" lon="140.0964846655699"><ele>219</ele><time>2024-08-25T02:19:23Z</time></trkpt>
<trkpt lat="36.21226469656942" lon="140.09677232942514"><ele>220</ele><time>2024-08-25T02:19:54Z</time></trkpt>
<trkpt lat="36.21234190871516" lon="140.09717555455322"><ele>221</ele><time>2024-08-25T02:20:25Z</time></trkpt>
<trkpt lat="36.212382659183554" lon="140.097594628072"><ele>225</ele><time>2024-08-25T02:20:53Z</time></trkpt>
<trkpt lat="36.21242515447732" lon="140.0979850923497"><ele>226</ele><time>2024-08-25T02:21:22Z</time></trkpt>
<trkpt lat="36.21226876284219" lon="140.09829683298187"><ele>226</ele><time>2024-08-25T02:21:48Z</time></trkpt>
<trkpt lat="36.21222584808603" lon="140.09867626623137"><ele>227</ele><time>2024-08-25T02:22:14Z</time></trkpt>
<trkpt lat="36.21219836967903" lon="140.0990697646503"><ele>230</ele><time>2024-08-25T02:22:39Z</time></trkpt>
<trkpt lat="36.21220309342269" lon="140.09946124176747"><ele>233</ele><time>2024-08-25T02:23:04Z</time></trkpt>
<trkpt lat="36.21219870349566" lon="140.09989095796442"><ele>234</ele><time>2024-08-25T02:23:31Z</time></trkpt>
<trkpt lat="36.21221985667661" lon="140.10029772753626"><ele>234</ele><time>2024-08-25T02:23:57Z</time></trkpt>
<trkpt lat="36.21216560166887" lon="140.1006521311667"><ele>231</ele><time>2024-08-25T02:24:25Z</time></trkpt>
<trkpt lat="36.21238335044726" lon="140.10085663684322"><ele>238</ele><time>2024-08-25T02:24:54Z</time></trkpt>
<trkpt lat="36.212682470994984" lon="140.10094420610585"><ele>243</ele><time>2024-08-25T02:25:44Z</time></trkpt>
<trkpt lat="36.212891731036855" lon="140.10112999334294"><ele>249</ele><time>2024-08-25T02:27:19Z</time></trkpt>
<trkpt lat="36.213079309313756" lon="140.10113362485927"><ele>253</ele><time>2024-08-25T02:28:00Z</time></trkpt>
<trkpt lat="36.21322596674429" lon="140.10137376905658"><ele>254</ele><time>2024-08-25T02:28:31Z</time></trkpt>
<trkpt lat="36.213251582340256" lon="140.10151243670225"><ele>255</ele><time>2024-08-25T02:29:02Z</time></trkpt>
<trkpt lat="36.21349791978949" lon="140.10176931064575"><ele>256</ele><time>2024-08-25T02:29:44Z</time></trkpt>
<trkpt lat="36.21358933952555" lon="140.1020829937558"><ele>259</ele><time>2024-08-25T02:30:09Z</time></trkpt>
<trkpt lat="36.213398031320324" lon="140.1022829239911"><ele>259</ele><time>2024-08-25T02:30:38Z</time></trkpt>
<trkpt lat="36.21326459301981" lon="140.10257281359796"><ele>260</ele><time>2024-08-25T02:31:12Z</time></trkpt>
<trkpt lat="36.21342028020403" lon="140.10269897074193"><ele>263</ele><time>2024-08-25T02:31:40Z</time></trkpt>
<trkpt lat="36.21363795734318" lon="140.10272680828882"><ele>268</ele><time>2024-08-25T02:32:12Z</time></trkpt>
<trkpt lat="36.213893601765086" lon="140.10280449824927"><ele>277</ele><time>2024-08-25T02:32:47Z</time></trkpt>
<trkpt lat="36.214102616399764" lon="140.10278236052082"><ele>287</ele><time>2024-08-25T02:33:22Z</time></trkpt>
<trkpt lat="36.21429736457772" lon="140.1028372498676"><ele>293</ele><time>2024-08-25T02:33:58Z</time></trkpt>
<trkpt lat="36.21446520454271" lon="140.10305457169446"><ele>299</ele><time>2024-08-25T02:34:31Z</time></trkpt>
<trkpt lat="36.214553523523065" lon="140.10320003667982"><ele>304</ele><time>2024-08-25T02:35:05Z</time></trkpt>
<trkpt lat="36.21471280594843" lon="140.10344023296108"><ele>310</ele><time>2024-08-25T02:37:34Z</time></trkpt>
<trkpt lat="36.21487998750949" lon="140.1035503258956"><ele>312</ele><time>2024-08-25T02:38:05Z</time></trkpt>
<trkpt lat="36.21498960106312" lon="140.10379150762566"><ele>317</ele><time>2024-08-25T02:38:36Z</time></trkpt>
<trkpt lat="36.21520554179321" lon="140.10398324236218"><ele>324</ele><time>2024-08-25T02:42:19Z</time></trkpt>
<trkpt lat="36.21541224720683" lon="140.10413426432766"><ele>331</ele><time>2024-08-25T02:42:52Z</time></trkpt>
<trkpt lat="36.215512702900725" lon="140.10432720099948"><ele>335</ele><time>2024-08-25T02:43:21Z</time></trkpt>
<trkpt lat="36.21564481813498" lon="140.10451855847228"><ele>341</ele><time>2024-08-25T02:43:55Z</time></trkpt>
<trkpt lat="36.21577545681364" lon="140.10459897048355"><ele>346</ele><time>2024-08-25T02:44:30Z</time></trkpt>
<trkpt lat="36.21585292796398" lon="140.1047448999475"><ele>350</ele><time>2024-08-25T02:46:51Z</time></trkpt>
<trkpt lat="36.21595115691283" lon="140.10497362693326"><ele>354</ele><time>2024-08-25T02:47:28Z</time></trkpt>
<trkpt lat="36.216100907512335" lon="140.10509762460313"><ele>360</ele><time>2024-08-25T02:48:07Z</time></trkpt>
<trkpt lat="36.21617306083936" lon="140.10534968774004"><ele>362</ele><time>2024-08-25T02:48:38Z</time></trkpt>
<trkpt lat="36.21618760912965" lon="140.1055815230201"><ele>371</ele><time>2024-08-25T02:49:16Z</time></trkpt>
<trkpt lat="36.21626636384478" lon="140.10589482288825"><ele>379</ele><time>2024-08-25T02:50:55Z</time></trkpt>
<trkpt lat="36.21639147583621" lon="140.105981896121"><ele>382</ele><time>2024-08-25T02:51:33Z</time></trkpt>
<trkpt lat="36.21656008605564" lon="140.10603229079672"><ele>389</ele><time>2024-08-25T02:52:07Z</time></trkpt>
<trkpt lat="36.21673609210751" lon="140.10596164266613"><ele>391</ele><time>2024-08-25T02:52:42Z</time></trkpt>
<trkpt lat="36.216774411025646" lon="140.10619906570906"><ele>397</ele><time>2024-08-25T02:53:22Z</time></trkpt>
<trkpt lat="36.21681970503507" lon="140.1064211469886"><ele>405</ele><time>2024-08-25T02:55:00Z</time></trkpt>
<trkpt lat="36.21699079419607" lon="140.10650635486675"><ele>407</ele><time>2024-08-25T02:55:47Z</time></trkpt>
<trkpt lat="36.21710001522332" lon="140.10663021353076"><ele>413</ele><time>2024-08-25T02:56:31Z</time></trkpt>
<trkpt lat="36.21721267838055" lon="140.10683006207495"><ele>422</ele><time>2024-08-25T02:57:30Z</time></trkpt>
<trkpt lat="36.21734886535207" lon="140.10691366799438"><ele>431</ele><time>2024-08-25T02:59:18Z</time></trkpt>
<trkpt lat="36.21738466455846" lon="140.10711029438318"><ele>436</ele><time>2024-08-25T02:59:48Z</time></trkpt>
<trkpt lat="36.21750347988189" lon="140.10721647768924"><ele>443</ele><time>2024-08-25T03:00:38Z</time></trkpt>
<trkpt lat="36.2175768206513" lon="140.10730817528227"><ele>452</ele><time>2024-08-25T03:01:30Z</time></trkpt>
<trkpt lat="36.217660212750516" lon="140.10744947024887"><ele>452</ele><time>2024-08-25T03:02:55Z</time></trkpt>
<trkpt lat="36.21775932050735" lon="140.10761543546187"><ele>457</ele><time>2024-08-25T03:03:40Z</time></trkpt>
<trkpt lat="36.217889573721635" lon="140.1076691009893"><ele>464</ele><time>2024-08-25T03:04:26Z</time></trkpt>
<trkpt lat="36.21798561176578" lon="140.10776109107806"><ele>469</ele><time>2024-08-25T03:06:00Z</time></trkpt>
<trkpt lat="36.2181745316118" lon="140.1076845419241"><ele>479</ele><time>2024-08-25T03:08:57Z</time></trkpt>
<trkpt lat="36.21834097343264" lon="140.10766321209667"><ele>484</ele><time>2024-08-25T03:09:46Z</time></trkpt>
<trkpt lat="36.2184331405013" lon="140.1075343931286"><ele>486</ele><time>2024-08-25T03:10:31Z</time></trkpt>
<trkpt lat="36.218559830302844" lon="140.1076131240543"><ele>496</ele><time>2024-08-25T03:11:09Z</time></trkpt>
<trkpt lat="36.218677459589024" lon="140.1076471522196"><ele>502</ele><time>2024-08-25T03:11:58Z</time></trkpt>
<trkpt lat="36.218866106350916" lon="140.10772888638087"><ele>510</ele><time>2024-08-25T03:12:59Z</time></trkpt>
<trkpt lat="36.2190013490454" lon="140.1076696255285"><ele>515</ele><time>2024-08-25T03:14:00Z</time></trkpt>
<trkpt lat="36.21900523463606" lon="140.10778170305065"><ele>521</ele><time>2024-08-25T03:15:00Z</time></trkpt>
<trkpt lat="36.21907734189246" lon="140.10767240010384"><ele>523</ele><time>2024-08-25T03:16:11Z</time></trkpt>
<trkpt lat="36.21914228662422" lon="140.10784727444067"><ele>528</ele><time>2024-08-25T03:16:53Z</time></trkpt>
<trkpt lat="36.219208893590235" lon="140.10798679155178"><ele>541</ele><time>2024-08-25T03:17:44Z</time></trkpt>
<trkpt lat="36.21922263700215" lon="140.10818334425977"><ele>538</ele><time>2024-08-25T03:18:50Z</time></trkpt>
<trkpt lat="36.21923353637362" lon="140.10848945919716"><ele>545</ele><time>2024-08-25T03:19:31Z</time></trkpt>
<trkpt lat="36.219264585253384" lon="140.1086765541828"><ele>547</ele><time>2024-08-25T03:20:05Z</time></trkpt>
<trkpt lat="36.219360481799974" lon="140.10880246509868"><ele>549</ele><time>2024-08-25T03:20:39Z</time></trkpt>
<trkpt lat="36.21937656114021" lon="140.10892024406562"><ele>556</ele><time>2024-08-25T03:21:14Z</time></trkpt>
<trkpt lat="36.21949726795724" lon="140.10909344515568"><ele>559</ele><time>2024-08-25T03:26:40Z</time></trkpt>
<trkpt lat="36.2196430965328" lon="140.10904538590142"><ele>559</ele><time>2024-08-25T03:27:24Z</time></trkpt>
<trkpt lat="36.21974648584944" lon="140.1088850531517"><ele>571</ele><time>2024-08-25T03:28:51Z</time></trkpt>
<trkpt lat="36.21982173758855" lon="140.1087208328267"><ele>582</ele><time>2024-08-25T03:29:51Z</time></trkpt>
<trkpt lat="36.219928200328255" lon="140.1087048481223"><ele>586</ele><time>2024-08-25T03:30:28Z</time></trkpt>
<trkpt lat="36.22008074230835" lon="140.1085989675062"><ele>592</ele><time>2024-08-25T03:31:26Z</time></trkpt>
<trkpt lat="36.22019174833111" lon="140.108532767686"><ele>600</ele><time>2024-08-25T03:32:14Z</time></trkpt>
<trkpt lat="36.22035177686663" lon="140.10844332820167"><ele>608</ele><time>2024-08-25T03:33:12Z</time></trkpt>
<trkpt lat="36.220546859779525" lon="140.1084430281739"><ele>615</ele><time>2024-08-25T03:34:08Z</time></trkpt>
<trkpt lat="36.22067125683845" lon="140.10849896743892"><ele>621</ele><time>2024-08-25T03:35:13Z</time></trkpt>
<trkpt lat="36.220840866437875" lon="140.10842818070194"><ele>627</ele><time>2024-08-25T03:35:58Z</time></trkpt>
<trkpt lat="36.22097985318536" lon="140.10831551240827"><ele>636</ele><time>2024-08-25T03:37:09Z</time></trkpt>
<trkpt lat="36.221182213351135" lon="140.1083620928336"><ele>636</ele><time>2024-08-25T03:37:54Z</time></trkpt>
<trkpt lat="36.22142840561123" lon="140.1083772396418"><ele>644</ele><time>2024-08-25T03:39:04Z</time></trkpt>
<trkpt lat="36.22170626746368" lon="140.10844904526087"><ele>652</ele><time>2024-08-25T03:39:36Z</time></trkpt>
<trkpt lat="36.221919130127795" lon="140.10850675878086"><ele>657</ele><time>2024-08-25T03:40:02Z</time></trkpt>
<trkpt lat="36.22179403213127" lon="140.10858883099533"><ele>658</ele><time>2024-08-25T03:41:26Z</time></trkpt>
<trkpt lat="36.22190779670681" lon="140.1085021971025"><ele>657</ele><time>2024-08-25T03:42:00Z</time></trkpt>
<trkpt lat="36.222124980350976" lon="140.10869489934507"><ele>663</ele><time>2024-08-25T03:42:49Z</time></trkpt>
<trkpt lat="36.22230658592041" lon="140.1087049813781"><ele>666</ele><time>2024-08-25T03:43:47Z</time></trkpt>
<trkpt lat="36.222553508462894" lon="140.10876817106094"><ele>674</ele><time>2024-08-25T03:44:31Z</time></trkpt>
<trkpt lat="36.22270641474983" lon="140.10885018123648"><ele>680</ele><time>2024-08-25T03:45:10Z</time></trkpt>
<trkpt lat="36.22291221717677" lon="140.10886244621912"><ele>678</ele><time>2024-08-25T03:45:51Z</time></trkpt>
<trkpt lat="36.22302593428384" lon="140.10902872111055"><ele>678</ele><time>2024-08-25T03:46:19Z</time></trkpt>
<trkpt lat="36.22317256406454" lon="140.10897421770414"><ele>680</ele><time>2024-08-25T03:47:00Z</time></trkpt>
<trkpt lat="36.22332806175791" lon="140.10902639726308"><ele>683</ele><time>2024-08-25T03:47:31Z</time></trkpt>
<trkpt lat="36.22344482678861" lon="140.10903531724736"><ele>690</ele><time>2024-08-25T03:48:21Z</time></trkpt>
<trkpt lat="36.223592648084825" lon="140.10914294088786"><ele>692</ele><time>2024-08-25T03:48:50Z</time></trkpt>
<trkpt lat="36.22374506876048" lon="140.1091878554802"><ele>694</ele><time>2024-08-25T03:49:46Z</time></trkpt>
<trkpt lat="36.22377231191301" lon="140.10942313229762"><ele>693</ele><time>2024-08-25T03:50:47Z</time></trkpt>
<trkpt lat="36.2238232305759" lon="140.10958207625845"><ele>696</ele><time>2024-08-25T03:51:34Z</time></trkpt>
<trkpt lat="36.22392972312048" lon="140.10967974697613"><ele>702</ele><time>2024-08-25T03:52:09Z</time></trkpt>
<trkpt lat="36.223922582628035" lon="140.10985294477777"><ele>706</ele><time>2024-08-25T03:53:11Z</time></trkpt>
<trkpt lat="36.22390225354428" lon="140.11008192922017"><ele>709</ele><time>2024-08-25T03:54:08Z</time></trkpt>
<trkpt lat="36.22395114504078" lon="140.11022566745515"><ele>716</ele><time>2024-08-25T03:55:19Z</time></trkpt>
<trkpt lat="36.223982907024954" lon="140.11045223364093"><ele>720</ele><time>2024-08-25T03:57:39Z</time></trkpt>
<trkpt lat="36.22399977227572" lon="140.1106812110924"><ele>728</ele><time>2024-08-25T03:59:50Z</time></trkpt>
<trkpt lat="36.22394433754286" lon="140.11054670254867"><ele>732</ele><time>2024-08-25T04:01:22Z</time></trkpt>
<trkpt lat="36.22404330241916" lon="140.11068616859978"><ele>729</ele><time>2024-08-25T04:02:08Z</time></trkpt>
<trkpt lat="36.22393258510467" lon="140.11067691603122"><ele>730</ele><time>2024-08-25T04:02:48Z</time></trkpt>
<trkpt lat="36.22400078121043" lon="140.11055138036934"><ele>724</ele><time>2024-08-25T04:05:14Z</time></trkpt>
<trkpt lat="36.22402865868264" lon="140.11085396380267"><ele>728</ele><time>2024-08-25T04:06:54Z</time></trkpt>
<trkpt lat="36.22415207158995" lon="140.1110384473213"><ele>738</ele><time>2024-08-25T04:07:29Z</time></trkpt>
<trkpt lat="36.22415076767434" lon="140.1111752732789"><ele>742</ele><time>2024-08-25T04:08:21Z</time></trkpt>
<trkpt lat="36.224143731680044" lon="140.1114586117333"><ele>737</ele><time>2024-08-25T04:09:12Z</time></trkpt>
<trkpt lat="36.22426107017327" lon="140.11145268220312"><ele>745</ele><time>2024-08-25T04:09:57Z</time></trkpt>
<trkpt lat="36.224379304420374" lon="140.11156701301738"><ele>747</ele><time>2024-08-25T04:11:35Z</time></trkpt>
<trkpt lat="36.224420085726685" lon="140.11136632159057"><ele>750</ele><time>2024-08-25T04:11:59Z</time></trkpt>
<trkpt lat="36.22443460792864" lon="140.1111870431838"><ele>753</ele><time>2024-08-25T04:12:33Z</time></trkpt>
<trkpt lat="36.224429397480314" lon="140.11094050253257"><ele>756</ele><time>2024-08-25T04:13:18Z</time></trkpt>
<trkpt lat="36.22455136552233" lon="140.1108986490071"><ele>761</ele><time>2024-08-25T04:14:23Z</time></trkpt>
<trkpt lat="36.224687574697235" lon="140.11074143297745"><ele>761</ele><time>2024-08-25T04:15:14Z</time></trkpt>
<trkpt lat="36.224800455951566" lon="140.11051469176635"><ele>761</ele><time>2024-08-25T04:15:57Z</time></trkpt>
<trkpt lat="36.22491695841921" lon="140.1102335925591"><ele>766</ele><time>2024-08-25T04:16:35Z</time></trkpt>
<trkpt lat="36.225026843737986" lon="140.110063442666"><ele>762</ele><time>2024-08-25T04:17:34Z</time></trkpt>
<trkpt lat="36.22499074275081" lon="140.10985398113777"><ele>761</ele><time>2024-08-25T04:18:27Z</time></trkpt>
<trkpt lat="36.22515326955619" lon="140.10964219015074"><ele>761</ele><time>2024-08-25T04:18:57Z</time></trkpt>
<trkpt lat="36.22519527580092" lon="140.1093553078056"><ele>757</ele><time>2024-08-25T04:19:25Z</time></trkpt>
<trkpt lat="36.22523423302081" lon="140.10906324675958"><ele>759</ele><time>2024-08-25T04:20:00Z</time></trkpt>
<trkpt lat="36.22515459514333" lon="140.10885882129384"><ele>759</ele><time>2024-08-25T04:20:36Z</time></trkpt>
<trkpt lat="36.22507910213615" lon="140.10870108886414"><ele>766</ele><time>2024-08-25T04:21:20Z</time></trkpt>
<trkpt lat="36.22509288107775" lon="140.10855961114942"><ele>773</ele><time>2024-08-25T04:22:19Z</time></trkpt>
<trkpt lat="36.22509831992631" lon="140.10836050704248"><ele>776</ele><time>2024-08-25T04:23:00Z</time></trkpt>
<trkpt lat="36.225241471575195" lon="140.10833626643486"><ele>783</ele><time>2024-08-25T04:23:43Z</time></trkpt>
<trkpt lat="36.22521965174591" lon="140.1080914481476"><ele>785</ele><time>2024-08-25T04:24:28Z</time></trkpt>
<trkpt lat="36.225162081653096" lon="140.1078077473233"><ele>796</ele><time>2024-08-25T04:25:24Z</time></trkpt>
<trkpt lat="36.225028953164674" lon="140.10780766904855"><ele>798</ele><time>2024-08-25T04:25:55Z</time></trkpt>
<trkpt lat="36.22490454049911" lon="140.10769422381674"><ele>801</ele><time>2024-08-25T04:26:52Z</time></trkpt>
<trkpt lat="36.224807565937056" lon="140.1074662320084"><ele>809</ele><time>2024-08-25T04:28:10Z</time></trkpt>
<trkpt lat="36.2249328764518" lon="140.10728960704384"><ele>817</ele><time>2024-08-25T04:29:28Z</time></trkpt>
<trkpt lat="36.22522096553766" lon="140.1072787930688"><ele>818</ele><time>2024-08-25T04:30:09Z</time></trkpt>
<trkpt lat="36.22533424316502" lon="140.10730280352033"><ele>830</ele><time>2024-08-25T04:31:00Z</time></trkpt>
<trkpt lat="36.22543158619343" lon="140.1071968128453"><ele>835</ele><time>2024-08-25T04:32:02Z</time></trkpt>
<trkpt lat="36.22550594310085" lon="140.1070635464651"><ele>840</ele><time>2024-08-25T04:33:53Z</time></trkpt>
<trkpt lat="36.225628278730916" lon="140.10696324808535"><ele>847</ele><time>2024-08-25T04:34:48Z</time></trkpt>
<trkpt lat="36.22556837512365" lon="140.10678108721962"><ele>848</ele><time>2024-08-25T04:35:53Z</time></trkpt>
<trkpt lat="36.22567014070576" lon="140.10665581599864"><ele>852</ele><time>2024-08-25T04:36:59Z</time></trkpt>
<trkpt lat="36.22548598349664" lon="140.10670246972143"><ele>861</ele><time>2024-08-25T04:37:52Z</time></trkpt>
<trkpt lat="36.22561864618764" lon="140.1065829625624"><ele>850</ele><time>2024-08-25T04:43:52Z</time></trkpt>
<trkpt lat="36.225755025470036" lon="140.10652295978565"><ele>850</ele><time>2024-08-25T04:44:21Z</time></trkpt>
<trkpt lat="36.22581065395209" lon="140.1062790260428"><ele>851</ele><time>2024-08-25T04:47:03Z</time></trkpt>
<trkpt lat="36.22587425893161" lon="140.1060118384912"><ele>852</ele><time>2024-08-25T04:47:34Z</time></trkpt>
<trkpt lat="36.22598747592805" lon="140.1056994997512"><ele>850</ele><time>2024-08-25T04:48:03Z</time></trkpt>
<trkpt lat="36.226108715014576" lon="140.10544483283044"><ele>846</ele><time>2024-08-25T04:48:35Z</time></trkpt>
<trkpt lat="36.22606524409633" lon="140.10523235671076"><ele>842</ele><time>2024-08-25T04:49:07Z</time></trkpt>
<trkpt lat="36.226066596258114" lon="140.1050056277738"><ele>840</ele><time>2024-08-25T04:50:07Z</time></trkpt>
<trkpt lat="36.226211306488906" lon="140.1047638270608"><ele>835</ele><time>2024-08-25T04:50:35Z</time></trkpt>
<trkpt lat="36.22622961265066" lon="140.10446235737692"><ele>837</ele><time>2024-08-25T04:51:06Z</time></trkpt>
<trkpt lat="36.226290625631506" lon="140.10425752963195"><ele>837</ele><time>2024-08-25T04:51:43Z</time></trkpt>
<trkpt lat="36.22633400975449" lon="140.10404960645266"><ele>829</ele><time>2024-08-25T04:52:15Z</time></trkpt>
<trkpt lat="36.22639298399957" lon="140.10383569386795"><ele>824</ele><time>2024-08-25T04:53:24Z</time></trkpt>
<trkpt lat="36.2264915498536" lon="140.1036326129117"><ele>819</ele><time>2024-08-25T04:53:58Z</time></trkpt>
<trkpt lat="36.226441602461584" lon="140.1033987179574"><ele>819</ele><time>2024-08-25T04:54:27Z</time></trkpt>
<trkpt lat="36.22639624801856" lon="140.10311987634273"><ele>813</ele><time>2024-08-25T04:54:58Z</time></trkpt>
<trkpt lat="36.22636473289231" lon="140.10273904056382"><ele>808</ele><time>2024-08-25T04:55:25Z</time></trkpt>
<trkpt lat="36.2263411860602" lon="140.10234920830788"><ele>806</ele><time>2024-08-25T04:55:49Z</time></trkpt>
<trkpt lat="36.22629453807108" lon="140.10194454054337"><ele>795</ele><time>2024-08-25T04:56:22Z</time></trkpt>
<trkpt lat="36.22628386467666" lon="140.10164962865247"><ele>791</ele><time>2024-08-25T04:56:50Z</time></trkpt>
<trkpt lat="36.226201523269324" lon="140.1013439882645"><ele>788</ele><time>2024-08-25T04:57:22Z</time></trkpt>
<trkpt lat="36.22619521370515" lon="140.10112348248788"><ele>787</ele><time>2024-08-25T04:58:01Z</time></trkpt>
<trkpt lat="36.226146072903546" lon="140.10095540349997"><ele>792</ele><time>2024-08-25T04:58:45Z</time></trkpt>
<trkpt lat="36.226066242355046" lon="140.1011774810162"><ele>795</ele><time>2024-08-25T04:59:38Z</time></trkpt>
<trkpt lat="36.22618831020759" lon="140.10106156642178"><ele>799</ele><time>2024-08-25T05:00:33Z</time></trkpt>
<trkpt lat="36.22607181497582" lon="140.10100198236722"><ele>791</ele><time>2024-08-25T05:01:02Z</time></trkpt>
<trkpt lat="36.22618285463853" lon="140.1009895309601"><ele>792</ele><time>2024-08-25T05:12:52Z</time></trkpt>
<trkpt lat="36.226083852135964" lon="140.10101158536727"><ele>792</ele><time>2024-08-25T05:22:24Z</time></trkpt>
<trkpt lat="36.22617482843368" lon="140.10100740056296"><ele>791</ele><time>2024-08-25T05:26:54Z</time></trkpt>
<trkpt lat="36.22598782721443" lon="140.10103813784383"><ele>788</ele><time>2024-08-25T05:37:52Z</time></trkpt>
<trkpt lat="36.22613494984937" lon="140.1009118263076"><ele>791</ele><time>2024-08-25T05:38:13Z</time></trkpt>
<trkpt lat="36.22623967022137" lon="140.1008356382846"><ele>790</ele><time>2024-08-25T05:38:50Z</time></trkpt>
<trkpt lat="36.22606255305759" lon="140.1005184192567"><ele>792</ele><time>2024-08-25T05:44:46Z</time></trkpt>
<trkpt lat="36.22616223402811" lon="140.10035979835945"><ele>799</ele><time>2024-08-25T05:45:45Z</time></trkpt>
<trkpt lat="36.2260797128449" lon="140.10054112067195"><ele>793</ele><time>2024-08-25T05:46:29Z</time></trkpt>
<trkpt lat="36.22594221794646" lon="140.1005487407406"><ele>802</ele><time>2024-08-25T05:47:17Z</time></trkpt>
<trkpt lat="36.22570735863262" lon="140.10070540159023"><ele>797</ele><time>2024-08-25T05:47:54Z</time></trkpt>
<trkpt lat="36.22545737174967" lon="140.1007939946995"><ele>789</ele><time>2024-08-25T05:48:29Z</time></trkpt>
<trkpt lat="36.22536668883694" lon="140.10089108759502"><ele>783</ele><time>2024-08-25T05:48:59Z</time></trkpt>
<trkpt lat="36.22534588082406" lon="140.10112745425886"><ele>773</ele><time>2024-08-25T05:49:47Z</time></trkpt>
<trkpt lat="36.22522445795365" lon="140.10124755640547"><ele>766</ele><time>2024-08-25T05:50:40Z</time></trkpt>
<trkpt lat="36.22506841221687" lon="140.10126040053993"><ele>756</ele><time>2024-08-25T05:51:28Z</time></trkpt>
<trkpt lat="36.22492267666975" lon="140.10127835137067"><ele>751</ele><time>2024-08-25T05:52:07Z</time></trkpt>
<trkpt lat="36.2247838551259" lon="140.101376650895"><ele>742</ele><time>2024-08-25T05:52:36Z</time></trkpt>
<trkpt lat="36.22487861562778" lon="140.1015544670595"><ele>731</ele><time>2024-08-25T05:53:26Z</time></trkpt>
<trkpt lat="36.22479312451657" lon="140.1017593636062"><ele>730</ele><time>2024-08-25T05:53:54Z</time></trkpt>
<trkpt lat="36.22474269082852" lon="140.1019414652159"><ele>726</ele><time>2024-08-25T05:54:52Z</time></trkpt>
<trkpt lat="36.224613181007605" lon="140.1021121607734"><ele>717</ele><time>2024-08-25T05:55:46Z</time></trkpt>
<trkpt lat="36.22442928947063" lon="140.1022528692472"><ele>709</ele><time>2024-08-25T05:56:14Z</time></trkpt>
<trkpt lat="36.224299834806274" lon="140.10245005140368"><ele>697</ele><time>2024-08-25T05:57:07Z</time></trkpt>
<trkpt lat="36.224188616533006" lon="140.10244554296798"><ele>690</ele><time>2024-08-25T05:57:38Z</time></trkpt>
<trkpt lat="36.22407075699396" lon="140.10256526230876"><ele>684</ele><time>2024-08-25T05:58:13Z</time></trkpt>
<trkpt lat="36.22398638451571" lon="140.1026787233275"><ele>676</ele><time>2024-08-25T05:58:54Z</time></trkpt>
<trkpt lat="36.223875978646895" lon="140.1027607355002"><ele>673</ele><time>2024-08-25T05:59:58Z</time></trkpt>
<trkpt lat="36.22372054939715" lon="140.10271378045755"><ele>666</ele><time>2024-08-25T06:00:57Z</time></trkpt>
<trkpt lat="36.22368892551367" lon="140.10255224394498"><ele>659</ele><time>2024-08-25T06:01:36Z</time></trkpt>
<trkpt lat="36.22358111387357" lon="140.10275609992263"><ele>655</ele><time>2024-08-25T06:02:30Z</time></trkpt>
<trkpt lat="36.223440784625566" lon="140.10277564514567"><ele>650</ele><time>2024-08-25T06:03:09Z</time></trkpt>
<trkpt lat="36.223348281194674" lon="140.10262655846088"><ele>644</ele><time>2024-08-25T06:03:32Z</time></trkpt>
<trkpt lat="36.2232343090311" lon="140.10268785951524"><ele>640</ele><time>2024-08-25T06:04:06Z</time></trkpt>
<trkpt lat="36.223164223386945" lon="140.10283887219785"><ele>630</ele><time>2024-08-25T06:05:02Z</time></trkpt>
<trkpt lat="36.22317969218443" lon="140.10309861540225"><ele>627</ele><time>2024-08-25T06:05:37Z</time></trkpt>
<trkpt lat="36.22302676295191" lon="140.10329634193508"><ele>624</ele><time>2024-08-25T06:06:14Z</time></trkpt>
<trkpt lat="36.22314899385239" lon="140.10340864582767"><ele>622</ele><time>2024-08-25T06:06:48Z</time></trkpt>
<trkpt lat="36.22315996336454" lon="140.10361523949413"><ele>626</ele><time>2024-08-25T06:07:24Z</time></trkpt>
<trkpt lat="36.22313817871883" lon="140.10372812530343"><ele>627</ele><time>2024-08-25T06:07:55Z</time></trkpt>
<trkpt lat="36.22316065597955" lon="140.1035812897838"><ele>627</ele><time>2024-08-25T06:09:12Z</time></trkpt>
<trkpt lat="36.222942458818295" lon="140.10378415199702"><ele>625</ele><time>2024-08-25T06:10:42Z</time></trkpt>
<trkpt lat="36.22276042257846" lon="140.10373799702774"><ele>622</ele><time>2024-08-25T06:11:45Z</time></trkpt>
<trkpt lat="36.22263207646407" lon="140.10390654853262"><ele>612</ele><time>2024-08-25T06:12:32Z</time></trkpt>
<trkpt lat="36.22252787321784" lon="140.10399497448105"><ele>612</ele><time>2024-08-25T06:13:40Z</time></trkpt>
<trkpt lat="36.22233755257715" lon="140.1042114363776"><ele>617</ele><time>2024-08-25T06:14:19Z</time></trkpt>
<trkpt lat="36.22215996173219" lon="140.10451392011126"><ele>615</ele><time>2024-08-25T06:14:46Z</time></trkpt>
<trkpt lat="36.222065931642916" lon="140.1047113585522"><ele>611</ele><time>2024-08-25T06:15:52Z</time></trkpt>
<trkpt lat="36.222079312849196" lon="140.10497951197655"><ele>614</ele><time>2024-08-25T06:16:23Z</time></trkpt>
<trkpt lat="36.22203307227992" lon="140.10514503829938"><ele>615</ele><time>2024-08-25T06:17:13Z</time></trkpt>
<trkpt lat="36.22189756776528" lon="140.10508716517407"><ele>603</ele><time>2024-08-25T06:18:27Z</time></trkpt>
<trkpt lat="36.221804045997956" lon="140.10521444101292"><ele>598</ele><time>2024-08-25T06:19:35Z</time></trkpt>
<trkpt lat="36.22167767700349" lon="140.10529335675827"><ele>585</ele><time>2024-08-25T06:20:15Z</time></trkpt>
<trkpt lat="36.2216149532674" lon="140.1053750808988"><ele>583</ele><time>2024-08-25T06:20:45Z</time></trkpt>
<trkpt lat="36.2214202113324" lon="140.10509351027522"><ele>574</ele><time>2024-08-25T06:21:26Z</time></trkpt>
<trkpt lat="36.22136024787287" lon="140.10525905060243"><ele>569</ele><time>2024-08-25T06:21:47Z</time></trkpt>
<trkpt lat="36.22115254602962" lon="140.10526751535753"><ele>558</ele><time>2024-08-25T06:22:18Z</time></trkpt>
<trkpt lat="36.22125696174305" lon="140.10518825420806"><ele>560</ele><time>2024-08-25T06:23:41Z</time></trkpt>
<trkpt lat="36.2211431880616" lon="140.10512370443678"><ele>555</ele><time>2024-08-25T06:24:14Z</time></trkpt>
<trkpt lat="36.22088522981471" lon="140.1049922892216"><ele>552</ele><time>2024-08-25T06:24:48Z</time></trkpt>
<trkpt lat="36.220697119422475" lon="140.10492325012734"><ele>544</ele><time>2024-08-25T06:25:35Z</time></trkpt>
<trkpt lat="36.22056869564973" lon="140.10471162669268"><ele>537</ele><time>2024-08-25T06:26:07Z</time></trkpt>
<trkpt lat="36.22046415350495" lon="140.10475612596193"><ele>536</ele><time>2024-08-25T06:26:40Z</time></trkpt>
<trkpt lat="36.220344756276695" lon="140.10486957161794"><ele>532</ele><time>2024-08-25T06:27:01Z</time></trkpt>
<trkpt lat="36.220499592218594" lon="140.104645071506"><ele>534</ele><time>2024-08-25T06:28:34Z</time></trkpt>
<trkpt lat="36.220400912258064" lon="140.1047156031962"><ele>529</ele><time>2024-08-25T06:29:10Z</time></trkpt>
<trkpt lat="36.22014273459445" lon="140.10471607442045"><ele>526</ele><time>2024-08-25T06:29:41Z</time></trkpt>
<trkpt lat="36.21989571751512" lon="140.1046924304633"><ele>520</ele><time>2024-08-25T06:30:22Z</time></trkpt>
<trkpt lat="36.21969094592097" lon="140.1045435616356"><ele>517</ele><time>2024-08-25T06:30:49Z</time></trkpt>
<trkpt lat="36.21951834179217" lon="140.1044182185347"><ele>510</ele><time>2024-08-25T06:31:22Z</time></trkpt>
<trkpt lat="36.219426113083266" lon="140.10423817539657"><ele>503</ele><time>2024-08-25T06:31:59Z</time></trkpt>
<trkpt lat="36.21932835609303" lon="140.10407618952672"><ele>493</ele><time>2024-08-25T06:32:52Z</time></trkpt>
<trkpt lat="36.21913786170071" lon="140.10403217084874"><ele>487</ele><time>2024-08-25T06:34:09Z</time></trkpt>
<trkpt lat="36.21910804648996" lon="140.10377019388457"><ele>476</ele><time>2024-08-25T06:34:58Z</time></trkpt>
<trkpt lat="36.21893711750543" lon="140.1037835865602"><ele>469</ele><time>2024-08-25T06:36:06Z</time></trkpt>
<trkpt lat="36.218771126066905" lon="140.10394958249438"><ele>466</ele><time>2024-08-25T06:36:47Z</time></trkpt>
<trkpt lat="36.218758194438045" lon="140.10382829524616"><ele>460</ele><time>2024-08-25T06:37:15Z</time></trkpt>
<trkpt lat="36.218681117857095" lon="140.10373870764886"><ele>457</ele><time>2024-08-25T06:37:52Z</time></trkpt>
<trkpt lat="36.21857075240815" lon="140.10363842789073"><ele>447</ele><time>2024-08-25T06:38:24Z</time></trkpt>
<trkpt lat="36.21855744136187" lon="140.10349689783953"><ele>442</ele><time>2024-08-25T06:38:54Z</time></trkpt>
<trkpt lat="36.21840133360765" lon="140.10341042094169"><ele>438</ele><time>2024-08-25T06:39:26Z</time></trkpt>
<trkpt lat="36.218336659464974" lon="140.10320377514594"><ele>429</ele><time>2024-08-25T06:40:43Z</time></trkpt>
<trkpt lat="36.218114529556914" lon="140.1031578171777"><ele>424</ele><time>2024-08-25T06:41:13Z</time></trkpt>
<trkpt lat="36.21802676241484" lon="140.10299674238976"><ele>419</ele><time>2024-08-25T06:42:00Z</time></trkpt>
<trkpt lat="36.21789541296621" lon="140.10287689985637"><ele>416</ele><time>2024-08-25T06:42:42Z</time></trkpt>
<trkpt lat="36.217827205666644" lon="140.10269928865756"><ele>406</ele><time>2024-08-25T06:43:48Z</time></trkpt>
<trkpt lat="36.217647649958124" lon="140.10261088443016"><ele>402</ele><time>2024-08-25T06:44:28Z</time></trkpt>
<trkpt lat="36.21749223268462" lon="140.10261728048366"><ele>397</ele><time>2024-08-25T06:44:57Z</time></trkpt>
<trkpt lat="36.217352845859274" lon="140.10253589026453"><ele>390</ele><time>2024-08-25T06:45:28Z</time></trkpt>
<trkpt lat="36.21718025183682" lon="140.10265667686454"><ele>387</ele><time>2024-08-25T06:46:05Z</time></trkpt>
<trkpt lat="36.21698873242549" lon="140.10277798630798"><ele>382</ele><time>2024-08-25T06:46:56Z</time></trkpt>
<trkpt lat="36.21680725865692" lon="140.10276975145186"><ele>375</ele><time>2024-08-25T06:47:34Z</time></trkpt>
<trkpt lat="36.216669158308946" lon="140.10299321357562"><ele>369</ele><time>2024-08-25T06:48:02Z</time></trkpt>
<trkpt lat="36.216470085432476" lon="140.10288823500426"><ele>364</ele><time>2024-08-25T06:48:31Z</time></trkpt>
<trkpt lat="36.21637512435994" lon="140.1027518207858"><ele>357</ele><time>2024-08-25T06:49:10Z</time></trkpt>
<trkpt lat="36.21631595869625" lon="140.10247186427225"><ele>349</ele><time>2024-08-25T06:49:41Z</time></trkpt>
<trkpt lat="36.216232277639556" lon="140.10239049215278"><ele>345</ele><time>2024-08-25T06:50:10Z</time></trkpt>
<trkpt lat="36.21614983525946" lon="140.10211555703873"><ele>342</ele><time>2024-08-25T06:50:40Z</time></trkpt>
<trkpt lat="36.21597863251116" lon="140.10189593068387"><ele>339</ele><time>2024-08-25T06:51:13Z</time></trkpt>
<trkpt lat="36.21574048296102" lon="140.10180024114572"><ele>334</ele><time>2024-08-25T06:51:43Z</time></trkpt>
<trkpt lat="36.21552853276466" lon="140.10156714251937"><ele>329</ele><time>2024-08-25T06:52:11Z</time></trkpt>
<trkpt lat="36.21534185909913" lon="140.1013497630684"><ele>321</ele><time>2024-08-25T06:52:42Z</time></trkpt>
<trkpt lat="36.215155856711085" lon="140.10113201472427"><ele>317</ele><time>2024-08-25T06:53:40Z</time></trkpt>
<trkpt lat="36.21493922658889" lon="140.10092988015356"><ele>312</ele><time>2024-08-25T06:54:15Z</time></trkpt>
<trkpt lat="36.21478074752885" lon="140.10078710835978"><ele>305</ele><time>2024-08-25T06:54:45Z</time></trkpt>
<trkpt lat="36.21456093201069" lon="140.10072927383538"><ele>297</ele><time>2024-08-25T06:55:25Z</time></trkpt>
<trkpt lat="36.21437142518695" lon="140.10060329197"><ele>291</ele><time>2024-08-25T06:56:02Z</time></trkpt>
<trkpt lat="36.214140195415354" lon="140.10047821110706"><ele>283</ele><time>2024-08-25T06:56:33Z</time></trkpt>
<trkpt lat="36.21392604312235" lon="140.10037712743238"><ele>276</ele><time>2024-08-25T06:57:06Z</time></trkpt>
<trkpt lat="36.21380232655867" lon="140.10027938410738"><ele>270</ele><time>2024-08-25T06:57:51Z</time></trkpt>
<trkpt lat="36.21363159266102" lon="140.10034161833534"><ele>268</ele><time>2024-08-25T07:00:21Z</time></trkpt>
<trkpt lat="36.21358463675116" lon="140.10071559362413"><ele>264</ele><time>2024-08-25T07:01:03Z</time></trkpt>
<trkpt lat="36.21333866115244" lon="140.10055488755432"><ele>260</ele><time>2024-08-25T07:01:32Z</time></trkpt>
<trkpt lat="36.21308055085412" lon="140.10054863311453"><ele>258</ele><time>2024-08-25T07:01:59Z</time></trkpt>
<trkpt lat="36.21289402885815" lon="140.1003571663596"><ele>255</ele><time>2024-08-25T07:02:30Z</time></trkpt>
<trkpt lat="36.21297763666366" lon="140.1000278200403"><ele>249</ele><time>2024-08-25T07:03:20Z</time></trkpt>
<trkpt lat="36.212844890601254" lon="140.09969817116183"><ele>250</ele><time>2024-08-25T07:03:55Z</time></trkpt>
<trkpt lat="36.21256386777644" lon="140.0996745189682"><ele>247</ele><time>2024-08-25T07:04:26Z</time></trkpt>
<trkpt lat="36.21256713152993" lon="140.09942858424182"><ele>249</ele><time>2024-08-25T07:04:58Z</time></trkpt>
<trkpt lat="36.212423124697736" lon="140.0994297053284"><ele>250</ele><time>2024-08-25T07:05:30Z</time></trkpt>
<trkpt lat="36.21218676736147" lon="140.09933917487697"><ele>238</ele><time>2024-08-25T07:06:04Z</time></trkpt>
<trkpt lat="36.21213918090048" lon="140.09904506955934"><ele>235</ele><time>2024-08-25T07:06:31Z</time></trkpt>
<trkpt lat="36.21219507877014" lon="140.09871756617952"><ele>230</ele><time>2024-08-25T07:06:59Z</time></trkpt>
<trkpt lat="36.21232811763633" lon="140.09837171684472"><ele>231</ele><time>2024-08-25T07:07:24Z</time></trkpt>
<trkpt lat="36.2123252264724" lon="140.09803723553176"><ele>225</ele><time>2024-08-25T07:07:50Z</time></trkpt>
<trkpt lat="36.21233920935034" lon="140.09769866642702"><ele>226</ele><time>2024-08-25T07:08:19Z</time></trkpt>
<trkpt lat="36.21230603760416" lon="140.09730197669373"><ele>223</ele><time>2024-08-25T07:08:46Z</time></trkpt>
<trkpt lat="36.21220988175277" lon="140.09692300633853"><ele>221</ele><time>2024-08-25T07:09:13Z</time></trkpt>
<trkpt lat="36.212242101508096" lon="140.09668634124603"><ele>221</ele><time>2024-08-25T07:09:49Z</time></trkpt>
<trkpt lat="36.212141100931" lon="140.09654380737848"><ele>219</ele><time>2024-08-25T07:10:27Z</time></trkpt>
<trkpt lat="36.21218789748376" lon="140.09625650522696"><ele>215</ele><time>2024-08-25T07:11:04Z</time></trkpt>
<trkpt lat="36.21232170547478" lon="140.09611358642553"><ele>217</ele><time>2024-08-25T07:11:37Z</time></trkpt>
<trkpt lat="36.21221494182941" lon="140.09617668377226"><ele>217</ele><time>2024-08-25T07:13:31Z</time></trkpt>
<trkpt lat="36.21201379368652" lon="140.09625051778525"><ele>217</ele><time>2024-08-25T07:16:45Z</time></trkpt>
<trkpt lat="36.21181568836269" lon="140.09627222022436"><ele>217</ele><time>2024-08-25T07:17:23Z</time></trkpt>
<trkpt lat="36.211706403373064" lon="140.09602819505517"><ele>210</ele><time>2024-08-25T07:18:02Z</time></trkpt>
</trkseg>
</trk>
</gpx>