<?xml version="1.0" encoding="UTF-8"?>
<gpx xmlns:xsi="http://www.w3.org/2001/XMLSchema-instance" xmlns="http://www.topografix.com/GPX/1/1" xsi:schemaLocation="http://www.topografix.com/GPX/1/1 http://www.topografix.com/GPX/1/1/gpx.xsd" creator="Yamareco iOS 7.33 - www.yamareco.com">
<trk><name>track</name><number>1</number><trkseg>
<trkpt lat="30.587865342933327" lon="-9.531862014287169"><ele>315</ele><time>2025-09-26T13:37:02Z</time></trkpt>
<trkpt lat="30.587850000535635" lon="-9.531964899935328"><ele>317</ele><time>2025-09-26T13:38:19Z</time></trkpt>
<trkpt lat="30.58800289648379" lon="-9.53191478099388"><ele>316</ele><time>2025-09-26T13:40:10Z</time></trkpt>
<trkpt lat="30.58802516753147" lon="-9.531648798716853"><ele>314</ele><time>2025-09-26T13:40:48Z</time></trkpt>
<trkpt lat="30.5880581809049" lon="-9.531396322947804"><ele>318</ele><time>2025-09-26T13:41:18Z</time></trkpt>
<trkpt lat="30.587815931658483" lon="-9.531286482044566"><ele>319</ele><time>2025-09-26T13:41:53Z</time></trkpt>
<trkpt lat="30.58763203239746" lon="-9.531120947683105"><ele>317</ele><time>2025-09-26T13:42:19Z</time></trkpt>
<trkpt lat="30.587559828511154" lon="-9.530772103428006"><ele>321</ele><time>2025-09-26T13:42:51Z</time></trkpt>
<trkpt lat="30.587645332804865" lon="-9.530430879325015"><ele>326</ele><time>2025-09-26T13:43:21Z</time></trkpt>
<trkpt lat="30.587689675337227" lon="-9.530130121232103"><ele>330</ele><time>2025-09-26T13:43:48Z</time></trkpt>
<trkpt lat="30.58777496120176" lon="-9.529848857251563"><ele>332</ele><time>2025-09-26T13:44:16Z</time></trkpt>
<trkpt lat="30.587856798022695" lon="-9.529671063142661"><ele>328</ele><time>2025-09-26T13:44:49Z</time></trkpt>
<trkpt lat="30.587787252679405" lon="-9.52937779450957"><ele>326</ele><time>2025-09-26T13:45:28Z</time></trkpt>
<trkpt lat="30.58775378803194" lon="-9.52916632766575"><ele>322</ele><time>2025-09-26T13:45:56Z</time></trkpt>
<trkpt lat="30.58772134147918" lon="-9.52889570408142"><ele>311</ele><time>2025-09-26T13:46:41Z</time></trkpt>
<trkpt lat="30.587755832799697" lon="-9.528591454423857"><ele>306</ele><time>2025-09-26T13:47:15Z</time></trkpt>
<trkpt lat="30.58759037019512" lon="-9.528418765623591"><ele>302</ele><time>2025-09-26T13:47:48Z</time></trkpt>
<trkpt lat="30.587587311384567" lon="-9.528172359631792"><ele>302</ele><time>2025-09-26T13:48:15Z</time></trkpt>
<trkpt lat="30.58771124684266" lon="-9.528047831388118"><ele>303</ele><time>2025-09-26T13:48:49Z</time></trkpt>
<trkpt lat="30.587906474664273" lon="-9.528194656407644"><ele>304</ele><time>2025-09-26T13:49:23Z</time></trkpt>
<trkpt lat="30.58796130250586" lon="-9.528489389962974"><ele>305</ele><time>2025-09-26T13:49:50Z</time></trkpt>
<trkpt lat="30.587987387435003" lon="-9.528750517867103"><ele>305</ele><time>2025-09-26T13:50:50Z</time></trkpt>
<trkpt lat="30.588097447167147" lon="-9.52907650033508"><ele>302</ele><time>2025-09-26T13:51:18Z</time></trkpt>
<trkpt lat="30.58819596675736" lon="-9.529322781216393"><ele>303</ele><time>2025-09-26T13:51:49Z</time></trkpt>
<trkpt lat="30.588261521176708" lon="-9.529587521497003"><ele>305</ele><time>2025-09-26T13:52:14Z</time></trkpt>
<trkpt lat="30.588447875250306" lon="-9.529587141094549"><ele>304</ele><time>2025-09-26T13:52:46Z</time></trkpt>
<trkpt lat="30.588643976257682" lon="-9.529516928252917"><ele>303</ele><time>2025-09-26T13:53:14Z</time></trkpt>
<trkpt lat="30.58875341361821" lon="-9.529182821841033"><ele>305</ele><time>2025-09-26T13:54:12Z</time></trkpt>
<trkpt lat="30.588751385237387" lon="-9.528798168931566"><ele>305</ele><time>2025-09-26T13:54:43Z</time></trkpt>
<trkpt lat="30.58871721172548" lon="-9.528400724176871"><ele>306</ele><time>2025-09-26T13:55:13Z</time></trkpt>
<trkpt lat="30.588708936150375" lon="-9.5281736286517"><ele>306</ele><time>2025-09-26T13:55:49Z</time></trkpt>
<trkpt lat="30.5886169687836" lon="-9.527891060265217"><ele>307</ele><time>2025-09-26T13:56:23Z</time></trkpt>
<trkpt lat="30.588574474206602" lon="-9.527537265247844"><ele>308</ele><time>2025-09-26T13:56:53Z</time></trkpt>
<trkpt lat="30.588490945216776" lon="-9.527257270961305"><ele>311</ele><time>2025-09-26T13:57:24Z</time></trkpt>
<trkpt lat="30.58840267070336" lon="-9.527154790890984"><ele>309</ele><time>2025-09-26T13:57:58Z</time></trkpt>
<trkpt lat="30.58841181111202" lon="-9.526896295601917"><ele>309</ele><time>2025-09-26T13:58:31Z</time></trkpt>
<trkpt lat="30.588444490521628" lon="-9.526541440215354"><ele>308</ele><time>2025-09-26T13:59:00Z</time></trkpt>
<trkpt lat="30.588587731889717" lon="-9.526222626611323"><ele>308</ele><time>2025-09-26T13:59:29Z</time></trkpt>
<trkpt lat="30.588686520246625" lon="-9.52593874543799"><ele>308</ele><time>2025-09-26T14:00:09Z</time></trkpt>
<trkpt lat="30.588637223261603" lon="-9.525611741622807"><ele>307</ele><time>2025-09-26T14:00:37Z</time></trkpt>
<trkpt lat="30.58861014438154" lon="-9.5253367493941"><ele>308</ele><time>2025-09-26T14:01:07Z</time></trkpt>
<trkpt lat="30.588583249439328" lon="-9.52511405032293"><ele>313</ele><time>2025-09-26T14:02:15Z</time></trkpt>
<trkpt lat="30.588683157417695" lon="-9.524849670107084"><ele>317</ele><time>2025-09-26T14:02:40Z</time></trkpt>
<trkpt lat="30.588727224278866" lon="-9.524672390019498"><ele>318</ele><time>2025-09-26T14:03:11Z</time></trkpt>
<trkpt lat="30.588773059211594" lon="-9.524350169961593"><ele>321</ele><time>2025-09-26T14:03:42Z</time></trkpt>
<trkpt lat="30.588867974209062" lon="-9.524015369546388"><ele>325</ele><time>2025-09-26T14:04:10Z</time></trkpt>
<trkpt lat="30.588908368619972" lon="-9.523735029041996"><ele>330</ele><time>2025-09-26T14:04:41Z</time></trkpt>
<trkpt lat="30.588969519720873" lon="-9.523473096127088"><ele>338</ele><time>2025-09-26T14:05:13Z</time></trkpt>
<trkpt lat="30.589143220009113" lon="-9.523228558016175"><ele>345</ele><time>2025-09-26T14:05:48Z</time></trkpt>
<trkpt lat="30.58922508472841" lon="-9.522933045906711"><ele>352</ele><time>2025-09-26T14:06:19Z</time></trkpt>
<trkpt lat="30.589312423973887" lon="-9.522700515781635"><ele>360</ele><time>2025-09-26T14:06:47Z</time></trkpt>
<trkpt lat="30.589400369352084" lon="-9.52244646658556"><ele>362</ele><time>2025-09-26T14:07:15Z</time></trkpt>
<trkpt lat="30.58948983975328" lon="-9.52214343320264"><ele>368</ele><time>2025-09-26T14:07:52Z</time></trkpt>
<trkpt lat="30.589550060382887" lon="-9.521841140284353"><ele>370</ele><time>2025-09-26T14:08:19Z</time></trkpt>
<trkpt lat="30.589617616247892" lon="-9.521553477460188"><ele>374</ele><time>2025-09-26T14:08:47Z</time></trkpt>
<trkpt lat="30.589696492268587" lon="-9.521292813830728"><ele>375</ele><time>2025-09-26T14:09:16Z</time></trkpt>
<trkpt lat="30.589827355886914" lon="-9.521080615639498"><ele>377</ele><time>2025-09-26T14:09:47Z</time></trkpt>
<trkpt lat="30.58983347597296" lon="-9.52085824038082"><ele>380</ele><time>2025-09-26T14:10:34Z</time></trkpt>
<trkpt lat="30.58993243045497" lon="-9.520493953751288"><ele>378</ele><time>2025-09-26T14:11:06Z</time></trkpt>
<trkpt lat="30.58997054132081" lon="-9.520165706519343"><ele>386</ele><time>2025-09-26T14:11:40Z</time></trkpt>
<trkpt lat="30.589949386117972" lon="-9.519842017529863"><ele>387</ele><time>2025-09-26T14:12:08Z</time></trkpt>
<trkpt lat="30.589909075033294" lon="-9.519505133789433"><ele>380</ele><time>2025-09-26T14:12:35Z</time></trkpt>
<trkpt lat="30.589811948693335" lon="-9.519278479949179"><ele>374</ele><time>2025-09-26T14:13:03Z</time></trkpt>
<trkpt lat="30.58960960266821" lon="-9.519184913672746"><ele>371</ele><time>2025-09-26T14:13:31Z</time></trkpt>
<trkpt lat="30.589454714287662" lon="-9.519151543831752"><ele>368</ele><time>2025-09-26T14:13:58Z</time></trkpt>
<trkpt lat="30.58920535726857" lon="-9.518949300189266"><ele>364</ele><time>2025-09-26T14:14:28Z</time></trkpt>
<trkpt lat="30.589076024476412" lon="-9.518645193649148"><ele>362</ele><time>2025-09-26T14:14:55Z</time></trkpt>
<trkpt lat="30.58887105426147" lon="-9.518391330443649"><ele>357</ele><time>2025-09-26T14:15:26Z</time></trkpt>
<trkpt lat="30.588782549645824" lon="-9.51819796718381"><ele>353</ele><time>2025-09-26T14:15:54Z</time></trkpt>
<trkpt lat="30.58864478822074" lon="-9.51802648179714"><ele>354</ele><time>2025-09-26T14:16:25Z</time></trkpt>
<trkpt lat="30.5885073734061" lon="-9.517925645895946"><ele>356</ele><time>2025-09-26T14:17:03Z</time></trkpt>
<trkpt lat="30.588512068496367" lon="-9.517634573227134"><ele>354</ele><time>2025-09-26T14:17:40Z</time></trkpt>
<trkpt lat="30.58852907273733" lon="-9.517465336467868"><ele>352</ele><time>2025-09-26T14:18:23Z</time></trkpt>
<trkpt lat="30.5884964773364" lon="-9.517279485533862"><ele>356</ele><time>2025-09-26T14:18:59Z</time></trkpt>
<trkpt lat="30.588430399597723" lon="-9.517126734175411"><ele>357</ele><time>2025-09-26T14:20:24Z</time></trkpt>
<trkpt lat="30.588484557355134" lon="-9.517026613270863"><ele>355</ele><time>2025-09-26T14:21:09Z</time></trkpt>
<trkpt lat="30.58858333972432" lon="-9.51712391133202"><ele>347</ele><time>2025-09-26T14:23:14Z</time></trkpt>
<trkpt lat="30.5887293338285" lon="-9.516938657409083"><ele>348</ele><time>2025-09-26T14:24:34Z</time></trkpt>
<trkpt lat="30.588756909041646" lon="-9.516661710755978"><ele>352</ele><time>2025-09-26T14:25:11Z</time></trkpt>
<trkpt lat="30.588888521871525" lon="-9.516445639870737"><ele>358</ele><time>2025-09-26T14:25:42Z</time></trkpt>
<trkpt lat="30.589103698246554" lon="-9.516244264380257"><ele>361</ele><time>2025-09-26T14:26:11Z</time></trkpt>
<trkpt lat="30.58927086186929" lon="-9.516074564925622"><ele>363</ele><time>2025-09-26T14:26:43Z</time></trkpt>
<trkpt lat="30.58933828304919" lon="-9.515830034930284"><ele>366</ele><time>2025-09-26T14:27:20Z</time></trkpt>
<trkpt lat="30.58941927425295" lon="-9.515601223367266"><ele>373</ele><time>2025-09-26T14:27:58Z</time></trkpt>
<trkpt lat="30.589654564033637" lon="-9.51545760401308"><ele>374</ele><time>2025-09-26T14:28:39Z</time></trkpt>
<trkpt lat="30.589807098854738" lon="-9.515264371472368"><ele>380</ele><time>2025-09-26T14:29:10Z</time></trkpt>
<trkpt lat="30.589949124206125" lon="-9.515019424000029"><ele>385</ele><time>2025-09-26T14:29:38Z</time></trkpt>
<trkpt lat="30.590191831689438" lon="-9.5149972030531"><ele>390</ele><time>2025-09-26T14:30:08Z</time></trkpt>
<trkpt lat="30.5903921451462" lon="-9.515194787628783"><ele>394</ele><time>2025-09-26T14:30:40Z</time></trkpt>
<trkpt lat="30.590616861311883" lon="-9.51517975593053"><ele>400</ele><time>2025-09-26T14:31:10Z</time></trkpt>
<trkpt lat="30.590600080077163" lon="-9.514980401317883"><ele>406</ele><time>2025-09-26T14:31:52Z</time></trkpt>
<trkpt lat="30.59069596073173" lon="-9.514853209478408"><ele>413</ele><time>2025-09-26T14:32:28Z</time></trkpt>
<trkpt lat="30.590672531150016" lon="-9.514593723835516"><ele>416</ele><time>2025-09-26T14:33:02Z</time></trkpt>
<trkpt lat="30.590755473484748" lon="-9.514357811366388"><ele>422</ele><time>2025-09-26T14:33:29Z</time></trkpt>
<trkpt lat="30.590802790530635" lon="-9.514191811107784"><ele>426</ele><time>2025-09-26T14:33:58Z</time></trkpt>
<trkpt lat="30.590986333507924" lon="-9.514157800375198"><ele>431</ele><time>2025-09-26T14:34:23Z</time></trkpt>
<trkpt lat="30.590938981288076" lon="-9.513866578630186"><ele>437</ele><time>2025-09-26T14:35:28Z</time></trkpt>
<trkpt lat="30.590967121181933" lon="-9.513590339381691"><ele>441</ele><time>2025-09-26T14:35:56Z</time></trkpt>
<trkpt lat="30.591115224596663" lon="-9.513647789389411"><ele>446</ele><time>2025-09-26T14:36:18Z</time></trkpt>
<trkpt lat="30.59127216949017" lon="-9.513741771163097"><ele>454</ele><time>2025-09-26T14:36:53Z</time></trkpt>
<trkpt lat="30.591374644357384" lon="-9.514071242757925"><ele>456</ele><time>2025-09-26T14:37:20Z</time></trkpt>
<trkpt lat="30.591526025762217" lon="-9.51429589896844"><ele>459</ele><time>2025-09-26T14:37:53Z</time></trkpt>
<trkpt lat="30.59158598748535" lon="-9.514208686641894"><ele>462</ele><time>2025-09-26T14:38:28Z</time></trkpt>
<trkpt lat="30.591819459176417" lon="-9.514197296709746"><ele>468</ele><time>2025-09-26T14:39:19Z</time></trkpt>
<trkpt lat="30.591955244542277" lon="-9.514290980360395"><ele>466</ele><time>2025-09-26T14:39:47Z</time></trkpt>
<trkpt lat="30.592098966551333" lon="-9.51408443518875"><ele>469</ele><time>2025-09-26T14:40:18Z</time></trkpt>
<trkpt lat="30.592234409384417" lon="-9.513883255384437"><ele>476</ele><time>2025-09-26T14:40:57Z</time></trkpt>
<trkpt lat="30.592449426571147" lon="-9.513624159184543"><ele>481</ele><time>2025-09-26T14:41:26Z</time></trkpt>
<trkpt lat="30.592395220145914" lon="-9.513381506941236"><ele>486</ele><time>2025-09-26T14:41:54Z</time></trkpt>
<trkpt lat="30.59224211259805" lon="-9.513397638788778"><ele>491</ele><time>2025-09-26T14:43:21Z</time></trkpt>
<trkpt lat="30.5922703903995" lon="-9.51317779552222"><ele>492</ele><time>2025-09-26T14:43:49Z</time></trkpt>
<trkpt lat="30.59242239913772" lon="-9.513087114239164"><ele>495</ele><time>2025-09-26T14:48:45Z</time></trkpt>
<trkpt lat="30.59230675542682" lon="-9.512865251033535"><ele>500</ele><time>2025-09-26T14:49:19Z</time></trkpt>
<trkpt lat="30.59240224107992" lon="-9.512628582235848"><ele>504</ele><time>2025-09-26T14:49:51Z</time></trkpt>
<trkpt lat="30.592657207609655" lon="-9.512499502679805"><ele>509</ele><time>2025-09-26T14:50:19Z</time></trkpt>
<trkpt lat="30.592782959555137" lon="-9.512292638884198"><ele>514</ele><time>2025-09-26T14:50:54Z</time></trkpt>
<trkpt lat="30.592761476088356" lon="-9.512105407269257"><ele>518</ele><time>2025-09-26T14:51:35Z</time></trkpt>
<trkpt lat="30.592860084152278" lon="-9.511846338697337"><ele>523</ele><time>2025-09-26T14:52:10Z</time></trkpt>
<trkpt lat="30.593090160673807" lon="-9.511645834201442"><ele>529</ele><time>2025-09-26T14:52:38Z</time></trkpt>
<trkpt lat="30.593251219438788" lon="-9.51146134948814"><ele>535</ele><time>2025-09-26T14:53:07Z</time></trkpt>
<trkpt lat="30.593449626922865" lon="-9.511292432090329"><ele>540</ele><time>2025-09-26T14:53:41Z</time></trkpt>
<trkpt lat="30.593598926893513" lon="-9.511153584989515"><ele>543</ele><time>2025-09-26T14:54:06Z</time></trkpt>
<trkpt lat="30.593520015545057" lon="-9.51082829727623"><ele>542</ele><time>2025-09-26T14:54:37Z</time></trkpt>
<trkpt lat="30.59343396780932" lon="-9.510468134240606"><ele>540</ele><time>2025-09-26T14:55:09Z</time></trkpt>
<trkpt lat="30.593419640683493" lon="-9.510158678343792"><ele>539</ele><time>2025-09-26T14:55:41Z</time></trkpt>
<trkpt lat="30.5933865445546" lon="-9.509769792646056"><ele>539</ele><time>2025-09-26T14:56:09Z</time></trkpt>
<trkpt lat="30.59327199286942" lon="-9.509450618595672"><ele>535</ele><time>2025-09-26T14:56:34Z</time></trkpt>
<trkpt lat="30.59297392357074" lon="-9.509238666206763"><ele>539</ele><time>2025-09-26T14:57:02Z</time></trkpt>
<trkpt lat="30.592691197919777" lon="-9.509044478776065"><ele>543</ele><time>2025-09-26T14:57:34Z</time></trkpt>
<trkpt lat="30.59285262097379" lon="-9.50874447207568"><ele>540</ele><time>2025-09-26T14:58:05Z</time></trkpt>
<trkpt lat="30.593084987805902" lon="-9.50868421009162"><ele>541</ele><time>2025-09-26T14:58:32Z</time></trkpt>
<trkpt lat="30.59330055669921" lon="-9.508551118711551"><ele>543</ele><time>2025-09-26T14:59:02Z</time></trkpt>
<trkpt lat="30.593265918174048" lon="-9.508253047825905"><ele>551</ele><time>2025-09-26T14:59:41Z</time></trkpt>
<trkpt lat="30.59349473209662" lon="-9.508001990562008"><ele>555</ele><time>2025-09-26T15:00:14Z</time></trkpt>
<trkpt lat="30.59346873505968" lon="-9.507739745850214"><ele>556</ele><time>2025-09-26T15:00:51Z</time></trkpt>
<trkpt lat="30.59356799046911" lon="-9.50740417289882"><ele>561</ele><time>2025-09-26T15:01:25Z</time></trkpt>
<trkpt lat="30.59361976681733" lon="-9.507014742735219"><ele>563</ele><time>2025-09-26T15:01:56Z</time></trkpt>
<trkpt lat="30.593665237255944" lon="-9.50667932341497"><ele>566</ele><time>2025-09-26T15:02:24Z</time></trkpt>
<trkpt lat="30.5937308278077" lon="-9.506353185957208"><ele>565</ele><time>2025-09-26T15:02:49Z</time></trkpt>
<trkpt lat="30.59368400093612" lon="-9.506041929774687"><ele>567</ele><time>2025-09-26T15:03:19Z</time></trkpt>
<trkpt lat="30.5934939283546" lon="-9.505781147640931"><ele>569</ele><time>2025-09-26T15:03:45Z</time></trkpt>
<trkpt lat="30.59348180662522" lon="-9.505392567446025"><ele>566</ele><time>2025-09-26T15:04:12Z</time></trkpt>
<trkpt lat="30.59345091150672" lon="-9.505061490651167"><ele>566</ele><time>2025-09-26T15:04:40Z</time></trkpt>
<trkpt lat="30.59346753028681" lon="-9.504786308409598"><ele>564</ele><time>2025-09-26T15:05:06Z</time></trkpt>
<trkpt lat="30.593272798007547" lon="-9.50458429411007"><ele>563</ele><time>2025-09-26T15:05:32Z</time></trkpt>
<trkpt lat="30.593135119846966" lon="-9.50433460323464"><ele>560</ele><time>2025-09-26T15:06:08Z</time></trkpt>
<trkpt lat="30.593204402664295" lon="-9.504085751590575"><ele>562</ele><time>2025-09-26T15:06:33Z</time></trkpt>
<trkpt lat="30.593465375557994" lon="-9.503991546084842"><ele>561</ele><time>2025-09-26T15:07:03Z</time></trkpt>
<trkpt lat="30.59362382625974" lon="-9.503846788564937"><ele>558</ele><time>2025-09-26T15:07:33Z</time></trkpt>
<trkpt lat="30.59369109149594" lon="-9.503629247326627"><ele>565</ele><time>2025-09-26T15:08:04Z</time></trkpt>
<trkpt lat="30.593747484255683" lon="-9.503408451706605"><ele>566</ele><time>2025-09-26T15:08:36Z</time></trkpt>
<trkpt lat="30.593837823650397" lon="-9.503202837027933"><ele>565</ele><time>2025-09-26T15:09:11Z</time></trkpt>
<trkpt lat="30.593712712561363" lon="-9.503488002698559"><ele>565</ele><time>2025-09-26T15:09:51Z</time></trkpt>
<trkpt lat="30.593653621904185" lon="-9.50378259812611"><ele>562</ele><time>2025-09-26T15:10:17Z</time></trkpt>
<trkpt lat="30.593467788641377" lon="-9.50398196367711"><ele>557</ele><time>2025-09-26T15:10:44Z</time></trkpt>
<trkpt lat="30.59319871056595" lon="-9.504087652589396"><ele>561</ele><time>2025-09-26T15:11:14Z</time></trkpt>
<trkpt lat="30.59319542003115" lon="-9.504320625302507"><ele>562</ele><time>2025-09-26T15:11:41Z</time></trkpt>
<trkpt lat="30.5934104291316" lon="-9.504607738692766"><ele>560</ele><time>2025-09-26T15:12:14Z</time></trkpt>
<trkpt lat="30.593581201266765" lon="-9.504929011462036"><ele>562</ele><time>2025-09-26T15:12:43Z</time></trkpt>
<trkpt lat="30.593701180601432" lon="-9.504671967823674"><ele>553</ele><time>2025-09-26T15:13:27Z</time></trkpt>
<trkpt lat="30.593836422258615" lon="-9.504508023624892"><ele>545</ele><time>2025-09-26T15:14:00Z</time></trkpt>
<trkpt lat="30.593890285729866" lon="-9.504274042518887"><ele>543</ele><time>2025-09-26T15:14:31Z</time></trkpt>
<trkpt lat="30.594055991323664" lon="-9.504192390014389"><ele>536</ele><time>2025-09-26T15:15:00Z</time></trkpt>
<trkpt lat="30.594218905535207" lon="-9.50411234383834"><ele>534</ele><time>2025-09-26T15:16:02Z</time></trkpt>
<trkpt lat="30.59430116401807" lon="-9.504325341663707"><ele>533</ele><time>2025-09-26T15:16:35Z</time></trkpt>
<trkpt lat="30.59441631718098" lon="-9.504473025490087"><ele>531</ele><time>2025-09-26T15:17:32Z</time></trkpt>
<trkpt lat="30.594511696900007" lon="-9.50445122900874"><ele>533</ele><time>2025-09-26T15:18:22Z</time></trkpt>
<trkpt lat="30.594683125945707" lon="-9.504600919903583"><ele>545</ele><time>2025-09-26T15:19:12Z</time></trkpt>
<trkpt lat="30.59479454834961" lon="-9.50479936974138"><ele>552</ele><time>2025-09-26T15:19:50Z</time></trkpt>
<trkpt lat="30.59487071219558" lon="-9.504972124907255"><ele>557</ele><time>2025-09-26T15:20:32Z</time></trkpt>
<trkpt lat="30.594920655122415" lon="-9.504854982544412"><ele>561</ele><time>2025-09-26T15:21:00Z</time></trkpt>
<trkpt lat="30.595059755103975" lon="-9.504792805571034"><ele>572</ele><time>2025-09-26T15:21:49Z</time></trkpt>
<trkpt lat="30.59523714560262" lon="-9.504946886134842"><ele>579</ele><time>2025-09-26T15:22:22Z</time></trkpt>
<trkpt lat="30.595456642487427" lon="-9.505120099603387"><ele>584</ele><time>2025-09-26T15:23:04Z</time></trkpt>
<trkpt lat="30.59554938851572" lon="-9.505150465888308"><ele>591</ele><time>2025-09-26T15:23:37Z</time></trkpt>
<trkpt lat="30.595699235260142" lon="-9.505009554844056"><ele>603</ele><time>2025-09-26T15:24:55Z</time></trkpt>
<trkpt lat="30.595908589417807" lon="-9.50506436494547"><ele>611</ele><time>2025-09-26T15:25:40Z</time></trkpt>
<trkpt lat="30.596041443202044" lon="-9.504966381086044"><ele>620</ele><time>2025-09-26T15:26:23Z</time></trkpt>
<trkpt lat="30.59612985375688" lon="-9.504887148285551"><ele>624</ele><time>2025-09-26T15:27:25Z</time></trkpt>
<trkpt lat="30.596397614988696" lon="-9.50504296099744"><ele>623</ele><time>2025-09-26T15:28:46Z</time></trkpt>
<trkpt lat="30.59666949935133" lon="-9.505218256864861"><ele>625</ele><time>2025-09-26T15:29:16Z</time></trkpt>
<trkpt lat="30.596861764265004" lon="-9.505568985471198"><ele>625</ele><time>2025-09-26T15:29:42Z</time></trkpt>
<trkpt lat="30.59683177675455" lon="-9.50591770988113"><ele>625</ele><time>2025-09-26T15:30:10Z</time></trkpt>
<trkpt lat="30.59673546728265" lon="-9.506353867516697"><ele>624</ele><time>2025-09-26T15:30:42Z</time></trkpt>
<trkpt lat="30.59677253903421" lon="-9.50667033244247"><ele>620</ele><time>2025-09-26T15:31:09Z</time></trkpt>
<trkpt lat="30.59698319921991" lon="-9.506910851449854"><ele>621</ele><time>2025-09-26T15:31:38Z</time></trkpt>
<trkpt lat="30.59716428076341" lon="-9.507179377661284"><ele>622</ele><time>2025-09-26T15:32:06Z</time></trkpt>
<trkpt lat="30.5972077683987" lon="-9.50752587912483"><ele>624</ele><time>2025-09-26T15:32:31Z</time></trkpt>
<trkpt lat="30.5971678150295" lon="-9.50791452333457"><ele>624</ele><time>2025-09-26T15:32:57Z</time></trkpt>
<trkpt lat="30.596986893073105" lon="-9.508171247562933"><ele>624</ele><time>2025-09-26T15:33:21Z</time></trkpt>
<trkpt lat="30.59672732913058" lon="-9.508359846406083"><ele>622</ele><time>2025-09-26T15:33:48Z</time></trkpt>
<trkpt lat="30.596592746997587" lon="-9.508673496238615"><ele>622</ele><time>2025-09-26T15:34:15Z</time></trkpt>
<trkpt lat="30.596678137013843" lon="-9.508990224123098"><ele>615</ele><time>2025-09-26T15:34:41Z</time></trkpt>
<trkpt lat="30.596862430693434" lon="-9.509006566686029"><ele>615</ele><time>2025-09-26T15:35:14Z</time></trkpt>
<trkpt lat="30.597155737473308" lon="-9.509016144846647"><ele>617</ele><time>2025-09-26T15:35:39Z</time></trkpt>
<trkpt lat="30.597454275668753" lon="-9.509244536215578"><ele>619</ele><time>2025-09-26T15:36:07Z</time></trkpt>
<trkpt lat="30.59772712776399" lon="-9.50930575363957"><ele>621</ele><time>2025-09-26T15:36:36Z</time></trkpt>
<trkpt lat="30.598028932993046" lon="-9.509405134070853"><ele>622</ele><time>2025-09-26T15:37:03Z</time></trkpt>
<trkpt lat="30.598287842333832" lon="-9.509586414536987"><ele>620</ele><time>2025-09-26T15:37:30Z</time></trkpt>
<trkpt lat="30.598564541460657" lon="-9.509800281494018"><ele>619</ele><time>2025-09-26T15:37:56Z</time></trkpt>
<trkpt lat="30.598785822624265" lon="-9.510111189086802"><ele>617</ele><time>2025-09-26T15:38:25Z</time></trkpt>
<trkpt lat="30.59893273325712" lon="-9.510457119858943"><ele>615</ele><time>2025-09-26T15:38:52Z</time></trkpt>
<trkpt lat="30.598943590113596" lon="-9.510785499031362"><ele>615</ele><time>2025-09-26T15:39:18Z</time></trkpt>
<trkpt lat="30.598719917859682" lon="-9.511099450495104"><ele>609</ele><time>2025-09-26T15:39:47Z</time></trkpt>
<trkpt lat="30.598590389484432" lon="-9.511506253536083"><ele>607</ele><time>2025-09-26T15:40:16Z</time></trkpt>
<trkpt lat="30.598392688793677" lon="-9.51180880602732"><ele>602</ele><time>2025-09-26T15:40:44Z</time></trkpt>
<trkpt lat="30.598325376207658" lon="-9.512099505168656"><ele>597</ele><time>2025-09-26T15:41:11Z</time></trkpt>
<trkpt lat="30.598617822779808" lon="-9.512166355447706"><ele>596</ele><time>2025-09-26T15:41:40Z</time></trkpt>
<trkpt lat="30.598919563666097" lon="-9.512306779415354"><ele>594</ele><time>2025-09-26T15:42:07Z</time></trkpt>
<trkpt lat="30.598891793051553" lon="-9.512696043888521"><ele>594</ele><time>2025-09-26T15:42:32Z</time></trkpt>
<trkpt lat="30.598708362641876" lon="-9.512975155667872"><ele>591</ele><time>2025-09-26T15:42:59Z</time></trkpt>
<trkpt lat="30.598510541495475" lon="-9.513295953528552"><ele>585</ele><time>2025-09-26T15:43:24Z</time></trkpt>
<trkpt lat="30.598372358915043" lon="-9.513596573665165"><ele>584</ele><time>2025-09-26T15:43:51Z</time></trkpt>
<trkpt lat="30.59819493373627" lon="-9.513878912026039"><ele>579</ele><time>2025-09-26T15:44:16Z</time></trkpt>
<trkpt lat="30.59790993712744" lon="-9.514117123713143"><ele>578</ele><time>2025-09-26T15:44:42Z</time></trkpt>
<trkpt lat="30.597603218395236" lon="-9.514327321994417"><ele>574</ele><time>2025-09-26T15:45:09Z</time></trkpt>
<trkpt lat="30.59734122569125" lon="-9.514582512663248"><ele>572</ele><time>2025-09-26T15:45:39Z</time></trkpt>
<trkpt lat="30.597083383982373" lon="-9.514788385890435"><ele>568</ele><time>2025-09-26T15:46:05Z</time></trkpt>
<trkpt lat="30.59687391648807" lon="-9.51503588119996"><ele>563</ele><time>2025-09-26T15:46:34Z</time></trkpt>
<trkpt lat="30.596860030664015" lon="-9.515423166483323"><ele>561</ele><time>2025-09-26T15:47:02Z</time></trkpt>
<trkpt lat="30.59686989964707" lon="-9.515840623989334"><ele>558</ele><time>2025-09-26T15:47:29Z</time></trkpt>
<trkpt lat="30.596888660093786" lon="-9.516175648337589"><ele>556</ele><time>2025-09-26T15:47:54Z</time></trkpt>
<trkpt lat="30.596966484290153" lon="-9.516546954337358"><ele>554</ele><time>2025-09-26T15:48:21Z</time></trkpt>
<trkpt lat="30.596878080280796" lon="-9.51694703606992"><ele>550</ele><time>2025-09-26T15:48:47Z</time></trkpt>
<trkpt lat="30.596969078630423" lon="-9.517306080746268"><ele>545</ele><time>2025-09-26T15:49:15Z</time></trkpt>
<trkpt lat="30.59688621250027" lon="-9.517724080090074"><ele>541</ele><time>2025-09-26T15:49:41Z</time></trkpt>
<trkpt lat="30.59686793804236" lon="-9.518114867499976"><ele>539</ele><time>2025-09-26T15:50:10Z</time></trkpt>
<trkpt lat="30.596983852553887" lon="-9.51844901721603"><ele>536</ele><time>2025-09-26T15:50:37Z</time></trkpt>
<trkpt lat="30.596965053624587" lon="-9.518861582705535"><ele>531</ele><time>2025-09-26T15:51:05Z</time></trkpt>
<trkpt lat="30.596881192631084" lon="-9.519229071218028"><ele>529</ele><time>2025-09-26T15:51:31Z</time></trkpt>
<trkpt lat="30.59664815997855" lon="-9.519564622139567"><ele>527</ele><time>2025-09-26T15:51:58Z</time></trkpt>
<trkpt lat="30.596436520832988" lon="-9.519798372034256"><ele>527</ele><time>2025-09-26T15:52:26Z</time></trkpt>
<trkpt lat="30.59617791480336" lon="-9.519954425122938"><ele>522</ele><time>2025-09-26T15:52:50Z</time></trkpt>
<trkpt lat="30.59616758103684" lon="-9.520332718174856"><ele>517</ele><time>2025-09-26T15:53:16Z</time></trkpt>
<trkpt lat="30.59632595870154" lon="-9.520680969552732"><ele>519</ele><time>2025-09-26T15:53:43Z</time></trkpt>
<trkpt lat="30.59632318104041" lon="-9.520941928781701"><ele>517</ele><time>2025-09-26T15:54:12Z</time></trkpt>
<trkpt lat="30.596176054628543" lon="-9.520812608843949"><ele>519</ele><time>2025-09-26T15:55:52Z</time></trkpt>
<trkpt lat="30.595941324268814" lon="-9.52057073543169"><ele>517</ele><time>2025-09-26T15:56:22Z</time></trkpt>
<trkpt lat="30.595698777050515" lon="-9.52039339642144"><ele>514</ele><time>2025-09-26T15:56:52Z</time></trkpt>
<trkpt lat="30.595420801095823" lon="-9.5205348705955"><ele>513</ele><time>2025-09-26T15:57:21Z</time></trkpt>
<trkpt lat="30.595098347356124" lon="-9.520550940085228"><ele>510</ele><time>2025-09-26T15:57:47Z</time></trkpt>
<trkpt lat="30.594822850448796" lon="-9.5205322918928"><ele>506</ele><time>2025-09-26T15:58:14Z</time></trkpt>
<trkpt lat="30.594458078457993" lon="-9.520589413015838"><ele>501</ele><time>2025-09-26T15:58:41Z</time></trkpt>
<trkpt lat="30.594178301112105" lon="-9.520735351583282"><ele>500</ele><time>2025-09-26T15:59:13Z</time></trkpt>
<trkpt lat="30.593936291772856" lon="-9.520818869244977"><ele>498</ele><time>2025-09-26T15:59:38Z</time></trkpt>
<trkpt lat="30.59410664427035" lon="-9.520577986133686"><ele>493</ele><time>2025-09-26T16:00:22Z</time></trkpt>
<trkpt lat="30.59387989509822" lon="-9.520518780766889"><ele>490</ele><time>2025-09-26T16:01:15Z</time></trkpt>
<trkpt lat="30.593591881499872" lon="-9.520475987463524"><ele>490</ele><time>2025-09-26T16:01:50Z</time></trkpt>
<trkpt lat="30.59336196450841" lon="-9.520401960614054"><ele>485</ele><time>2025-09-26T16:02:15Z</time></trkpt>
<trkpt lat="30.59321046343254" lon="-9.52058105135883"><ele>482</ele><time>2025-09-26T16:02:52Z</time></trkpt>
<trkpt lat="30.593019368805667" lon="-9.520854093987099"><ele>481</ele><time>2025-09-26T16:03:20Z</time></trkpt>
<trkpt lat="30.592915191304353" lon="-9.521019340839619"><ele>472</ele><time>2025-09-26T16:03:48Z</time></trkpt>
<trkpt lat="30.592858100267676" lon="-9.521481781723054"><ele>467</ele><time>2025-09-26T16:04:16Z</time></trkpt>
<trkpt lat="30.592775331493623" lon="-9.521554268461587"><ele>458</ele><time>2025-09-26T16:04:43Z</time></trkpt>
<trkpt lat="30.59263813069738" lon="-9.521484273809893"><ele>452</ele><time>2025-09-26T16:05:43Z</time></trkpt>
<trkpt lat="30.592516807963182" lon="-9.521270400058459"><ele>448</ele><time>2025-09-26T16:06:15Z</time></trkpt>
<trkpt lat="30.59242899379024" lon="-9.521086276515266"><ele>444</ele><time>2025-09-26T16:06:43Z</time></trkpt>
<trkpt lat="30.592302470560487" lon="-9.52129673299584"><ele>438</ele><time>2025-09-26T16:07:23Z</time></trkpt>
<trkpt lat="30.592155874794692" lon="-9.521626738855565"><ele>430</ele><time>2025-09-26T16:07:53Z</time></trkpt>
<trkpt lat="30.592130184291815" lon="-9.521898545078228"><ele>424</ele><time>2025-09-26T16:10:36Z</time></trkpt>
<trkpt lat="30.592034834786073" lon="-9.522065758316328"><ele>417</ele><time>2025-09-26T16:11:13Z</time></trkpt>
<trkpt lat="30.591913841585168" lon="-9.522162828009275"><ele>411</ele><time>2025-09-26T16:11:39Z</time></trkpt>
<trkpt lat="30.591748802137566" lon="-9.5222529153772"><ele>405</ele><time>2025-09-26T16:12:08Z</time></trkpt>
<trkpt lat="30.591522946299765" lon="-9.522268377257998"><ele>402</ele><time>2025-09-26T16:12:33Z</time></trkpt>
<trkpt lat="30.59177111511097" lon="-9.522274067075218"><ele>407</ele><time>2025-09-26T16:14:02Z</time></trkpt>
<trkpt lat="30.591975204366666" lon="-9.52216255984863"><ele>412</ele><time>2025-09-26T16:14:36Z</time></trkpt>
<trkpt lat="30.592180551952765" lon="-9.522210175169569"><ele>417</ele><time>2025-09-26T16:15:05Z</time></trkpt>
<trkpt lat="30.592309925178263" lon="-9.522368555114738"><ele>419</ele><time>2025-09-26T16:15:36Z</time></trkpt>
<trkpt lat="30.592288413790527" lon="-9.522661367853798"><ele>415</ele><time>2025-09-26T16:16:14Z</time></trkpt>
<trkpt lat="30.592198592046234" lon="-9.52295746615783"><ele>414</ele><time>2025-09-26T16:16:39Z</time></trkpt>
<trkpt lat="30.592086856208702" lon="-9.523147544905589"><ele>410</ele><time>2025-09-26T16:17:09Z</time></trkpt>
<trkpt lat="30.59200162110671" lon="-9.52339037413649"><ele>413</ele><time>2025-09-26T16:17:42Z</time></trkpt>
<trkpt lat="30.591799062815703" lon="-9.523469312136175"><ele>408</ele><time>2025-09-26T16:18:21Z</time></trkpt>
<trkpt lat="30.5916491760261" lon="-9.523508665333148"><ele>402</ele><time>2025-09-26T16:19:02Z</time></trkpt>
<trkpt lat="30.591488967102585" lon="-9.5234516712785"><ele>397</ele><time>2025-09-26T16:19:35Z</time></trkpt>
<trkpt lat="30.59136323816426" lon="-9.523682080479023"><ele>393</ele><time>2025-09-26T16:20:05Z</time></trkpt>
<trkpt lat="30.591121564092045" lon="-9.523828482294167"><ele>389</ele><time>2025-09-26T16:20:40Z</time></trkpt>
<trkpt lat="30.59093721886229" lon="-9.524045353879877"><ele>389</ele><time>2025-09-26T16:21:08Z</time></trkpt>
<trkpt lat="30.59072663496735" lon="-9.524247777833299"><ele>387</ele><time>2025-09-26T16:21:38Z</time></trkpt>
<trkpt lat="30.59060095267338" lon="-9.524543598896127"><ele>383</ele><time>2025-09-26T16:22:08Z</time></trkpt>
<trkpt lat="30.59044946221729" lon="-9.52469160485675"><ele>374</ele><time>2025-09-26T16:22:39Z</time></trkpt>
<trkpt lat="30.59072749134337" lon="-9.524740653725129"><ele>374</ele><time>2025-09-26T16:23:19Z</time></trkpt>
<trkpt lat="30.59091053788508" lon="-9.525044705639587"><ele>370</ele><time>2025-09-26T16:23:54Z</time></trkpt>
<trkpt lat="30.59103321028996" lon="-9.525362905204078"><ele>369</ele><time>2025-09-26T16:24:29Z</time></trkpt>
<trkpt lat="30.590921190669675" lon="-9.525468501313908"><ele>372</ele><time>2025-09-26T16:26:15Z</time></trkpt>
<trkpt lat="30.590686867709287" lon="-9.525536593514945"><ele>366</ele><time>2025-09-26T16:26:53Z</time></trkpt>
<trkpt lat="30.590488189659727" lon="-9.52566164352258"><ele>359</ele><time>2025-09-26T16:27:29Z</time></trkpt>
<trkpt lat="30.59033552926515" lon="-9.525886312069819"><ele>356</ele><time>2025-09-26T16:27:58Z</time></trkpt>
<trkpt lat="30.59021139931742" lon="-9.526149549750127"><ele>352</ele><time>2025-09-26T16:28:32Z</time></trkpt>
<trkpt lat="30.590022838585956" lon="-9.526358675236906"><ele>345</ele><time>2025-09-26T16:28:58Z</time></trkpt>
<trkpt lat="30.589901727783545" lon="-9.526626468851761"><ele>338</ele><time>2025-09-26T16:29:29Z</time></trkpt>
<trkpt lat="30.58976607522175" lon="-9.52679517144503"><ele>334</ele><time>2025-09-26T16:30:15Z</time></trkpt>
<trkpt lat="30.589695135292466" lon="-9.526963962956366"><ele>330</ele><time>2025-09-26T16:30:42Z</time></trkpt>
<trkpt lat="30.589659152220495" lon="-9.527281382501815"><ele>329</ele><time>2025-09-26T16:31:16Z</time></trkpt>
<trkpt lat="30.58953437515834" lon="-9.527606868689375"><ele>326</ele><time>2025-09-26T16:31:41Z</time></trkpt>
<trkpt lat="30.58935475179112" lon="-9.527852522503903"><ele>320</ele><time>2025-09-26T16:32:29Z</time></trkpt>
<trkpt lat="30.58927275480312" lon="-9.528178088709943"><ele>318</ele><time>2025-09-26T16:32:55Z</time></trkpt>
<trkpt lat="30.589243681007922" lon="-9.528475796064436"><ele>316</ele><time>2025-09-26T16:33:24Z</time></trkpt>
<trkpt lat="30.589264453272445" lon="-9.528771502348"><ele>320</ele><time>2025-09-26T16:33:54Z</time></trkpt>
<trkpt lat="30.589249047862552" lon="-9.529101740475275"><ele>322</ele><time>2025-09-26T16:34:22Z</time></trkpt>
<trkpt lat="30.58921620872578" lon="-9.529347084603428"><ele>324</ele><time>2025-09-26T16:34:53Z</time></trkpt>
<trkpt lat="30.589075032651973" lon="-9.529534924244125"><ele>319</ele><time>2025-09-26T16:35:20Z</time></trkpt>
<trkpt lat="30.588921517526966" lon="-9.529608610953376"><ele>320</ele><time>2025-09-26T16:35:48Z</time></trkpt>
<trkpt lat="30.58869884392631" lon="-9.529712586107246"><ele>313</ele><time>2025-09-26T16:36:26Z</time></trkpt>
<trkpt lat="30.5885502493839" lon="-9.529628261967249"><ele>305</ele><time>2025-09-26T16:36:58Z</time></trkpt>
<trkpt lat="30.588674652982608" lon="-9.52959735917715"><ele>307</ele><time>2025-09-26T16:39:33Z</time></trkpt>
</trkseg>
</trk>
</gpx>