<?xml version="1.0" encoding="UTF-8"?>
<gpx xmlns:xsi="http://www.w3.org/2001/XMLSchema-instance" xmlns="http://www.topografix.com/GPX/1/1" xsi:schemaLocation="http://www.topografix.com/GPX/1/1 http://www.topografix.com/GPX/1/1/gpx.xsd" creator="Yamareco iOS 7.27 - www.yamareco.com">
<trk><name>track</name><number>1</number><trkseg>
<trkpt lat="36.95628969002232" lon="138.92069245701555"><ele>567</ele><time>2025-04-04T21:59:51Z</time></trkpt>
<trkpt lat="36.95624546150244" lon="138.92090488403147"><ele>569</ele><time>2025-04-04T22:00:14Z</time></trkpt>
<trkpt lat="36.95616475922935" lon="138.92097252476552"><ele>570</ele><time>2025-04-04T22:05:42Z</time></trkpt>
<trkpt lat="36.956250224628356" lon="138.92090253915404"><ele>571</ele><time>2025-04-04T22:06:21Z</time></trkpt>
<trkpt lat="36.955903353368385" lon="138.92107202359017"><ele>571</ele><time>2025-04-04T22:09:07Z</time></trkpt>
<trkpt lat="36.955839084925636" lon="138.92122924117047"><ele>577</ele><time>2025-04-04T22:09:34Z</time></trkpt>
<trkpt lat="36.95581527827159" lon="138.92154118866804"><ele>578</ele><time>2025-04-04T22:11:43Z</time></trkpt>
<trkpt lat="36.95587935462788" lon="138.9218613473997"><ele>583</ele><time>2025-04-04T22:12:15Z</time></trkpt>
<trkpt lat="36.95583838433073" lon="138.92213594399703"><ele>589</ele><time>2025-04-04T22:12:46Z</time></trkpt>
<trkpt lat="36.95586706665932" lon="138.92243970793348"><ele>593</ele><time>2025-04-04T22:13:18Z</time></trkpt>
<trkpt lat="36.955918195874695" lon="138.92275887658556"><ele>595</ele><time>2025-04-04T22:13:48Z</time></trkpt>
<trkpt lat="36.95600547821119" lon="138.9230225984919"><ele>595</ele><time>2025-04-04T22:14:30Z</time></trkpt>
<trkpt lat="36.95603170061064" lon="138.92335248354686"><ele>600</ele><time>2025-04-04T22:15:04Z</time></trkpt>
<trkpt lat="36.956299570047754" lon="138.92350591855194"><ele>600</ele><time>2025-04-04T22:15:34Z</time></trkpt>
<trkpt lat="36.95657670387345" lon="138.92365469893625"><ele>600</ele><time>2025-04-04T22:16:04Z</time></trkpt>
<trkpt lat="36.95673217807086" lon="138.9238781940736"><ele>601</ele><time>2025-04-04T22:16:35Z</time></trkpt>
<trkpt lat="36.95682930841332" lon="138.92414733703768"><ele>604</ele><time>2025-04-04T22:17:10Z</time></trkpt>
<trkpt lat="36.956911909420484" lon="138.92443212780225"><ele>607</ele><time>2025-04-04T22:17:38Z</time></trkpt>
<trkpt lat="36.95693766861054" lon="138.92474779544668"><ele>610</ele><time>2025-04-04T22:18:10Z</time></trkpt>
<trkpt lat="36.9568702985769" lon="138.925002628822"><ele>614</ele><time>2025-04-04T22:18:44Z</time></trkpt>
<trkpt lat="36.956775292650626" lon="138.92529582500742"><ele>617</ele><time>2025-04-04T22:19:15Z</time></trkpt>
<trkpt lat="36.956691715685515" lon="138.92557104516223"><ele>620</ele><time>2025-04-04T22:19:45Z</time></trkpt>
<trkpt lat="36.956532097881954" lon="138.92581221249554"><ele>625</ele><time>2025-04-04T22:20:17Z</time></trkpt>
<trkpt lat="36.95633431677448" lon="138.9259747111293"><ele>625</ele><time>2025-04-04T22:20:46Z</time></trkpt>
<trkpt lat="36.95617432004685" lon="138.9261915687799"><ele>629</ele><time>2025-04-04T22:21:16Z</time></trkpt>
<trkpt lat="36.95607360514746" lon="138.92649931842678"><ele>632</ele><time>2025-04-04T22:21:48Z</time></trkpt>
<trkpt lat="36.955929152227434" lon="138.92672118699105"><ele>635</ele><time>2025-04-04T22:22:20Z</time></trkpt>
<trkpt lat="36.95585590443772" lon="138.92700578262918"><ele>640</ele><time>2025-04-04T22:22:53Z</time></trkpt>
<trkpt lat="36.955851760558815" lon="138.92732115364174"><ele>643</ele><time>2025-04-04T22:23:26Z</time></trkpt>
<trkpt lat="36.95581925785111" lon="138.92763159041615"><ele>646</ele><time>2025-04-04T22:23:58Z</time></trkpt>
<trkpt lat="36.95569824847991" lon="138.92789836668885"><ele>648</ele><time>2025-04-04T22:24:29Z</time></trkpt>
<trkpt lat="36.955589657142475" lon="138.92809659423173"><ele>651</ele><time>2025-04-04T22:24:59Z</time></trkpt>
<trkpt lat="36.95546647664507" lon="138.92837635471764"><ele>653</ele><time>2025-04-04T22:25:28Z</time></trkpt>
<trkpt lat="36.95533707290456" lon="138.92865018210722"><ele>656</ele><time>2025-04-04T22:25:57Z</time></trkpt>
<trkpt lat="36.95529274829624" lon="138.9289928627513"><ele>660</ele><time>2025-04-04T22:26:30Z</time></trkpt>
<trkpt lat="36.95530737162283" lon="138.92931903986752"><ele>662</ele><time>2025-04-04T22:27:00Z</time></trkpt>
<trkpt lat="36.955270710743676" lon="138.9296439497539"><ele>663</ele><time>2025-04-04T22:27:31Z</time></trkpt>
<trkpt lat="36.955293815720545" lon="138.9298034793955"><ele>667</ele><time>2025-04-04T22:29:16Z</time></trkpt>
<trkpt lat="36.955178905316785" lon="138.92974486916802"><ele>668</ele><time>2025-04-04T22:30:01Z</time></trkpt>
<trkpt lat="36.95507840877155" lon="138.9300145752443"><ele>671</ele><time>2025-04-04T22:30:34Z</time></trkpt>
<trkpt lat="36.955024720597486" lon="138.93015243647756"><ele>675</ele><time>2025-04-04T22:31:08Z</time></trkpt>
<trkpt lat="36.95491301416697" lon="138.9303504020302"><ele>677</ele><time>2025-04-04T22:31:39Z</time></trkpt>
<trkpt lat="36.95476840568736" lon="138.93057471699265"><ele>682</ele><time>2025-04-04T22:32:19Z</time></trkpt>
<trkpt lat="36.95458517469127" lon="138.9307932034442"><ele>686</ele><time>2025-04-04T22:32:50Z</time></trkpt>
<trkpt lat="36.954369863150184" lon="138.9309925193376"><ele>691</ele><time>2025-04-04T22:33:22Z</time></trkpt>
<trkpt lat="36.954171409462845" lon="138.93117420703413"><ele>694</ele><time>2025-04-04T22:33:53Z</time></trkpt>
<trkpt lat="36.95396778681573" lon="138.93136809704956"><ele>698</ele><time>2025-04-04T22:34:24Z</time></trkpt>
<trkpt lat="36.95379271348194" lon="138.931572294068"><ele>701</ele><time>2025-04-04T22:34:53Z</time></trkpt>
<trkpt lat="36.953600171823986" lon="138.93177123456283"><ele>707</ele><time>2025-04-04T22:35:24Z</time></trkpt>
<trkpt lat="36.95341552373423" lon="138.93200744520212"><ele>708</ele><time>2025-04-04T22:35:57Z</time></trkpt>
<trkpt lat="36.953214885117994" lon="138.9322247334592"><ele>712</ele><time>2025-04-04T22:36:27Z</time></trkpt>
<trkpt lat="36.95304333931883" lon="138.93246555583593"><ele>715</ele><time>2025-04-04T22:36:58Z</time></trkpt>
<trkpt lat="36.952905796507395" lon="138.932729027802"><ele>719</ele><time>2025-04-04T22:37:28Z</time></trkpt>
<trkpt lat="36.952787337066184" lon="138.93299417083367"><ele>720</ele><time>2025-04-04T22:37:57Z</time></trkpt>
<trkpt lat="36.95267915216999" lon="138.93327837949192"><ele>723</ele><time>2025-04-04T22:38:28Z</time></trkpt>
<trkpt lat="36.952831004032966" lon="138.9335241633912"><ele>726</ele><time>2025-04-04T22:38:58Z</time></trkpt>
<trkpt lat="36.9531176995032" lon="138.93349237354363"><ele>726</ele><time>2025-04-04T22:39:28Z</time></trkpt>
<trkpt lat="36.9533509009696" lon="138.93351378595034"><ele>728</ele><time>2025-04-04T22:39:58Z</time></trkpt>
<trkpt lat="36.95354076472541" lon="138.93373020456525"><ele>730</ele><time>2025-04-04T22:40:31Z</time></trkpt>
<trkpt lat="36.953684430844305" lon="138.93393413244473"><ele>737</ele><time>2025-04-04T22:41:00Z</time></trkpt>
<trkpt lat="36.95386753846848" lon="138.93418267453916"><ele>738</ele><time>2025-04-04T22:41:31Z</time></trkpt>
<trkpt lat="36.95397279907013" lon="138.93449320655174"><ele>738</ele><time>2025-04-04T22:41:59Z</time></trkpt>
<trkpt lat="36.954001287157304" lon="138.9348610210658"><ele>736</ele><time>2025-04-04T22:42:26Z</time></trkpt>
<trkpt lat="36.95411499120217" lon="138.93517187564603"><ele>737</ele><time>2025-04-04T22:42:54Z</time></trkpt>
<trkpt lat="36.95433020215908" lon="138.93534252899633"><ele>738</ele><time>2025-04-04T22:43:23Z</time></trkpt>
<trkpt lat="36.954586907606206" lon="138.9353804352561"><ele>735</ele><time>2025-04-04T22:43:52Z</time></trkpt>
<trkpt lat="36.95487113643724" lon="138.9352509316097"><ele>738</ele><time>2025-04-04T22:44:18Z</time></trkpt>
<trkpt lat="36.95507411443815" lon="138.93509915806723"><ele>738</ele><time>2025-04-04T22:44:45Z</time></trkpt>
<trkpt lat="36.955310288861604" lon="138.9350004625374"><ele>740</ele><time>2025-04-04T22:45:18Z</time></trkpt>
<trkpt lat="36.955379104034265" lon="138.9352432196"><ele>744</ele><time>2025-04-04T22:45:54Z</time></trkpt>
<trkpt lat="36.95533642683649" lon="138.93553252921598"><ele>750</ele><time>2025-04-04T22:46:31Z</time></trkpt>
<trkpt lat="36.95525126461783" lon="138.9357728665862"><ele>752</ele><time>2025-04-04T22:47:08Z</time></trkpt>
<trkpt lat="36.95512896738021" lon="138.93602995663377"><ele>757</ele><time>2025-04-04T22:47:40Z</time></trkpt>
<trkpt lat="36.95514109051868" lon="138.93631616655156"><ele>763</ele><time>2025-04-04T22:48:14Z</time></trkpt>
<trkpt lat="36.95511842124733" lon="138.936571605775"><ele>768</ele><time>2025-04-04T22:48:45Z</time></trkpt>
<trkpt lat="36.955038001320304" lon="138.93684682905698"><ele>774</ele><time>2025-04-04T22:49:21Z</time></trkpt>
<trkpt lat="36.95498351588849" lon="138.93711689396758"><ele>780</ele><time>2025-04-04T22:49:58Z</time></trkpt>
<trkpt lat="36.95499918896814" lon="138.93736962826907"><ele>785</ele><time>2025-04-04T22:50:33Z</time></trkpt>
<trkpt lat="36.95496501455983" lon="138.9375913637985"><ele>790</ele><time>2025-04-04T22:51:06Z</time></trkpt>
<trkpt lat="36.95491330520334" lon="138.93784980717177"><ele>793</ele><time>2025-04-04T22:51:39Z</time></trkpt>
<trkpt lat="36.95483436414645" lon="138.938127663833"><ele>799</ele><time>2025-04-04T22:52:16Z</time></trkpt>
<trkpt lat="36.95480085558523" lon="138.9383720772448"><ele>803</ele><time>2025-04-04T22:52:50Z</time></trkpt>
<trkpt lat="36.95471693437982" lon="138.93841776224158"><ele>805</ele><time>2025-04-04T22:53:35Z</time></trkpt>
<trkpt lat="36.95476239427342" lon="138.93859676426257"><ele>810</ele><time>2025-04-04T22:54:17Z</time></trkpt>
<trkpt lat="36.954833016811314" lon="138.9387913571881"><ele>815</ele><time>2025-04-04T22:54:47Z</time></trkpt>
<trkpt lat="36.95485794248696" lon="138.93903059564133"><ele>820</ele><time>2025-04-04T22:55:34Z</time></trkpt>
<trkpt lat="36.95495547234857" lon="138.93926234851594"><ele>826</ele><time>2025-04-04T22:56:10Z</time></trkpt>
<trkpt lat="36.95511367707762" lon="138.93921875810636"><ele>828</ele><time>2025-04-04T22:56:47Z</time></trkpt>
<trkpt lat="36.95530133637268" lon="138.93911902722763"><ele>833</ele><time>2025-04-04T22:57:21Z</time></trkpt>
<trkpt lat="36.95547091561719" lon="138.93911789494794"><ele>835</ele><time>2025-04-04T22:57:59Z</time></trkpt>
<trkpt lat="36.95569761979319" lon="138.9391673779651"><ele>840</ele><time>2025-04-04T22:58:31Z</time></trkpt>
<trkpt lat="36.955978329103424" lon="138.93920300640488"><ele>844</ele><time>2025-04-04T22:59:05Z</time></trkpt>
<trkpt lat="36.956162127719026" lon="138.93918300286154"><ele>846</ele><time>2025-04-04T22:59:40Z</time></trkpt>
<trkpt lat="36.95639672576386" lon="138.93933633374868"><ele>849</ele><time>2025-04-04T23:00:11Z</time></trkpt>
<trkpt lat="36.95658054640315" lon="138.93942072467433"><ele>853</ele><time>2025-04-04T23:00:41Z</time></trkpt>
<trkpt lat="36.956811481444156" lon="138.93947897967007"><ele>858</ele><time>2025-04-04T23:01:15Z</time></trkpt>
<trkpt lat="36.956931223343226" lon="138.93958876155176"><ele>862</ele><time>2025-04-04T23:02:06Z</time></trkpt>
<trkpt lat="36.957077506473176" lon="138.93978045536957"><ele>865</ele><time>2025-04-04T23:02:42Z</time></trkpt>
<trkpt lat="36.957231878040346" lon="138.93996002078168"><ele>870</ele><time>2025-04-04T23:07:45Z</time></trkpt>
<trkpt lat="36.95737020533653" lon="138.94014559148084"><ele>876</ele><time>2025-04-04T23:08:19Z</time></trkpt>
<trkpt lat="36.957518290749206" lon="138.9402681074742"><ele>882</ele><time>2025-04-04T23:08:54Z</time></trkpt>
<trkpt lat="36.95762756385792" lon="138.94035610414846"><ele>886</ele><time>2025-04-04T23:09:36Z</time></trkpt>
<trkpt lat="36.95776579547737" lon="138.94051831820508"><ele>891</ele><time>2025-04-04T23:10:14Z</time></trkpt>
<trkpt lat="36.95791255897209" lon="138.94061682530548"><ele>897</ele><time>2025-04-04T23:10:57Z</time></trkpt>
<trkpt lat="36.958075170724804" lon="138.94063032723378"><ele>905</ele><time>2025-04-04T23:11:37Z</time></trkpt>
<trkpt lat="36.9582524206748" lon="138.94072835570657"><ele>910</ele><time>2025-04-04T23:12:15Z</time></trkpt>
<trkpt lat="36.958447565786926" lon="138.94088195569333"><ele>917</ele><time>2025-04-04T23:12:57Z</time></trkpt>
<trkpt lat="36.958540478250285" lon="138.9410038900766"><ele>923</ele><time>2025-04-04T23:13:34Z</time></trkpt>
<trkpt lat="36.95870179179011" lon="138.9410159807745"><ele>928</ele><time>2025-04-04T23:14:10Z</time></trkpt>
<trkpt lat="36.95880384911718" lon="138.9411567484875"><ele>936</ele><time>2025-04-04T23:14:54Z</time></trkpt>
<trkpt lat="36.95891593406785" lon="138.9412261277141"><ele>942</ele><time>2025-04-04T23:15:30Z</time></trkpt>
<trkpt lat="36.95892932633899" lon="138.94144558506628"><ele>951</ele><time>2025-04-04T23:16:07Z</time></trkpt>
<trkpt lat="36.95906918931806" lon="138.9415344860451"><ele>960</ele><time>2025-04-04T23:16:46Z</time></trkpt>
<trkpt lat="36.95904327086647" lon="138.94176412072065"><ele>966</ele><time>2025-04-04T23:17:31Z</time></trkpt>
<trkpt lat="36.95919514913156" lon="138.94184927510116"><ele>973</ele><time>2025-04-04T23:18:16Z</time></trkpt>
<trkpt lat="36.959217352168984" lon="138.9420161313179"><ele>975</ele><time>2025-04-04T23:18:56Z</time></trkpt>
<trkpt lat="36.959392367647425" lon="138.94199073346664"><ele>981</ele><time>2025-04-04T23:19:34Z</time></trkpt>
<trkpt lat="36.95932775247393" lon="138.9421429312243"><ele>989</ele><time>2025-04-04T23:20:37Z</time></trkpt>
<trkpt lat="36.959289712703914" lon="138.9423748395885"><ele>994</ele><time>2025-04-04T23:21:16Z</time></trkpt>
<trkpt lat="36.959468937586465" lon="138.94239671642572"><ele>997</ele><time>2025-04-04T23:21:50Z</time></trkpt>
<trkpt lat="36.95960740882019" lon="138.94234995664243"><ele>1005</ele><time>2025-04-04T23:23:03Z</time></trkpt>
<trkpt lat="36.95956323732966" lon="138.94248536139028"><ele>1008</ele><time>2025-04-04T23:23:49Z</time></trkpt>
<trkpt lat="36.959705973257286" lon="138.9425531035619"><ele>1017</ele><time>2025-04-04T23:24:33Z</time></trkpt>
<trkpt lat="36.95985264377734" lon="138.94250941343205"><ele>1019</ele><time>2025-04-04T23:25:18Z</time></trkpt>
<trkpt lat="36.95978856133335" lon="138.94263754962097"><ele>1023</ele><time>2025-04-04T23:26:31Z</time></trkpt>
<trkpt lat="36.959760821684775" lon="138.94276381706825"><ele>1034</ele><time>2025-04-04T23:27:45Z</time></trkpt>
<trkpt lat="36.95976806489049" lon="138.94292150434586"><ele>1036</ele><time>2025-04-04T23:29:10Z</time></trkpt>
<trkpt lat="36.95991301483598" lon="138.94288159942602"><ele>1038</ele><time>2025-04-04T23:30:11Z</time></trkpt>
<trkpt lat="36.959808298494494" lon="138.94290985146282"><ele>1052</ele><time>2025-04-04T23:34:12Z</time></trkpt>
<trkpt lat="36.96002272109674" lon="138.94289853719093"><ele>1049</ele><time>2025-04-04T23:35:20Z</time></trkpt>
<trkpt lat="36.96017448835332" lon="138.94297116050038"><ele>1056</ele><time>2025-04-04T23:38:18Z</time></trkpt>
<trkpt lat="36.960218026212495" lon="138.94309911026437"><ele>1065</ele><time>2025-04-04T23:41:15Z</time></trkpt>
<trkpt lat="36.960106953331966" lon="138.94305993175874"><ele>1079</ele><time>2025-04-04T23:44:54Z</time></trkpt>
<trkpt lat="36.96024434202852" lon="138.94309868886108"><ele>1086</ele><time>2025-04-04T23:45:27Z</time></trkpt>
<trkpt lat="36.96025512127353" lon="138.94323386541922"><ele>1084</ele><time>2025-04-04T23:47:07Z</time></trkpt>
<trkpt lat="36.96019743670298" lon="138.94346455491046"><ele>1096</ele><time>2025-04-04T23:48:38Z</time></trkpt>
<trkpt lat="36.960196924169814" lon="138.94363518299352"><ele>1100</ele><time>2025-04-04T23:49:31Z</time></trkpt>
<trkpt lat="36.960199573038956" lon="138.9437769582575"><ele>1100</ele><time>2025-04-04T23:50:09Z</time></trkpt>
<trkpt lat="36.9603866365876" lon="138.94381450020234"><ele>1109</ele><time>2025-04-04T23:50:49Z</time></trkpt>
<trkpt lat="36.96052037901604" lon="138.94399833630453"><ele>1120</ele><time>2025-04-04T23:51:45Z</time></trkpt>
<trkpt lat="36.96062559183016" lon="138.94419085467499"><ele>1133</ele><time>2025-04-04T23:52:45Z</time></trkpt>
<trkpt lat="36.96083074341055" lon="138.94422107081124"><ele>1138</ele><time>2025-04-04T23:53:23Z</time></trkpt>
<trkpt lat="36.960993014025824" lon="138.94422794272344"><ele>1143</ele><time>2025-04-04T23:53:57Z</time></trkpt>
<trkpt lat="36.96115898323442" lon="138.9442064930991"><ele>1146</ele><time>2025-04-04T23:54:39Z</time></trkpt>
<trkpt lat="36.96127391455975" lon="138.94435717916485"><ele>1160</ele><time>2025-04-04T23:56:38Z</time></trkpt>
<trkpt lat="36.96145375064613" lon="138.94442445872258"><ele>1166</ele><time>2025-04-04T23:57:19Z</time></trkpt>
<trkpt lat="36.96159168348229" lon="138.94443164851444"><ele>1172</ele><time>2025-04-04T23:57:53Z</time></trkpt>
<trkpt lat="36.961725231050615" lon="138.94450569393305"><ele>1180</ele><time>2025-04-04T23:58:34Z</time></trkpt>
<trkpt lat="36.96184961342468" lon="138.94470444664367"><ele>1190</ele><time>2025-04-05T00:02:19Z</time></trkpt>
<trkpt lat="36.96202320300888" lon="138.9447831013349"><ele>1197</ele><time>2025-04-05T00:02:55Z</time></trkpt>
<trkpt lat="36.96206118155052" lon="138.9449925044799"><ele>1203</ele><time>2025-04-05T00:03:48Z</time></trkpt>
<trkpt lat="36.96207278128342" lon="138.9452641211712"><ele>1208</ele><time>2025-04-05T00:04:26Z</time></trkpt>
<trkpt lat="36.9621778068374" lon="138.94535798277698"><ele>1206</ele><time>2025-04-05T00:05:54Z</time></trkpt>
<trkpt lat="36.96235891785683" lon="138.94546333040194"><ele>1215</ele><time>2025-04-05T00:06:56Z</time></trkpt>
<trkpt lat="36.962558248096045" lon="138.94558649131565"><ele>1222</ele><time>2025-04-05T00:07:32Z</time></trkpt>
<trkpt lat="36.96269964377971" lon="138.9457395227217"><ele>1228</ele><time>2025-04-05T00:08:20Z</time></trkpt>
<trkpt lat="36.96277358910458" lon="138.94586713514778"><ele>1234</ele><time>2025-04-05T00:08:54Z</time></trkpt>
<trkpt lat="36.962855422574975" lon="138.94608398668112"><ele>1241</ele><time>2025-04-05T00:09:25Z</time></trkpt>
<trkpt lat="36.96299341493011" lon="138.94621108078005"><ele>1241</ele><time>2025-04-05T00:10:20Z</time></trkpt>
<trkpt lat="36.96320681132504" lon="138.9463677352202"><ele>1247</ele><time>2025-04-05T00:10:55Z</time></trkpt>
<trkpt lat="36.96339423021605" lon="138.94649573504964"><ele>1254</ele><time>2025-04-05T00:11:29Z</time></trkpt>
<trkpt lat="36.963516565726366" lon="138.94664024977124"><ele>1263</ele><time>2025-04-05T00:12:19Z</time></trkpt>
<trkpt lat="36.963590361070956" lon="138.94655472733714"><ele>1259</ele><time>2025-04-05T00:15:22Z</time></trkpt>
<trkpt lat="36.963505939599116" lon="138.94665775225462"><ele>1265</ele><time>2025-04-05T00:16:06Z</time></trkpt>
<trkpt lat="36.963694952347915" lon="138.94673430842954"><ele>1258</ele><time>2025-04-05T00:17:48Z</time></trkpt>
<trkpt lat="36.96385929694186" lon="138.9469004277727"><ele>1272</ele><time>2025-04-05T00:18:21Z</time></trkpt>
<trkpt lat="36.964043420288135" lon="138.94705128328013"><ele>1276</ele><time>2025-04-05T00:19:03Z</time></trkpt>
<trkpt lat="36.96420428154545" lon="138.94723317989883"><ele>1284</ele><time>2025-04-05T00:19:33Z</time></trkpt>
<trkpt lat="36.96441163104581" lon="138.9473763528149"><ele>1289</ele><time>2025-04-05T00:20:04Z</time></trkpt>
<trkpt lat="36.96459278664602" lon="138.947507065907"><ele>1297</ele><time>2025-04-05T00:20:40Z</time></trkpt>
<trkpt lat="36.964781447487454" lon="138.947619210466"><ele>1303</ele><time>2025-04-05T00:21:16Z</time></trkpt>
<trkpt lat="36.9648483613455" lon="138.94778929883594"><ele>1308</ele><time>2025-04-05T00:22:02Z</time></trkpt>
<trkpt lat="36.96496540279359" lon="138.94797109011992"><ele>1315</ele><time>2025-04-05T00:22:44Z</time></trkpt>
<trkpt lat="36.96512660585428" lon="138.9481158839328"><ele>1323</ele><time>2025-04-05T00:23:39Z</time></trkpt>
<trkpt lat="36.96522171339715" lon="138.9482226170672"><ele>1333</ele><time>2025-04-05T00:24:17Z</time></trkpt>
<trkpt lat="36.965359924159415" lon="138.9483661497468"><ele>1338</ele><time>2025-04-05T00:24:58Z</time></trkpt>
<trkpt lat="36.965522960268274" lon="138.9484555892788"><ele>1346</ele><time>2025-04-05T00:25:37Z</time></trkpt>
<trkpt lat="36.96562065867058" lon="138.94862450485994"><ele>1354</ele><time>2025-04-05T00:26:28Z</time></trkpt>
<trkpt lat="36.9657079678301" lon="138.948678325398"><ele>1355</ele><time>2025-04-05T00:27:10Z</time></trkpt>
<trkpt lat="36.96581449101803" lon="138.94884346827487"><ele>1375</ele><time>2025-04-05T00:28:44Z</time></trkpt>
<trkpt lat="36.965957446461125" lon="138.94892710505283"><ele>1379</ele><time>2025-04-05T00:29:27Z</time></trkpt>
<trkpt lat="36.966028386271155" lon="138.9491141184995"><ele>1388</ele><time>2025-04-05T00:30:17Z</time></trkpt>
<trkpt lat="36.96615859235959" lon="138.94924982845242"><ele>1393</ele><time>2025-04-05T00:31:01Z</time></trkpt>
<trkpt lat="36.96630157663" lon="138.94931837937372"><ele>1403</ele><time>2025-04-05T00:31:47Z</time></trkpt>
<trkpt lat="36.966378368661466" lon="138.94951031911836"><ele>1410</ele><time>2025-04-05T00:32:33Z</time></trkpt>
<trkpt lat="36.96647087387278" lon="138.94960589441334"><ele>1416</ele><time>2025-04-05T00:33:13Z</time></trkpt>
<trkpt lat="36.96658239077864" lon="138.94973907183604"><ele>1423</ele><time>2025-04-05T00:33:57Z</time></trkpt>
<trkpt lat="36.96672649762953" lon="138.94984882591146"><ele>1429</ele><time>2025-04-05T00:34:39Z</time></trkpt>
<trkpt lat="36.9668229852319" lon="138.94993150116468"><ele>1432</ele><time>2025-04-05T00:35:21Z</time></trkpt>
<trkpt lat="36.966888919470414" lon="138.95011845377218"><ele>1438</ele><time>2025-04-05T00:36:04Z</time></trkpt>
<trkpt lat="36.966985913104715" lon="138.9503085945607"><ele>1445</ele><time>2025-04-05T00:36:41Z</time></trkpt>
<trkpt lat="36.96707722597" lon="138.95048863709445"><ele>1450</ele><time>2025-04-05T00:37:18Z</time></trkpt>
<trkpt lat="36.967196571945806" lon="138.95066987166155"><ele>1461</ele><time>2025-04-05T00:38:00Z</time></trkpt>
<trkpt lat="36.967368110831835" lon="138.9508155852968"><ele>1465</ele><time>2025-04-05T00:38:39Z</time></trkpt>
<trkpt lat="36.96746104628373" lon="138.9509636730768"><ele>1470</ele><time>2025-04-05T00:39:16Z</time></trkpt>
<trkpt lat="36.967497154554245" lon="138.95109055190528"><ele>1475</ele><time>2025-04-05T01:00:55Z</time></trkpt>
<trkpt lat="36.96757869233823" lon="138.95131575273518"><ele>1480</ele><time>2025-04-05T01:02:03Z</time></trkpt>
<trkpt lat="36.96773387727972" lon="138.95153881672024"><ele>1486</ele><time>2025-04-05T01:03:23Z</time></trkpt>
<trkpt lat="36.96784959304029" lon="138.95177846513516"><ele>1492</ele><time>2025-04-05T01:03:57Z</time></trkpt>
<trkpt lat="36.96795222342706" lon="138.95199674893638"><ele>1497</ele><time>2025-04-05T01:04:34Z</time></trkpt>
<trkpt lat="36.96805116032111" lon="138.95216164707807"><ele>1502</ele><time>2025-04-05T01:05:09Z</time></trkpt>
<trkpt lat="36.96816791085458" lon="138.95235265363056"><ele>1511</ele><time>2025-04-05T01:05:46Z</time></trkpt>
<trkpt lat="36.968250966699756" lon="138.9525500101351"><ele>1518</ele><time>2025-04-05T01:06:21Z</time></trkpt>
<trkpt lat="36.9683286549025" lon="138.9527287216254"><ele>1525</ele><time>2025-04-05T01:06:59Z</time></trkpt>
<trkpt lat="36.96842255694126" lon="138.95293325371642"><ele>1532</ele><time>2025-04-05T01:07:42Z</time></trkpt>
<trkpt lat="36.96850101213335" lon="138.9531478635341"><ele>1540</ele><time>2025-04-05T01:08:23Z</time></trkpt>
<trkpt lat="36.96857433593218" lon="138.95337508106695"><ele>1547</ele><time>2025-04-05T01:09:07Z</time></trkpt>
<trkpt lat="36.96861960697284" lon="138.95361285625262"><ele>1554</ele><time>2025-04-05T01:09:51Z</time></trkpt>
<trkpt lat="36.96867744704977" lon="138.95383997001167"><ele>1559</ele><time>2025-04-05T01:10:25Z</time></trkpt>
<trkpt lat="36.9686777461922" lon="138.95407922532505"><ele>1566</ele><time>2025-04-05T01:11:00Z</time></trkpt>
<trkpt lat="36.96867260135876" lon="138.9542603991322"><ele>1569</ele><time>2025-04-05T01:12:08Z</time></trkpt>
<trkpt lat="36.968671148413875" lon="138.9545435062229"><ele>1574</ele><time>2025-04-05T01:12:43Z</time></trkpt>
<trkpt lat="36.96871246546577" lon="138.95479571937446"><ele>1579</ele><time>2025-04-05T01:13:25Z</time></trkpt>
<trkpt lat="36.96872437961486" lon="138.95504240295762"><ele>1586</ele><time>2025-04-05T01:14:00Z</time></trkpt>
<trkpt lat="36.96874519998626" lon="138.9553114532534"><ele>1591</ele><time>2025-04-05T01:14:38Z</time></trkpt>
<trkpt lat="36.968797437335965" lon="138.955524604569"><ele>1595</ele><time>2025-04-05T01:15:12Z</time></trkpt>
<trkpt lat="36.96884175480196" lon="138.95575084999797"><ele>1602</ele><time>2025-04-05T01:16:22Z</time></trkpt>
<trkpt lat="36.968904743683744" lon="138.95596396834713"><ele>1609</ele><time>2025-04-05T01:16:59Z</time></trkpt>
<trkpt lat="36.96896680567453" lon="138.95615332603106"><ele>1614</ele><time>2025-04-05T01:17:38Z</time></trkpt>
<trkpt lat="36.96902306585328" lon="138.95637229202023"><ele>1621</ele><time>2025-04-05T01:18:23Z</time></trkpt>
<trkpt lat="36.96909380351084" lon="138.95652049525373"><ele>1626</ele><time>2025-04-05T01:19:06Z</time></trkpt>
<trkpt lat="36.96919058440919" lon="138.9566805870086"><ele>1632</ele><time>2025-04-05T01:20:07Z</time></trkpt>
<trkpt lat="36.96922560355561" lon="138.95681355199258"><ele>1637</ele><time>2025-04-05T01:20:50Z</time></trkpt>
<trkpt lat="36.969229516915114" lon="138.9570068839771"><ele>1645</ele><time>2025-04-05T01:21:47Z</time></trkpt>
<trkpt lat="36.96921399200229" lon="138.9571880011445"><ele>1656</ele><time>2025-04-05T01:22:38Z</time></trkpt>
<trkpt lat="36.969349921352226" lon="138.9572304547388"><ele>1654</ele><time>2025-04-05T01:23:45Z</time></trkpt>
<trkpt lat="36.96932129110834" lon="138.95741064966748"><ele>1662</ele><time>2025-04-05T01:24:25Z</time></trkpt>
<trkpt lat="36.96944372692741" lon="138.95732727760227"><ele>1662</ele><time>2025-04-05T01:25:42Z</time></trkpt>
<trkpt lat="36.969580677233296" lon="138.95729717652736"><ele>1667</ele><time>2025-04-05T01:28:04Z</time></trkpt>
<trkpt lat="36.96971268528883" lon="138.957354317705"><ele>1673</ele><time>2025-04-05T01:29:18Z</time></trkpt>
<trkpt lat="36.96970144187442" lon="138.95750322997662"><ele>1682</ele><time>2025-04-05T01:31:43Z</time></trkpt>
<trkpt lat="36.96977254836475" lon="138.95762193398707"><ele>1689</ele><time>2025-04-05T01:34:50Z</time></trkpt>
<trkpt lat="36.969698876597604" lon="138.95779132037276"><ele>1694</ele><time>2025-04-05T01:35:29Z</time></trkpt>
<trkpt lat="36.96981297460652" lon="138.95787727006058"><ele>1702</ele><time>2025-04-05T01:36:57Z</time></trkpt>
<trkpt lat="36.96991978120865" lon="138.95801891951544"><ele>1710</ele><time>2025-04-05T01:37:51Z</time></trkpt>
<trkpt lat="36.96981583148598" lon="138.95813114251584"><ele>1722</ele><time>2025-04-05T01:38:49Z</time></trkpt>
<trkpt lat="36.969927702912855" lon="138.9582875847187"><ele>1727</ele><time>2025-04-05T01:42:33Z</time></trkpt>
<trkpt lat="36.96989039846808" lon="138.95848800992104"><ele>1725</ele><time>2025-04-05T01:43:35Z</time></trkpt>
<trkpt lat="36.96994320310432" lon="138.95861615781126"><ele>1733</ele><time>2025-04-05T01:44:49Z</time></trkpt>
<trkpt lat="36.97000336976933" lon="138.9587705028578"><ele>1740</ele><time>2025-04-05T01:46:00Z</time></trkpt>
<trkpt lat="36.96995365112815" lon="138.95892883626382"><ele>1747</ele><time>2025-04-05T01:46:37Z</time></trkpt>
<trkpt lat="36.97004483214159" lon="138.95902486931257"><ele>1755</ele><time>2025-04-05T01:47:46Z</time></trkpt>
<trkpt lat="36.97008898526438" lon="138.95918694203047"><ele>1765</ele><time>2025-04-05T01:48:27Z</time></trkpt>
<trkpt lat="36.9701169005439" lon="138.95938996674417"><ele>1769</ele><time>2025-04-05T01:49:32Z</time></trkpt>
<trkpt lat="36.97015073896279" lon="138.95952145566957"><ele>1775</ele><time>2025-04-05T01:50:19Z</time></trkpt>
<trkpt lat="36.970331532843765" lon="138.9595854316373"><ele>1781</ele><time>2025-04-05T01:51:29Z</time></trkpt>
<trkpt lat="36.970325381100736" lon="138.95982297169678"><ele>1787</ele><time>2025-04-05T01:52:08Z</time></trkpt>
<trkpt lat="36.970426454189585" lon="138.96001041901786"><ele>1793</ele><time>2025-04-05T01:54:33Z</time></trkpt>
<trkpt lat="36.97059983692467" lon="138.96000949516213"><ele>1801</ele><time>2025-04-05T01:55:09Z</time></trkpt>
<trkpt lat="36.97076135665681" lon="138.9600649661221"><ele>1807</ele><time>2025-04-05T01:56:04Z</time></trkpt>
<trkpt lat="36.97086224095104" lon="138.96026496266677"><ele>1819</ele><time>2025-04-05T01:56:45Z</time></trkpt>
<trkpt lat="36.971008233091744" lon="138.96035680334012"><ele>1825</ele><time>2025-04-05T01:57:22Z</time></trkpt>
<trkpt lat="36.971141871668586" lon="138.96043431697979"><ele>1829</ele><time>2025-04-05T01:58:08Z</time></trkpt>
<trkpt lat="36.97131535243023" lon="138.96052739553764"><ele>1837</ele><time>2025-04-05T01:58:51Z</time></trkpt>
<trkpt lat="36.9715362377462" lon="138.96049680165436"><ele>1842</ele><time>2025-04-05T01:59:40Z</time></trkpt>
<trkpt lat="36.971700286902276" lon="138.9603838965555"><ele>1847</ele><time>2025-04-05T02:00:15Z</time></trkpt>
<trkpt lat="36.971882896929706" lon="138.96019609851714"><ele>1851</ele><time>2025-04-05T02:00:52Z</time></trkpt>
<trkpt lat="36.97201515156744" lon="138.9600603319652"><ele>1853</ele><time>2025-04-05T02:01:24Z</time></trkpt>
<trkpt lat="36.97224713435312" lon="138.95983218397174"><ele>1855</ele><time>2025-04-05T02:01:56Z</time></trkpt>
<trkpt lat="36.972484074574226" lon="138.95957653853512"><ele>1854</ele><time>2025-04-05T02:02:27Z</time></trkpt>
<trkpt lat="36.97266808654096" lon="138.95924467679401"><ele>1856</ele><time>2025-04-05T02:02:57Z</time></trkpt>
<trkpt lat="36.972763979395594" lon="138.95920574458367"><ele>1860</ele><time>2025-04-05T02:06:45Z</time></trkpt>
<trkpt lat="36.97326405511126" lon="138.95892907099926"><ele>1845</ele><time>2025-04-05T02:07:09Z</time></trkpt>
<trkpt lat="36.97357487247411" lon="138.95864346244903"><ele>1838</ele><time>2025-04-05T02:07:35Z</time></trkpt>
<trkpt lat="36.973944281882204" lon="138.95832529279397"><ele>1823</ele><time>2025-04-05T02:07:58Z</time></trkpt>
<trkpt lat="36.9748992822169" lon="138.9578693025602"><ele>1797</ele><time>2025-04-05T02:08:31Z</time></trkpt>
<trkpt lat="36.974842279478885" lon="138.9576713297157"><ele>1804</ele><time>2025-04-05T02:09:36Z</time></trkpt>
<trkpt lat="36.975013902841965" lon="138.9578981638976"><ele>1802</ele><time>2025-04-05T02:15:58Z</time></trkpt>
<trkpt lat="36.975202910194604" lon="138.95806700436754"><ele>1806</ele><time>2025-04-05T02:16:34Z</time></trkpt>
<trkpt lat="36.975387000884595" lon="138.9580853676316"><ele>1811</ele><time>2025-04-05T02:17:07Z</time></trkpt>
<trkpt lat="36.97554715713905" lon="138.9580402674964"><ele>1818</ele><time>2025-04-05T02:17:49Z</time></trkpt>
<trkpt lat="36.975649814119265" lon="138.95824115443895"><ele>1821</ele><time>2025-04-05T02:18:23Z</time></trkpt>
<trkpt lat="36.97583227001687" lon="138.9581835790753"><ele>1826</ele><time>2025-04-05T02:19:00Z</time></trkpt>
<trkpt lat="36.97599965366668" lon="138.9581921739146"><ele>1834</ele><time>2025-04-05T02:19:36Z</time></trkpt>
<trkpt lat="36.976141554952775" lon="138.95833684010285"><ele>1840</ele><time>2025-04-05T02:20:14Z</time></trkpt>
<trkpt lat="36.97633288908544" lon="138.9582645508988"><ele>1843</ele><time>2025-04-05T02:20:47Z</time></trkpt>
<trkpt lat="36.97653483734447" lon="138.95824492615196"><ele>1846</ele><time>2025-04-05T02:21:20Z</time></trkpt>
<trkpt lat="36.97674968889455" lon="138.95829559470994"><ele>1849</ele><time>2025-04-05T02:21:58Z</time></trkpt>
<trkpt lat="36.97701326413601" lon="138.95830868144466"><ele>1851</ele><time>2025-04-05T02:22:29Z</time></trkpt>
<trkpt lat="36.97732323983563" lon="138.95828031171675"><ele>1850</ele><time>2025-04-05T02:22:56Z</time></trkpt>
<trkpt lat="36.97757316729372" lon="138.9583495573572"><ele>1852</ele><time>2025-04-05T02:23:24Z</time></trkpt>
<trkpt lat="36.977760812093834" lon="138.95843169464843"><ele>1856</ele><time>2025-04-05T02:24:02Z</time></trkpt>
<trkpt lat="36.97794944645129" lon="138.9585678032862"><ele>1861</ele><time>2025-04-05T02:24:39Z</time></trkpt>
<trkpt lat="36.97809119465314" lon="138.9586261758637"><ele>1866</ele><time>2025-04-05T02:25:20Z</time></trkpt>
<trkpt lat="36.97822317897747" lon="138.95876339914668"><ele>1871</ele><time>2025-04-05T02:26:03Z</time></trkpt>
<trkpt lat="36.97833804939025" lon="138.95893971243135"><ele>1876</ele><time>2025-04-05T02:26:48Z</time></trkpt>
<trkpt lat="36.97841522510359" lon="138.95908229692867"><ele>1881</ele><time>2025-04-05T02:27:36Z</time></trkpt>
<trkpt lat="36.97852498058949" lon="138.95923508615218"><ele>1886</ele><time>2025-04-05T02:28:19Z</time></trkpt>
<trkpt lat="36.97861351947931" lon="138.95940042227073"><ele>1891</ele><time>2025-04-05T02:29:38Z</time></trkpt>
<trkpt lat="36.97869826847436" lon="138.95956143745306"><ele>1899</ele><time>2025-04-05T02:30:34Z</time></trkpt>
<trkpt lat="36.97887501911387" lon="138.95956889761476"><ele>1906</ele><time>2025-04-05T02:31:16Z</time></trkpt>
<trkpt lat="36.97907068158957" lon="138.95954681828565"><ele>1912</ele><time>2025-04-05T02:32:08Z</time></trkpt>
<trkpt lat="36.97925906549986" lon="138.95953723232847"><ele>1920</ele><time>2025-04-05T02:32:46Z</time></trkpt>
<trkpt lat="36.97942116729492" lon="138.95957164516145"><ele>1928</ele><time>2025-04-05T02:33:53Z</time></trkpt>
<trkpt lat="36.97958089962363" lon="138.95967803046915"><ele>1935</ele><time>2025-04-05T02:34:32Z</time></trkpt>
<trkpt lat="36.979539895105226" lon="138.95991422902728"><ele>1940</ele><time>2025-04-05T02:35:08Z</time></trkpt>
<trkpt lat="36.979505734956554" lon="138.96016629570516"><ele>1945</ele><time>2025-04-05T02:35:42Z</time></trkpt>
<trkpt lat="36.9793823898657" lon="138.9604352931997"><ele>1944</ele><time>2025-04-05T02:36:22Z</time></trkpt>
<trkpt lat="36.97924035037002" lon="138.9606822265233"><ele>1946</ele><time>2025-04-05T02:36:52Z</time></trkpt>
<trkpt lat="36.97914128028732" lon="138.96098725496824"><ele>1946</ele><time>2025-04-05T02:37:21Z</time></trkpt>
<trkpt lat="36.97900883311844" lon="138.96125350327029"><ele>1949</ele><time>2025-04-05T02:37:50Z</time></trkpt>
<trkpt lat="36.97890464042177" lon="138.961545260695"><ele>1950</ele><time>2025-04-05T02:38:23Z</time></trkpt>
<trkpt lat="36.978844884850574" lon="138.9618321225799"><ele>1950</ele><time>2025-04-05T02:38:53Z</time></trkpt>
<trkpt lat="36.97873665623987" lon="138.9621229684937"><ele>1951</ele><time>2025-04-05T02:39:23Z</time></trkpt>
<trkpt lat="36.97860228255989" lon="138.96246446939725"><ele>1949</ele><time>2025-04-05T02:39:52Z</time></trkpt>
<trkpt lat="36.978545342151456" lon="138.962835918727"><ele>1948</ele><time>2025-04-05T02:40:18Z</time></trkpt>
<trkpt lat="36.97854320284718" lon="138.96315616478157"><ele>1948</ele><time>2025-04-05T02:40:49Z</time></trkpt>
<trkpt lat="36.978570540849056" lon="138.9633010922538"><ele>1949</ele><time>2025-04-05T02:41:30Z</time></trkpt>
<trkpt lat="36.97861111900533" lon="138.96353524885075"><ele>1952</ele><time>2025-04-05T02:42:02Z</time></trkpt>
<trkpt lat="36.97861657300017" lon="138.96377641587006"><ele>1957</ele><time>2025-04-05T02:42:36Z</time></trkpt>
<trkpt lat="36.9786091929363" lon="138.964015703478"><ele>1962</ele><time>2025-04-05T02:43:07Z</time></trkpt>
<trkpt lat="36.978599173097074" lon="138.96434430024874"><ele>1969</ele><time>2025-04-05T02:43:43Z</time></trkpt>
<trkpt lat="36.978587933903704" lon="138.9646169789598"><ele>1972</ele><time>2025-04-05T02:44:17Z</time></trkpt>
<trkpt lat="36.978618093199024" lon="138.96475303251287"><ele>1968</ele><time>2025-04-05T02:45:46Z</time></trkpt>
<trkpt lat="36.97826212561807" lon="138.96473009633016"><ele>1957</ele><time>2025-04-05T03:03:37Z</time></trkpt>
<trkpt lat="36.978266520452735" lon="138.96446436588286"><ele>1950</ele><time>2025-04-05T03:05:03Z</time></trkpt>
<trkpt lat="36.97828074716962" lon="138.96378400326418"><ele>1939</ele><time>2025-04-05T03:05:29Z</time></trkpt>
<trkpt lat="36.97804455923726" lon="138.96314828931804"><ele>1925</ele><time>2025-04-05T03:05:51Z</time></trkpt>
<trkpt lat="36.97803296542514" lon="138.9628992409837"><ele>1920</ele><time>2025-04-05T03:06:37Z</time></trkpt>
<trkpt lat="36.97717256541997" lon="138.96231998492243"><ele>1881</ele><time>2025-04-05T03:07:00Z</time></trkpt>
<trkpt lat="36.976059343035416" lon="138.96189592307482"><ele>1846</ele><time>2025-04-05T03:07:22Z</time></trkpt>
<trkpt lat="36.975967691292624" lon="138.96192043384696"><ele>1843</ele><time>2025-04-05T03:07:58Z</time></trkpt>
<trkpt lat="36.97458249714419" lon="138.96178780215863"><ele>1795</ele><time>2025-04-05T03:09:07Z</time></trkpt>
<trkpt lat="36.97327961117099" lon="138.96261987666156"><ele>1769</ele><time>2025-04-05T03:09:28Z</time></trkpt>
<trkpt lat="36.97300469389022" lon="138.96279514262315"><ele>1766</ele><time>2025-04-05T03:10:01Z</time></trkpt>
<trkpt lat="36.973094230138976" lon="138.96273563680776"><ele>1770</ele><time>2025-04-05T03:12:14Z</time></trkpt>
<trkpt lat="36.97301059779131" lon="138.96279493069258"><ele>1770</ele><time>2025-04-05T03:12:52Z</time></trkpt>
<trkpt lat="36.97262860881141" lon="138.96245443036034"><ele>1747</ele><time>2025-04-05T03:22:30Z</time></trkpt>
<trkpt lat="36.972500751073134" lon="138.96263166966608"><ele>1752</ele><time>2025-04-05T03:22:54Z</time></trkpt>
<trkpt lat="36.97179773911188" lon="138.9628797793585"><ele>1741</ele><time>2025-04-05T03:23:15Z</time></trkpt>
<trkpt lat="36.97101612007051" lon="138.96324223636316"><ele>1731</ele><time>2025-04-05T03:23:37Z</time></trkpt>
<trkpt lat="36.97010195437159" lon="138.96334507713175"><ele>1703</ele><time>2025-04-05T03:23:59Z</time></trkpt>
<trkpt lat="36.96956941890366" lon="138.96360698916595"><ele>1686</ele><time>2025-04-05T03:24:25Z</time></trkpt>
<trkpt lat="36.968981170636106" lon="138.9624504004239"><ele>1653</ele><time>2025-04-05T03:24:46Z</time></trkpt>
<trkpt lat="36.96862492320635" lon="138.96241451166432"><ele>1644</ele><time>2025-04-05T03:25:12Z</time></trkpt>
<trkpt lat="36.96740624343734" lon="138.9621998076346"><ele>1594</ele><time>2025-04-05T03:25:33Z</time></trkpt>
<trkpt lat="36.96691903243805" lon="138.96214449536566"><ele>1586</ele><time>2025-04-05T03:25:56Z</time></trkpt>
<trkpt lat="36.96638994912475" lon="138.96079170089627"><ele>1521</ele><time>2025-04-05T03:26:29Z</time></trkpt>
<trkpt lat="36.96630279157207" lon="138.96094906289375"><ele>1523</ele><time>2025-04-05T03:26:52Z</time></trkpt>
<trkpt lat="36.96528765049686" lon="138.96033244772403"><ele>1468</ele><time>2025-04-05T03:27:14Z</time></trkpt>
<trkpt lat="36.96457091320382" lon="138.9604099475442"><ele>1439</ele><time>2025-04-05T03:27:34Z</time></trkpt>
<trkpt lat="36.963762366487074" lon="138.9595946717022"><ele>1390</ele><time>2025-04-05T03:29:06Z</time></trkpt>
<trkpt lat="36.96340490715375" lon="138.95841320643115"><ele>1341</ele><time>2025-04-05T03:29:43Z</time></trkpt>
<trkpt lat="36.96322824438562" lon="138.9574362981223"><ele>1325</ele><time>2025-04-05T03:30:10Z</time></trkpt>
<trkpt lat="36.96305869519514" lon="138.95610528537773"><ele>1275</ele><time>2025-04-05T03:31:44Z</time></trkpt>
<trkpt lat="36.96256165078713" lon="138.9556111165098"><ele>1247</ele><time>2025-04-05T03:32:06Z</time></trkpt>
<trkpt lat="36.96214343586603" lon="138.95452760527576"><ele>1204</ele><time>2025-04-05T03:32:43Z</time></trkpt>
<trkpt lat="36.96206715313678" lon="138.95423988501673"><ele>1197</ele><time>2025-04-05T03:33:06Z</time></trkpt>
<trkpt lat="36.96159049858743" lon="138.95279702656103"><ele>1152</ele><time>2025-04-05T03:33:27Z</time></trkpt>
<trkpt lat="36.96158569646202" lon="138.95232382315248"><ele>1141</ele><time>2025-04-05T03:33:49Z</time></trkpt>
<trkpt lat="36.96125522618519" lon="138.95191464547375"><ele>1120</ele><time>2025-04-05T03:34:29Z</time></trkpt>
<trkpt lat="36.96131470838501" lon="138.9515214596763"><ele>1092</ele><time>2025-04-05T03:34:51Z</time></trkpt>
<trkpt lat="36.961429126202475" lon="138.9515587375521"><ele>1104</ele><time>2025-04-05T03:35:34Z</time></trkpt>
<trkpt lat="36.96130320844986" lon="138.95129613577234"><ele>1091</ele><time>2025-04-05T03:35:59Z</time></trkpt>
<trkpt lat="36.96130993813701" lon="138.95040263560918"><ele>1059</ele><time>2025-04-05T03:36:21Z</time></trkpt>
<trkpt lat="36.960960359963366" lon="138.94952074112348"><ele>1027</ele><time>2025-04-05T03:36:42Z</time></trkpt>
<trkpt lat="36.960546714835004" lon="138.94902608660823"><ele>1015</ele><time>2025-04-05T03:37:05Z</time></trkpt>
<trkpt lat="36.95996656309256" lon="138.9481113505297"><ele>985</ele><time>2025-04-05T03:38:46Z</time></trkpt>
<trkpt lat="36.95937663702496" lon="138.94719594706527"><ele>966</ele><time>2025-04-05T03:39:08Z</time></trkpt>
<trkpt lat="36.958690263981865" lon="138.94668783543946"><ele>950</ele><time>2025-04-05T03:39:29Z</time></trkpt>
<trkpt lat="36.95818567780156" lon="138.94620380292062"><ele>940</ele><time>2025-04-05T03:39:51Z</time></trkpt>
<trkpt lat="36.957705003311744" lon="138.94574111184616"><ele>928</ele><time>2025-04-05T03:40:16Z</time></trkpt>
<trkpt lat="36.957227190461424" lon="138.94525180868928"><ele>913</ele><time>2025-04-05T03:40:38Z</time></trkpt>
<trkpt lat="36.95667110025929" lon="138.9443656221826"><ele>888</ele><time>2025-04-05T03:41:00Z</time></trkpt>
<trkpt lat="36.95629461463079" lon="138.9432309735245"><ele>869</ele><time>2025-04-05T03:41:22Z</time></trkpt>
<trkpt lat="36.95588515847403" lon="138.94233007131263"><ele>855</ele><time>2025-04-05T03:41:44Z</time></trkpt>
<trkpt lat="36.9554377956041" lon="138.94159523427845"><ele>843</ele><time>2025-04-05T03:42:06Z</time></trkpt>
<trkpt lat="36.95493670778996" lon="138.94092646507517"><ele>830</ele><time>2025-04-05T03:42:29Z</time></trkpt>
<trkpt lat="36.95467121249182" lon="138.94028635179063"><ele>824</ele><time>2025-04-05T03:42:50Z</time></trkpt>
<trkpt lat="36.95433301116891" lon="138.93964445717427"><ele>815</ele><time>2025-04-05T03:43:12Z</time></trkpt>
<trkpt lat="36.95426588569663" lon="138.939288363033"><ele>812</ele><time>2025-04-05T03:43:49Z</time></trkpt>
<trkpt lat="36.954229798841666" lon="138.93911968374957"><ele>810</ele><time>2025-04-05T03:44:49Z</time></trkpt>
<trkpt lat="36.95427174859451" lon="138.93834558184346"><ele>798</ele><time>2025-04-05T03:45:23Z</time></trkpt>
<trkpt lat="36.954048780395276" lon="138.93716669896176"><ele>780</ele><time>2025-04-05T03:45:44Z</time></trkpt>
<trkpt lat="36.9541406259996" lon="138.93637670904008"><ele>759</ele><time>2025-04-05T03:46:06Z</time></trkpt>
<trkpt lat="36.9545743731052" lon="138.93571939018125"><ele>738</ele><time>2025-04-05T03:46:27Z</time></trkpt>
<trkpt lat="36.954196150126336" lon="138.93514858185358"><ele>732</ele><time>2025-04-05T03:46:50Z</time></trkpt>
<trkpt lat="36.954113714757945" lon="138.93500055844612"><ele>737</ele><time>2025-04-05T03:47:47Z</time></trkpt>
<trkpt lat="36.954089949221206" lon="138.93472367145654"><ele>735</ele><time>2025-04-05T03:48:23Z</time></trkpt>
<trkpt lat="36.954058172331216" lon="138.9344623361274"><ele>733</ele><time>2025-04-05T03:48:58Z</time></trkpt>
<trkpt lat="36.953882976020964" lon="138.93403799628305"><ele>734</ele><time>2025-04-05T03:49:25Z</time></trkpt>
<trkpt lat="36.95357447914456" lon="138.93367292291407"><ele>731</ele><time>2025-04-05T03:49:48Z</time></trkpt>
<trkpt lat="36.95299320783773" lon="138.93354955782402"><ele>723</ele><time>2025-04-05T03:50:10Z</time></trkpt>
<trkpt lat="36.952708369013585" lon="138.93337521811833"><ele>721</ele><time>2025-04-05T03:50:33Z</time></trkpt>
<trkpt lat="36.95297699223385" lon="138.93268651076818"><ele>714</ele><time>2025-04-05T03:51:17Z</time></trkpt>
<trkpt lat="36.953405343739355" lon="138.93205087849336"><ele>704</ele><time>2025-04-05T03:51:40Z</time></trkpt>
<trkpt lat="36.954021125735444" lon="138.9313264861208"><ele>691</ele><time>2025-04-05T03:52:02Z</time></trkpt>
<trkpt lat="36.95474114052066" lon="138.9306235926232"><ele>680</ele><time>2025-04-05T03:52:24Z</time></trkpt>
<trkpt lat="36.95519975654703" lon="138.92971455552572"><ele>666</ele><time>2025-04-05T03:52:45Z</time></trkpt>
<trkpt lat="36.955365866142806" lon="138.92869416995737"><ele>654</ele><time>2025-04-05T03:53:08Z</time></trkpt>
<trkpt lat="36.9555851630759" lon="138.92805784693644"><ele>647</ele><time>2025-04-05T03:53:31Z</time></trkpt>
<trkpt lat="36.95580260860801" lon="138.92724160823124"><ele>637</ele><time>2025-04-05T03:53:54Z</time></trkpt>
<trkpt lat="36.955941817548386" lon="138.9263522558435"><ele>627</ele><time>2025-04-05T03:54:17Z</time></trkpt>
<trkpt lat="36.95572185349592" lon="138.92545872483706"><ele>620</ele><time>2025-04-05T03:54:39Z</time></trkpt>
<trkpt lat="36.95565193651302" lon="138.92469499272158"><ele>613</ele><time>2025-04-05T03:55:00Z</time></trkpt>
<trkpt lat="36.95578402484131" lon="138.9242303899645"><ele>609</ele><time>2025-04-05T03:55:28Z</time></trkpt>
<trkpt lat="36.95584103640627" lon="138.92404258563104"><ele>608</ele><time>2025-04-05T03:55:53Z</time></trkpt>
<trkpt lat="36.956117369972" lon="138.92333220575173"><ele>597</ele><time>2025-04-05T03:56:33Z</time></trkpt>
<trkpt lat="36.95597331351398" lon="138.92241104255442"><ele>587</ele><time>2025-04-05T03:56:58Z</time></trkpt>
<trkpt lat="36.95583986503068" lon="138.92140719095525"><ele>576</ele><time>2025-04-05T03:57:21Z</time></trkpt>
<trkpt lat="36.95589722836225" lon="138.92117194072299"><ele>571</ele><time>2025-04-05T03:57:59Z</time></trkpt>
<trkpt lat="36.95599978690862" lon="138.92103572831078"><ele>568</ele><time>2025-04-05T03:58:31Z</time></trkpt>
<trkpt lat="36.95625879792665" lon="138.9209095816283"><ele>567</ele><time>2025-04-05T03:58:56Z</time></trkpt>
</trkseg>
</trk>
</gpx>