<?xml version="1.0" encoding="UTF-8"?>
<gpx xmlns:xsi="http://www.w3.org/2001/XMLSchema-instance" xmlns="http://www.topografix.com/GPX/1/1" xsi:schemaLocation="http://www.topografix.com/GPX/1/1 http://www.topografix.com/GPX/1/1/gpx.xsd" creator="Yamareco iOS 7.33 - www.yamareco.com">
<trk><name>track</name><number>1</number><trkseg>
<trkpt lat="36.16433861195538" lon="140.1603003328153"><ele>47</ele><time>2025-11-24T00:51:15Z</time></trkpt>
<trkpt lat="36.16442186126329" lon="140.15999991578136"><ele>45</ele><time>2025-11-24T00:51:46Z</time></trkpt>
<trkpt lat="36.16450941258189" lon="140.15993189631962"><ele>45</ele><time>2025-11-24T00:53:08Z</time></trkpt>
<trkpt lat="36.16434615432934" lon="140.15968209898733"><ele>45</ele><time>2025-11-24T00:53:38Z</time></trkpt>
<trkpt lat="36.164554609808725" lon="140.15956405825838"><ele>48</ele><time>2025-11-24T00:54:34Z</time></trkpt>
<trkpt lat="36.164838536539854" lon="140.15946101383898"><ele>49</ele><time>2025-11-24T00:55:05Z</time></trkpt>
<trkpt lat="36.16506600916254" lon="140.15948324976654"><ele>50</ele><time>2025-11-24T00:55:39Z</time></trkpt>
<trkpt lat="36.165315694303914" lon="140.15968381169665"><ele>52</ele><time>2025-11-24T00:56:11Z</time></trkpt>
<trkpt lat="36.16559329863089" lon="140.15984578351964"><ele>55</ele><time>2025-11-24T00:56:42Z</time></trkpt>
<trkpt lat="36.165896617399845" lon="140.15982123100187"><ele>55</ele><time>2025-11-24T00:57:12Z</time></trkpt>
<trkpt lat="36.166188392233806" lon="140.1597345965635"><ele>59</ele><time>2025-11-24T00:57:41Z</time></trkpt>
<trkpt lat="36.16621027856371" lon="140.1595832362961"><ele>59</ele><time>2025-11-24T00:58:47Z</time></trkpt>
<trkpt lat="36.16633172142773" lon="140.15989802150855"><ele>60</ele><time>2025-11-24T00:59:14Z</time></trkpt>
<trkpt lat="36.16637112633797" lon="140.16029959923975"><ele>64</ele><time>2025-11-24T00:59:44Z</time></trkpt>
<trkpt lat="36.166655237367955" lon="140.16044916642693"><ele>67</ele><time>2025-11-24T01:00:07Z</time></trkpt>
<trkpt lat="36.166904280282814" lon="140.16056512419163"><ele>71</ele><time>2025-11-24T01:00:35Z</time></trkpt>
<trkpt lat="36.16718855520562" lon="140.16063782145955"><ele>76</ele><time>2025-11-24T01:01:03Z</time></trkpt>
<trkpt lat="36.16748690931394" lon="140.16060102304684"><ele>84</ele><time>2025-11-24T01:01:31Z</time></trkpt>
<trkpt lat="36.16776331692333" lon="140.16063268186"><ele>89</ele><time>2025-11-24T01:02:00Z</time></trkpt>
<trkpt lat="36.167975021243464" lon="140.1607853339431"><ele>91</ele><time>2025-11-24T01:02:31Z</time></trkpt>
<trkpt lat="36.16813305122978" lon="140.16068208691297"><ele>95</ele><time>2025-11-24T01:03:05Z</time></trkpt>
<trkpt lat="36.16829503662501" lon="140.16060501009963"><ele>107</ele><time>2025-11-24T01:04:01Z</time></trkpt>
<trkpt lat="36.168277468860104" lon="140.16092520754233"><ele>104</ele><time>2025-11-24T01:04:45Z</time></trkpt>
<trkpt lat="36.168402480978514" lon="140.1609387713085"><ele>108</ele><time>2025-11-24T01:05:09Z</time></trkpt>
<trkpt lat="36.16860390050158" lon="140.1610343963077"><ele>117</ele><time>2025-11-24T01:05:40Z</time></trkpt>
<trkpt lat="36.16873736185638" lon="140.16073447924518"><ele>122</ele><time>2025-11-24T01:06:10Z</time></trkpt>
<trkpt lat="36.16894056070593" lon="140.1606277392628"><ele>125</ele><time>2025-11-24T01:06:39Z</time></trkpt>
<trkpt lat="36.169168448433254" lon="140.16048065653084"><ele>132</ele><time>2025-11-24T01:07:11Z</time></trkpt>
<trkpt lat="36.16946297405011" lon="140.16045165957246"><ele>135</ele><time>2025-11-24T01:07:40Z</time></trkpt>
<trkpt lat="36.16972805546145" lon="140.16034337462568"><ele>140</ele><time>2025-11-24T01:08:12Z</time></trkpt>
<trkpt lat="36.16997148025197" lon="140.16042254774803"><ele>147</ele><time>2025-11-24T01:09:04Z</time></trkpt>
<trkpt lat="36.17023282270075" lon="140.16029324360716"><ele>150</ele><time>2025-11-24T01:09:28Z</time></trkpt>
<trkpt lat="36.170488872168136" lon="140.1600149960606"><ele>160</ele><time>2025-11-24T01:10:03Z</time></trkpt>
<trkpt lat="36.17074181014324" lon="140.1598229703853"><ele>173</ele><time>2025-11-24T01:11:01Z</time></trkpt>
<trkpt lat="36.17086468432434" lon="140.15991749710082"><ele>176</ele><time>2025-11-24T01:12:27Z</time></trkpt>
<trkpt lat="36.171048810906434" lon="140.15996433066644"><ele>177</ele><time>2025-11-24T01:13:06Z</time></trkpt>
<trkpt lat="36.171247387037596" lon="140.16007582397987"><ele>183</ele><time>2025-11-24T01:13:40Z</time></trkpt>
<trkpt lat="36.17141577038596" lon="140.16016295196388"><ele>189</ele><time>2025-11-24T01:14:11Z</time></trkpt>
<trkpt lat="36.17157700172902" lon="140.1600492534144"><ele>196</ele><time>2025-11-24T01:14:42Z</time></trkpt>
<trkpt lat="36.171517862556044" lon="140.15981448642685"><ele>195</ele><time>2025-11-24T01:15:11Z</time></trkpt>
<trkpt lat="36.17171093857873" lon="140.15994172870032"><ele>198</ele><time>2025-11-24T01:15:43Z</time></trkpt>
<trkpt lat="36.171944930500985" lon="140.15992633965655"><ele>206</ele><time>2025-11-24T01:16:14Z</time></trkpt>
<trkpt lat="36.1720736288534" lon="140.1599763566368"><ele>212</ele><time>2025-11-24T01:16:48Z</time></trkpt>
<trkpt lat="36.17190672422168" lon="140.16027983383313"><ele>209</ele><time>2025-11-24T01:17:31Z</time></trkpt>
<trkpt lat="36.17180207873223" lon="140.1606358490286"><ele>212</ele><time>2025-11-24T01:18:02Z</time></trkpt>
<trkpt lat="36.17163356910922" lon="140.16089637289815"><ele>210</ele><time>2025-11-24T01:18:34Z</time></trkpt>
<trkpt lat="36.1719002125112" lon="140.1609139065681"><ele>212</ele><time>2025-11-24T01:19:00Z</time></trkpt>
<trkpt lat="36.17214250894433" lon="140.16063043738282"><ele>218</ele><time>2025-11-24T01:19:27Z</time></trkpt>
<trkpt lat="36.17227036795249" lon="140.16033718031008"><ele>220</ele><time>2025-11-24T01:19:58Z</time></trkpt>
<trkpt lat="36.172546072251116" lon="140.16016030831415"><ele>229</ele><time>2025-11-24T01:20:27Z</time></trkpt>
<trkpt lat="36.17258696038804" lon="140.16030701390997"><ele>232</ele><time>2025-11-24T01:21:06Z</time></trkpt>
<trkpt lat="36.17247414001458" lon="140.16067517867168"><ele>236</ele><time>2025-11-24T01:21:37Z</time></trkpt>
<trkpt lat="36.17263207842999" lon="140.16101926754033"><ele>240</ele><time>2025-11-24T01:22:06Z</time></trkpt>
<trkpt lat="36.1726781622162" lon="140.16137459187462"><ele>242</ele><time>2025-11-24T01:22:35Z</time></trkpt>
<trkpt lat="36.17274510185657" lon="140.16173015290596"><ele>245</ele><time>2025-11-24T01:23:01Z</time></trkpt>
<trkpt lat="36.172669114257424" lon="140.16199289884992"><ele>249</ele><time>2025-11-24T01:23:26Z</time></trkpt>
<trkpt lat="36.17256256875744" lon="140.16227148766882"><ele>253</ele><time>2025-11-24T01:23:53Z</time></trkpt>
<trkpt lat="36.17237407817353" lon="140.1625525990801"><ele>258</ele><time>2025-11-24T01:24:23Z</time></trkpt>
<trkpt lat="36.1722211352203" lon="140.16284431960958"><ele>262</ele><time>2025-11-24T01:24:53Z</time></trkpt>
<trkpt lat="36.17232636753205" lon="140.16323796039092"><ele>266</ele><time>2025-11-24T01:25:21Z</time></trkpt>
<trkpt lat="36.172600207666754" lon="140.16296470844853"><ele>266</ele><time>2025-11-24T01:25:48Z</time></trkpt>
<trkpt lat="36.172806838277474" lon="140.1626655599326"><ele>267</ele><time>2025-11-24T01:26:14Z</time></trkpt>
<trkpt lat="36.172996926848576" lon="140.1623617811403"><ele>266</ele><time>2025-11-24T01:26:41Z</time></trkpt>
<trkpt lat="36.17316099609287" lon="140.16199427898331"><ele>265</ele><time>2025-11-24T01:27:12Z</time></trkpt>
<trkpt lat="36.17328651251925" lon="140.16164526877844"><ele>266</ele><time>2025-11-24T01:27:38Z</time></trkpt>
<trkpt lat="36.17340109659597" lon="140.1613300326971"><ele>266</ele><time>2025-11-24T01:28:04Z</time></trkpt>
<trkpt lat="36.17349648173507" lon="140.16102373934777"><ele>270</ele><time>2025-11-24T01:29:28Z</time></trkpt>
<trkpt lat="36.17362156117463" lon="140.16074155226804"><ele>272</ele><time>2025-11-24T01:29:56Z</time></trkpt>
<trkpt lat="36.17366780190766" lon="140.16034858696216"><ele>266</ele><time>2025-11-24T01:30:25Z</time></trkpt>
<trkpt lat="36.17365809204031" lon="140.15996055407052"><ele>263</ele><time>2025-11-24T01:30:55Z</time></trkpt>
<trkpt lat="36.17357100150029" lon="140.159613773511"><ele>262</ele><time>2025-11-24T01:31:19Z</time></trkpt>
<trkpt lat="36.173466121742656" lon="140.15927648847804"><ele>257</ele><time>2025-11-24T01:31:46Z</time></trkpt>
<trkpt lat="36.17361353450095" lon="140.15913459342792"><ele>262</ele><time>2025-11-24T01:32:16Z</time></trkpt>
<trkpt lat="36.17379591198482" lon="140.1588534411352"><ele>263</ele><time>2025-11-24T01:32:46Z</time></trkpt>
<trkpt lat="36.17391015736876" lon="140.15860077810095"><ele>267</ele><time>2025-11-24T01:33:16Z</time></trkpt>
<trkpt lat="36.17406251734685" lon="140.1583122306051"><ele>267</ele><time>2025-11-24T01:33:47Z</time></trkpt>
<trkpt lat="36.17427811693022" lon="140.15809694488806"><ele>272</ele><time>2025-11-24T01:34:19Z</time></trkpt>
<trkpt lat="36.17449312034208" lon="140.15788643277713"><ele>273</ele><time>2025-11-24T01:34:49Z</time></trkpt>
<trkpt lat="36.17459198510862" lon="140.15751584781552"><ele>274</ele><time>2025-11-24T01:35:15Z</time></trkpt>
<trkpt lat="36.17442655197851" lon="140.15722988762116"><ele>278</ele><time>2025-11-24T01:35:42Z</time></trkpt>
<trkpt lat="36.1741290707997" lon="140.15731633176685"><ele>275</ele><time>2025-11-24T01:36:11Z</time></trkpt>
<trkpt lat="36.17387377962586" lon="140.1573884716515"><ele>269</ele><time>2025-11-24T01:36:39Z</time></trkpt>
<trkpt lat="36.173571936640634" lon="140.15730289749686"><ele>263</ele><time>2025-11-24T01:37:07Z</time></trkpt>
<trkpt lat="36.17337137317658" lon="140.15723215921895"><ele>256</ele><time>2025-11-24T01:37:35Z</time></trkpt>
<trkpt lat="36.173090778215354" lon="140.15711914674085"><ele>253</ele><time>2025-11-24T01:38:05Z</time></trkpt>
<trkpt lat="36.17305347630431" lon="140.15743527701198"><ele>251</ele><time>2025-11-24T01:38:32Z</time></trkpt>
<trkpt lat="36.17280935917768" lon="140.1575039778162"><ele>245</ele><time>2025-11-24T01:38:58Z</time></trkpt>
<trkpt lat="36.17258613220737" lon="140.1577074288387"><ele>236</ele><time>2025-11-24T01:39:31Z</time></trkpt>
<trkpt lat="36.17236829754126" lon="140.15785310567452"><ele>230</ele><time>2025-11-24T01:40:02Z</time></trkpt>
<trkpt lat="36.17227641697903" lon="140.15768777914687"><ele>235</ele><time>2025-11-24T01:42:04Z</time></trkpt>
<trkpt lat="36.172165979563985" lon="140.1574575731483"><ele>239</ele><time>2025-11-24T01:42:42Z</time></trkpt>
<trkpt lat="36.17195916141707" lon="140.15719937118902"><ele>253</ele><time>2025-11-24T01:43:29Z</time></trkpt>
<trkpt lat="36.171672420275605" lon="140.15734466359189"><ele>254</ele><time>2025-11-24T01:43:56Z</time></trkpt>
<trkpt lat="36.17173776105861" lon="140.1571072880151"><ele>255</ele><time>2025-11-24T01:44:34Z</time></trkpt>
<trkpt lat="36.17173361784464" lon="140.15692559336316"><ele>265</ele><time>2025-11-24T01:45:28Z</time></trkpt>
<trkpt lat="36.171758793651264" lon="140.15661234522838"><ele>275</ele><time>2025-11-24T01:46:17Z</time></trkpt>
<trkpt lat="36.17181249316884" lon="140.15639845958535"><ele>283</ele><time>2025-11-24T01:46:58Z</time></trkpt>
<trkpt lat="36.171642771957366" lon="140.15627351107435"><ele>284</ele><time>2025-11-24T01:47:23Z</time></trkpt>
<trkpt lat="36.17158009010222" lon="140.15603608860744"><ele>291</ele><time>2025-11-24T01:47:59Z</time></trkpt>
<trkpt lat="36.171586500520995" lon="140.15581171534902"><ele>292</ele><time>2025-11-24T01:48:29Z</time></trkpt>
<trkpt lat="36.171787897792626" lon="140.15568078549373"><ele>298</ele><time>2025-11-24T01:49:05Z</time></trkpt>
<trkpt lat="36.17198248733117" lon="140.15561299334536"><ele>305</ele><time>2025-11-24T01:50:05Z</time></trkpt>
<trkpt lat="36.17200850911468" lon="140.15541210160478"><ele>307</ele><time>2025-11-24T01:50:36Z</time></trkpt>
<trkpt lat="36.172191257615665" lon="140.15531084572083"><ele>322</ele><time>2025-11-24T01:51:15Z</time></trkpt>
<trkpt lat="36.17227506399971" lon="140.1550490248147"><ele>330</ele><time>2025-11-24T01:51:52Z</time></trkpt>
<trkpt lat="36.17241236216755" lon="140.15509722826397"><ele>333</ele><time>2025-11-24T01:52:25Z</time></trkpt>
<trkpt lat="36.17249898103547" lon="140.15490757731084"><ele>342</ele><time>2025-11-24T01:53:13Z</time></trkpt>
<trkpt lat="36.17241185824221" lon="140.15461025706801"><ele>344</ele><time>2025-11-24T01:53:40Z</time></trkpt>
<trkpt lat="36.172376581488074" lon="140.1543180011262"><ele>347</ele><time>2025-11-24T01:54:14Z</time></trkpt>
<trkpt lat="36.17226681771425" lon="140.15411079247662"><ele>349</ele><time>2025-11-24T01:54:43Z</time></trkpt>
<trkpt lat="36.17218793191196" lon="140.1541864319364"><ele>341</ele><time>2025-11-24T01:56:09Z</time></trkpt>
<trkpt lat="36.172330775527215" lon="140.15412663294478"><ele>349</ele><time>2025-11-24T02:09:47Z</time></trkpt>
<trkpt lat="36.172476749833066" lon="140.15407991408773"><ele>355</ele><time>2025-11-24T02:10:27Z</time></trkpt>
<trkpt lat="36.17266158173767" lon="140.1540396833766"><ele>361</ele><time>2025-11-24T02:11:04Z</time></trkpt>
<trkpt lat="36.172813958668435" lon="140.1538767213267"><ele>366</ele><time>2025-11-24T02:11:37Z</time></trkpt>
<trkpt lat="36.17295173456358" lon="140.15373654992501"><ele>363</ele><time>2025-11-24T02:12:14Z</time></trkpt>
<trkpt lat="36.17292459546831" lon="140.15337200154053"><ele>358</ele><time>2025-11-24T02:12:54Z</time></trkpt>
<trkpt lat="36.17302024728308" lon="140.15300000588286"><ele>356</ele><time>2025-11-24T02:13:22Z</time></trkpt>
<trkpt lat="36.17310817664793" lon="140.1526603961816"><ele>358</ele><time>2025-11-24T02:13:53Z</time></trkpt>
<trkpt lat="36.17314827759441" lon="140.1522557928673"><ele>358</ele><time>2025-11-24T02:14:20Z</time></trkpt>
<trkpt lat="36.17327176390155" lon="140.15186825087486"><ele>352</ele><time>2025-11-24T02:14:51Z</time></trkpt>
<trkpt lat="36.17334872809679" lon="140.15151963434673"><ele>348</ele><time>2025-11-24T02:15:16Z</time></trkpt>
<trkpt lat="36.173214632566136" lon="140.15118363379875"><ele>340</ele><time>2025-11-24T02:15:43Z</time></trkpt>
<trkpt lat="36.17329490400234" lon="140.15070162076069"><ele>337</ele><time>2025-11-24T02:16:11Z</time></trkpt>
<trkpt lat="36.17325848943658" lon="140.15029512311372"><ele>337</ele><time>2025-11-24T02:16:37Z</time></trkpt>
<trkpt lat="36.17307006227928" lon="140.15003655976477"><ele>334</ele><time>2025-11-24T02:17:03Z</time></trkpt>
<trkpt lat="36.173035577064084" lon="140.1497808371419"><ele>336</ele><time>2025-11-24T02:17:32Z</time></trkpt>
<trkpt lat="36.172912837341514" lon="140.1494698508181"><ele>341</ele><time>2025-11-24T02:18:06Z</time></trkpt>
<trkpt lat="36.172749563817064" lon="140.1492313035623"><ele>344</ele><time>2025-11-24T02:18:36Z</time></trkpt>
<trkpt lat="36.17264775765009" lon="140.14889139429226"><ele>349</ele><time>2025-11-24T02:19:10Z</time></trkpt>
<trkpt lat="36.17253149735849" lon="140.1486811262213"><ele>355</ele><time>2025-11-24T02:19:41Z</time></trkpt>
<trkpt lat="36.17227569070606" lon="140.1484982033773"><ele>360</ele><time>2025-11-24T02:20:15Z</time></trkpt>
<trkpt lat="36.17207812839209" lon="140.14827075067794"><ele>366</ele><time>2025-11-24T02:20:43Z</time></trkpt>
<trkpt lat="36.17180875911563" lon="140.14820500783912"><ele>371</ele><time>2025-11-24T02:21:13Z</time></trkpt>
<trkpt lat="36.17151131026136" lon="140.14812684167052"><ele>366</ele><time>2025-11-24T02:21:42Z</time></trkpt>
<trkpt lat="36.1716058309267" lon="140.1478917512911"><ele>368</ele><time>2025-11-24T02:22:55Z</time></trkpt>
<trkpt lat="36.17176097401846" lon="140.14767934560433"><ele>373</ele><time>2025-11-24T02:23:35Z</time></trkpt>
<trkpt lat="36.17182259564675" lon="140.1475051840832"><ele>363</ele><time>2025-11-24T02:24:25Z</time></trkpt>
<trkpt lat="36.171712891464644" lon="140.14754150107862"><ele>375</ele><time>2025-11-24T02:25:13Z</time></trkpt>
<trkpt lat="36.17161869052622" lon="140.1477729760672"><ele>368</ele><time>2025-11-24T02:25:53Z</time></trkpt>
<trkpt lat="36.17150860092855" lon="140.14802941427277"><ele>362</ele><time>2025-11-24T02:26:29Z</time></trkpt>
<trkpt lat="36.171482595071986" lon="140.14770244155918"><ele>357</ele><time>2025-11-24T02:27:14Z</time></trkpt>
<trkpt lat="36.17153360484092" lon="140.14726203203608"><ele>355</ele><time>2025-11-24T02:27:40Z</time></trkpt>
<trkpt lat="36.171699276549504" lon="140.1468381353218"><ele>353</ele><time>2025-11-24T02:28:05Z</time></trkpt>
<trkpt lat="36.17176988866287" lon="140.1464564704876"><ele>353</ele><time>2025-11-24T02:28:31Z</time></trkpt>
<trkpt lat="36.17172008134989" lon="140.14606475567123"><ele>352</ele><time>2025-11-24T02:28:58Z</time></trkpt>
<trkpt lat="36.17160724883745" lon="140.14572418537628"><ele>355</ele><time>2025-11-24T02:29:25Z</time></trkpt>
<trkpt lat="36.17162546087251" lon="140.1454337808856"><ele>364</ele><time>2025-11-24T02:29:58Z</time></trkpt>
<trkpt lat="36.171677657950646" lon="140.1451422988119"><ele>371</ele><time>2025-11-24T02:30:25Z</time></trkpt>
<trkpt lat="36.17175951693961" lon="140.14488691693322"><ele>377</ele><time>2025-11-24T02:30:51Z</time></trkpt>
<trkpt lat="36.17183876390751" lon="140.14446876097193"><ele>375</ele><time>2025-11-24T02:31:21Z</time></trkpt>
<trkpt lat="36.17190118224795" lon="140.14402875613035"><ele>371</ele><time>2025-11-24T02:31:52Z</time></trkpt>
<trkpt lat="36.172063400601346" lon="140.1436827389025"><ele>366</ele><time>2025-11-24T02:32:22Z</time></trkpt>
<trkpt lat="36.172055433293785" lon="140.14325127165284"><ele>361</ele><time>2025-11-24T02:32:50Z</time></trkpt>
<trkpt lat="36.17230352799171" lon="140.14304922612632"><ele>363</ele><time>2025-11-24T02:33:17Z</time></trkpt>
<trkpt lat="36.17247843946833" lon="140.14278763944353"><ele>362</ele><time>2025-11-24T02:33:49Z</time></trkpt>
<trkpt lat="36.172683502332966" lon="140.1425735823143"><ele>361</ele><time>2025-11-24T02:34:19Z</time></trkpt>
<trkpt lat="36.172920557329775" lon="140.14243480103616"><ele>363</ele><time>2025-11-24T02:34:46Z</time></trkpt>
<trkpt lat="36.173185544914695" lon="140.14231609382563"><ele>364</ele><time>2025-11-24T02:35:14Z</time></trkpt>
<trkpt lat="36.173398752844264" lon="140.1420870184517"><ele>361</ele><time>2025-11-24T02:35:43Z</time></trkpt>
<trkpt lat="36.173587164119986" lon="140.1418311398352"><ele>363</ele><time>2025-11-24T02:36:11Z</time></trkpt>
<trkpt lat="36.17373212435399" lon="140.1416022844794"><ele>366</ele><time>2025-11-24T02:36:38Z</time></trkpt>
<trkpt lat="36.173823934904846" lon="140.14117464641126"><ele>375</ele><time>2025-11-24T02:37:16Z</time></trkpt>
<trkpt lat="36.17368466360776" lon="140.14083899471117"><ele>378</ele><time>2025-11-24T02:37:44Z</time></trkpt>
<trkpt lat="36.173593108964" lon="140.14048489527192"><ele>381</ele><time>2025-11-24T02:38:13Z</time></trkpt>
<trkpt lat="36.173478755496234" lon="140.1401583170036"><ele>384</ele><time>2025-11-24T02:38:41Z</time></trkpt>
<trkpt lat="36.17349319781956" lon="140.13975330954324"><ele>387</ele><time>2025-11-24T02:39:07Z</time></trkpt>
<trkpt lat="36.17339955547854" lon="140.13938264269026"><ele>386</ele><time>2025-11-24T02:39:34Z</time></trkpt>
<trkpt lat="36.1733749183626" lon="140.1389638850637"><ele>383</ele><time>2025-11-24T02:40:03Z</time></trkpt>
<trkpt lat="36.17343644850102" lon="140.13856912210815"><ele>383</ele><time>2025-11-24T02:40:32Z</time></trkpt>
<trkpt lat="36.17357497313144" lon="140.138218770141"><ele>382</ele><time>2025-11-24T02:40:57Z</time></trkpt>
<trkpt lat="36.17363710723483" lon="140.13784800409775"><ele>385</ele><time>2025-11-24T02:41:27Z</time></trkpt>
<trkpt lat="36.17361512078928" lon="140.13742983739326"><ele>393</ele><time>2025-11-24T02:41:56Z</time></trkpt>
<trkpt lat="36.17335078742466" lon="140.13726760392439"><ele>396</ele><time>2025-11-24T02:42:19Z</time></trkpt>
<trkpt lat="36.17310506944548" lon="140.13710274061768"><ele>395</ele><time>2025-11-24T02:42:48Z</time></trkpt>
<trkpt lat="36.17298324673902" lon="140.13681370085217"><ele>392</ele><time>2025-11-24T02:43:23Z</time></trkpt>
<trkpt lat="36.1730647110343" lon="140.1365475344847"><ele>394</ele><time>2025-11-24T02:43:58Z</time></trkpt>
<trkpt lat="36.17325743429818" lon="140.1362980395968"><ele>392</ele><time>2025-11-24T02:45:22Z</time></trkpt>
<trkpt lat="36.1733551685335" lon="140.1359929256696"><ele>397</ele><time>2025-11-24T02:45:52Z</time></trkpt>
<trkpt lat="36.17318544250539" lon="140.1356463742722"><ele>401</ele><time>2025-11-24T02:46:19Z</time></trkpt>
<trkpt lat="36.17304497896939" lon="140.13535350707758"><ele>403</ele><time>2025-11-24T02:46:45Z</time></trkpt>
<trkpt lat="36.17286226588014" lon="140.13508138374198"><ele>408</ele><time>2025-11-24T02:47:12Z</time></trkpt>
<trkpt lat="36.172610410038686" lon="140.134878613939"><ele>412</ele><time>2025-11-24T02:47:39Z</time></trkpt>
<trkpt lat="36.172319565565054" lon="140.1347624217767"><ele>415</ele><time>2025-11-24T02:48:08Z</time></trkpt>
<trkpt lat="36.17199649037755" lon="140.13467053145786"><ele>419</ele><time>2025-11-24T02:48:35Z</time></trkpt>
<trkpt lat="36.171715357862176" lon="140.13474968423833"><ele>424</ele><time>2025-11-24T02:49:02Z</time></trkpt>
<trkpt lat="36.17146651296471" lon="140.13488449151347"><ele>432</ele><time>2025-11-24T02:49:28Z</time></trkpt>
<trkpt lat="36.17117807659714" lon="140.1349387482467"><ele>436</ele><time>2025-11-24T02:49:56Z</time></trkpt>
<trkpt lat="36.170830651961445" lon="140.13490184867265"><ele>440</ele><time>2025-11-24T02:50:29Z</time></trkpt>
<trkpt lat="36.17051905871359" lon="140.13476629924745"><ele>436</ele><time>2025-11-24T02:50:57Z</time></trkpt>
<trkpt lat="36.17047620360641" lon="140.13431390195228"><ele>432</ele><time>2025-11-24T02:51:27Z</time></trkpt>
<trkpt lat="36.17033523677791" lon="140.13397717701545"><ele>430</ele><time>2025-11-24T02:51:54Z</time></trkpt>
<trkpt lat="36.17016485679089" lon="140.13362069247052"><ele>429</ele><time>2025-11-24T02:52:19Z</time></trkpt>
<trkpt lat="36.16991226513629" lon="140.13337104460402"><ele>433</ele><time>2025-11-24T02:52:45Z</time></trkpt>
<trkpt lat="36.16961352439033" lon="140.13323715325538"><ele>435</ele><time>2025-11-24T02:53:10Z</time></trkpt>
<trkpt lat="36.16926255080355" lon="140.13318754787494"><ele>434</ele><time>2025-11-24T02:53:36Z</time></trkpt>
<trkpt lat="36.16900924350986" lon="140.13296935117015"><ele>431</ele><time>2025-11-24T02:54:04Z</time></trkpt>
<trkpt lat="36.16896082858923" lon="140.1324829159394"><ele>427</ele><time>2025-11-24T02:54:34Z</time></trkpt>
<trkpt lat="36.168763882004775" lon="140.13213879848303"><ele>425</ele><time>2025-11-24T02:55:00Z</time></trkpt>
<trkpt lat="36.16881607472748" lon="140.13176635785487"><ele>431</ele><time>2025-11-24T02:55:31Z</time></trkpt>
<trkpt lat="36.16867382167802" lon="140.1314082385789"><ele>435</ele><time>2025-11-24T02:56:00Z</time></trkpt>
<trkpt lat="36.16843439182229" lon="140.13117539047968"><ele>439</ele><time>2025-11-24T02:56:25Z</time></trkpt>
<trkpt lat="36.168132758596336" lon="140.13117266636493"><ele>445</ele><time>2025-11-24T02:56:49Z</time></trkpt>
<trkpt lat="36.16786992625729" lon="140.1310498317188"><ele>449</ele><time>2025-11-24T02:57:14Z</time></trkpt>
<trkpt lat="36.16769568543792" lon="140.1308959061864"><ele>449</ele><time>2025-11-24T02:57:36Z</time></trkpt>
<trkpt lat="36.167382313978244" lon="140.1307281563404"><ele>447</ele><time>2025-11-24T02:58:02Z</time></trkpt>
<trkpt lat="36.16708549228675" lon="140.13053406021444"><ele>445</ele><time>2025-11-24T02:58:29Z</time></trkpt>
<trkpt lat="36.1667726178952" lon="140.13026943154028"><ele>441</ele><time>2025-11-24T02:58:57Z</time></trkpt>
<trkpt lat="36.16657870677234" lon="140.13011942312554"><ele>437</ele><time>2025-11-24T02:59:22Z</time></trkpt>
<trkpt lat="36.16660277171145" lon="140.1302827447405"><ele>434</ele><time>2025-11-24T02:59:54Z</time></trkpt>
<trkpt lat="36.166863529493185" lon="140.13005078931408"><ele>443</ele><time>2025-11-24T03:02:22Z</time></trkpt>
<trkpt lat="36.16712526910773" lon="140.1298773933559"><ele>447</ele><time>2025-11-24T03:03:10Z</time></trkpt>
<trkpt lat="36.167272469582265" lon="140.12977777006046"><ele>450</ele><time>2025-11-24T03:03:37Z</time></trkpt>
<trkpt lat="36.167442278435566" lon="140.1298822319772"><ele>463</ele><time>2025-11-24T03:04:05Z</time></trkpt>
<trkpt lat="36.16754460232431" lon="140.13003812309557"><ele>460</ele><time>2025-11-24T03:04:33Z</time></trkpt>
<trkpt lat="36.167627669134376" lon="140.12993858841688"><ele>458</ele><time>2025-11-24T03:06:28Z</time></trkpt>
<trkpt lat="36.16744193729186" lon="140.12976853655343"><ele>453</ele><time>2025-11-24T03:48:40Z</time></trkpt>
<trkpt lat="36.167214439402656" lon="140.12992019151548"><ele>455</ele><time>2025-11-24T03:49:11Z</time></trkpt>
<trkpt lat="36.167286873435295" lon="140.12971273492641"><ele>452</ele><time>2025-11-24T03:50:40Z</time></trkpt>
<trkpt lat="36.167020507175636" lon="140.12993439116818"><ele>449</ele><time>2025-11-24T03:51:06Z</time></trkpt>
<trkpt lat="36.16680979983673" lon="140.1299540345753"><ele>437</ele><time>2025-11-24T03:51:53Z</time></trkpt>
<trkpt lat="36.16662380073844" lon="140.13018502571637"><ele>436</ele><time>2025-11-24T03:52:19Z</time></trkpt>
<trkpt lat="36.16652227248798" lon="140.13033242161242"><ele>434</ele><time>2025-11-24T03:53:15Z</time></trkpt>
<trkpt lat="36.166535198096824" lon="140.13018171244713"><ele>435</ele><time>2025-11-24T03:53:52Z</time></trkpt>
<trkpt lat="36.16650835531589" lon="140.13033557827785"><ele>433</ele><time>2025-11-24T03:55:29Z</time></trkpt>
<trkpt lat="36.16621179253389" lon="140.13026784114317"><ele>433</ele><time>2025-11-24T03:55:57Z</time></trkpt>
<trkpt lat="36.16586148185308" lon="140.1301499162809"><ele>429</ele><time>2025-11-24T03:56:23Z</time></trkpt>
<trkpt lat="36.16554405272697" lon="140.13001385019797"><ele>425</ele><time>2025-11-24T03:56:50Z</time></trkpt>
<trkpt lat="36.165304832704514" lon="140.13030507230766"><ele>417</ele><time>2025-11-24T03:57:14Z</time></trkpt>
<trkpt lat="36.16502833577837" lon="140.13056914340157"><ele>413</ele><time>2025-11-24T03:57:40Z</time></trkpt>
<trkpt lat="36.164901750604095" lon="140.13092325334574"><ele>413</ele><time>2025-11-24T03:58:09Z</time></trkpt>
<trkpt lat="36.16472868169633" lon="140.13118374447"><ele>409</ele><time>2025-11-24T03:58:49Z</time></trkpt>
<trkpt lat="36.16439211448254" lon="140.13133897721028"><ele>404</ele><time>2025-11-24T03:59:16Z</time></trkpt>
<trkpt lat="36.164077441359225" lon="140.131431068661"><ele>400</ele><time>2025-11-24T03:59:42Z</time></trkpt>
<trkpt lat="36.16378003420098" lon="140.13151690427074"><ele>396</ele><time>2025-11-24T04:00:08Z</time></trkpt>
<trkpt lat="36.163593530375444" lon="140.13181774443333"><ele>386</ele><time>2025-11-24T04:00:34Z</time></trkpt>
<trkpt lat="36.16379098658411" lon="140.13220378475768"><ele>381</ele><time>2025-11-24T04:01:00Z</time></trkpt>
<trkpt lat="36.163904749455966" lon="140.1325774085194"><ele>379</ele><time>2025-11-24T04:01:27Z</time></trkpt>
<trkpt lat="36.163791592441996" lon="140.13298199296196"><ele>373</ele><time>2025-11-24T04:01:54Z</time></trkpt>
<trkpt lat="36.16367530887114" lon="140.13333734844772"><ele>361</ele><time>2025-11-24T04:02:20Z</time></trkpt>
<trkpt lat="36.163513449201204" lon="140.13368672416865"><ele>353</ele><time>2025-11-24T04:02:45Z</time></trkpt>
<trkpt lat="36.16345719896411" lon="140.13409804351951"><ele>350</ele><time>2025-11-24T04:03:13Z</time></trkpt>
<trkpt lat="36.163481083234345" lon="140.13448945746202"><ele>344</ele><time>2025-11-24T04:03:42Z</time></trkpt>
<trkpt lat="36.16334302839189" lon="140.1348678256343"><ele>333</ele><time>2025-11-24T04:04:08Z</time></trkpt>
<trkpt lat="36.163212522894725" lon="140.13527620704969"><ele>328</ele><time>2025-11-24T04:04:34Z</time></trkpt>
<trkpt lat="36.163118115963115" lon="140.1355537835619"><ele>322</ele><time>2025-11-24T04:05:00Z</time></trkpt>
<trkpt lat="36.162834404658405" lon="140.13575004763476"><ele>314</ele><time>2025-11-24T04:05:32Z</time></trkpt>
<trkpt lat="36.16301731079874" lon="140.13599944424053"><ele>317</ele><time>2025-11-24T04:06:06Z</time></trkpt>
<trkpt lat="36.16335623652581" lon="140.1359696080926"><ele>322</ele><time>2025-11-24T04:06:34Z</time></trkpt>
<trkpt lat="36.16364070705005" lon="140.13607119086421"><ele>323</ele><time>2025-11-24T04:07:00Z</time></trkpt>
<trkpt lat="36.16390805686973" lon="140.13634523610733"><ele>315</ele><time>2025-11-24T04:07:27Z</time></trkpt>
<trkpt lat="36.16425182055499" lon="140.13653251230306"><ele>309</ele><time>2025-11-24T04:07:55Z</time></trkpt>
<trkpt lat="36.16456665309853" lon="140.13662467646242"><ele>302</ele><time>2025-11-24T04:08:19Z</time></trkpt>
<trkpt lat="36.164860156970995" lon="140.1364348215494"><ele>293</ele><time>2025-11-24T04:08:44Z</time></trkpt>
<trkpt lat="36.164531232281604" lon="140.13616476288453"><ele>296</ele><time>2025-11-24T04:09:13Z</time></trkpt>
<trkpt lat="36.16468747492775" lon="140.13594854318757"><ele>301</ele><time>2025-11-24T04:09:40Z</time></trkpt>
<trkpt lat="36.16485955485122" lon="140.13567641314012"><ele>302</ele><time>2025-11-24T04:10:08Z</time></trkpt>
<trkpt lat="36.165131226438625" lon="140.13546284624795"><ele>297</ele><time>2025-11-24T04:10:34Z</time></trkpt>
<trkpt lat="36.16539015555981" lon="140.135126646515"><ele>295</ele><time>2025-11-24T04:10:59Z</time></trkpt>
<trkpt lat="36.16523576375066" lon="140.13544558523589"><ele>293</ele><time>2025-11-24T04:11:31Z</time></trkpt>
<trkpt lat="36.16542114025362" lon="140.13567617971938"><ele>289</ele><time>2025-11-24T04:11:57Z</time></trkpt>
<trkpt lat="36.16561111187731" lon="140.1358492238334"><ele>286</ele><time>2025-11-24T04:12:39Z</time></trkpt>
<trkpt lat="36.165759378047035" lon="140.13612304993765"><ele>279</ele><time>2025-11-24T04:13:12Z</time></trkpt>
<trkpt lat="36.16582355503089" lon="140.13657885287634"><ele>273</ele><time>2025-11-24T04:13:54Z</time></trkpt>
<trkpt lat="36.166027891530405" lon="140.13687161188767"><ele>275</ele><time>2025-11-24T04:14:20Z</time></trkpt>
<trkpt lat="36.16626399470505" lon="140.1370428052608"><ele>276</ele><time>2025-11-24T04:14:43Z</time></trkpt>
<trkpt lat="36.16660014332045" lon="140.13721395207725"><ele>274</ele><time>2025-11-24T04:15:12Z</time></trkpt>
<trkpt lat="36.1669149126364" lon="140.13732333490205"><ele>273</ele><time>2025-11-24T04:15:38Z</time></trkpt>
<trkpt lat="36.16697043560662" lon="140.13765549475923"><ele>277</ele><time>2025-11-24T04:16:11Z</time></trkpt>
<trkpt lat="36.16718705575843" lon="140.13796898342662"><ele>272</ele><time>2025-11-24T04:16:35Z</time></trkpt>
<trkpt lat="36.16746471545162" lon="140.13810425884444"><ele>273</ele><time>2025-11-24T04:16:59Z</time></trkpt>
<trkpt lat="36.16772757194457" lon="140.13820919008526"><ele>279</ele><time>2025-11-24T04:17:28Z</time></trkpt>
<trkpt lat="36.16799515961318" lon="140.1383289489822"><ele>274</ele><time>2025-11-24T04:17:58Z</time></trkpt>
<trkpt lat="36.167998516210424" lon="140.13863507263295"><ele>270</ele><time>2025-11-24T04:18:37Z</time></trkpt>
<trkpt lat="36.168119115838046" lon="140.13890705401602"><ele>264</ele><time>2025-11-24T04:19:08Z</time></trkpt>
<trkpt lat="36.168245168348335" lon="140.1389879328343"><ele>260</ele><time>2025-11-24T04:19:43Z</time></trkpt>
<trkpt lat="36.16804483843075" lon="140.1392898642729"><ele>257</ele><time>2025-11-24T04:20:10Z</time></trkpt>
<trkpt lat="36.167928138207046" lon="140.1396135190611"><ele>252</ele><time>2025-11-24T04:20:39Z</time></trkpt>
<trkpt lat="36.16788297749385" lon="140.13995051915947"><ele>238</ele><time>2025-11-24T04:21:03Z</time></trkpt>
<trkpt lat="36.16773769671194" lon="140.14023715370183"><ele>224</ele><time>2025-11-24T04:21:31Z</time></trkpt>
<trkpt lat="36.16756225617119" lon="140.14035014543754"><ele>216</ele><time>2025-11-24T04:22:03Z</time></trkpt>
<trkpt lat="36.16735554403898" lon="140.14026510392682"><ele>211</ele><time>2025-11-24T04:23:29Z</time></trkpt>
<trkpt lat="36.16709957700038" lon="140.14016044019962"><ele>209</ele><time>2025-11-24T04:23:57Z</time></trkpt>
<trkpt lat="36.16686567820083" lon="140.1401493471332"><ele>205</ele><time>2025-11-24T04:24:28Z</time></trkpt>
<trkpt lat="36.16657599618265" lon="140.140262459235"><ele>198</ele><time>2025-11-24T04:24:54Z</time></trkpt>
<trkpt lat="36.16623904528884" lon="140.14036275522326"><ele>193</ele><time>2025-11-24T04:25:29Z</time></trkpt>
<trkpt lat="36.16589153396694" lon="140.14069480233496"><ele>176</ele><time>2025-11-24T04:25:57Z</time></trkpt>
<trkpt lat="36.165852257679845" lon="140.14085998016398"><ele>170</ele><time>2025-11-24T04:27:08Z</time></trkpt>
<trkpt lat="36.165725066556696" lon="140.14123818408797"><ele>158</ele><time>2025-11-24T04:27:43Z</time></trkpt>
<trkpt lat="36.16547078250592" lon="140.14149323641308"><ele>152</ele><time>2025-11-24T04:28:09Z</time></trkpt>
<trkpt lat="36.165197785053444" lon="140.1417377770213"><ele>144</ele><time>2025-11-24T04:28:35Z</time></trkpt>
<trkpt lat="36.16489207360339" lon="140.14191202793478"><ele>139</ele><time>2025-11-24T04:29:01Z</time></trkpt>
<trkpt lat="36.16465996576936" lon="140.14226746158187"><ele>131</ele><time>2025-11-24T04:29:27Z</time></trkpt>
<trkpt lat="36.16466058993162" lon="140.14253259386984"><ele>131</ele><time>2025-11-24T04:29:53Z</time></trkpt>
<trkpt lat="36.16460390744809" lon="140.14286575541263"><ele>128</ele><time>2025-11-24T04:30:19Z</time></trkpt>
<trkpt lat="36.16466070313491" lon="140.14314987524418"><ele>125</ele><time>2025-11-24T04:30:47Z</time></trkpt>
<trkpt lat="36.16466733580219" lon="140.14347049662172"><ele>130</ele><time>2025-11-24T04:31:21Z</time></trkpt>
<trkpt lat="36.164658678721" lon="140.14378513446204"><ele>135</ele><time>2025-11-24T04:31:58Z</time></trkpt>
<trkpt lat="36.164685300404344" lon="140.14417296041768"><ele>134</ele><time>2025-11-24T04:32:26Z</time></trkpt>
<trkpt lat="36.16463441031358" lon="140.14453145310995"><ele>135</ele><time>2025-11-24T04:32:55Z</time></trkpt>
<trkpt lat="36.16443836681618" lon="140.1448097322868"><ele>124</ele><time>2025-11-24T04:33:26Z</time></trkpt>
<trkpt lat="36.16418995333947" lon="140.14504722323036"><ele>122</ele><time>2025-11-24T04:33:54Z</time></trkpt>
<trkpt lat="36.164004150629076" lon="140.1454146392068"><ele>121</ele><time>2025-11-24T04:34:21Z</time></trkpt>
<trkpt lat="36.164013915379975" lon="140.14585223080508"><ele>116</ele><time>2025-11-24T04:34:49Z</time></trkpt>
<trkpt lat="36.163939290287004" lon="140.14619392806958"><ele>124</ele><time>2025-11-24T04:35:16Z</time></trkpt>
<trkpt lat="36.16387569462025" lon="140.14658702110012"><ele>121</ele><time>2025-11-24T04:35:44Z</time></trkpt>
<trkpt lat="36.163864729016794" lon="140.14697986764236"><ele>120</ele><time>2025-11-24T04:36:10Z</time></trkpt>
<trkpt lat="36.16386637191513" lon="140.14727883021143"><ele>122</ele><time>2025-11-24T04:36:36Z</time></trkpt>
<trkpt lat="36.16404679251976" lon="140.1476330568781"><ele>125</ele><time>2025-11-24T04:37:04Z</time></trkpt>
<trkpt lat="36.16430047868088" lon="140.14763672043506"><ele>129</ele><time>2025-11-24T04:37:37Z</time></trkpt>
<trkpt lat="36.16459643927745" lon="140.1477358725569"><ele>132</ele><time>2025-11-24T04:38:05Z</time></trkpt>
<trkpt lat="36.164954772613214" lon="140.1477311614761"><ele>139</ele><time>2025-11-24T04:38:33Z</time></trkpt>
<trkpt lat="36.16521740693341" lon="140.14775437605093"><ele>141</ele><time>2025-11-24T04:39:00Z</time></trkpt>
<trkpt lat="36.16546059533036" lon="140.14791134944122"><ele>141</ele><time>2025-11-24T04:39:29Z</time></trkpt>
<trkpt lat="36.165254074962895" lon="140.14816695242098"><ele>136</ele><time>2025-11-24T04:40:00Z</time></trkpt>
<trkpt lat="36.165075737236045" lon="140.1484971289494"><ele>132</ele><time>2025-11-24T04:40:28Z</time></trkpt>
<trkpt lat="36.16506501487693" lon="140.1488983654896"><ele>128</ele><time>2025-11-24T04:40:53Z</time></trkpt>
<trkpt lat="36.16506774427597" lon="140.14931313710514"><ele>125</ele><time>2025-11-24T04:41:19Z</time></trkpt>
<trkpt lat="36.165273449044605" lon="140.14953016096743"><ele>132</ele><time>2025-11-24T04:41:46Z</time></trkpt>
<trkpt lat="36.16554274441418" lon="140.1494850543687"><ele>140</ele><time>2025-11-24T04:42:12Z</time></trkpt>
<trkpt lat="36.165843828504634" lon="140.14943703514749"><ele>149</ele><time>2025-11-24T04:42:40Z</time></trkpt>
<trkpt lat="36.16563597484103" lon="140.14973912648983"><ele>147</ele><time>2025-11-24T04:43:37Z</time></trkpt>
<trkpt lat="36.16556060751988" lon="140.1501424085236"><ele>140</ele><time>2025-11-24T04:44:05Z</time></trkpt>
<trkpt lat="36.1655892660248" lon="140.15043110715746"><ele>140</ele><time>2025-11-24T04:44:39Z</time></trkpt>
<trkpt lat="36.16553839867229" lon="140.1507299820708"><ele>140</ele><time>2025-11-24T04:45:12Z</time></trkpt>
<trkpt lat="36.16545668440929" lon="140.15103046864547"><ele>143</ele><time>2025-11-24T04:45:46Z</time></trkpt>
<trkpt lat="36.16542684539039" lon="140.15129275630605"><ele>148</ele><time>2025-11-24T04:46:14Z</time></trkpt>
<trkpt lat="36.16535468814438" lon="140.15159239833253"><ele>150</ele><time>2025-11-24T04:46:43Z</time></trkpt>
<trkpt lat="36.16542830235721" lon="140.15186630769506"><ele>161</ele><time>2025-11-24T04:47:18Z</time></trkpt>
<trkpt lat="36.16533903678043" lon="140.1521577164272"><ele>162</ele><time>2025-11-24T04:47:47Z</time></trkpt>
<trkpt lat="36.16543361366377" lon="140.15227530476753"><ele>166</ele><time>2025-11-24T04:48:45Z</time></trkpt>
<trkpt lat="36.16524211178166" lon="140.1525224642847"><ele>163</ele><time>2025-11-24T04:49:54Z</time></trkpt>
<trkpt lat="36.16519472680372" lon="140.15285161756975"><ele>160</ele><time>2025-11-24T04:50:18Z</time></trkpt>
<trkpt lat="36.16512778252907" lon="140.15318263928773"><ele>157</ele><time>2025-11-24T04:50:47Z</time></trkpt>
<trkpt lat="36.16517256387263" lon="140.1534525428289"><ele>150</ele><time>2025-11-24T04:51:21Z</time></trkpt>
<trkpt lat="36.165070814781494" lon="140.15375083929325"><ele>145</ele><time>2025-11-24T04:51:53Z</time></trkpt>
<trkpt lat="36.16501614425158" lon="140.15405954492522"><ele>133</ele><time>2025-11-24T04:52:47Z</time></trkpt>
<trkpt lat="36.16488384396236" lon="140.15433843978914"><ele>120</ele><time>2025-11-24T04:53:16Z</time></trkpt>
<trkpt lat="36.16517546248131" lon="140.15440658308492"><ele>119</ele><time>2025-11-24T04:53:43Z</time></trkpt>
<trkpt lat="36.16547386687594" lon="140.1544107810559"><ele>117</ele><time>2025-11-24T04:54:10Z</time></trkpt>
<trkpt lat="36.16576900356789" lon="140.15433906868236"><ele>115</ele><time>2025-11-24T04:55:03Z</time></trkpt>
<trkpt lat="36.165936478610334" lon="140.15419141124258"><ele>119</ele><time>2025-11-24T04:55:33Z</time></trkpt>
<trkpt lat="36.16564966841888" lon="140.15447200188171"><ele>118</ele><time>2025-11-24T04:56:16Z</time></trkpt>
<trkpt lat="36.16553937578641" lon="140.15481824159932"><ele>109</ele><time>2025-11-24T04:56:39Z</time></trkpt>
<trkpt lat="36.16539966238077" lon="140.15525265696365"><ele>98</ele><time>2025-11-24T04:57:04Z</time></trkpt>
<trkpt lat="36.165143572238115" lon="140.15531879895264"><ele>92</ele><time>2025-11-24T04:57:31Z</time></trkpt>
<trkpt lat="36.16487466696707" lon="140.1555211460895"><ele>85</ele><time>2025-11-24T04:57:57Z</time></trkpt>
<trkpt lat="36.16470667300818" lon="140.15577021429527"><ele>85</ele><time>2025-11-24T04:58:25Z</time></trkpt>
<trkpt lat="36.16446811291" lon="140.15605391677707"><ele>82</ele><time>2025-11-24T04:58:50Z</time></trkpt>
<trkpt lat="36.16449365083149" lon="140.15642683008468"><ele>84</ele><time>2025-11-24T04:59:14Z</time></trkpt>
<trkpt lat="36.16467025858494" lon="140.1567074347727"><ele>94</ele><time>2025-11-24T04:59:41Z</time></trkpt>
<trkpt lat="36.164889046283406" lon="140.15695537299172"><ele>97</ele><time>2025-11-24T05:00:07Z</time></trkpt>
<trkpt lat="36.165138214812885" lon="140.1571560235423"><ele>100</ele><time>2025-11-24T05:00:30Z</time></trkpt>
<trkpt lat="36.1651522766852" lon="140.1574389908492"><ele>100</ele><time>2025-11-24T05:00:55Z</time></trkpt>
<trkpt lat="36.165225687017525" lon="140.15763418243554"><ele>94</ele><time>2025-11-24T05:01:30Z</time></trkpt>
<trkpt lat="36.164993137733596" lon="140.1577649498791"><ele>85</ele><time>2025-11-24T05:02:11Z</time></trkpt>
<trkpt lat="36.16502826594428" lon="140.15802623489722"><ele>77</ele><time>2025-11-24T05:02:39Z</time></trkpt>
<trkpt lat="36.1650067252414" lon="140.15834756332475"><ele>70</ele><time>2025-11-24T05:03:09Z</time></trkpt>
<trkpt lat="36.16501975387913" lon="140.1586174332617"><ele>59</ele><time>2025-11-24T05:03:37Z</time></trkpt>
<trkpt lat="36.16531797768941" lon="140.1585344842531"><ele>59</ele><time>2025-11-24T05:04:27Z</time></trkpt>
<trkpt lat="36.165573856985695" lon="140.1587008348369"><ele>59</ele><time>2025-11-24T05:04:55Z</time></trkpt>
<trkpt lat="36.16587281059087" lon="140.15881241687617"><ele>59</ele><time>2025-11-24T05:05:21Z</time></trkpt>
<trkpt lat="36.16599421725322" lon="140.15913234652137"><ele>60</ele><time>2025-11-24T05:05:47Z</time></trkpt>
<trkpt lat="36.16611285302898" lon="140.15945473377542"><ele>58</ele><time>2025-11-24T05:06:15Z</time></trkpt>
<trkpt lat="36.1660476096231" lon="140.15976497586794"><ele>56</ele><time>2025-11-24T05:06:42Z</time></trkpt>
<trkpt lat="36.16574734293347" lon="140.1598130234636"><ele>55</ele><time>2025-11-24T05:07:08Z</time></trkpt>
<trkpt lat="36.165456139928935" lon="140.15972815157758"><ele>54</ele><time>2025-11-24T05:07:34Z</time></trkpt>
<trkpt lat="36.16517927598469" lon="140.1595158765051"><ele>50</ele><time>2025-11-24T05:08:01Z</time></trkpt>
<trkpt lat="36.164886645353626" lon="140.1595456653785"><ele>51</ele><time>2025-11-24T05:08:27Z</time></trkpt>
<trkpt lat="36.164758827907434" lon="140.15987958543292"><ele>49</ele><time>2025-11-24T05:08:54Z</time></trkpt>
</trkseg>
</trk>
</gpx>