<?xml version="1.0" encoding="UTF-8"?>
<gpx xmlns:xsi="http://www.w3.org/2001/XMLSchema-instance" xmlns="http://www.topografix.com/GPX/1/1" xsi:schemaLocation="http://www.topografix.com/GPX/1/1 http://www.topografix.com/GPX/1/1/gpx.xsd" creator="Yamareco iOS 7.28 - www.yamareco.com">
<trk><name>track</name><number>1</number><trkseg>
<trkpt lat="37.028511394781226" lon="139.39138904226886"><ele>918</ele><time>2025-04-11T23:21:16Z</time></trkpt>
<trkpt lat="37.02849372717356" lon="139.39117340336202"><ele>941</ele><time>2025-04-11T23:22:34Z</time></trkpt>
<trkpt lat="37.02854932372616" lon="139.3908780163839"><ele>943</ele><time>2025-04-11T23:23:07Z</time></trkpt>
<trkpt lat="37.028470370337175" lon="139.39058425745668"><ele>950</ele><time>2025-04-11T23:23:35Z</time></trkpt>
<trkpt lat="37.02850969039819" lon="139.39026775600152"><ele>959</ele><time>2025-04-11T23:24:08Z</time></trkpt>
<trkpt lat="37.02844676808884" lon="139.3900976586929"><ele>962</ele><time>2025-04-11T23:24:41Z</time></trkpt>
<trkpt lat="37.028395335295365" lon="139.3897726322532"><ele>960</ele><time>2025-04-11T23:25:11Z</time></trkpt>
<trkpt lat="37.02828182450199" lon="139.38946601654808"><ele>965</ele><time>2025-04-11T23:25:38Z</time></trkpt>
<trkpt lat="37.0282306950265" lon="139.38935327876135"><ele>968</ele><time>2025-04-11T23:26:07Z</time></trkpt>
<trkpt lat="37.02825205311202" lon="139.38922172811854"><ele>969</ele><time>2025-04-11T23:26:33Z</time></trkpt>
<trkpt lat="37.02830247340351" lon="139.388872896177"><ele>973</ele><time>2025-04-11T23:27:21Z</time></trkpt>
<trkpt lat="37.02837675353532" lon="139.38859026183306"><ele>977</ele><time>2025-04-11T23:27:53Z</time></trkpt>
<trkpt lat="37.028446123832715" lon="139.38831359920184"><ele>980</ele><time>2025-04-11T23:28:21Z</time></trkpt>
<trkpt lat="37.02849706448739" lon="139.3879686332705"><ele>980</ele><time>2025-04-11T23:28:51Z</time></trkpt>
<trkpt lat="37.02852877742281" lon="139.3876648188799"><ele>986</ele><time>2025-04-11T23:29:24Z</time></trkpt>
<trkpt lat="37.02858689467356" lon="139.3873014077462"><ele>988</ele><time>2025-04-11T23:29:58Z</time></trkpt>
<trkpt lat="37.02854528190279" lon="139.38705209806858"><ele>994</ele><time>2025-04-11T23:30:32Z</time></trkpt>
<trkpt lat="37.02858508883416" lon="139.38659984237955"><ele>999</ele><time>2025-04-11T23:31:10Z</time></trkpt>
<trkpt lat="37.0284869469483" lon="139.38620645642254"><ele>1003</ele><time>2025-04-11T23:31:55Z</time></trkpt>
<trkpt lat="37.028312541259915" lon="139.38599613581331"><ele>1002</ele><time>2025-04-11T23:32:45Z</time></trkpt>
<trkpt lat="37.028410059002795" lon="139.38574798650723"><ele>1006</ele><time>2025-04-11T23:33:17Z</time></trkpt>
<trkpt lat="37.02828464338561" lon="139.3855942325775"><ele>1007</ele><time>2025-04-11T23:33:42Z</time></trkpt>
<trkpt lat="37.02839213322163" lon="139.38541033361295"><ele>1010</ele><time>2025-04-11T23:34:07Z</time></trkpt>
<trkpt lat="37.02843684292927" lon="139.38514081143936"><ele>1018</ele><time>2025-04-11T23:34:51Z</time></trkpt>
<trkpt lat="37.02839661245222" lon="139.38480288005246"><ele>1024</ele><time>2025-04-11T23:35:25Z</time></trkpt>
<trkpt lat="37.028409431055266" lon="139.3849442013483"><ele>1023</ele><time>2025-04-11T23:36:01Z</time></trkpt>
<trkpt lat="37.028690082237596" lon="139.38484584451024"><ele>1033</ele><time>2025-04-11T23:36:34Z</time></trkpt>
<trkpt lat="37.028927171304645" lon="139.38453067004227"><ele>1048</ele><time>2025-04-11T23:37:05Z</time></trkpt>
<trkpt lat="37.02888645454074" lon="139.38424198655625"><ele>1053</ele><time>2025-04-11T23:37:34Z</time></trkpt>
<trkpt lat="37.02888660708537" lon="139.3840855706429"><ele>1056</ele><time>2025-04-11T23:38:09Z</time></trkpt>
<trkpt lat="37.028940551312395" lon="139.38429865011446"><ele>1055</ele><time>2025-04-11T23:38:50Z</time></trkpt>
<trkpt lat="37.028841326153106" lon="139.38406628599327"><ele>1057</ele><time>2025-04-11T23:39:20Z</time></trkpt>
<trkpt lat="37.02898572399733" lon="139.38405352424766"><ele>1059</ele><time>2025-04-11T23:40:37Z</time></trkpt>
<trkpt lat="37.02910524058688" lon="139.38373017764738"><ele>1065</ele><time>2025-04-11T23:41:04Z</time></trkpt>
<trkpt lat="37.0292403449634" lon="139.38353149173565"><ele>1072</ele><time>2025-04-11T23:41:53Z</time></trkpt>
<trkpt lat="37.02930860072606" lon="139.38338652503185"><ele>1077</ele><time>2025-04-11T23:42:26Z</time></trkpt>
<trkpt lat="37.02941944207416" lon="139.38303823319285"><ele>1082</ele><time>2025-04-11T23:43:43Z</time></trkpt>
<trkpt lat="37.02934134155628" lon="139.38280777555283"><ele>1091</ele><time>2025-04-11T23:44:48Z</time></trkpt>
<trkpt lat="37.02947612581178" lon="139.382865050868"><ele>1089</ele><time>2025-04-11T23:45:23Z</time></trkpt>
<trkpt lat="37.02966576863143" lon="139.3827261402695"><ele>1092</ele><time>2025-04-11T23:46:20Z</time></trkpt>
<trkpt lat="37.02952379757068" lon="139.38238537957162"><ele>1097</ele><time>2025-04-11T23:46:47Z</time></trkpt>
<trkpt lat="37.02963638239552" lon="139.38243842538154"><ele>1099</ele><time>2025-04-11T23:47:30Z</time></trkpt>
<trkpt lat="37.02961036014437" lon="139.38228929774291"><ele>1106</ele><time>2025-04-11T23:48:08Z</time></trkpt>
<trkpt lat="37.029784436159375" lon="139.38219957562694"><ele>1112</ele><time>2025-04-11T23:49:05Z</time></trkpt>
<trkpt lat="37.029836168539646" lon="139.38206579766043"><ele>1118</ele><time>2025-04-11T23:49:51Z</time></trkpt>
<trkpt lat="37.0296673915452" lon="139.38182516953535"><ele>1125</ele><time>2025-04-11T23:50:23Z</time></trkpt>
<trkpt lat="37.02983250758919" lon="139.3818189570872"><ele>1134</ele><time>2025-04-11T23:52:49Z</time></trkpt>
<trkpt lat="37.02968124948019" lon="139.38173882924065"><ele>1132</ele><time>2025-04-11T23:53:54Z</time></trkpt>
<trkpt lat="37.02982344733555" lon="139.38180507418363"><ele>1132</ele><time>2025-04-11T23:55:35Z</time></trkpt>
<trkpt lat="37.029853028017456" lon="139.381486388828"><ele>1137</ele><time>2025-04-11T23:56:33Z</time></trkpt>
<trkpt lat="37.02973252156824" lon="139.38133012451095"><ele>1156</ele><time>2025-04-11T23:57:11Z</time></trkpt>
<trkpt lat="37.02958982866177" lon="139.38123647909472"><ele>1165</ele><time>2025-04-11T23:57:56Z</time></trkpt>
<trkpt lat="37.02949813110196" lon="139.38100884276915"><ele>1162</ele><time>2025-04-11T23:59:24Z</time></trkpt>
<trkpt lat="37.0296137597011" lon="139.38088378169235"><ele>1174</ele><time>2025-04-12T00:01:28Z</time></trkpt>
<trkpt lat="37.029683484140534" lon="139.38075816656723"><ele>1186</ele><time>2025-04-12T00:02:34Z</time></trkpt>
<trkpt lat="37.02961246170917" lon="139.380480879002"><ele>1187</ele><time>2025-04-12T00:03:04Z</time></trkpt>
<trkpt lat="37.0294340382904" lon="139.38040032115546"><ele>1200</ele><time>2025-04-12T00:03:59Z</time></trkpt>
<trkpt lat="37.02937752201348" lon="139.38026138569236"><ele>1204</ele><time>2025-04-12T00:04:32Z</time></trkpt>
<trkpt lat="37.02924283639092" lon="139.38034537189924"><ele>1211</ele><time>2025-04-12T00:05:17Z</time></trkpt>
<trkpt lat="37.029079266024596" lon="139.38039589885145"><ele>1217</ele><time>2025-04-12T00:06:12Z</time></trkpt>
<trkpt lat="37.028988439017816" lon="139.38063357014653"><ele>1217</ele><time>2025-04-12T00:06:42Z</time></trkpt>
<trkpt lat="37.02898895773172" lon="139.38045598162887"><ele>1220</ele><time>2025-04-12T00:08:02Z</time></trkpt>
<trkpt lat="37.02894712761411" lon="139.3802893149489"><ele>1223</ele><time>2025-04-12T00:09:03Z</time></trkpt>
<trkpt lat="37.028823371284936" lon="139.3801170761537"><ele>1233</ele><time>2025-04-12T00:10:31Z</time></trkpt>
<trkpt lat="37.028753125864554" lon="139.37993352636133"><ele>1243</ele><time>2025-04-12T00:11:23Z</time></trkpt>
<trkpt lat="37.02876142948449" lon="139.3797980301675"><ele>1248</ele><time>2025-04-12T00:12:14Z</time></trkpt>
<trkpt lat="37.028866876158396" lon="139.37972614064594"><ele>1249</ele><time>2025-04-12T00:12:54Z</time></trkpt>
<trkpt lat="37.02898405695588" lon="139.3795463561237"><ele>1257</ele><time>2025-04-12T00:15:51Z</time></trkpt>
<trkpt lat="37.02907118480246" lon="139.37938247655487"><ele>1261</ele><time>2025-04-12T00:16:25Z</time></trkpt>
<trkpt lat="37.02921631297479" lon="139.37934480936204"><ele>1265</ele><time>2025-04-12T00:17:20Z</time></trkpt>
<trkpt lat="37.029291722463626" lon="139.37925492692685"><ele>1273</ele><time>2025-04-12T00:18:20Z</time></trkpt>
<trkpt lat="37.029395926659674" lon="139.37922303530402"><ele>1274</ele><time>2025-04-12T00:22:09Z</time></trkpt>
<trkpt lat="37.02941596978373" lon="139.3790900269913"><ele>1280</ele><time>2025-04-12T00:22:54Z</time></trkpt>
<trkpt lat="37.029579892655846" lon="139.3791545181502"><ele>1285</ele><time>2025-04-12T00:24:04Z</time></trkpt>
<trkpt lat="37.02971154713248" lon="139.37897106173128"><ele>1292</ele><time>2025-04-12T00:24:49Z</time></trkpt>
<trkpt lat="37.029817589718945" lon="139.37893251762196"><ele>1304</ele><time>2025-04-12T00:30:31Z</time></trkpt>
<trkpt lat="37.029889242013624" lon="139.37879569238865"><ele>1305</ele><time>2025-04-12T00:31:12Z</time></trkpt>
<trkpt lat="37.03000080491897" lon="139.3786863366279"><ele>1311</ele><time>2025-04-12T00:31:53Z</time></trkpt>
<trkpt lat="37.03014144139518" lon="139.37857749661845"><ele>1319</ele><time>2025-04-12T00:32:36Z</time></trkpt>
<trkpt lat="37.03021577472401" lon="139.3783751544681"><ele>1324</ele><time>2025-04-12T00:33:11Z</time></trkpt>
<trkpt lat="37.030296094324335" lon="139.37830289258727"><ele>1332</ele><time>2025-04-12T00:35:09Z</time></trkpt>
<trkpt lat="37.03045634577513" lon="139.37827497125176"><ele>1337</ele><time>2025-04-12T00:37:16Z</time></trkpt>
<trkpt lat="37.03059998084089" lon="139.37830786906062"><ele>1347</ele><time>2025-04-12T00:38:29Z</time></trkpt>
<trkpt lat="37.030766921947325" lon="139.37831689878482"><ele>1353</ele><time>2025-04-12T00:39:52Z</time></trkpt>
<trkpt lat="37.030959150375445" lon="139.37823051379183"><ele>1355</ele><time>2025-04-12T00:41:02Z</time></trkpt>
<trkpt lat="37.03112664258278" lon="139.37819995606836"><ele>1361</ele><time>2025-04-12T00:41:36Z</time></trkpt>
<trkpt lat="37.03126553346335" lon="139.3780623629973"><ele>1367</ele><time>2025-04-12T00:42:16Z</time></trkpt>
<trkpt lat="37.03146102317157" lon="139.3779331179282"><ele>1372</ele><time>2025-04-12T00:42:54Z</time></trkpt>
<trkpt lat="37.03166029425248" lon="139.3779064885991"><ele>1377</ele><time>2025-04-12T00:43:31Z</time></trkpt>
<trkpt lat="37.031718967892616" lon="139.3776424230695"><ele>1383</ele><time>2025-04-12T00:44:11Z</time></trkpt>
<trkpt lat="37.03179032862447" lon="139.37745408189033"><ele>1391</ele><time>2025-04-12T00:44:56Z</time></trkpt>
<trkpt lat="37.03186173757503" lon="139.37731835448983"><ele>1398</ele><time>2025-04-12T00:45:51Z</time></trkpt>
<trkpt lat="37.03203469642499" lon="139.37739319191013"><ele>1403</ele><time>2025-04-12T00:46:42Z</time></trkpt>
<trkpt lat="37.0321775243603" lon="139.37734879555728"><ele>1409</ele><time>2025-04-12T00:47:51Z</time></trkpt>
<trkpt lat="37.032254331999226" lon="139.3772833869965"><ele>1414</ele><time>2025-04-12T00:48:25Z</time></trkpt>
<trkpt lat="37.03222829417323" lon="139.37703295816954"><ele>1417</ele><time>2025-04-12T00:49:00Z</time></trkpt>
<trkpt lat="37.03225365807793" lon="139.37690136979188"><ele>1423</ele><time>2025-04-12T00:49:45Z</time></trkpt>
<trkpt lat="37.03243123429028" lon="139.3769285853305"><ele>1428</ele><time>2025-04-12T00:50:25Z</time></trkpt>
<trkpt lat="37.032530368041684" lon="139.37671916222715"><ele>1436</ele><time>2025-04-12T00:51:04Z</time></trkpt>
<trkpt lat="37.03262120434649" lon="139.3766961317526"><ele>1444</ele><time>2025-04-12T00:53:14Z</time></trkpt>
<trkpt lat="37.03272135202849" lon="139.37652993146452"><ele>1448</ele><time>2025-04-12T01:04:45Z</time></trkpt>
<trkpt lat="37.03278194030625" lon="139.37637685371513"><ele>1458</ele><time>2025-04-12T01:05:28Z</time></trkpt>
<trkpt lat="37.03280665289883" lon="139.37622962384216"><ele>1462</ele><time>2025-04-12T01:06:57Z</time></trkpt>
<trkpt lat="37.032982897764356" lon="139.37635486171752"><ele>1469</ele><time>2025-04-12T01:07:49Z</time></trkpt>
<trkpt lat="37.03313050202262" lon="139.37637263541532"><ele>1473</ele><time>2025-04-12T01:08:33Z</time></trkpt>
<trkpt lat="37.0333172571994" lon="139.37627384872818"><ele>1476</ele><time>2025-04-12T01:09:08Z</time></trkpt>
<trkpt lat="37.033450461500124" lon="139.37609265966464"><ele>1480</ele><time>2025-04-12T01:09:41Z</time></trkpt>
<trkpt lat="37.03330272082406" lon="139.37589274054517"><ele>1485</ele><time>2025-04-12T01:10:17Z</time></trkpt>
<trkpt lat="37.03321197559152" lon="139.37570418615041"><ele>1493</ele><time>2025-04-12T01:11:35Z</time></trkpt>
<trkpt lat="37.033248500906176" lon="139.37549687735785"><ele>1501</ele><time>2025-04-12T01:12:29Z</time></trkpt>
<trkpt lat="37.03326739318013" lon="139.37523270017786"><ele>1506</ele><time>2025-04-12T01:13:04Z</time></trkpt>
<trkpt lat="37.03330443816861" lon="139.37500127141024"><ele>1512</ele><time>2025-04-12T01:13:39Z</time></trkpt>
<trkpt lat="37.03337516710981" lon="139.37475174755863"><ele>1520</ele><time>2025-04-12T01:14:23Z</time></trkpt>
<trkpt lat="37.033505482513924" lon="139.37455255506768"><ele>1530</ele><time>2025-04-12T01:15:07Z</time></trkpt>
<trkpt lat="37.03358944211007" lon="139.37428637074157"><ele>1531</ele><time>2025-04-12T01:15:41Z</time></trkpt>
<trkpt lat="37.03366861598439" lon="139.37407474209834"><ele>1539</ele><time>2025-04-12T01:16:16Z</time></trkpt>
<trkpt lat="37.033825794078986" lon="139.37400325048085"><ele>1548</ele><time>2025-04-12T01:17:05Z</time></trkpt>
<trkpt lat="37.03388933605933" lon="139.37375921373976"><ele>1554</ele><time>2025-04-12T01:17:46Z</time></trkpt>
<trkpt lat="37.03389909895896" lon="139.37350252783187"><ele>1559</ele><time>2025-04-12T01:18:17Z</time></trkpt>
<trkpt lat="37.033942351838" lon="139.37324340999623"><ele>1562</ele><time>2025-04-12T01:18:50Z</time></trkpt>
<trkpt lat="37.034126273718165" lon="139.37311456995116"><ele>1569</ele><time>2025-04-12T01:19:40Z</time></trkpt>
<trkpt lat="37.03425107940076" lon="139.37292891019027"><ele>1572</ele><time>2025-04-12T01:20:14Z</time></trkpt>
<trkpt lat="37.03434982659842" lon="139.3728103070796"><ele>1578</ele><time>2025-04-12T01:20:47Z</time></trkpt>
<trkpt lat="37.03454426665664" lon="139.37271052026142"><ele>1588</ele><time>2025-04-12T01:21:52Z</time></trkpt>
<trkpt lat="37.03466719532313" lon="139.3726558152133"><ele>1596</ele><time>2025-04-12T01:22:38Z</time></trkpt>
<trkpt lat="37.034824514580265" lon="139.3725672275201"><ele>1598</ele><time>2025-04-12T01:23:30Z</time></trkpt>
<trkpt lat="37.03501260360999" lon="139.37250741711955"><ele>1602</ele><time>2025-04-12T01:23:58Z</time></trkpt>
<trkpt lat="37.035215821278996" lon="139.3724261257795"><ele>1609</ele><time>2025-04-12T01:24:34Z</time></trkpt>
<trkpt lat="37.03536377298415" lon="139.3723046444516"><ele>1614</ele><time>2025-04-12T01:25:16Z</time></trkpt>
<trkpt lat="37.035511761822214" lon="139.3723843704053"><ele>1621</ele><time>2025-04-12T01:26:12Z</time></trkpt>
<trkpt lat="37.03565215665314" lon="139.3723847931624"><ele>1618</ele><time>2025-04-12T01:26:55Z</time></trkpt>
<trkpt lat="37.03569744849498" lon="139.37220035242117"><ele>1626</ele><time>2025-04-12T01:30:01Z</time></trkpt>
<trkpt lat="37.03571237506882" lon="139.37203821908568"><ele>1628</ele><time>2025-04-12T01:30:40Z</time></trkpt>
<trkpt lat="37.03588186718936" lon="139.37198033586398"><ele>1637</ele><time>2025-04-12T01:32:28Z</time></trkpt>
<trkpt lat="37.03606583963823" lon="139.37192111230377"><ele>1642</ele><time>2025-04-12T01:32:58Z</time></trkpt>
<trkpt lat="37.03624854462744" lon="139.37187095443633"><ele>1647</ele><time>2025-04-12T01:33:39Z</time></trkpt>
<trkpt lat="37.03638978843106" lon="139.37191907622164"><ele>1650</ele><time>2025-04-12T01:34:08Z</time></trkpt>
<trkpt lat="37.036588022468" lon="139.37186736261097"><ele>1650</ele><time>2025-04-12T01:34:44Z</time></trkpt>
<trkpt lat="37.03681877232909" lon="139.37185630300814"><ele>1661</ele><time>2025-04-12T01:35:19Z</time></trkpt>
<trkpt lat="37.036982501154206" lon="139.3717586064177"><ele>1666</ele><time>2025-04-12T01:36:04Z</time></trkpt>
<trkpt lat="37.03715968307818" lon="139.3716201495455"><ele>1670</ele><time>2025-04-12T01:36:38Z</time></trkpt>
<trkpt lat="37.03730435173508" lon="139.3714128698252"><ele>1671</ele><time>2025-04-12T01:37:19Z</time></trkpt>
<trkpt lat="37.037405751336486" lon="139.37134055910917"><ele>1675</ele><time>2025-04-12T01:37:51Z</time></trkpt>
<trkpt lat="37.03741292600768" lon="139.37106023302186"><ele>1677</ele><time>2025-04-12T01:38:24Z</time></trkpt>
<trkpt lat="37.03743644283981" lon="139.37075926201962"><ele>1680</ele><time>2025-04-12T01:38:54Z</time></trkpt>
<trkpt lat="37.03747662252668" lon="139.37050087336775"><ele>1685</ele><time>2025-04-12T01:39:26Z</time></trkpt>
<trkpt lat="37.03754349367662" lon="139.3702611791085"><ele>1688</ele><time>2025-04-12T01:40:08Z</time></trkpt>
<trkpt lat="37.03760899108407" lon="139.37004640692197"><ele>1691</ele><time>2025-04-12T01:40:41Z</time></trkpt>
<trkpt lat="37.03770047992757" lon="139.3698545794731"><ele>1696</ele><time>2025-04-12T01:41:19Z</time></trkpt>
<trkpt lat="37.03764810731151" lon="139.3697143270945"><ele>1701</ele><time>2025-04-12T01:42:10Z</time></trkpt>
<trkpt lat="37.03751557557237" lon="139.36962650357466"><ele>1705</ele><time>2025-04-12T01:42:47Z</time></trkpt>
<trkpt lat="37.0375177733562" lon="139.3693508213356"><ele>1709</ele><time>2025-04-12T01:43:18Z</time></trkpt>
<trkpt lat="37.03741369817304" lon="139.36911273325285"><ele>1710</ele><time>2025-04-12T01:43:47Z</time></trkpt>
<trkpt lat="37.03736884975965" lon="139.36886363314827"><ele>1716</ele><time>2025-04-12T01:44:24Z</time></trkpt>
<trkpt lat="37.03735291883548" lon="139.36855463831702"><ele>1716</ele><time>2025-04-12T01:44:57Z</time></trkpt>
<trkpt lat="37.037307171469735" lon="139.36829707184995"><ele>1719</ele><time>2025-04-12T01:45:24Z</time></trkpt>
<trkpt lat="37.03731189923299" lon="139.36795834068838"><ele>1720</ele><time>2025-04-12T01:45:58Z</time></trkpt>
<trkpt lat="37.03744367933667" lon="139.36774885645298"><ele>1726</ele><time>2025-04-12T01:46:27Z</time></trkpt>
<trkpt lat="37.03753255798089" lon="139.36760420495028"><ele>1728</ele><time>2025-04-12T01:46:59Z</time></trkpt>
<trkpt lat="37.03759621643874" lon="139.3673636639458"><ele>1731</ele><time>2025-04-12T01:47:34Z</time></trkpt>
<trkpt lat="37.03774135982657" lon="139.367254987159"><ele>1741</ele><time>2025-04-12T01:48:19Z</time></trkpt>
<trkpt lat="37.037922111169294" lon="139.36722874082255"><ele>1749</ele><time>2025-04-12T01:49:08Z</time></trkpt>
<trkpt lat="37.03797177569551" lon="139.3670416063562"><ele>1752</ele><time>2025-04-12T01:49:45Z</time></trkpt>
<trkpt lat="37.037971008697006" lon="139.36678699276533"><ele>1760</ele><time>2025-04-12T01:50:24Z</time></trkpt>
<trkpt lat="37.03799999580832" lon="139.36657521518566"><ele>1764</ele><time>2025-04-12T01:51:02Z</time></trkpt>
<trkpt lat="37.037916394588095" lon="139.36638356442404"><ele>1769</ele><time>2025-04-12T01:51:47Z</time></trkpt>
<trkpt lat="37.03791761500136" lon="139.36619128331714"><ele>1777</ele><time>2025-04-12T01:52:31Z</time></trkpt>
<trkpt lat="37.037862517413394" lon="139.36604344049672"><ele>1780</ele><time>2025-04-12T01:53:03Z</time></trkpt>
<trkpt lat="37.03796988942641" lon="139.36595886203781"><ele>1787</ele><time>2025-04-12T01:53:35Z</time></trkpt>
<trkpt lat="37.03800909988821" lon="139.36569782407562"><ele>1792</ele><time>2025-04-12T01:54:23Z</time></trkpt>
<trkpt lat="37.03802398750192" lon="139.36549901558288"><ele>1797</ele><time>2025-04-12T01:55:03Z</time></trkpt>
<trkpt lat="37.03800269409173" lon="139.3652745660941"><ele>1801</ele><time>2025-04-12T01:55:36Z</time></trkpt>
<trkpt lat="37.03806950097477" lon="139.36508786008892"><ele>1812</ele><time>2025-04-12T01:56:17Z</time></trkpt>
<trkpt lat="37.038124754628456" lon="139.3648028578139"><ele>1812</ele><time>2025-04-12T01:56:56Z</time></trkpt>
<trkpt lat="37.03811166162455" lon="139.3646256388197"><ele>1813</ele><time>2025-04-12T01:57:26Z</time></trkpt>
<trkpt lat="37.038153031925425" lon="139.36449768613855"><ele>1815</ele><time>2025-04-12T01:58:39Z</time></trkpt>
<trkpt lat="37.03816522209439" lon="139.36423169979818"><ele>1819</ele><time>2025-04-12T01:59:14Z</time></trkpt>
<trkpt lat="37.03818449816404" lon="139.36395851152992"><ele>1823</ele><time>2025-04-12T01:59:50Z</time></trkpt>
<trkpt lat="37.038253388907194" lon="139.36383118580417"><ele>1828</ele><time>2025-04-12T02:00:46Z</time></trkpt>
<trkpt lat="37.03822891694533" lon="139.3635773457014"><ele>1833</ele><time>2025-04-12T02:03:01Z</time></trkpt>
<trkpt lat="37.038265204641846" lon="139.3633130237449"><ele>1837</ele><time>2025-04-12T02:03:38Z</time></trkpt>
<trkpt lat="37.0382371137039" lon="139.36304384762812"><ele>1843</ele><time>2025-04-12T02:04:17Z</time></trkpt>
<trkpt lat="37.03835338260948" lon="139.3628689598584"><ele>1850</ele><time>2025-04-12T02:05:00Z</time></trkpt>
<trkpt lat="37.038408556340734" lon="139.36262962265977"><ele>1855</ele><time>2025-04-12T02:11:49Z</time></trkpt>
<trkpt lat="37.03844053551591" lon="139.36232170010794"><ele>1856</ele><time>2025-04-12T02:12:25Z</time></trkpt>
<trkpt lat="37.03851628317055" lon="139.36209791998704"><ele>1859</ele><time>2025-04-12T02:12:53Z</time></trkpt>
<trkpt lat="37.038581193880006" lon="139.36183620709295"><ele>1867</ele><time>2025-04-12T02:13:36Z</time></trkpt>
<trkpt lat="37.03862981106021" lon="139.3615957297893"><ele>1871</ele><time>2025-04-12T02:14:10Z</time></trkpt>
<trkpt lat="37.03868234109633" lon="139.36136387590733"><ele>1876</ele><time>2025-04-12T02:14:57Z</time></trkpt>
<trkpt lat="37.03877655779077" lon="139.36115742448675"><ele>1881</ele><time>2025-04-12T02:15:37Z</time></trkpt>
<trkpt lat="37.03889025498008" lon="139.3609778788176"><ele>1886</ele><time>2025-04-12T02:16:16Z</time></trkpt>
<trkpt lat="37.038872592099416" lon="139.36076240044846"><ele>1891</ele><time>2025-04-12T02:16:55Z</time></trkpt>
<trkpt lat="37.03894958385259" lon="139.36055851172964"><ele>1898</ele><time>2025-04-12T02:17:44Z</time></trkpt>
<trkpt lat="37.03894174594638" lon="139.36036916709827"><ele>1902</ele><time>2025-04-12T02:18:21Z</time></trkpt>
<trkpt lat="37.038975095149006" lon="139.36017995606454"><ele>1908</ele><time>2025-04-12T02:19:03Z</time></trkpt>
<trkpt lat="37.039093242907114" lon="139.3599612023499"><ele>1913</ele><time>2025-04-12T02:19:39Z</time></trkpt>
<trkpt lat="37.03911779387628" lon="139.3597036214755"><ele>1915</ele><time>2025-04-12T02:20:11Z</time></trkpt>
<trkpt lat="37.039173412657014" lon="139.35953865862365"><ele>1920</ele><time>2025-04-12T02:20:44Z</time></trkpt>
<trkpt lat="37.03923103262919" lon="139.35934902414053"><ele>1925</ele><time>2025-04-12T02:21:32Z</time></trkpt>
<trkpt lat="37.03931361011876" lon="139.35912560230378"><ele>1928</ele><time>2025-04-12T02:22:14Z</time></trkpt>
<trkpt lat="37.03938424357351" lon="139.35893180530468"><ele>1933</ele><time>2025-04-12T02:22:48Z</time></trkpt>
<trkpt lat="37.03951881368529" lon="139.3588054602625"><ele>1940</ele><time>2025-04-12T02:23:35Z</time></trkpt>
<trkpt lat="37.03951264515678" lon="139.35868446304045"><ele>1939</ele><time>2025-04-12T02:25:28Z</time></trkpt>
<trkpt lat="37.03963907097906" lon="139.3585374647865"><ele>1946</ele><time>2025-04-12T02:26:56Z</time></trkpt>
<trkpt lat="37.03977527375235" lon="139.35847084184005"><ele>1952</ele><time>2025-04-12T02:27:42Z</time></trkpt>
<trkpt lat="37.039933077935764" lon="139.35827901066855"><ele>1956</ele><time>2025-04-12T02:28:12Z</time></trkpt>
<trkpt lat="37.04006456861998" lon="139.35811417451703"><ele>1961</ele><time>2025-04-12T02:28:44Z</time></trkpt>
<trkpt lat="37.040096971417455" lon="139.3578863415452"><ele>1969</ele><time>2025-04-12T02:29:18Z</time></trkpt>
<trkpt lat="37.040147742557856" lon="139.35772323634808"><ele>1971</ele><time>2025-04-12T02:29:52Z</time></trkpt>
<trkpt lat="37.04024467399546" lon="139.35748658027802"><ele>1973</ele><time>2025-04-12T02:30:20Z</time></trkpt>
<trkpt lat="37.040340371077974" lon="139.35724151960824"><ele>1975</ele><time>2025-04-12T02:31:01Z</time></trkpt>
<trkpt lat="37.040379258729146" lon="139.35704824603084"><ele>1978</ele><time>2025-04-12T02:31:36Z</time></trkpt>
<trkpt lat="37.040359373753695" lon="139.3569186069536"><ele>1979</ele><time>2025-04-12T02:32:21Z</time></trkpt>
<trkpt lat="37.04046967173411" lon="139.35663920160826"><ele>1983</ele><time>2025-04-12T02:32:54Z</time></trkpt>
<trkpt lat="37.040504017139725" lon="139.35634289583325"><ele>1988</ele><time>2025-04-12T02:33:27Z</time></trkpt>
<trkpt lat="37.040575667963616" lon="139.35607680331415"><ele>1988</ele><time>2025-04-12T02:33:55Z</time></trkpt>
<trkpt lat="37.040688013093785" lon="139.35589126089334"><ele>1991</ele><time>2025-04-12T02:34:32Z</time></trkpt>
<trkpt lat="37.04083992481244" lon="139.35571605704712"><ele>1992</ele><time>2025-04-12T02:35:10Z</time></trkpt>
<trkpt lat="37.04099941721429" lon="139.35557666641043"><ele>1996</ele><time>2025-04-12T02:35:49Z</time></trkpt>
<trkpt lat="37.04118481245413" lon="139.35542170370803"><ele>1998</ele><time>2025-04-12T02:36:26Z</time></trkpt>
<trkpt lat="37.041370193378114" lon="139.35528605096795"><ele>2003</ele><time>2025-04-12T02:37:09Z</time></trkpt>
<trkpt lat="37.04153198255013" lon="139.3551973046546"><ele>2008</ele><time>2025-04-12T02:37:51Z</time></trkpt>
<trkpt lat="37.04169135791712" lon="139.35509670321656"><ele>2013</ele><time>2025-04-12T02:38:23Z</time></trkpt>
<trkpt lat="37.041713579009304" lon="139.3549825377813"><ele>2013</ele><time>2025-04-12T02:39:07Z</time></trkpt>
<trkpt lat="37.04189716420514" lon="139.3547721552951"><ele>2014</ele><time>2025-04-12T02:39:39Z</time></trkpt>
<trkpt lat="37.04205546152973" lon="139.35449881453687"><ele>2016</ele><time>2025-04-12T02:40:11Z</time></trkpt>
<trkpt lat="37.042126639300605" lon="139.35438280370386"><ele>2016</ele><time>2025-04-12T02:40:58Z</time></trkpt>
<trkpt lat="37.04228608907336" lon="139.3541955648842"><ele>2019</ele><time>2025-04-12T02:42:46Z</time></trkpt>
<trkpt lat="37.04246616323182" lon="139.35403145470005"><ele>2023</ele><time>2025-04-12T02:43:23Z</time></trkpt>
<trkpt lat="37.042627287299666" lon="139.35395697420267"><ele>2030</ele><time>2025-04-12T02:44:08Z</time></trkpt>
<trkpt lat="37.04287578145096" lon="139.35390771347988"><ele>2033</ele><time>2025-04-12T02:44:57Z</time></trkpt>
<trkpt lat="37.043112017082805" lon="139.3539473130644"><ele>2034</ele><time>2025-04-12T02:45:29Z</time></trkpt>
<trkpt lat="37.04336965129442" lon="139.35390614460306"><ele>2036</ele><time>2025-04-12T02:45:59Z</time></trkpt>
<trkpt lat="37.04357946502549" lon="139.35388448359618"><ele>2038</ele><time>2025-04-12T02:46:27Z</time></trkpt>
<trkpt lat="37.04379987489818" lon="139.35379074931177"><ele>2043</ele><time>2025-04-12T02:47:03Z</time></trkpt>
<trkpt lat="37.04394012991104" lon="139.35372126642568"><ele>2046</ele><time>2025-04-12T02:47:36Z</time></trkpt>
<trkpt lat="37.044145067206586" lon="139.35363088863306"><ele>2052</ele><time>2025-04-12T02:48:12Z</time></trkpt>
<trkpt lat="37.044397638522554" lon="139.3536109557838"><ele>2052</ele><time>2025-04-12T02:48:51Z</time></trkpt>
<trkpt lat="37.04457739592725" lon="139.3535982532694"><ele>2053</ele><time>2025-04-12T02:49:23Z</time></trkpt>
<trkpt lat="37.04477742919199" lon="139.35367226702374"><ele>2059</ele><time>2025-04-12T02:50:02Z</time></trkpt>
<trkpt lat="37.04497302033581" lon="139.35365875379216"><ele>2062</ele><time>2025-04-12T02:50:38Z</time></trkpt>
<trkpt lat="37.04519153845861" lon="139.35369134594418"><ele>2063</ele><time>2025-04-12T02:51:19Z</time></trkpt>
<trkpt lat="37.045399341497166" lon="139.3537157995817"><ele>2065</ele><time>2025-04-12T02:52:00Z</time></trkpt>
<trkpt lat="37.04559778176967" lon="139.35376068213787"><ele>2070</ele><time>2025-04-12T02:52:32Z</time></trkpt>
<trkpt lat="37.04570993491483" lon="139.35382094188685"><ele>2073</ele><time>2025-04-12T02:53:17Z</time></trkpt>
<trkpt lat="37.04590932429507" lon="139.35388267450128"><ele>2080</ele><time>2025-04-12T02:53:56Z</time></trkpt>
<trkpt lat="37.046024063439546" lon="139.35387920840685"><ele>2082</ele><time>2025-04-12T02:54:39Z</time></trkpt>
<trkpt lat="37.046187246782594" lon="139.35392403275918"><ele>2089</ele><time>2025-04-12T02:55:28Z</time></trkpt>
<trkpt lat="37.04633958309543" lon="139.35410897129077"><ele>2093</ele><time>2025-04-12T02:56:52Z</time></trkpt>
<trkpt lat="37.04643563417526" lon="139.3541223828836"><ele>2096</ele><time>2025-04-12T02:57:26Z</time></trkpt>
<trkpt lat="37.04643924898098" lon="139.3539952480312"><ele>2095</ele><time>2025-04-12T02:58:54Z</time></trkpt>
<trkpt lat="37.04656297104361" lon="139.35379382838298"><ele>2099</ele><time>2025-04-12T03:00:23Z</time></trkpt>
<trkpt lat="37.04659551295664" lon="139.35365211514932"><ele>2101</ele><time>2025-04-12T03:01:03Z</time></trkpt>
<trkpt lat="37.04670908919562" lon="139.35349321801775"><ele>2107</ele><time>2025-04-12T03:01:39Z</time></trkpt>
<trkpt lat="37.04681630984117" lon="139.35349404964407"><ele>2114</ele><time>2025-04-12T03:02:13Z</time></trkpt>
<trkpt lat="37.04689739531128" lon="139.3536083736338"><ele>2119</ele><time>2025-04-12T03:02:56Z</time></trkpt>
<trkpt lat="37.04699450441594" lon="139.35378865160678"><ele>2123</ele><time>2025-04-12T03:03:28Z</time></trkpt>
<trkpt lat="37.04713470044375" lon="139.3539614591458"><ele>2126</ele><time>2025-04-12T03:03:59Z</time></trkpt>
<trkpt lat="37.047241089652104" lon="139.35402243959408"><ele>2131</ele><time>2025-04-12T03:04:32Z</time></trkpt>
<trkpt lat="37.04739591115306" lon="139.35391334975776"><ele>2138</ele><time>2025-04-12T03:05:06Z</time></trkpt>
<trkpt lat="37.04756597026586" lon="139.3536912045278"><ele>2139</ele><time>2025-04-12T03:05:40Z</time></trkpt>
<trkpt lat="37.04758100738033" lon="139.3535421870856"><ele>2136</ele><time>2025-04-12T03:06:40Z</time></trkpt>
<trkpt lat="37.047641221728234" lon="139.35343976978845"><ele>2131</ele><time>2025-04-12T03:19:31Z</time></trkpt>
<trkpt lat="37.04752816686989" lon="139.35349801618133"><ele>2140</ele><time>2025-04-12T03:25:02Z</time></trkpt>
<trkpt lat="37.04768916203502" lon="139.35357360075707"><ele>2140</ele><time>2025-04-12T03:27:22Z</time></trkpt>
<trkpt lat="37.04757254802755" lon="139.35355075967192"><ele>2139</ele><time>2025-04-12T03:32:26Z</time></trkpt>
<trkpt lat="37.047539023089044" lon="139.35383865278894"><ele>2133</ele><time>2025-04-12T03:56:11Z</time></trkpt>
<trkpt lat="37.047545307487425" lon="139.35411182411772"><ele>2133</ele><time>2025-04-12T03:56:42Z</time></trkpt>
<trkpt lat="37.04762926247142" lon="139.35459166601666"><ele>2124</ele><time>2025-04-12T03:58:13Z</time></trkpt>
<trkpt lat="37.04776218063835" lon="139.35498303674453"><ele>2120</ele><time>2025-04-12T03:58:35Z</time></trkpt>
<trkpt lat="37.047798289595264" lon="139.3552193091416"><ele>2118</ele><time>2025-04-12T04:00:19Z</time></trkpt>
<trkpt lat="37.04797444414615" lon="139.35587043783022"><ele>2105</ele><time>2025-04-12T04:00:46Z</time></trkpt>
<trkpt lat="37.04808227986963" lon="139.35627015607108"><ele>2105</ele><time>2025-04-12T04:01:12Z</time></trkpt>
<trkpt lat="37.04819558894838" lon="139.35664030076447"><ele>2105</ele><time>2025-04-12T04:01:39Z</time></trkpt>
<trkpt lat="37.048334743917486" lon="139.35705185435359"><ele>2102</ele><time>2025-04-12T04:02:07Z</time></trkpt>
<trkpt lat="37.04851524523737" lon="139.35751562964313"><ele>2095</ele><time>2025-04-12T04:02:28Z</time></trkpt>
<trkpt lat="37.048673578503056" lon="139.35787852957668"><ele>2093</ele><time>2025-04-12T04:02:53Z</time></trkpt>
<trkpt lat="37.04878619663257" lon="139.35832971303424"><ele>2092</ele><time>2025-04-12T04:03:21Z</time></trkpt>
<trkpt lat="37.0488429799275" lon="139.3587323302256"><ele>2090</ele><time>2025-04-12T04:03:47Z</time></trkpt>
<trkpt lat="37.04888640891144" lon="139.35908096703886"><ele>2089</ele><time>2025-04-12T04:04:33Z</time></trkpt>
<trkpt lat="37.04892516939265" lon="139.35952198643125"><ele>2089</ele><time>2025-04-12T04:05:02Z</time></trkpt>
<trkpt lat="37.04890449819719" lon="139.3599883211797"><ele>2087</ele><time>2025-04-12T04:05:26Z</time></trkpt>
<trkpt lat="37.04894499626029" lon="139.36041953745283"><ele>2078</ele><time>2025-04-12T04:05:51Z</time></trkpt>
<trkpt lat="37.04897771082972" lon="139.36052717693335"><ele>2077</ele><time>2025-04-12T04:06:16Z</time></trkpt>
<trkpt lat="37.04900480071808" lon="139.36066951494055"><ele>2085</ele><time>2025-04-12T04:11:10Z</time></trkpt>
<trkpt lat="37.049140896191794" lon="139.36091312467468"><ele>2080</ele><time>2025-04-12T04:11:41Z</time></trkpt>
<trkpt lat="37.04926700633326" lon="139.36115622900056"><ele>2080</ele><time>2025-04-12T04:12:15Z</time></trkpt>
<trkpt lat="37.049387390652676" lon="139.36143446983394"><ele>2082</ele><time>2025-04-12T04:12:48Z</time></trkpt>
<trkpt lat="37.04944628814893" lon="139.36176379418598"><ele>2081</ele><time>2025-04-12T04:13:17Z</time></trkpt>
<trkpt lat="37.04956056633525" lon="139.36210722874114"><ele>2078</ele><time>2025-04-12T04:13:48Z</time></trkpt>
<trkpt lat="37.04971735101749" lon="139.36248692885326"><ele>2074</ele><time>2025-04-12T04:14:13Z</time></trkpt>
<trkpt lat="37.049902460081924" lon="139.3627946947226"><ele>2070</ele><time>2025-04-12T04:14:39Z</time></trkpt>
<trkpt lat="37.05005965583544" lon="139.36312095814134"><ele>2070</ele><time>2025-04-12T04:15:06Z</time></trkpt>
<trkpt lat="37.05020960674609" lon="139.36343445775546"><ele>2068</ele><time>2025-04-12T04:15:34Z</time></trkpt>
<trkpt lat="37.050377401006934" lon="139.36373017899447"><ele>2070</ele><time>2025-04-12T04:16:02Z</time></trkpt>
<trkpt lat="37.05058403331853" lon="139.3640453226352"><ele>2067</ele><time>2025-04-12T04:16:32Z</time></trkpt>
<trkpt lat="37.05077920207117" lon="139.36430608150695"><ele>2064</ele><time>2025-04-12T04:17:00Z</time></trkpt>
<trkpt lat="37.05098416346425" lon="139.36454271425401"><ele>2064</ele><time>2025-04-12T04:17:27Z</time></trkpt>
<trkpt lat="37.05117989903736" lon="139.36476967528418"><ele>2065</ele><time>2025-04-12T04:17:57Z</time></trkpt>
<trkpt lat="37.05138929346969" lon="139.36500725469912"><ele>2063</ele><time>2025-04-12T04:18:48Z</time></trkpt>
<trkpt lat="37.05160469543737" lon="139.36523831825744"><ele>2063</ele><time>2025-04-12T04:19:17Z</time></trkpt>
<trkpt lat="37.05180907899459" lon="139.365476264135"><ele>2062</ele><time>2025-04-12T04:19:44Z</time></trkpt>
<trkpt lat="37.05203665845808" lon="139.36570747629236"><ele>2062</ele><time>2025-04-12T04:20:12Z</time></trkpt>
<trkpt lat="37.052241439988734" lon="139.36590771179922"><ele>2063</ele><time>2025-04-12T04:20:39Z</time></trkpt>
<trkpt lat="37.05245841185725" lon="139.36612348958545"><ele>2063</ele><time>2025-04-12T04:21:12Z</time></trkpt>
<trkpt lat="37.05263643250456" lon="139.36631854197353"><ele>2064</ele><time>2025-04-12T04:21:43Z</time></trkpt>
<trkpt lat="37.052808586831766" lon="139.36652647481037"><ele>2069</ele><time>2025-04-12T04:22:16Z</time></trkpt>
<trkpt lat="37.052944725778396" lon="139.36673779897984"><ele>2071</ele><time>2025-04-12T04:22:45Z</time></trkpt>
<trkpt lat="37.053081445743885" lon="139.36703706565285"><ele>2070</ele><time>2025-04-12T04:23:17Z</time></trkpt>
<trkpt lat="37.053184769974024" lon="139.36732997237218"><ele>2070</ele><time>2025-04-12T04:23:46Z</time></trkpt>
<trkpt lat="37.05325843281359" lon="139.3675904823694"><ele>2068</ele><time>2025-04-12T04:24:15Z</time></trkpt>
<trkpt lat="37.0533659158813" lon="139.36779224664943"><ele>2071</ele><time>2025-04-12T04:24:43Z</time></trkpt>
<trkpt lat="37.05345946726717" lon="139.36801009251263"><ele>2076</ele><time>2025-04-12T04:25:17Z</time></trkpt>
<trkpt lat="37.05354026222157" lon="139.3682106582599"><ele>2079</ele><time>2025-04-12T04:25:52Z</time></trkpt>
<trkpt lat="37.05367733585758" lon="139.36846206096013"><ele>2081</ele><time>2025-04-12T04:26:28Z</time></trkpt>
<trkpt lat="37.05378037157609" lon="139.36867313647377"><ele>2081</ele><time>2025-04-12T04:27:00Z</time></trkpt>
<trkpt lat="37.05388023660118" lon="139.36895305369336"><ele>2082</ele><time>2025-04-12T04:27:33Z</time></trkpt>
<trkpt lat="37.05394044736556" lon="139.36920913223526"><ele>2084</ele><time>2025-04-12T04:28:04Z</time></trkpt>
<trkpt lat="37.05403851391406" lon="139.36946226871729"><ele>2087</ele><time>2025-04-12T04:28:38Z</time></trkpt>
<trkpt lat="37.05410568130608" lon="139.3696885189362"><ele>2091</ele><time>2025-04-12T04:29:14Z</time></trkpt>
<trkpt lat="37.0541872977799" lon="139.36989578407608"><ele>2095</ele><time>2025-04-12T04:29:50Z</time></trkpt>
<trkpt lat="37.054313590486665" lon="139.37012798613557"><ele>2093</ele><time>2025-04-12T04:30:20Z</time></trkpt>
<trkpt lat="37.05449701109701" lon="139.3703253598881"><ele>2094</ele><time>2025-04-12T04:30:51Z</time></trkpt>
<trkpt lat="37.05478509299723" lon="139.37043722735297"><ele>2090</ele><time>2025-04-12T04:31:20Z</time></trkpt>
<trkpt lat="37.05501952308166" lon="139.37050776944753"><ele>2088</ele><time>2025-04-12T04:31:48Z</time></trkpt>
<trkpt lat="37.05522146132027" lon="139.37059155178557"><ele>2089</ele><time>2025-04-12T04:32:21Z</time></trkpt>
<trkpt lat="37.05542497585179" lon="139.3706750177577"><ele>2089</ele><time>2025-04-12T04:32:53Z</time></trkpt>
<trkpt lat="37.055738244400864" lon="139.37068373567885"><ele>2083</ele><time>2025-04-12T04:33:29Z</time></trkpt>
<trkpt lat="37.05598968924636" lon="139.37079184107532"><ele>2080</ele><time>2025-04-12T04:34:07Z</time></trkpt>
<trkpt lat="37.05594775771701" lon="139.37110137263653"><ele>2081</ele><time>2025-04-12T04:34:41Z</time></trkpt>
<trkpt lat="37.055791398549296" lon="139.3714307002387"><ele>2083</ele><time>2025-04-12T04:35:13Z</time></trkpt>
<trkpt lat="37.055798247860416" lon="139.37158170204617"><ele>2078</ele><time>2025-04-12T04:35:55Z</time></trkpt>
<trkpt lat="37.05586523840503" lon="139.37140647846434"><ele>2086</ele><time>2025-04-12T04:37:58Z</time></trkpt>
<trkpt lat="37.055754673516674" lon="139.37157242852393"><ele>2083</ele><time>2025-04-12T04:39:09Z</time></trkpt>
<trkpt lat="37.05608972529673" lon="139.37258290970777"><ele>2074</ele><time>2025-04-12T05:06:07Z</time></trkpt>
<trkpt lat="37.05615334861576" lon="139.3732045463774"><ele>2071</ele><time>2025-04-12T05:06:50Z</time></trkpt>
<trkpt lat="37.05632922875596" lon="139.3736326114174"><ele>2063</ele><time>2025-04-12T05:08:45Z</time></trkpt>
<trkpt lat="37.056875477359924" lon="139.37408061242306"><ele>2049</ele><time>2025-04-12T05:09:11Z</time></trkpt>
<trkpt lat="37.057226753628946" lon="139.37407244315386"><ele>2048</ele><time>2025-04-12T05:10:10Z</time></trkpt>
<trkpt lat="37.057537949409415" lon="139.37545292303733"><ele>1984</ele><time>2025-04-12T05:11:30Z</time></trkpt>
<trkpt lat="37.05825777066878" lon="139.37643843838603"><ele>1940</ele><time>2025-04-12T05:11:56Z</time></trkpt>
<trkpt lat="37.05859519794115" lon="139.37716627940117"><ele>1914</ele><time>2025-04-12T05:13:55Z</time></trkpt>
<trkpt lat="37.05940214865809" lon="139.37749068253123"><ele>1872</ele><time>2025-04-12T05:14:17Z</time></trkpt>
<trkpt lat="37.05996969408328" lon="139.37805795856664"><ele>1838</ele><time>2025-04-12T05:14:38Z</time></trkpt>
<trkpt lat="37.060541649822866" lon="139.37805162240232"><ele>1809</ele><time>2025-04-12T05:15:12Z</time></trkpt>
<trkpt lat="37.061924566811626" lon="139.37868454110037"><ele>1735</ele><time>2025-04-12T05:18:45Z</time></trkpt>
<trkpt lat="37.0624825560916" lon="139.3794979255072"><ele>1697</ele><time>2025-04-12T05:19:11Z</time></trkpt>
<trkpt lat="37.062952672742526" lon="139.37955780664564"><ele>1679</ele><time>2025-04-12T05:20:43Z</time></trkpt>
<trkpt lat="37.06312337137208" lon="139.38042910545315"><ele>1637</ele><time>2025-04-12T05:21:05Z</time></trkpt>
<trkpt lat="37.06365467452337" lon="139.3804916374069"><ele>1610</ele><time>2025-04-12T05:21:28Z</time></trkpt>
<trkpt lat="37.06476512681357" lon="139.38055472295426"><ele>1567</ele><time>2025-04-12T05:21:50Z</time></trkpt>
<trkpt lat="37.06585717509934" lon="139.3816406015442"><ele>1500</ele><time>2025-04-12T05:22:12Z</time></trkpt>
<trkpt lat="37.06670850704095" lon="139.38342522394862"><ele>1442</ele><time>2025-04-12T05:22:47Z</time></trkpt>
<trkpt lat="37.06711316886717" lon="139.38361014536426"><ele>1426</ele><time>2025-04-12T05:23:20Z</time></trkpt>
<trkpt lat="37.06792001330762" lon="139.38451161721125"><ele>1391</ele><time>2025-04-12T05:23:52Z</time></trkpt>
<trkpt lat="37.068148469720704" lon="139.38474949527415"><ele>1380</ele><time>2025-04-12T05:24:13Z</time></trkpt>
<trkpt lat="37.068330729533976" lon="139.3850766854087"><ele>1375</ele><time>2025-04-12T05:25:18Z</time></trkpt>
<trkpt lat="37.068099051811" lon="139.38529020032698"><ele>1354</ele><time>2025-04-12T05:25:41Z</time></trkpt>
<trkpt lat="37.06780570020756" lon="139.3859861594564"><ele>1326</ele><time>2025-04-12T05:26:08Z</time></trkpt>
<trkpt lat="37.067169418927215" lon="139.3871162947195"><ele>1283</ele><time>2025-04-12T05:26:42Z</time></trkpt>
<trkpt lat="37.0673944799719" lon="139.38855843045127"><ele>1239</ele><time>2025-04-12T05:27:05Z</time></trkpt>
<trkpt lat="37.06744762576892" lon="139.39063260000663"><ele>1198</ele><time>2025-04-12T05:27:26Z</time></trkpt>
<trkpt lat="37.06684676523854" lon="139.3921219431612"><ele>1170</ele><time>2025-04-12T05:27:47Z</time></trkpt>
<trkpt lat="37.06625701003308" lon="139.39319327808028"><ele>1150</ele><time>2025-04-12T05:28:08Z</time></trkpt>
<trkpt lat="37.06620122466797" lon="139.3947147229451"><ele>1115</ele><time>2025-04-12T05:28:29Z</time></trkpt>
<trkpt lat="37.06603817185142" lon="139.39608588345075"><ele>1085</ele><time>2025-04-12T05:28:49Z</time></trkpt>
<trkpt lat="37.065958138779315" lon="139.39735843950686"><ele>1058</ele><time>2025-04-12T05:29:11Z</time></trkpt>
<trkpt lat="37.065788238404004" lon="139.39860003375242"><ele>1042</ele><time>2025-04-12T05:29:32Z</time></trkpt>
<trkpt lat="37.065340528502965" lon="139.39982706311346"><ele>1021</ele><time>2025-04-12T05:29:54Z</time></trkpt>
<trkpt lat="37.06490797832202" lon="139.40119400298033"><ele>996</ele><time>2025-04-12T05:30:15Z</time></trkpt>
<trkpt lat="37.06479404958382" lon="139.40165120846999"><ele>994</ele><time>2025-04-12T05:30:40Z</time></trkpt>
<trkpt lat="37.064796643922826" lon="139.40185194169007"><ele>989</ele><time>2025-04-12T05:31:12Z</time></trkpt>
<trkpt lat="37.06455063199781" lon="139.40198468494643"><ele>979</ele><time>2025-04-12T05:32:11Z</time></trkpt>
<trkpt lat="37.064291244491905" lon="139.40307519295158"><ele>964</ele><time>2025-04-12T05:32:35Z</time></trkpt>
<trkpt lat="37.06417764750292" lon="139.4043470363204"><ele>952</ele><time>2025-04-12T05:32:55Z</time></trkpt>
<trkpt lat="37.06417163384287" lon="139.4056178219086"><ele>936</ele><time>2025-04-12T05:33:18Z</time></trkpt>
<trkpt lat="37.06392290376666" lon="139.40633746568656"><ele>930</ele><time>2025-04-12T05:33:41Z</time></trkpt>
<trkpt lat="37.06385344269375" lon="139.40645442253583"><ele>931</ele><time>2025-04-12T05:34:57Z</time></trkpt>
<trkpt lat="37.06379132773928" lon="139.40738541067165"><ele>918</ele><time>2025-04-12T05:35:37Z</time></trkpt>
<trkpt lat="37.06350994392935" lon="139.40805178351613"><ele>900</ele><time>2025-04-12T05:35:58Z</time></trkpt>
<trkpt lat="37.06283675751776" lon="139.40883558523834"><ele>894</ele><time>2025-04-12T05:36:25Z</time></trkpt>
<trkpt lat="37.062290738993376" lon="139.40965279399575"><ele>885</ele><time>2025-04-12T05:36:48Z</time></trkpt>
<trkpt lat="37.061884907470024" lon="139.41051365367247"><ele>866</ele><time>2025-04-12T05:37:09Z</time></trkpt>
<trkpt lat="37.06128336654307" lon="139.41115061938277"><ele>860</ele><time>2025-04-12T05:37:30Z</time></trkpt>
<trkpt lat="37.06105428142646" lon="139.41159878707103"><ele>855</ele><time>2025-04-12T05:37:59Z</time></trkpt>
<trkpt lat="37.061039736306604" lon="139.41176682763327"><ele>850</ele><time>2025-04-12T05:38:54Z</time></trkpt>
<trkpt lat="37.06066390857195" lon="139.4122135014653"><ele>845</ele><time>2025-04-12T05:39:19Z</time></trkpt>
<trkpt lat="37.06081922470703" lon="139.4122425449706"><ele>838</ele><time>2025-04-12T05:40:30Z</time></trkpt>
<trkpt lat="37.06098835245847" lon="139.41234106781704"><ele>841</ele><time>2025-04-12T05:42:27Z</time></trkpt>
<trkpt lat="37.061179093683705" lon="139.41256925853375"><ele>838</ele><time>2025-04-12T05:43:21Z</time></trkpt>
<trkpt lat="37.061411470938076" lon="139.4130170521015"><ele>837</ele><time>2025-04-12T05:43:49Z</time></trkpt>
<trkpt lat="37.061672199068276" lon="139.4132838692799"><ele>838</ele><time>2025-04-12T05:44:14Z</time></trkpt>
<trkpt lat="37.061957929539574" lon="139.413458224674"><ele>838</ele><time>2025-04-12T05:44:38Z</time></trkpt>
<trkpt lat="37.06208049076085" lon="139.4134119052079"><ele>838</ele><time>2025-04-12T05:45:03Z</time></trkpt>
<trkpt lat="37.06251221799569" lon="139.41321713448758"><ele>833</ele><time>2025-04-12T05:45:32Z</time></trkpt>
<trkpt lat="37.06286174914062" lon="139.4131086249184"><ele>833</ele><time>2025-04-12T05:45:55Z</time></trkpt>
<trkpt lat="37.06318527549305" lon="139.41314965353885"><ele>838</ele><time>2025-04-12T05:46:22Z</time></trkpt>
<trkpt lat="37.063368414023756" lon="139.41291924046183"><ele>835</ele><time>2025-04-12T05:46:52Z</time></trkpt>
<trkpt lat="37.06360909046153" lon="139.41280943461874"><ele>833</ele><time>2025-04-12T05:47:22Z</time></trkpt>
</trkseg>
</trk>
</gpx>