<?xml version="1.0" encoding="UTF-8"?>
<gpx xmlns:xsi="http://www.w3.org/2001/XMLSchema-instance" xmlns="http://www.topografix.com/GPX/1/1" xsi:schemaLocation="http://www.topografix.com/GPX/1/1 http://www.topografix.com/GPX/1/1/gpx.xsd" creator="Yamareco iOS 7.28 - www.yamareco.com">
<trk><name>track</name><number>1</number><trkseg>
<trkpt lat="36.77346646789161" lon="137.8213732504638"><ele>1831</ele><time>2025-04-20T00:18:51Z</time></trkpt>
<trkpt lat="36.77356872711044" lon="137.82136319218"><ele>1818</ele><time>2025-04-20T00:19:16Z</time></trkpt>
<trkpt lat="36.77375529672158" lon="137.82159909848286"><ele>1826</ele><time>2025-04-20T00:20:09Z</time></trkpt>
<trkpt lat="36.773863851686194" lon="137.82194374999693"><ele>1828</ele><time>2025-04-20T00:20:34Z</time></trkpt>
<trkpt lat="36.77406181490508" lon="137.82215552007088"><ele>1824</ele><time>2025-04-20T00:21:01Z</time></trkpt>
<trkpt lat="36.77422471722447" lon="137.8222841243982"><ele>1828</ele><time>2025-04-20T00:21:32Z</time></trkpt>
<trkpt lat="36.77438072092953" lon="137.82247630698288"><ele>1830</ele><time>2025-04-20T00:22:08Z</time></trkpt>
<trkpt lat="36.77450177789307" lon="137.82270572526608"><ele>1839</ele><time>2025-04-20T00:22:49Z</time></trkpt>
<trkpt lat="36.774600699374766" lon="137.82249876116393"><ele>1844</ele><time>2025-04-20T00:23:49Z</time></trkpt>
<trkpt lat="36.774703587853445" lon="137.82229695251368"><ele>1850</ele><time>2025-04-20T00:24:29Z</time></trkpt>
<trkpt lat="36.7748035124335" lon="137.82209878764212"><ele>1854</ele><time>2025-04-20T00:25:40Z</time></trkpt>
<trkpt lat="36.774958452492946" lon="137.82196620161798"><ele>1861</ele><time>2025-04-20T00:26:15Z</time></trkpt>
<trkpt lat="36.77504764523184" lon="137.82182588046214"><ele>1869</ele><time>2025-04-20T00:26:58Z</time></trkpt>
<trkpt lat="36.77518381260723" lon="137.8216010584284"><ele>1870</ele><time>2025-04-20T00:28:08Z</time></trkpt>
<trkpt lat="36.7752756197512" lon="137.8213252850327"><ele>1876</ele><time>2025-04-20T00:28:39Z</time></trkpt>
<trkpt lat="36.77532406240255" lon="137.8211333527458"><ele>1880</ele><time>2025-04-20T00:29:11Z</time></trkpt>
<trkpt lat="36.7753897851717" lon="137.8208516333589"><ele>1882</ele><time>2025-04-20T00:29:45Z</time></trkpt>
<trkpt lat="36.77544748784376" lon="137.8206066604806"><ele>1891</ele><time>2025-04-20T00:30:15Z</time></trkpt>
<trkpt lat="36.77549266109761" lon="137.82038934354003"><ele>1894</ele><time>2025-04-20T00:30:49Z</time></trkpt>
<trkpt lat="36.77560050039993" lon="137.82012287787475"><ele>1899</ele><time>2025-04-20T00:31:25Z</time></trkpt>
<trkpt lat="36.7756987469265" lon="137.81986484971623"><ele>1901</ele><time>2025-04-20T00:31:57Z</time></trkpt>
<trkpt lat="36.775740519636415" lon="137.81959977899777"><ele>1908</ele><time>2025-04-20T00:32:32Z</time></trkpt>
<trkpt lat="36.77586604710544" lon="137.81946579669736"><ele>1910</ele><time>2025-04-20T00:32:59Z</time></trkpt>
<trkpt lat="36.77596970995768" lon="137.81925798158028"><ele>1918</ele><time>2025-04-20T00:33:34Z</time></trkpt>
<trkpt lat="36.77618089784933" lon="137.81913514819553"><ele>1921</ele><time>2025-04-20T00:34:19Z</time></trkpt>
<trkpt lat="36.7762988489501" lon="137.81896778237876"><ele>1931</ele><time>2025-04-20T00:34:55Z</time></trkpt>
<trkpt lat="36.77638299744836" lon="137.81885627396372"><ele>1934</ele><time>2025-04-20T00:35:33Z</time></trkpt>
<trkpt lat="36.7763461847832" lon="137.81863909584564"><ele>1932</ele><time>2025-04-20T00:36:08Z</time></trkpt>
<trkpt lat="36.776482921903806" lon="137.81847225364325"><ele>1939</ele><time>2025-04-20T00:36:43Z</time></trkpt>
<trkpt lat="36.776610624208196" lon="137.81827338369226"><ele>1942</ele><time>2025-04-20T00:37:15Z</time></trkpt>
<trkpt lat="36.77676790529522" lon="137.81811972908784"><ele>1949</ele><time>2025-04-20T00:37:57Z</time></trkpt>
<trkpt lat="36.776919465712446" lon="137.8179852033962"><ele>1954</ele><time>2025-04-20T00:38:32Z</time></trkpt>
<trkpt lat="36.77703545564333" lon="137.817919552298"><ele>1958</ele><time>2025-04-20T00:39:09Z</time></trkpt>
<trkpt lat="36.777192926595724" lon="137.8178119400912"><ele>1960</ele><time>2025-04-20T00:39:59Z</time></trkpt>
<trkpt lat="36.77742610196839" lon="137.8177986058291"><ele>1972</ele><time>2025-04-20T00:40:41Z</time></trkpt>
<trkpt lat="36.77735865436925" lon="137.8175461585598"><ele>1976</ele><time>2025-04-20T00:41:17Z</time></trkpt>
<trkpt lat="36.77736118279747" lon="137.81731672499487"><ele>1979</ele><time>2025-04-20T00:41:53Z</time></trkpt>
<trkpt lat="36.777467381176585" lon="137.81722817147386"><ele>1988</ele><time>2025-04-20T00:43:04Z</time></trkpt>
<trkpt lat="36.7776697384856" lon="137.81726346994242"><ele>1997</ele><time>2025-04-20T00:43:40Z</time></trkpt>
<trkpt lat="36.777857496254" lon="137.81724809917432"><ele>2001</ele><time>2025-04-20T00:44:11Z</time></trkpt>
<trkpt lat="36.77777973445446" lon="137.8170207684296"><ele>2009</ele><time>2025-04-20T00:45:34Z</time></trkpt>
<trkpt lat="36.777748566865625" lon="137.81686965342146"><ele>2012</ele><time>2025-04-20T00:46:06Z</time></trkpt>
<trkpt lat="36.77781196694455" lon="137.81663169528676"><ele>2016</ele><time>2025-04-20T00:46:40Z</time></trkpt>
<trkpt lat="36.77792889249076" lon="137.81648691609297"><ele>2019</ele><time>2025-04-20T00:47:15Z</time></trkpt>
<trkpt lat="36.77807074197259" lon="137.81664001000314"><ele>2028</ele><time>2025-04-20T00:48:08Z</time></trkpt>
<trkpt lat="36.77822725773632" lon="137.816657709373"><ele>2031</ele><time>2025-04-20T00:48:47Z</time></trkpt>
<trkpt lat="36.77824988175029" lon="137.81645583503283"><ele>2037</ele><time>2025-04-20T00:49:27Z</time></trkpt>
<trkpt lat="36.77838534389283" lon="137.816414237104"><ele>2047</ele><time>2025-04-20T00:50:42Z</time></trkpt>
<trkpt lat="36.77856670129732" lon="137.8164677458355"><ele>2056</ele><time>2025-04-20T00:51:18Z</time></trkpt>
<trkpt lat="36.77872820156549" lon="137.8164737468478"><ele>2061</ele><time>2025-04-20T00:52:35Z</time></trkpt>
<trkpt lat="36.77890380715365" lon="137.81646354300116"><ele>2068</ele><time>2025-04-20T00:53:12Z</time></trkpt>
<trkpt lat="36.77907111683534" lon="137.81641707734366"><ele>2074</ele><time>2025-04-20T00:53:54Z</time></trkpt>
<trkpt lat="36.77902988216172" lon="137.81619480404882"><ele>2079</ele><time>2025-04-20T00:54:45Z</time></trkpt>
<trkpt lat="36.77903065644817" lon="137.8159324702066"><ele>2084</ele><time>2025-04-20T00:55:26Z</time></trkpt>
<trkpt lat="36.77901982662262" lon="137.81569842753757"><ele>2088</ele><time>2025-04-20T00:55:58Z</time></trkpt>
<trkpt lat="36.779022182221674" lon="137.81549390290144"><ele>2094</ele><time>2025-04-20T00:56:35Z</time></trkpt>
<trkpt lat="36.77908520071806" lon="137.815228234001"><ele>2099</ele><time>2025-04-20T00:57:12Z</time></trkpt>
<trkpt lat="36.77916422993942" lon="137.8149999556449"><ele>2102</ele><time>2025-04-20T00:58:20Z</time></trkpt>
<trkpt lat="36.779314936408106" lon="137.8152105110347"><ele>2112</ele><time>2025-04-20T00:58:53Z</time></trkpt>
<trkpt lat="36.77944519741132" lon="137.81540574305382"><ele>2119</ele><time>2025-04-20T00:59:23Z</time></trkpt>
<trkpt lat="36.77965517828719" lon="137.81550582774594"><ele>2122</ele><time>2025-04-20T01:00:23Z</time></trkpt>
<trkpt lat="36.77977922504861" lon="137.81534678350224"><ele>2130</ele><time>2025-04-20T01:01:03Z</time></trkpt>
<trkpt lat="36.779881447628796" lon="137.81526531274287"><ele>2135</ele><time>2025-04-20T01:01:58Z</time></trkpt>
<trkpt lat="36.780111734407754" lon="137.81512270169077"><ele>2140</ele><time>2025-04-20T01:02:32Z</time></trkpt>
<trkpt lat="36.78012079011119" lon="137.8149463598468"><ele>2141</ele><time>2025-04-20T01:03:56Z</time></trkpt>
<trkpt lat="36.780246951265795" lon="137.81481933142214"><ele>2145</ele><time>2025-04-20T01:08:31Z</time></trkpt>
<trkpt lat="36.78039422019808" lon="137.81464012491824"><ele>2151</ele><time>2025-04-20T01:09:12Z</time></trkpt>
<trkpt lat="36.780500778600256" lon="137.81442571920607"><ele>2155</ele><time>2025-04-20T01:09:42Z</time></trkpt>
<trkpt lat="36.780632632446085" lon="137.8142311704418"><ele>2160</ele><time>2025-04-20T01:10:18Z</time></trkpt>
<trkpt lat="36.780739092542845" lon="137.81402247187248"><ele>2164</ele><time>2025-04-20T01:10:46Z</time></trkpt>
<trkpt lat="36.780822301038036" lon="137.81378524020803"><ele>2168</ele><time>2025-04-20T01:11:20Z</time></trkpt>
<trkpt lat="36.78090697369448" lon="137.81356876067323"><ele>2174</ele><time>2025-04-20T01:12:02Z</time></trkpt>
<trkpt lat="36.78096896132039" lon="137.81335503288912"><ele>2179</ele><time>2025-04-20T01:12:41Z</time></trkpt>
<trkpt lat="36.78101612577501" lon="137.8131238487634"><ele>2183</ele><time>2025-04-20T01:13:17Z</time></trkpt>
<trkpt lat="36.781096830563804" lon="137.81288741361178"><ele>2189</ele><time>2025-04-20T01:13:50Z</time></trkpt>
<trkpt lat="36.781119359135324" lon="137.81275540562254"><ele>2191</ele><time>2025-04-20T01:14:24Z</time></trkpt>
<trkpt lat="36.78119622245845" lon="137.81249326299567"><ele>2195</ele><time>2025-04-20T01:15:05Z</time></trkpt>
<trkpt lat="36.7812902025329" lon="137.81215927275272"><ele>2196</ele><time>2025-04-20T01:15:35Z</time></trkpt>
<trkpt lat="36.78146914016329" lon="137.81185640806444"><ele>2197</ele><time>2025-04-20T01:16:05Z</time></trkpt>
<trkpt lat="36.781634649596754" lon="137.81161137759736"><ele>2197</ele><time>2025-04-20T01:16:32Z</time></trkpt>
<trkpt lat="36.78174488168833" lon="137.8113396961595"><ele>2199</ele><time>2025-04-20T01:17:01Z</time></trkpt>
<trkpt lat="36.781901536504044" lon="137.81108158505754"><ele>2200</ele><time>2025-04-20T01:17:31Z</time></trkpt>
<trkpt lat="36.782034728406586" lon="137.81088678063134"><ele>2203</ele><time>2025-04-20T01:19:37Z</time></trkpt>
<trkpt lat="36.782068935783826" lon="137.8106392617276"><ele>2203</ele><time>2025-04-20T01:25:10Z</time></trkpt>
<trkpt lat="36.78211119349505" lon="137.81037935492745"><ele>2204</ele><time>2025-04-20T01:25:41Z</time></trkpt>
<trkpt lat="36.78213698157911" lon="137.81009076448842"><ele>2212</ele><time>2025-04-20T01:26:22Z</time></trkpt>
<trkpt lat="36.78217304965263" lon="137.80986234032426"><ele>2218</ele><time>2025-04-20T01:26:57Z</time></trkpt>
<trkpt lat="36.78220116501156" lon="137.80964547525892"><ele>2222</ele><time>2025-04-20T01:27:35Z</time></trkpt>
<trkpt lat="36.78222406513977" lon="137.80945054750757"><ele>2227</ele><time>2025-04-20T01:28:15Z</time></trkpt>
<trkpt lat="36.782189560152524" lon="137.80930461132286"><ele>2233</ele><time>2025-04-20T01:28:59Z</time></trkpt>
<trkpt lat="36.782231556130476" lon="137.80914751088528"><ele>2238</ele><time>2025-04-20T01:29:42Z</time></trkpt>
<trkpt lat="36.78226331463139" lon="137.8089538003133"><ele>2246</ele><time>2025-04-20T01:30:28Z</time></trkpt>
<trkpt lat="36.782316807271805" lon="137.8087923300107"><ele>2252</ele><time>2025-04-20T01:31:13Z</time></trkpt>
<trkpt lat="36.78238434440472" lon="137.8086703426523"><ele>2261</ele><time>2025-04-20T01:32:00Z</time></trkpt>
<trkpt lat="36.78246298901716" lon="137.80847585160865"><ele>2266</ele><time>2025-04-20T01:32:52Z</time></trkpt>
<trkpt lat="36.78252566233026" lon="137.8083359575826"><ele>2273</ele><time>2025-04-20T01:33:39Z</time></trkpt>
<trkpt lat="36.782601642289045" lon="137.80815624216012"><ele>2279</ele><time>2025-04-20T01:34:27Z</time></trkpt>
<trkpt lat="36.78268206353233" lon="137.80799544793044"><ele>2287</ele><time>2025-04-20T01:35:11Z</time></trkpt>
<trkpt lat="36.78277336577412" lon="137.80781684934726"><ele>2292</ele><time>2025-04-20T01:36:09Z</time></trkpt>
<trkpt lat="36.78283143041211" lon="137.8076500620484"><ele>2301</ele><time>2025-04-20T01:37:06Z</time></trkpt>
<trkpt lat="36.782902051526754" lon="137.8074930693118"><ele>2306</ele><time>2025-04-20T01:38:08Z</time></trkpt>
<trkpt lat="36.78282222624816" lon="137.8073469922212"><ele>2312</ele><time>2025-04-20T01:39:40Z</time></trkpt>
<trkpt lat="36.78290621094802" lon="137.80720555098776"><ele>2320</ele><time>2025-04-20T01:40:34Z</time></trkpt>
<trkpt lat="36.78303980744317" lon="137.807039642427"><ele>2327</ele><time>2025-04-20T01:41:13Z</time></trkpt>
<trkpt lat="36.78311189922875" lon="137.80691649037723"><ele>2332</ele><time>2025-04-20T01:41:50Z</time></trkpt>
<trkpt lat="36.78320612880566" lon="137.8067735371127"><ele>2338</ele><time>2025-04-20T01:42:29Z</time></trkpt>
<trkpt lat="36.78335270165681" lon="137.80662366130903"><ele>2343</ele><time>2025-04-20T01:43:15Z</time></trkpt>
<trkpt lat="36.78321887810765" lon="137.8065671212871"><ele>2344</ele><time>2025-04-20T01:44:03Z</time></trkpt>
<trkpt lat="36.783058457194606" lon="137.8065338212585"><ele>2349</ele><time>2025-04-20T01:44:45Z</time></trkpt>
<trkpt lat="36.78292272158877" lon="137.80650816187745"><ele>2355</ele><time>2025-04-20T01:45:40Z</time></trkpt>
<trkpt lat="36.7829871355936" lon="137.80638102568722"><ele>2360</ele><time>2025-04-20T01:46:18Z</time></trkpt>
<trkpt lat="36.78307733403317" lon="137.8062031651911"><ele>2365</ele><time>2025-04-20T01:46:59Z</time></trkpt>
<trkpt lat="36.78296192747509" lon="137.80605881661913"><ele>2372</ele><time>2025-04-20T01:48:05Z</time></trkpt>
<trkpt lat="36.78278995798914" lon="137.80593243381873"><ele>2381</ele><time>2025-04-20T01:49:04Z</time></trkpt>
<trkpt lat="36.78274176877204" lon="137.80576944720255"><ele>2385</ele><time>2025-04-20T01:49:41Z</time></trkpt>
<trkpt lat="36.78276624913551" lon="137.80563073081865"><ele>2392</ele><time>2025-04-20T01:50:20Z</time></trkpt>
<trkpt lat="36.78271674183948" lon="137.80547815862502"><ele>2397</ele><time>2025-04-20T01:51:09Z</time></trkpt>
<trkpt lat="36.782797504231326" lon="137.80526226689173"><ele>2403</ele><time>2025-04-20T01:52:08Z</time></trkpt>
<trkpt lat="36.78281789658922" lon="137.80505810133855"><ele>2410</ele><time>2025-04-20T01:52:59Z</time></trkpt>
<trkpt lat="36.78286915714377" lon="137.80485236291122"><ele>2419</ele><time>2025-04-20T01:53:41Z</time></trkpt>
<trkpt lat="36.78291237834302" lon="137.80465396020907"><ele>2425</ele><time>2025-04-20T01:54:27Z</time></trkpt>
<trkpt lat="36.78295201492404" lon="137.80444712326312"><ele>2429</ele><time>2025-04-20T01:55:15Z</time></trkpt>
<trkpt lat="36.78294576293457" lon="137.80427127190416"><ele>2435</ele><time>2025-04-20T01:55:56Z</time></trkpt>
<trkpt lat="36.78296539837515" lon="137.80403589112095"><ele>2440</ele><time>2025-04-20T01:56:50Z</time></trkpt>
<trkpt lat="36.78291573143942" lon="137.80377212777907"><ele>2443</ele><time>2025-04-20T01:57:32Z</time></trkpt>
<trkpt lat="36.78281272390002" lon="137.80360549125643"><ele>2445</ele><time>2025-04-20T01:58:07Z</time></trkpt>
<trkpt lat="36.78271134953221" lon="137.80345670985167"><ele>2446</ele><time>2025-04-20T01:59:12Z</time></trkpt>
<trkpt lat="36.78256567148331" lon="137.80323629111282"><ele>2447</ele><time>2025-04-20T01:59:48Z</time></trkpt>
<trkpt lat="36.78248959692563" lon="137.80304224803763"><ele>2447</ele><time>2025-04-20T02:00:26Z</time></trkpt>
<trkpt lat="36.782315595803446" lon="137.80292356126526"><ele>2448</ele><time>2025-04-20T02:00:54Z</time></trkpt>
<trkpt lat="36.78217612722938" lon="137.8026132657241"><ele>2446</ele><time>2025-04-20T02:01:24Z</time></trkpt>
<trkpt lat="36.78211981752595" lon="137.80223933603784"><ele>2450</ele><time>2025-04-20T02:01:48Z</time></trkpt>
<trkpt lat="36.78210697044608" lon="137.80190229544354"><ele>2450</ele><time>2025-04-20T02:02:18Z</time></trkpt>
<trkpt lat="36.782232572592335" lon="137.80166510098707"><ele>2452</ele><time>2025-04-20T02:02:46Z</time></trkpt>
<trkpt lat="36.78246661192635" lon="137.80157939424598"><ele>2449</ele><time>2025-04-20T02:04:31Z</time></trkpt>
<trkpt lat="36.78256996910719" lon="137.80153747660833"><ele>2450</ele><time>2025-04-20T02:21:42Z</time></trkpt>
<trkpt lat="36.78246336458231" lon="137.8015693292466"><ele>2453</ele><time>2025-04-20T02:22:20Z</time></trkpt>
<trkpt lat="36.782274431046666" lon="137.80189180247794"><ele>2455</ele><time>2025-04-20T02:45:22Z</time></trkpt>
<trkpt lat="36.782072859868144" lon="137.802228536261"><ele>2455</ele><time>2025-04-20T02:45:48Z</time></trkpt>
<trkpt lat="36.781722331993166" lon="137.80241947074683"><ele>2456</ele><time>2025-04-20T02:46:14Z</time></trkpt>
<trkpt lat="36.78131758472441" lon="137.80245859590377"><ele>2450</ele><time>2025-04-20T02:46:43Z</time></trkpt>
<trkpt lat="36.7810025048894" lon="137.80263329638098"><ele>2448</ele><time>2025-04-20T02:47:11Z</time></trkpt>
<trkpt lat="36.78063080330752" lon="137.8025250881475"><ele>2442</ele><time>2025-04-20T02:47:37Z</time></trkpt>
<trkpt lat="36.780489861038404" lon="137.80222116892892"><ele>2438</ele><time>2025-04-20T02:48:03Z</time></trkpt>
<trkpt lat="36.78044422207148" lon="137.8020946362505"><ele>2435</ele><time>2025-04-20T02:49:40Z</time></trkpt>
<trkpt lat="36.780411473342696" lon="137.80220880906444"><ele>2432</ele><time>2025-04-20T02:50:29Z</time></trkpt>
<trkpt lat="36.78022321641135" lon="137.80288972299425"><ele>2423</ele><time>2025-04-20T02:51:40Z</time></trkpt>
<trkpt lat="36.77987689413628" lon="137.80243869686473"><ele>2398</ele><time>2025-04-20T02:52:32Z</time></trkpt>
<trkpt lat="36.77954870949522" lon="137.80227206448583"><ele>2377</ele><time>2025-04-20T02:52:56Z</time></trkpt>
<trkpt lat="36.77911410970239" lon="137.80204983933092"><ele>2344</ele><time>2025-04-20T02:53:17Z</time></trkpt>
<trkpt lat="36.77867367608061" lon="137.8020611306172"><ele>2321</ele><time>2025-04-20T02:53:38Z</time></trkpt>
<trkpt lat="36.77820711629471" lon="137.80178191697357"><ele>2275</ele><time>2025-04-20T02:54:01Z</time></trkpt>
<trkpt lat="36.77761759805715" lon="137.8017486920536"><ele>2231</ele><time>2025-04-20T02:54:32Z</time></trkpt>
<trkpt lat="36.777256555446975" lon="137.8015447567807"><ele>2203</ele><time>2025-04-20T02:56:01Z</time></trkpt>
<trkpt lat="36.77666609135039" lon="137.80152273692354"><ele>2157</ele><time>2025-04-20T02:56:22Z</time></trkpt>
<trkpt lat="36.776131289332305" lon="137.80195938772079"><ele>2143</ele><time>2025-04-20T02:56:44Z</time></trkpt>
<trkpt lat="36.77594799271102" lon="137.80187000512842"><ele>2138</ele><time>2025-04-20T02:57:41Z</time></trkpt>
<trkpt lat="36.7753549798621" lon="137.80222819539117"><ele>2116</ele><time>2025-04-20T02:58:05Z</time></trkpt>
<trkpt lat="36.774845518258914" lon="137.8024056477474"><ele>2082</ele><time>2025-04-20T02:58:32Z</time></trkpt>
<trkpt lat="36.774513666616976" lon="137.8023916797573"><ele>2055</ele><time>2025-04-20T02:58:55Z</time></trkpt>
<trkpt lat="36.77402831726149" lon="137.8027127878422"><ele>2019</ele><time>2025-04-20T02:59:22Z</time></trkpt>
<trkpt lat="36.77308000186506" lon="137.80294421439476"><ele>1967</ele><time>2025-04-20T02:59:42Z</time></trkpt>
<trkpt lat="36.77212750770146" lon="137.8037949284072"><ele>1950</ele><time>2025-04-20T03:00:04Z</time></trkpt>
<trkpt lat="36.77158689063654" lon="137.80550991423414"><ele>1915</ele><time>2025-04-20T03:00:26Z</time></trkpt>
<trkpt lat="36.77149439952392" lon="137.80652049900806"><ele>1898</ele><time>2025-04-20T03:00:48Z</time></trkpt>
<trkpt lat="36.77135062669232" lon="137.80748429236652"><ele>1891</ele><time>2025-04-20T03:01:09Z</time></trkpt>
<trkpt lat="36.77156120715786" lon="137.80835080078614"><ele>1881</ele><time>2025-04-20T03:01:31Z</time></trkpt>
<trkpt lat="36.771787767477605" lon="137.8090768976777"><ele>1874</ele><time>2025-04-20T03:01:52Z</time></trkpt>
<trkpt lat="36.77201879324405" lon="137.8098011540202"><ele>1864</ele><time>2025-04-20T03:02:16Z</time></trkpt>
<trkpt lat="36.77207188780717" lon="137.81027526246154"><ele>1861</ele><time>2025-04-20T03:02:39Z</time></trkpt>
<trkpt lat="36.77207474590787" lon="137.81058055771993"><ele>1861</ele><time>2025-04-20T03:06:32Z</time></trkpt>
<trkpt lat="36.772078793715586" lon="137.81088575124687"><ele>1862</ele><time>2025-04-20T03:07:02Z</time></trkpt>
<trkpt lat="36.77208667735563" lon="137.81122991930218"><ele>1863</ele><time>2025-04-20T03:07:33Z</time></trkpt>
<trkpt lat="36.7721091971642" lon="137.81156323003844"><ele>1863</ele><time>2025-04-20T03:08:01Z</time></trkpt>
<trkpt lat="36.77217996187119" lon="137.81187673428707"><ele>1863</ele><time>2025-04-20T03:08:32Z</time></trkpt>
<trkpt lat="36.77226159227003" lon="137.81220443675952"><ele>1863</ele><time>2025-04-20T03:09:01Z</time></trkpt>
<trkpt lat="36.77236568874254" lon="137.81251996549116"><ele>1865</ele><time>2025-04-20T03:09:30Z</time></trkpt>
<trkpt lat="36.77244234938103" lon="137.81280089631997"><ele>1865</ele><time>2025-04-20T03:09:58Z</time></trkpt>
<trkpt lat="36.772533146404704" lon="137.81311811559414"><ele>1868</ele><time>2025-04-20T03:10:24Z</time></trkpt>
<trkpt lat="36.77263619300523" lon="137.81342056583915"><ele>1869</ele><time>2025-04-20T03:10:54Z</time></trkpt>
<trkpt lat="36.77274777779146" lon="137.81377450463728"><ele>1870</ele><time>2025-04-20T03:11:22Z</time></trkpt>
<trkpt lat="36.77284889557472" lon="137.8141070103149"><ele>1872</ele><time>2025-04-20T03:11:53Z</time></trkpt>
<trkpt lat="36.772993600963" lon="137.81445726579943"><ele>1872</ele><time>2025-04-20T03:12:18Z</time></trkpt>
<trkpt lat="36.773093274233396" lon="137.814641690299"><ele>1872</ele><time>2025-04-20T03:13:07Z</time></trkpt>
<trkpt lat="36.77322141573545" lon="137.81500739007126"><ele>1873</ele><time>2025-04-20T03:14:54Z</time></trkpt>
<trkpt lat="36.77330855199308" lon="137.8153468899543"><ele>1872</ele><time>2025-04-20T03:15:17Z</time></trkpt>
<trkpt lat="36.77357890963212" lon="137.81608057508117"><ele>1865</ele><time>2025-04-20T03:15:42Z</time></trkpt>
<trkpt lat="36.773716563231915" lon="137.81653091091542"><ele>1867</ele><time>2025-04-20T03:16:07Z</time></trkpt>
<trkpt lat="36.77386276624606" lon="137.81686868162322"><ele>1859</ele><time>2025-04-20T03:16:34Z</time></trkpt>
<trkpt lat="36.773990394165715" lon="137.81731988265213"><ele>1858</ele><time>2025-04-20T03:16:59Z</time></trkpt>
<trkpt lat="36.7741652961041" lon="137.8177714094384"><ele>1855</ele><time>2025-04-20T03:17:26Z</time></trkpt>
<trkpt lat="36.774272916935445" lon="137.81819527673204"><ele>1854</ele><time>2025-04-20T03:17:51Z</time></trkpt>
<trkpt lat="36.774258513065945" lon="137.8186610156353"><ele>1858</ele><time>2025-04-20T03:18:17Z</time></trkpt>
<trkpt lat="36.77414916459415" lon="137.8191565310157"><ele>1856</ele><time>2025-04-20T03:18:40Z</time></trkpt>
<trkpt lat="36.773926369441014" lon="137.81948872604724"><ele>1858</ele><time>2025-04-20T03:19:03Z</time></trkpt>
<trkpt lat="36.77388682591035" lon="137.81969440084566"><ele>1861</ele><time>2025-04-20T03:19:34Z</time></trkpt>
<trkpt lat="36.77400360899778" lon="137.81956606288662"><ele>1852</ele><time>2025-04-20T03:20:25Z</time></trkpt>
<trkpt lat="36.773857691423125" lon="137.82027595315697"><ele>1850</ele><time>2025-04-20T03:21:05Z</time></trkpt>
<trkpt lat="36.773813412260296" lon="137.82117439715245"><ele>1843</ele><time>2025-04-20T03:21:28Z</time></trkpt>
<trkpt lat="36.773869894887184" lon="137.82138969456992"><ele>1834</ele><time>2025-04-20T03:21:52Z</time></trkpt>
<trkpt lat="36.77378504145765" lon="137.82257247032263"><ele>1827</ele><time>2025-04-20T03:23:03Z</time></trkpt>
<trkpt lat="36.77384242657549" lon="137.82267195996624"><ele>1824</ele><time>2025-04-20T03:23:31Z</time></trkpt>
<trkpt lat="36.77368372727265" lon="137.82353123265605"><ele>1816</ele><time>2025-04-20T03:25:34Z</time></trkpt>
<trkpt lat="36.77372275885313" lon="137.82419408657267"><ele>1815</ele><time>2025-04-20T03:25:57Z</time></trkpt>
<trkpt lat="36.77329473958848" lon="137.8250528055728"><ele>1808</ele><time>2025-04-20T03:26:19Z</time></trkpt>
<trkpt lat="36.77311307232017" lon="137.82536076186403"><ele>1798</ele><time>2025-04-20T03:26:43Z</time></trkpt>
<trkpt lat="36.77253998584246" lon="137.82510801740105"><ele>1778</ele><time>2025-04-20T03:27:05Z</time></trkpt>
<trkpt lat="36.77221922902402" lon="137.8259397278134"><ele>1772</ele><time>2025-04-20T03:27:27Z</time></trkpt>
<trkpt lat="36.77204445340889" lon="137.8263155875287"><ele>1758</ele><time>2025-04-20T03:27:50Z</time></trkpt>
<trkpt lat="36.77163713276017" lon="137.82735124381725"><ele>1735</ele><time>2025-04-20T03:28:13Z</time></trkpt>
<trkpt lat="36.77158306566823" lon="137.82817460081048"><ele>1732</ele><time>2025-04-20T03:28:34Z</time></trkpt>
<trkpt lat="36.77128409635293" lon="137.82889079876367"><ele>1727</ele><time>2025-04-20T03:28:57Z</time></trkpt>
<trkpt lat="36.77057965555943" lon="137.82929617563292"><ele>1718</ele><time>2025-04-20T03:29:21Z</time></trkpt>
<trkpt lat="36.77002238300451" lon="137.82981353000451"><ele>1716</ele><time>2025-04-20T03:29:44Z</time></trkpt>
<trkpt lat="36.769705334919294" lon="137.83066647430408"><ele>1709</ele><time>2025-04-20T03:30:06Z</time></trkpt>
<trkpt lat="36.76966146709799" lon="137.831522752304"><ele>1700</ele><time>2025-04-20T03:31:05Z</time></trkpt>
<trkpt lat="36.76989094748226" lon="137.8325359323264"><ele>1692</ele><time>2025-04-20T03:31:27Z</time></trkpt>
<trkpt lat="36.76951994761313" lon="137.83351068571073"><ele>1687</ele><time>2025-04-20T03:31:48Z</time></trkpt>
<trkpt lat="36.768995983541814" lon="137.83451423269662"><ele>1677</ele><time>2025-04-20T03:32:11Z</time></trkpt>
<trkpt lat="36.76838515817198" lon="137.83536248328463"><ele>1674</ele><time>2025-04-20T03:32:35Z</time></trkpt>
<trkpt lat="36.76809654369513" lon="137.8359193662039"><ele>1664</ele><time>2025-04-20T03:32:56Z</time></trkpt>
<trkpt lat="36.767699309877884" lon="137.83610433461058"><ele>1650</ele><time>2025-04-20T03:33:19Z</time></trkpt>
<trkpt lat="36.76749158780408" lon="137.83491879831394"><ele>1629</ele><time>2025-04-20T03:33:41Z</time></trkpt>
<trkpt lat="36.76728537992362" lon="137.83408241492873"><ele>1606</ele><time>2025-04-20T03:34:02Z</time></trkpt>
<trkpt lat="36.76703647503663" lon="137.83339390507984"><ele>1578</ele><time>2025-04-20T03:34:28Z</time></trkpt>
<trkpt lat="36.76598604820725" lon="137.83203691761705"><ele>1574</ele><time>2025-04-20T03:34:49Z</time></trkpt>
<trkpt lat="36.76560561357747" lon="137.8314438295394"><ele>1572</ele><time>2025-04-20T03:35:10Z</time></trkpt>
<trkpt lat="36.76519188166942" lon="137.831408293242"><ele>1574</ele><time>2025-04-20T03:35:38Z</time></trkpt>
<trkpt lat="36.76485957685593" lon="137.8313223800251"><ele>1570</ele><time>2025-04-20T03:36:11Z</time></trkpt>
<trkpt lat="36.764644677162245" lon="137.83115446138933"><ele>1569</ele><time>2025-04-20T03:36:39Z</time></trkpt>
<trkpt lat="36.7638742517349" lon="137.8316416274699"><ele>1561</ele><time>2025-04-20T03:38:14Z</time></trkpt>
<trkpt lat="36.76301768319994" lon="137.83232268141708"><ele>1547</ele><time>2025-04-20T03:38:35Z</time></trkpt>
<trkpt lat="36.761441851537" lon="137.83337737634315"><ele>1512</ele><time>2025-04-20T03:38:57Z</time></trkpt>
<trkpt lat="36.76000293166754" lon="137.83424764495925"><ele>1486</ele><time>2025-04-20T03:39:18Z</time></trkpt>
<trkpt lat="36.75914415985459" lon="137.83562703041162"><ele>1449</ele><time>2025-04-20T03:39:39Z</time></trkpt>
<trkpt lat="36.7585177781127" lon="137.83691631458285"><ele>1415</ele><time>2025-04-20T03:40:07Z</time></trkpt>
<trkpt lat="36.757650756920825" lon="137.83861765608785"><ele>1351</ele><time>2025-04-20T03:40:29Z</time></trkpt>
<trkpt lat="36.75749733619945" lon="137.83901628300444"><ele>1336</ele><time>2025-04-20T03:40:51Z</time></trkpt>
<trkpt lat="36.75616430155093" lon="137.84121333100805"><ele>1258</ele><time>2025-04-20T03:41:12Z</time></trkpt>
<trkpt lat="36.75596028671094" lon="137.84211538157098"><ele>1254</ele><time>2025-04-20T03:41:32Z</time></trkpt>
<trkpt lat="36.75615489908921" lon="137.84410068678963"><ele>1204</ele><time>2025-04-20T03:41:57Z</time></trkpt>
<trkpt lat="36.75595770874993" lon="137.84624047787386"><ele>1166</ele><time>2025-04-20T03:42:18Z</time></trkpt>
<trkpt lat="36.755133853339224" lon="137.84718497798767"><ele>1137</ele><time>2025-04-20T03:42:47Z</time></trkpt>
<trkpt lat="36.75473604594656" lon="137.84923584492603"><ele>1091</ele><time>2025-04-20T03:43:08Z</time></trkpt>
<trkpt lat="36.754156330597354" lon="137.85164927736778"><ele>1049</ele><time>2025-04-20T03:43:29Z</time></trkpt>
<trkpt lat="36.753792651375896" lon="137.85369362015967"><ele>1018</ele><time>2025-04-20T03:43:49Z</time></trkpt>
<trkpt lat="36.75345711968852" lon="137.855931099205"><ele>985</ele><time>2025-04-20T03:44:11Z</time></trkpt>
<trkpt lat="36.75384289267502" lon="137.8576992017487"><ele>965</ele><time>2025-04-20T03:44:32Z</time></trkpt>
<trkpt lat="36.754164642059564" lon="137.8587467840972"><ele>954</ele><time>2025-04-20T03:44:53Z</time></trkpt>
<trkpt lat="36.7540214731594" lon="137.8595321258997"><ele>950</ele><time>2025-04-20T03:45:15Z</time></trkpt>
<trkpt lat="36.7539287028559" lon="137.85987109622707"><ele>948</ele><time>2025-04-20T03:45:41Z</time></trkpt>
<trkpt lat="36.75385072529764" lon="137.86018278814132"><ele>946</ele><time>2025-04-20T03:46:11Z</time></trkpt>
<trkpt lat="36.753767571862845" lon="137.86047539784354"><ele>945</ele><time>2025-04-20T03:46:38Z</time></trkpt>
<trkpt lat="36.75366491121864" lon="137.8615591123262"><ele>939</ele><time>2025-04-20T03:47:03Z</time></trkpt>
<trkpt lat="36.7536640003234" lon="137.8625398406646"><ele>935</ele><time>2025-04-20T03:47:25Z</time></trkpt>
<trkpt lat="36.75356769163263" lon="137.86405712732122"><ele>918</ele><time>2025-04-20T03:47:46Z</time></trkpt>
<trkpt lat="36.75341582867081" lon="137.8651008203349"><ele>911</ele><time>2025-04-20T03:48:06Z</time></trkpt>
<trkpt lat="36.75271964425012" lon="137.8662276431045"><ele>902</ele><time>2025-04-20T03:48:27Z</time></trkpt>
<trkpt lat="36.75203169871517" lon="137.86741445908163"><ele>888</ele><time>2025-04-20T03:48:48Z</time></trkpt>
<trkpt lat="36.75121317611017" lon="137.86865987431725"><ele>873</ele><time>2025-04-20T03:49:09Z</time></trkpt>
<trkpt lat="36.750494240001444" lon="137.86940136360028"><ele>861</ele><time>2025-04-20T03:49:30Z</time></trkpt>
<trkpt lat="36.75006168386908" lon="137.86982086710586"><ele>852</ele><time>2025-04-20T03:49:53Z</time></trkpt>
<trkpt lat="36.749578340202056" lon="137.87050397618327"><ele>842</ele><time>2025-04-20T03:50:23Z</time></trkpt>
<trkpt lat="36.74939743487201" lon="137.87089126952267"><ele>842</ele><time>2025-04-20T03:52:00Z</time></trkpt>
<trkpt lat="36.74938896244791" lon="137.87117064651247"><ele>836</ele><time>2025-04-20T03:52:31Z</time></trkpt>
<trkpt lat="36.74926892683226" lon="137.87151298975846"><ele>833</ele><time>2025-04-20T03:52:58Z</time></trkpt>
<trkpt lat="36.74895991539548" lon="137.87155787616422"><ele>840</ele><time>2025-04-20T03:53:25Z</time></trkpt>
<trkpt lat="36.74885188040462" lon="137.87126103214658"><ele>834</ele><time>2025-04-20T03:53:50Z</time></trkpt>
<trkpt lat="36.74861640169656" lon="137.8709805831316"><ele>832</ele><time>2025-04-20T03:54:17Z</time></trkpt>
<trkpt lat="36.74849052247591" lon="137.87095857970363"><ele>829</ele><time>2025-04-20T03:55:16Z</time></trkpt>
<trkpt lat="36.748540930831716" lon="137.87096183045318"><ele>823</ele><time>2025-04-20T04:05:19Z</time></trkpt>
</trkseg>
</trk>
</gpx>