<?xml version="1.0" encoding="UTF-8"?>
<gpx xmlns:xsi="http://www.w3.org/2001/XMLSchema-instance" xmlns="http://www.topografix.com/GPX/1/1" xsi:schemaLocation="http://www.topografix.com/GPX/1/1 http://www.topografix.com/GPX/1/1/gpx.xsd" creator="Yamareco iOS 7.29 - www.yamareco.com">
<trk><name>track</name><number>1</number><trkseg>
<trkpt lat="36.153404253138746" lon="140.1192228931675"><ele>28</ele><time>2025-05-10T04:55:06Z</time></trkpt>
<trkpt lat="36.15356029302425" lon="140.11927130797602"><ele>28</ele><time>2025-05-10T04:55:33Z</time></trkpt>
<trkpt lat="36.15384831914851" lon="140.1194012767358"><ele>32</ele><time>2025-05-10T04:56:01Z</time></trkpt>
<trkpt lat="36.154050530000575" lon="140.1199804102142"><ele>34</ele><time>2025-05-10T04:56:28Z</time></trkpt>
<trkpt lat="36.15454880202828" lon="140.12043167132109"><ele>30</ele><time>2025-05-10T04:56:52Z</time></trkpt>
<trkpt lat="36.15512052495807" lon="140.1205466134504"><ele>31</ele><time>2025-05-10T04:57:16Z</time></trkpt>
<trkpt lat="36.1554324813905" lon="140.1207969292131"><ele>30</ele><time>2025-05-10T04:57:42Z</time></trkpt>
<trkpt lat="36.15570749255498" lon="140.12103061411364"><ele>32</ele><time>2025-05-10T04:58:08Z</time></trkpt>
<trkpt lat="36.155918352018624" lon="140.12137497368641"><ele>31</ele><time>2025-05-10T04:58:35Z</time></trkpt>
<trkpt lat="36.156371620691544" lon="140.12178053299274"><ele>35</ele><time>2025-05-10T04:58:59Z</time></trkpt>
<trkpt lat="36.156583508235826" lon="140.12210457702352"><ele>37</ele><time>2025-05-10T04:59:24Z</time></trkpt>
<trkpt lat="36.156728589659686" lon="140.12254395179247"><ele>41</ele><time>2025-05-10T04:59:50Z</time></trkpt>
<trkpt lat="36.156617007352196" lon="140.12284079203508"><ele>41</ele><time>2025-05-10T05:00:16Z</time></trkpt>
<trkpt lat="36.156836788427974" lon="140.1231893825284"><ele>45</ele><time>2025-05-10T05:00:42Z</time></trkpt>
<trkpt lat="36.15713216801275" lon="140.12353439924183"><ele>51</ele><time>2025-05-10T05:01:21Z</time></trkpt>
<trkpt lat="36.157560435258375" lon="140.12377449949722"><ele>57</ele><time>2025-05-10T05:01:44Z</time></trkpt>
<trkpt lat="36.15775530627349" lon="140.12391517865404"><ele>65</ele><time>2025-05-10T05:02:07Z</time></trkpt>
<trkpt lat="36.15805623957835" lon="140.1240844294251"><ele>73</ele><time>2025-05-10T05:02:35Z</time></trkpt>
<trkpt lat="36.15840885446312" lon="140.12436120544456"><ele>82</ele><time>2025-05-10T05:03:05Z</time></trkpt>
<trkpt lat="36.158665640103564" lon="140.12450909995513"><ele>91</ele><time>2025-05-10T05:03:31Z</time></trkpt>
<trkpt lat="36.15885020816265" lon="140.12477537108856"><ele>98</ele><time>2025-05-10T05:03:55Z</time></trkpt>
<trkpt lat="36.15913546068683" lon="140.12497923399388"><ele>108</ele><time>2025-05-10T05:04:27Z</time></trkpt>
<trkpt lat="36.15943969033341" lon="140.12513565606224"><ele>113</ele><time>2025-05-10T05:04:56Z</time></trkpt>
<trkpt lat="36.15975797094662" lon="140.12521800291168"><ele>123</ele><time>2025-05-10T05:05:21Z</time></trkpt>
<trkpt lat="36.159969010755376" lon="140.125261937521"><ele>134</ele><time>2025-05-10T05:05:52Z</time></trkpt>
<trkpt lat="36.16028164030494" lon="140.12535524076281"><ele>137</ele><time>2025-05-10T05:06:15Z</time></trkpt>
<trkpt lat="36.16046104140869" lon="140.125561913097"><ele>142</ele><time>2025-05-10T05:06:42Z</time></trkpt>
<trkpt lat="36.16076952263803" lon="140.12564888177602"><ele>149</ele><time>2025-05-10T05:07:08Z</time></trkpt>
<trkpt lat="36.16083948075527" lon="140.12578972523417"><ele>157</ele><time>2025-05-10T05:07:38Z</time></trkpt>
<trkpt lat="36.161086476633294" lon="140.1258959821382"><ele>163</ele><time>2025-05-10T05:08:08Z</time></trkpt>
<trkpt lat="36.161322224138495" lon="140.12603229844947"><ele>168</ele><time>2025-05-10T05:08:35Z</time></trkpt>
<trkpt lat="36.161504493869174" lon="140.1262083627861"><ele>176</ele><time>2025-05-10T05:09:01Z</time></trkpt>
<trkpt lat="36.16162994076946" lon="140.12641761764684"><ele>181</ele><time>2025-05-10T05:09:26Z</time></trkpt>
<trkpt lat="36.161837654164756" lon="140.1264604471493"><ele>187</ele><time>2025-05-10T05:09:52Z</time></trkpt>
<trkpt lat="36.16207799933825" lon="140.1265080204661"><ele>195</ele><time>2025-05-10T05:10:21Z</time></trkpt>
<trkpt lat="36.162477950197896" lon="140.1265241098814"><ele>207</ele><time>2025-05-10T05:10:54Z</time></trkpt>
<trkpt lat="36.162652720170364" lon="140.1268181304266"><ele>216</ele><time>2025-05-10T05:11:23Z</time></trkpt>
<trkpt lat="36.16276868902269" lon="140.12695970692587"><ele>221</ele><time>2025-05-10T05:12:09Z</time></trkpt>
<trkpt lat="36.16300067337692" lon="140.12706325938902"><ele>228</ele><time>2025-05-10T05:13:00Z</time></trkpt>
<trkpt lat="36.163063860820436" lon="140.1272265842215"><ele>232</ele><time>2025-05-10T05:13:37Z</time></trkpt>
<trkpt lat="36.163040873015476" lon="140.12738405079097"><ele>237</ele><time>2025-05-10T05:14:33Z</time></trkpt>
<trkpt lat="36.162865869097395" lon="140.127691242288"><ele>236</ele><time>2025-05-10T05:15:06Z</time></trkpt>
<trkpt lat="36.16257559504569" lon="140.12776893495752"><ele>243</ele><time>2025-05-10T05:15:35Z</time></trkpt>
<trkpt lat="36.16226134020138" lon="140.12775353555696"><ele>246</ele><time>2025-05-10T05:16:03Z</time></trkpt>
<trkpt lat="36.16197829891098" lon="140.12798586356365"><ele>249</ele><time>2025-05-10T05:16:30Z</time></trkpt>
<trkpt lat="36.16181951652435" lon="140.1282675188546"><ele>257</ele><time>2025-05-10T05:16:59Z</time></trkpt>
<trkpt lat="36.161623744618765" lon="140.12850042561314"><ele>263</ele><time>2025-05-10T05:17:30Z</time></trkpt>
<trkpt lat="36.16145838512176" lon="140.1287200593489"><ele>272</ele><time>2025-05-10T05:17:56Z</time></trkpt>
<trkpt lat="36.16124549589805" lon="140.1290289604733"><ele>270</ele><time>2025-05-10T05:18:25Z</time></trkpt>
<trkpt lat="36.16132630043536" lon="140.12944152334"><ele>272</ele><time>2025-05-10T05:18:52Z</time></trkpt>
<trkpt lat="36.16139437883683" lon="140.1297406417359"><ele>277</ele><time>2025-05-10T05:19:17Z</time></trkpt>
<trkpt lat="36.16151474545115" lon="140.12986805000716"><ele>280</ele><time>2025-05-10T05:19:41Z</time></trkpt>
<trkpt lat="36.16164179928864" lon="140.12996338824502"><ele>288</ele><time>2025-05-10T05:20:07Z</time></trkpt>
<trkpt lat="36.161768465748125" lon="140.12995833562618"><ele>297</ele><time>2025-05-10T05:20:41Z</time></trkpt>
<trkpt lat="36.161900693526924" lon="140.1299706451734"><ele>305</ele><time>2025-05-10T05:21:20Z</time></trkpt>
<trkpt lat="36.16205345362369" lon="140.12993453871115"><ele>311</ele><time>2025-05-10T05:21:48Z</time></trkpt>
<trkpt lat="36.162153165861895" lon="140.12983137622538"><ele>316</ele><time>2025-05-10T05:22:30Z</time></trkpt>
<trkpt lat="36.16232803696747" lon="140.12988146087594"><ele>323</ele><time>2025-05-10T05:22:58Z</time></trkpt>
<trkpt lat="36.162517468944806" lon="140.12983706798852"><ele>334</ele><time>2025-05-10T05:23:49Z</time></trkpt>
<trkpt lat="36.162697950351706" lon="140.1298028272383"><ele>342</ele><time>2025-05-10T05:24:28Z</time></trkpt>
<trkpt lat="36.16284369436272" lon="140.12996878338234"><ele>347</ele><time>2025-05-10T05:24:59Z</time></trkpt>
<trkpt lat="36.163127187981466" lon="140.13003427480123"><ele>354</ele><time>2025-05-10T05:25:29Z</time></trkpt>
<trkpt lat="36.16324761751754" lon="140.13022855672486"><ele>362</ele><time>2025-05-10T05:25:59Z</time></trkpt>
<trkpt lat="36.16335035199592" lon="140.13033273080305"><ele>368</ele><time>2025-05-10T05:26:33Z</time></trkpt>
<trkpt lat="36.1636026886515" lon="140.13024907633613"><ele>374</ele><time>2025-05-10T05:27:04Z</time></trkpt>
<trkpt lat="36.16383644640317" lon="140.13036315071452"><ele>379</ele><time>2025-05-10T05:27:36Z</time></trkpt>
<trkpt lat="36.16392111698703" lon="140.13060454707292"><ele>387</ele><time>2025-05-10T05:28:04Z</time></trkpt>
<trkpt lat="36.16409857405217" lon="140.1308693905412"><ele>392</ele><time>2025-05-10T05:28:33Z</time></trkpt>
<trkpt lat="36.16433248716516" lon="140.1309647778915"><ele>396</ele><time>2025-05-10T05:29:01Z</time></trkpt>
<trkpt lat="36.16449613836288" lon="140.1311797255945"><ele>400</ele><time>2025-05-10T05:29:36Z</time></trkpt>
<trkpt lat="36.16478928608078" lon="140.1311989639425"><ele>404</ele><time>2025-05-10T05:30:07Z</time></trkpt>
<trkpt lat="36.16491111412979" lon="140.13090733556172"><ele>410</ele><time>2025-05-10T05:30:36Z</time></trkpt>
<trkpt lat="36.165020863225855" lon="140.1305706792893"><ele>411</ele><time>2025-05-10T05:31:04Z</time></trkpt>
<trkpt lat="36.16524275730772" lon="140.13047542145026"><ele>414</ele><time>2025-05-10T05:31:33Z</time></trkpt>
<trkpt lat="36.16515065602672" lon="140.13078807737347"><ele>419</ele><time>2025-05-10T05:32:31Z</time></trkpt>
<trkpt lat="36.16538685757518" lon="140.13068273314556"><ele>423</ele><time>2025-05-10T05:33:07Z</time></trkpt>
<trkpt lat="36.165599351540564" lon="140.13053413487447"><ele>430</ele><time>2025-05-10T05:33:39Z</time></trkpt>
<trkpt lat="36.16586483968501" lon="140.1306171906309"><ele>435</ele><time>2025-05-10T05:34:06Z</time></trkpt>
<trkpt lat="36.166177476811086" lon="140.13049756007067"><ele>437</ele><time>2025-05-10T05:34:33Z</time></trkpt>
<trkpt lat="36.166508676862705" lon="140.13026726607248"><ele>435</ele><time>2025-05-10T05:34:58Z</time></trkpt>
<trkpt lat="36.16663763262115" lon="140.13018351115429"><ele>435</ele><time>2025-05-10T05:35:34Z</time></trkpt>
<trkpt lat="36.166529694640886" lon="140.1302219649222"><ele>435</ele><time>2025-05-10T05:37:05Z</time></trkpt>
<trkpt lat="36.16663930354207" lon="140.13021172658017"><ele>435</ele><time>2025-05-10T05:38:22Z</time></trkpt>
<trkpt lat="36.166833296792085" lon="140.12992629337427"><ele>437</ele><time>2025-05-10T05:39:28Z</time></trkpt>
<trkpt lat="36.1670563658289" lon="140.13007837082716"><ele>442</ele><time>2025-05-10T05:39:56Z</time></trkpt>
<trkpt lat="36.16718297881058" lon="140.1297170684114"><ele>445</ele><time>2025-05-10T05:40:26Z</time></trkpt>
<trkpt lat="36.167395553137084" lon="140.12985728461632"><ele>451</ele><time>2025-05-10T05:40:52Z</time></trkpt>
<trkpt lat="36.16750748812979" lon="140.1301015740326"><ele>457</ele><time>2025-05-10T05:43:54Z</time></trkpt>
<trkpt lat="36.1674677408006" lon="140.13022218401719"><ele>463</ele><time>2025-05-10T05:47:33Z</time></trkpt>
<trkpt lat="36.16757267355769" lon="140.12995766880564"><ele>458</ele><time>2025-05-10T05:51:06Z</time></trkpt>
<trkpt lat="36.16746885821917" lon="140.13013876991084"><ele>459</ele><time>2025-05-10T05:52:09Z</time></trkpt>
<trkpt lat="36.167374114876445" lon="140.12989992636597"><ele>454</ele><time>2025-05-10T05:52:34Z</time></trkpt>
<trkpt lat="36.16743355505376" lon="140.12974626130185"><ele>453</ele><time>2025-05-10T05:53:02Z</time></trkpt>
<trkpt lat="36.16731960960513" lon="140.12985355702548"><ele>451</ele><time>2025-05-10T05:55:32Z</time></trkpt>
<trkpt lat="36.167206375469185" lon="140.12996237197987"><ele>450</ele><time>2025-05-10T05:56:06Z</time></trkpt>
<trkpt lat="36.16729631087471" lon="140.12976782215355"><ele>452</ele><time>2025-05-10T05:56:42Z</time></trkpt>
<trkpt lat="36.16717172551248" lon="140.12953164910243"><ele>442</ele><time>2025-05-10T05:57:21Z</time></trkpt>
<trkpt lat="36.16702101381933" lon="140.12932554158667"><ele>434</ele><time>2025-05-10T05:58:20Z</time></trkpt>
<trkpt lat="36.16690599894328" lon="140.12912294444104"><ele>429</ele><time>2025-05-10T05:58:55Z</time></trkpt>
<trkpt lat="36.1667322126263" lon="140.1288763671972"><ele>419</ele><time>2025-05-10T05:59:36Z</time></trkpt>
<trkpt lat="36.166570671446124" lon="140.12866588857153"><ele>412</ele><time>2025-05-10T06:00:09Z</time></trkpt>
<trkpt lat="36.16640566776101" lon="140.1284940728138"><ele>405</ele><time>2025-05-10T06:00:45Z</time></trkpt>
<trkpt lat="36.16622741039554" lon="140.1284841405706"><ele>394</ele><time>2025-05-10T06:01:24Z</time></trkpt>
<trkpt lat="36.166229377766335" lon="140.12822610377287"><ele>388</ele><time>2025-05-10T06:02:06Z</time></trkpt>
<trkpt lat="36.166284258114494" lon="140.1279830423859"><ele>383</ele><time>2025-05-10T06:02:40Z</time></trkpt>
<trkpt lat="36.16617843482323" lon="140.12768420053143"><ele>376</ele><time>2025-05-10T06:03:10Z</time></trkpt>
<trkpt lat="36.16602465611322" lon="140.127609271741"><ele>368</ele><time>2025-05-10T06:03:38Z</time></trkpt>
<trkpt lat="36.165826924356594" lon="140.12752725608738"><ele>364</ele><time>2025-05-10T06:04:04Z</time></trkpt>
<trkpt lat="36.16565671267455" lon="140.12733973389746"><ele>356</ele><time>2025-05-10T06:04:35Z</time></trkpt>
<trkpt lat="36.16545166199726" lon="140.12707937274143"><ele>354</ele><time>2025-05-10T06:05:07Z</time></trkpt>
<trkpt lat="36.16531569963919" lon="140.12667685897196"><ele>350</ele><time>2025-05-10T06:05:36Z</time></trkpt>
<trkpt lat="36.165345212129495" lon="140.1263617986333"><ele>346</ele><time>2025-05-10T06:06:08Z</time></trkpt>
<trkpt lat="36.16518415508237" lon="140.12610124423205"><ele>343</ele><time>2025-05-10T06:06:44Z</time></trkpt>
<trkpt lat="36.165016036769046" lon="140.12624952041762"><ele>335</ele><time>2025-05-10T06:07:35Z</time></trkpt>
<trkpt lat="36.16486465722613" lon="140.12596371360453"><ele>330</ele><time>2025-05-10T06:08:18Z</time></trkpt>
<trkpt lat="36.164823213931776" lon="140.12562796750902"><ele>323</ele><time>2025-05-10T06:09:28Z</time></trkpt>
<trkpt lat="36.16472290501644" lon="140.12529554770597"><ele>316</ele><time>2025-05-10T06:09:53Z</time></trkpt>
<trkpt lat="36.16475456797011" lon="140.12499050817502"><ele>311</ele><time>2025-05-10T06:10:18Z</time></trkpt>
<trkpt lat="36.16468378041889" lon="140.12469945111928"><ele>306</ele><time>2025-05-10T06:10:48Z</time></trkpt>
<trkpt lat="36.16444278260521" lon="140.12446309983736"><ele>302</ele><time>2025-05-10T06:11:15Z</time></trkpt>
<trkpt lat="36.164168648615586" lon="140.12442619977725"><ele>300</ele><time>2025-05-10T06:11:46Z</time></trkpt>
<trkpt lat="36.16382483762404" lon="140.12433266945962"><ele>296</ele><time>2025-05-10T06:12:16Z</time></trkpt>
<trkpt lat="36.16346980523824" lon="140.12409416712345"><ele>291</ele><time>2025-05-10T06:12:42Z</time></trkpt>
<trkpt lat="36.16318675176387" lon="140.1239420883007"><ele>289</ele><time>2025-05-10T06:13:07Z</time></trkpt>
<trkpt lat="36.162929485931166" lon="140.12373736503667"><ele>280</ele><time>2025-05-10T06:13:32Z</time></trkpt>
<trkpt lat="36.162780226873295" lon="140.12373639868161"><ele>273</ele><time>2025-05-10T06:14:11Z</time></trkpt>
<trkpt lat="36.16257799295051" lon="140.12371475349727"><ele>265</ele><time>2025-05-10T06:15:07Z</time></trkpt>
<trkpt lat="36.16255247300088" lon="140.12391530598313"><ele>261</ele><time>2025-05-10T06:15:37Z</time></trkpt>
<trkpt lat="36.16230027931902" lon="140.12375760159037"><ele>252</ele><time>2025-05-10T06:16:07Z</time></trkpt>
<trkpt lat="36.16207112609445" lon="140.1234386118273"><ele>246</ele><time>2025-05-10T06:16:35Z</time></trkpt>
<trkpt lat="36.16194482049632" lon="140.12336645056067"><ele>239</ele><time>2025-05-10T06:17:03Z</time></trkpt>
<trkpt lat="36.16185256948056" lon="140.12319487605606"><ele>234</ele><time>2025-05-10T06:17:34Z</time></trkpt>
<trkpt lat="36.16180061678008" lon="140.12290933489393"><ele>224</ele><time>2025-05-10T06:18:11Z</time></trkpt>
<trkpt lat="36.161858107504514" lon="140.12251625850755"><ele>218</ele><time>2025-05-10T06:18:46Z</time></trkpt>
<trkpt lat="36.16185104265668" lon="140.1222333330796"><ele>213</ele><time>2025-05-10T06:19:15Z</time></trkpt>
<trkpt lat="36.16198210496189" lon="140.12196560681244"><ele>209</ele><time>2025-05-10T06:19:38Z</time></trkpt>
<trkpt lat="36.16175300555652" lon="140.12185995218258"><ele>203</ele><time>2025-05-10T06:20:10Z</time></trkpt>
<trkpt lat="36.16149618276315" lon="140.1221338074073"><ele>197</ele><time>2025-05-10T06:20:39Z</time></trkpt>
<trkpt lat="36.161428228303755" lon="140.12187775050361"><ele>190</ele><time>2025-05-10T06:21:12Z</time></trkpt>
<trkpt lat="36.16146790143115" lon="140.12163451215892"><ele>182</ele><time>2025-05-10T06:21:47Z</time></trkpt>
<trkpt lat="36.16154405046955" lon="140.12142189548064"><ele>179</ele><time>2025-05-10T06:22:16Z</time></trkpt>
<trkpt lat="36.16150458326416" lon="140.12105323418356"><ele>174</ele><time>2025-05-10T06:22:53Z</time></trkpt>
<trkpt lat="36.16132187750162" lon="140.12079500755254"><ele>164</ele><time>2025-05-10T06:23:31Z</time></trkpt>
<trkpt lat="36.161138714904055" lon="140.12089471927618"><ele>155</ele><time>2025-05-10T06:23:56Z</time></trkpt>
<trkpt lat="36.16098113482023" lon="140.120376203856"><ele>149</ele><time>2025-05-10T06:24:22Z</time></trkpt>
<trkpt lat="36.16110503858747" lon="140.1200155057381"><ele>140</ele><time>2025-05-10T06:25:12Z</time></trkpt>
<trkpt lat="36.161346948183116" lon="140.11986771641406"><ele>139</ele><time>2025-05-10T06:25:36Z</time></trkpt>
<trkpt lat="36.16145641017144" lon="140.11956019622312"><ele>137</ele><time>2025-05-10T06:26:03Z</time></trkpt>
<trkpt lat="36.16154679894965" lon="140.11922803144407"><ele>134</ele><time>2025-05-10T06:26:32Z</time></trkpt>
<trkpt lat="36.16149010089407" lon="140.11901854438366"><ele>125</ele><time>2025-05-10T06:27:03Z</time></trkpt>
<trkpt lat="36.16154659117096" lon="140.11870356481586"><ele>124</ele><time>2025-05-10T06:27:31Z</time></trkpt>
<trkpt lat="36.161619632185364" lon="140.11831196146593"><ele>120</ele><time>2025-05-10T06:27:56Z</time></trkpt>
<trkpt lat="36.16168187922915" lon="140.11794359274109"><ele>118</ele><time>2025-05-10T06:28:20Z</time></trkpt>
<trkpt lat="36.161713243781215" lon="140.11751111805248"><ele>114</ele><time>2025-05-10T06:28:50Z</time></trkpt>
<trkpt lat="36.16159266826982" lon="140.11712801214273"><ele>114</ele><time>2025-05-10T06:29:15Z</time></trkpt>
<trkpt lat="36.16136058531959" lon="140.1168023576046"><ele>112</ele><time>2025-05-10T06:29:42Z</time></trkpt>
<trkpt lat="36.16110937993767" lon="140.1164943808681"><ele>113</ele><time>2025-05-10T06:30:08Z</time></trkpt>
<trkpt lat="36.16092785032525" lon="140.11613382926294"><ele>115</ele><time>2025-05-10T06:30:36Z</time></trkpt>
<trkpt lat="36.16068283219801" lon="140.11587534679978"><ele>117</ele><time>2025-05-10T06:31:01Z</time></trkpt>
<trkpt lat="36.160426944041774" lon="140.11563629678818"><ele>118</ele><time>2025-05-10T06:31:30Z</time></trkpt>
<trkpt lat="36.16008522874163" lon="140.1154933198253"><ele>118</ele><time>2025-05-10T06:31:55Z</time></trkpt>
<trkpt lat="36.15980192999679" lon="140.11526952114204"><ele>119</ele><time>2025-05-10T06:32:20Z</time></trkpt>
<trkpt lat="36.159696687359535" lon="140.1149585038348"><ele>113</ele><time>2025-05-10T06:32:44Z</time></trkpt>
<trkpt lat="36.15952540647115" lon="140.11461104701274"><ele>112</ele><time>2025-05-10T06:33:08Z</time></trkpt>
<trkpt lat="36.159430829024565" lon="140.11420460461787"><ele>111</ele><time>2025-05-10T06:33:35Z</time></trkpt>
<trkpt lat="36.15924229762833" lon="140.11377427502674"><ele>111</ele><time>2025-05-10T06:33:59Z</time></trkpt>
<trkpt lat="36.15891609248433" lon="140.11372470939887"><ele>112</ele><time>2025-05-10T06:34:29Z</time></trkpt>
<trkpt lat="36.15872486804985" lon="140.11381922359283"><ele>107</ele><time>2025-05-10T06:34:56Z</time></trkpt>
<trkpt lat="36.158459852190184" lon="140.11369995850734"><ele>98</ele><time>2025-05-10T06:35:25Z</time></trkpt>
<trkpt lat="36.158314999016646" lon="140.11350565715134"><ele>91</ele><time>2025-05-10T06:35:52Z</time></trkpt>
<trkpt lat="36.158046409448815" lon="140.11335484731154"><ele>77</ele><time>2025-05-10T06:36:29Z</time></trkpt>
<trkpt lat="36.15791430115769" lon="140.1133925939989"><ele>64</ele><time>2025-05-10T06:37:05Z</time></trkpt>
<trkpt lat="36.157719187626704" lon="140.11304803514588"><ele>60</ele><time>2025-05-10T06:37:55Z</time></trkpt>
<trkpt lat="36.157595945120406" lon="140.11293683604217"><ele>51</ele><time>2025-05-10T06:38:34Z</time></trkpt>
<trkpt lat="36.157310265368515" lon="140.11337638615436"><ele>43</ele><time>2025-05-10T06:39:19Z</time></trkpt>
<trkpt lat="36.15688013603463" lon="140.11345853709759"><ele>37</ele><time>2025-05-10T06:39:43Z</time></trkpt>
<trkpt lat="36.15640904363327" lon="140.11353292119244"><ele>28</ele><time>2025-05-10T06:40:07Z</time></trkpt>
<trkpt lat="36.15611013665845" lon="140.11338874230546"><ele>32</ele><time>2025-05-10T06:40:32Z</time></trkpt>
<trkpt lat="36.155981911441266" lon="140.11338366196816"><ele>29</ele><time>2025-05-10T06:40:55Z</time></trkpt>
<trkpt lat="36.155688616571865" lon="140.11324018068495"><ele>24</ele><time>2025-05-10T06:41:27Z</time></trkpt>
<trkpt lat="36.15538075045734" lon="140.11304260263123"><ele>23</ele><time>2025-05-10T06:41:53Z</time></trkpt>
<trkpt lat="36.155164346904364" lon="140.11323575581548"><ele>25</ele><time>2025-05-10T06:42:21Z</time></trkpt>
<trkpt lat="36.15498682345926" lon="140.11354457479885"><ele>22</ele><time>2025-05-10T06:42:48Z</time></trkpt>
<trkpt lat="36.15480578208957" lon="140.11385291810524"><ele>26</ele><time>2025-05-10T06:43:14Z</time></trkpt>
<trkpt lat="36.15459384614818" lon="140.11410211936578"><ele>24</ele><time>2025-05-10T06:43:43Z</time></trkpt>
<trkpt lat="36.154357173876484" lon="140.11442363534906"><ele>25</ele><time>2025-05-10T06:44:12Z</time></trkpt>
<trkpt lat="36.15411452123223" lon="140.11467413798982"><ele>23</ele><time>2025-05-10T06:44:39Z</time></trkpt>
<trkpt lat="36.15391057427878" lon="140.11501172214506"><ele>25</ele><time>2025-05-10T06:45:04Z</time></trkpt>
<trkpt lat="36.15368863046467" lon="140.11533625872156"><ele>24</ele><time>2025-05-10T06:45:41Z</time></trkpt>
<trkpt lat="36.153496742768326" lon="140.11561538244698"><ele>22</ele><time>2025-05-10T06:46:08Z</time></trkpt>
<trkpt lat="36.153291039507735" lon="140.11589547705728"><ele>24</ele><time>2025-05-10T06:46:34Z</time></trkpt>
<trkpt lat="36.15307331695506" lon="140.11617604807395"><ele>22</ele><time>2025-05-10T06:47:39Z</time></trkpt>
<trkpt lat="36.15281088005341" lon="140.11641350563656"><ele>19</ele><time>2025-05-10T06:48:05Z</time></trkpt>
<trkpt lat="36.15253523399827" lon="140.11661868294894"><ele>19</ele><time>2025-05-10T06:48:31Z</time></trkpt>
<trkpt lat="36.15224989525096" lon="140.11678274836828"><ele>17</ele><time>2025-05-10T06:48:59Z</time></trkpt>
<trkpt lat="36.15189050699029" lon="140.11690402805942"><ele>17</ele><time>2025-05-10T06:49:24Z</time></trkpt>
<trkpt lat="36.151697289857516" lon="140.11726391465837"><ele>20</ele><time>2025-05-10T06:49:50Z</time></trkpt>
<trkpt lat="36.151639454555315" lon="140.11763308958774"><ele>20</ele><time>2025-05-10T06:50:16Z</time></trkpt>
<trkpt lat="36.15156625804945" lon="140.1179977459566"><ele>15</ele><time>2025-05-10T06:50:45Z</time></trkpt>
<trkpt lat="36.151678598191886" lon="140.11827281605417"><ele>17</ele><time>2025-05-10T06:51:10Z</time></trkpt>
<trkpt lat="36.15194812055744" lon="140.11844864909594"><ele>20</ele><time>2025-05-10T06:51:37Z</time></trkpt>
</trkseg>
</trk>
</gpx>