<?xml version="1.0" encoding="UTF-8"?>
<gpx xmlns:xsi="http://www.w3.org/2001/XMLSchema-instance" xmlns="http://www.topografix.com/GPX/1/1" xsi:schemaLocation="http://www.topografix.com/GPX/1/1 http://www.topografix.com/GPX/1/1/gpx.xsd" creator="Yamareco iOS 7.26 - www.yamareco.com">
<trk><name>track</name><number>1</number><trkseg>
<trkpt lat="40.64929034668415" lon="140.85023265936067"><ele>903</ele><time>2025-03-20T01:10:00Z</time></trkpt>
<trkpt lat="40.649532981796725" lon="140.85036924801327"><ele>902</ele><time>2025-03-20T01:11:31Z</time></trkpt>
<trkpt lat="40.649694737176475" lon="140.8506620785978"><ele>898</ele><time>2025-03-20T01:12:01Z</time></trkpt>
<trkpt lat="40.64972983762013" lon="140.85077991414101"><ele>899</ele><time>2025-03-20T01:12:37Z</time></trkpt>
<trkpt lat="40.64972492260417" lon="140.85089850661112"><ele>899</ele><time>2025-03-20T01:15:47Z</time></trkpt>
<trkpt lat="40.649761269811464" lon="140.85113799419813"><ele>898</ele><time>2025-03-20T01:19:35Z</time></trkpt>
<trkpt lat="40.64962057885175" lon="140.8514493695861"><ele>906</ele><time>2025-03-20T01:34:48Z</time></trkpt>
<trkpt lat="40.64951153887175" lon="140.85176819299454"><ele>908</ele><time>2025-03-20T01:35:36Z</time></trkpt>
<trkpt lat="40.64947500207706" lon="140.85205185914955"><ele>912</ele><time>2025-03-20T01:36:08Z</time></trkpt>
<trkpt lat="40.64944213016509" lon="140.85216933330636"><ele>916</ele><time>2025-03-20T01:38:25Z</time></trkpt>
<trkpt lat="40.64941235323774" lon="140.85236204460094"><ele>918</ele><time>2025-03-20T01:39:04Z</time></trkpt>
<trkpt lat="40.64943340664558" lon="140.85263186480367"><ele>922</ele><time>2025-03-20T01:39:39Z</time></trkpt>
<trkpt lat="40.649477161878096" lon="140.852860840632"><ele>930</ele><time>2025-03-20T01:40:16Z</time></trkpt>
<trkpt lat="40.64956591309747" lon="140.85310317733288"><ele>935</ele><time>2025-03-20T01:40:55Z</time></trkpt>
<trkpt lat="40.64951806623208" lon="140.8533345756385"><ele>939</ele><time>2025-03-20T01:41:27Z</time></trkpt>
<trkpt lat="40.64952651320095" lon="140.85358084925014"><ele>944</ele><time>2025-03-20T01:42:07Z</time></trkpt>
<trkpt lat="40.64948075587771" lon="140.85347361745585"><ele>942</ele><time>2025-03-20T01:43:25Z</time></trkpt>
<trkpt lat="40.64956905521718" lon="140.85370258450624"><ele>945</ele><time>2025-03-20T01:45:12Z</time></trkpt>
<trkpt lat="40.64965658507163" lon="140.85394096810504"><ele>950</ele><time>2025-03-20T01:45:44Z</time></trkpt>
<trkpt lat="40.64966623618021" lon="140.85423513106224"><ele>951</ele><time>2025-03-20T01:46:19Z</time></trkpt>
<trkpt lat="40.649689592793834" lon="140.85454134333932"><ele>955</ele><time>2025-03-20T01:46:54Z</time></trkpt>
<trkpt lat="40.64962029052576" lon="140.85484226039517"><ele>958</ele><time>2025-03-20T01:47:27Z</time></trkpt>
<trkpt lat="40.64960989429635" lon="140.8551208134531"><ele>962</ele><time>2025-03-20T01:48:00Z</time></trkpt>
<trkpt lat="40.6496188049765" lon="140.85540498909316"><ele>965</ele><time>2025-03-20T01:48:31Z</time></trkpt>
<trkpt lat="40.64962300119941" lon="140.85558450441837"><ele>966</ele><time>2025-03-20T01:49:04Z</time></trkpt>
<trkpt lat="40.64958772214678" lon="140.8558179490066"><ele>967</ele><time>2025-03-20T01:50:27Z</time></trkpt>
<trkpt lat="40.64953893333717" lon="140.85613110404935"><ele>972</ele><time>2025-03-20T01:51:07Z</time></trkpt>
<trkpt lat="40.64954337559911" lon="140.8565001446423"><ele>974</ele><time>2025-03-20T01:51:41Z</time></trkpt>
<trkpt lat="40.64951107638328" lon="140.8567989697956"><ele>976</ele><time>2025-03-20T01:52:10Z</time></trkpt>
<trkpt lat="40.64955010257031" lon="140.8571337465259"><ele>977</ele><time>2025-03-20T01:52:44Z</time></trkpt>
<trkpt lat="40.649521158851805" lon="140.85743982700598"><ele>982</ele><time>2025-03-20T01:53:12Z</time></trkpt>
<trkpt lat="40.649519504852876" lon="140.85767165271417"><ele>989</ele><time>2025-03-20T01:54:04Z</time></trkpt>
<trkpt lat="40.649459218421214" lon="140.85797572573654"><ele>990</ele><time>2025-03-20T01:54:37Z</time></trkpt>
<trkpt lat="40.649411107959274" lon="140.85811017776334"><ele>996</ele><time>2025-03-20T01:55:08Z</time></trkpt>
<trkpt lat="40.64936065412622" lon="140.8584053756317"><ele>995</ele><time>2025-03-20T01:55:45Z</time></trkpt>
<trkpt lat="40.64931495762651" lon="140.85873134367253"><ele>995</ele><time>2025-03-20T01:56:12Z</time></trkpt>
<trkpt lat="40.649283375894946" lon="140.85903410948814"><ele>997</ele><time>2025-03-20T01:56:43Z</time></trkpt>
<trkpt lat="40.64927025068401" lon="140.8593216619912"><ele>1002</ele><time>2025-03-20T01:57:13Z</time></trkpt>
<trkpt lat="40.649214246893656" lon="140.85959569541805"><ele>1005</ele><time>2025-03-20T01:57:44Z</time></trkpt>
<trkpt lat="40.64908134880532" lon="140.85978856422585"><ele>1008</ele><time>2025-03-20T01:58:13Z</time></trkpt>
<trkpt lat="40.64890523034116" lon="140.85997434402972"><ele>1010</ele><time>2025-03-20T01:58:43Z</time></trkpt>
<trkpt lat="40.64889430083124" lon="140.8602239113138"><ele>1013</ele><time>2025-03-20T01:59:16Z</time></trkpt>
<trkpt lat="40.64881259506787" lon="140.8604741127638"><ele>1015</ele><time>2025-03-20T01:59:48Z</time></trkpt>
<trkpt lat="40.648670132926895" lon="140.86069464998627"><ele>1017</ele><time>2025-03-20T02:00:19Z</time></trkpt>
<trkpt lat="40.64860538091879" lon="140.86098177953662"><ele>1019</ele><time>2025-03-20T02:00:49Z</time></trkpt>
<trkpt lat="40.64865013409239" lon="140.86122399064786"><ele>1023</ele><time>2025-03-20T02:01:30Z</time></trkpt>
<trkpt lat="40.64872306656973" lon="140.86144896409513"><ele>1028</ele><time>2025-03-20T02:02:13Z</time></trkpt>
<trkpt lat="40.648639908302755" lon="140.8618107368754"><ele>1031</ele><time>2025-03-20T02:02:47Z</time></trkpt>
<trkpt lat="40.64854038391569" lon="140.86210413873079"><ele>1032</ele><time>2025-03-20T02:03:17Z</time></trkpt>
<trkpt lat="40.648524376199845" lon="140.862354925998"><ele>1035</ele><time>2025-03-20T02:03:46Z</time></trkpt>
<trkpt lat="40.64852196396996" lon="140.8625870307822"><ele>1038</ele><time>2025-03-20T02:04:20Z</time></trkpt>
<trkpt lat="40.64860882500859" lon="140.86285286224714"><ele>1039</ele><time>2025-03-20T02:04:55Z</time></trkpt>
<trkpt lat="40.64876686391993" lon="140.8630547323229"><ele>1040</ele><time>2025-03-20T02:05:26Z</time></trkpt>
<trkpt lat="40.64897330748647" lon="140.8632325959911"><ele>1040</ele><time>2025-03-20T02:05:58Z</time></trkpt>
<trkpt lat="40.649162990843244" lon="140.86345575560392"><ele>1045</ele><time>2025-03-20T02:07:06Z</time></trkpt>
<trkpt lat="40.64930117112155" lon="140.86376136027758"><ele>1048</ele><time>2025-03-20T02:07:42Z</time></trkpt>
<trkpt lat="40.64932120182211" lon="140.86400750996137"><ele>1052</ele><time>2025-03-20T02:08:14Z</time></trkpt>
<trkpt lat="40.64926719762011" lon="140.86424778042363"><ele>1053</ele><time>2025-03-20T02:08:51Z</time></trkpt>
<trkpt lat="40.649243354648775" lon="140.86452864321797"><ele>1056</ele><time>2025-03-20T02:09:27Z</time></trkpt>
<trkpt lat="40.64915646526851" lon="140.86491116722587"><ele>1058</ele><time>2025-03-20T02:09:59Z</time></trkpt>
<trkpt lat="40.64915129409252" lon="140.8652237102447"><ele>1061</ele><time>2025-03-20T02:10:33Z</time></trkpt>
<trkpt lat="40.64925184087413" lon="140.86544152399543"><ele>1064</ele><time>2025-03-20T02:11:01Z</time></trkpt>
<trkpt lat="40.649407156536164" lon="140.86574978680147"><ele>1067</ele><time>2025-03-20T02:11:37Z</time></trkpt>
<trkpt lat="40.649392658310745" lon="140.8660087187734"><ele>1071</ele><time>2025-03-20T02:12:13Z</time></trkpt>
<trkpt lat="40.64935942486381" lon="140.86619213399902"><ele>1075</ele><time>2025-03-20T02:12:51Z</time></trkpt>
<trkpt lat="40.649252292132836" lon="140.8664165312683"><ele>1080</ele><time>2025-03-20T02:13:24Z</time></trkpt>
<trkpt lat="40.649075317336596" lon="140.8665281613037"><ele>1083</ele><time>2025-03-20T02:13:55Z</time></trkpt>
<trkpt lat="40.64905656891475" lon="140.86679920556108"><ele>1085</ele><time>2025-03-20T02:14:26Z</time></trkpt>
<trkpt lat="40.64915747877563" lon="140.86712696752926"><ele>1084</ele><time>2025-03-20T02:15:03Z</time></trkpt>
<trkpt lat="40.6492519142884" lon="140.86729971901988"><ele>1088</ele><time>2025-03-20T02:15:33Z</time></trkpt>
<trkpt lat="40.649367087360304" lon="140.86757050656"><ele>1088</ele><time>2025-03-20T02:16:14Z</time></trkpt>
<trkpt lat="40.649426706132246" lon="140.8677827094295"><ele>1090</ele><time>2025-03-20T02:16:46Z</time></trkpt>
<trkpt lat="40.649502930381324" lon="140.8679793308979"><ele>1094</ele><time>2025-03-20T02:17:23Z</time></trkpt>
<trkpt lat="40.64957819762824" lon="140.86814444804426"><ele>1099</ele><time>2025-03-20T02:17:59Z</time></trkpt>
<trkpt lat="40.649738098928694" lon="140.86841745876086"><ele>1102</ele><time>2025-03-20T02:22:46Z</time></trkpt>
<trkpt lat="40.64985962220683" lon="140.86868993260035"><ele>1108</ele><time>2025-03-20T02:23:17Z</time></trkpt>
<trkpt lat="40.65004372441303" lon="140.8689760060706"><ele>1114</ele><time>2025-03-20T02:23:50Z</time></trkpt>
<trkpt lat="40.6502085194956" lon="140.86923544693516"><ele>1121</ele><time>2025-03-20T02:24:23Z</time></trkpt>
<trkpt lat="40.65037119477742" lon="140.8694665068154"><ele>1127</ele><time>2025-03-20T02:24:53Z</time></trkpt>
<trkpt lat="40.650579724232344" lon="140.86967301643605"><ele>1134</ele><time>2025-03-20T02:25:27Z</time></trkpt>
<trkpt lat="40.65076955140671" lon="140.86983904718988"><ele>1139</ele><time>2025-03-20T02:26:00Z</time></trkpt>
<trkpt lat="40.65094721026203" lon="140.8699730928988"><ele>1145</ele><time>2025-03-20T02:26:33Z</time></trkpt>
<trkpt lat="40.65108992007005" lon="140.87017148427827"><ele>1150</ele><time>2025-03-20T02:27:06Z</time></trkpt>
<trkpt lat="40.65122552331474" lon="140.87041497790347"><ele>1154</ele><time>2025-03-20T02:27:41Z</time></trkpt>
<trkpt lat="40.6513232155713" lon="140.87067381787466"><ele>1159</ele><time>2025-03-20T02:28:31Z</time></trkpt>
<trkpt lat="40.651385448335446" lon="140.87094625639054"><ele>1168</ele><time>2025-03-20T02:29:05Z</time></trkpt>
<trkpt lat="40.651433001767295" lon="140.87122515735402"><ele>1171</ele><time>2025-03-20T02:29:39Z</time></trkpt>
<trkpt lat="40.65146476347717" lon="140.87148860643163"><ele>1178</ele><time>2025-03-20T02:30:14Z</time></trkpt>
<trkpt lat="40.65148238604343" lon="140.87174375270936"><ele>1184</ele><time>2025-03-20T02:30:50Z</time></trkpt>
<trkpt lat="40.65151275538031" lon="140.87190091227632"><ele>1188</ele><time>2025-03-20T02:31:35Z</time></trkpt>
<trkpt lat="40.65155439198206" lon="140.87206173229848"><ele>1190</ele><time>2025-03-20T02:32:20Z</time></trkpt>
<trkpt lat="40.6516176279801" lon="140.87230478820194"><ele>1199</ele><time>2025-03-20T02:32:59Z</time></trkpt>
<trkpt lat="40.651708308652864" lon="140.87249752083542"><ele>1204</ele><time>2025-03-20T02:33:40Z</time></trkpt>
<trkpt lat="40.651806565621335" lon="140.8726973296199"><ele>1211</ele><time>2025-03-20T02:34:16Z</time></trkpt>
<trkpt lat="40.651859065822435" lon="140.87296478701214"><ele>1215</ele><time>2025-03-20T02:35:04Z</time></trkpt>
<trkpt lat="40.65191629564674" lon="140.87321812781113"><ele>1219</ele><time>2025-03-20T02:35:36Z</time></trkpt>
<trkpt lat="40.65199974923168" lon="140.87346841661474"><ele>1224</ele><time>2025-03-20T02:36:11Z</time></trkpt>
<trkpt lat="40.65206283637758" lon="140.8737214782851"><ele>1232</ele><time>2025-03-20T02:36:47Z</time></trkpt>
<trkpt lat="40.652140360381125" lon="140.87396685940908"><ele>1239</ele><time>2025-03-20T02:37:22Z</time></trkpt>
<trkpt lat="40.652214884834166" lon="140.87412882831907"><ele>1247</ele><time>2025-03-20T02:38:33Z</time></trkpt>
<trkpt lat="40.65234431373365" lon="140.8743167163298"><ele>1253</ele><time>2025-03-20T02:39:27Z</time></trkpt>
<trkpt lat="40.652330657297306" lon="140.87453907553947"><ele>1261</ele><time>2025-03-20T02:41:17Z</time></trkpt>
<trkpt lat="40.652333123530035" lon="140.87476286270007"><ele>1265</ele><time>2025-03-20T02:42:23Z</time></trkpt>
<trkpt lat="40.65232061563239" lon="140.87496127888494"><ele>1271</ele><time>2025-03-20T02:43:45Z</time></trkpt>
<trkpt lat="40.6523535751332" lon="140.87510600701594"><ele>1275</ele><time>2025-03-20T02:44:23Z</time></trkpt>
<trkpt lat="40.652402853887374" lon="140.87536333050116"><ele>1278</ele><time>2025-03-20T02:45:08Z</time></trkpt>
<trkpt lat="40.652419508191684" lon="140.87556993700082"><ele>1283</ele><time>2025-03-20T02:45:50Z</time></trkpt>
<trkpt lat="40.65244447223618" lon="140.87583000726337"><ele>1289</ele><time>2025-03-20T02:46:30Z</time></trkpt>
<trkpt lat="40.65245896788216" lon="140.87613165126965"><ele>1293</ele><time>2025-03-20T02:47:04Z</time></trkpt>
<trkpt lat="40.652453133411726" lon="140.87644378568612"><ele>1297</ele><time>2025-03-20T02:47:36Z</time></trkpt>
<trkpt lat="40.65238175337845" lon="140.87667177875593"><ele>1302</ele><time>2025-03-20T02:48:56Z</time></trkpt>
<trkpt lat="40.65235163882793" lon="140.87699024911402"><ele>1306</ele><time>2025-03-20T02:49:24Z</time></trkpt>
<trkpt lat="40.65237012850637" lon="140.87714900938525"><ele>1307</ele><time>2025-03-20T02:49:54Z</time></trkpt>
<trkpt lat="40.65240658196145" lon="140.87731176245697"><ele>1309</ele><time>2025-03-20T02:51:15Z</time></trkpt>
<trkpt lat="40.652427362413555" lon="140.87757905936937"><ele>1311</ele><time>2025-03-20T02:53:04Z</time></trkpt>
<trkpt lat="40.652272806363776" lon="140.8773658391729"><ele>1315</ele><time>2025-03-20T03:00:37Z</time></trkpt>
<trkpt lat="40.65212365373963" lon="140.87760678383796"><ele>1317</ele><time>2025-03-20T03:01:15Z</time></trkpt>
<trkpt lat="40.65192817823661" lon="140.87788127419836"><ele>1320</ele><time>2025-03-20T03:01:46Z</time></trkpt>
<trkpt lat="40.65180360542027" lon="140.87823968591317"><ele>1322</ele><time>2025-03-20T03:02:12Z</time></trkpt>
<trkpt lat="40.65173419318634" lon="140.87863256984807"><ele>1323</ele><time>2025-03-20T03:02:38Z</time></trkpt>
<trkpt lat="40.65174382400743" lon="140.87884751548984"><ele>1324</ele><time>2025-03-20T03:03:14Z</time></trkpt>
<trkpt lat="40.651543969439295" lon="140.87905726022743"><ele>1323</ele><time>2025-03-20T03:03:44Z</time></trkpt>
<trkpt lat="40.651277785599454" lon="140.87925948814515"><ele>1322</ele><time>2025-03-20T03:04:10Z</time></trkpt>
<trkpt lat="40.65106587865703" lon="140.87944161329614"><ele>1324</ele><time>2025-03-20T03:04:44Z</time></trkpt>
<trkpt lat="40.6508369914561" lon="140.87959592507016"><ele>1324</ele><time>2025-03-20T03:05:12Z</time></trkpt>
<trkpt lat="40.650597715237964" lon="140.87975099840594"><ele>1326</ele><time>2025-03-20T03:05:43Z</time></trkpt>
<trkpt lat="40.65035897331665" lon="140.8799615065598"><ele>1329</ele><time>2025-03-20T03:06:11Z</time></trkpt>
<trkpt lat="40.650207794333895" lon="140.87996928553264"><ele>1328</ele><time>2025-03-20T03:06:49Z</time></trkpt>
<trkpt lat="40.6502900354217" lon="140.8799020757857"><ele>1325</ele><time>2025-03-20T03:15:19Z</time></trkpt>
<trkpt lat="40.65025968582087" lon="140.87977657464953"><ele>1326</ele><time>2025-03-20T03:18:52Z</time></trkpt>
<trkpt lat="40.65035336733545" lon="140.87975376996837"><ele>1326</ele><time>2025-03-20T03:21:36Z</time></trkpt>
<trkpt lat="40.650335773135936" lon="140.87987191258804"><ele>1325</ele><time>2025-03-20T03:22:19Z</time></trkpt>
<trkpt lat="40.65022758756712" lon="140.87983219797312"><ele>1324</ele><time>2025-03-20T03:23:49Z</time></trkpt>
<trkpt lat="40.650418687173875" lon="140.87993622602698"><ele>1327</ele><time>2025-03-20T03:29:01Z</time></trkpt>
<trkpt lat="40.65023740158389" lon="140.87994161496607"><ele>1328</ele><time>2025-03-20T03:29:29Z</time></trkpt>
<trkpt lat="40.65028140061873" lon="140.8800451673265"><ele>1332</ele><time>2025-03-20T03:31:45Z</time></trkpt>
<trkpt lat="40.650460203102206" lon="140.88055692634825"><ele>1326</ele><time>2025-03-20T03:32:23Z</time></trkpt>
<trkpt lat="40.650698239417146" lon="140.88075533903032"><ele>1325</ele><time>2025-03-20T03:33:02Z</time></trkpt>
<trkpt lat="40.6510081870568" lon="140.88096381417586"><ele>1325</ele><time>2025-03-20T03:33:30Z</time></trkpt>
<trkpt lat="40.651241681870296" lon="140.88122237173104"><ele>1324</ele><time>2025-03-20T03:33:56Z</time></trkpt>
<trkpt lat="40.65143915717932" lon="140.88140205685627"><ele>1326</ele><time>2025-03-20T03:34:25Z</time></trkpt>
<trkpt lat="40.651702338601716" lon="140.88154282370195"><ele>1327</ele><time>2025-03-20T03:34:55Z</time></trkpt>
<trkpt lat="40.6518672175918" lon="140.88119646182477"><ele>1327</ele><time>2025-03-20T03:35:33Z</time></trkpt>
<trkpt lat="40.652100415922355" lon="140.88094481289116"><ele>1327</ele><time>2025-03-20T03:36:36Z</time></trkpt>
<trkpt lat="40.65227711853239" lon="140.88084965294755"><ele>1328</ele><time>2025-03-20T03:37:04Z</time></trkpt>
<trkpt lat="40.65249942467207" lon="140.8806988864637"><ele>1332</ele><time>2025-03-20T03:37:34Z</time></trkpt>
<trkpt lat="40.65264904814481" lon="140.88060690665404"><ele>1335</ele><time>2025-03-20T03:38:08Z</time></trkpt>
<trkpt lat="40.65284665333256" lon="140.8804891259144"><ele>1340</ele><time>2025-03-20T03:38:45Z</time></trkpt>
<trkpt lat="40.653041545547644" lon="140.88033412915604"><ele>1344</ele><time>2025-03-20T03:39:19Z</time></trkpt>
<trkpt lat="40.65322736483901" lon="140.88021251267864"><ele>1349</ele><time>2025-03-20T03:39:51Z</time></trkpt>
<trkpt lat="40.65341990188169" lon="140.8800381023391"><ele>1352</ele><time>2025-03-20T03:40:25Z</time></trkpt>
<trkpt lat="40.653584085291534" lon="140.8798884857079"><ele>1355</ele><time>2025-03-20T03:40:56Z</time></trkpt>
<trkpt lat="40.65366340149199" lon="140.87960265686505"><ele>1358</ele><time>2025-03-20T03:41:31Z</time></trkpt>
<trkpt lat="40.65384301605045" lon="140.87941887180762"><ele>1360</ele><time>2025-03-20T03:41:59Z</time></trkpt>
<trkpt lat="40.65401029775541" lon="140.87935463136364"><ele>1364</ele><time>2025-03-20T03:42:33Z</time></trkpt>
<trkpt lat="40.65422981632348" lon="140.87932063712014"><ele>1365</ele><time>2025-03-20T03:43:25Z</time></trkpt>
<trkpt lat="40.65435250721884" lon="140.87933323803153"><ele>1371</ele><time>2025-03-20T03:44:10Z</time></trkpt>
<trkpt lat="40.65451037076797" lon="140.87936161802577"><ele>1377</ele><time>2025-03-20T03:44:55Z</time></trkpt>
<trkpt lat="40.654576937214046" lon="140.87910445738626"><ele>1385</ele><time>2025-03-20T03:45:36Z</time></trkpt>
<trkpt lat="40.654681929495766" lon="140.87894300490123"><ele>1388</ele><time>2025-03-20T03:46:52Z</time></trkpt>
<trkpt lat="40.654763164988594" lon="140.87873989002986"><ele>1392</ele><time>2025-03-20T03:47:32Z</time></trkpt>
<trkpt lat="40.65481328388188" lon="140.87854824101584"><ele>1398</ele><time>2025-03-20T03:48:12Z</time></trkpt>
<trkpt lat="40.654883636033546" lon="140.87841323046405"><ele>1401</ele><time>2025-03-20T03:48:50Z</time></trkpt>
<trkpt lat="40.65496394964511" lon="140.87867492019868"><ele>1410</ele><time>2025-03-20T03:50:42Z</time></trkpt>
<trkpt lat="40.655038978706344" lon="140.87888149837323"><ele>1413</ele><time>2025-03-20T03:51:50Z</time></trkpt>
<trkpt lat="40.65513073474628" lon="140.8790497450037"><ele>1418</ele><time>2025-03-20T03:53:02Z</time></trkpt>
<trkpt lat="40.65522189212409" lon="140.87927023220675"><ele>1427</ele><time>2025-03-20T03:53:41Z</time></trkpt>
<trkpt lat="40.65537234321728" lon="140.87938627943737"><ele>1429</ele><time>2025-03-20T03:54:22Z</time></trkpt>
<trkpt lat="40.65553730742078" lon="140.87951801196533"><ele>1432</ele><time>2025-03-20T03:54:59Z</time></trkpt>
<trkpt lat="40.655669632637604" lon="140.8795861601042"><ele>1427</ele><time>2025-03-20T03:56:16Z</time></trkpt>
<trkpt lat="40.65569569390347" lon="140.8793710608409"><ele>1433</ele><time>2025-03-20T03:57:44Z</time></trkpt>
<trkpt lat="40.655534342909505" lon="140.87911768193317"><ele>1429</ele><time>2025-03-20T03:58:44Z</time></trkpt>
<trkpt lat="40.65532077293378" lon="140.87889083443767"><ele>1424</ele><time>2025-03-20T03:59:18Z</time></trkpt>
<trkpt lat="40.65517649845153" lon="140.87864586399365"><ele>1420</ele><time>2025-03-20T03:59:43Z</time></trkpt>
<trkpt lat="40.655078451404634" lon="140.8786720991312"><ele>1424</ele><time>2025-03-20T04:08:22Z</time></trkpt>
<trkpt lat="40.65502259385402" lon="140.8790089447501"><ele>1414</ele><time>2025-03-20T04:09:33Z</time></trkpt>
<trkpt lat="40.654969123117944" lon="140.8793202334516"><ele>1407</ele><time>2025-03-20T04:09:58Z</time></trkpt>
<trkpt lat="40.65479283562338" lon="140.87921592405456"><ele>1395</ele><time>2025-03-20T04:10:31Z</time></trkpt>
<trkpt lat="40.65477635495661" lon="140.87981886216716"><ele>1385</ele><time>2025-03-20T04:11:18Z</time></trkpt>
<trkpt lat="40.65474088771984" lon="140.87995633931615"><ele>1376</ele><time>2025-03-20T04:12:54Z</time></trkpt>
<trkpt lat="40.65459615512724" lon="140.87988149782615"><ele>1369</ele><time>2025-03-20T04:15:41Z</time></trkpt>
<trkpt lat="40.65465321658066" lon="140.8800644669277"><ele>1367</ele><time>2025-03-20T04:16:28Z</time></trkpt>
<trkpt lat="40.65487934994518" lon="140.8803007157059"><ele>1370</ele><time>2025-03-20T04:19:21Z</time></trkpt>
<trkpt lat="40.65499063598776" lon="140.8806576791123"><ele>1374</ele><time>2025-03-20T04:21:08Z</time></trkpt>
<trkpt lat="40.65501517302003" lon="140.88105634943443"><ele>1378</ele><time>2025-03-20T04:21:35Z</time></trkpt>
<trkpt lat="40.65513664716024" lon="140.8813655688273"><ele>1378</ele><time>2025-03-20T04:22:02Z</time></trkpt>
<trkpt lat="40.65531456634488" lon="140.88166832783486"><ele>1380</ele><time>2025-03-20T04:22:29Z</time></trkpt>
<trkpt lat="40.655507878756985" lon="140.88185035889055"><ele>1383</ele><time>2025-03-20T04:23:04Z</time></trkpt>
<trkpt lat="40.655698563060355" lon="140.8819667482975"><ele>1385</ele><time>2025-03-20T04:23:43Z</time></trkpt>
<trkpt lat="40.65591965497353" lon="140.88202911435772"><ele>1388</ele><time>2025-03-20T04:24:32Z</time></trkpt>
<trkpt lat="40.65612567406018" lon="140.88204702776332"><ele>1389</ele><time>2025-03-20T04:25:06Z</time></trkpt>
<trkpt lat="40.65629048401342" lon="140.88212925285188"><ele>1389</ele><time>2025-03-20T04:26:00Z</time></trkpt>
<trkpt lat="40.656563014618385" lon="140.88232573833915"><ele>1388</ele><time>2025-03-20T04:26:30Z</time></trkpt>
<trkpt lat="40.65679160137597" lon="140.8823717018235"><ele>1393</ele><time>2025-03-20T04:27:03Z</time></trkpt>
<trkpt lat="40.65695529047827" lon="140.88222514300227"><ele>1395</ele><time>2025-03-20T04:29:19Z</time></trkpt>
<trkpt lat="40.65717591148716" lon="140.88210884746263"><ele>1396</ele><time>2025-03-20T04:30:14Z</time></trkpt>
<trkpt lat="40.657327540804054" lon="140.8820972166184"><ele>1398</ele><time>2025-03-20T04:31:00Z</time></trkpt>
<trkpt lat="40.6574575588004" lon="140.88210284209174"><ele>1402</ele><time>2025-03-20T04:31:45Z</time></trkpt>
<trkpt lat="40.657618502757806" lon="140.88209884970445"><ele>1401</ele><time>2025-03-20T04:32:33Z</time></trkpt>
<trkpt lat="40.65785888405392" lon="140.88213646036812"><ele>1403</ele><time>2025-03-20T04:33:05Z</time></trkpt>
<trkpt lat="40.65802655573623" lon="140.88210721610733"><ele>1406</ele><time>2025-03-20T04:33:46Z</time></trkpt>
<trkpt lat="40.65828669809958" lon="140.88202405149232"><ele>1409</ele><time>2025-03-20T04:34:57Z</time></trkpt>
<trkpt lat="40.658526657804195" lon="140.8820075301125"><ele>1414</ele><time>2025-03-20T04:35:28Z</time></trkpt>
<trkpt lat="40.65867152715302" lon="140.8819825371496"><ele>1415</ele><time>2025-03-20T04:36:05Z</time></trkpt>
<trkpt lat="40.65882439596896" lon="140.88196550628473"><ele>1415</ele><time>2025-03-20T04:36:40Z</time></trkpt>
<trkpt lat="40.65908885214189" lon="140.88192049288716"><ele>1417</ele><time>2025-03-20T04:37:30Z</time></trkpt>
<trkpt lat="40.659213491385295" lon="140.88192217632255"><ele>1419</ele><time>2025-03-20T04:38:26Z</time></trkpt>
<trkpt lat="40.65945030418546" lon="140.88189078660477"><ele>1422</ele><time>2025-03-20T04:38:58Z</time></trkpt>
<trkpt lat="40.65963747185238" lon="140.88186801367405"><ele>1426</ele><time>2025-03-20T04:39:28Z</time></trkpt>
<trkpt lat="40.659863616409154" lon="140.88180124044572"><ele>1427</ele><time>2025-03-20T04:39:58Z</time></trkpt>
<trkpt lat="40.66012438417639" lon="140.88164413541895"><ele>1430</ele><time>2025-03-20T04:40:48Z</time></trkpt>
<trkpt lat="40.660325275999725" lon="140.8814986523935"><ele>1432</ele><time>2025-03-20T04:41:18Z</time></trkpt>
<trkpt lat="40.66053582067127" lon="140.8813188317016"><ele>1433</ele><time>2025-03-20T04:42:29Z</time></trkpt>
<trkpt lat="40.660705131278526" lon="140.88109677626412"><ele>1435</ele><time>2025-03-20T04:42:58Z</time></trkpt>
<trkpt lat="40.66085502957152" lon="140.88089008049988"><ele>1439</ele><time>2025-03-20T04:43:40Z</time></trkpt>
<trkpt lat="40.66092791205203" lon="140.88077649332303"><ele>1438</ele><time>2025-03-20T04:44:29Z</time></trkpt>
<trkpt lat="40.6610672588153" lon="140.88051692428076"><ele>1442</ele><time>2025-03-20T04:45:56Z</time></trkpt>
<trkpt lat="40.661156426186366" lon="140.88041131424998"><ele>1444</ele><time>2025-03-20T04:46:57Z</time></trkpt>
<trkpt lat="40.6612377068665" lon="140.88033299544458"><ele>1446</ele><time>2025-03-20T04:52:50Z</time></trkpt>
<trkpt lat="40.66132626455611" lon="140.88017917314104"><ele>1451</ele><time>2025-03-20T04:54:10Z</time></trkpt>
<trkpt lat="40.66142454723088" lon="140.87997237667838"><ele>1451</ele><time>2025-03-20T04:54:49Z</time></trkpt>
<trkpt lat="40.66156963235933" lon="140.87962933003362"><ele>1453</ele><time>2025-03-20T04:55:18Z</time></trkpt>
<trkpt lat="40.66169193593786" lon="140.87928887307217"><ele>1453</ele><time>2025-03-20T04:55:48Z</time></trkpt>
<trkpt lat="40.66182856124171" lon="140.87901699324976"><ele>1453</ele><time>2025-03-20T04:56:13Z</time></trkpt>
<trkpt lat="40.6620255125707" lon="140.87888038706885"><ele>1447</ele><time>2025-03-20T04:56:43Z</time></trkpt>
<trkpt lat="40.662226474049994" lon="140.8787914839992"><ele>1444</ele><time>2025-03-20T04:57:14Z</time></trkpt>
<trkpt lat="40.662381699465065" lon="140.87842663071882"><ele>1444</ele><time>2025-03-20T04:57:42Z</time></trkpt>
<trkpt lat="40.662583291354785" lon="140.87822499423498"><ele>1438</ele><time>2025-03-20T04:58:09Z</time></trkpt>
<trkpt lat="40.66264930304089" lon="140.8780862672452"><ele>1436</ele><time>2025-03-20T05:05:42Z</time></trkpt>
<trkpt lat="40.662531977540134" lon="140.8782131324791"><ele>1439</ele><time>2025-03-20T05:16:16Z</time></trkpt>
<trkpt lat="40.66248589515349" lon="140.8779891489828"><ele>1436</ele><time>2025-03-20T05:17:35Z</time></trkpt>
<trkpt lat="40.6625814618504" lon="140.87757271884016"><ele>1436</ele><time>2025-03-20T05:18:13Z</time></trkpt>
<trkpt lat="40.66264738115353" lon="140.87742090070202"><ele>1433</ele><time>2025-03-20T05:18:49Z</time></trkpt>
<trkpt lat="40.66275916094146" lon="140.8770290559733"><ele>1430</ele><time>2025-03-20T05:19:12Z</time></trkpt>
<trkpt lat="40.66282915897581" lon="140.8767155062017"><ele>1423</ele><time>2025-03-20T05:19:42Z</time></trkpt>
<trkpt lat="40.66301892069805" lon="140.87660825788876"><ele>1419</ele><time>2025-03-20T05:20:12Z</time></trkpt>
<trkpt lat="40.663199975707776" lon="140.87619799217663"><ele>1410</ele><time>2025-03-20T05:20:45Z</time></trkpt>
<trkpt lat="40.66360608376309" lon="140.87556792593696"><ele>1394</ele><time>2025-03-20T05:21:09Z</time></trkpt>
<trkpt lat="40.66363758029075" lon="140.87519545932633"><ele>1384</ele><time>2025-03-20T05:21:34Z</time></trkpt>
<trkpt lat="40.663836508373706" lon="140.87488815429734"><ele>1376</ele><time>2025-03-20T05:21:59Z</time></trkpt>
<trkpt lat="40.66396979247174" lon="140.8744811075946"><ele>1369</ele><time>2025-03-20T05:22:50Z</time></trkpt>
<trkpt lat="40.663936426950876" lon="140.8742765980368"><ele>1369</ele><time>2025-03-20T05:23:25Z</time></trkpt>
<trkpt lat="40.66377220796173" lon="140.87396901279985"><ele>1364</ele><time>2025-03-20T05:23:51Z</time></trkpt>
<trkpt lat="40.663597873515315" lon="140.87373519338678"><ele>1359</ele><time>2025-03-20T05:24:23Z</time></trkpt>
<trkpt lat="40.66345357186561" lon="140.87353176956077"><ele>1360</ele><time>2025-03-20T05:24:57Z</time></trkpt>
<trkpt lat="40.66334544173407" lon="140.87342467979627"><ele>1359</ele><time>2025-03-20T05:25:52Z</time></trkpt>
<trkpt lat="40.66323272760049" lon="140.87341074253632"><ele>1362</ele><time>2025-03-20T05:26:40Z</time></trkpt>
<trkpt lat="40.663112440737244" lon="140.87342482234112"><ele>1365</ele><time>2025-03-20T05:27:45Z</time></trkpt>
<trkpt lat="40.66292534238698" lon="140.87336358217118"><ele>1368</ele><time>2025-03-20T05:28:54Z</time></trkpt>
<trkpt lat="40.66277975075444" lon="140.87339652929447"><ele>1370</ele><time>2025-03-20T05:30:16Z</time></trkpt>
<trkpt lat="40.66261065009768" lon="140.87335713250465"><ele>1374</ele><time>2025-03-20T05:31:12Z</time></trkpt>
<trkpt lat="40.66248110018963" lon="140.8734275190492"><ele>1376</ele><time>2025-03-20T05:32:17Z</time></trkpt>
<trkpt lat="40.66236995722216" lon="140.87345905673394"><ele>1380</ele><time>2025-03-20T05:35:20Z</time></trkpt>
<trkpt lat="40.66223339748214" lon="140.87350378525522"><ele>1380</ele><time>2025-03-20T05:37:56Z</time></trkpt>
<trkpt lat="40.66208924169784" lon="140.87343040496347"><ele>1378</ele><time>2025-03-20T05:39:43Z</time></trkpt>
<trkpt lat="40.66199506856915" lon="140.87343710767772"><ele>1379</ele><time>2025-03-20T05:41:27Z</time></trkpt>
<trkpt lat="40.661882839357474" lon="140.8734399506901"><ele>1381</ele><time>2025-03-20T05:42:42Z</time></trkpt>
<trkpt lat="40.66183660763137" lon="140.87357475043655"><ele>1385</ele><time>2025-03-20T05:45:48Z</time></trkpt>
<trkpt lat="40.661728162449776" lon="140.87364179671556"><ele>1388</ele><time>2025-03-20T05:51:55Z</time></trkpt>
<trkpt lat="40.661609357026286" lon="140.87371282051333"><ele>1392</ele><time>2025-03-20T05:54:20Z</time></trkpt>
<trkpt lat="40.66146831783765" lon="140.87364866296898"><ele>1393</ele><time>2025-03-20T05:55:24Z</time></trkpt>
<trkpt lat="40.661325085304924" lon="140.87363256619253"><ele>1394</ele><time>2025-03-20T05:57:30Z</time></trkpt>
<trkpt lat="40.66110027826573" lon="140.87359058932037"><ele>1395</ele><time>2025-03-20T05:58:38Z</time></trkpt>
<trkpt lat="40.6609024194394" lon="140.87343387050788"><ele>1395</ele><time>2025-03-20T05:59:09Z</time></trkpt>
<trkpt lat="40.66075108900214" lon="140.87341255393022"><ele>1394</ele><time>2025-03-20T05:59:46Z</time></trkpt>
<trkpt lat="40.66057441197551" lon="140.8732730713723"><ele>1394</ele><time>2025-03-20T06:00:22Z</time></trkpt>
<trkpt lat="40.660295753674205" lon="140.87300503099505"><ele>1392</ele><time>2025-03-20T06:00:52Z</time></trkpt>
<trkpt lat="40.65980432542089" lon="140.87263080319747"><ele>1389</ele><time>2025-03-20T06:02:16Z</time></trkpt>
<trkpt lat="40.65968134380334" lon="140.8725575693803"><ele>1386</ele><time>2025-03-20T06:02:46Z</time></trkpt>
<trkpt lat="40.659254208058464" lon="140.8720964692594"><ele>1376</ele><time>2025-03-20T06:03:29Z</time></trkpt>
<trkpt lat="40.65918194586022" lon="140.87185737010475"><ele>1371</ele><time>2025-03-20T06:04:21Z</time></trkpt>
<trkpt lat="40.659074584067895" lon="140.87152305800075"><ele>1357</ele><time>2025-03-20T06:04:48Z</time></trkpt>
<trkpt lat="40.65916844284693" lon="140.87131697298824"><ele>1352</ele><time>2025-03-20T06:05:11Z</time></trkpt>
<trkpt lat="40.65915789343623" lon="140.8710417093711"><ele>1345</ele><time>2025-03-20T06:05:34Z</time></trkpt>
<trkpt lat="40.65915114588206" lon="140.870662084766"><ele>1330</ele><time>2025-03-20T06:06:05Z</time></trkpt>
<trkpt lat="40.65915841055107" lon="140.8698668182052"><ele>1314</ele><time>2025-03-20T06:06:50Z</time></trkpt>
<trkpt lat="40.65869239463258" lon="140.86933077147606"><ele>1296</ele><time>2025-03-20T06:07:24Z</time></trkpt>
<trkpt lat="40.65890436185039" lon="140.86876098499158"><ele>1281</ele><time>2025-03-20T06:08:16Z</time></trkpt>
<trkpt lat="40.65853986571711" lon="140.8677459398459"><ele>1259</ele><time>2025-03-20T06:08:41Z</time></trkpt>
<trkpt lat="40.658366195621625" lon="140.866373022711"><ele>1232</ele><time>2025-03-20T06:09:03Z</time></trkpt>
<trkpt lat="40.658427927017804" lon="140.86614212211722"><ele>1227</ele><time>2025-03-20T06:09:25Z</time></trkpt>
<trkpt lat="40.65836638908786" lon="140.86540542447847"><ele>1215</ele><time>2025-03-20T06:09:51Z</time></trkpt>
<trkpt lat="40.65832426884164" lon="140.8648308799503"><ele>1202</ele><time>2025-03-20T06:10:24Z</time></trkpt>
<trkpt lat="40.65817328553035" lon="140.86393056430722"><ele>1186</ele><time>2025-03-20T06:10:45Z</time></trkpt>
<trkpt lat="40.65797947052535" lon="140.86369496332486"><ele>1186</ele><time>2025-03-20T06:12:27Z</time></trkpt>
<trkpt lat="40.658178382059404" lon="140.86349261705902"><ele>1176</ele><time>2025-03-20T06:12:51Z</time></trkpt>
<trkpt lat="40.65824793924929" lon="140.8625031768044"><ele>1165</ele><time>2025-03-20T06:13:12Z</time></trkpt>
<trkpt lat="40.658345173377" lon="140.86165867022805"><ele>1157</ele><time>2025-03-20T06:13:36Z</time></trkpt>
<trkpt lat="40.65838792799943" lon="140.86078246902105"><ele>1147</ele><time>2025-03-20T06:13:59Z</time></trkpt>
<trkpt lat="40.65827281306653" lon="140.8593556250923"><ele>1128</ele><time>2025-03-20T06:14:20Z</time></trkpt>
<trkpt lat="40.658169603349954" lon="140.85839911844496"><ele>1120</ele><time>2025-03-20T06:14:49Z</time></trkpt>
<trkpt lat="40.658100131009164" lon="140.85756619614102"><ele>1114</ele><time>2025-03-20T06:15:13Z</time></trkpt>
<trkpt lat="40.657770309065505" lon="140.85677191540708"><ele>1105</ele><time>2025-03-20T06:15:36Z</time></trkpt>
<trkpt lat="40.65732326056357" lon="140.856089333961"><ele>1092</ele><time>2025-03-20T06:15:57Z</time></trkpt>
<trkpt lat="40.65676702773547" lon="140.85526039021542"><ele>1080</ele><time>2025-03-20T06:16:19Z</time></trkpt>
<trkpt lat="40.65648783680946" lon="140.85437294143827"><ele>1066</ele><time>2025-03-20T06:16:50Z</time></trkpt>
<trkpt lat="40.656295855376506" lon="140.85410249879348"><ele>1055</ele><time>2025-03-20T06:17:12Z</time></trkpt>
<trkpt lat="40.65596828522765" lon="140.85373386302254"><ele>1033</ele><time>2025-03-20T06:17:36Z</time></trkpt>
<trkpt lat="40.65552514595882" lon="140.85268559114851"><ele>1013</ele><time>2025-03-20T06:17:57Z</time></trkpt>
<trkpt lat="40.65527235906328" lon="140.85213954928705"><ele>1012</ele><time>2025-03-20T06:18:27Z</time></trkpt>
<trkpt lat="40.65467681073955" lon="140.85155425324828"><ele>1003</ele><time>2025-03-20T06:18:49Z</time></trkpt>
<trkpt lat="40.65434571658376" lon="140.85121490841394"><ele>995</ele><time>2025-03-20T06:19:12Z</time></trkpt>
<trkpt lat="40.65399632032829" lon="140.85094596100404"><ele>989</ele><time>2025-03-20T06:19:34Z</time></trkpt>
<trkpt lat="40.6538668640771" lon="140.8509405423404"><ele>987</ele><time>2025-03-20T06:20:34Z</time></trkpt>
<trkpt lat="40.65364353025962" lon="140.85074784382135"><ele>988</ele><time>2025-03-20T06:21:03Z</time></trkpt>
<trkpt lat="40.653494093397484" lon="140.850326998406"><ele>987</ele><time>2025-03-20T06:22:00Z</time></trkpt>
<trkpt lat="40.65319063936173" lon="140.84999284341487"><ele>985</ele><time>2025-03-20T06:22:22Z</time></trkpt>
<trkpt lat="40.65270430063167" lon="140.8500135944188"><ele>978</ele><time>2025-03-20T06:22:45Z</time></trkpt>
<trkpt lat="40.65250413024986" lon="140.84980302906578"><ele>973</ele><time>2025-03-20T06:23:24Z</time></trkpt>
<trkpt lat="40.65238643538167" lon="140.8498942645907"><ele>964</ele><time>2025-03-20T06:24:26Z</time></trkpt>
<trkpt lat="40.65153169201799" lon="140.84983640041216"><ele>915</ele><time>2025-03-20T06:24:48Z</time></trkpt>
<trkpt lat="40.650717921427905" lon="140.85004737643908"><ele>890</ele><time>2025-03-20T06:25:09Z</time></trkpt>
<trkpt lat="40.65060436604109" lon="140.850059068755"><ele>892</ele><time>2025-03-20T06:25:49Z</time></trkpt>
<trkpt lat="40.650500514745026" lon="140.85014775343532"><ele>885</ele><time>2025-03-20T06:29:11Z</time></trkpt>
<trkpt lat="40.650383368400604" lon="140.8501811778639"><ele>888</ele><time>2025-03-20T06:29:54Z</time></trkpt>
</trkseg>
</trk>
</gpx>