<?xml version="1.0" encoding="UTF-8"?>
<gpx xmlns:xsi="http://www.w3.org/2001/XMLSchema-instance" xmlns="http://www.topografix.com/GPX/1/1" xsi:schemaLocation="http://www.topografix.com/GPX/1/1 http://www.topografix.com/GPX/1/1/gpx.xsd" creator="Yamareco iOS 7.25 - www.yamareco.com">
<trk><name>track</name><number>1</number><trkseg>
<trkpt lat="37.12689339574191" lon="140.0166128992697"><ele>941</ele><time>2025-02-28T22:52:47Z</time></trkpt>
<trkpt lat="37.127050785963476" lon="140.01646880267302"><ele>944</ele><time>2025-02-28T22:54:30Z</time></trkpt>
<trkpt lat="37.12715556031938" lon="140.0162033440912"><ele>947</ele><time>2025-02-28T22:55:29Z</time></trkpt>
<trkpt lat="37.12731760354802" lon="140.0158906141629"><ele>947</ele><time>2025-02-28T22:55:58Z</time></trkpt>
<trkpt lat="37.12758743727799" lon="140.01588953791517"><ele>949</ele><time>2025-02-28T22:56:24Z</time></trkpt>
<trkpt lat="37.12771473750423" lon="140.01589330590605"><ele>948</ele><time>2025-02-28T22:56:53Z</time></trkpt>
<trkpt lat="37.1278779363589" lon="140.01593749626818"><ele>948</ele><time>2025-02-28T22:57:35Z</time></trkpt>
<trkpt lat="37.12788144975269" lon="140.01605198296383"><ele>945</ele><time>2025-02-28T22:59:11Z</time></trkpt>
<trkpt lat="37.128096555769204" lon="140.01600655064226"><ele>951</ele><time>2025-02-28T23:02:04Z</time></trkpt>
<trkpt lat="37.128244104231115" lon="140.0159591123956"><ele>952</ele><time>2025-02-28T23:02:42Z</time></trkpt>
<trkpt lat="37.12840849294169" lon="140.01588300576276"><ele>957</ele><time>2025-02-28T23:03:24Z</time></trkpt>
<trkpt lat="37.12838909521278" lon="140.0157444697742"><ele>954</ele><time>2025-02-28T23:03:57Z</time></trkpt>
<trkpt lat="37.12852791142239" lon="140.0154525401286"><ele>956</ele><time>2025-02-28T23:04:33Z</time></trkpt>
<trkpt lat="37.128736948561325" lon="140.01549095616525"><ele>956</ele><time>2025-02-28T23:05:10Z</time></trkpt>
<trkpt lat="37.12896494761933" lon="140.01549481408202"><ele>962</ele><time>2025-02-28T23:05:43Z</time></trkpt>
<trkpt lat="37.12914302248519" lon="140.01537384226683"><ele>965</ele><time>2025-02-28T23:06:44Z</time></trkpt>
<trkpt lat="37.12930782658014" lon="140.01521808336395"><ele>970</ele><time>2025-02-28T23:07:23Z</time></trkpt>
<trkpt lat="37.12931729586139" lon="140.01509376727316"><ele>972</ele><time>2025-02-28T23:08:01Z</time></trkpt>
<trkpt lat="37.12950176506908" lon="140.0149586704382"><ele>978</ele><time>2025-02-28T23:08:33Z</time></trkpt>
<trkpt lat="37.12966863978276" lon="140.01477288516534"><ele>984</ele><time>2025-02-28T23:09:05Z</time></trkpt>
<trkpt lat="37.12986687118539" lon="140.0146119955944"><ele>989</ele><time>2025-02-28T23:09:35Z</time></trkpt>
<trkpt lat="37.130072889172034" lon="140.01441776554856"><ele>989</ele><time>2025-02-28T23:10:06Z</time></trkpt>
<trkpt lat="37.13031260652521" lon="140.01424978996903"><ele>993</ele><time>2025-02-28T23:10:35Z</time></trkpt>
<trkpt lat="37.13052827583674" lon="140.01409506018967"><ele>993</ele><time>2025-02-28T23:11:06Z</time></trkpt>
<trkpt lat="37.13077851562473" lon="140.01393124006955"><ele>993</ele><time>2025-02-28T23:11:33Z</time></trkpt>
<trkpt lat="37.13098282497115" lon="140.01378148699172"><ele>994</ele><time>2025-02-28T23:12:00Z</time></trkpt>
<trkpt lat="37.13118422138184" lon="140.01363718446075"><ele>993</ele><time>2025-02-28T23:12:28Z</time></trkpt>
<trkpt lat="37.13138405544801" lon="140.0134838533929"><ele>993</ele><time>2025-02-28T23:13:00Z</time></trkpt>
<trkpt lat="37.13157891524297" lon="140.01334587069914"><ele>993</ele><time>2025-02-28T23:13:32Z</time></trkpt>
<trkpt lat="37.13170725388068" lon="140.01339765429174"><ele>994</ele><time>2025-02-28T23:14:09Z</time></trkpt>
<trkpt lat="37.131778698883565" lon="140.0132213718438"><ele>992</ele><time>2025-02-28T23:15:35Z</time></trkpt>
<trkpt lat="37.131628455578415" lon="140.01299733257989"><ele>996</ele><time>2025-02-28T23:16:06Z</time></trkpt>
<trkpt lat="37.131507882886396" lon="140.01279896134972"><ele>1006</ele><time>2025-02-28T23:17:10Z</time></trkpt>
<trkpt lat="37.13139836799054" lon="140.0126203706338"><ele>1014</ele><time>2025-02-28T23:17:51Z</time></trkpt>
<trkpt lat="37.13128803912237" lon="140.01247297132596"><ele>1021</ele><time>2025-02-28T23:18:36Z</time></trkpt>
<trkpt lat="37.1312059299828" lon="140.0123388139843"><ele>1025</ele><time>2025-02-28T23:19:20Z</time></trkpt>
<trkpt lat="37.13110783279707" lon="140.0121888003836"><ele>1028</ele><time>2025-02-28T23:20:08Z</time></trkpt>
<trkpt lat="37.131025432220596" lon="140.01203908271245"><ele>1034</ele><time>2025-02-28T23:20:51Z</time></trkpt>
<trkpt lat="37.130939309366845" lon="140.01189282538917"><ele>1039</ele><time>2025-02-28T23:21:37Z</time></trkpt>
<trkpt lat="37.130869953147844" lon="140.01170525884237"><ele>1044</ele><time>2025-02-28T23:22:23Z</time></trkpt>
<trkpt lat="37.13082586715605" lon="140.01151969556977"><ele>1049</ele><time>2025-02-28T23:23:05Z</time></trkpt>
<trkpt lat="37.13074173251175" lon="140.0112881107787"><ele>1051</ele><time>2025-02-28T23:23:44Z</time></trkpt>
<trkpt lat="37.130740810286255" lon="140.0110308657045"><ele>1057</ele><time>2025-02-28T23:24:25Z</time></trkpt>
<trkpt lat="37.1307329395132" lon="140.01080600819424"><ele>1063</ele><time>2025-02-28T23:25:04Z</time></trkpt>
<trkpt lat="37.1307346637878" lon="140.01065353260492"><ele>1064</ele><time>2025-02-28T23:25:57Z</time></trkpt>
<trkpt lat="37.130815950844934" lon="140.01058376483687"><ele>1069</ele><time>2025-02-28T23:26:49Z</time></trkpt>
<trkpt lat="37.13086555454523" lon="140.0103932209254"><ele>1073</ele><time>2025-02-28T23:27:27Z</time></trkpt>
<trkpt lat="37.13096214817193" lon="140.0101622971565"><ele>1076</ele><time>2025-02-28T23:28:05Z</time></trkpt>
<trkpt lat="37.131033188014825" lon="140.00994573862596"><ele>1079</ele><time>2025-02-28T23:28:41Z</time></trkpt>
<trkpt lat="37.13111077831322" lon="140.00973216945093"><ele>1083</ele><time>2025-02-28T23:29:17Z</time></trkpt>
<trkpt lat="37.13118197133304" lon="140.0095424262425"><ele>1087</ele><time>2025-02-28T23:29:49Z</time></trkpt>
<trkpt lat="37.13124775816764" lon="140.0093154029076"><ele>1090</ele><time>2025-02-28T23:30:29Z</time></trkpt>
<trkpt lat="37.13132394262172" lon="140.00910064829503"><ele>1094</ele><time>2025-02-28T23:31:05Z</time></trkpt>
<trkpt lat="37.131443546960796" lon="140.00889560494522"><ele>1099</ele><time>2025-02-28T23:31:40Z</time></trkpt>
<trkpt lat="37.131517390396425" lon="140.00875925834836"><ele>1102</ele><time>2025-02-28T23:32:21Z</time></trkpt>
<trkpt lat="37.13161672176862" lon="140.00854611347467"><ele>1106</ele><time>2025-02-28T23:33:27Z</time></trkpt>
<trkpt lat="37.13170372669755" lon="140.0083548529994"><ele>1110</ele><time>2025-02-28T23:34:14Z</time></trkpt>
<trkpt lat="37.131762025600544" lon="140.0081747747745"><ele>1116</ele><time>2025-02-28T23:34:50Z</time></trkpt>
<trkpt lat="37.131865101361264" lon="140.00798980120075"><ele>1122</ele><time>2025-02-28T23:35:29Z</time></trkpt>
<trkpt lat="37.131952991839405" lon="140.00782139702443"><ele>1128</ele><time>2025-02-28T23:36:11Z</time></trkpt>
<trkpt lat="37.13203110724702" lon="140.0076230827"><ele>1134</ele><time>2025-02-28T23:36:53Z</time></trkpt>
<trkpt lat="37.13211094756052" lon="140.00743605139905"><ele>1140</ele><time>2025-02-28T23:37:37Z</time></trkpt>
<trkpt lat="37.13215525203092" lon="140.00723842298194"><ele>1145</ele><time>2025-02-28T23:38:16Z</time></trkpt>
<trkpt lat="37.13224978099473" lon="140.00707840845527"><ele>1150</ele><time>2025-02-28T23:38:59Z</time></trkpt>
<trkpt lat="37.13233968617399" lon="140.00691241700463"><ele>1157</ele><time>2025-02-28T23:39:42Z</time></trkpt>
<trkpt lat="37.132399265976936" lon="140.0067546355367"><ele>1162</ele><time>2025-02-28T23:40:24Z</time></trkpt>
<trkpt lat="37.132507495905536" lon="140.00663376156118"><ele>1170</ele><time>2025-02-28T23:41:14Z</time></trkpt>
<trkpt lat="37.13258286917227" lon="140.00647379564978"><ele>1175</ele><time>2025-02-28T23:42:03Z</time></trkpt>
<trkpt lat="37.13264127898581" lon="140.00633032263366"><ele>1181</ele><time>2025-02-28T23:42:55Z</time></trkpt>
<trkpt lat="37.13270812977875" lon="140.00617611491322"><ele>1186</ele><time>2025-02-28T23:43:59Z</time></trkpt>
<trkpt lat="37.13275470683542" lon="140.00601575178615"><ele>1192</ele><time>2025-02-28T23:44:52Z</time></trkpt>
<trkpt lat="37.13278405943353" lon="140.00584801522282"><ele>1198</ele><time>2025-02-28T23:45:45Z</time></trkpt>
<trkpt lat="37.13268393853206" lon="140.00559978586332"><ele>1200</ele><time>2025-02-28T23:46:39Z</time></trkpt>
<trkpt lat="37.132755098604946" lon="140.00538602956422"><ele>1206</ele><time>2025-02-28T23:52:21Z</time></trkpt>
<trkpt lat="37.132861360292296" lon="140.00519950545436"><ele>1215</ele><time>2025-02-28T23:52:58Z</time></trkpt>
<trkpt lat="37.13297630080035" lon="140.00500873001116"><ele>1219</ele><time>2025-02-28T23:53:35Z</time></trkpt>
<trkpt lat="37.133110500340166" lon="140.0048348079272"><ele>1225</ele><time>2025-02-28T23:54:15Z</time></trkpt>
<trkpt lat="37.13320692412276" lon="140.0046427946045"><ele>1227</ele><time>2025-02-28T23:54:50Z</time></trkpt>
<trkpt lat="37.13332233660121" lon="140.00446480487147"><ele>1234</ele><time>2025-02-28T23:55:27Z</time></trkpt>
<trkpt lat="37.13341944490147" lon="140.00427640659078"><ele>1238</ele><time>2025-02-28T23:56:05Z</time></trkpt>
<trkpt lat="37.13350972616365" lon="140.00406477118818"><ele>1243</ele><time>2025-02-28T23:56:42Z</time></trkpt>
<trkpt lat="37.13364517748485" lon="140.0038974833469"><ele>1249</ele><time>2025-02-28T23:57:20Z</time></trkpt>
<trkpt lat="37.13373537826576" lon="140.00371007731002"><ele>1254</ele><time>2025-02-28T23:57:54Z</time></trkpt>
<trkpt lat="37.13384040169103" lon="140.0035109649639"><ele>1258</ele><time>2025-02-28T23:58:34Z</time></trkpt>
<trkpt lat="37.13394567930267" lon="140.00332401975714"><ele>1265</ele><time>2025-02-28T23:59:13Z</time></trkpt>
<trkpt lat="37.134017440333196" lon="140.00315027361634"><ele>1267</ele><time>2025-02-28T23:59:51Z</time></trkpt>
<trkpt lat="37.13410321292502" lon="140.00294315696965"><ele>1274</ele><time>2025-03-01T00:00:32Z</time></trkpt>
<trkpt lat="37.134145915043604" lon="140.00272805848346"><ele>1278</ele><time>2025-03-01T00:01:09Z</time></trkpt>
<trkpt lat="37.13420252419813" lon="140.00248657620062"><ele>1283</ele><time>2025-03-01T00:01:53Z</time></trkpt>
<trkpt lat="37.13424578681634" lon="140.00227881398993"><ele>1286</ele><time>2025-03-01T00:02:32Z</time></trkpt>
<trkpt lat="37.134253854319944" lon="140.00208556095095"><ele>1289</ele><time>2025-03-01T00:03:11Z</time></trkpt>
<trkpt lat="37.13427148272328" lon="140.00187278977344"><ele>1292</ele><time>2025-03-01T00:03:54Z</time></trkpt>
<trkpt lat="37.13427315432943" lon="140.00167555123952"><ele>1299</ele><time>2025-03-01T00:04:37Z</time></trkpt>
<trkpt lat="37.13424464409543" lon="140.0014714061102"><ele>1306</ele><time>2025-03-01T00:05:24Z</time></trkpt>
<trkpt lat="37.13424121475823" lon="140.00130451373533"><ele>1311</ele><time>2025-03-01T00:06:11Z</time></trkpt>
<trkpt lat="37.134256037246644" lon="140.00115936806702"><ele>1317</ele><time>2025-03-01T00:07:02Z</time></trkpt>
<trkpt lat="37.13424342482408" lon="140.00098231897306"><ele>1323</ele><time>2025-03-01T00:08:03Z</time></trkpt>
<trkpt lat="37.13425731808629" lon="140.00082236024878"><ele>1328</ele><time>2025-03-01T00:09:04Z</time></trkpt>
<trkpt lat="37.13422833543698" lon="140.00064448740196"><ele>1333</ele><time>2025-03-01T00:09:55Z</time></trkpt>
<trkpt lat="37.13423937459312" lon="140.00048964487058"><ele>1338</ele><time>2025-03-01T00:10:52Z</time></trkpt>
<trkpt lat="37.1341141864191" lon="140.00044875751243"><ele>1329</ele><time>2025-03-01T00:12:04Z</time></trkpt>
<trkpt lat="37.134195845599216" lon="140.00049873463598"><ele>1338</ele><time>2025-03-01T00:16:11Z</time></trkpt>
<trkpt lat="37.134183796189596" lon="140.00025745993835"><ele>1343</ele><time>2025-03-01T00:16:48Z</time></trkpt>
<trkpt lat="37.13416890357068" lon="140.0000222991246"><ele>1348</ele><time>2025-03-01T00:17:24Z</time></trkpt>
<trkpt lat="37.13417136326375" lon="139.9997777943409"><ele>1352</ele><time>2025-03-01T00:18:00Z</time></trkpt>
<trkpt lat="37.13414652351566" lon="139.99953804461097"><ele>1356</ele><time>2025-03-01T00:18:34Z</time></trkpt>
<trkpt lat="37.13409129114103" lon="139.9993287006886"><ele>1360</ele><time>2025-03-01T00:19:06Z</time></trkpt>
<trkpt lat="37.13405332686537" lon="139.99906036066443"><ele>1366</ele><time>2025-03-01T00:19:46Z</time></trkpt>
<trkpt lat="37.13398586285259" lon="139.99885683590153"><ele>1373</ele><time>2025-03-01T00:20:23Z</time></trkpt>
<trkpt lat="37.13393663838546" lon="139.9986712620842"><ele>1376</ele><time>2025-03-01T00:21:00Z</time></trkpt>
<trkpt lat="37.13387509300839" lon="139.998476971417"><ele>1381</ele><time>2025-03-01T00:21:36Z</time></trkpt>
<trkpt lat="37.133838159052104" lon="139.99825443995627"><ele>1386</ele><time>2025-03-01T00:22:19Z</time></trkpt>
<trkpt lat="37.13377256174193" lon="139.99806916840555"><ele>1392</ele><time>2025-03-01T00:23:02Z</time></trkpt>
<trkpt lat="37.13376782252412" lon="139.9978296173082"><ele>1398</ele><time>2025-03-01T00:23:47Z</time></trkpt>
<trkpt lat="37.13377741529066" lon="139.99762607588931"><ele>1401</ele><time>2025-03-01T00:24:31Z</time></trkpt>
<trkpt lat="37.13375657086837" lon="139.9973518181967"><ele>1404</ele><time>2025-03-01T00:25:08Z</time></trkpt>
<trkpt lat="37.133820453936586" lon="139.9971139956199"><ele>1407</ele><time>2025-03-01T00:25:42Z</time></trkpt>
<trkpt lat="37.13390111092833" lon="139.99688094086002"><ele>1413</ele><time>2025-03-01T00:26:21Z</time></trkpt>
<trkpt lat="37.13389887536894" lon="139.99662281114033"><ele>1413</ele><time>2025-03-01T00:27:18Z</time></trkpt>
<trkpt lat="37.133721965716376" lon="139.9963638004066"><ele>1413</ele><time>2025-03-01T00:27:49Z</time></trkpt>
<trkpt lat="37.13360596806693" lon="139.99618992900443"><ele>1415</ele><time>2025-03-01T00:28:27Z</time></trkpt>
<trkpt lat="37.13351569805895" lon="139.99604492417035"><ele>1413</ele><time>2025-03-01T00:29:08Z</time></trkpt>
<trkpt lat="37.13379660529454" lon="139.99611472549526"><ele>1417</ele><time>2025-03-01T00:30:01Z</time></trkpt>
<trkpt lat="37.134094908816465" lon="139.996139470437"><ele>1419</ele><time>2025-03-01T00:30:33Z</time></trkpt>
<trkpt lat="37.13434062674161" lon="139.99621589460338"><ele>1420</ele><time>2025-03-01T00:31:11Z</time></trkpt>
<trkpt lat="37.13457853373422" lon="139.996066660446"><ele>1418</ele><time>2025-03-01T00:31:40Z</time></trkpt>
<trkpt lat="37.13480988490903" lon="139.99590929873972"><ele>1418</ele><time>2025-03-01T00:32:07Z</time></trkpt>
<trkpt lat="37.1350426542691" lon="139.99578115952286"><ele>1417</ele><time>2025-03-01T00:32:36Z</time></trkpt>
<trkpt lat="37.135259125944586" lon="139.99565959273812"><ele>1418</ele><time>2025-03-01T00:33:06Z</time></trkpt>
<trkpt lat="37.135482256566135" lon="139.99563420356228"><ele>1421</ele><time>2025-03-01T00:33:38Z</time></trkpt>
<trkpt lat="37.135665387174825" lon="139.9956623388618"><ele>1424</ele><time>2025-03-01T00:34:10Z</time></trkpt>
<trkpt lat="37.13585294555264" lon="139.99571220918395"><ele>1429</ele><time>2025-03-01T00:34:49Z</time></trkpt>
<trkpt lat="37.13602078523262" lon="139.99561335495775"><ele>1433</ele><time>2025-03-01T00:35:27Z</time></trkpt>
<trkpt lat="37.13612625637413" lon="139.99544991929284"><ele>1436</ele><time>2025-03-01T00:36:05Z</time></trkpt>
<trkpt lat="37.13627636903475" lon="139.99538425464615"><ele>1441</ele><time>2025-03-01T00:36:44Z</time></trkpt>
<trkpt lat="37.13638893223898" lon="139.99536476056633"><ele>1445</ele><time>2025-03-01T00:37:16Z</time></trkpt>
<trkpt lat="37.136638611041704" lon="139.99530709130585"><ele>1444</ele><time>2025-03-01T00:37:55Z</time></trkpt>
<trkpt lat="37.13695964223443" lon="139.99523925390554"><ele>1441</ele><time>2025-03-01T00:38:25Z</time></trkpt>
<trkpt lat="37.13720313587704" lon="139.99526780415454"><ele>1439</ele><time>2025-03-01T00:38:57Z</time></trkpt>
<trkpt lat="37.13737718934189" lon="139.995220856059"><ele>1440</ele><time>2025-03-01T00:39:49Z</time></trkpt>
<trkpt lat="37.13758188540569" lon="139.99517100698947"><ele>1445</ele><time>2025-03-01T00:40:26Z</time></trkpt>
<trkpt lat="37.137759323928854" lon="139.99500867373658"><ele>1448</ele><time>2025-03-01T00:40:54Z</time></trkpt>
<trkpt lat="37.137908067399515" lon="139.99483021525867"><ele>1450</ele><time>2025-03-01T00:41:27Z</time></trkpt>
<trkpt lat="37.13808998331683" lon="139.99470223258163"><ele>1454</ele><time>2025-03-01T00:42:00Z</time></trkpt>
<trkpt lat="37.138289591289556" lon="139.9945197601632"><ele>1454</ele><time>2025-03-01T00:42:36Z</time></trkpt>
<trkpt lat="37.13840213387719" lon="139.99434501022"><ele>1455</ele><time>2025-03-01T00:43:12Z</time></trkpt>
<trkpt lat="37.13850795065962" lon="139.99402844865"><ele>1455</ele><time>2025-03-01T00:43:44Z</time></trkpt>
<trkpt lat="37.13853409693588" lon="139.9937370200058"><ele>1457</ele><time>2025-03-01T00:44:14Z</time></trkpt>
<trkpt lat="37.13851817342516" lon="139.99349093337787"><ele>1461</ele><time>2025-03-01T00:44:44Z</time></trkpt>
<trkpt lat="37.1385111988602" lon="139.99315804715047"><ele>1462</ele><time>2025-03-01T00:45:16Z</time></trkpt>
<trkpt lat="37.138523305971404" lon="139.9928789447433"><ele>1464</ele><time>2025-03-01T00:45:46Z</time></trkpt>
<trkpt lat="37.1385092440054" lon="139.99263691751653"><ele>1461</ele><time>2025-03-01T00:46:20Z</time></trkpt>
<trkpt lat="37.13858184703745" lon="139.99234362422774"><ele>1461</ele><time>2025-03-01T00:46:50Z</time></trkpt>
<trkpt lat="37.138762823095874" lon="139.99206138223457"><ele>1466</ele><time>2025-03-01T00:47:22Z</time></trkpt>
<trkpt lat="37.138819336435425" lon="139.99171997636856"><ele>1466</ele><time>2025-03-01T00:47:52Z</time></trkpt>
<trkpt lat="37.138878862998254" lon="139.99136607822192"><ele>1468</ele><time>2025-03-01T00:48:20Z</time></trkpt>
<trkpt lat="37.13893514416103" lon="139.99112015364918"><ele>1470</ele><time>2025-03-01T00:48:55Z</time></trkpt>
<trkpt lat="37.13898577518192" lon="139.9908194674717"><ele>1473</ele><time>2025-03-01T00:49:31Z</time></trkpt>
<trkpt lat="37.13908435666318" lon="139.99057451664243"><ele>1479</ele><time>2025-03-01T00:50:06Z</time></trkpt>
<trkpt lat="37.13911538270728" lon="139.99031179521444"><ele>1483</ele><time>2025-03-01T00:50:46Z</time></trkpt>
<trkpt lat="37.13919998663945" lon="139.9901003547491"><ele>1489</ele><time>2025-03-01T00:51:20Z</time></trkpt>
<trkpt lat="37.13926182575061" lon="139.9898807296649"><ele>1492</ele><time>2025-03-01T00:51:52Z</time></trkpt>
<trkpt lat="37.139198449741954" lon="139.98961098592127"><ele>1494</ele><time>2025-03-01T00:52:36Z</time></trkpt>
<trkpt lat="37.1392859450187" lon="139.98942533915906"><ele>1495</ele><time>2025-03-01T00:53:13Z</time></trkpt>
<trkpt lat="37.1392261717215" lon="139.98927755841763"><ele>1494</ele><time>2025-03-01T00:53:45Z</time></trkpt>
<trkpt lat="37.139395078962565" lon="139.9890582930519"><ele>1497</ele><time>2025-03-01T00:55:54Z</time></trkpt>
<trkpt lat="37.1395096481663" lon="139.98874297450854"><ele>1503</ele><time>2025-03-01T00:56:25Z</time></trkpt>
<trkpt lat="37.13953745552813" lon="139.9884890384333"><ele>1508</ele><time>2025-03-01T00:57:09Z</time></trkpt>
<trkpt lat="37.13956965771384" lon="139.98827216443502"><ele>1511</ele><time>2025-03-01T00:57:41Z</time></trkpt>
<trkpt lat="37.13957377238562" lon="139.9880147437605"><ele>1514</ele><time>2025-03-01T00:58:16Z</time></trkpt>
<trkpt lat="37.13966187358644" lon="139.98783869817947"><ele>1518</ele><time>2025-03-01T00:58:50Z</time></trkpt>
<trkpt lat="37.13983290964556" lon="139.98759067932843"><ele>1521</ele><time>2025-03-01T00:59:26Z</time></trkpt>
<trkpt lat="37.139955436162964" lon="139.9873668698735"><ele>1525</ele><time>2025-03-01T01:00:04Z</time></trkpt>
<trkpt lat="37.14005429798493" lon="139.98711835167092"><ele>1526</ele><time>2025-03-01T01:00:42Z</time></trkpt>
<trkpt lat="37.14002189571276" lon="139.98691495281136"><ele>1524</ele><time>2025-03-01T01:01:19Z</time></trkpt>
<trkpt lat="37.1401882245339" lon="139.98672496926758"><ele>1532</ele><time>2025-03-01T01:02:15Z</time></trkpt>
<trkpt lat="37.140335212410925" lon="139.98644385853675"><ele>1535</ele><time>2025-03-01T01:02:46Z</time></trkpt>
<trkpt lat="37.1404290795132" lon="139.98617020716003"><ele>1537</ele><time>2025-03-01T01:03:42Z</time></trkpt>
<trkpt lat="37.14051954199942" lon="139.98593015768722"><ele>1540</ele><time>2025-03-01T01:04:13Z</time></trkpt>
<trkpt lat="37.14056743729455" lon="139.98564100121845"><ele>1543</ele><time>2025-03-01T01:04:46Z</time></trkpt>
<trkpt lat="37.14058181422139" lon="139.98537461863972"><ele>1545</ele><time>2025-03-01T01:05:16Z</time></trkpt>
<trkpt lat="37.140608937298154" lon="139.9851137221682"><ele>1547</ele><time>2025-03-01T01:05:48Z</time></trkpt>
<trkpt lat="37.14072900078601" lon="139.9849103718105"><ele>1551</ele><time>2025-03-01T01:06:24Z</time></trkpt>
<trkpt lat="37.140795444229845" lon="139.98465066694436"><ele>1551</ele><time>2025-03-01T01:06:59Z</time></trkpt>
<trkpt lat="37.14092313928201" lon="139.98438952636928"><ele>1553</ele><time>2025-03-01T01:07:47Z</time></trkpt>
<trkpt lat="37.14098686052659" lon="139.98410834631855"><ele>1556</ele><time>2025-03-01T01:08:19Z</time></trkpt>
<trkpt lat="37.14108615856275" lon="139.98389480852225"><ele>1559</ele><time>2025-03-01T01:08:56Z</time></trkpt>
<trkpt lat="37.141214924325084" lon="139.98368354411716"><ele>1562</ele><time>2025-03-01T01:09:26Z</time></trkpt>
<trkpt lat="37.14129878412854" lon="139.98342628550924"><ele>1564</ele><time>2025-03-01T01:10:00Z</time></trkpt>
<trkpt lat="37.14135993886591" lon="139.98316977448619"><ele>1566</ele><time>2025-03-01T01:10:53Z</time></trkpt>
<trkpt lat="37.14144820721456" lon="139.98291234536106"><ele>1572</ele><time>2025-03-01T01:11:26Z</time></trkpt>
<trkpt lat="37.14152301664198" lon="139.9826645259841"><ele>1576</ele><time>2025-03-01T01:11:59Z</time></trkpt>
<trkpt lat="37.14160074192164" lon="139.9824159272842"><ele>1580</ele><time>2025-03-01T01:12:37Z</time></trkpt>
<trkpt lat="37.14167446558716" lon="139.98217353300006"><ele>1585</ele><time>2025-03-01T01:13:15Z</time></trkpt>
<trkpt lat="37.141741876614724" lon="139.9819714925665"><ele>1590</ele><time>2025-03-01T01:13:48Z</time></trkpt>
<trkpt lat="37.14183352639987" lon="139.981740712215"><ele>1594</ele><time>2025-03-01T01:14:26Z</time></trkpt>
<trkpt lat="37.14195413944982" lon="139.98154397580097"><ele>1598</ele><time>2025-03-01T01:14:59Z</time></trkpt>
<trkpt lat="37.14202402593536" lon="139.98146628412508"><ele>1600</ele><time>2025-03-01T01:15:30Z</time></trkpt>
<trkpt lat="37.14215525415854" lon="139.9812035522167"><ele>1603</ele><time>2025-03-01T01:20:49Z</time></trkpt>
<trkpt lat="37.14226689083591" lon="139.98094855064824"><ele>1607</ele><time>2025-03-01T01:21:24Z</time></trkpt>
<trkpt lat="37.14231621143285" lon="139.98073776473055"><ele>1610</ele><time>2025-03-01T01:21:57Z</time></trkpt>
<trkpt lat="37.142370835070544" lon="139.9805482152674"><ele>1615</ele><time>2025-03-01T01:23:00Z</time></trkpt>
<trkpt lat="37.14246062392599" lon="139.98030402903456"><ele>1621</ele><time>2025-03-01T01:23:37Z</time></trkpt>
<trkpt lat="37.1425004190224" lon="139.98007664020705"><ele>1626</ele><time>2025-03-01T01:24:27Z</time></trkpt>
<trkpt lat="37.14257344959864" lon="139.9798702866964"><ele>1630</ele><time>2025-03-01T01:25:03Z</time></trkpt>
<trkpt lat="37.142657886872" lon="139.9796340632085"><ele>1635</ele><time>2025-03-01T01:25:39Z</time></trkpt>
<trkpt lat="37.14270203748904" lon="139.97946965165173"><ele>1642</ele><time>2025-03-01T01:26:15Z</time></trkpt>
<trkpt lat="37.14276903715775" lon="139.97925480243003"><ele>1646</ele><time>2025-03-01T01:26:49Z</time></trkpt>
<trkpt lat="37.14284469590644" lon="139.9790389750107"><ele>1652</ele><time>2025-03-01T01:27:26Z</time></trkpt>
<trkpt lat="37.14290629537757" lon="139.9788750392067"><ele>1657</ele><time>2025-03-01T01:28:05Z</time></trkpt>
<trkpt lat="37.142952627836934" lon="139.97873352358803"><ele>1659</ele><time>2025-03-01T01:29:04Z</time></trkpt>
<trkpt lat="37.143013680235654" lon="139.97850496893"><ele>1668</ele><time>2025-03-01T01:29:45Z</time></trkpt>
<trkpt lat="37.14306358291274" lon="139.9783167448548"><ele>1674</ele><time>2025-03-01T01:30:26Z</time></trkpt>
<trkpt lat="37.14311937772962" lon="139.97813938687258"><ele>1681</ele><time>2025-03-01T01:31:08Z</time></trkpt>
<trkpt lat="37.143166212849884" lon="139.9779779986072"><ele>1688</ele><time>2025-03-01T01:32:04Z</time></trkpt>
<trkpt lat="37.14323107035209" lon="139.97780687572092"><ele>1693</ele><time>2025-03-01T01:33:01Z</time></trkpt>
<trkpt lat="37.14329385737425" lon="139.97765259881658"><ele>1700</ele><time>2025-03-01T01:34:05Z</time></trkpt>
<trkpt lat="37.14337309453802" lon="139.9775211286882"><ele>1705</ele><time>2025-03-01T01:34:58Z</time></trkpt>
<trkpt lat="37.14346074415421" lon="139.97736847697044"><ele>1699</ele><time>2025-03-01T01:35:57Z</time></trkpt>
<trkpt lat="37.14351219303754" lon="139.97723600682"><ele>1702</ele><time>2025-03-01T01:36:53Z</time></trkpt>
<trkpt lat="37.14359749603112" lon="139.9771034579654"><ele>1708</ele><time>2025-03-01T01:37:39Z</time></trkpt>
<trkpt lat="37.1436707833274" lon="139.97691318642634"><ele>1718</ele><time>2025-03-01T01:38:51Z</time></trkpt>
<trkpt lat="37.14372720266559" lon="139.97675044828424"><ele>1722</ele><time>2025-03-01T01:39:36Z</time></trkpt>
<trkpt lat="37.14380054008689" lon="139.97659977679734"><ele>1728</ele><time>2025-03-01T01:40:31Z</time></trkpt>
<trkpt lat="37.14385246937939" lon="139.9764415344065"><ele>1735</ele><time>2025-03-01T01:41:31Z</time></trkpt>
<trkpt lat="37.143909829179925" lon="139.97632438308503"><ele>1740</ele><time>2025-03-01T01:42:34Z</time></trkpt>
<trkpt lat="37.14397958351962" lon="139.9761485762134"><ele>1747</ele><time>2025-03-01T01:49:44Z</time></trkpt>
<trkpt lat="37.14407281035543" lon="139.97599520451334"><ele>1756</ele><time>2025-03-01T01:50:42Z</time></trkpt>
<trkpt lat="37.144150897879726" lon="139.97582715685974"><ele>1763</ele><time>2025-03-01T01:51:29Z</time></trkpt>
<trkpt lat="37.144258983899064" lon="139.9756564167898"><ele>1769</ele><time>2025-03-01T01:52:18Z</time></trkpt>
<trkpt lat="37.144374530825885" lon="139.97548486264674"><ele>1776</ele><time>2025-03-01T01:52:56Z</time></trkpt>
<trkpt lat="37.144476696542746" lon="139.9752947307732"><ele>1784</ele><time>2025-03-01T01:53:36Z</time></trkpt>
<trkpt lat="37.144560950397675" lon="139.9750760987557"><ele>1789</ele><time>2025-03-01T01:54:24Z</time></trkpt>
<trkpt lat="37.144643811215346" lon="139.974902252292"><ele>1793</ele><time>2025-03-01T01:55:00Z</time></trkpt>
<trkpt lat="37.144702066749765" lon="139.97477237067974"><ele>1795</ele><time>2025-03-01T01:55:44Z</time></trkpt>
<trkpt lat="37.144793330197004" lon="139.97467942417072"><ele>1799</ele><time>2025-03-01T02:11:51Z</time></trkpt>
<trkpt lat="37.14490396894281" lon="139.9745126765655"><ele>1803</ele><time>2025-03-01T02:12:20Z</time></trkpt>
<trkpt lat="37.14502691153938" lon="139.97434203513362"><ele>1808</ele><time>2025-03-01T02:12:55Z</time></trkpt>
<trkpt lat="37.14519315151966" lon="139.97417431393498"><ele>1812</ele><time>2025-03-01T02:13:33Z</time></trkpt>
<trkpt lat="37.145362898793" lon="139.97407109934363"><ele>1817</ele><time>2025-03-01T02:14:12Z</time></trkpt>
<trkpt lat="37.145501651370175" lon="139.9739762916439"><ele>1821</ele><time>2025-03-01T02:14:54Z</time></trkpt>
<trkpt lat="37.145586066041474" lon="139.97390026775608"><ele>1825</ele><time>2025-03-01T02:15:38Z</time></trkpt>
<trkpt lat="37.14567645357851" lon="139.97387459314098"><ele>1829</ele><time>2025-03-01T02:16:30Z</time></trkpt>
<trkpt lat="37.145765932730775" lon="139.97380795596268"><ele>1831</ele><time>2025-03-01T02:18:51Z</time></trkpt>
<trkpt lat="37.145906052666" lon="139.9738236349751"><ele>1834</ele><time>2025-03-01T02:19:28Z</time></trkpt>
<trkpt lat="37.1460050020276" lon="139.97384883359726"><ele>1839</ele><time>2025-03-01T02:20:34Z</time></trkpt>
<trkpt lat="37.146097728276956" lon="139.97386154153924"><ele>1837</ele><time>2025-03-01T02:22:24Z</time></trkpt>
<trkpt lat="37.14621809430311" lon="139.9737949648868"><ele>1844</ele><time>2025-03-01T02:23:21Z</time></trkpt>
<trkpt lat="37.1462965514612" lon="139.97362462651785"><ele>1846</ele><time>2025-03-01T02:24:16Z</time></trkpt>
<trkpt lat="37.14645076084338" lon="139.97346703907965"><ele>1850</ele><time>2025-03-01T02:24:47Z</time></trkpt>
<trkpt lat="37.14662660450238" lon="139.973241527393"><ele>1851</ele><time>2025-03-01T02:25:23Z</time></trkpt>
<trkpt lat="37.14680531066508" lon="139.97304397147548"><ele>1853</ele><time>2025-03-01T02:25:51Z</time></trkpt>
<trkpt lat="37.146998057770276" lon="139.97299730024673"><ele>1859</ele><time>2025-03-01T02:26:29Z</time></trkpt>
<trkpt lat="37.147133600571244" lon="139.97297812693023"><ele>1862</ele><time>2025-03-01T02:27:44Z</time></trkpt>
<trkpt lat="37.14719591322438" lon="139.97307423698774"><ele>1865</ele><time>2025-03-01T02:48:51Z</time></trkpt>
<trkpt lat="37.14706939266786" lon="139.97308597172918"><ele>1858</ele><time>2025-03-01T03:01:55Z</time></trkpt>
<trkpt lat="37.14676532992445" lon="139.97308131133983"><ele>1854</ele><time>2025-03-01T03:02:24Z</time></trkpt>
<trkpt lat="37.14646062291434" lon="139.97339976030162"><ele>1852</ele><time>2025-03-01T03:02:44Z</time></trkpt>
<trkpt lat="37.14625041417755" lon="139.97368240076088"><ele>1844</ele><time>2025-03-01T03:03:16Z</time></trkpt>
<trkpt lat="37.14620612565337" lon="139.9738119649673"><ele>1842</ele><time>2025-03-01T03:04:03Z</time></trkpt>
<trkpt lat="37.146064712378866" lon="139.97400566211576"><ele>1837</ele><time>2025-03-01T03:04:47Z</time></trkpt>
<trkpt lat="37.14595822519994" lon="139.97395565174267"><ele>1833</ele><time>2025-03-01T03:05:43Z</time></trkpt>
<trkpt lat="37.1455378223906" lon="139.97389306262707"><ele>1822</ele><time>2025-03-01T03:06:30Z</time></trkpt>
<trkpt lat="37.145413058929314" lon="139.97400373655188"><ele>1817</ele><time>2025-03-01T03:06:52Z</time></trkpt>
<trkpt lat="37.145066272481486" lon="139.97428482925747"><ele>1808</ele><time>2025-03-01T03:07:17Z</time></trkpt>
<trkpt lat="37.144893942819664" lon="139.97466568476187"><ele>1797</ele><time>2025-03-01T03:08:03Z</time></trkpt>
<trkpt lat="37.14503878679075" lon="139.97498222948528"><ele>1786</ele><time>2025-03-01T03:08:27Z</time></trkpt>
<trkpt lat="37.14503076826071" lon="139.97532831914575"><ele>1771</ele><time>2025-03-01T03:08:54Z</time></trkpt>
<trkpt lat="37.14476688696652" lon="139.97544831857172"><ele>1768</ele><time>2025-03-01T03:09:22Z</time></trkpt>
<trkpt lat="37.14497351429027" lon="139.97598819288842"><ele>1739</ele><time>2025-03-01T03:10:07Z</time></trkpt>
<trkpt lat="37.14480280518063" lon="139.9764799090019"><ele>1721</ele><time>2025-03-01T03:11:03Z</time></trkpt>
<trkpt lat="37.144597810712" lon="139.9767620713507"><ele>1712</ele><time>2025-03-01T03:11:28Z</time></trkpt>
<trkpt lat="37.1442796139938" lon="139.97734024473772"><ele>1691</ele><time>2025-03-01T03:11:49Z</time></trkpt>
<trkpt lat="37.143574540940165" lon="139.97807614141968"><ele>1680</ele><time>2025-03-01T03:12:11Z</time></trkpt>
<trkpt lat="37.14318915218066" lon="139.97820006525822"><ele>1672</ele><time>2025-03-01T03:12:40Z</time></trkpt>
<trkpt lat="37.14275141518593" lon="139.97923105718402"><ele>1641</ele><time>2025-03-01T03:13:04Z</time></trkpt>
<trkpt lat="37.14269770956572" lon="139.97940302526325"><ele>1639</ele><time>2025-03-01T03:14:13Z</time></trkpt>
<trkpt lat="37.14202804917377" lon="139.9804274800013"><ele>1610</ele><time>2025-03-01T03:14:37Z</time></trkpt>
<trkpt lat="37.14201671405506" lon="139.98157451908105"><ele>1599</ele><time>2025-03-01T03:14:59Z</time></trkpt>
<trkpt lat="37.14185304939609" lon="139.98193081832935"><ele>1592</ele><time>2025-03-01T03:16:39Z</time></trkpt>
<trkpt lat="37.14175465551305" lon="139.9828228969805"><ele>1575</ele><time>2025-03-01T03:17:00Z</time></trkpt>
<trkpt lat="37.14107104254598" lon="139.9841653780044"><ele>1558</ele><time>2025-03-01T03:17:21Z</time></trkpt>
<trkpt lat="37.14075135640424" lon="139.98489138109517"><ele>1549</ele><time>2025-03-01T03:17:42Z</time></trkpt>
<trkpt lat="37.1403663498933" lon="139.98601987029497"><ele>1536</ele><time>2025-03-01T03:18:06Z</time></trkpt>
<trkpt lat="37.14025455906096" lon="139.98693291314737"><ele>1532</ele><time>2025-03-01T03:18:27Z</time></trkpt>
<trkpt lat="37.14018168880329" lon="139.9876218210217"><ele>1524</ele><time>2025-03-01T03:18:50Z</time></trkpt>
<trkpt lat="37.13969078321982" lon="139.9888423768142"><ele>1503</ele><time>2025-03-01T03:19:12Z</time></trkpt>
<trkpt lat="37.13937191706778" lon="139.9896688369147"><ele>1493</ele><time>2025-03-01T03:19:33Z</time></trkpt>
<trkpt lat="37.13903723378105" lon="139.9906133344142"><ele>1475</ele><time>2025-03-01T03:19:58Z</time></trkpt>
<trkpt lat="37.1387618557914" lon="139.9916932645215"><ele>1466</ele><time>2025-03-01T03:20:25Z</time></trkpt>
<trkpt lat="37.13866083281179" lon="139.99204818938887"><ele>1468</ele><time>2025-03-01T03:20:50Z</time></trkpt>
<trkpt lat="37.138573349929" lon="139.99253067839993"><ele>1463</ele><time>2025-03-01T03:25:05Z</time></trkpt>
<trkpt lat="37.13851379654403" lon="139.9929999264012"><ele>1464</ele><time>2025-03-01T03:25:29Z</time></trkpt>
<trkpt lat="37.13852605746509" lon="139.993630679177"><ele>1459</ele><time>2025-03-01T03:25:51Z</time></trkpt>
<trkpt lat="37.13853089328811" lon="139.99396204046454"><ele>1456</ele><time>2025-03-01T03:26:18Z</time></trkpt>
<trkpt lat="37.1384691287964" lon="139.99412393525182"><ele>1455</ele><time>2025-03-01T03:27:31Z</time></trkpt>
<trkpt lat="37.13827225217287" lon="139.99431870043034"><ele>1453</ele><time>2025-03-01T03:27:56Z</time></trkpt>
<trkpt lat="37.13809953996647" lon="139.99451677193937"><ele>1451</ele><time>2025-03-01T03:28:22Z</time></trkpt>
<trkpt lat="37.137728841778745" lon="139.99495288567064"><ele>1447</ele><time>2025-03-01T03:28:54Z</time></trkpt>
<trkpt lat="37.137456878436986" lon="139.9952266109624"><ele>1444</ele><time>2025-03-01T03:29:20Z</time></trkpt>
<trkpt lat="37.13678912627218" lon="139.99549348787036"><ele>1434</ele><time>2025-03-01T03:30:17Z</time></trkpt>
<trkpt lat="37.136100856154755" lon="139.9958935145577"><ele>1421</ele><time>2025-03-01T03:30:39Z</time></trkpt>
<trkpt lat="37.13589056210564" lon="139.99593091633034"><ele>1421</ele><time>2025-03-01T03:31:11Z</time></trkpt>
<trkpt lat="37.13580476443542" lon="139.99588357314963"><ele>1421</ele><time>2025-03-01T03:32:26Z</time></trkpt>
<trkpt lat="37.13553087028764" lon="139.99580444347808"><ele>1420</ele><time>2025-03-01T03:34:09Z</time></trkpt>
<trkpt lat="37.135261872279315" lon="139.99571802578012"><ele>1418</ele><time>2025-03-01T03:34:37Z</time></trkpt>
<trkpt lat="37.13494758002073" lon="139.99579180911851"><ele>1412</ele><time>2025-03-01T03:35:03Z</time></trkpt>
<trkpt lat="37.13463496205503" lon="139.99594925567465"><ele>1417</ele><time>2025-03-01T03:35:31Z</time></trkpt>
<trkpt lat="37.13435290184663" lon="139.99615312642442"><ele>1418</ele><time>2025-03-01T03:36:00Z</time></trkpt>
<trkpt lat="37.13419996095466" lon="139.99628089253844"><ele>1417</ele><time>2025-03-01T03:36:36Z</time></trkpt>
<trkpt lat="37.133910256563055" lon="139.9965728129801"><ele>1414</ele><time>2025-03-01T03:40:08Z</time></trkpt>
<trkpt lat="37.1336916514051" lon="139.9975571332732"><ele>1402</ele><time>2025-03-01T03:40:39Z</time></trkpt>
<trkpt lat="37.134118193783834" lon="139.99887204044805"><ele>1370</ele><time>2025-03-01T03:41:13Z</time></trkpt>
<trkpt lat="37.13417880790431" lon="140.00020045560507"><ele>1344</ele><time>2025-03-01T03:41:34Z</time></trkpt>
<trkpt lat="37.13423624837453" lon="140.0005459610419"><ele>1335</ele><time>2025-03-01T03:42:04Z</time></trkpt>
<trkpt lat="37.13416408090299" lon="140.00246760223044"><ele>1280</ele><time>2025-03-01T03:42:26Z</time></trkpt>
<trkpt lat="37.1335681204089" lon="140.00391436844134"><ele>1242</ele><time>2025-03-01T03:42:46Z</time></trkpt>
<trkpt lat="37.13259998631083" lon="140.00525341977647"><ele>1207</ele><time>2025-03-01T03:43:08Z</time></trkpt>
<trkpt lat="37.13250935706446" lon="140.00559697131257"><ele>1196</ele><time>2025-03-01T03:44:14Z</time></trkpt>
<trkpt lat="37.132050907057135" lon="140.0068741540915"><ele>1152</ele><time>2025-03-01T03:44:47Z</time></trkpt>
<trkpt lat="37.13140778017185" lon="140.00831201881962"><ele>1110</ele><time>2025-03-01T03:45:08Z</time></trkpt>
<trkpt lat="37.130846908026456" lon="140.01022069185433"><ele>1074</ele><time>2025-03-01T03:45:29Z</time></trkpt>
<trkpt lat="37.13072425268252" lon="140.01021824988197"><ele>1072</ele><time>2025-03-01T03:45:52Z</time></trkpt>
<trkpt lat="37.130341388375115" lon="140.0113592369929"><ele>1053</ele><time>2025-03-01T03:46:16Z</time></trkpt>
<trkpt lat="37.12966353416714" lon="140.01290198873207"><ele>1018</ele><time>2025-03-01T03:46:37Z</time></trkpt>
<trkpt lat="37.12925555037334" lon="140.01394879180066"><ele>1002</ele><time>2025-03-01T03:46:58Z</time></trkpt>
<trkpt lat="37.12920034537404" lon="140.01415129154668"><ele>994</ele><time>2025-03-01T03:47:34Z</time></trkpt>
<trkpt lat="37.12857597889565" lon="140.0150708167084"><ele>955</ele><time>2025-03-01T03:47:59Z</time></trkpt>
<trkpt lat="37.12830013476023" lon="140.0157954180422"><ele>954</ele><time>2025-03-01T03:48:21Z</time></trkpt>
<trkpt lat="37.128191560901556" lon="140.0159788794787"><ele>947</ele><time>2025-03-01T03:49:26Z</time></trkpt>
<trkpt lat="37.127946994498465" lon="140.01595608664525"><ele>949</ele><time>2025-03-01T03:49:51Z</time></trkpt>
<trkpt lat="37.12759293331423" lon="140.015886981373"><ele>950</ele><time>2025-03-01T03:50:52Z</time></trkpt>
<trkpt lat="37.127299251724644" lon="140.01592111197536"><ele>952</ele><time>2025-03-01T03:51:18Z</time></trkpt>
<trkpt lat="37.12710407432078" lon="140.01626628173338"><ele>946</ele><time>2025-03-01T03:51:43Z</time></trkpt>
<trkpt lat="37.12695534680724" lon="140.01658459274825"><ele>945</ele><time>2025-03-01T03:52:10Z</time></trkpt>
<trkpt lat="37.1268623455601" lon="140.01663809819917"><ele>943</ele><time>2025-03-01T03:52:44Z</time></trkpt>
</trkseg>
</trk>
</gpx>