<?xml version="1.0" encoding="UTF-8"?>
<gpx xmlns:xsi="http://www.w3.org/2001/XMLSchema-instance" xmlns="http://www.topografix.com/GPX/1/1" xsi:schemaLocation="http://www.topografix.com/GPX/1/1 http://www.topografix.com/GPX/1/1/gpx.xsd" creator="Yamareco iOS 7.33 - www.yamareco.com">
<trk><name>track</name><number>1</number><trkseg>
<trkpt lat="30.125527689261478" lon="118.16790235239841"><ele>1623</ele><time>2025-11-13T07:38:08Z</time></trkpt>
<trkpt lat="30.125470860714834" lon="118.16813294078993"><ele>1625</ele><time>2025-11-13T07:40:24Z</time></trkpt>
<trkpt lat="30.12550067695597" lon="118.16840041804397"><ele>1621</ele><time>2025-11-13T07:41:06Z</time></trkpt>
<trkpt lat="30.125299629083134" lon="118.16856350093629"><ele>1624</ele><time>2025-11-13T07:41:42Z</time></trkpt>
<trkpt lat="30.12515168593745" lon="118.1686964700161"><ele>1626</ele><time>2025-11-13T07:42:12Z</time></trkpt>
<trkpt lat="30.12505288353091" lon="118.16888457749172"><ele>1620</ele><time>2025-11-13T07:42:48Z</time></trkpt>
<trkpt lat="30.12494303172279" lon="118.16901556397394"><ele>1623</ele><time>2025-11-13T07:43:17Z</time></trkpt>
<trkpt lat="30.12484431974521" lon="118.16919030791745"><ele>1629</ele><time>2025-11-13T07:43:50Z</time></trkpt>
<trkpt lat="30.124818088304433" lon="118.16939084676633"><ele>1633</ele><time>2025-11-13T07:44:41Z</time></trkpt>
<trkpt lat="30.12500597164894" lon="118.1693639846366"><ele>1635</ele><time>2025-11-13T07:45:35Z</time></trkpt>
<trkpt lat="30.12515980524493" lon="118.169344086535"><ele>1642</ele><time>2025-11-13T07:46:16Z</time></trkpt>
<trkpt lat="30.125316280762732" lon="118.16934052532233"><ele>1647</ele><time>2025-11-13T07:46:58Z</time></trkpt>
<trkpt lat="30.12523420214813" lon="118.16946978227054"><ele>1665</ele><time>2025-11-13T07:48:03Z</time></trkpt>
<trkpt lat="30.125133666664727" lon="118.16949490205"><ele>1667</ele><time>2025-11-13T07:48:32Z</time></trkpt>
<trkpt lat="30.125292116705314" lon="118.1694418195614"><ele>1676</ele><time>2025-11-13T08:02:37Z</time></trkpt>
<trkpt lat="30.12548445020494" lon="118.16925510417569"><ele>1658</ele><time>2025-11-13T08:03:16Z</time></trkpt>
<trkpt lat="30.12570413321992" lon="118.16937503174296"><ele>1643</ele><time>2025-11-13T08:04:17Z</time></trkpt>
<trkpt lat="30.125475732007107" lon="118.1692431503962"><ele>1647</ele><time>2025-11-13T08:04:40Z</time></trkpt>
<trkpt lat="30.12538245559458" lon="118.16955334550215"><ele>1660</ele><time>2025-11-13T08:05:22Z</time></trkpt>
<trkpt lat="30.12523472690971" lon="118.16978417930422"><ele>1676</ele><time>2025-11-13T08:05:58Z</time></trkpt>
<trkpt lat="30.12504631331123" lon="118.1700016712734"><ele>1675</ele><time>2025-11-13T08:06:36Z</time></trkpt>
<trkpt lat="30.12495291747231" lon="118.17015236778899"><ele>1672</ele><time>2025-11-13T08:07:04Z</time></trkpt>
<trkpt lat="30.124803918880897" lon="118.17022929339161"><ele>1674</ele><time>2025-11-13T08:07:35Z</time></trkpt>
<trkpt lat="30.12462758066732" lon="118.17027612880824"><ele>1676</ele><time>2025-11-13T08:08:24Z</time></trkpt>
<trkpt lat="30.12445785763316" lon="118.17019702979347"><ele>1677</ele><time>2025-11-13T08:09:04Z</time></trkpt>
<trkpt lat="30.124546205486226" lon="118.17026176026305"><ele>1677</ele><time>2025-11-13T08:14:35Z</time></trkpt>
<trkpt lat="30.1247197657178" lon="118.17028384491006"><ele>1682</ele><time>2025-11-13T08:15:45Z</time></trkpt>
<trkpt lat="30.124833338304455" lon="118.17021607458591"><ele>1687</ele><time>2025-11-13T08:16:18Z</time></trkpt>
<trkpt lat="30.12488277538815" lon="118.17030541237229"><ele>1684</ele><time>2025-11-13T08:17:10Z</time></trkpt>
<trkpt lat="30.125007096554036" lon="118.17027459776813"><ele>1682</ele><time>2025-11-13T08:19:23Z</time></trkpt>
<trkpt lat="30.125172799106693" lon="118.17013539315903"><ele>1672</ele><time>2025-11-13T08:20:02Z</time></trkpt>
<trkpt lat="30.124951274797443" lon="118.17031938326238"><ele>1655</ele><time>2025-11-13T08:20:58Z</time></trkpt>
<trkpt lat="30.125011876334835" lon="118.17016800844776"><ele>1665</ele><time>2025-11-13T08:21:49Z</time></trkpt>
<trkpt lat="30.125124016309176" lon="118.16992921830717"><ele>1667</ele><time>2025-11-13T08:23:04Z</time></trkpt>
<trkpt lat="30.125243907039867" lon="118.16978604987771"><ele>1674</ele><time>2025-11-13T08:23:49Z</time></trkpt>
<trkpt lat="30.12542169863831" lon="118.16962355266021"><ele>1676</ele><time>2025-11-13T08:24:28Z</time></trkpt>
<trkpt lat="30.125476214321495" lon="118.1694881683996"><ele>1681</ele><time>2025-11-13T08:25:52Z</time></trkpt>
<trkpt lat="30.125561246760828" lon="118.16943455728374"><ele>1674</ele><time>2025-11-13T08:26:41Z</time></trkpt>
<trkpt lat="30.125569308487417" lon="118.16922616502254"><ele>1664</ele><time>2025-11-13T08:27:55Z</time></trkpt>
<trkpt lat="30.125677425710172" lon="118.1690265970112"><ele>1681</ele><time>2025-11-13T08:28:27Z</time></trkpt>
<trkpt lat="30.12577641377513" lon="118.16902668088497"><ele>1687</ele><time>2025-11-13T08:29:31Z</time></trkpt>
<trkpt lat="30.125912948350315" lon="118.16881889106844"><ele>1686</ele><time>2025-11-13T08:30:22Z</time></trkpt>
<trkpt lat="30.125995345496932" lon="118.16861544768706"><ele>1684</ele><time>2025-11-13T08:30:59Z</time></trkpt>
<trkpt lat="30.126176656690113" lon="118.16835282444136"><ele>1684</ele><time>2025-11-13T08:31:32Z</time></trkpt>
<trkpt lat="30.126276241693585" lon="118.16815889452205"><ele>1683</ele><time>2025-11-13T08:32:02Z</time></trkpt>
<trkpt lat="30.126414685918164" lon="118.16803262908256"><ele>1682</ele><time>2025-11-13T08:32:58Z</time></trkpt>
<trkpt lat="30.126521374517782" lon="118.16806809454332"><ele>1689</ele><time>2025-11-13T08:34:41Z</time></trkpt>
<trkpt lat="30.126397683715634" lon="118.16799216813041"><ele>1679</ele><time>2025-11-13T08:36:12Z</time></trkpt>
<trkpt lat="30.126449134322172" lon="118.16787615774096"><ele>1658</ele><time>2025-11-13T08:37:16Z</time></trkpt>
<trkpt lat="30.12651809376172" lon="118.16770399067833"><ele>1647</ele><time>2025-11-13T08:38:20Z</time></trkpt>
<trkpt lat="30.126479330471035" lon="118.1674471429559"><ele>1656</ele><time>2025-11-13T08:39:20Z</time></trkpt>
<trkpt lat="30.126383586649876" lon="118.16742350755881"><ele>1658</ele><time>2025-11-13T08:40:06Z</time></trkpt>
<trkpt lat="30.12628598083323" lon="118.1672497909498"><ele>1654</ele><time>2025-11-13T08:40:43Z</time></trkpt>
<trkpt lat="30.12613219550818" lon="118.16706531061963"><ele>1659</ele><time>2025-11-13T08:41:11Z</time></trkpt>
<trkpt lat="30.12594048876433" lon="118.16697578585959"><ele>1665</ele><time>2025-11-13T08:41:37Z</time></trkpt>
<trkpt lat="30.12574446447458" lon="118.16688739813503"><ele>1664</ele><time>2025-11-13T08:42:09Z</time></trkpt>
<trkpt lat="30.12565162612168" lon="118.1667201953474"><ele>1673</ele><time>2025-11-13T08:42:49Z</time></trkpt>
<trkpt lat="30.125579345067877" lon="118.16655795581292"><ele>1696</ele><time>2025-11-13T08:43:47Z</time></trkpt>
<trkpt lat="30.1255863243847" lon="118.16640276792906"><ele>1694</ele><time>2025-11-13T08:44:22Z</time></trkpt>
<trkpt lat="30.125582940062714" lon="118.16617057931852"><ele>1694</ele><time>2025-11-13T08:45:12Z</time></trkpt>
<trkpt lat="30.12564776288791" lon="118.1660289407993"><ele>1704</ele><time>2025-11-13T08:45:59Z</time></trkpt>
<trkpt lat="30.125684427037605" lon="118.16584009011123"><ele>1700</ele><time>2025-11-13T08:46:37Z</time></trkpt>
<trkpt lat="30.1255310129211" lon="118.16564368906681"><ele>1703</ele><time>2025-11-13T08:47:58Z</time></trkpt>
<trkpt lat="30.125504767682397" lon="118.16547367091621"><ele>1698</ele><time>2025-11-13T08:48:37Z</time></trkpt>
<trkpt lat="30.12596618268702" lon="118.16537744239989"><ele>1701</ele><time>2025-11-13T08:49:57Z</time></trkpt>
<trkpt lat="30.125651403787575" lon="118.16518938961516"><ele>1698</ele><time>2025-11-13T08:50:19Z</time></trkpt>
<trkpt lat="30.125732769238066" lon="118.16505337612719"><ele>1699</ele><time>2025-11-13T08:51:12Z</time></trkpt>
<trkpt lat="30.12577931101541" lon="118.16484222523393"><ele>1701</ele><time>2025-11-13T08:51:35Z</time></trkpt>
<trkpt lat="30.125994757711464" lon="118.1646156383512"><ele>1705</ele><time>2025-11-13T08:54:09Z</time></trkpt>
<trkpt lat="30.12619073547223" lon="118.16438112287531"><ele>1703</ele><time>2025-11-13T08:54:38Z</time></trkpt>
<trkpt lat="30.126340665419878" lon="118.16414139126995"><ele>1699</ele><time>2025-11-13T08:55:20Z</time></trkpt>
<trkpt lat="30.126447247524194" lon="118.16406493691169"><ele>1701</ele><time>2025-11-13T08:55:56Z</time></trkpt>
<trkpt lat="30.126598019901078" lon="118.16402280101718"><ele>1708</ele><time>2025-11-13T08:58:05Z</time></trkpt>
<trkpt lat="30.126745618547183" lon="118.1639718526729"><ele>1712</ele><time>2025-11-13T08:58:39Z</time></trkpt>
<trkpt lat="30.12682581211311" lon="118.16388164483493"><ele>1703</ele><time>2025-11-13T09:00:07Z</time></trkpt>
<trkpt lat="30.126948833418684" lon="118.16370673253729"><ele>1706</ele><time>2025-11-13T09:00:36Z</time></trkpt>
<trkpt lat="30.1269704576042" lon="118.16353885952327"><ele>1699</ele><time>2025-11-13T09:01:31Z</time></trkpt>
<trkpt lat="30.127121996395136" lon="118.16342043101803"><ele>1670</ele><time>2025-11-13T09:03:11Z</time></trkpt>
<trkpt lat="30.12721212034716" lon="118.16339045469859"><ele>1665</ele><time>2025-11-13T09:04:27Z</time></trkpt>
<trkpt lat="30.12709416843101" lon="118.16368303626638"><ele>1665</ele><time>2025-11-13T09:06:40Z</time></trkpt>
<trkpt lat="30.127231841776982" lon="118.16382586494585"><ele>1676</ele><time>2025-11-13T09:07:07Z</time></trkpt>
<trkpt lat="30.127386168547144" lon="118.1636928776771"><ele>1671</ele><time>2025-11-13T09:07:35Z</time></trkpt>
<trkpt lat="30.127579638900052" lon="118.16366113868602"><ele>1677</ele><time>2025-11-13T09:08:04Z</time></trkpt>
<trkpt lat="30.127805840986742" lon="118.16372747492315"><ele>1683</ele><time>2025-11-13T09:08:32Z</time></trkpt>
<trkpt lat="30.12800475387353" lon="118.16388413982351"><ele>1689</ele><time>2025-11-13T09:09:18Z</time></trkpt>
<trkpt lat="30.128184872532294" lon="118.16408229179427"><ele>1697</ele><time>2025-11-13T09:09:55Z</time></trkpt>
<trkpt lat="30.12844595364341" lon="118.16402176754016"><ele>1706</ele><time>2025-11-13T09:10:25Z</time></trkpt>
<trkpt lat="30.12860446718946" lon="118.1638095070885"><ele>1701</ele><time>2025-11-13T09:10:53Z</time></trkpt>
<trkpt lat="30.128748261132447" lon="118.16347137927144"><ele>1702</ele><time>2025-11-13T09:11:19Z</time></trkpt>
<trkpt lat="30.128796601789563" lon="118.16323186094557"><ele>1702</ele><time>2025-11-13T09:11:46Z</time></trkpt>
<trkpt lat="30.128753970238094" lon="118.16300451976299"><ele>1707</ele><time>2025-11-13T09:12:20Z</time></trkpt>
<trkpt lat="30.128699563122918" lon="118.16273720128754"><ele>1701</ele><time>2025-11-13T09:12:47Z</time></trkpt>
<trkpt lat="30.128843645061185" lon="118.16250836807588"><ele>1695</ele><time>2025-11-13T09:13:19Z</time></trkpt>
<trkpt lat="30.128958208478124" lon="118.1622088741155"><ele>1698</ele><time>2025-11-13T09:13:48Z</time></trkpt>
<trkpt lat="30.12909604074785" lon="118.16187834397903"><ele>1702</ele><time>2025-11-13T09:14:17Z</time></trkpt>
<trkpt lat="30.12910703567902" lon="118.16152526859027"><ele>1706</ele><time>2025-11-13T09:14:45Z</time></trkpt>
<trkpt lat="30.12918974411056" lon="118.16135752188454"><ele>1716</ele><time>2025-11-13T09:15:17Z</time></trkpt>
<trkpt lat="30.129237594974132" lon="118.16108174278519"><ele>1714</ele><time>2025-11-13T09:15:47Z</time></trkpt>
<trkpt lat="30.12939149226446" lon="118.16096722847239"><ele>1728</ele><time>2025-11-13T09:16:18Z</time></trkpt>
<trkpt lat="30.129620830096695" lon="118.16072855827308"><ele>1728</ele><time>2025-11-13T09:16:54Z</time></trkpt>
<trkpt lat="30.129791791489126" lon="118.16088474182352"><ele>1734</ele><time>2025-11-13T09:18:22Z</time></trkpt>
<trkpt lat="30.130059391266226" lon="118.16083854338132"><ele>1743</ele><time>2025-11-13T09:18:53Z</time></trkpt>
<trkpt lat="30.130249318726502" lon="118.16072215113742"><ele>1754</ele><time>2025-11-13T09:19:26Z</time></trkpt>
<trkpt lat="30.13035748609308" lon="118.16072767086511"><ele>1761</ele><time>2025-11-13T09:20:00Z</time></trkpt>
<trkpt lat="30.13049668135395" lon="118.16099427721564"><ele>1765</ele><time>2025-11-13T09:21:29Z</time></trkpt>
<trkpt lat="30.130591051884245" lon="118.1613107419815"><ele>1764</ele><time>2025-11-13T09:21:58Z</time></trkpt>
<trkpt lat="30.13063984645609" lon="118.16155574080784"><ele>1764</ele><time>2025-11-13T09:22:50Z</time></trkpt>
<trkpt lat="30.130898177220523" lon="118.1617790456792"><ele>1771</ele><time>2025-11-13T09:23:21Z</time></trkpt>
<trkpt lat="30.131190913424703" lon="118.1617534703667"><ele>1769</ele><time>2025-11-13T09:23:46Z</time></trkpt>
<trkpt lat="30.131380924185518" lon="118.1616362642152"><ele>1763</ele><time>2025-11-13T09:24:15Z</time></trkpt>
<trkpt lat="30.131590667427822" lon="118.16167458931224"><ele>1754</ele><time>2025-11-13T09:24:56Z</time></trkpt>
<trkpt lat="30.131747540056534" lon="118.16183761199288"><ele>1745</ele><time>2025-11-13T09:25:34Z</time></trkpt>
<trkpt lat="30.131740044464454" lon="118.16218024156043"><ele>1740</ele><time>2025-11-13T09:26:03Z</time></trkpt>
<trkpt lat="30.131807642639142" lon="118.16255699209236"><ele>1738</ele><time>2025-11-13T09:26:30Z</time></trkpt>
<trkpt lat="30.13197446316946" lon="118.16278698591954"><ele>1735</ele><time>2025-11-13T09:26:58Z</time></trkpt>
<trkpt lat="30.13211354142932" lon="118.16309117387132"><ele>1730</ele><time>2025-11-13T09:27:39Z</time></trkpt>
<trkpt lat="30.132322152449927" lon="118.16327180744979"><ele>1733</ele><time>2025-11-13T09:28:06Z</time></trkpt>
<trkpt lat="30.13248632884125" lon="118.16339130327502"><ele>1738</ele><time>2025-11-13T09:29:45Z</time></trkpt>
<trkpt lat="30.132620670094038" lon="118.16351317583951"><ele>1747</ele><time>2025-11-13T09:30:22Z</time></trkpt>
<trkpt lat="30.132761906903646" lon="118.16362586023331"><ele>1751</ele><time>2025-11-13T09:31:00Z</time></trkpt>
<trkpt lat="30.13294042930835" lon="118.1637525175331"><ele>1760</ele><time>2025-11-13T09:31:35Z</time></trkpt>
<trkpt lat="30.13315195355932" lon="118.16392300771523"><ele>1766</ele><time>2025-11-13T09:32:14Z</time></trkpt>
<trkpt lat="30.133240040123827" lon="118.16402941878127"><ele>1773</ele><time>2025-11-13T09:33:03Z</time></trkpt>
<trkpt lat="30.133366793923205" lon="118.16416640196115"><ele>1778</ele><time>2025-11-13T09:33:37Z</time></trkpt>
<trkpt lat="30.133547890212842" lon="118.16420474842616"><ele>1783</ele><time>2025-11-13T09:34:16Z</time></trkpt>
<trkpt lat="30.133794695590563" lon="118.16411348987586"><ele>1786</ele><time>2025-11-13T09:34:53Z</time></trkpt>
<trkpt lat="30.133928536916535" lon="118.16394193162306"><ele>1793</ele><time>2025-11-13T09:35:27Z</time></trkpt>
<trkpt lat="30.134108440907713" lon="118.16378043831111"><ele>1803</ele><time>2025-11-13T09:35:58Z</time></trkpt>
<trkpt lat="30.134173199980264" lon="118.16364725279512"><ele>1811</ele><time>2025-11-13T09:37:42Z</time></trkpt>
<trkpt lat="30.134307347255547" lon="118.16349369977758"><ele>1810</ele><time>2025-11-13T09:38:17Z</time></trkpt>
<trkpt lat="30.134462083149227" lon="118.16350593537558"><ele>1816</ele><time>2025-11-13T09:38:50Z</time></trkpt>
<trkpt lat="30.13464409902942" lon="118.16346121880034"><ele>1815</ele><time>2025-11-13T09:39:29Z</time></trkpt>
<trkpt lat="30.134706663504026" lon="118.16338451376986"><ele>1813</ele><time>2025-11-13T09:42:15Z</time></trkpt>
<trkpt lat="30.134877675822615" lon="118.16346696387052"><ele>1808</ele><time>2025-11-13T09:43:16Z</time></trkpt>
<trkpt lat="30.1351067383935" lon="118.16359942993063"><ele>1800</ele><time>2025-11-13T09:44:33Z</time></trkpt>
<trkpt lat="30.13533749002098" lon="118.1636811316334"><ele>1794</ele><time>2025-11-13T09:45:21Z</time></trkpt>
<trkpt lat="30.13548507409058" lon="118.16382840389058"><ele>1786</ele><time>2025-11-13T09:45:52Z</time></trkpt>
<trkpt lat="30.135631263806367" lon="118.16386695829173"><ele>1778</ele><time>2025-11-13T09:46:27Z</time></trkpt>
<trkpt lat="30.13584036128573" lon="118.16373854375023"><ele>1775</ele><time>2025-11-13T09:46:57Z</time></trkpt>
<trkpt lat="30.1360053180376" lon="118.16368143108765"><ele>1774</ele><time>2025-11-13T09:47:30Z</time></trkpt>
<trkpt lat="30.136172692670453" lon="118.16360717256462"><ele>1762</ele><time>2025-11-13T09:48:08Z</time></trkpt>
<trkpt lat="30.136346715668676" lon="118.16364363290566"><ele>1756</ele><time>2025-11-13T09:48:48Z</time></trkpt>
<trkpt lat="30.136537376169098" lon="118.1638514105008"><ele>1753</ele><time>2025-11-13T09:49:21Z</time></trkpt>
<trkpt lat="30.136711809302412" lon="118.16396705033252"><ele>1752</ele><time>2025-11-13T09:49:48Z</time></trkpt>
<trkpt lat="30.136887341877507" lon="118.16400910771267"><ele>1750</ele><time>2025-11-13T09:50:25Z</time></trkpt>
<trkpt lat="30.13713563336728" lon="118.16404552008557"><ele>1748</ele><time>2025-11-13T09:50:58Z</time></trkpt>
<trkpt lat="30.137377820916715" lon="118.16407933777816"><ele>1748</ele><time>2025-11-13T09:51:25Z</time></trkpt>
<trkpt lat="30.137542298432287" lon="118.16388115810538"><ele>1742</ele><time>2025-11-13T09:51:56Z</time></trkpt>
<trkpt lat="30.13777198056178" lon="118.16375385701014"><ele>1744</ele><time>2025-11-13T09:52:23Z</time></trkpt>
<trkpt lat="30.13801753818418" lon="118.16360532949324"><ele>1745</ele><time>2025-11-13T09:52:51Z</time></trkpt>
<trkpt lat="30.138249335079724" lon="118.1634195441262"><ele>1741</ele><time>2025-11-13T09:53:18Z</time></trkpt>
<trkpt lat="30.138400917511216" lon="118.16357156766718"><ele>1753</ele><time>2025-11-13T09:53:55Z</time></trkpt>
<trkpt lat="30.138553308299553" lon="118.1637956150822"><ele>1750</ele><time>2025-11-13T09:54:25Z</time></trkpt>
<trkpt lat="30.138637237681273" lon="118.16407562553614"><ele>1751</ele><time>2025-11-13T09:54:56Z</time></trkpt>
<trkpt lat="30.138695375036118" lon="118.16432514260752"><ele>1756</ele><time>2025-11-13T09:55:28Z</time></trkpt>
<trkpt lat="30.138809566752197" lon="118.1645441310093"><ele>1754</ele><time>2025-11-13T09:56:04Z</time></trkpt>
<trkpt lat="30.13889675940616" lon="118.164779660734"><ele>1757</ele><time>2025-11-13T09:56:39Z</time></trkpt>
<trkpt lat="30.13917358622758" lon="118.16489748333134"><ele>1758</ele><time>2025-11-13T09:57:17Z</time></trkpt>
<trkpt lat="30.13926697276239" lon="118.16490246124668"><ele>1758</ele><time>2025-11-13T09:57:32Z</time></trkpt>
</trkseg>
</trk>
<trk><name>track</name><number>2</number><trkseg>
<trkpt lat="30.138975866167" lon="118.16515836875715"><ele>1773</ele><time>2025-11-13T23:07:12Z</time></trkpt>
<trkpt lat="30.139130724597617" lon="118.16485449894392"><ele>1760</ele><time>2025-11-13T23:07:34Z</time></trkpt>
<trkpt lat="30.138962397777885" lon="118.16484333600025"><ele>1765</ele><time>2025-11-13T23:08:14Z</time></trkpt>
<trkpt lat="30.1388130263069" lon="118.16463787847108"><ele>1762</ele><time>2025-11-13T23:08:44Z</time></trkpt>
<trkpt lat="30.13869011500368" lon="118.16426456512261"><ele>1759</ele><time>2025-11-13T23:09:13Z</time></trkpt>
<trkpt lat="30.138601818450358" lon="118.16398227152217"><ele>1757</ele><time>2025-11-13T23:09:43Z</time></trkpt>
<trkpt lat="30.13848793244966" lon="118.16369896389538"><ele>1755</ele><time>2025-11-13T23:10:11Z</time></trkpt>
<trkpt lat="30.138279095994772" lon="118.16348864957631"><ele>1751</ele><time>2025-11-13T23:10:38Z</time></trkpt>
<trkpt lat="30.138040933082635" lon="118.16349366567916"><ele>1746</ele><time>2025-11-13T23:11:10Z</time></trkpt>
<trkpt lat="30.137775158316508" lon="118.16367715678153"><ele>1747</ele><time>2025-11-13T23:11:36Z</time></trkpt>
<trkpt lat="30.137486309563908" lon="118.16385574428789"><ele>1747</ele><time>2025-11-13T23:12:04Z</time></trkpt>
<trkpt lat="30.137274705077886" lon="118.1640311888511"><ele>1756</ele><time>2025-11-13T23:12:34Z</time></trkpt>
<trkpt lat="30.13696400594011" lon="118.16397498868002"><ele>1755</ele><time>2025-11-13T23:13:06Z</time></trkpt>
<trkpt lat="30.13674561736409" lon="118.16398376815769"><ele>1759</ele><time>2025-11-13T23:13:34Z</time></trkpt>
<trkpt lat="30.136473197045024" lon="118.16384361833322"><ele>1761</ele><time>2025-11-13T23:14:31Z</time></trkpt>
<trkpt lat="30.136302496992574" lon="118.16364257178829"><ele>1768</ele><time>2025-11-13T23:15:00Z</time></trkpt>
<trkpt lat="30.136099199044516" lon="118.16361452777261"><ele>1768</ele><time>2025-11-13T23:15:29Z</time></trkpt>
<trkpt lat="30.13592171407903" lon="118.16369045644633"><ele>1778</ele><time>2025-11-13T23:16:01Z</time></trkpt>
<trkpt lat="30.135714692935586" lon="118.16374866516168"><ele>1782</ele><time>2025-11-13T23:16:33Z</time></trkpt>
<trkpt lat="30.135541973499322" lon="118.16387020465052"><ele>1789</ele><time>2025-11-13T23:17:04Z</time></trkpt>
<trkpt lat="30.13542043108898" lon="118.16374612065648"><ele>1797</ele><time>2025-11-13T23:17:52Z</time></trkpt>
<trkpt lat="30.135239282410005" lon="118.16366135844508"><ele>1802</ele><time>2025-11-13T23:18:26Z</time></trkpt>
<trkpt lat="30.135070865105007" lon="118.16360626165658"><ele>1806</ele><time>2025-11-13T23:19:08Z</time></trkpt>
<trkpt lat="30.134961087638715" lon="118.1635045371248"><ele>1812</ele><time>2025-11-13T23:19:40Z</time></trkpt>
<trkpt lat="30.13474748464482" lon="118.16338612826242"><ele>1818</ele><time>2025-11-13T23:20:57Z</time></trkpt>
<trkpt lat="30.134560448240666" lon="118.16325537004339"><ele>1819</ele><time>2025-11-13T23:21:26Z</time></trkpt>
<trkpt lat="30.134369854806533" lon="118.16310557712139"><ele>1822</ele><time>2025-11-13T23:22:02Z</time></trkpt>
<trkpt lat="30.134512902161365" lon="118.16312867995634"><ele>1816</ele><time>2025-11-13T23:24:19Z</time></trkpt>
<trkpt lat="30.134613932411987" lon="118.16279244352441"><ele>1813</ele><time>2025-11-13T23:24:50Z</time></trkpt>
<trkpt lat="30.134709794808277" lon="118.16246701432468"><ele>1810</ele><time>2025-11-13T23:25:17Z</time></trkpt>
<trkpt lat="30.134904297325793" lon="118.1622525025163"><ele>1806</ele><time>2025-11-13T23:25:45Z</time></trkpt>
<trkpt lat="30.135013464668585" lon="118.16196538452587"><ele>1801</ele><time>2025-11-13T23:26:16Z</time></trkpt>
<trkpt lat="30.135161181852197" lon="118.16163915031863"><ele>1800</ele><time>2025-11-13T23:26:44Z</time></trkpt>
<trkpt lat="30.13534857637281" lon="118.16140979150768"><ele>1801</ele><time>2025-11-13T23:27:13Z</time></trkpt>
<trkpt lat="30.135419954439268" lon="118.16111598101146"><ele>1800</ele><time>2025-11-13T23:27:39Z</time></trkpt>
<trkpt lat="30.13556689068011" lon="118.16082638685732"><ele>1798</ele><time>2025-11-13T23:28:07Z</time></trkpt>
<trkpt lat="30.135532615529975" lon="118.16059260276056"><ele>1791</ele><time>2025-11-13T23:28:36Z</time></trkpt>
<trkpt lat="30.135488072005334" lon="118.16040841681728"><ele>1790</ele><time>2025-11-13T23:29:01Z</time></trkpt>
<trkpt lat="30.135549764065946" lon="118.16011497900381"><ele>1783</ele><time>2025-11-13T23:29:31Z</time></trkpt>
<trkpt lat="30.135664744557083" lon="118.15991272441205"><ele>1776</ele><time>2025-11-13T23:30:01Z</time></trkpt>
<trkpt lat="30.135867891941697" lon="118.1596832088647"><ele>1773</ele><time>2025-11-13T23:30:28Z</time></trkpt>
<trkpt lat="30.135917160818522" lon="118.15938064500634"><ele>1769</ele><time>2025-11-13T23:30:57Z</time></trkpt>
<trkpt lat="30.13599672019845" lon="118.15913287314154"><ele>1770</ele><time>2025-11-13T23:31:26Z</time></trkpt>
<trkpt lat="30.135989592051477" lon="118.1588681429021"><ele>1771</ele><time>2025-11-13T23:32:00Z</time></trkpt>
<trkpt lat="30.136099389552818" lon="118.15872912823548"><ele>1774</ele><time>2025-11-13T23:32:34Z</time></trkpt>
<trkpt lat="30.136163042231125" lon="118.15851624313072"><ele>1772</ele><time>2025-11-13T23:33:29Z</time></trkpt>
<trkpt lat="30.13605873945111" lon="118.15876274235642"><ele>1770</ele><time>2025-11-13T23:35:52Z</time></trkpt>
<trkpt lat="30.136133861630206" lon="118.15883984576139"><ele>1763</ele><time>2025-11-13T23:37:16Z</time></trkpt>
<trkpt lat="30.136261159304645" lon="118.15904564149385"><ele>1759</ele><time>2025-11-13T23:37:44Z</time></trkpt>
<trkpt lat="30.136495890754915" lon="118.15903674241869"><ele>1751</ele><time>2025-11-13T23:39:40Z</time></trkpt>
<trkpt lat="30.136619694528196" lon="118.1592254708401"><ele>1739</ele><time>2025-11-13T23:40:31Z</time></trkpt>
<trkpt lat="30.136881265495386" lon="118.15922645367571"><ele>1731</ele><time>2025-11-13T23:40:59Z</time></trkpt>
<trkpt lat="30.137104319420633" lon="118.15921460661053"><ele>1726</ele><time>2025-11-13T23:41:31Z</time></trkpt>
<trkpt lat="30.137270136508665" lon="118.15902398617806"><ele>1724</ele><time>2025-11-13T23:42:09Z</time></trkpt>
<trkpt lat="30.13742475722104" lon="118.15901635732153"><ele>1723</ele><time>2025-11-13T23:42:38Z</time></trkpt>
<trkpt lat="30.137601759095208" lon="118.15895728449476"><ele>1724</ele><time>2025-11-13T23:43:15Z</time></trkpt>
<trkpt lat="30.137743207551843" lon="118.15885065276751"><ele>1724</ele><time>2025-11-13T23:43:50Z</time></trkpt>
<trkpt lat="30.137838964427377" lon="118.15883168909492"><ele>1722</ele><time>2025-11-13T23:45:04Z</time></trkpt>
<trkpt lat="30.137940388271414" lon="118.15872003209094"><ele>1722</ele><time>2025-11-13T23:45:45Z</time></trkpt>
<trkpt lat="30.13789031843775" lon="118.15881440925507"><ele>1718</ele><time>2025-11-13T23:46:53Z</time></trkpt>
<trkpt lat="30.138090013706435" lon="118.1587628777007"><ele>1713</ele><time>2025-11-13T23:48:04Z</time></trkpt>
<trkpt lat="30.138271483950493" lon="118.1587949942119"><ele>1703</ele><time>2025-11-13T23:48:34Z</time></trkpt>
<trkpt lat="30.138394811985815" lon="118.15879814157411"><ele>1696</ele><time>2025-11-13T23:49:06Z</time></trkpt>
<trkpt lat="30.13863987855671" lon="118.15888427331623"><ele>1698</ele><time>2025-11-13T23:53:10Z</time></trkpt>
<trkpt lat="30.138848679447083" lon="118.15870010307827"><ele>1699</ele><time>2025-11-13T23:53:36Z</time></trkpt>
<trkpt lat="30.139081209934332" lon="118.1585823744524"><ele>1699</ele><time>2025-11-13T23:54:06Z</time></trkpt>
<trkpt lat="30.139194426350194" lon="118.15870354194602"><ele>1694</ele><time>2025-11-13T23:54:39Z</time></trkpt>
<trkpt lat="30.139291099267442" lon="118.15885831797485"><ele>1682</ele><time>2025-11-13T23:55:19Z</time></trkpt>
<trkpt lat="30.139453086298623" lon="118.15895631233724"><ele>1676</ele><time>2025-11-13T23:56:01Z</time></trkpt>
<trkpt lat="30.139617469825133" lon="118.15905348108828"><ele>1670</ele><time>2025-11-13T23:56:40Z</time></trkpt>
<trkpt lat="30.139729808438446" lon="118.15921391294142"><ele>1663</ele><time>2025-11-13T23:57:17Z</time></trkpt>
<trkpt lat="30.13995848964317" lon="118.159073701777"><ele>1656</ele><time>2025-11-13T23:57:58Z</time></trkpt>
<trkpt lat="30.14014577486067" lon="118.15910030526372"><ele>1644</ele><time>2025-11-13T23:58:40Z</time></trkpt>
<trkpt lat="30.140366719106677" lon="118.15915411530706"><ele>1633</ele><time>2025-11-13T23:59:38Z</time></trkpt>
<trkpt lat="30.14059981475183" lon="118.15894214897371"><ele>1625</ele><time>2025-11-14T00:00:08Z</time></trkpt>
<trkpt lat="30.140698883674702" lon="118.15867055651366"><ele>1627</ele><time>2025-11-14T00:00:40Z</time></trkpt>
<trkpt lat="30.140629072190197" lon="118.15851422278837"><ele>1628</ele><time>2025-11-14T00:01:16Z</time></trkpt>
<trkpt lat="30.140584426025256" lon="118.1583084247653"><ele>1634</ele><time>2025-11-14T00:01:55Z</time></trkpt>
<trkpt lat="30.140614956761233" lon="118.15802204447394"><ele>1634</ele><time>2025-11-14T00:02:41Z</time></trkpt>
<trkpt lat="30.140708565068287" lon="118.15791671462149"><ele>1628</ele><time>2025-11-14T00:03:46Z</time></trkpt>
<trkpt lat="30.14091346438236" lon="118.15783676579345"><ele>1627</ele><time>2025-11-14T00:04:20Z</time></trkpt>
<trkpt lat="30.141123956032356" lon="118.15771094143196"><ele>1620</ele><time>2025-11-14T00:04:53Z</time></trkpt>
<trkpt lat="30.14131056476797" lon="118.15758768160799"><ele>1610</ele><time>2025-11-14T00:05:23Z</time></trkpt>
<trkpt lat="30.141443645157754" lon="118.15747098872298"><ele>1605</ele><time>2025-11-14T00:05:54Z</time></trkpt>
<trkpt lat="30.141667218843576" lon="118.15737565337758"><ele>1602</ele><time>2025-11-14T00:07:00Z</time></trkpt>
<trkpt lat="30.141891027212303" lon="118.15730629540673"><ele>1597</ele><time>2025-11-14T00:07:32Z</time></trkpt>
<trkpt lat="30.14218403661836" lon="118.15731135000995"><ele>1595</ele><time>2025-11-14T00:08:01Z</time></trkpt>
<trkpt lat="30.142381690130765" lon="118.15740898678432"><ele>1595</ele><time>2025-11-14T00:08:28Z</time></trkpt>
<trkpt lat="30.14248246898724" lon="118.15771962781955"><ele>1597</ele><time>2025-11-14T00:08:59Z</time></trkpt>
<trkpt lat="30.14258907499611" lon="118.15741986532646"><ele>1601</ele><time>2025-11-14T00:09:26Z</time></trkpt>
<trkpt lat="30.14247756606109" lon="118.15753604230805"><ele>1596</ele><time>2025-11-14T00:10:28Z</time></trkpt>
<trkpt lat="30.142373807731563" lon="118.15752544119584"><ele>1590</ele><time>2025-11-14T00:15:40Z</time></trkpt>
<trkpt lat="30.14242063019757" lon="118.15769389941966"><ele>1595</ele><time>2025-11-14T00:16:25Z</time></trkpt>
<trkpt lat="30.14236302457051" lon="118.15745221319304"><ele>1591</ele><time>2025-11-14T00:17:06Z</time></trkpt>
<trkpt lat="30.142286855600222" lon="118.15774252931048"><ele>1593</ele><time>2025-11-14T00:32:03Z</time></trkpt>
<trkpt lat="30.142246991874206" lon="118.15792481248828"><ele>1590</ele><time>2025-11-14T00:32:28Z</time></trkpt>
<trkpt lat="30.1422834335773" lon="118.15824989757584"><ele>1590</ele><time>2025-11-14T00:33:16Z</time></trkpt>
<trkpt lat="30.142221523899426" lon="118.15856484966208"><ele>1584</ele><time>2025-11-14T00:33:50Z</time></trkpt>
<trkpt lat="30.14224406508918" lon="118.1588481030409"><ele>1583</ele><time>2025-11-14T00:34:20Z</time></trkpt>
<trkpt lat="30.142402994731736" lon="118.15910173214392"><ele>1582</ele><time>2025-11-14T00:34:48Z</time></trkpt>
<trkpt lat="30.142428820014448" lon="118.15927593175874"><ele>1582</ele><time>2025-11-14T00:35:17Z</time></trkpt>
<trkpt lat="30.142545466177438" lon="118.15944086039144"><ele>1573</ele><time>2025-11-14T00:35:55Z</time></trkpt>
<trkpt lat="30.14269718242458" lon="118.15963337756271"><ele>1568</ele><time>2025-11-14T00:36:23Z</time></trkpt>
<trkpt lat="30.142786549141526" lon="118.15981202192606"><ele>1568</ele><time>2025-11-14T00:37:08Z</time></trkpt>
<trkpt lat="30.1427752469083" lon="118.16009112428044"><ele>1568</ele><time>2025-11-14T00:37:41Z</time></trkpt>
<trkpt lat="30.142903186259158" lon="118.16035698710355"><ele>1568</ele><time>2025-11-14T00:38:11Z</time></trkpt>
<trkpt lat="30.143123041963467" lon="118.16041798100954"><ele>1567</ele><time>2025-11-14T00:39:07Z</time></trkpt>
<trkpt lat="30.143043104878807" lon="118.16072473702654"><ele>1565</ele><time>2025-11-14T00:40:04Z</time></trkpt>
<trkpt lat="30.143097256252624" lon="118.16102349926119"><ele>1570</ele><time>2025-11-14T00:40:32Z</time></trkpt>
<trkpt lat="30.143316005753913" lon="118.16109395516803"><ele>1571</ele><time>2025-11-14T00:41:04Z</time></trkpt>
<trkpt lat="30.143314340776797" lon="118.16135885081805"><ele>1581</ele><time>2025-11-14T00:41:51Z</time></trkpt>
<trkpt lat="30.143472608297497" lon="118.16143154807327"><ele>1589</ele><time>2025-11-14T00:42:22Z</time></trkpt>
<trkpt lat="30.143528163274272" lon="118.16160583516952"><ele>1593</ele><time>2025-11-14T00:43:08Z</time></trkpt>
<trkpt lat="30.143598711580292" lon="118.16182026717891"><ele>1603</ele><time>2025-11-14T00:44:04Z</time></trkpt>
<trkpt lat="30.143658188673296" lon="118.16207646180888"><ele>1605</ele><time>2025-11-14T00:44:42Z</time></trkpt>
<trkpt lat="30.143723307802997" lon="118.16242655103059"><ele>1610</ele><time>2025-11-14T00:45:16Z</time></trkpt>
<trkpt lat="30.143771342934112" lon="118.1627007452728"><ele>1617</ele><time>2025-11-14T00:45:47Z</time></trkpt>
<trkpt lat="30.143847815495572" lon="118.16302070968341"><ele>1618</ele><time>2025-11-14T00:46:43Z</time></trkpt>
<trkpt lat="30.143833292631836" lon="118.16331142255387"><ele>1618</ele><time>2025-11-14T00:47:10Z</time></trkpt>
<trkpt lat="30.143919236191817" lon="118.16361818101792"><ele>1623</ele><time>2025-11-14T00:47:52Z</time></trkpt>
<trkpt lat="30.143900221215596" lon="118.16394631527285"><ele>1623</ele><time>2025-11-14T00:48:21Z</time></trkpt>
<trkpt lat="30.14384120322504" lon="118.16414288869292"><ele>1624</ele><time>2025-11-14T00:48:53Z</time></trkpt>
<trkpt lat="30.143824941357167" lon="118.16443829061974"><ele>1621</ele><time>2025-11-14T00:49:35Z</time></trkpt>
<trkpt lat="30.14400356951777" lon="118.16471552083554"><ele>1614</ele><time>2025-11-14T00:50:05Z</time></trkpt>
<trkpt lat="30.144225344338533" lon="118.1649337833128"><ele>1609</ele><time>2025-11-14T00:50:50Z</time></trkpt>
<trkpt lat="30.144345992204656" lon="118.16508537121919"><ele>1606</ele><time>2025-11-14T00:51:22Z</time></trkpt>
<trkpt lat="30.144506868199002" lon="118.16529521690627"><ele>1601</ele><time>2025-11-14T00:51:53Z</time></trkpt>
<trkpt lat="30.14462001480835" lon="118.16557619447401"><ele>1596</ele><time>2025-11-14T00:52:21Z</time></trkpt>
<trkpt lat="30.14466738659538" lon="118.1658234486368"><ele>1597</ele><time>2025-11-14T00:52:48Z</time></trkpt>
<trkpt lat="30.14462406127777" lon="118.16603860755262"><ele>1601</ele><time>2025-11-14T00:53:23Z</time></trkpt>
<trkpt lat="30.144483203618798" lon="118.16584058014637"><ele>1601</ele><time>2025-11-14T00:56:36Z</time></trkpt>
<trkpt lat="30.144543951969105" lon="118.16570852219829"><ele>1602</ele><time>2025-11-14T00:57:59Z</time></trkpt>
<trkpt lat="30.144475436940798" lon="118.16588332591053"><ele>1600</ele><time>2025-11-14T01:13:11Z</time></trkpt>
<trkpt lat="30.144656394823482" lon="118.16593484549217"><ele>1599</ele><time>2025-11-14T01:13:50Z</time></trkpt>
<trkpt lat="30.144675701196995" lon="118.16564599940543"><ele>1598</ele><time>2025-11-14T01:14:21Z</time></trkpt>
<trkpt lat="30.14456804350187" lon="118.16532067913572"><ele>1596</ele><time>2025-11-14T01:14:48Z</time></trkpt>
<trkpt lat="30.14453595728555" lon="118.16508704496945"><ele>1598</ele><time>2025-11-14T01:15:16Z</time></trkpt>
<trkpt lat="30.144726363957844" lon="118.16493775055447"><ele>1602</ele><time>2025-11-14T01:15:44Z</time></trkpt>
<trkpt lat="30.14460818704826" lon="118.16479585829373"><ele>1604</ele><time>2025-11-14T01:16:18Z</time></trkpt>
<trkpt lat="30.14447177385459" lon="118.16514613206019"><ele>1601</ele><time>2025-11-14T01:16:41Z</time></trkpt>
<trkpt lat="30.14460374416741" lon="118.16539441355616"><ele>1597</ele><time>2025-11-14T01:17:15Z</time></trkpt>
<trkpt lat="30.14472136783698" lon="118.16569689921032"><ele>1597</ele><time>2025-11-14T01:17:44Z</time></trkpt>
<trkpt lat="30.144953136632076" lon="118.16562974034038"><ele>1600</ele><time>2025-11-14T01:18:13Z</time></trkpt>
<trkpt lat="30.145213649852646" lon="118.16560653061245"><ele>1601</ele><time>2025-11-14T01:18:46Z</time></trkpt>
<trkpt lat="30.14540359693629" lon="118.16549172183244"><ele>1600</ele><time>2025-11-14T01:19:14Z</time></trkpt>
<trkpt lat="30.145620494065536" lon="118.1652900895371"><ele>1601</ele><time>2025-11-14T01:19:42Z</time></trkpt>
<trkpt lat="30.145780313789764" lon="118.16542630666275"><ele>1606</ele><time>2025-11-14T01:20:24Z</time></trkpt>
<trkpt lat="30.145943654149193" lon="118.165553394658"><ele>1612</ele><time>2025-11-14T01:21:08Z</time></trkpt>
<trkpt lat="30.146038890234326" lon="118.16570672916053"><ele>1618</ele><time>2025-11-14T01:21:54Z</time></trkpt>
<trkpt lat="30.14620929677599" lon="118.16577733999233"><ele>1620</ele><time>2025-11-14T01:22:39Z</time></trkpt>
<trkpt lat="30.14630978529969" lon="118.16564580581152"><ele>1621</ele><time>2025-11-14T01:23:33Z</time></trkpt>
<trkpt lat="30.146409152755425" lon="118.16559219878721"><ele>1627</ele><time>2025-11-14T01:25:37Z</time></trkpt>
<trkpt lat="30.146264381948484" lon="118.16567423923622"><ele>1623</ele><time>2025-11-14T01:27:40Z</time></trkpt>
<trkpt lat="30.146116121954392" lon="118.16575465011648"><ele>1619</ele><time>2025-11-14T01:28:17Z</time></trkpt>
<trkpt lat="30.14595318339798" lon="118.1654906049475"><ele>1610</ele><time>2025-11-14T01:28:48Z</time></trkpt>
<trkpt lat="30.14595627444709" lon="118.16574195672399"><ele>1615</ele><time>2025-11-14T01:29:29Z</time></trkpt>
<trkpt lat="30.145756851087352" lon="118.16603449297435"><ele>1619</ele><time>2025-11-14T01:30:03Z</time></trkpt>
<trkpt lat="30.145557511878984" lon="118.16632583270511"><ele>1617</ele><time>2025-11-14T01:30:30Z</time></trkpt>
<trkpt lat="30.145359964209955" lon="118.16655467170276"><ele>1619</ele><time>2025-11-14T01:31:02Z</time></trkpt>
<trkpt lat="30.14529027260969" lon="118.1667773339553"><ele>1624</ele><time>2025-11-14T01:31:55Z</time></trkpt>
<trkpt lat="30.145341919620346" lon="118.16654989563354"><ele>1622</ele><time>2025-11-14T01:32:24Z</time></trkpt>
<trkpt lat="30.1452080812362" lon="118.16640305289374"><ele>1615</ele><time>2025-11-14T01:32:56Z</time></trkpt>
<trkpt lat="30.14496267799431" lon="118.16640626825814"><ele>1607</ele><time>2025-11-14T01:33:27Z</time></trkpt>
<trkpt lat="30.1448178806974" lon="118.16634231077258"><ele>1606</ele><time>2025-11-14T01:34:05Z</time></trkpt>
<trkpt lat="30.14464581846014" lon="118.16627901071071"><ele>1600</ele><time>2025-11-14T01:34:49Z</time></trkpt>
<trkpt lat="30.144470456419985" lon="118.16641294872966"><ele>1601</ele><time>2025-11-14T01:35:28Z</time></trkpt>
<trkpt lat="30.144222016144163" lon="118.1665663752576"><ele>1598</ele><time>2025-11-14T01:36:12Z</time></trkpt>
<trkpt lat="30.144059731452447" lon="118.16670431191427"><ele>1601</ele><time>2025-11-14T01:36:38Z</time></trkpt>
<trkpt lat="30.143911330490237" lon="118.16665545614183"><ele>1606</ele><time>2025-11-14T01:38:06Z</time></trkpt>
<trkpt lat="30.143691455745245" lon="118.16679509211268"><ele>1611</ele><time>2025-11-14T01:38:34Z</time></trkpt>
<trkpt lat="30.143485713215824" lon="118.16692831058221"><ele>1612</ele><time>2025-11-14T01:39:10Z</time></trkpt>
<trkpt lat="30.143319465760957" lon="118.16714314179094"><ele>1614</ele><time>2025-11-14T01:39:43Z</time></trkpt>
<trkpt lat="30.14313223474842" lon="118.16727344409767"><ele>1617</ele><time>2025-11-14T01:40:17Z</time></trkpt>
<trkpt lat="30.14293354165398" lon="118.16730287125026"><ele>1619</ele><time>2025-11-14T01:40:58Z</time></trkpt>
<trkpt lat="30.142773623470845" lon="118.1673782391989"><ele>1622</ele><time>2025-11-14T01:41:30Z</time></trkpt>
<trkpt lat="30.14263142159959" lon="118.16750272605152"><ele>1625</ele><time>2025-11-14T01:42:04Z</time></trkpt>
<trkpt lat="30.14263285948513" lon="118.16766790883099"><ele>1633</ele><time>2025-11-14T01:43:14Z</time></trkpt>
<trkpt lat="30.142499856233293" lon="118.16781681817095"><ele>1642</ele><time>2025-11-14T01:43:57Z</time></trkpt>
<trkpt lat="30.142311074954108" lon="118.16783641298201"><ele>1645</ele><time>2025-11-14T01:45:12Z</time></trkpt>
<trkpt lat="30.1420472069354" lon="118.16765476251825"><ele>1643</ele><time>2025-11-14T01:45:40Z</time></trkpt>
<trkpt lat="30.141734806572657" lon="118.16758865763083"><ele>1641</ele><time>2025-11-14T01:46:07Z</time></trkpt>
<trkpt lat="30.14150236669416" lon="118.16749680764214"><ele>1645</ele><time>2025-11-14T01:46:35Z</time></trkpt>
<trkpt lat="30.1412217991293" lon="118.16752120180817"><ele>1647</ele><time>2025-11-14T01:47:06Z</time></trkpt>
<trkpt lat="30.140969248115315" lon="118.1675285998705"><ele>1652</ele><time>2025-11-14T01:47:34Z</time></trkpt>
<trkpt lat="30.140728376902057" lon="118.16755751926446"><ele>1654</ele><time>2025-11-14T01:48:06Z</time></trkpt>
<trkpt lat="30.140520366394878" lon="118.1675786791163"><ele>1661</ele><time>2025-11-14T01:48:40Z</time></trkpt>
<trkpt lat="30.14028842137928" lon="118.16755530718154"><ele>1670</ele><time>2025-11-14T01:49:11Z</time></trkpt>
<trkpt lat="30.140099696467583" lon="118.16761836111685"><ele>1673</ele><time>2025-11-14T01:49:39Z</time></trkpt>
<trkpt lat="30.13992369014381" lon="118.16758955101236"><ele>1682</ele><time>2025-11-14T01:50:09Z</time></trkpt>
<trkpt lat="30.139763555699535" lon="118.16749144638088"><ele>1686</ele><time>2025-11-14T01:50:44Z</time></trkpt>
<trkpt lat="30.139509837559046" lon="118.1674588329259"><ele>1686</ele><time>2025-11-14T01:52:56Z</time></trkpt>
<trkpt lat="30.13933603816045" lon="118.16769607975017"><ele>1684</ele><time>2025-11-14T01:53:31Z</time></trkpt>
<trkpt lat="30.139372159841702" lon="118.16753010569656"><ele>1683</ele><time>2025-11-14T02:03:00Z</time></trkpt>
<trkpt lat="30.13920604421007" lon="118.167648053785"><ele>1671</ele><time>2025-11-14T02:03:48Z</time></trkpt>
<trkpt lat="30.139178956396616" lon="118.16790635325235"><ele>1669</ele><time>2025-11-14T02:04:15Z</time></trkpt>
<trkpt lat="30.139179504161056" lon="118.16812365642834"><ele>1661</ele><time>2025-11-14T02:04:57Z</time></trkpt>
<trkpt lat="30.13908902201242" lon="118.16830886418114"><ele>1648</ele><time>2025-11-14T02:05:35Z</time></trkpt>
<trkpt lat="30.138933824022725" lon="118.16851039181954"><ele>1644</ele><time>2025-11-14T02:06:20Z</time></trkpt>
<trkpt lat="30.13885250675841" lon="118.16861695453954"><ele>1638</ele><time>2025-11-14T02:06:54Z</time></trkpt>
<trkpt lat="30.13869680763519" lon="118.16859522089224"><ele>1621</ele><time>2025-11-14T02:07:28Z</time></trkpt>
<trkpt lat="30.13850830436727" lon="118.16877020812147"><ele>1610</ele><time>2025-11-14T02:07:58Z</time></trkpt>
<trkpt lat="30.138441667672716" lon="118.16907601214383"><ele>1611</ele><time>2025-11-14T02:08:30Z</time></trkpt>
<trkpt lat="30.13828656106582" lon="118.16922093615047"><ele>1602</ele><time>2025-11-14T02:09:09Z</time></trkpt>
<trkpt lat="30.138129548839274" lon="118.16940464851308"><ele>1595</ele><time>2025-11-14T02:09:45Z</time></trkpt>
<trkpt lat="30.137997649058978" lon="118.16954634881516"><ele>1586</ele><time>2025-11-14T02:10:47Z</time></trkpt>
<trkpt lat="30.1378115473787" lon="118.16956935647065"><ele>1572</ele><time>2025-11-14T02:11:34Z</time></trkpt>
<trkpt lat="30.137882502464468" lon="118.16966230278122"><ele>1555</ele><time>2025-11-14T02:12:30Z</time></trkpt>
<trkpt lat="30.137647018847254" lon="118.16967079570608"><ele>1554</ele><time>2025-11-14T02:13:03Z</time></trkpt>
<trkpt lat="30.13749093235484" lon="118.16966182633226"><ele>1546</ele><time>2025-11-14T02:14:06Z</time></trkpt>
<trkpt lat="30.13733044712843" lon="118.16967595117265"><ele>1530</ele><time>2025-11-14T02:16:23Z</time></trkpt>
<trkpt lat="30.13717576825506" lon="118.16977080268232"><ele>1522</ele><time>2025-11-14T02:17:19Z</time></trkpt>
<trkpt lat="30.137030235386067" lon="118.16985090903734"><ele>1518</ele><time>2025-11-14T02:18:05Z</time></trkpt>
<trkpt lat="30.13694442146552" lon="118.16996993292453"><ele>1513</ele><time>2025-11-14T02:19:13Z</time></trkpt>
<trkpt lat="30.136807905554008" lon="118.1700709669564"><ele>1506</ele><time>2025-11-14T02:19:56Z</time></trkpt>
<trkpt lat="30.136691478267778" lon="118.17019407051764"><ele>1495</ele><time>2025-11-14T02:21:05Z</time></trkpt>
<trkpt lat="30.136561626254732" lon="118.17034580745299"><ele>1483</ele><time>2025-11-14T02:21:42Z</time></trkpt>
<trkpt lat="30.13639780985127" lon="118.17039706025146"><ele>1478</ele><time>2025-11-14T02:22:23Z</time></trkpt>
<trkpt lat="30.136265250281827" lon="118.17055163102064"><ele>1461</ele><time>2025-11-14T02:22:54Z</time></trkpt>
<trkpt lat="30.136062583629307" lon="118.17075195930954"><ele>1455</ele><time>2025-11-14T02:23:34Z</time></trkpt>
<trkpt lat="30.13604465326713" lon="118.17091793738854"><ele>1449</ele><time>2025-11-14T02:24:37Z</time></trkpt>
<trkpt lat="30.13590715387214" lon="118.17114056880094"><ele>1445</ele><time>2025-11-14T02:25:06Z</time></trkpt>
<trkpt lat="30.135811230196406" lon="118.17133000211562"><ele>1441</ele><time>2025-11-14T02:25:52Z</time></trkpt>
<trkpt lat="30.135694085085866" lon="118.1715159850551"><ele>1444</ele><time>2025-11-14T02:26:22Z</time></trkpt>
<trkpt lat="30.135631867261797" lon="118.1715980152353"><ele>1447</ele><time>2025-11-14T02:27:03Z</time></trkpt>
<trkpt lat="30.135479450336053" lon="118.17163674141038"><ele>1425</ele><time>2025-11-14T02:29:04Z</time></trkpt>
<trkpt lat="30.135268611603713" lon="118.17163940116247"><ele>1431</ele><time>2025-11-14T02:29:37Z</time></trkpt>
<trkpt lat="30.135236941041402" lon="118.17180628153743"><ele>1426</ele><time>2025-11-14T02:30:32Z</time></trkpt>
<trkpt lat="30.135125109422603" lon="118.17203036126192"><ele>1420</ele><time>2025-11-14T02:31:01Z</time></trkpt>
<trkpt lat="30.134978489328564" lon="118.17210133922353"><ele>1402</ele><time>2025-11-14T02:31:45Z</time></trkpt>
<trkpt lat="30.134851790083722" lon="118.17227017983657"><ele>1399</ele><time>2025-11-14T02:32:18Z</time></trkpt>
<trkpt lat="30.134649082494473" lon="118.17240932175548"><ele>1389</ele><time>2025-11-14T02:33:02Z</time></trkpt>
<trkpt lat="30.13453529903247" lon="118.17253383273531"><ele>1388</ele><time>2025-11-14T02:34:42Z</time></trkpt>
<trkpt lat="30.13436282080667" lon="118.17255803637612"><ele>1387</ele><time>2025-11-14T02:35:32Z</time></trkpt>
<trkpt lat="30.134199789282732" lon="118.17273192772416"><ele>1366</ele><time>2025-11-14T02:36:00Z</time></trkpt>
<trkpt lat="30.134043614631523" lon="118.172986889259"><ele>1355</ele><time>2025-11-14T02:36:32Z</time></trkpt>
<trkpt lat="30.13391711093091" lon="118.17316689880765"><ele>1351</ele><time>2025-11-14T02:37:05Z</time></trkpt>
<trkpt lat="30.133860266050597" lon="118.17333955426061"><ele>1341</ele><time>2025-11-14T02:37:42Z</time></trkpt>
<trkpt lat="30.133725234272546" lon="118.17350887567528"><ele>1331</ele><time>2025-11-14T02:38:15Z</time></trkpt>
<trkpt lat="30.133564009870284" lon="118.17367599698197"><ele>1329</ele><time>2025-11-14T02:38:52Z</time></trkpt>
<trkpt lat="30.13343641770411" lon="118.17360590056302"><ele>1324</ele><time>2025-11-14T02:39:42Z</time></trkpt>
<trkpt lat="30.133220630347783" lon="118.17379680993687"><ele>1316</ele><time>2025-11-14T02:41:27Z</time></trkpt>
<trkpt lat="30.133035034710684" lon="118.17406120069377"><ele>1314</ele><time>2025-11-14T02:41:57Z</time></trkpt>
<trkpt lat="30.132768535907065" lon="118.1742342046694"><ele>1305</ele><time>2025-11-14T02:42:26Z</time></trkpt>
<trkpt lat="30.132655281719785" lon="118.17446298194615"><ele>1311</ele><time>2025-11-14T02:42:53Z</time></trkpt>
<trkpt lat="30.132583256506976" lon="118.17473398963398"><ele>1308</ele><time>2025-11-14T02:43:22Z</time></trkpt>
<trkpt lat="30.132373565131054" lon="118.17491900538413"><ele>1309</ele><time>2025-11-14T02:43:53Z</time></trkpt>
<trkpt lat="30.132351029174032" lon="118.17516370677092"><ele>1309</ele><time>2025-11-14T02:44:24Z</time></trkpt>
<trkpt lat="30.13220503172276" lon="118.17528467750441"><ele>1306</ele><time>2025-11-14T02:44:52Z</time></trkpt>
<trkpt lat="30.13202193548941" lon="118.17544405514677"><ele>1295</ele><time>2025-11-14T02:45:53Z</time></trkpt>
<trkpt lat="30.13187728148653" lon="118.1755088483171"><ele>1287</ele><time>2025-11-14T02:46:46Z</time></trkpt>
<trkpt lat="30.131727519120858" lon="118.17572761597573"><ele>1277</ele><time>2025-11-14T02:47:19Z</time></trkpt>
<trkpt lat="30.131593263639044" lon="118.17579979753638"><ele>1263</ele><time>2025-11-14T02:47:57Z</time></trkpt>
<trkpt lat="30.131616695995575" lon="118.17592231614086"><ele>1267</ele><time>2025-11-14T02:50:15Z</time></trkpt>
<trkpt lat="30.131412508659" lon="118.1759502501392"><ele>1255</ele><time>2025-11-14T02:51:23Z</time></trkpt>
<trkpt lat="30.13114261231796" lon="118.17615577546704"><ele>1254</ele><time>2025-11-14T02:51:52Z</time></trkpt>
<trkpt lat="30.131131490567192" lon="118.17641020632752"><ele>1251</ele><time>2025-11-14T02:52:28Z</time></trkpt>
<trkpt lat="30.131086033678635" lon="118.17659232793996"><ele>1254</ele><time>2025-11-14T02:52:58Z</time></trkpt>
<trkpt lat="30.13086346612371" lon="118.17669789990342"><ele>1258</ele><time>2025-11-14T02:53:35Z</time></trkpt>
<trkpt lat="30.13065172227271" lon="118.17678583499664"><ele>1261</ele><time>2025-11-14T02:54:03Z</time></trkpt>
<trkpt lat="30.130439981829237" lon="118.1767642594021"><ele>1260</ele><time>2025-11-14T02:54:43Z</time></trkpt>
<trkpt lat="30.130283577463253" lon="118.1765661974421"><ele>1269</ele><time>2025-11-14T02:58:47Z</time></trkpt>
<trkpt lat="30.130092258813164" lon="118.1766410788917"><ele>1275</ele><time>2025-11-14T02:59:19Z</time></trkpt>
<trkpt lat="30.129968077828455" lon="118.17677859885329"><ele>1268</ele><time>2025-11-14T02:59:58Z</time></trkpt>
<trkpt lat="30.129822529251893" lon="118.17698528271573"><ele>1252</ele><time>2025-11-14T03:00:38Z</time></trkpt>
<trkpt lat="30.129678434941358" lon="118.1771025808565"><ele>1246</ele><time>2025-11-14T03:02:56Z</time></trkpt>
<trkpt lat="30.12964245490693" lon="118.1772302836335"><ele>1237</ele><time>2025-11-14T03:04:02Z</time></trkpt>
<trkpt lat="30.1295673283798" lon="118.17735834391462"><ele>1232</ele><time>2025-11-14T03:05:50Z</time></trkpt>
<trkpt lat="30.129495989267188" lon="118.17753847453416"><ele>1225</ele><time>2025-11-14T03:06:52Z</time></trkpt>
<trkpt lat="30.129470511819555" lon="118.17779676319424"><ele>1218</ele><time>2025-11-14T03:07:24Z</time></trkpt>
<trkpt lat="30.129358403902803" lon="118.17803103856731"><ele>1216</ele><time>2025-11-14T03:07:51Z</time></trkpt>
<trkpt lat="30.129290941118935" lon="118.17829963294012"><ele>1211</ele><time>2025-11-14T03:08:21Z</time></trkpt>
<trkpt lat="30.129116998579185" lon="118.17838837335533"><ele>1207</ele><time>2025-11-14T03:09:21Z</time></trkpt>
<trkpt lat="30.128974803365885" lon="118.17856098881586"><ele>1201</ele><time>2025-11-14T03:19:44Z</time></trkpt>
<trkpt lat="30.128992510887638" lon="118.17872697933441"><ele>1197</ele><time>2025-11-14T03:20:31Z</time></trkpt>
<trkpt lat="30.128967024819207" lon="118.1788494668013"><ele>1195</ele><time>2025-11-14T03:21:22Z</time></trkpt>
<trkpt lat="30.12893040872066" lon="118.17898891890489"><ele>1184</ele><time>2025-11-14T03:22:09Z</time></trkpt>
<trkpt lat="30.128775540520255" lon="118.17892572886396"><ele>1184</ele><time>2025-11-14T03:23:27Z</time></trkpt>
<trkpt lat="30.1287563174145" lon="118.17912158478372"><ele>1178</ele><time>2025-11-14T03:27:21Z</time></trkpt>
<trkpt lat="30.128537025689205" lon="118.17919735837575"><ele>1167</ele><time>2025-11-14T03:28:07Z</time></trkpt>
<trkpt lat="30.12850583425985" lon="118.17943060805688"><ele>1164</ele><time>2025-11-14T03:28:47Z</time></trkpt>
<trkpt lat="30.128400344210874" lon="118.17959027453654"><ele>1164</ele><time>2025-11-14T03:29:17Z</time></trkpt>
<trkpt lat="30.128196967847604" lon="118.17957820732241"><ele>1159</ele><time>2025-11-14T03:30:06Z</time></trkpt>
<trkpt lat="30.128061516404745" lon="118.17966718153536"><ele>1132</ele><time>2025-11-14T03:31:40Z</time></trkpt>
<trkpt lat="30.127850634776472" lon="118.17983758513488"><ele>1112</ele><time>2025-11-14T03:33:51Z</time></trkpt>
<trkpt lat="30.127748806351878" lon="118.17997212960864"><ele>1098</ele><time>2025-11-14T03:36:18Z</time></trkpt>
<trkpt lat="30.127576833500427" lon="118.17980620328143"><ele>1093</ele><time>2025-11-14T03:36:56Z</time></trkpt>
<trkpt lat="30.127381151511266" lon="118.18006267604427"><ele>1092</ele><time>2025-11-14T03:37:27Z</time></trkpt>
<trkpt lat="30.127140060656558" lon="118.18029857638501"><ele>1083</ele><time>2025-11-14T03:37:51Z</time></trkpt>
<trkpt lat="30.12710943181953" lon="118.18052323007838"><ele>1079</ele><time>2025-11-14T03:39:36Z</time></trkpt>
<trkpt lat="30.126940195780858" lon="118.18054528477127"><ele>1079</ele><time>2025-11-14T03:40:09Z</time></trkpt>
<trkpt lat="30.12688040111734" lon="118.18069162450549"><ele>1062</ele><time>2025-11-14T03:41:21Z</time></trkpt>
<trkpt lat="30.126766914856752" lon="118.18071442887434"><ele>1056</ele><time>2025-11-14T03:43:36Z</time></trkpt>
<trkpt lat="30.12670529874554" lon="118.18092425249604"><ele>1057</ele><time>2025-11-14T03:44:21Z</time></trkpt>
<trkpt lat="30.126607966922535" lon="118.18114319742476"><ele>1043</ele><time>2025-11-14T03:46:33Z</time></trkpt>
<trkpt lat="30.126593865904475" lon="118.18135769811497"><ele>1042</ele><time>2025-11-14T03:47:09Z</time></trkpt>
<trkpt lat="30.126492113137896" lon="118.18163122283156"><ele>1040</ele><time>2025-11-14T03:54:20Z</time></trkpt>
<trkpt lat="30.126372099409963" lon="118.18182373061798"><ele>1035</ele><time>2025-11-14T03:55:23Z</time></trkpt>
<trkpt lat="30.126257301299358" lon="118.18196695529961"><ele>1030</ele><time>2025-11-14T03:55:58Z</time></trkpt>
<trkpt lat="30.126064045741852" lon="118.18220988224265"><ele>1029</ele><time>2025-11-14T03:56:27Z</time></trkpt>
<trkpt lat="30.12596894053659" lon="118.1824918695763"><ele>1025</ele><time>2025-11-14T03:56:55Z</time></trkpt>
<trkpt lat="30.12583141789862" lon="118.18258630984266"><ele>1016</ele><time>2025-11-14T03:57:40Z</time></trkpt>
<trkpt lat="30.125684920204954" lon="118.18279409293915"><ele>1014</ele><time>2025-11-14T03:58:15Z</time></trkpt>
<trkpt lat="30.12552465219598" lon="118.18303442869373"><ele>1013</ele><time>2025-11-14T03:58:48Z</time></trkpt>
<trkpt lat="30.125383137768605" lon="118.18324910707169"><ele>1004</ele><time>2025-11-14T03:59:22Z</time></trkpt>
<trkpt lat="30.125253569158943" lon="118.18333837774183"><ele>993</ele><time>2025-11-14T04:00:03Z</time></trkpt>
<trkpt lat="30.125090676589796" lon="118.18338640905333"><ele>990</ele><time>2025-11-14T04:01:12Z</time></trkpt>
<trkpt lat="30.124956887115484" lon="118.18350499154899"><ele>989</ele><time>2025-11-14T04:02:01Z</time></trkpt>
<trkpt lat="30.12489685191377" lon="118.18374525426889"><ele>990</ele><time>2025-11-14T04:02:26Z</time></trkpt>
<trkpt lat="30.124832934372368" lon="118.18386459081206"><ele>983</ele><time>2025-11-14T04:03:04Z</time></trkpt>
<trkpt lat="30.124751607141388" lon="118.18414272694396"><ele>980</ele><time>2025-11-14T04:03:44Z</time></trkpt>
<trkpt lat="30.124625242933842" lon="118.18431478907692"><ele>972</ele><time>2025-11-14T04:04:26Z</time></trkpt>
<trkpt lat="30.124518760837564" lon="118.18448670418117"><ele>972</ele><time>2025-11-14T04:04:55Z</time></trkpt>
<trkpt lat="30.12440837993584" lon="118.18458506021604"><ele>964</ele><time>2025-11-14T04:05:42Z</time></trkpt>
<trkpt lat="30.124280023592945" lon="118.18451399580186"><ele>965</ele><time>2025-11-14T04:06:37Z</time></trkpt>
<trkpt lat="30.12408988603601" lon="118.18465856002354"><ele>962</ele><time>2025-11-14T04:07:12Z</time></trkpt>
<trkpt lat="30.124035485439446" lon="118.18477167046247"><ele>965</ele><time>2025-11-14T04:07:45Z</time></trkpt>
<trkpt lat="30.12388782625117" lon="118.18489173896776"><ele>958</ele><time>2025-11-14T04:08:22Z</time></trkpt>
<trkpt lat="30.123687931142747" lon="118.18497033492069"><ele>953</ele><time>2025-11-14T04:09:04Z</time></trkpt>
<trkpt lat="30.123567921192187" lon="118.1851227249697"><ele>951</ele><time>2025-11-14T04:09:34Z</time></trkpt>
<trkpt lat="30.123363860422582" lon="118.18527593641788"><ele>946</ele><time>2025-11-14T04:10:20Z</time></trkpt>
<trkpt lat="30.123166690403796" lon="118.18538471536587"><ele>946</ele><time>2025-11-14T04:10:55Z</time></trkpt>
<trkpt lat="30.123039732627912" lon="118.18546323870908"><ele>946</ele><time>2025-11-14T04:12:10Z</time></trkpt>
<trkpt lat="30.122862557947904" lon="118.18576702485917"><ele>947</ele><time>2025-11-14T04:12:43Z</time></trkpt>
<trkpt lat="30.12277026324521" lon="118.18598563490518"><ele>943</ele><time>2025-11-14T04:13:14Z</time></trkpt>
<trkpt lat="30.122673484595232" lon="118.18620182265819"><ele>938</ele><time>2025-11-14T04:13:47Z</time></trkpt>
<trkpt lat="30.122566452427343" lon="118.18640970999289"><ele>929</ele><time>2025-11-14T04:14:20Z</time></trkpt>
<trkpt lat="30.122443197610682" lon="118.18661871366025"><ele>927</ele><time>2025-11-14T04:14:50Z</time></trkpt>
<trkpt lat="30.122339659370247" lon="118.18689435444705"><ele>924</ele><time>2025-11-14T04:15:17Z</time></trkpt>
<trkpt lat="30.12220769417982" lon="118.18708507808104"><ele>915</ele><time>2025-11-14T04:15:50Z</time></trkpt>
<trkpt lat="30.122121813903764" lon="118.18729939814816"><ele>908</ele><time>2025-11-14T04:16:22Z</time></trkpt>
<trkpt lat="30.122091979964758" lon="118.18753027651245"><ele>903</ele><time>2025-11-14T04:16:52Z</time></trkpt>
<trkpt lat="30.122128000042625" lon="118.18777780173124"><ele>905</ele><time>2025-11-14T04:18:12Z</time></trkpt>
<trkpt lat="30.122034416958943" lon="118.18781220766773"><ele>898</ele><time>2025-11-14T04:19:07Z</time></trkpt>
</trkseg>
</trk>
</gpx>