<?xml version="1.0" encoding="UTF-8"?>
<gpx xmlns:xsi="http://www.w3.org/2001/XMLSchema-instance" xmlns="http://www.topografix.com/GPX/1/1" xsi:schemaLocation="http://www.topografix.com/GPX/1/1 http://www.topografix.com/GPX/1/1/gpx.xsd" creator="Yamareco iOS 7.26 - www.yamareco.com">
<trk><name>track</name><number>1</number><trkseg>
<trkpt lat="38.06695208422659" lon="140.50210671512457"><ele>1122</ele><time>2025-03-23T01:29:09Z</time></trkpt>
<trkpt lat="38.06696536854888" lon="140.50190959695283"><ele>1127</ele><time>2025-03-23T01:30:01Z</time></trkpt>
<trkpt lat="38.067116251146054" lon="140.50180558540924"><ele>1134</ele><time>2025-03-23T01:30:51Z</time></trkpt>
<trkpt lat="38.06732105734239" lon="140.50188033012859"><ele>1140</ele><time>2025-03-23T01:31:21Z</time></trkpt>
<trkpt lat="38.06748220430008" lon="140.50197503122976"><ele>1146</ele><time>2025-03-23T01:31:55Z</time></trkpt>
<trkpt lat="38.06769142648181" lon="140.50191876524744"><ele>1152</ele><time>2025-03-23T01:34:40Z</time></trkpt>
<trkpt lat="38.06772150659697" lon="140.5016223629413"><ele>1155</ele><time>2025-03-23T01:35:15Z</time></trkpt>
<trkpt lat="38.06792692810914" lon="140.5016664869956"><ele>1164</ele><time>2025-03-23T01:36:11Z</time></trkpt>
<trkpt lat="38.06798324838602" lon="140.50141003473522"><ele>1163</ele><time>2025-03-23T01:36:45Z</time></trkpt>
<trkpt lat="38.0681386625052" lon="140.50116649297092"><ele>1162</ele><time>2025-03-23T01:37:12Z</time></trkpt>
<trkpt lat="38.06827642546814" lon="140.50091013611086"><ele>1169</ele><time>2025-03-23T01:37:40Z</time></trkpt>
<trkpt lat="38.06840051668677" lon="140.50072609393942"><ele>1170</ele><time>2025-03-23T01:38:12Z</time></trkpt>
<trkpt lat="38.06847264476133" lon="140.50054103820327"><ele>1167</ele><time>2025-03-23T01:39:03Z</time></trkpt>
<trkpt lat="38.0686015948384" lon="140.50031071937485"><ele>1171</ele><time>2025-03-23T01:39:29Z</time></trkpt>
<trkpt lat="38.06876398789185" lon="140.50004419494826"><ele>1173</ele><time>2025-03-23T01:39:55Z</time></trkpt>
<trkpt lat="38.069029478729405" lon="140.4998319509812"><ele>1178</ele><time>2025-03-23T01:40:24Z</time></trkpt>
<trkpt lat="38.06922858003871" lon="140.49954771696702"><ele>1179</ele><time>2025-03-23T01:40:53Z</time></trkpt>
<trkpt lat="38.06927564716879" lon="140.49917408821779"><ele>1179</ele><time>2025-03-23T01:41:20Z</time></trkpt>
<trkpt lat="38.06947714496738" lon="140.49899104385122"><ele>1185</ele><time>2025-03-23T01:41:50Z</time></trkpt>
<trkpt lat="38.069736609041165" lon="140.4988704759009"><ele>1189</ele><time>2025-03-23T01:42:17Z</time></trkpt>
<trkpt lat="38.06993110628948" lon="140.4986702813921"><ele>1191</ele><time>2025-03-23T01:42:46Z</time></trkpt>
<trkpt lat="38.070159732087845" lon="140.49854653980682"><ele>1190</ele><time>2025-03-23T01:43:15Z</time></trkpt>
<trkpt lat="38.070448660967564" lon="140.4985248722468"><ele>1192</ele><time>2025-03-23T01:43:45Z</time></trkpt>
<trkpt lat="38.07071384517528" lon="140.49838764310272"><ele>1193</ele><time>2025-03-23T01:44:15Z</time></trkpt>
<trkpt lat="38.070934900381694" lon="140.49820054010004"><ele>1193</ele><time>2025-03-23T01:44:45Z</time></trkpt>
<trkpt lat="38.07110304134313" lon="140.49798870857953"><ele>1197</ele><time>2025-03-23T01:45:17Z</time></trkpt>
<trkpt lat="38.07126983078421" lon="140.4977691730712"><ele>1202</ele><time>2025-03-23T01:45:50Z</time></trkpt>
<trkpt lat="38.07138805538519" lon="140.49752202744494"><ele>1206</ele><time>2025-03-23T01:46:23Z</time></trkpt>
<trkpt lat="38.0716115711877" lon="140.49739990160242"><ele>1212</ele><time>2025-03-23T01:46:53Z</time></trkpt>
<trkpt lat="38.07167615603154" lon="140.49708176884528"><ele>1214</ele><time>2025-03-23T01:47:24Z</time></trkpt>
<trkpt lat="38.07174745471152" lon="140.49675831529592"><ele>1217</ele><time>2025-03-23T01:47:55Z</time></trkpt>
<trkpt lat="38.071956499994876" lon="140.49653025117385"><ele>1221</ele><time>2025-03-23T01:48:32Z</time></trkpt>
<trkpt lat="38.072135661469076" lon="140.49629557500495"><ele>1226</ele><time>2025-03-23T01:49:03Z</time></trkpt>
<trkpt lat="38.072260718160244" lon="140.49604395258106"><ele>1230</ele><time>2025-03-23T01:49:34Z</time></trkpt>
<trkpt lat="38.072412062589315" lon="140.4958170013457"><ele>1232</ele><time>2025-03-23T01:50:10Z</time></trkpt>
<trkpt lat="38.07254604932922" lon="140.495607072361"><ele>1237</ele><time>2025-03-23T01:50:40Z</time></trkpt>
<trkpt lat="38.07268522765099" lon="140.49542327290862"><ele>1243</ele><time>2025-03-23T01:51:12Z</time></trkpt>
<trkpt lat="38.07275837844978" lon="140.4951993313835"><ele>1246</ele><time>2025-03-23T01:51:50Z</time></trkpt>
<trkpt lat="38.072946422814276" lon="140.49505182178393"><ele>1251</ele><time>2025-03-23T01:52:23Z</time></trkpt>
<trkpt lat="38.07313205554966" lon="140.49490313418605"><ele>1257</ele><time>2025-03-23T01:53:00Z</time></trkpt>
<trkpt lat="38.07331328914825" lon="140.49478091366234"><ele>1266</ele><time>2025-03-23T01:53:36Z</time></trkpt>
<trkpt lat="38.073435785149705" lon="140.49452253929454"><ele>1271</ele><time>2025-03-23T01:54:14Z</time></trkpt>
<trkpt lat="38.07367134617966" lon="140.49436548621586"><ele>1272</ele><time>2025-03-23T01:56:46Z</time></trkpt>
<trkpt lat="38.07389773080904" lon="140.49419669445467"><ele>1278</ele><time>2025-03-23T01:57:18Z</time></trkpt>
<trkpt lat="38.07412499227899" lon="140.4941110657004"><ele>1282</ele><time>2025-03-23T01:57:51Z</time></trkpt>
<trkpt lat="38.07430213664515" lon="140.4939322734953"><ele>1288</ele><time>2025-03-23T01:58:27Z</time></trkpt>
<trkpt lat="38.07443597716703" lon="140.49375268495697"><ele>1292</ele><time>2025-03-23T01:58:58Z</time></trkpt>
<trkpt lat="38.07458371822485" lon="140.49352140200776"><ele>1297</ele><time>2025-03-23T01:59:38Z</time></trkpt>
<trkpt lat="38.07469075680849" lon="140.49334039877286"><ele>1300</ele><time>2025-03-23T02:00:12Z</time></trkpt>
<trkpt lat="38.074836400596425" lon="140.4931620387593"><ele>1307</ele><time>2025-03-23T02:00:47Z</time></trkpt>
<trkpt lat="38.07496144660337" lon="140.49295987634085"><ele>1314</ele><time>2025-03-23T02:01:23Z</time></trkpt>
<trkpt lat="38.07508018372033" lon="140.49277814083348"><ele>1319</ele><time>2025-03-23T02:02:07Z</time></trkpt>
<trkpt lat="38.07519918155141" lon="140.4925856687476"><ele>1327</ele><time>2025-03-23T02:02:49Z</time></trkpt>
<trkpt lat="38.07536894396237" lon="140.49252245182768"><ele>1334</ele><time>2025-03-23T02:03:27Z</time></trkpt>
<trkpt lat="38.0755391944055" lon="140.4924433880421"><ele>1342</ele><time>2025-03-23T02:04:05Z</time></trkpt>
<trkpt lat="38.07556116147226" lon="140.4921949586758"><ele>1344</ele><time>2025-03-23T02:04:48Z</time></trkpt>
<trkpt lat="38.07571274407148" lon="140.49215827434094"><ele>1351</ele><time>2025-03-23T02:05:34Z</time></trkpt>
<trkpt lat="38.07580060858408" lon="140.49192489334732"><ele>1358</ele><time>2025-03-23T02:06:12Z</time></trkpt>
<trkpt lat="38.075759446937866" lon="140.49169132678097"><ele>1363</ele><time>2025-03-23T02:06:51Z</time></trkpt>
<trkpt lat="38.075807107577866" lon="140.4914675660369"><ele>1372</ele><time>2025-03-23T02:07:29Z</time></trkpt>
<trkpt lat="38.0758065070299" lon="140.49122342828457"><ele>1377</ele><time>2025-03-23T02:08:08Z</time></trkpt>
<trkpt lat="38.075809062919205" lon="140.49099307733192"><ele>1386</ele><time>2025-03-23T02:08:47Z</time></trkpt>
<trkpt lat="38.075821900817026" lon="140.49076227987064"><ele>1393</ele><time>2025-03-23T02:09:32Z</time></trkpt>
<trkpt lat="38.07585390102963" lon="140.49055431897955"><ele>1398</ele><time>2025-03-23T02:10:20Z</time></trkpt>
<trkpt lat="38.07589803970729" lon="140.490343378905"><ele>1407</ele><time>2025-03-23T02:11:01Z</time></trkpt>
<trkpt lat="38.07591046331411" lon="140.4901376985257"><ele>1412</ele><time>2025-03-23T02:11:38Z</time></trkpt>
<trkpt lat="38.07595159562441" lon="140.48988945718227"><ele>1421</ele><time>2025-03-23T02:12:21Z</time></trkpt>
<trkpt lat="38.07595444770068" lon="140.48966194667875"><ele>1426</ele><time>2025-03-23T02:13:11Z</time></trkpt>
<trkpt lat="38.07597973840879" lon="140.4894264111242"><ele>1431</ele><time>2025-03-23T02:13:52Z</time></trkpt>
<trkpt lat="38.0759576552406" lon="140.48916633123403"><ele>1435</ele><time>2025-03-23T02:14:32Z</time></trkpt>
<trkpt lat="38.07598801287184" lon="140.48894501814377"><ele>1443</ele><time>2025-03-23T02:15:07Z</time></trkpt>
<trkpt lat="38.07600130459574" lon="140.4887210382214"><ele>1451</ele><time>2025-03-23T02:16:10Z</time></trkpt>
<trkpt lat="38.076033134707394" lon="140.4884981081943"><ele>1457</ele><time>2025-03-23T02:16:45Z</time></trkpt>
<trkpt lat="38.076041650875055" lon="140.4883006851369"><ele>1465</ele><time>2025-03-23T02:17:21Z</time></trkpt>
<trkpt lat="38.07599663550927" lon="140.4881382734209"><ele>1470</ele><time>2025-03-23T02:17:53Z</time></trkpt>
<trkpt lat="38.076044656239105" lon="140.48791566428966"><ele>1478</ele><time>2025-03-23T02:18:36Z</time></trkpt>
<trkpt lat="38.07602693465303" lon="140.48767725918145"><ele>1482</ele><time>2025-03-23T02:19:17Z</time></trkpt>
<trkpt lat="38.0760221333392" lon="140.4874185960056"><ele>1491</ele><time>2025-03-23T02:19:53Z</time></trkpt>
<trkpt lat="38.07600366283578" lon="140.48718307078698"><ele>1496</ele><time>2025-03-23T02:20:27Z</time></trkpt>
<trkpt lat="38.0759250714782" lon="140.48693996557665"><ele>1502</ele><time>2025-03-23T02:21:03Z</time></trkpt>
<trkpt lat="38.076050255426466" lon="140.48685092481676"><ele>1510</ele><time>2025-03-23T02:21:51Z</time></trkpt>
<trkpt lat="38.07606462153264" lon="140.4866494465269"><ele>1512</ele><time>2025-03-23T02:22:26Z</time></trkpt>
<trkpt lat="38.07589385078083" lon="140.48645318333712"><ele>1515</ele><time>2025-03-23T02:23:02Z</time></trkpt>
<trkpt lat="38.075858547820964" lon="140.48633811535143"><ele>1524</ele><time>2025-03-23T02:23:38Z</time></trkpt>
<trkpt lat="38.07593845792336" lon="140.4861724432612"><ele>1529</ele><time>2025-03-23T02:24:15Z</time></trkpt>
<trkpt lat="38.07584591638503" lon="140.48604027911315"><ele>1534</ele><time>2025-03-23T02:24:46Z</time></trkpt>
<trkpt lat="38.07575042518837" lon="140.48583567908474"><ele>1541</ele><time>2025-03-23T02:25:28Z</time></trkpt>
<trkpt lat="38.075693891509154" lon="140.4856534283637"><ele>1548</ele><time>2025-03-23T02:26:11Z</time></trkpt>
<trkpt lat="38.07553895974729" lon="140.48546844845643"><ele>1553</ele><time>2025-03-23T02:26:51Z</time></trkpt>
<trkpt lat="38.07566036034809" lon="140.48524509941728"><ele>1561</ele><time>2025-03-23T02:27:58Z</time></trkpt>
<trkpt lat="38.075524780939325" lon="140.4850462010578"><ele>1565</ele><time>2025-03-23T02:28:39Z</time></trkpt>
<trkpt lat="38.07555084237892" lon="140.4848563474965"><ele>1568</ele><time>2025-03-23T02:29:52Z</time></trkpt>
<trkpt lat="38.07562929159478" lon="140.48462295678775"><ele>1574</ele><time>2025-03-23T02:30:21Z</time></trkpt>
<trkpt lat="38.07559000199354" lon="140.48435638123095"><ele>1580</ele><time>2025-03-23T02:31:19Z</time></trkpt>
<trkpt lat="38.075590203526495" lon="140.48408495022528"><ele>1586</ele><time>2025-03-23T02:31:56Z</time></trkpt>
<trkpt lat="38.07563965156086" lon="140.48383102650465"><ele>1593</ele><time>2025-03-23T02:32:30Z</time></trkpt>
<trkpt lat="38.0756836523067" lon="140.48359302435043"><ele>1599</ele><time>2025-03-23T02:33:05Z</time></trkpt>
<trkpt lat="38.075560368844485" lon="140.48339263534092"><ele>1603</ele><time>2025-03-23T02:33:41Z</time></trkpt>
<trkpt lat="38.07559643653577" lon="140.48328069435485"><ele>1609</ele><time>2025-03-23T02:34:14Z</time></trkpt>
<trkpt lat="38.0756795800595" lon="140.48316491384932"><ele>1616</ele><time>2025-03-23T02:34:47Z</time></trkpt>
<trkpt lat="38.07558940016347" lon="140.48294696485834"><ele>1621</ele><time>2025-03-23T02:35:22Z</time></trkpt>
<trkpt lat="38.07560314423408" lon="140.48269812528025"><ele>1627</ele><time>2025-03-23T02:36:00Z</time></trkpt>
<trkpt lat="38.07554902292635" lon="140.48244038320925"><ele>1629</ele><time>2025-03-23T02:36:45Z</time></trkpt>
<trkpt lat="38.075540634178964" lon="140.4821602401925"><ele>1631</ele><time>2025-03-23T02:37:16Z</time></trkpt>
<trkpt lat="38.07550209996906" lon="140.48193576178502"><ele>1631</ele><time>2025-03-23T02:37:51Z</time></trkpt>
<trkpt lat="38.07544211164897" lon="140.4816406572534"><ele>1637</ele><time>2025-03-23T02:40:11Z</time></trkpt>
<trkpt lat="38.075364100984466" lon="140.48137298537407"><ele>1642</ele><time>2025-03-23T02:40:42Z</time></trkpt>
<trkpt lat="38.07521966387439" lon="140.48114885743098"><ele>1645</ele><time>2025-03-23T02:41:12Z</time></trkpt>
<trkpt lat="38.075219439153614" lon="140.48103225929455"><ele>1648</ele><time>2025-03-23T02:42:01Z</time></trkpt>
<trkpt lat="38.075412158903944" lon="140.4809691107503"><ele>1657</ele><time>2025-03-23T02:42:32Z</time></trkpt>
<trkpt lat="38.075438326553005" lon="140.4807146114476"><ele>1658</ele><time>2025-03-23T02:43:13Z</time></trkpt>
<trkpt lat="38.07553741994763" lon="140.48047434579667"><ele>1660</ele><time>2025-03-23T02:44:03Z</time></trkpt>
<trkpt lat="38.07551317491883" lon="140.48031203451978"><ele>1662</ele><time>2025-03-23T02:44:35Z</time></trkpt>
<trkpt lat="38.07549936343277" lon="140.48009247921448"><ele>1669</ele><time>2025-03-23T02:45:13Z</time></trkpt>
<trkpt lat="38.075516004258546" lon="140.47989252493045"><ele>1673</ele><time>2025-03-23T02:45:48Z</time></trkpt>
<trkpt lat="38.07552939934132" lon="140.4796981432812"><ele>1680</ele><time>2025-03-23T02:47:56Z</time></trkpt>
<trkpt lat="38.07555196186713" lon="140.47948818532225"><ele>1685</ele><time>2025-03-23T02:49:03Z</time></trkpt>
<trkpt lat="38.075508122790815" lon="140.47922473728048"><ele>1687</ele><time>2025-03-23T02:49:49Z</time></trkpt>
<trkpt lat="38.07556461929085" lon="140.4790471311507"><ele>1694</ele><time>2025-03-23T02:51:48Z</time></trkpt>
<trkpt lat="38.07558311515289" lon="140.47891296583543"><ele>1700</ele><time>2025-03-23T02:52:25Z</time></trkpt>
<trkpt lat="38.07568183875883" lon="140.47887156961826"><ele>1708</ele><time>2025-03-23T02:53:27Z</time></trkpt>
<trkpt lat="38.07551847121602" lon="140.47893685622594"><ele>1699</ele><time>2025-03-23T02:55:27Z</time></trkpt>
<trkpt lat="38.075517751401" lon="140.47909069378454"><ele>1694</ele><time>2025-03-23T02:56:07Z</time></trkpt>
<trkpt lat="38.07548946386875" lon="140.47920026180728"><ele>1686</ele><time>2025-03-23T03:02:47Z</time></trkpt>
<trkpt lat="38.075530330783906" lon="140.4795293150738"><ele>1683</ele><time>2025-03-23T03:15:20Z</time></trkpt>
<trkpt lat="38.07552144907951" lon="140.48030043337096"><ele>1661</ele><time>2025-03-23T03:15:43Z</time></trkpt>
<trkpt lat="38.07535800817014" lon="140.48097786606914"><ele>1651</ele><time>2025-03-23T03:16:04Z</time></trkpt>
<trkpt lat="38.07530060444845" lon="140.48144349103765"><ele>1637</ele><time>2025-03-23T03:16:33Z</time></trkpt>
<trkpt lat="38.075372370102144" lon="140.4817523336656"><ele>1632</ele><time>2025-03-23T03:17:28Z</time></trkpt>
<trkpt lat="38.07532508352403" lon="140.48276749555805"><ele>1611</ele><time>2025-03-23T03:17:51Z</time></trkpt>
<trkpt lat="38.07549938184871" lon="140.48329618616944"><ele>1604</ele><time>2025-03-23T03:18:21Z</time></trkpt>
<trkpt lat="38.0752191779024" lon="140.48419145284595"><ele>1567</ele><time>2025-03-23T03:18:41Z</time></trkpt>
<trkpt lat="38.07512195618098" lon="140.48488862330797"><ele>1555</ele><time>2025-03-23T03:19:03Z</time></trkpt>
<trkpt lat="38.075218919996544" lon="140.4854216782726"><ele>1547</ele><time>2025-03-23T03:20:02Z</time></trkpt>
<trkpt lat="38.07568537022416" lon="140.48608281995115"><ele>1526</ele><time>2025-03-23T03:20:36Z</time></trkpt>
<trkpt lat="38.07596593023976" lon="140.4864284464026"><ele>1521</ele><time>2025-03-23T03:20:57Z</time></trkpt>
<trkpt lat="38.07598599791382" lon="140.48775793062975"><ele>1480</ele><time>2025-03-23T03:21:38Z</time></trkpt>
<trkpt lat="38.07597077854117" lon="140.48892484507354"><ele>1441</ele><time>2025-03-23T03:23:22Z</time></trkpt>
<trkpt lat="38.07593878927479" lon="140.4898343495016"><ele>1415</ele><time>2025-03-23T03:23:49Z</time></trkpt>
<trkpt lat="38.07589321038404" lon="140.4900614941777"><ele>1409</ele><time>2025-03-23T03:24:11Z</time></trkpt>
<trkpt lat="38.075743448868394" lon="140.4908059318623"><ele>1386</ele><time>2025-03-23T03:24:33Z</time></trkpt>
<trkpt lat="38.075468777516406" lon="140.49100102099644"><ele>1373</ele><time>2025-03-23T03:24:54Z</time></trkpt>
<trkpt lat="38.07460543002538" lon="140.49186890685837"><ele>1336</ele><time>2025-03-23T03:25:17Z</time></trkpt>
<trkpt lat="38.07409795285694" lon="140.49289161648954"><ele>1305</ele><time>2025-03-23T03:25:38Z</time></trkpt>
<trkpt lat="38.07350426881026" lon="140.49444452624462"><ele>1274</ele><time>2025-03-23T03:25:59Z</time></trkpt>
<trkpt lat="38.072620706280645" lon="140.49529856408319"><ele>1244</ele><time>2025-03-23T03:26:20Z</time></trkpt>
<trkpt lat="38.07221258586387" lon="140.49601340338648"><ele>1231</ele><time>2025-03-23T03:26:41Z</time></trkpt>
<trkpt lat="38.07180035419788" lon="140.49668001418738"><ele>1221</ele><time>2025-03-23T03:27:01Z</time></trkpt>
<trkpt lat="38.07148110102197" lon="140.49727764318266"><ele>1213</ele><time>2025-03-23T03:27:25Z</time></trkpt>
<trkpt lat="38.07114695515795" lon="140.49791932795623"><ele>1202</ele><time>2025-03-23T03:27:49Z</time></trkpt>
<trkpt lat="38.0707442087557" lon="140.4981905237279"><ele>1192</ele><time>2025-03-23T03:28:13Z</time></trkpt>
<trkpt lat="38.07049209570803" lon="140.49840229490886"><ele>1189</ele><time>2025-03-23T03:29:42Z</time></trkpt>
<trkpt lat="38.07024190847186" lon="140.49849607998135"><ele>1190</ele><time>2025-03-23T03:30:13Z</time></trkpt>
<trkpt lat="38.069921557828735" lon="140.4986040348343"><ele>1185</ele><time>2025-03-23T03:30:37Z</time></trkpt>
<trkpt lat="38.069660458745915" lon="140.49879393789362"><ele>1185</ele><time>2025-03-23T03:31:04Z</time></trkpt>
<trkpt lat="38.069264954900746" lon="140.49916507306642"><ele>1182</ele><time>2025-03-23T03:31:28Z</time></trkpt>
<trkpt lat="38.069106515944945" lon="140.49974624291812"><ele>1181</ele><time>2025-03-23T03:31:52Z</time></trkpt>
<trkpt lat="38.068640050080724" lon="140.500218858045"><ele>1177</ele><time>2025-03-23T03:32:17Z</time></trkpt>
<trkpt lat="38.068440874224365" lon="140.50055393660637"><ele>1173</ele><time>2025-03-23T03:32:42Z</time></trkpt>
<trkpt lat="38.068370940061776" lon="140.50069982751037"><ele>1174</ele><time>2025-03-23T03:33:17Z</time></trkpt>
<trkpt lat="38.068039779847055" lon="140.50132598284026"><ele>1169</ele><time>2025-03-23T03:33:49Z</time></trkpt>
<trkpt lat="38.06796773266496" lon="140.5015644413963"><ele>1168</ele><time>2025-03-23T03:34:18Z</time></trkpt>
<trkpt lat="38.06790804431598" lon="140.50192765239615"><ele>1160</ele><time>2025-03-23T03:34:51Z</time></trkpt>
<trkpt lat="38.06764574839427" lon="140.50213615088353"><ele>1151</ele><time>2025-03-23T03:35:19Z</time></trkpt>
<trkpt lat="38.067447747878575" lon="140.50235427373013"><ele>1139</ele><time>2025-03-23T03:36:07Z</time></trkpt>
<trkpt lat="38.066908513506064" lon="140.501941988377"><ele>1126</ele><time>2025-03-23T03:36:39Z</time></trkpt>
<trkpt lat="38.06689455942978" lon="140.50296765612785"><ele>1108</ele><time>2025-03-23T03:37:21Z</time></trkpt>
<trkpt lat="38.066796391775426" lon="140.50343503836766"><ele>1092</ele><time>2025-03-23T03:37:43Z</time></trkpt>
<trkpt lat="38.06661260458707" lon="140.50455285870535"><ele>1036</ele><time>2025-03-23T03:38:04Z</time></trkpt>
<trkpt lat="38.066534267570766" lon="140.50601531750542"><ele>981</ele><time>2025-03-23T03:38:25Z</time></trkpt>
<trkpt lat="38.06643704146695" lon="140.50817085817613"><ele>936</ele><time>2025-03-23T03:38:46Z</time></trkpt>
<trkpt lat="38.06743736094758" lon="140.50974709700495"><ele>906</ele><time>2025-03-23T03:39:07Z</time></trkpt>
<trkpt lat="38.068092846399246" lon="140.51063143422783"><ele>895</ele><time>2025-03-23T03:39:28Z</time></trkpt>
<trkpt lat="38.06800574666211" lon="140.513058421291"><ele>869</ele><time>2025-03-23T03:39:50Z</time></trkpt>
<trkpt lat="38.0682180947808" lon="140.514067698832"><ele>863</ele><time>2025-03-23T03:40:15Z</time></trkpt>
<trkpt lat="38.068077581528904" lon="140.51437798796366"><ele>851</ele><time>2025-03-23T03:42:54Z</time></trkpt>
<trkpt lat="38.06835040955548" lon="140.51411692709328"><ele>852</ele><time>2025-03-23T03:43:31Z</time></trkpt>
<trkpt lat="38.06824137960527" lon="140.5142721102748"><ele>851</ele><time>2025-03-23T03:44:09Z</time></trkpt>
</trkseg>
</trk>
</gpx>