<?xml version="1.0" encoding="UTF-8"?>
<gpx xmlns:xsi="http://www.w3.org/2001/XMLSchema-instance" xmlns="http://www.topografix.com/GPX/1/1" xsi:schemaLocation="http://www.topografix.com/GPX/1/1 http://www.topografix.com/GPX/1/1/gpx.xsd" creator="YamarecoMap iOS 7.28 - www.yamareco.com">
<trk><name>track</name><number>1</number><trkseg>
<trkpt lat="36.77339161749629" lon="137.82137802814862"><ele>1846</ele><time>2025-04-18T23:53:54Z</time></trkpt>
<trkpt lat="36.77348348315518" lon="137.82137618412992"><ele>1829</ele><time>2025-04-18T23:55:05Z</time></trkpt>
<trkpt lat="36.773413679989055" lon="137.8212293500745"><ele>1828</ele><time>2025-04-18T23:55:53Z</time></trkpt>
<trkpt lat="36.77344618968866" lon="137.82168512770335"><ele>1829</ele><time>2025-04-18T23:57:20Z</time></trkpt>
<trkpt lat="36.773397537408016" lon="137.8214395000263"><ele>1829</ele><time>2025-04-18T23:58:15Z</time></trkpt>
<trkpt lat="36.77332844244152" lon="137.82151446739798"><ele>1828</ele><time>2025-04-19T00:00:46Z</time></trkpt>
<trkpt lat="36.773627424964104" lon="137.82150076389516"><ele>1828</ele><time>2025-04-19T00:01:13Z</time></trkpt>
<trkpt lat="36.773673651328835" lon="137.82166199782122"><ele>1827</ele><time>2025-04-19T00:01:50Z</time></trkpt>
<trkpt lat="36.7738561764733" lon="137.8216828543478"><ele>1825</ele><time>2025-04-19T00:04:36Z</time></trkpt>
<trkpt lat="36.77385991702996" lon="137.8214355057535"><ele>1834</ele><time>2025-04-19T00:05:47Z</time></trkpt>
<trkpt lat="36.7737750051951" lon="137.82113443213177"><ele>1838</ele><time>2025-04-19T00:06:17Z</time></trkpt>
<trkpt lat="36.773800641902895" lon="137.82084099690266"><ele>1838</ele><time>2025-04-19T00:06:45Z</time></trkpt>
<trkpt lat="36.77379132272269" lon="137.82049588011867"><ele>1842</ele><time>2025-04-19T00:07:17Z</time></trkpt>
<trkpt lat="36.77383843336752" lon="137.82017081702097"><ele>1844</ele><time>2025-04-19T00:07:48Z</time></trkpt>
<trkpt lat="36.773869953566496" lon="137.81984763455358"><ele>1847</ele><time>2025-04-19T00:08:17Z</time></trkpt>
<trkpt lat="36.77392505418392" lon="137.8195683734285"><ele>1849</ele><time>2025-04-19T00:08:45Z</time></trkpt>
<trkpt lat="36.77405813309035" lon="137.81928714523235"><ele>1848</ele><time>2025-04-19T00:09:16Z</time></trkpt>
<trkpt lat="36.774176880888916" lon="137.81900223505363"><ele>1851</ele><time>2025-04-19T00:09:46Z</time></trkpt>
<trkpt lat="36.77423335021102" lon="137.81875447237496"><ele>1855</ele><time>2025-04-19T00:10:15Z</time></trkpt>
<trkpt lat="36.77430610499761" lon="137.81843314325727"><ele>1856</ele><time>2025-04-19T00:10:46Z</time></trkpt>
<trkpt lat="36.77427122931714" lon="137.81807479055456"><ele>1858</ele><time>2025-04-19T00:11:16Z</time></trkpt>
<trkpt lat="36.77421945385932" lon="137.81791425502442"><ele>1854</ele><time>2025-04-19T00:11:55Z</time></trkpt>
<trkpt lat="36.774131018254934" lon="137.81771474962113"><ele>1856</ele><time>2025-04-19T00:12:25Z</time></trkpt>
<trkpt lat="36.77399783374247" lon="137.81736824029818"><ele>1858</ele><time>2025-04-19T00:12:52Z</time></trkpt>
<trkpt lat="36.773881478704766" lon="137.81701392584625"><ele>1858</ele><time>2025-04-19T00:13:18Z</time></trkpt>
<trkpt lat="36.77375086054391" lon="137.81663205927694"><ele>1858</ele><time>2025-04-19T00:13:46Z</time></trkpt>
<trkpt lat="36.77362199849155" lon="137.8163158955071"><ele>1859</ele><time>2025-04-19T00:14:13Z</time></trkpt>
<trkpt lat="36.773532847094764" lon="137.81603418989988"><ele>1859</ele><time>2025-04-19T00:14:41Z</time></trkpt>
<trkpt lat="36.77342505323451" lon="137.81575309963833"><ele>1860</ele><time>2025-04-19T00:15:06Z</time></trkpt>
<trkpt lat="36.77333123914726" lon="137.8154762689732"><ele>1864</ele><time>2025-04-19T00:15:34Z</time></trkpt>
<trkpt lat="36.773255287669684" lon="137.81520046076054"><ele>1865</ele><time>2025-04-19T00:16:03Z</time></trkpt>
<trkpt lat="36.773140401796155" lon="137.81490209697344"><ele>1866</ele><time>2025-04-19T00:16:34Z</time></trkpt>
<trkpt lat="36.77301727637254" lon="137.81459049161543"><ele>1868</ele><time>2025-04-19T00:17:04Z</time></trkpt>
<trkpt lat="36.77289548491679" lon="137.8142404512065"><ele>1867</ele><time>2025-04-19T00:17:35Z</time></trkpt>
<trkpt lat="36.77277061324315" lon="137.81386666716125"><ele>1867</ele><time>2025-04-19T00:18:04Z</time></trkpt>
<trkpt lat="36.772635044714214" lon="137.8134799428409"><ele>1867</ele><time>2025-04-19T00:18:31Z</time></trkpt>
<trkpt lat="36.77249310356314" lon="137.81305164461403"><ele>1867</ele><time>2025-04-19T00:19:00Z</time></trkpt>
<trkpt lat="36.77237705211469" lon="137.81274364618142"><ele>1866</ele><time>2025-04-19T00:19:25Z</time></trkpt>
<trkpt lat="36.772248779101474" lon="137.81235130764867"><ele>1862</ele><time>2025-04-19T00:19:52Z</time></trkpt>
<trkpt lat="36.772115127560596" lon="137.8118769391436"><ele>1861</ele><time>2025-04-19T00:20:19Z</time></trkpt>
<trkpt lat="36.772033952596146" lon="137.81147872211713"><ele>1859</ele><time>2025-04-19T00:20:45Z</time></trkpt>
<trkpt lat="36.7719393905296" lon="137.81110782171154"><ele>1859</ele><time>2025-04-19T00:21:12Z</time></trkpt>
<trkpt lat="36.771957756155714" lon="137.8107515033953"><ele>1860</ele><time>2025-04-19T00:21:40Z</time></trkpt>
<trkpt lat="36.772042788772275" lon="137.8103945368236"><ele>1859</ele><time>2025-04-19T00:22:06Z</time></trkpt>
<trkpt lat="36.77201494939165" lon="137.8100316876214"><ele>1860</ele><time>2025-04-19T00:22:36Z</time></trkpt>
<trkpt lat="36.77198872238646" lon="137.80970363967637"><ele>1864</ele><time>2025-04-19T00:23:04Z</time></trkpt>
<trkpt lat="36.77192834103705" lon="137.80942243191075"><ele>1866</ele><time>2025-04-19T00:23:34Z</time></trkpt>
<trkpt lat="36.771837835331766" lon="137.8091197317235"><ele>1869</ele><time>2025-04-19T00:24:03Z</time></trkpt>
<trkpt lat="36.77170590716924" lon="137.80883043359387"><ele>1871</ele><time>2025-04-19T00:24:32Z</time></trkpt>
<trkpt lat="36.771586000260804" lon="137.80855376785274"><ele>1875</ele><time>2025-04-19T00:25:02Z</time></trkpt>
<trkpt lat="36.77149680681833" lon="137.80825683027882"><ele>1877</ele><time>2025-04-19T00:25:32Z</time></trkpt>
<trkpt lat="36.77145839521464" lon="137.8080958406778"><ele>1880</ele><time>2025-04-19T00:26:02Z</time></trkpt>
<trkpt lat="36.77142843205518" lon="137.80783751358743"><ele>1883</ele><time>2025-04-19T00:26:33Z</time></trkpt>
<trkpt lat="36.77139794867134" lon="137.80753489671415"><ele>1889</ele><time>2025-04-19T00:27:05Z</time></trkpt>
<trkpt lat="36.77136478681636" lon="137.8072063338233"><ele>1892</ele><time>2025-04-19T00:27:37Z</time></trkpt>
<trkpt lat="36.771342645949865" lon="137.80682625331372"><ele>1896</ele><time>2025-04-19T00:28:07Z</time></trkpt>
<trkpt lat="36.771350660625416" lon="137.80650071306965"><ele>1899</ele><time>2025-04-19T00:28:38Z</time></trkpt>
<trkpt lat="36.77138067326291" lon="137.8062273928988"><ele>1905</ele><time>2025-04-19T00:29:08Z</time></trkpt>
<trkpt lat="36.77141494872954" lon="137.80603125630043"><ele>1907</ele><time>2025-04-19T00:29:41Z</time></trkpt>
<trkpt lat="36.77145881765223" lon="137.80570546233616"><ele>1909</ele><time>2025-04-19T00:30:12Z</time></trkpt>
<trkpt lat="36.77145189833486" lon="137.805421407643"><ele>1912</ele><time>2025-04-19T00:30:46Z</time></trkpt>
<trkpt lat="36.77140723395743" lon="137.80510143225013"><ele>1915</ele><time>2025-04-19T00:31:35Z</time></trkpt>
<trkpt lat="36.77138204449475" lon="137.8048003552478"><ele>1923</ele><time>2025-04-19T00:32:06Z</time></trkpt>
<trkpt lat="36.771406278263846" lon="137.80466065624623"><ele>1925</ele><time>2025-04-19T00:32:57Z</time></trkpt>
<trkpt lat="36.77148178690991" lon="137.80438275003803"><ele>1930</ele><time>2025-04-19T00:33:40Z</time></trkpt>
<trkpt lat="36.771549860315766" lon="137.80410622205702"><ele>1935</ele><time>2025-04-19T00:34:22Z</time></trkpt>
<trkpt lat="36.771627723949436" lon="137.8038488929798"><ele>1939</ele><time>2025-04-19T00:34:52Z</time></trkpt>
<trkpt lat="36.771724036311305" lon="137.80358570624745"><ele>1949</ele><time>2025-04-19T00:35:29Z</time></trkpt>
<trkpt lat="36.77175076092884" lon="137.80331929100973"><ele>1951</ele><time>2025-04-19T00:36:18Z</time></trkpt>
<trkpt lat="36.77179412500105" lon="137.80302967772533"><ele>1956</ele><time>2025-04-19T00:37:17Z</time></trkpt>
<trkpt lat="36.771833947113336" lon="137.80280035334667"><ele>1963</ele><time>2025-04-19T00:37:53Z</time></trkpt>
<trkpt lat="36.771934897271976" lon="137.80252986529456"><ele>1969</ele><time>2025-04-19T00:38:49Z</time></trkpt>
<trkpt lat="36.77200106409585" lon="137.802438428717"><ele>1972</ele><time>2025-04-19T00:39:40Z</time></trkpt>
<trkpt lat="36.772125956577355" lon="137.80219866749184"><ele>1980</ele><time>2025-04-19T00:40:51Z</time></trkpt>
<trkpt lat="36.77225354557028" lon="137.80199752520733"><ele>1986</ele><time>2025-04-19T00:41:25Z</time></trkpt>
<trkpt lat="36.7723267115885" lon="137.80175887349938"><ele>1992</ele><time>2025-04-19T00:42:02Z</time></trkpt>
<trkpt lat="36.772449120305204" lon="137.80155986990127"><ele>1997</ele><time>2025-04-19T00:42:38Z</time></trkpt>
<trkpt lat="36.7724934287589" lon="137.8012743223421"><ele>2006</ele><time>2025-04-19T00:43:16Z</time></trkpt>
<trkpt lat="36.77249028924583" lon="137.80106809511284"><ele>2011</ele><time>2025-04-19T00:43:51Z</time></trkpt>
<trkpt lat="36.77245804291727" lon="137.80087853189622"><ele>2016</ele><time>2025-04-19T00:44:29Z</time></trkpt>
<trkpt lat="36.77235298448579" lon="137.800723639106"><ele>2022</ele><time>2025-04-19T00:45:15Z</time></trkpt>
<trkpt lat="36.77226177019991" lon="137.80054500006509"><ele>2030</ele><time>2025-04-19T00:45:55Z</time></trkpt>
<trkpt lat="36.77217493316638" lon="137.8003733351595"><ele>2038</ele><time>2025-04-19T00:46:59Z</time></trkpt>
<trkpt lat="36.772099023029874" lon="137.80018000245977"><ele>2045</ele><time>2025-04-19T00:47:47Z</time></trkpt>
<trkpt lat="36.77211201701354" lon="137.8000283738633"><ele>2054</ele><time>2025-04-19T00:49:00Z</time></trkpt>
<trkpt lat="36.77203735005311" lon="137.7998916935754"><ele>2061</ele><time>2025-04-19T00:49:48Z</time></trkpt>
<trkpt lat="36.772134123870046" lon="137.7998111006792"><ele>2066</ele><time>2025-04-19T00:50:20Z</time></trkpt>
<trkpt lat="36.77200782733506" lon="137.79962760040425"><ele>2073</ele><time>2025-04-19T00:51:22Z</time></trkpt>
<trkpt lat="36.7719521117783" lon="137.79942372855973"><ele>2080</ele><time>2025-04-19T00:52:01Z</time></trkpt>
<trkpt lat="36.77197633253899" lon="137.79923769984362"><ele>2086</ele><time>2025-04-19T00:52:36Z</time></trkpt>
<trkpt lat="36.77214124336178" lon="137.79913745698357"><ele>2087</ele><time>2025-04-19T00:53:14Z</time></trkpt>
<trkpt lat="36.77215516291503" lon="137.79891683474236"><ele>2094</ele><time>2025-04-19T00:53:58Z</time></trkpt>
<trkpt lat="36.77224332174705" lon="137.79872069276635"><ele>2099</ele><time>2025-04-19T00:54:42Z</time></trkpt>
<trkpt lat="36.77229259028799" lon="137.79861479069388"><ele>2101</ele><time>2025-04-19T00:55:25Z</time></trkpt>
<trkpt lat="36.77222328963756" lon="137.79842366875445"><ele>2105</ele><time>2025-04-19T00:56:07Z</time></trkpt>
<trkpt lat="36.772112728907565" lon="137.7982633479196"><ele>2111</ele><time>2025-04-19T00:56:39Z</time></trkpt>
<trkpt lat="36.77216309201133" lon="137.79815700960884"><ele>2114</ele><time>2025-04-19T00:57:45Z</time></trkpt>
<trkpt lat="36.77228376036733" lon="137.7980281042156"><ele>2125</ele><time>2025-04-19T00:58:37Z</time></trkpt>
<trkpt lat="36.7723959942556" lon="137.79788408171305"><ele>2128</ele><time>2025-04-19T00:59:17Z</time></trkpt>
<trkpt lat="36.77244092655602" lon="137.79769992722484"><ele>2135</ele><time>2025-04-19T01:00:00Z</time></trkpt>
<trkpt lat="36.772513209339344" lon="137.79760065373966"><ele>2139</ele><time>2025-04-19T01:01:17Z</time></trkpt>
<trkpt lat="36.77256790406371" lon="137.79744329345485"><ele>2139</ele><time>2025-04-19T01:08:27Z</time></trkpt>
<trkpt lat="36.77272457803952" lon="137.7972721372047"><ele>2145</ele><time>2025-04-19T01:09:10Z</time></trkpt>
<trkpt lat="36.772870758376165" lon="137.79716731646522"><ele>2152</ele><time>2025-04-19T01:09:45Z</time></trkpt>
<trkpt lat="36.77299978524646" lon="137.79709158133082"><ele>2158</ele><time>2025-04-19T01:10:30Z</time></trkpt>
<trkpt lat="36.77316070198822" lon="137.79701645456097"><ele>2165</ele><time>2025-04-19T01:11:50Z</time></trkpt>
<trkpt lat="36.77327103800433" lon="137.79689713920487"><ele>2176</ele><time>2025-04-19T01:12:49Z</time></trkpt>
<trkpt lat="36.77319865066292" lon="137.79665227563086"><ele>2181</ele><time>2025-04-19T01:14:13Z</time></trkpt>
<trkpt lat="36.773224094076035" lon="137.79647946929273"><ele>2189</ele><time>2025-04-19T01:15:02Z</time></trkpt>
<trkpt lat="36.77317045389027" lon="137.79628269273948"><ele>2193</ele><time>2025-04-19T01:16:18Z</time></trkpt>
<trkpt lat="36.77326143743476" lon="137.7960976928045"><ele>2197</ele><time>2025-04-19T01:17:05Z</time></trkpt>
<trkpt lat="36.77341874541198" lon="137.79598439898223"><ele>2204</ele><time>2025-04-19T01:18:05Z</time></trkpt>
<trkpt lat="36.773537166697935" lon="137.79588075941035"><ele>2209</ele><time>2025-04-19T01:18:40Z</time></trkpt>
<trkpt lat="36.77368472784324" lon="137.7957962616663"><ele>2218</ele><time>2025-04-19T01:20:02Z</time></trkpt>
<trkpt lat="36.77382156121562" lon="137.7957014507754"><ele>2223</ele><time>2025-04-19T01:20:41Z</time></trkpt>
<trkpt lat="36.77393622266866" lon="137.79563595434496"><ele>2229</ele><time>2025-04-19T01:21:54Z</time></trkpt>
<trkpt lat="36.774074392823636" lon="137.79559300690718"><ele>2236</ele><time>2025-04-19T01:22:48Z</time></trkpt>
<trkpt lat="36.77422397616905" lon="137.7955766217367"><ele>2241</ele><time>2025-04-19T01:24:12Z</time></trkpt>
<trkpt lat="36.77436124120711" lon="137.7955395714916"><ele>2249</ele><time>2025-04-19T01:25:00Z</time></trkpt>
<trkpt lat="36.77443939848468" lon="137.79545751546084"><ele>2257</ele><time>2025-04-19T01:26:37Z</time></trkpt>
<trkpt lat="36.77444727654959" lon="137.7952843343768"><ele>2262</ele><time>2025-04-19T01:27:29Z</time></trkpt>
<trkpt lat="36.77441768716307" lon="137.79512126197017"><ele>2267</ele><time>2025-04-19T01:28:04Z</time></trkpt>
<trkpt lat="36.77455475927618" lon="137.79498417941105"><ele>2274</ele><time>2025-04-19T01:29:13Z</time></trkpt>
<trkpt lat="36.77446809096418" lon="137.7948192338583"><ele>2281</ele><time>2025-04-19T01:30:24Z</time></trkpt>
<trkpt lat="36.774419420089416" lon="137.79462812220996"><ele>2285</ele><time>2025-04-19T01:31:12Z</time></trkpt>
<trkpt lat="36.77442620642656" lon="137.79444847452626"><ele>2292</ele><time>2025-04-19T01:32:05Z</time></trkpt>
<trkpt lat="36.774520282911986" lon="137.79431366640162"><ele>2299</ele><time>2025-04-19T01:33:41Z</time></trkpt>
<trkpt lat="36.774607041050416" lon="137.79421667560518"><ele>2303</ele><time>2025-04-19T01:34:34Z</time></trkpt>
<trkpt lat="36.774640329929355" lon="137.794018582573"><ele>2310</ele><time>2025-04-19T01:35:13Z</time></trkpt>
<trkpt lat="36.77475343018896" lon="137.79383969725052"><ele>2315</ele><time>2025-04-19T01:36:06Z</time></trkpt>
<trkpt lat="36.7748014332987" lon="137.79373553909198"><ele>2318</ele><time>2025-04-19T01:37:47Z</time></trkpt>
<trkpt lat="36.77484245107005" lon="137.79350723834003"><ele>2325</ele><time>2025-04-19T01:41:02Z</time></trkpt>
<trkpt lat="36.774891384419526" lon="137.79329910795283"><ele>2331</ele><time>2025-04-19T01:41:55Z</time></trkpt>
<trkpt lat="36.774907483598355" lon="137.79312977389975"><ele>2338</ele><time>2025-04-19T01:42:51Z</time></trkpt>
<trkpt lat="36.774931917472884" lon="137.7929914282633"><ele>2344</ele><time>2025-04-19T01:43:45Z</time></trkpt>
<trkpt lat="36.77495505631588" lon="137.79281918754822"><ele>2349</ele><time>2025-04-19T01:44:44Z</time></trkpt>
<trkpt lat="36.77498105107257" lon="137.79262391641677"><ele>2357</ele><time>2025-04-19T01:45:34Z</time></trkpt>
<trkpt lat="36.775107786892754" lon="137.79263177510396"><ele>2367</ele><time>2025-04-19T01:47:45Z</time></trkpt>
<trkpt lat="36.77512586344636" lon="137.79242454476778"><ele>2377</ele><time>2025-04-19T01:49:51Z</time></trkpt>
<trkpt lat="36.77511396466592" lon="137.7922895320261"><ele>2385</ele><time>2025-04-19T01:51:26Z</time></trkpt>
<trkpt lat="36.77510433504015" lon="137.79209921428813"><ele>2387</ele><time>2025-04-19T01:52:24Z</time></trkpt>
<trkpt lat="36.77513633801062" lon="137.7919527820738"><ele>2392</ele><time>2025-04-19T01:53:26Z</time></trkpt>
<trkpt lat="36.775289466489404" lon="137.7919443327885"><ele>2400</ele><time>2025-04-19T01:54:51Z</time></trkpt>
<trkpt lat="36.77534932815233" lon="137.79178561614486"><ele>2410</ele><time>2025-04-19T01:56:52Z</time></trkpt>
<trkpt lat="36.77538330835991" lon="137.7915800789723"><ele>2416</ele><time>2025-04-19T01:57:43Z</time></trkpt>
<trkpt lat="36.77547403159272" lon="137.79148918435212"><ele>2420</ele><time>2025-04-19T01:58:30Z</time></trkpt>
<trkpt lat="36.77559196438764" lon="137.79141613483768"><ele>2433</ele><time>2025-04-19T02:00:07Z</time></trkpt>
<trkpt lat="36.77573847352129" lon="137.79134381497636"><ele>2437</ele><time>2025-04-19T02:01:13Z</time></trkpt>
<trkpt lat="36.775863748967595" lon="137.79136485641465"><ele>2444</ele><time>2025-04-19T02:02:08Z</time></trkpt>
<trkpt lat="36.775987171219406" lon="137.79138646419173"><ele>2449</ele><time>2025-04-19T02:03:00Z</time></trkpt>
<trkpt lat="36.77610037612792" lon="137.79143558622744"><ele>2455</ele><time>2025-04-19T02:03:47Z</time></trkpt>
<trkpt lat="36.7762548092978" lon="137.7915139336727"><ele>2462</ele><time>2025-04-19T02:04:56Z</time></trkpt>
<trkpt lat="36.77633404493961" lon="137.79165652717546"><ele>2469</ele><time>2025-04-19T02:05:37Z</time></trkpt>
<trkpt lat="36.77641753354093" lon="137.79185958363067"><ele>2475</ele><time>2025-04-19T02:06:14Z</time></trkpt>
<trkpt lat="36.776478238584154" lon="137.79199383492073"><ele>2476</ele><time>2025-04-19T02:06:58Z</time></trkpt>
<trkpt lat="36.776639895458196" lon="137.791981312443"><ele>2480</ele><time>2025-04-19T02:10:56Z</time></trkpt>
<trkpt lat="36.77677251844369" lon="137.79191671946813"><ele>2487</ele><time>2025-04-19T02:11:50Z</time></trkpt>
<trkpt lat="36.77683527100614" lon="137.79172652841427"><ele>2495</ele><time>2025-04-19T02:13:02Z</time></trkpt>
<trkpt lat="36.7769017329719" lon="137.7916422471177"><ele>2500</ele><time>2025-04-19T02:14:04Z</time></trkpt>
<trkpt lat="36.777002922729544" lon="137.79169674576488"><ele>2505</ele><time>2025-04-19T02:15:08Z</time></trkpt>
<trkpt lat="36.777054943076514" lon="137.79148501970982"><ele>2514</ele><time>2025-04-19T02:16:00Z</time></trkpt>
<trkpt lat="36.777156772723764" lon="137.79153395787384"><ele>2516</ele><time>2025-04-19T02:17:12Z</time></trkpt>
<trkpt lat="36.77723125299575" lon="137.7913594786861"><ele>2526</ele><time>2025-04-19T02:18:47Z</time></trkpt>
<trkpt lat="36.7773542140508" lon="137.79139596835176"><ele>2531</ele><time>2025-04-19T02:19:37Z</time></trkpt>
<trkpt lat="36.77739442501042" lon="137.79122423866698"><ele>2537</ele><time>2025-04-19T02:21:08Z</time></trkpt>
<trkpt lat="36.777538849117484" lon="137.7912427667229"><ele>2545</ele><time>2025-04-19T02:23:24Z</time></trkpt>
<trkpt lat="36.77753061879723" lon="137.79106499640773"><ele>2551</ele><time>2025-04-19T02:24:03Z</time></trkpt>
<trkpt lat="36.77768918076705" lon="137.79106644755677"><ele>2556</ele><time>2025-04-19T02:25:26Z</time></trkpt>
<trkpt lat="36.77767559905498" lon="137.79090902294453"><ele>2563</ele><time>2025-04-19T02:26:23Z</time></trkpt>
<trkpt lat="36.77779026812669" lon="137.79089062814728"><ele>2568</ele><time>2025-04-19T02:28:10Z</time></trkpt>
<trkpt lat="36.77775734944564" lon="137.79075712194785"><ele>2574</ele><time>2025-04-19T02:29:30Z</time></trkpt>
<trkpt lat="36.77790635885757" lon="137.79080429428788"><ele>2579</ele><time>2025-04-19T02:30:16Z</time></trkpt>
<trkpt lat="36.77802262328733" lon="137.79085332141253"><ele>2582</ele><time>2025-04-19T02:31:06Z</time></trkpt>
<trkpt lat="36.77813289927606" lon="137.79082291927426"><ele>2588</ele><time>2025-04-19T02:32:21Z</time></trkpt>
<trkpt lat="36.77805010105542" lon="137.7906530386712"><ele>2595</ele><time>2025-04-19T02:33:08Z</time></trkpt>
<trkpt lat="36.77801666073462" lon="137.7904838850572"><ele>2602</ele><time>2025-04-19T02:33:55Z</time></trkpt>
<trkpt lat="36.77798883074766" lon="137.79037021521435"><ele>2611</ele><time>2025-04-19T02:35:29Z</time></trkpt>
<trkpt lat="36.77799562100717" lon="137.7901844615603"><ele>2600</ele><time>2025-04-19T02:46:38Z</time></trkpt>
<trkpt lat="36.77779578348516" lon="137.78977919037158"><ele>2588</ele><time>2025-04-19T02:47:07Z</time></trkpt>
<trkpt lat="36.777617304926665" lon="137.7894731980851"><ele>2586</ele><time>2025-04-19T02:47:30Z</time></trkpt>
<trkpt lat="36.777523248135516" lon="137.78920372954528"><ele>2587</ele><time>2025-04-19T02:47:59Z</time></trkpt>
<trkpt lat="36.77738753246297" lon="137.7890140569055"><ele>2591</ele><time>2025-04-19T02:48:31Z</time></trkpt>
<trkpt lat="36.77726513217361" lon="137.788777696351"><ele>2593</ele><time>2025-04-19T02:49:07Z</time></trkpt>
<trkpt lat="36.7771983869152" lon="137.78865406097682"><ele>2595</ele><time>2025-04-19T02:49:59Z</time></trkpt>
<trkpt lat="36.77712240768017" lon="137.78842617620953"><ele>2598</ele><time>2025-04-19T02:50:35Z</time></trkpt>
<trkpt lat="36.77706077634005" lon="137.78827345416687"><ele>2600</ele><time>2025-04-19T02:51:09Z</time></trkpt>
<trkpt lat="36.77703467177004" lon="137.78812626933131"><ele>2605</ele><time>2025-04-19T02:51:56Z</time></trkpt>
<trkpt lat="36.77694512433741" lon="137.7880333552392"><ele>2610</ele><time>2025-04-19T02:53:32Z</time></trkpt>
<trkpt lat="36.7767634272517" lon="137.7878240953621"><ele>2600</ele><time>2025-04-19T02:54:28Z</time></trkpt>
<trkpt lat="36.77661730210828" lon="137.78765168109086"><ele>2594</ele><time>2025-04-19T02:55:17Z</time></trkpt>
<trkpt lat="36.77629285809068" lon="137.7873463776277"><ele>2578</ele><time>2025-04-19T02:55:51Z</time></trkpt>
<trkpt lat="36.776103363552714" lon="137.78710596104676"><ele>2576</ele><time>2025-04-19T02:56:17Z</time></trkpt>
<trkpt lat="36.775991903527974" lon="137.7869211473045"><ele>2580</ele><time>2025-04-19T02:56:52Z</time></trkpt>
<trkpt lat="36.77590128342593" lon="137.7866847852758"><ele>2581</ele><time>2025-04-19T02:57:28Z</time></trkpt>
<trkpt lat="36.77579834160687" lon="137.7865787195969"><ele>2583</ele><time>2025-04-19T02:58:05Z</time></trkpt>
<trkpt lat="36.77577062628051" lon="137.7863763670918"><ele>2588</ele><time>2025-04-19T02:59:22Z</time></trkpt>
<trkpt lat="36.77565742551976" lon="137.78620043483957"><ele>2590</ele><time>2025-04-19T03:00:18Z</time></trkpt>
<trkpt lat="36.775553439826425" lon="137.78606228788766"><ele>2598</ele><time>2025-04-19T03:01:11Z</time></trkpt>
<trkpt lat="36.77545780605136" lon="137.78591167909607"><ele>2601</ele><time>2025-04-19T03:01:43Z</time></trkpt>
<trkpt lat="36.77536646441366" lon="137.7856956260807"><ele>2602</ele><time>2025-04-19T03:02:18Z</time></trkpt>
<trkpt lat="36.77518001377263" lon="137.78553353995352"><ele>2607</ele><time>2025-04-19T03:02:55Z</time></trkpt>
<trkpt lat="36.77505910431559" lon="137.7853612479644"><ele>2607</ele><time>2025-04-19T03:03:31Z</time></trkpt>
<trkpt lat="36.77497434602087" lon="137.78518412048297"><ele>2608</ele><time>2025-04-19T03:04:03Z</time></trkpt>
<trkpt lat="36.77485867244778" lon="137.78497719901497"><ele>2610</ele><time>2025-04-19T03:04:41Z</time></trkpt>
<trkpt lat="36.77477463254201" lon="137.7849021741622"><ele>2612</ele><time>2025-04-19T03:05:19Z</time></trkpt>
<trkpt lat="36.77464884534474" lon="137.78484045199548"><ele>2618</ele><time>2025-04-19T03:05:51Z</time></trkpt>
<trkpt lat="36.774495590960946" lon="137.78465880982554"><ele>2619</ele><time>2025-04-19T03:06:22Z</time></trkpt>
<trkpt lat="36.774287886504794" lon="137.78438530123043"><ele>2613</ele><time>2025-04-19T03:07:25Z</time></trkpt>
<trkpt lat="36.774106016773416" lon="137.78403329537124"><ele>2608</ele><time>2025-04-19T03:07:52Z</time></trkpt>
<trkpt lat="36.773982587375976" lon="137.78381324445522"><ele>2613</ele><time>2025-04-19T03:08:27Z</time></trkpt>
<trkpt lat="36.7739062451688" lon="137.7836173259074"><ele>2617</ele><time>2025-04-19T03:09:17Z</time></trkpt>
<trkpt lat="36.773833189674086" lon="137.7834413564397"><ele>2623</ele><time>2025-04-19T03:10:04Z</time></trkpt>
<trkpt lat="36.77375408567409" lon="137.78328763867427"><ele>2625</ele><time>2025-04-19T03:10:50Z</time></trkpt>
<trkpt lat="36.7736706553497" lon="137.78310420891614"><ele>2633</ele><time>2025-04-19T03:11:53Z</time></trkpt>
<trkpt lat="36.773616922550886" lon="137.78293619868217"><ele>2639</ele><time>2025-04-19T03:12:39Z</time></trkpt>
<trkpt lat="36.77359778168598" lon="137.78282153523864"><ele>2642</ele><time>2025-04-19T03:14:04Z</time></trkpt>
<trkpt lat="36.773477240109806" lon="137.7827385302537"><ele>2646</ele><time>2025-04-19T03:14:38Z</time></trkpt>
<trkpt lat="36.77343771977124" lon="137.78253905998386"><ele>2652</ele><time>2025-04-19T03:15:24Z</time></trkpt>
<trkpt lat="36.773269424850604" lon="137.78242658920766"><ele>2656</ele><time>2025-04-19T03:16:26Z</time></trkpt>
<trkpt lat="36.7731996248508" lon="137.7822614085002"><ele>2662</ele><time>2025-04-19T03:17:25Z</time></trkpt>
<trkpt lat="36.77319182651337" lon="137.78204961620162"><ele>2667</ele><time>2025-04-19T03:18:09Z</time></trkpt>
<trkpt lat="36.773179603984225" lon="137.78193218562032"><ele>2670</ele><time>2025-04-19T03:18:57Z</time></trkpt>
<trkpt lat="36.773184022212675" lon="137.78165888076265"><ele>2677</ele><time>2025-04-19T03:19:34Z</time></trkpt>
<trkpt lat="36.77319057532084" lon="137.78145113643396"><ele>2681</ele><time>2025-04-19T03:20:22Z</time></trkpt>
<trkpt lat="36.7731700527711" lon="137.78131527648893"><ele>2686</ele><time>2025-04-19T03:21:08Z</time></trkpt>
<trkpt lat="36.77315214693671" lon="137.7811130530105"><ele>2688</ele><time>2025-04-19T03:21:56Z</time></trkpt>
<trkpt lat="36.77313154795202" lon="137.78089899210042"><ele>2694</ele><time>2025-04-19T03:22:29Z</time></trkpt>
<trkpt lat="36.77312049756197" lon="137.7807064246372"><ele>2696</ele><time>2025-04-19T03:23:07Z</time></trkpt>
<trkpt lat="36.77311213354603" lon="137.78047933811646"><ele>2699</ele><time>2025-04-19T03:23:45Z</time></trkpt>
<trkpt lat="36.773150111621476" lon="137.78024682595736"><ele>2704</ele><time>2025-04-19T03:24:31Z</time></trkpt>
<trkpt lat="36.77316992095484" lon="137.78001037246867"><ele>2713</ele><time>2025-04-19T03:27:01Z</time></trkpt>
<trkpt lat="36.77324445194097" lon="137.77980492388943"><ele>2716</ele><time>2025-04-19T03:27:35Z</time></trkpt>
<trkpt lat="36.77327775448266" lon="137.77955197313887"><ele>2721</ele><time>2025-04-19T03:28:14Z</time></trkpt>
<trkpt lat="36.77330903754762" lon="137.77931839722962"><ele>2727</ele><time>2025-04-19T03:28:52Z</time></trkpt>
<trkpt lat="36.77326341439958" lon="137.77904938448773"><ele>2731</ele><time>2025-04-19T03:29:20Z</time></trkpt>
<trkpt lat="36.77323880589334" lon="137.7788975096905"><ele>2733</ele><time>2025-04-19T03:29:54Z</time></trkpt>
<trkpt lat="36.77323508933206" lon="137.77870764220413"><ele>2736</ele><time>2025-04-19T03:30:27Z</time></trkpt>
<trkpt lat="36.773241191471584" lon="137.77844964016822"><ele>2741</ele><time>2025-04-19T03:31:11Z</time></trkpt>
<trkpt lat="36.77330919788055" lon="137.77821266396745"><ele>2741</ele><time>2025-04-19T03:31:51Z</time></trkpt>
<trkpt lat="36.77331431537359" lon="137.77783790268347"><ele>2741</ele><time>2025-04-19T03:32:30Z</time></trkpt>
<trkpt lat="36.77334575854564" lon="137.77760882498603"><ele>2746</ele><time>2025-04-19T03:33:32Z</time></trkpt>
<trkpt lat="36.773414396698776" lon="137.7774135366202"><ele>2750</ele><time>2025-04-19T03:34:47Z</time></trkpt>
<trkpt lat="36.773468143191536" lon="137.7771988892674"><ele>2753</ele><time>2025-04-19T03:35:26Z</time></trkpt>
<trkpt lat="36.77349282377516" lon="137.77691944635538"><ele>2752</ele><time>2025-04-19T03:35:57Z</time></trkpt>
<trkpt lat="36.77357127047105" lon="137.7766959410618"><ele>2755</ele><time>2025-04-19T03:36:27Z</time></trkpt>
<trkpt lat="36.77362716503789" lon="137.77649125793937"><ele>2761</ele><time>2025-04-19T03:36:57Z</time></trkpt>
<trkpt lat="36.77367875881195" lon="137.7761969378501"><ele>2766</ele><time>2025-04-19T03:37:45Z</time></trkpt>
<trkpt lat="36.77377264725794" lon="137.77600071481783"><ele>2771</ele><time>2025-04-19T03:38:35Z</time></trkpt>
<trkpt lat="36.77362773630569" lon="137.77597061294614"><ele>2758</ele><time>2025-04-19T03:52:23Z</time></trkpt>
<trkpt lat="36.773712172414655" lon="137.77602154191644"><ele>2758</ele><time>2025-04-19T03:53:45Z</time></trkpt>
<trkpt lat="36.77381024824422" lon="137.77604352297257"><ele>2760</ele><time>2025-04-19T04:10:47Z</time></trkpt>
<trkpt lat="36.77370905039223" lon="137.77601115465333"><ele>2759</ele><time>2025-04-19T04:11:44Z</time></trkpt>
<trkpt lat="36.77350643249599" lon="137.77624071251734"><ele>2767</ele><time>2025-04-19T04:26:39Z</time></trkpt>
<trkpt lat="36.77355573706505" lon="137.77650754535097"><ele>2763</ele><time>2025-04-19T04:34:00Z</time></trkpt>
<trkpt lat="36.77346148983432" lon="137.77686627301355"><ele>2755</ele><time>2025-04-19T04:34:27Z</time></trkpt>
<trkpt lat="36.773423337041265" lon="137.77716784361078"><ele>2754</ele><time>2025-04-19T04:34:52Z</time></trkpt>
<trkpt lat="36.77338266204545" lon="137.77727907614266"><ele>2753</ele><time>2025-04-19T04:37:03Z</time></trkpt>
<trkpt lat="36.77340965580995" lon="137.77704789263802"><ele>2751</ele><time>2025-04-19T04:39:13Z</time></trkpt>
<trkpt lat="36.773472295928954" lon="137.77679785952782"><ele>2755</ele><time>2025-04-19T04:39:48Z</time></trkpt>
<trkpt lat="36.77353621647834" lon="137.77656918198113"><ele>2759</ele><time>2025-04-19T04:40:26Z</time></trkpt>
<trkpt lat="36.77360369667722" lon="137.77630937532746"><ele>2765</ele><time>2025-04-19T04:41:02Z</time></trkpt>
<trkpt lat="36.77370317679212" lon="137.77604915252022"><ele>2769</ele><time>2025-04-19T04:41:39Z</time></trkpt>
<trkpt lat="36.77357013393022" lon="137.77631834762946"><ele>2766</ele><time>2025-04-19T04:45:28Z</time></trkpt>
<trkpt lat="36.77352707226354" lon="137.77647051684806"><ele>2762</ele><time>2025-04-19T04:46:12Z</time></trkpt>
<trkpt lat="36.77344192045522" lon="137.77707727650662"><ele>2750</ele><time>2025-04-19T04:46:57Z</time></trkpt>
<trkpt lat="36.77331175049264" lon="137.7776163559316"><ele>2746</ele><time>2025-04-19T04:47:34Z</time></trkpt>
<trkpt lat="36.773279765443085" lon="137.77809565079562"><ele>2740</ele><time>2025-04-19T04:47:59Z</time></trkpt>
<trkpt lat="36.77320306552418" lon="137.7783973375386"><ele>2739</ele><time>2025-04-19T04:48:35Z</time></trkpt>
<trkpt lat="36.77317761907232" lon="137.77859906906616"><ele>2739</ele><time>2025-04-19T04:49:01Z</time></trkpt>
<trkpt lat="36.77326088724471" lon="137.7793308095308"><ele>2730</ele><time>2025-04-19T04:49:25Z</time></trkpt>
<trkpt lat="36.77320677250032" lon="137.7794905427582"><ele>2726</ele><time>2025-04-19T04:50:22Z</time></trkpt>
<trkpt lat="36.77313470805287" lon="137.77992165411578"><ele>2720</ele><time>2025-04-19T04:51:33Z</time></trkpt>
<trkpt lat="36.77302231623261" lon="137.78019874803078"><ele>2715</ele><time>2025-04-19T04:52:59Z</time></trkpt>
<trkpt lat="36.77303467399672" lon="137.78000105932762"><ele>2708</ele><time>2025-04-19T04:56:00Z</time></trkpt>
<trkpt lat="36.77292916814374" lon="137.77969296981007"><ele>2706</ele><time>2025-04-19T04:56:34Z</time></trkpt>
<trkpt lat="36.77289114285228" lon="137.77953944472193"><ele>2702</ele><time>2025-04-19T04:57:08Z</time></trkpt>
<trkpt lat="36.772774071391304" lon="137.77906334333858"><ele>2700</ele><time>2025-04-19T04:57:37Z</time></trkpt>
<trkpt lat="36.77274479663242" lon="137.77889091000557"><ele>2700</ele><time>2025-04-19T04:58:09Z</time></trkpt>
<trkpt lat="36.77267492919877" lon="137.77876470891746"><ele>2713</ele><time>2025-04-19T05:00:48Z</time></trkpt>
<trkpt lat="36.77282273968883" lon="137.77869533722748"><ele>2710</ele><time>2025-04-19T05:11:39Z</time></trkpt>
<trkpt lat="36.772910038522234" lon="137.7785605764869"><ele>2713</ele><time>2025-04-19T05:12:36Z</time></trkpt>
<trkpt lat="36.772932244200135" lon="137.77842951715368"><ele>2719</ele><time>2025-04-19T05:13:52Z</time></trkpt>
<trkpt lat="36.773009971634096" lon="137.7783244306127"><ele>2728</ele><time>2025-04-19T05:15:19Z</time></trkpt>
<trkpt lat="36.773080874695665" lon="137.7782306799426"><ele>2728</ele><time>2025-04-19T05:17:12Z</time></trkpt>
<trkpt lat="36.773132354495324" lon="137.77809715889921"><ele>2734</ele><time>2025-04-19T05:17:59Z</time></trkpt>
<trkpt lat="36.77321498430575" lon="137.777909237383"><ele>2737</ele><time>2025-04-19T05:18:54Z</time></trkpt>
<trkpt lat="36.77326735495593" lon="137.777688154435"><ele>2743</ele><time>2025-04-19T05:20:01Z</time></trkpt>
<trkpt lat="36.773312213568495" lon="137.77752470856785"><ele>2745</ele><time>2025-04-19T05:20:59Z</time></trkpt>
<trkpt lat="36.77336582023917" lon="137.7773129172067"><ele>2754</ele><time>2025-04-19T05:21:43Z</time></trkpt>
<trkpt lat="36.773430888588386" lon="137.77721218146402"><ele>2752</ele><time>2025-04-19T05:24:49Z</time></trkpt>
<trkpt lat="36.773387875937686" lon="137.77691760489094"><ele>2751</ele><time>2025-04-19T05:27:10Z</time></trkpt>
<trkpt lat="36.77333643682657" lon="137.77650786707622"><ele>2743</ele><time>2025-04-19T05:27:37Z</time></trkpt>
<trkpt lat="36.77307126273659" lon="137.7766425291997"><ele>2726</ele><time>2025-04-19T05:28:17Z</time></trkpt>
<trkpt lat="36.77273659188996" lon="137.7763135594833"><ele>2675</ele><time>2025-04-19T05:28:46Z</time></trkpt>
<trkpt lat="36.77230915288464" lon="137.77631141678356"><ele>2652</ele><time>2025-04-19T05:29:19Z</time></trkpt>
<trkpt lat="36.77233467213405" lon="137.77610204609823"><ele>2646</ele><time>2025-04-19T05:30:19Z</time></trkpt>
<trkpt lat="36.77187690420371" lon="137.77600663525143"><ele>2611</ele><time>2025-04-19T05:30:41Z</time></trkpt>
<trkpt lat="36.771362494094035" lon="137.77608149288835"><ele>2581</ele><time>2025-04-19T05:31:25Z</time></trkpt>
<trkpt lat="36.770894301038844" lon="137.77628303914523"><ele>2542</ele><time>2025-04-19T05:31:46Z</time></trkpt>
<trkpt lat="36.770791804770845" lon="137.77642108948783"><ele>2542</ele><time>2025-04-19T05:32:20Z</time></trkpt>
<trkpt lat="36.770205132631794" lon="137.7761416859099"><ele>2481</ele><time>2025-04-19T05:33:23Z</time></trkpt>
<trkpt lat="36.77021412826336" lon="137.77635131573248"><ele>2475</ele><time>2025-04-19T05:35:47Z</time></trkpt>
<trkpt lat="36.76994959108844" lon="137.77651771668866"><ele>2450</ele><time>2025-04-19T05:36:36Z</time></trkpt>
<trkpt lat="36.769765950641776" lon="137.77632738510505"><ele>2439</ele><time>2025-04-19T05:37:22Z</time></trkpt>
<trkpt lat="36.769515836720075" lon="137.77611097052943"><ele>2423</ele><time>2025-04-19T05:38:31Z</time></trkpt>
<trkpt lat="36.769268734513936" lon="137.776436301831"><ele>2390</ele><time>2025-04-19T05:38:53Z</time></trkpt>
<trkpt lat="36.769114661787135" lon="137.77646199423964"><ele>2376</ele><time>2025-04-19T05:39:28Z</time></trkpt>
<trkpt lat="36.76878462476017" lon="137.77659792244282"><ele>2348</ele><time>2025-04-19T05:39:53Z</time></trkpt>
<trkpt lat="36.768359383676845" lon="137.77667495905624"><ele>2312</ele><time>2025-04-19T05:40:31Z</time></trkpt>
<trkpt lat="36.768222673703846" lon="137.7764395600089"><ele>2308</ele><time>2025-04-19T05:40:55Z</time></trkpt>
<trkpt lat="36.768016232114505" lon="137.77659278618037"><ele>2294</ele><time>2025-04-19T05:41:31Z</time></trkpt>
<trkpt lat="36.76768030027717" lon="137.77656626925122"><ele>2262</ele><time>2025-04-19T05:42:12Z</time></trkpt>
<trkpt lat="36.767329761729364" lon="137.7766582358265"><ele>2232</ele><time>2025-04-19T05:42:46Z</time></trkpt>
<trkpt lat="36.76712488502237" lon="137.77679899876486"><ele>2224</ele><time>2025-04-19T05:43:14Z</time></trkpt>
<trkpt lat="36.76676326054859" lon="137.77663480590832"><ele>2195</ele><time>2025-04-19T05:43:37Z</time></trkpt>
<trkpt lat="36.766683148508214" lon="137.77679461759783"><ele>2189</ele><time>2025-04-19T05:44:06Z</time></trkpt>
<trkpt lat="36.7663904007997" lon="137.77684626298813"><ele>2170</ele><time>2025-04-19T05:44:29Z</time></trkpt>
<trkpt lat="36.76629080466147" lon="137.77699451286855"><ele>2148</ele><time>2025-04-19T05:45:22Z</time></trkpt>
<trkpt lat="36.76592779965105" lon="137.77698035532853"><ele>2114</ele><time>2025-04-19T05:46:05Z</time></trkpt>
<trkpt lat="36.765802299396306" lon="137.77713617678674"><ele>2095</ele><time>2025-04-19T05:46:55Z</time></trkpt>
<trkpt lat="36.765380338604146" lon="137.7770778056106"><ele>2066</ele><time>2025-04-19T05:47:19Z</time></trkpt>
<trkpt lat="36.76515638452308" lon="137.77721122663854"><ele>2076</ele><time>2025-04-19T05:48:00Z</time></trkpt>
<trkpt lat="36.76502590811089" lon="137.77732090464377"><ele>2040</ele><time>2025-04-19T05:48:26Z</time></trkpt>
<trkpt lat="36.764924678400604" lon="137.7774086042724"><ele>2020</ele><time>2025-04-19T05:49:39Z</time></trkpt>
<trkpt lat="36.76471816332493" lon="137.77751328558975"><ele>2011</ele><time>2025-04-19T05:50:12Z</time></trkpt>
<trkpt lat="36.764578900155875" lon="137.77765888144071"><ele>2006</ele><time>2025-04-19T05:50:39Z</time></trkpt>
<trkpt lat="36.764398355093704" lon="137.77757313704646"><ele>1999</ele><time>2025-04-19T05:51:48Z</time></trkpt>
<trkpt lat="36.76428131655786" lon="137.77781172771046"><ele>1994</ele><time>2025-04-19T05:53:04Z</time></trkpt>
<trkpt lat="36.76408677715767" lon="137.77790182549037"><ele>1982</ele><time>2025-04-19T05:53:48Z</time></trkpt>
<trkpt lat="36.764014812485044" lon="137.77802084639788"><ele>1983</ele><time>2025-04-19T05:54:51Z</time></trkpt>
<trkpt lat="36.7638635909394" lon="137.77800631843232"><ele>1972</ele><time>2025-04-19T05:55:26Z</time></trkpt>
<trkpt lat="36.76371879198364" lon="137.7779661820269"><ele>1968</ele><time>2025-04-19T05:56:29Z</time></trkpt>
<trkpt lat="36.763699664464774" lon="137.7780759731702"><ele>1960</ele><time>2025-04-19T05:57:02Z</time></trkpt>
<trkpt lat="36.76364451577459" lon="137.77827339305125"><ele>1951</ele><time>2025-04-19T05:57:55Z</time></trkpt>
<trkpt lat="36.763521403393234" lon="137.7782817779137"><ele>1941</ele><time>2025-04-19T05:59:08Z</time></trkpt>
<trkpt lat="36.76341889858529" lon="137.7786595809032"><ele>1929</ele><time>2025-04-19T06:00:35Z</time></trkpt>
<trkpt lat="36.76240616245469" lon="137.77924720144452"><ele>1874</ele><time>2025-04-19T06:00:56Z</time></trkpt>
<trkpt lat="36.76172280474469" lon="137.77922801796623"><ele>1831</ele><time>2025-04-19T06:01:33Z</time></trkpt>
<trkpt lat="36.76091360611999" lon="137.77843289156056"><ele>1797</ele><time>2025-04-19T06:02:53Z</time></trkpt>
<trkpt lat="36.7604443583267" lon="137.77796938764178"><ele>1794</ele><time>2025-04-19T06:03:26Z</time></trkpt>
<trkpt lat="36.75983034537421" lon="137.7781368452557"><ele>1776</ele><time>2025-04-19T06:03:49Z</time></trkpt>
<trkpt lat="36.758665922777475" lon="137.7794812177773"><ele>1722</ele><time>2025-04-19T06:09:18Z</time></trkpt>
<trkpt lat="36.75728413313932" lon="137.780541696321"><ele>1684</ele><time>2025-04-19T06:09:39Z</time></trkpt>
<trkpt lat="36.75625165031938" lon="137.7814511995516"><ele>1659</ele><time>2025-04-19T06:10:02Z</time></trkpt>
<trkpt lat="36.75541200926505" lon="137.78239724967887"><ele>1627</ele><time>2025-04-19T06:10:23Z</time></trkpt>
<trkpt lat="36.75465167160626" lon="137.7830429872655"><ele>1592</ele><time>2025-04-19T06:10:45Z</time></trkpt>
<trkpt lat="36.753261272531304" lon="137.7829351739192"><ele>1556</ele><time>2025-04-19T06:11:06Z</time></trkpt>
<trkpt lat="36.752491142746415" lon="137.78342559995863"><ele>1534</ele><time>2025-04-19T06:11:26Z</time></trkpt>
<trkpt lat="36.752213589100684" lon="137.78387795971065"><ele>1533</ele><time>2025-04-19T06:11:49Z</time></trkpt>
<trkpt lat="36.7520693175195" lon="137.78509641858625"><ele>1502</ele><time>2025-04-19T06:12:18Z</time></trkpt>
<trkpt lat="36.75165731584993" lon="137.7863745154699"><ele>1476</ele><time>2025-04-19T06:12:39Z</time></trkpt>
<trkpt lat="36.75115356198715" lon="137.78789416283936"><ele>1446</ele><time>2025-04-19T06:13:00Z</time></trkpt>
<trkpt lat="36.750936702929415" lon="137.7892902904619"><ele>1434</ele><time>2025-04-19T06:13:21Z</time></trkpt>
<trkpt lat="36.7504920276993" lon="137.79054306005065"><ele>1406</ele><time>2025-04-19T06:13:41Z</time></trkpt>
<trkpt lat="36.74961326210291" lon="137.79099806516"><ele>1392</ele><time>2025-04-19T06:14:03Z</time></trkpt>
<trkpt lat="36.74948607771286" lon="137.79107426854756"><ele>1390</ele><time>2025-04-19T06:14:34Z</time></trkpt>
<trkpt lat="36.749326971874595" lon="137.79103863626113"><ele>1390</ele><time>2025-04-19T06:15:17Z</time></trkpt>
<trkpt lat="36.74868268639402" lon="137.79087025279594"><ele>1384</ele><time>2025-04-19T06:16:34Z</time></trkpt>
<trkpt lat="36.748015296951166" lon="137.7911142719287"><ele>1377</ele><time>2025-04-19T06:16:57Z</time></trkpt>
<trkpt lat="36.74770373694432" lon="137.7914029743576"><ele>1376</ele><time>2025-04-19T06:17:25Z</time></trkpt>
<trkpt lat="36.74792044313319" lon="137.791687038881"><ele>1355</ele><time>2025-04-19T06:18:26Z</time></trkpt>
<trkpt lat="36.74794040778488" lon="137.79332512283418"><ele>1328</ele><time>2025-04-19T06:18:59Z</time></trkpt>
<trkpt lat="36.747773409658365" lon="137.79408330540534"><ele>1318</ele><time>2025-04-19T06:19:24Z</time></trkpt>
<trkpt lat="36.74771091244409" lon="137.79434610323727"><ele>1318</ele><time>2025-04-19T06:19:48Z</time></trkpt>
<trkpt lat="36.74813106437092" lon="137.79561502943594"><ele>1297</ele><time>2025-04-19T06:20:42Z</time></trkpt>
<trkpt lat="36.748120946297995" lon="137.79598029765035"><ele>1301</ele><time>2025-04-19T06:21:04Z</time></trkpt>
<trkpt lat="36.74798989443628" lon="137.7963472927221"><ele>1295</ele><time>2025-04-19T06:21:39Z</time></trkpt>
<trkpt lat="36.747906022203296" lon="137.79664658418847"><ele>1299</ele><time>2025-04-19T06:22:09Z</time></trkpt>
<trkpt lat="36.74772073818927" lon="137.79664625807143"><ele>1300</ele><time>2025-04-19T06:24:38Z</time></trkpt>
<trkpt lat="36.747630240098786" lon="137.7974425403011"><ele>1284</ele><time>2025-04-19T06:25:02Z</time></trkpt>
<trkpt lat="36.74759070970272" lon="137.79756772833824"><ele>1289</ele><time>2025-04-19T06:25:33Z</time></trkpt>
<trkpt lat="36.747526406545916" lon="137.79791809053262"><ele>1283</ele><time>2025-04-19T06:25:59Z</time></trkpt>
<trkpt lat="36.74744937288672" lon="137.79904351611728"><ele>1253</ele><time>2025-04-19T06:26:21Z</time></trkpt>
<trkpt lat="36.74735798367942" lon="137.79917464200128"><ele>1245</ele><time>2025-04-19T06:26:44Z</time></trkpt>
<trkpt lat="36.74726131230902" lon="137.79934884571003"><ele>1240</ele><time>2025-04-19T06:27:14Z</time></trkpt>
<trkpt lat="36.74711742863521" lon="137.79956466543345"><ele>1237</ele><time>2025-04-19T06:27:48Z</time></trkpt>
<trkpt lat="36.747047271466116" lon="137.79976703329908"><ele>1241</ele><time>2025-04-19T06:28:16Z</time></trkpt>
<trkpt lat="36.74696056810321" lon="137.80004411852903"><ele>1242</ele><time>2025-04-19T06:28:47Z</time></trkpt>
<trkpt lat="36.74679224751803" lon="137.80042796728006"><ele>1240</ele><time>2025-04-19T06:29:20Z</time></trkpt>
<trkpt lat="36.74663431353361" lon="137.8007253770874"><ele>1247</ele><time>2025-04-19T06:29:45Z</time></trkpt>
<trkpt lat="36.74639222767212" lon="137.80107352768422"><ele>1245</ele><time>2025-04-19T06:30:10Z</time></trkpt>
<trkpt lat="36.74628159165134" lon="137.80098109038093"><ele>1248</ele><time>2025-04-19T06:30:53Z</time></trkpt>
<trkpt lat="36.74588447551414" lon="137.80171278778587"><ele>1233</ele><time>2025-04-19T06:31:33Z</time></trkpt>
<trkpt lat="36.74526676367914" lon="137.80196552473075"><ele>1226</ele><time>2025-04-19T06:31:57Z</time></trkpt>
<trkpt lat="36.74475274606289" lon="137.80265063223916"><ele>1220</ele><time>2025-04-19T06:32:20Z</time></trkpt>
<trkpt lat="36.74444348168489" lon="137.8032752389728"><ele>1216</ele><time>2025-04-19T06:32:42Z</time></trkpt>
<trkpt lat="36.74415852873584" lon="137.80415045304838"><ele>1214</ele><time>2025-04-19T06:33:04Z</time></trkpt>
<trkpt lat="36.743658879071745" lon="137.80465664834384"><ele>1202</ele><time>2025-04-19T06:33:26Z</time></trkpt>
<trkpt lat="36.743955109048294" lon="137.80461593463158"><ele>1201</ele><time>2025-04-19T06:34:05Z</time></trkpt>
<trkpt lat="36.743940083134746" lon="137.80443660524213"><ele>1201</ele><time>2025-04-19T06:34:40Z</time></trkpt>
<trkpt lat="36.74405176478135" lon="137.80423133691284"><ele>1209</ele><time>2025-04-19T06:35:09Z</time></trkpt>
<trkpt lat="36.74399774588276" lon="137.80495454807172"><ele>1167</ele><time>2025-04-19T06:35:42Z</time></trkpt>
<trkpt lat="36.743876626907216" lon="137.80513035271733"><ele>1161</ele><time>2025-04-19T06:37:05Z</time></trkpt>
<trkpt lat="36.743730498763185" lon="137.80520225585917"><ele>1169</ele><time>2025-04-19T06:38:16Z</time></trkpt>
<trkpt lat="36.74382172484328" lon="137.8052942566581"><ele>1168</ele><time>2025-04-19T06:40:42Z</time></trkpt>
<trkpt lat="36.74385143309955" lon="137.8051606360467"><ele>1169</ele><time>2025-04-19T06:41:22Z</time></trkpt>
<trkpt lat="36.743760768676225" lon="137.80525464298054"><ele>1170</ele><time>2025-04-19T06:42:31Z</time></trkpt>
<trkpt lat="36.74376255447407" lon="137.80512362775474"><ele>1169</ele><time>2025-04-19T06:43:11Z</time></trkpt>
<trkpt lat="36.74394163268614" lon="137.80506940430786"><ele>1171</ele><time>2025-04-19T06:47:41Z</time></trkpt>
<trkpt lat="36.74377572121989" lon="137.80519752011412"><ele>1175</ele><time>2025-04-19T06:48:07Z</time></trkpt>
<trkpt lat="36.74350640234446" lon="137.80539187484607"><ele>1169</ele><time>2025-04-19T06:49:00Z</time></trkpt>
<trkpt lat="36.74309401199042" lon="137.80584401386199"><ele>1162</ele><time>2025-04-19T06:50:13Z</time></trkpt>
<trkpt lat="36.74273268511819" lon="137.80597511864363"><ele>1155</ele><time>2025-04-19T06:50:39Z</time></trkpt>
<trkpt lat="36.74244475364627" lon="137.80617139321248"><ele>1152</ele><time>2025-04-19T06:51:06Z</time></trkpt>
<trkpt lat="36.74215922767032" lon="137.80639134440486"><ele>1148</ele><time>2025-04-19T06:51:34Z</time></trkpt>
<trkpt lat="36.74186717154549" lon="137.80652469255955"><ele>1141</ele><time>2025-04-19T06:52:03Z</time></trkpt>
<trkpt lat="36.741576505616656" lon="137.80664909295868"><ele>1137</ele><time>2025-04-19T06:52:29Z</time></trkpt>
<trkpt lat="36.74137659993008" lon="137.80700847107636"><ele>1142</ele><time>2025-04-19T06:52:59Z</time></trkpt>
<trkpt lat="36.74124304893315" lon="137.80731392128013"><ele>1138</ele><time>2025-04-19T06:53:24Z</time></trkpt>
<trkpt lat="36.74099020014302" lon="137.80768089367558"><ele>1137</ele><time>2025-04-19T06:53:51Z</time></trkpt>
<trkpt lat="36.74079118141916" lon="137.80804246948858"><ele>1139</ele><time>2025-04-19T06:54:15Z</time></trkpt>
<trkpt lat="36.7406331249511" lon="137.80841206956538"><ele>1138</ele><time>2025-04-19T06:54:42Z</time></trkpt>
<trkpt lat="36.74053773599983" lon="137.8088319861008"><ele>1135</ele><time>2025-04-19T06:55:09Z</time></trkpt>
<trkpt lat="36.740427704644695" lon="137.8091177929739"><ele>1135</ele><time>2025-04-19T06:55:34Z</time></trkpt>
<trkpt lat="36.7403248198793" lon="137.80903997618242"><ele>1141</ele><time>2025-04-19T06:56:37Z</time></trkpt>
<trkpt lat="36.74030155914654" lon="137.80959168554978"><ele>1129</ele><time>2025-04-19T06:57:21Z</time></trkpt>
<trkpt lat="36.74028050891478" lon="137.80997446899642"><ele>1128</ele><time>2025-04-19T06:57:48Z</time></trkpt>
<trkpt lat="36.74037749437921" lon="137.81032624126968"><ele>1119</ele><time>2025-04-19T06:58:17Z</time></trkpt>
<trkpt lat="36.74033551835605" lon="137.81072130501101"><ele>1118</ele><time>2025-04-19T06:58:42Z</time></trkpt>
<trkpt lat="36.74032509267756" lon="137.81113300970446"><ele>1120</ele><time>2025-04-19T06:59:10Z</time></trkpt>
<trkpt lat="36.74025263476367" lon="137.81156677778623"><ele>1120</ele><time>2025-04-19T06:59:37Z</time></trkpt>
<trkpt lat="36.74038357681726" lon="137.8119300618506"><ele>1109</ele><time>2025-04-19T07:00:06Z</time></trkpt>
<trkpt lat="36.74029120198599" lon="137.81228966376784"><ele>1105</ele><time>2025-04-19T07:00:33Z</time></trkpt>
<trkpt lat="36.74035995862577" lon="137.81210282382295"><ele>1101</ele><time>2025-04-19T07:01:09Z</time></trkpt>
<trkpt lat="36.74026622258371" lon="137.81223345492026"><ele>1105</ele><time>2025-04-19T07:01:48Z</time></trkpt>
<trkpt lat="36.74010938087103" lon="137.81250935385378"><ele>1099</ele><time>2025-04-19T07:02:58Z</time></trkpt>
<trkpt lat="36.73978832876563" lon="137.81262142151377"><ele>1103</ele><time>2025-04-19T07:03:26Z</time></trkpt>
<trkpt lat="36.73984516566114" lon="137.81303910521385"><ele>1107</ele><time>2025-04-19T07:03:52Z</time></trkpt>
<trkpt lat="36.74020759177608" lon="137.8130160578039"><ele>1096</ele><time>2025-04-19T07:04:21Z</time></trkpt>
<trkpt lat="36.74022578902189" lon="137.81341788920133"><ele>1092</ele><time>2025-04-19T07:04:48Z</time></trkpt>
<trkpt lat="36.740118769454526" lon="137.81383268542794"><ele>1094</ele><time>2025-04-19T07:05:16Z</time></trkpt>
<trkpt lat="36.739952219411066" lon="137.81417866427384"><ele>1091</ele><time>2025-04-19T07:05:44Z</time></trkpt>
<trkpt lat="36.739971408186555" lon="137.81459105919737"><ele>1090</ele><time>2025-04-19T07:06:13Z</time></trkpt>
<trkpt lat="36.739873158805864" lon="137.8149472628871"><ele>1083</ele><time>2025-04-19T07:06:39Z</time></trkpt>
<trkpt lat="36.73966424405896" lon="137.81518404895525"><ele>1080</ele><time>2025-04-19T07:07:04Z</time></trkpt>
<trkpt lat="36.73957655966295" lon="137.81553816437858"><ele>1077</ele><time>2025-04-19T07:07:31Z</time></trkpt>
<trkpt lat="36.73958862796685" lon="137.81593336923052"><ele>1075</ele><time>2025-04-19T07:07:58Z</time></trkpt>
<trkpt lat="36.73951155501937" lon="137.81621800980474"><ele>1073</ele><time>2025-04-19T07:08:23Z</time></trkpt>
<trkpt lat="36.739458099918636" lon="137.81653475170987"><ele>1072</ele><time>2025-04-19T07:08:50Z</time></trkpt>
<trkpt lat="36.739578624271424" lon="137.81686908610627"><ele>1069</ele><time>2025-04-19T07:09:18Z</time></trkpt>
<trkpt lat="36.739926906652066" lon="137.81696229378898"><ele>1069</ele><time>2025-04-19T07:09:47Z</time></trkpt>
<trkpt lat="36.74018320337399" lon="137.81697674443149"><ele>1065</ele><time>2025-04-19T07:10:13Z</time></trkpt>
<trkpt lat="36.74050146579847" lon="137.81694844378558"><ele>1064</ele><time>2025-04-19T07:10:43Z</time></trkpt>
<trkpt lat="36.74038983912788" lon="137.81711586355027"><ele>1056</ele><time>2025-04-19T07:11:12Z</time></trkpt>
<trkpt lat="36.74023719148896" lon="137.81716779640624"><ele>1060</ele><time>2025-04-19T07:12:07Z</time></trkpt>
<trkpt lat="36.740059132718194" lon="137.81721730271093"><ele>1062</ele><time>2025-04-19T07:12:39Z</time></trkpt>
<trkpt lat="36.74006275622011" lon="137.8175231309064"><ele>1050</ele><time>2025-04-19T07:13:17Z</time></trkpt>
<trkpt lat="36.74034649379256" lon="137.8177855938439"><ele>1045</ele><time>2025-04-19T07:13:51Z</time></trkpt>
<trkpt lat="36.740449028581125" lon="137.81806417150057"><ele>1040</ele><time>2025-04-19T07:14:16Z</time></trkpt>
<trkpt lat="36.7400823350916" lon="137.81798232189917"><ele>1037</ele><time>2025-04-19T07:14:41Z</time></trkpt>
<trkpt lat="36.739866035340555" lon="137.81828938569672"><ele>1041</ele><time>2025-04-19T07:15:08Z</time></trkpt>
<trkpt lat="36.73970126382405" lon="137.81855937802487"><ele>1037</ele><time>2025-04-19T07:15:34Z</time></trkpt>
<trkpt lat="36.7396131864852" lon="137.81894586415328"><ele>1035</ele><time>2025-04-19T07:16:02Z</time></trkpt>
<trkpt lat="36.739660305093594" lon="137.8191607652786"><ele>1034</ele><time>2025-04-19T07:16:29Z</time></trkpt>
<trkpt lat="36.73961960188049" lon="137.81963527599441"><ele>1027</ele><time>2025-04-19T07:16:57Z</time></trkpt>
<trkpt lat="36.73947455897466" lon="137.81993531022184"><ele>1020</ele><time>2025-04-19T07:17:24Z</time></trkpt>
<trkpt lat="36.73921908961782" lon="137.82011478509676"><ele>1018</ele><time>2025-04-19T07:17:51Z</time></trkpt>
<trkpt lat="36.73894677616359" lon="137.8202570812784"><ele>1022</ele><time>2025-04-19T07:18:18Z</time></trkpt>
<trkpt lat="36.738735674488105" lon="137.82047395742524"><ele>1020</ele><time>2025-04-19T07:18:49Z</time></trkpt>
<trkpt lat="36.73854515676754" lon="137.82074743856117"><ele>1016</ele><time>2025-04-19T07:19:17Z</time></trkpt>
<trkpt lat="36.73829993235006" lon="137.82099950535044"><ele>1016</ele><time>2025-04-19T07:19:42Z</time></trkpt>
<trkpt lat="36.73803523155771" lon="137.82118620712427"><ele>1014</ele><time>2025-04-19T07:20:08Z</time></trkpt>
<trkpt lat="36.73791914211979" lon="137.82125346622135"><ele>1008</ele><time>2025-04-19T07:20:36Z</time></trkpt>
<trkpt lat="36.73764485685441" lon="137.82154398825853"><ele>1007</ele><time>2025-04-19T07:21:03Z</time></trkpt>
<trkpt lat="36.73740193851661" lon="137.82183456271665"><ele>1005</ele><time>2025-04-19T07:21:29Z</time></trkpt>
<trkpt lat="36.737247798274026" lon="137.82206882152036"><ele>995</ele><time>2025-04-19T07:21:56Z</time></trkpt>
<trkpt lat="36.7370455699146" lon="137.822394804146"><ele>996</ele><time>2025-04-19T07:22:22Z</time></trkpt>
<trkpt lat="36.736801918755475" lon="137.82250603668618"><ele>992</ele><time>2025-04-19T07:22:51Z</time></trkpt>
<trkpt lat="36.73648790645641" lon="137.82267416071582"><ele>988</ele><time>2025-04-19T07:23:22Z</time></trkpt>
<trkpt lat="36.73621411260322" lon="137.8229279785986"><ele>986</ele><time>2025-04-19T07:23:49Z</time></trkpt>
<trkpt lat="36.73599584308966" lon="137.8231816619583"><ele>983</ele><time>2025-04-19T07:24:15Z</time></trkpt>
<trkpt lat="36.73570032159808" lon="137.82339212103264"><ele>983</ele><time>2025-04-19T07:24:43Z</time></trkpt>
<trkpt lat="36.735435870763" lon="137.82360553707355"><ele>978</ele><time>2025-04-19T07:25:13Z</time></trkpt>
<trkpt lat="36.735189754860095" lon="137.82382434144589"><ele>975</ele><time>2025-04-19T07:25:39Z</time></trkpt>
<trkpt lat="36.73493687474285" lon="137.82405812777756"><ele>972</ele><time>2025-04-19T07:26:08Z</time></trkpt>
<trkpt lat="36.73468521840821" lon="137.82428656253563"><ele>975</ele><time>2025-04-19T07:26:34Z</time></trkpt>
<trkpt lat="36.73445251970306" lon="137.82455323073987"><ele>968</ele><time>2025-04-19T07:27:04Z</time></trkpt>
<trkpt lat="36.73415329964062" lon="137.82472881923925"><ele>969</ele><time>2025-04-19T07:27:32Z</time></trkpt>
<trkpt lat="36.733850073541966" lon="137.82490543202582"><ele>963</ele><time>2025-04-19T07:27:58Z</time></trkpt>
<trkpt lat="36.73383660609397" lon="137.82477530560695"><ele>963</ele><time>2025-04-19T07:34:02Z</time></trkpt>
<trkpt lat="36.73397462440011" lon="137.8248873911803"><ele>962</ele><time>2025-04-19T07:34:48Z</time></trkpt>
<trkpt lat="36.73366808653002" lon="137.82512956582187"><ele>961</ele><time>2025-04-19T07:35:25Z</time></trkpt>
<trkpt lat="36.733693167530824" lon="137.82527281138832"><ele>958</ele><time>2025-04-19T07:35:57Z</time></trkpt>
<trkpt lat="36.733786109397684" lon="137.8255875733149"><ele>954</ele><time>2025-04-19T07:36:22Z</time></trkpt>
<trkpt lat="36.73411782030395" lon="137.82597070614088"><ele>958</ele><time>2025-04-19T07:36:49Z</time></trkpt>
<trkpt lat="36.73433286801461" lon="137.82621543595778"><ele>953</ele><time>2025-04-19T07:37:15Z</time></trkpt>
<trkpt lat="36.73459289667669" lon="137.82643131465812"><ele>950</ele><time>2025-04-19T07:37:41Z</time></trkpt>
<trkpt lat="36.734869310735675" lon="137.82657350941912"><ele>949</ele><time>2025-04-19T07:38:06Z</time></trkpt>
<trkpt lat="36.73439323573648" lon="137.82653160347826"><ele>945</ele><time>2025-04-19T07:38:29Z</time></trkpt>
<trkpt lat="36.734105889777354" lon="137.82664978074658"><ele>943</ele><time>2025-04-19T07:38:57Z</time></trkpt>
<trkpt lat="36.733879014831956" lon="137.8264201111042"><ele>941</ele><time>2025-04-19T07:39:23Z</time></trkpt>
<trkpt lat="36.733710151465594" lon="137.82614188859415"><ele>941</ele><time>2025-04-19T07:39:58Z</time></trkpt>
<trkpt lat="36.733450307843015" lon="137.82589356816788"><ele>938</ele><time>2025-04-19T07:40:28Z</time></trkpt>
<trkpt lat="36.733200795881324" lon="137.82588007734498"><ele>938</ele><time>2025-04-19T07:40:58Z</time></trkpt>
<trkpt lat="36.73289543779579" lon="137.82584593090237"><ele>937</ele><time>2025-04-19T07:41:24Z</time></trkpt>
<trkpt lat="36.73260712249993" lon="137.8258916297531"><ele>933</ele><time>2025-04-19T07:41:48Z</time></trkpt>
<trkpt lat="36.73227654792933" lon="137.82591360556236"><ele>926</ele><time>2025-04-19T07:42:17Z</time></trkpt>
<trkpt lat="36.73205832698527" lon="137.82578667739705"><ele>923</ele><time>2025-04-19T07:42:44Z</time></trkpt>
<trkpt lat="36.7317799341017" lon="137.82575512447178"><ele>922</ele><time>2025-04-19T07:43:09Z</time></trkpt>
<trkpt lat="36.731521639980635" lon="137.82556755227577"><ele>920</ele><time>2025-04-19T07:43:37Z</time></trkpt>
<trkpt lat="36.731234239586406" lon="137.82538294040867"><ele>919</ele><time>2025-04-19T07:44:06Z</time></trkpt>
<trkpt lat="36.73099064845448" lon="137.82534173257417"><ele>919</ele><time>2025-04-19T07:44:36Z</time></trkpt>
<trkpt lat="36.73070834746428" lon="137.82540230909981"><ele>923</ele><time>2025-04-19T07:45:20Z</time></trkpt>
<trkpt lat="36.730480236977535" lon="137.82549331400858"><ele>923</ele><time>2025-04-19T07:45:46Z</time></trkpt>
<trkpt lat="36.73020750759366" lon="137.82557677036064"><ele>916</ele><time>2025-04-19T07:46:18Z</time></trkpt>
<trkpt lat="36.72999119780744" lon="137.8255871520576"><ele>909</ele><time>2025-04-19T07:46:49Z</time></trkpt>
<trkpt lat="36.72972380285217" lon="137.82542236584354"><ele>907</ele><time>2025-04-19T07:47:16Z</time></trkpt>
<trkpt lat="36.72945325203385" lon="137.82531710504946"><ele>903</ele><time>2025-04-19T07:47:45Z</time></trkpt>
<trkpt lat="36.72916505360825" lon="137.82515979139188"><ele>900</ele><time>2025-04-19T07:48:13Z</time></trkpt>
<trkpt lat="36.729011727489485" lon="137.82507559447066"><ele>901</ele><time>2025-04-19T07:48:42Z</time></trkpt>
<trkpt lat="36.728756968785945" lon="137.82510576306333"><ele>903</ele><time>2025-04-19T07:49:15Z</time></trkpt>
<trkpt lat="36.72851368021939" lon="137.82514455662272"><ele>906</ele><time>2025-04-19T07:49:45Z</time></trkpt>
<trkpt lat="36.72829957171132" lon="137.82509331725097"><ele>908</ele><time>2025-04-19T07:50:17Z</time></trkpt>
<trkpt lat="36.72798542871667" lon="137.82514013972343"><ele>904</ele><time>2025-04-19T07:50:54Z</time></trkpt>
<trkpt lat="36.72771549144274" lon="137.82507798314379"><ele>901</ele><time>2025-04-19T07:51:24Z</time></trkpt>
<trkpt lat="36.7274031716795" lon="137.8249797558249"><ele>906</ele><time>2025-04-19T07:51:52Z</time></trkpt>
<trkpt lat="36.7272357770935" lon="137.82488986516202"><ele>904</ele><time>2025-04-19T07:52:18Z</time></trkpt>
<trkpt lat="36.726916879309876" lon="137.82483465134712"><ele>900</ele><time>2025-04-19T07:52:46Z</time></trkpt>
<trkpt lat="36.72666676833022" lon="137.82489099644303"><ele>888</ele><time>2025-04-19T07:53:14Z</time></trkpt>
<trkpt lat="36.72639865750483" lon="137.82480672267152"><ele>886</ele><time>2025-04-19T07:53:40Z</time></trkpt>
<trkpt lat="36.726174620499066" lon="137.8245383742472"><ele>885</ele><time>2025-04-19T07:54:08Z</time></trkpt>
<trkpt lat="36.72600526990361" lon="137.82425183227053"><ele>886</ele><time>2025-04-19T07:54:36Z</time></trkpt>
<trkpt lat="36.725753403126774" lon="137.82409294764005"><ele>890</ele><time>2025-04-19T07:55:01Z</time></trkpt>
<trkpt lat="36.725448985610825" lon="137.82399058951088"><ele>887</ele><time>2025-04-19T07:55:29Z</time></trkpt>
<trkpt lat="36.72514763030556" lon="137.82396261395255"><ele>885</ele><time>2025-04-19T07:55:56Z</time></trkpt>
<trkpt lat="36.7248462338074" lon="137.82393600061428"><ele>880</ele><time>2025-04-19T07:56:23Z</time></trkpt>
<trkpt lat="36.724530021658495" lon="137.82386414287194"><ele>880</ele><time>2025-04-19T07:56:51Z</time></trkpt>
<trkpt lat="36.72423009242331" lon="137.82383909136118"><ele>884</ele><time>2025-04-19T07:57:24Z</time></trkpt>
<trkpt lat="36.723971635058135" lon="137.8238598342668"><ele>883</ele><time>2025-04-19T07:57:55Z</time></trkpt>
<trkpt lat="36.72371676701717" lon="137.82397857280125"><ele>884</ele><time>2025-04-19T07:58:25Z</time></trkpt>
<trkpt lat="36.72345888305956" lon="137.82405718114285"><ele>883</ele><time>2025-04-19T07:58:57Z</time></trkpt>
<trkpt lat="36.72321112117552" lon="137.82423295446637"><ele>885</ele><time>2025-04-19T07:59:28Z</time></trkpt>
<trkpt lat="36.72300574985955" lon="137.82444774167746"><ele>879</ele><time>2025-04-19T08:00:00Z</time></trkpt>
<trkpt lat="36.72270225643818" lon="137.82449973060457"><ele>878</ele><time>2025-04-19T08:00:30Z</time></trkpt>
<trkpt lat="36.72241140787316" lon="137.8245787170305"><ele>878</ele><time>2025-04-19T08:00:57Z</time></trkpt>
<trkpt lat="36.722151909747325" lon="137.8246510916861"><ele>873</ele><time>2025-04-19T08:01:24Z</time></trkpt>
<trkpt lat="36.72183768150248" lon="137.82480350898402"><ele>871</ele><time>2025-04-19T08:01:55Z</time></trkpt>
<trkpt lat="36.72154622172848" lon="137.82487114197735"><ele>869</ele><time>2025-04-19T08:02:24Z</time></trkpt>
<trkpt lat="36.721270592644174" lon="137.8250075876392"><ele>869</ele><time>2025-04-19T08:02:51Z</time></trkpt>
<trkpt lat="36.72121102648473" lon="137.82522728921984"><ele>857</ele><time>2025-04-19T08:03:20Z</time></trkpt>
<trkpt lat="36.72111112091455" lon="137.82556103614797"><ele>850</ele><time>2025-04-19T08:03:48Z</time></trkpt>
<trkpt lat="36.721026501" lon="137.82578611645445"><ele>847</ele><time>2025-04-19T08:04:14Z</time></trkpt>
<trkpt lat="36.721126480822846" lon="137.8256971400711"><ele>846</ele><time>2025-04-19T08:04:55Z</time></trkpt>
<trkpt lat="36.72087724477076" lon="137.82587917767836"><ele>845</ele><time>2025-04-19T08:05:41Z</time></trkpt>
<trkpt lat="36.72077124504128" lon="137.82586700235865"><ele>846</ele><time>2025-04-19T08:06:13Z</time></trkpt>
<trkpt lat="36.720490044020345" lon="137.82576813645537"><ele>851</ele><time>2025-04-19T08:06:41Z</time></trkpt>
<trkpt lat="36.720266720161" lon="137.82595444093843"><ele>843</ele><time>2025-04-19T08:07:06Z</time></trkpt>
<trkpt lat="36.720058733938124" lon="137.82616272813095"><ele>838</ele><time>2025-04-19T08:07:33Z</time></trkpt>
<trkpt lat="36.719821613156604" lon="137.82636883203008"><ele>838</ele><time>2025-04-19T08:08:00Z</time></trkpt>
<trkpt lat="36.71965491048385" lon="137.82648129273653"><ele>837</ele><time>2025-04-19T08:08:29Z</time></trkpt>
<trkpt lat="36.71944425169892" lon="137.8267013457348"><ele>842</ele><time>2025-04-19T08:09:37Z</time></trkpt>
<trkpt lat="36.71933246437018" lon="137.8270345599639"><ele>845</ele><time>2025-04-19T08:10:07Z</time></trkpt>
<trkpt lat="36.71932223420644" lon="137.8274508654005"><ele>846</ele><time>2025-04-19T08:10:33Z</time></trkpt>
<trkpt lat="36.719303453967306" lon="137.82783352993246"><ele>841</ele><time>2025-04-19T08:11:02Z</time></trkpt>
<trkpt lat="36.71907069892761" lon="137.8281471126853"><ele>840</ele><time>2025-04-19T08:11:30Z</time></trkpt>
<trkpt lat="36.718869132904175" lon="137.8284771263482"><ele>842</ele><time>2025-04-19T08:11:57Z</time></trkpt>
<trkpt lat="36.71875579537264" lon="137.82885499774872"><ele>844</ele><time>2025-04-19T08:12:23Z</time></trkpt>
<trkpt lat="36.718641420946064" lon="137.8291840548391"><ele>839</ele><time>2025-04-19T08:13:15Z</time></trkpt>
<trkpt lat="36.71853468999565" lon="137.82956022697357"><ele>838</ele><time>2025-04-19T08:13:44Z</time></trkpt>
<trkpt lat="36.71841700955715" lon="137.82990314584774"><ele>838</ele><time>2025-04-19T08:14:13Z</time></trkpt>
<trkpt lat="36.71822310121885" lon="137.83014296430463"><ele>840</ele><time>2025-04-19T08:14:41Z</time></trkpt>
<trkpt lat="36.717918748279736" lon="137.83031412135003"><ele>838</ele><time>2025-04-19T08:15:07Z</time></trkpt>
<trkpt lat="36.71765215524932" lon="137.83058083291004"><ele>838</ele><time>2025-04-19T08:15:32Z</time></trkpt>
<trkpt lat="36.71737663631315" lon="137.83074385471764"><ele>832</ele><time>2025-04-19T08:16:01Z</time></trkpt>
<trkpt lat="36.7171041406449" lon="137.83087392717542"><ele>831</ele><time>2025-04-19T08:16:30Z</time></trkpt>
<trkpt lat="36.71687756411537" lon="137.83105669387177"><ele>829</ele><time>2025-04-19T08:16:55Z</time></trkpt>
<trkpt lat="36.71661124199465" lon="137.8312647980086"><ele>828</ele><time>2025-04-19T08:17:22Z</time></trkpt>
<trkpt lat="36.7163716775834" lon="137.83157189195893"><ele>831</ele><time>2025-04-19T08:17:54Z</time></trkpt>
<trkpt lat="36.71617546139032" lon="137.8318315129185"><ele>830</ele><time>2025-04-19T08:18:18Z</time></trkpt>
<trkpt lat="36.7160713063213" lon="137.83215580553895"><ele>829</ele><time>2025-04-19T08:18:47Z</time></trkpt>
<trkpt lat="36.71597383739957" lon="137.83246970308684"><ele>828</ele><time>2025-04-19T08:19:13Z</time></trkpt>
<trkpt lat="36.7156868074271" lon="137.83263753667566"><ele>829</ele><time>2025-04-19T08:19:38Z</time></trkpt>
<trkpt lat="36.71549189726937" lon="137.8328948475641"><ele>824</ele><time>2025-04-19T08:20:06Z</time></trkpt>
<trkpt lat="36.71539516012634" lon="137.83326899355677"><ele>822</ele><time>2025-04-19T08:20:30Z</time></trkpt>
<trkpt lat="36.71526859044263" lon="137.8335526533558"><ele>823</ele><time>2025-04-19T08:20:54Z</time></trkpt>
<trkpt lat="36.7150701833626" lon="137.83382478235825"><ele>821</ele><time>2025-04-19T08:21:23Z</time></trkpt>
<trkpt lat="36.71488746724588" lon="137.83408776292478"><ele>822</ele><time>2025-04-19T08:21:51Z</time></trkpt>
<trkpt lat="36.71464796849698" lon="137.83431757330615"><ele>820</ele><time>2025-04-19T08:22:22Z</time></trkpt>
<trkpt lat="36.714431285439986" lon="137.83461321991268"><ele>816</ele><time>2025-04-19T08:22:49Z</time></trkpt>
<trkpt lat="36.714166066622845" lon="137.83484775509007"><ele>819</ele><time>2025-04-19T08:23:18Z</time></trkpt>
<trkpt lat="36.71395952234463" lon="137.83502184304476"><ele>816</ele><time>2025-04-19T08:23:43Z</time></trkpt>
<trkpt lat="36.71377418001752" lon="137.83528234775684"><ele>816</ele><time>2025-04-19T08:24:11Z</time></trkpt>
<trkpt lat="36.71361002630939" lon="137.83555189961976"><ele>811</ele><time>2025-04-19T08:24:42Z</time></trkpt>
<trkpt lat="36.71335772779914" lon="137.8357526852164"><ele>810</ele><time>2025-04-19T08:25:11Z</time></trkpt>
<trkpt lat="36.71313064811083" lon="137.83599140887745"><ele>809</ele><time>2025-04-19T08:25:43Z</time></trkpt>
<trkpt lat="36.71285631305611" lon="137.83611448763565"><ele>811</ele><time>2025-04-19T08:26:09Z</time></trkpt>
<trkpt lat="36.71259024434039" lon="137.8362253416022"><ele>806</ele><time>2025-04-19T08:26:38Z</time></trkpt>
<trkpt lat="36.712278596631414" lon="137.83635711113604"><ele>809</ele><time>2025-04-19T08:27:08Z</time></trkpt>
<trkpt lat="36.71197440299886" lon="137.83647198303942"><ele>812</ele><time>2025-04-19T08:27:40Z</time></trkpt>
<trkpt lat="36.71170969894713" lon="137.83659210103548"><ele>811</ele><time>2025-04-19T08:28:07Z</time></trkpt>
<trkpt lat="36.71150276489792" lon="137.83676751516305"><ele>807</ele><time>2025-04-19T08:28:38Z</time></trkpt>
<trkpt lat="36.71129444247397" lon="137.8370266774036"><ele>804</ele><time>2025-04-19T08:29:07Z</time></trkpt>
<trkpt lat="36.71107614961892" lon="137.83730343251332"><ele>802</ele><time>2025-04-19T08:29:36Z</time></trkpt>
<trkpt lat="36.710880815447005" lon="137.8375806963563"><ele>800</ele><time>2025-04-19T08:30:04Z</time></trkpt>
<trkpt lat="36.71068182484503" lon="137.83785310190245"><ele>798</ele><time>2025-04-19T08:30:33Z</time></trkpt>
<trkpt lat="36.710549007522616" lon="137.83805534661073"><ele>795</ele><time>2025-04-19T08:31:01Z</time></trkpt>
<trkpt lat="36.71035401101066" lon="137.83828865574694"><ele>796</ele><time>2025-04-19T08:31:29Z</time></trkpt>
<trkpt lat="36.71015134744018" lon="137.83856172868545"><ele>794</ele><time>2025-04-19T08:31:58Z</time></trkpt>
<trkpt lat="36.71004795006029" lon="137.83869663292643"><ele>794</ele><time>2025-04-19T08:32:25Z</time></trkpt>
<trkpt lat="36.70985084291527" lon="137.8389435649285"><ele>791</ele><time>2025-04-19T08:32:52Z</time></trkpt>
<trkpt lat="36.70964432810918" lon="137.8391693662043"><ele>792</ele><time>2025-04-19T08:33:20Z</time></trkpt>
<trkpt lat="36.709446164789966" lon="137.83939275171826"><ele>789</ele><time>2025-04-19T08:33:50Z</time></trkpt>
<trkpt lat="36.709236438609686" lon="137.83961581425933"><ele>789</ele><time>2025-04-19T08:34:18Z</time></trkpt>
<trkpt lat="36.70903712961527" lon="137.83982468249758"><ele>788</ele><time>2025-04-19T08:34:44Z</time></trkpt>
<trkpt lat="36.70890647137108" lon="137.84005300984148"><ele>784</ele><time>2025-04-19T08:35:12Z</time></trkpt>
<trkpt lat="36.7087525085444" lon="137.84025567934165"><ele>787</ele><time>2025-04-19T08:35:43Z</time></trkpt>
<trkpt lat="36.708581701016804" lon="137.84042120965137"><ele>787</ele><time>2025-04-19T08:36:11Z</time></trkpt>
<trkpt lat="36.7084456316173" lon="137.84049782024468"><ele>787</ele><time>2025-04-19T08:36:44Z</time></trkpt>
<trkpt lat="36.7083478722332" lon="137.8406783119339"><ele>789</ele><time>2025-04-19T08:37:24Z</time></trkpt>
<trkpt lat="36.70816058512263" lon="137.84085783807546"><ele>787</ele><time>2025-04-19T08:37:55Z</time></trkpt>
<trkpt lat="36.7079443159572" lon="137.8411272467367"><ele>787</ele><time>2025-04-19T08:38:23Z</time></trkpt>
<trkpt lat="36.70776656298296" lon="137.84135566132477"><ele>783</ele><time>2025-04-19T08:38:53Z</time></trkpt>
<trkpt lat="36.70754438308062" lon="137.84161611862575"><ele>781</ele><time>2025-04-19T08:39:23Z</time></trkpt>
<trkpt lat="36.707348378100065" lon="137.84181577680533"><ele>779</ele><time>2025-04-19T08:39:50Z</time></trkpt>
<trkpt lat="36.707168492671684" lon="137.84205735291948"><ele>779</ele><time>2025-04-19T08:40:18Z</time></trkpt>
<trkpt lat="36.70698755760237" lon="137.84228119453562"><ele>777</ele><time>2025-04-19T08:40:44Z</time></trkpt>
<trkpt lat="36.70676733097158" lon="137.84251285368245"><ele>778</ele><time>2025-04-19T08:41:13Z</time></trkpt>
<trkpt lat="36.70652020476733" lon="137.84268126387332"><ele>777</ele><time>2025-04-19T08:41:44Z</time></trkpt>
<trkpt lat="36.70640840506899" lon="137.8423683960294"><ele>782</ele><time>2025-04-19T08:42:12Z</time></trkpt>
<trkpt lat="36.70652663425859" lon="137.84204238748362"><ele>785</ele><time>2025-04-19T08:42:37Z</time></trkpt>
<trkpt lat="36.70676084359866" lon="137.84185788616173"><ele>792</ele><time>2025-04-19T08:43:08Z</time></trkpt>
<trkpt lat="36.706800709647176" lon="137.84159883409558"><ele>794</ele><time>2025-04-19T08:43:49Z</time></trkpt>
<trkpt lat="36.70691487761138" lon="137.8413633552656"><ele>790</ele><time>2025-04-19T08:44:16Z</time></trkpt>
<trkpt lat="36.70701096787868" lon="137.84109083887927"><ele>792</ele><time>2025-04-19T08:44:46Z</time></trkpt>
<trkpt lat="36.707111040599166" lon="137.84083658411706"><ele>799</ele><time>2025-04-19T08:45:12Z</time></trkpt>
<trkpt lat="36.706776876484284" lon="137.84090125848357"><ele>802</ele><time>2025-04-19T08:45:39Z</time></trkpt>
<trkpt lat="36.70653699840845" lon="137.84097971517298"><ele>801</ele><time>2025-04-19T08:46:07Z</time></trkpt>
<trkpt lat="36.70641248363871" lon="137.8411719723419"><ele>798</ele><time>2025-04-19T08:46:36Z</time></trkpt>
<trkpt lat="36.7062064892438" lon="137.84137078934373"><ele>796</ele><time>2025-04-19T08:47:03Z</time></trkpt>
<trkpt lat="36.70613378644118" lon="137.84110141069849"><ele>796</ele><time>2025-04-19T08:47:34Z</time></trkpt>
<trkpt lat="36.70606926086996" lon="137.84123190691494"><ele>792</ele><time>2025-04-19T08:49:51Z</time></trkpt>
<trkpt lat="36.70597401040421" lon="137.84137681014224"><ele>796</ele><time>2025-04-19T08:50:24Z</time></trkpt>
<trkpt lat="36.706060427677556" lon="137.84118715990374"><ele>791</ele><time>2025-04-19T08:51:12Z</time></trkpt>
</trkseg>
</trk>
</gpx>