<?xml version="1.0" encoding="UTF-8"?>
<gpx xmlns:xsi="http://www.w3.org/2001/XMLSchema-instance" xmlns="http://www.topografix.com/GPX/1/1" xsi:schemaLocation="http://www.topografix.com/GPX/1/1 http://www.topografix.com/GPX/1/1/gpx.xsd" creator="Yamareco iOS 7.26 - www.yamareco.com">
<trk><name>track</name><number>1</number><trkseg>
<trkpt lat="38.94185862102115" lon="140.8185747660851"><ele>850</ele><time>2025-03-22T00:47:41Z</time></trkpt>
<trkpt lat="38.94189340826465" lon="140.81832267023225"><ele>852</ele><time>2025-03-22T00:48:12Z</time></trkpt>
<trkpt lat="38.94210091214423" lon="140.81804091604238"><ele>856</ele><time>2025-03-22T00:49:57Z</time></trkpt>
<trkpt lat="38.942261875626805" lon="140.8177300172809"><ele>858</ele><time>2025-03-22T00:50:28Z</time></trkpt>
<trkpt lat="38.94247737070411" lon="140.8174431174304"><ele>866</ele><time>2025-03-22T00:50:55Z</time></trkpt>
<trkpt lat="38.942672278467825" lon="140.8171440645481"><ele>872</ele><time>2025-03-22T00:51:23Z</time></trkpt>
<trkpt lat="38.94286277786878" lon="140.8168089684582"><ele>872</ele><time>2025-03-22T00:51:51Z</time></trkpt>
<trkpt lat="38.94301162657992" lon="140.8165965814691"><ele>871</ele><time>2025-03-22T00:52:18Z</time></trkpt>
<trkpt lat="38.9428598417119" lon="140.81650610169405"><ele>872</ele><time>2025-03-22T00:52:53Z</time></trkpt>
<trkpt lat="38.94302602495326" lon="140.81645986073738"><ele>872</ele><time>2025-03-22T00:54:16Z</time></trkpt>
<trkpt lat="38.94329780895782" lon="140.816145860626"><ele>872</ele><time>2025-03-22T00:54:42Z</time></trkpt>
<trkpt lat="38.94347854419385" lon="140.8159757322033"><ele>882</ele><time>2025-03-22T00:55:09Z</time></trkpt>
<trkpt lat="38.94364304650775" lon="140.81581347842493"><ele>887</ele><time>2025-03-22T00:55:46Z</time></trkpt>
<trkpt lat="38.943569601877506" lon="140.81564129019682"><ele>881</ele><time>2025-03-22T00:56:41Z</time></trkpt>
<trkpt lat="38.94374894803175" lon="140.81545643979257"><ele>891</ele><time>2025-03-22T00:57:13Z</time></trkpt>
<trkpt lat="38.94392528085536" lon="140.81525006847733"><ele>898</ele><time>2025-03-22T00:57:46Z</time></trkpt>
<trkpt lat="38.94404451943033" lon="140.8151138326482"><ele>904</ele><time>2025-03-22T00:58:20Z</time></trkpt>
<trkpt lat="38.944191688796174" lon="140.81489938885173"><ele>910</ele><time>2025-03-22T00:58:52Z</time></trkpt>
<trkpt lat="38.94430779918646" lon="140.81475423915572"><ele>913</ele><time>2025-03-22T00:59:29Z</time></trkpt>
<trkpt lat="38.94440419143924" lon="140.81461217825978"><ele>918</ele><time>2025-03-22T01:00:12Z</time></trkpt>
<trkpt lat="38.944506197559065" lon="140.8145778507503"><ele>928</ele><time>2025-03-22T01:00:41Z</time></trkpt>
<trkpt lat="38.94453121967041" lon="140.81433210110595"><ele>930</ele><time>2025-03-22T01:01:31Z</time></trkpt>
<trkpt lat="38.94462725657224" lon="140.81409801865146"><ele>937</ele><time>2025-03-22T01:02:10Z</time></trkpt>
<trkpt lat="38.94473572106325" lon="140.8138572931315"><ele>941</ele><time>2025-03-22T01:02:54Z</time></trkpt>
<trkpt lat="38.944871749077095" lon="140.81367341119707"><ele>950</ele><time>2025-03-22T01:03:27Z</time></trkpt>
<trkpt lat="38.945040843232185" lon="140.8134634635645"><ele>952</ele><time>2025-03-22T01:04:26Z</time></trkpt>
<trkpt lat="38.94509555121261" lon="140.81328412558787"><ele>954</ele><time>2025-03-22T01:05:10Z</time></trkpt>
<trkpt lat="38.9452660483875" lon="140.81325374072665"><ele>960</ele><time>2025-03-22T01:07:39Z</time></trkpt>
<trkpt lat="38.94539213172057" lon="140.81311276667222"><ele>961</ele><time>2025-03-22T01:08:24Z</time></trkpt>
<trkpt lat="38.94545648704672" lon="140.812840535541"><ele>967</ele><time>2025-03-22T01:09:02Z</time></trkpt>
<trkpt lat="38.94552096399596" lon="140.81261081143913"><ele>974</ele><time>2025-03-22T01:10:04Z</time></trkpt>
<trkpt lat="38.94552246740844" lon="140.81231951358015"><ele>977</ele><time>2025-03-22T01:10:34Z</time></trkpt>
<trkpt lat="38.94544769800324" lon="140.81198258345415"><ele>981</ele><time>2025-03-22T01:11:09Z</time></trkpt>
<trkpt lat="38.945380091367994" lon="140.81172331769542"><ele>985</ele><time>2025-03-22T01:11:38Z</time></trkpt>
<trkpt lat="38.94537621203148" lon="140.81145401519433"><ele>987</ele><time>2025-03-22T01:12:06Z</time></trkpt>
<trkpt lat="38.94538554017424" lon="140.81131312031332"><ele>987</ele><time>2025-03-22T01:12:44Z</time></trkpt>
<trkpt lat="38.945421164433036" lon="140.8110390962623"><ele>992</ele><time>2025-03-22T01:13:16Z</time></trkpt>
<trkpt lat="38.94539763176418" lon="140.810762469917"><ele>997</ele><time>2025-03-22T01:13:52Z</time></trkpt>
<trkpt lat="38.94535764604331" lon="140.81052898381785"><ele>1003</ele><time>2025-03-22T01:14:29Z</time></trkpt>
<trkpt lat="38.94525266358901" lon="140.81032942129934"><ele>1011</ele><time>2025-03-22T01:15:13Z</time></trkpt>
<trkpt lat="38.94522177020753" lon="140.8101298362749"><ele>1016</ele><time>2025-03-22T01:15:50Z</time></trkpt>
<trkpt lat="38.945170403985465" lon="140.80993001665772"><ele>1022</ele><time>2025-03-22T01:16:26Z</time></trkpt>
<trkpt lat="38.945093382688384" lon="140.80973146638357"><ele>1028</ele><time>2025-03-22T01:17:03Z</time></trkpt>
<trkpt lat="38.94505502598587" lon="140.8094931922473"><ele>1034</ele><time>2025-03-22T01:17:42Z</time></trkpt>
<trkpt lat="38.94495454925284" lon="140.80924235586954"><ele>1039</ele><time>2025-03-22T01:18:21Z</time></trkpt>
<trkpt lat="38.9448193697027" lon="140.80904219183537"><ele>1050</ele><time>2025-03-22T01:18:56Z</time></trkpt>
<trkpt lat="38.94464625411372" lon="140.80891185907802"><ele>1053</ele><time>2025-03-22T01:19:32Z</time></trkpt>
<trkpt lat="38.944537677966636" lon="140.8087113143931"><ele>1055</ele><time>2025-03-22T01:20:02Z</time></trkpt>
<trkpt lat="38.94445789337659" lon="140.80846414397024"><ele>1060</ele><time>2025-03-22T01:20:35Z</time></trkpt>
<trkpt lat="38.94446781385328" lon="140.8081521260178"><ele>1063</ele><time>2025-03-22T01:22:12Z</time></trkpt>
<trkpt lat="38.944481515344926" lon="140.80784332974818"><ele>1066</ele><time>2025-03-22T01:22:45Z</time></trkpt>
<trkpt lat="38.944571031405225" lon="140.80763103718957"><ele>1075</ele><time>2025-03-22T01:23:34Z</time></trkpt>
<trkpt lat="38.94472255986252" lon="140.80735618282287"><ele>1074</ele><time>2025-03-22T01:24:02Z</time></trkpt>
<trkpt lat="38.94478157443433" lon="140.80708076550732"><ele>1079</ele><time>2025-03-22T01:24:34Z</time></trkpt>
<trkpt lat="38.94482857042109" lon="140.80688112979016"><ele>1081</ele><time>2025-03-22T01:25:19Z</time></trkpt>
<trkpt lat="38.94492026128766" lon="140.80668394055678"><ele>1088</ele><time>2025-03-22T01:25:49Z</time></trkpt>
<trkpt lat="38.94496944231832" lon="140.80655099706084"><ele>1089</ele><time>2025-03-22T01:26:22Z</time></trkpt>
<trkpt lat="38.9450069573496" lon="140.80622670737017"><ele>1095</ele><time>2025-03-22T01:27:30Z</time></trkpt>
<trkpt lat="38.944835638944774" lon="140.80599800730275"><ele>1101</ele><time>2025-03-22T01:28:12Z</time></trkpt>
<trkpt lat="38.94480776006041" lon="140.80578855482142"><ele>1107</ele><time>2025-03-22T01:28:47Z</time></trkpt>
<trkpt lat="38.94475915841911" lon="140.8055616492502"><ele>1112</ele><time>2025-03-22T01:29:22Z</time></trkpt>
<trkpt lat="38.944707048647096" lon="140.80522889358758"><ele>1117</ele><time>2025-03-22T01:29:52Z</time></trkpt>
<trkpt lat="38.94471828913294" lon="140.80490514593342"><ele>1119</ele><time>2025-03-22T01:30:24Z</time></trkpt>
<trkpt lat="38.94472146843622" lon="140.80474885256865"><ele>1118</ele><time>2025-03-22T01:30:57Z</time></trkpt>
<trkpt lat="38.94477095211941" lon="140.80445459196662"><ele>1122</ele><time>2025-03-22T01:31:27Z</time></trkpt>
<trkpt lat="38.94485831121311" lon="140.80422383648104"><ele>1127</ele><time>2025-03-22T01:31:56Z</time></trkpt>
<trkpt lat="38.94490927875659" lon="140.80392714547025"><ele>1131</ele><time>2025-03-22T01:32:29Z</time></trkpt>
<trkpt lat="38.9450905689079" lon="140.80372855083417"><ele>1136</ele><time>2025-03-22T01:40:29Z</time></trkpt>
<trkpt lat="38.94518532471897" lon="140.8035808673472"><ele>1139</ele><time>2025-03-22T01:42:33Z</time></trkpt>
<trkpt lat="38.94537126952374" lon="140.8034655289549"><ele>1141</ele><time>2025-03-22T01:43:03Z</time></trkpt>
<trkpt lat="38.94559126703604" lon="140.80337804697834"><ele>1145</ele><time>2025-03-22T01:43:34Z</time></trkpt>
<trkpt lat="38.94581679167367" lon="140.80324240064343"><ele>1148</ele><time>2025-03-22T01:44:06Z</time></trkpt>
<trkpt lat="38.94601325522939" lon="140.80313727784448"><ele>1155</ele><time>2025-03-22T01:44:36Z</time></trkpt>
<trkpt lat="38.94614819625884" lon="140.80292845362925"><ele>1159</ele><time>2025-03-22T01:45:08Z</time></trkpt>
<trkpt lat="38.946246373200594" lon="140.80269025797745"><ele>1163</ele><time>2025-03-22T01:45:43Z</time></trkpt>
<trkpt lat="38.94643670358072" lon="140.80251365803824"><ele>1166</ele><time>2025-03-22T01:46:17Z</time></trkpt>
<trkpt lat="38.946632733026185" lon="140.80241661572396"><ele>1171</ele><time>2025-03-22T01:46:47Z</time></trkpt>
<trkpt lat="38.94680687307924" lon="140.80231960330306"><ele>1174</ele><time>2025-03-22T01:47:20Z</time></trkpt>
<trkpt lat="38.946946220048446" lon="140.8021347258833"><ele>1177</ele><time>2025-03-22T01:47:58Z</time></trkpt>
<trkpt lat="38.947017217707376" lon="140.80197935031296"><ele>1181</ele><time>2025-03-22T01:48:33Z</time></trkpt>
<trkpt lat="38.94713112362996" lon="140.80178910543745"><ele>1186</ele><time>2025-03-22T01:49:08Z</time></trkpt>
<trkpt lat="38.947241266312844" lon="140.80161423560537"><ele>1190</ele><time>2025-03-22T01:49:48Z</time></trkpt>
<trkpt lat="38.94743604138648" lon="140.80134906470656"><ele>1195</ele><time>2025-03-22T01:50:30Z</time></trkpt>
<trkpt lat="38.947596496029306" lon="140.8011055408146"><ele>1200</ele><time>2025-03-22T01:51:00Z</time></trkpt>
<trkpt lat="38.94777043244503" lon="140.80091315490088"><ele>1204</ele><time>2025-03-22T01:51:33Z</time></trkpt>
<trkpt lat="38.94796395736288" lon="140.8007770897505"><ele>1209</ele><time>2025-03-22T01:52:04Z</time></trkpt>
<trkpt lat="38.94815604117757" lon="140.80070146119013"><ele>1213</ele><time>2025-03-22T01:52:37Z</time></trkpt>
<trkpt lat="38.94836892492272" lon="140.8006677280698"><ele>1219</ele><time>2025-03-22T01:53:12Z</time></trkpt>
<trkpt lat="38.94856594042953" lon="140.80064841046155"><ele>1223</ele><time>2025-03-22T01:53:40Z</time></trkpt>
<trkpt lat="38.948745975526485" lon="140.80059331640732"><ele>1225</ele><time>2025-03-22T01:54:20Z</time></trkpt>
<trkpt lat="38.94876265904529" lon="140.80031612196194"><ele>1232</ele><time>2025-03-22T02:01:10Z</time></trkpt>
<trkpt lat="38.94895960674481" lon="140.800205739502"><ele>1237</ele><time>2025-03-22T02:01:45Z</time></trkpt>
<trkpt lat="38.94920412905838" lon="140.800116212137"><ele>1244</ele><time>2025-03-22T02:02:27Z</time></trkpt>
<trkpt lat="38.94944260677522" lon="140.80007066347642"><ele>1250</ele><time>2025-03-22T02:02:59Z</time></trkpt>
<trkpt lat="38.94957619266991" lon="140.79984190952197"><ele>1256</ele><time>2025-03-22T02:03:33Z</time></trkpt>
<trkpt lat="38.949771497401265" lon="140.79972856758823"><ele>1260</ele><time>2025-03-22T02:04:07Z</time></trkpt>
<trkpt lat="38.9499439725137" lon="140.79964852325404"><ele>1264</ele><time>2025-03-22T02:04:41Z</time></trkpt>
<trkpt lat="38.9500874840326" lon="140.79943232003868"><ele>1268</ele><time>2025-03-22T02:05:19Z</time></trkpt>
<trkpt lat="38.950188356221275" lon="140.7992349503351"><ele>1274</ele><time>2025-03-22T02:06:09Z</time></trkpt>
<trkpt lat="38.950409881071636" lon="140.79909372022"><ele>1281</ele><time>2025-03-22T02:10:47Z</time></trkpt>
<trkpt lat="38.950677400613586" lon="140.799048925544"><ele>1287</ele><time>2025-03-22T02:11:14Z</time></trkpt>
<trkpt lat="38.95090749230943" lon="140.79895303132184"><ele>1293</ele><time>2025-03-22T02:11:45Z</time></trkpt>
<trkpt lat="38.95108751176367" lon="140.79871306595106"><ele>1299</ele><time>2025-03-22T02:12:17Z</time></trkpt>
<trkpt lat="38.95126112163444" lon="140.7985013619331"><ele>1303</ele><time>2025-03-22T02:12:52Z</time></trkpt>
<trkpt lat="38.95138611984945" lon="140.79833525552516"><ele>1307</ele><time>2025-03-22T02:13:22Z</time></trkpt>
<trkpt lat="38.95154195701835" lon="140.79817674065615"><ele>1310</ele><time>2025-03-22T02:13:53Z</time></trkpt>
<trkpt lat="38.951778005663634" lon="140.79820048516794"><ele>1317</ele><time>2025-03-22T02:14:26Z</time></trkpt>
<trkpt lat="38.95184619711242" lon="140.7978899408715"><ele>1321</ele><time>2025-03-22T02:14:59Z</time></trkpt>
<trkpt lat="38.95208743013713" lon="140.79787390596329"><ele>1327</ele><time>2025-03-22T02:15:59Z</time></trkpt>
<trkpt lat="38.95224962348291" lon="140.7977679654815"><ele>1331</ele><time>2025-03-22T02:16:31Z</time></trkpt>
<trkpt lat="38.95240543984321" lon="140.7976214379062"><ele>1337</ele><time>2025-03-22T02:17:01Z</time></trkpt>
<trkpt lat="38.952589116603946" lon="140.79750568926204"><ele>1343</ele><time>2025-03-22T02:17:42Z</time></trkpt>
<trkpt lat="38.952781853799344" lon="140.79735194041191"><ele>1345</ele><time>2025-03-22T02:18:18Z</time></trkpt>
<trkpt lat="38.95295845842958" lon="140.79719366146256"><ele>1349</ele><time>2025-03-22T02:18:53Z</time></trkpt>
<trkpt lat="38.95315711305706" lon="140.79705108182168"><ele>1353</ele><time>2025-03-22T02:19:27Z</time></trkpt>
<trkpt lat="38.95332020308897" lon="140.79689040291217"><ele>1358</ele><time>2025-03-22T02:19:56Z</time></trkpt>
<trkpt lat="38.953461690462525" lon="140.79669531906683"><ele>1362</ele><time>2025-03-22T02:20:32Z</time></trkpt>
<trkpt lat="38.95362273147085" lon="140.79657851016924"><ele>1366</ele><time>2025-03-22T02:21:05Z</time></trkpt>
<trkpt lat="38.95381649900997" lon="140.79650190984134"><ele>1368</ele><time>2025-03-22T02:22:21Z</time></trkpt>
<trkpt lat="38.9540865840944" lon="140.79640899198654"><ele>1372</ele><time>2025-03-22T02:22:58Z</time></trkpt>
<trkpt lat="38.95429283946775" lon="140.79622668785393"><ele>1374</ele><time>2025-03-22T02:23:27Z</time></trkpt>
<trkpt lat="38.954413184527276" lon="140.79593396346223"><ele>1379</ele><time>2025-03-22T02:23:58Z</time></trkpt>
<trkpt lat="38.95452954104189" lon="140.79562385283097"><ele>1380</ele><time>2025-03-22T02:24:27Z</time></trkpt>
<trkpt lat="38.95467582071546" lon="140.79534401626867"><ele>1383</ele><time>2025-03-22T02:24:57Z</time></trkpt>
<trkpt lat="38.95480982635439" lon="140.7952158721612"><ele>1385</ele><time>2025-03-22T02:25:48Z</time></trkpt>
<trkpt lat="38.9549682929777" lon="140.79515590790217"><ele>1385</ele><time>2025-03-22T02:26:26Z</time></trkpt>
<trkpt lat="38.955147990002246" lon="140.79523915110977"><ele>1388</ele><time>2025-03-22T02:26:50Z</time></trkpt>
<trkpt lat="38.955183620125744" lon="140.79509491544908"><ele>1390</ele><time>2025-03-22T02:27:44Z</time></trkpt>
<trkpt lat="38.95518214835777" lon="140.7948121400794"><ele>1394</ele><time>2025-03-22T02:28:19Z</time></trkpt>
<trkpt lat="38.95532666747341" lon="140.79472790155847"><ele>1397</ele><time>2025-03-22T02:29:12Z</time></trkpt>
<trkpt lat="38.95544731912675" lon="140.79475260877868"><ele>1400</ele><time>2025-03-22T02:32:38Z</time></trkpt>
<trkpt lat="38.95547548627367" lon="140.79489925920527"><ele>1400</ele><time>2025-03-22T02:45:58Z</time></trkpt>
<trkpt lat="38.95571336779304" lon="140.79482782570636"><ele>1401</ele><time>2025-03-22T02:48:20Z</time></trkpt>
<trkpt lat="38.95594810631607" lon="140.794813402071"><ele>1408</ele><time>2025-03-22T02:48:54Z</time></trkpt>
<trkpt lat="38.95613932547639" lon="140.79473867035097"><ele>1410</ele><time>2025-03-22T02:49:26Z</time></trkpt>
<trkpt lat="38.95636553981793" lon="140.79467285183443"><ele>1415</ele><time>2025-03-22T02:50:01Z</time></trkpt>
<trkpt lat="38.956551046197085" lon="140.79454809452199"><ele>1418</ele><time>2025-03-22T02:50:40Z</time></trkpt>
<trkpt lat="38.95673103150349" lon="140.79447453332978"><ele>1421</ele><time>2025-03-22T02:51:19Z</time></trkpt>
<trkpt lat="38.956938999694025" lon="140.79442248385928"><ele>1426</ele><time>2025-03-22T02:51:55Z</time></trkpt>
<trkpt lat="38.95712574898471" lon="140.7943789568848"><ele>1432</ele><time>2025-03-22T02:52:27Z</time></trkpt>
<trkpt lat="38.95732796384772" lon="140.7943040603188"><ele>1436</ele><time>2025-03-22T02:53:02Z</time></trkpt>
<trkpt lat="38.95751018880325" lon="140.79430628578842"><ele>1440</ele><time>2025-03-22T02:53:38Z</time></trkpt>
<trkpt lat="38.957708194819794" lon="140.79417662818918"><ele>1444</ele><time>2025-03-22T02:54:19Z</time></trkpt>
<trkpt lat="38.95788718729277" lon="140.79403351898134"><ele>1448</ele><time>2025-03-22T02:54:57Z</time></trkpt>
<trkpt lat="38.958061052025585" lon="140.7939060825077"><ele>1455</ele><time>2025-03-22T02:55:29Z</time></trkpt>
<trkpt lat="38.958240257003375" lon="140.7937611286686"><ele>1461</ele><time>2025-03-22T02:56:05Z</time></trkpt>
<trkpt lat="38.95840949703467" lon="140.7936058460919"><ele>1465</ele><time>2025-03-22T02:56:43Z</time></trkpt>
<trkpt lat="38.95862217378761" lon="140.7934507308171"><ele>1473</ele><time>2025-03-22T02:57:45Z</time></trkpt>
<trkpt lat="38.95875863703899" lon="140.79332069648737"><ele>1474</ele><time>2025-03-22T02:58:26Z</time></trkpt>
<trkpt lat="38.958900218013994" lon="140.79315300137418"><ele>1480</ele><time>2025-03-22T02:59:02Z</time></trkpt>
<trkpt lat="38.95909326819209" lon="140.79298472397377"><ele>1485</ele><time>2025-03-22T02:59:42Z</time></trkpt>
<trkpt lat="38.959274011903986" lon="140.79285480205303"><ele>1493</ele><time>2025-03-22T03:00:20Z</time></trkpt>
<trkpt lat="38.959436090749726" lon="140.79269456792937"><ele>1498</ele><time>2025-03-22T03:01:22Z</time></trkpt>
<trkpt lat="38.95953564943202" lon="140.7925920858933"><ele>1504</ele><time>2025-03-22T03:02:10Z</time></trkpt>
<trkpt lat="38.959696396606276" lon="140.79245800269157"><ele>1509</ele><time>2025-03-22T03:02:44Z</time></trkpt>
<trkpt lat="38.95986711748115" lon="140.7923586446271"><ele>1516</ele><time>2025-03-22T03:03:33Z</time></trkpt>
<trkpt lat="38.96004187114305" lon="140.79223793060683"><ele>1520</ele><time>2025-03-22T03:04:08Z</time></trkpt>
<trkpt lat="38.96015158660435" lon="140.79205987878493"><ele>1526</ele><time>2025-03-22T03:04:51Z</time></trkpt>
<trkpt lat="38.96032026179279" lon="140.79190418406708"><ele>1532</ele><time>2025-03-22T03:05:28Z</time></trkpt>
<trkpt lat="38.96043052567602" lon="140.79174685088194"><ele>1538</ele><time>2025-03-22T03:06:05Z</time></trkpt>
<trkpt lat="38.960513342303116" lon="140.79160394637267"><ele>1542</ele><time>2025-03-22T03:06:54Z</time></trkpt>
<trkpt lat="38.96065103952451" lon="140.79141529665338"><ele>1550</ele><time>2025-03-22T03:07:42Z</time></trkpt>
<trkpt lat="38.960756545981795" lon="140.79122112151217"><ele>1559</ele><time>2025-03-22T03:08:26Z</time></trkpt>
<trkpt lat="38.96085603903515" lon="140.79101805208742"><ele>1569</ele><time>2025-03-22T03:09:05Z</time></trkpt>
<trkpt lat="38.960931283609575" lon="140.7908235315239"><ele>1573</ele><time>2025-03-22T03:09:47Z</time></trkpt>
<trkpt lat="38.960992132991265" lon="140.7905794729934"><ele>1578</ele><time>2025-03-22T03:10:38Z</time></trkpt>
<trkpt lat="38.961021385836865" lon="140.79029853387524"><ele>1584</ele><time>2025-03-22T03:11:13Z</time></trkpt>
<trkpt lat="38.96105191412133" lon="140.7900454425155"><ele>1594</ele><time>2025-03-22T03:11:49Z</time></trkpt>
<trkpt lat="38.96104705429376" lon="140.78982870216552"><ele>1600</ele><time>2025-03-22T03:12:26Z</time></trkpt>
<trkpt lat="38.96105070063221" lon="140.78961684264567"><ele>1604</ele><time>2025-03-22T03:13:09Z</time></trkpt>
<trkpt lat="38.96103030465567" lon="140.78948332203728"><ele>1604</ele><time>2025-03-22T03:14:06Z</time></trkpt>
<trkpt lat="38.96101222316817" lon="140.78920847945545"><ele>1613</ele><time>2025-03-22T03:14:52Z</time></trkpt>
<trkpt lat="38.96098313782099" lon="140.78898530275518"><ele>1618</ele><time>2025-03-22T03:15:31Z</time></trkpt>
<trkpt lat="38.96093170385828" lon="140.78870626285183"><ele>1624</ele><time>2025-03-22T03:16:05Z</time></trkpt>
<trkpt lat="38.96090789402312" lon="140.78851060243085"><ele>1626</ele><time>2025-03-22T03:17:24Z</time></trkpt>
<trkpt lat="38.961010446562916" lon="140.78820756720887"><ele>1625</ele><time>2025-03-22T03:29:04Z</time></trkpt>
<trkpt lat="38.961036333066524" lon="140.7879812476752"><ele>1629</ele><time>2025-03-22T03:29:51Z</time></trkpt>
<trkpt lat="38.96102180558658" lon="140.78819866499052"><ele>1632</ele><time>2025-03-22T03:30:21Z</time></trkpt>
<trkpt lat="38.96096009785732" lon="140.78845382745746"><ele>1632</ele><time>2025-03-22T03:31:00Z</time></trkpt>
<trkpt lat="38.96094337902885" lon="140.78864866133014"><ele>1631</ele><time>2025-03-22T03:32:38Z</time></trkpt>
<trkpt lat="38.960907026180934" lon="140.78852843448377"><ele>1633</ele><time>2025-03-22T03:37:39Z</time></trkpt>
<trkpt lat="38.9609821277982" lon="140.78803199858075"><ele>1630</ele><time>2025-03-22T03:54:11Z</time></trkpt>
<trkpt lat="38.96094698798307" lon="140.78790779505258"><ele>1629</ele><time>2025-03-22T03:56:28Z</time></trkpt>
<trkpt lat="38.96092815612178" lon="140.78836458445622"><ele>1630</ele><time>2025-03-22T03:57:04Z</time></trkpt>
<trkpt lat="38.96086376950297" lon="140.7885230883367"><ele>1630</ele><time>2025-03-22T03:57:38Z</time></trkpt>
<trkpt lat="38.961029499355384" lon="140.78890970025165"><ele>1624</ele><time>2025-03-22T04:01:40Z</time></trkpt>
<trkpt lat="38.96124955156329" lon="140.78957284785685"><ele>1603</ele><time>2025-03-22T04:02:03Z</time></trkpt>
<trkpt lat="38.96132361737787" lon="140.79072867431398"><ele>1568</ele><time>2025-03-22T04:02:34Z</time></trkpt>
<trkpt lat="38.96096988540486" lon="140.79133751695983"><ele>1556</ele><time>2025-03-22T04:03:14Z</time></trkpt>
<trkpt lat="38.96024809134454" lon="140.79315573618194"><ele>1500</ele><time>2025-03-22T04:03:35Z</time></trkpt>
<trkpt lat="38.95958153513018" lon="140.79400743586092"><ele>1477</ele><time>2025-03-22T04:03:57Z</time></trkpt>
<trkpt lat="38.9589436102097" lon="140.7942779157269"><ele>1467</ele><time>2025-03-22T04:04:21Z</time></trkpt>
<trkpt lat="38.95818387626287" lon="140.7945557103284"><ele>1454</ele><time>2025-03-22T04:04:44Z</time></trkpt>
<trkpt lat="38.95761607745696" lon="140.79443623898504"><ele>1447</ele><time>2025-03-22T04:05:08Z</time></trkpt>
<trkpt lat="38.95685637700635" lon="140.79438764301142"><ele>1432</ele><time>2025-03-22T04:05:31Z</time></trkpt>
<trkpt lat="38.95615681053019" lon="140.79446345015933"><ele>1421</ele><time>2025-03-22T04:05:54Z</time></trkpt>
<trkpt lat="38.95539397064048" lon="140.79450031404642"><ele>1406</ele><time>2025-03-22T04:06:18Z</time></trkpt>
<trkpt lat="38.95484930700123" lon="140.79484324642777"><ele>1397</ele><time>2025-03-22T04:06:40Z</time></trkpt>
<trkpt lat="38.95452788923847" lon="140.79558755746947"><ele>1386</ele><time>2025-03-22T04:07:05Z</time></trkpt>
<trkpt lat="38.95435731537923" lon="140.79611524763538"><ele>1382</ele><time>2025-03-22T04:07:28Z</time></trkpt>
<trkpt lat="38.953831417119844" lon="140.79647792180901"><ele>1374</ele><time>2025-03-22T04:07:52Z</time></trkpt>
<trkpt lat="38.95306456006977" lon="140.79704992379817"><ele>1357</ele><time>2025-03-22T04:08:13Z</time></trkpt>
<trkpt lat="38.9523039205572" lon="140.79768718267047"><ele>1338</ele><time>2025-03-22T04:08:35Z</time></trkpt>
<trkpt lat="38.951442103779065" lon="140.79836718051774"><ele>1307</ele><time>2025-03-22T04:08:56Z</time></trkpt>
<trkpt lat="38.95078800905497" lon="140.79882445176497"><ele>1292</ele><time>2025-03-22T04:09:17Z</time></trkpt>
<trkpt lat="38.950001140067506" lon="140.79947088251444"><ele>1267</ele><time>2025-03-22T04:09:38Z</time></trkpt>
<trkpt lat="38.94905443978819" lon="140.79995125905845"><ele>1241</ele><time>2025-03-22T04:09:59Z</time></trkpt>
<trkpt lat="38.94804532029081" lon="140.80036936565065"><ele>1216</ele><time>2025-03-22T04:10:20Z</time></trkpt>
<trkpt lat="38.94736145544633" lon="140.80093104751643"><ele>1201</ele><time>2025-03-22T04:10:42Z</time></trkpt>
<trkpt lat="38.94694380912633" lon="140.80122309840095"><ele>1194</ele><time>2025-03-22T04:11:27Z</time></trkpt>
<trkpt lat="38.94614885955892" lon="140.80215589214663"><ele>1164</ele><time>2025-03-22T04:11:48Z</time></trkpt>
<trkpt lat="38.94564993348763" lon="140.802788830561"><ele>1154</ele><time>2025-03-22T04:12:09Z</time></trkpt>
<trkpt lat="38.945062353887664" lon="140.80376527703274"><ele>1136</ele><time>2025-03-22T04:12:32Z</time></trkpt>
<trkpt lat="38.9447502032426" lon="140.80462896576532"><ele>1122</ele><time>2025-03-22T04:12:59Z</time></trkpt>
<trkpt lat="38.9446684855211" lon="140.80535278815552"><ele>1114</ele><time>2025-03-22T04:13:24Z</time></trkpt>
<trkpt lat="38.944725366314614" lon="140.80559948165745"><ele>1114</ele><time>2025-03-22T04:13:56Z</time></trkpt>
<trkpt lat="38.944917258580745" lon="140.8065325321161"><ele>1094</ele><time>2025-03-22T04:14:31Z</time></trkpt>
<trkpt lat="38.944494894218636" lon="140.80759479046776"><ele>1074</ele><time>2025-03-22T04:14:58Z</time></trkpt>
<trkpt lat="38.94438172573635" lon="140.8085052003311"><ele>1062</ele><time>2025-03-22T04:15:21Z</time></trkpt>
<trkpt lat="38.94416746911533" lon="140.8095571324938"><ele>1038</ele><time>2025-03-22T04:15:42Z</time></trkpt>
<trkpt lat="38.944350915102376" lon="140.81025003871196"><ele>1022</ele><time>2025-03-22T04:16:04Z</time></trkpt>
<trkpt lat="38.94501765743126" lon="140.81077428827788"><ele>1005</ele><time>2025-03-22T04:16:42Z</time></trkpt>
<trkpt lat="38.94520074015021" lon="140.8108776731736"><ele>1002</ele><time>2025-03-22T04:17:03Z</time></trkpt>
<trkpt lat="38.94533975443157" lon="140.81139127192662"><ele>989</ele><time>2025-03-22T04:17:37Z</time></trkpt>
<trkpt lat="38.94533219255655" lon="140.81231568159345"><ele>978</ele><time>2025-03-22T04:18:02Z</time></trkpt>
<trkpt lat="38.94532910672321" lon="140.813102851588"><ele>961</ele><time>2025-03-22T04:18:24Z</time></trkpt>
<trkpt lat="38.94517025736952" lon="140.81370527275448"><ele>944</ele><time>2025-03-22T04:18:51Z</time></trkpt>
<trkpt lat="38.94465396009328" lon="140.81442719637636"><ele>922</ele><time>2025-03-22T04:19:12Z</time></trkpt>
<trkpt lat="38.94410403999222" lon="140.81498024510282"><ele>910</ele><time>2025-03-22T04:19:34Z</time></trkpt>
<trkpt lat="38.94361073400388" lon="140.8154582534567"><ele>896</ele><time>2025-03-22T04:19:58Z</time></trkpt>
<trkpt lat="38.943142688230026" lon="140.8161688819384"><ele>877</ele><time>2025-03-22T04:20:21Z</time></trkpt>
<trkpt lat="38.94290094822465" lon="140.81639868811305"><ele>881</ele><time>2025-03-22T04:20:44Z</time></trkpt>
<trkpt lat="38.94265702196217" lon="140.816849108554"><ele>873</ele><time>2025-03-22T04:21:09Z</time></trkpt>
<trkpt lat="38.94224592025555" lon="140.81750357137574"><ele>860</ele><time>2025-03-22T04:21:38Z</time></trkpt>
<trkpt lat="38.941889304482096" lon="140.81822090676954"><ele>854</ele><time>2025-03-22T04:22:04Z</time></trkpt>
<trkpt lat="38.94182567589787" lon="140.81869943396288"><ele>849</ele><time>2025-03-22T04:22:28Z</time></trkpt>
<trkpt lat="38.941777408265565" lon="140.81949555977397"><ele>844</ele><time>2025-03-22T04:22:52Z</time></trkpt>
<trkpt lat="38.94195322809168" lon="140.81962189083748"><ele>843</ele><time>2025-03-22T04:24:26Z</time></trkpt>
<trkpt lat="38.94202920306308" lon="140.81964893866228"><ele>843</ele><time>2025-03-22T04:28:38Z</time></trkpt>
</trkseg>
</trk>
</gpx>