<?xml version="1.0" encoding="UTF-8"?>
<gpx xmlns:xsi="http://www.w3.org/2001/XMLSchema-instance" xmlns="http://www.topografix.com/GPX/1/1" xsi:schemaLocation="http://www.topografix.com/GPX/1/1 http://www.topografix.com/GPX/1/1/gpx.xsd" creator="Yamareco iOS 7.27 - www.yamareco.com">
<trk><name>track</name><number>1</number><trkseg>
<trkpt lat="36.228374258268865" lon="138.13226353270215"><ele>1942</ele><time>2025-03-29T23:30:05Z</time></trkpt>
<trkpt lat="36.228314802916756" lon="138.13199524393787"><ele>1941</ele><time>2025-03-29T23:57:00Z</time></trkpt>
<trkpt lat="36.228299056079635" lon="138.131651883202"><ele>1944</ele><time>2025-03-29T23:57:31Z</time></trkpt>
<trkpt lat="36.22822884568892" lon="138.1313067524521"><ele>1944</ele><time>2025-03-29T23:58:00Z</time></trkpt>
<trkpt lat="36.22812465867631" lon="138.13101158236933"><ele>1947</ele><time>2025-03-29T23:58:27Z</time></trkpt>
<trkpt lat="36.22802546704339" lon="138.13072590049373"><ele>1946</ele><time>2025-03-29T23:58:53Z</time></trkpt>
<trkpt lat="36.227938862162084" lon="138.13038296990172"><ele>1946</ele><time>2025-03-29T23:59:22Z</time></trkpt>
<trkpt lat="36.22786512475243" lon="138.1303150668244"><ele>1943</ele><time>2025-03-30T00:01:47Z</time></trkpt>
<trkpt lat="36.22779769401089" lon="138.1301562774391"><ele>1943</ele><time>2025-03-30T00:02:34Z</time></trkpt>
<trkpt lat="36.22764780893005" lon="138.12989785628938"><ele>1942</ele><time>2025-03-30T00:03:03Z</time></trkpt>
<trkpt lat="36.227489130305315" lon="138.1295763874492"><ele>1943</ele><time>2025-03-30T00:03:33Z</time></trkpt>
<trkpt lat="36.22729715818882" lon="138.1292466024484"><ele>1945</ele><time>2025-03-30T00:04:00Z</time></trkpt>
<trkpt lat="36.22714832001634" lon="138.12896227907973"><ele>1947</ele><time>2025-03-30T00:04:26Z</time></trkpt>
<trkpt lat="36.22693338058709" lon="138.1285868977806"><ele>1946</ele><time>2025-03-30T00:04:56Z</time></trkpt>
<trkpt lat="36.22676865320985" lon="138.1283008463385"><ele>1946</ele><time>2025-03-30T00:05:27Z</time></trkpt>
<trkpt lat="36.22662072724013" lon="138.12805465539452"><ele>1949</ele><time>2025-03-30T00:05:54Z</time></trkpt>
<trkpt lat="36.22640643299532" lon="138.12782504091481"><ele>1949</ele><time>2025-03-30T00:06:21Z</time></trkpt>
<trkpt lat="36.22625179636095" lon="138.12769515305274"><ele>1951</ele><time>2025-03-30T00:07:01Z</time></trkpt>
<trkpt lat="36.226262311244376" lon="138.12741916035023"><ele>1955</ele><time>2025-03-30T00:08:20Z</time></trkpt>
<trkpt lat="36.2260672009709" lon="138.12715148155056"><ele>1956</ele><time>2025-03-30T00:08:49Z</time></trkpt>
<trkpt lat="36.22587328462432" lon="138.12690250721587"><ele>1958</ele><time>2025-03-30T00:09:22Z</time></trkpt>
<trkpt lat="36.22568781191384" lon="138.126704769278"><ele>1960</ele><time>2025-03-30T00:09:50Z</time></trkpt>
<trkpt lat="36.2254873306082" lon="138.12651775144593"><ele>1959</ele><time>2025-03-30T00:10:20Z</time></trkpt>
<trkpt lat="36.22540702856009" lon="138.12640076247914"><ele>1962</ele><time>2025-03-30T00:10:53Z</time></trkpt>
<trkpt lat="36.22513608376446" lon="138.12607555753638"><ele>1964</ele><time>2025-03-30T00:11:24Z</time></trkpt>
<trkpt lat="36.22481341252781" lon="138.12574324132305"><ele>1963</ele><time>2025-03-30T00:12:24Z</time></trkpt>
<trkpt lat="36.22450960916184" lon="138.12542551145407"><ele>1960</ele><time>2025-03-30T00:12:52Z</time></trkpt>
<trkpt lat="36.22429745760346" lon="138.12518827749452"><ele>1960</ele><time>2025-03-30T00:13:18Z</time></trkpt>
<trkpt lat="36.22415203684824" lon="138.12487324708482"><ele>1960</ele><time>2025-03-30T00:13:45Z</time></trkpt>
<trkpt lat="36.2241235544896" lon="138.12445773373588"><ele>1961</ele><time>2025-03-30T00:14:11Z</time></trkpt>
<trkpt lat="36.224140264392105" lon="138.1242056357183"><ele>1963</ele><time>2025-03-30T00:14:59Z</time></trkpt>
<trkpt lat="36.22404354630586" lon="138.12428105095532"><ele>1963</ele><time>2025-03-30T00:16:01Z</time></trkpt>
<trkpt lat="36.22373812087499" lon="138.1242972398128"><ele>1961</ele><time>2025-03-30T00:16:27Z</time></trkpt>
<trkpt lat="36.22344393115674" lon="138.1241426648681"><ele>1962</ele><time>2025-03-30T00:16:53Z</time></trkpt>
<trkpt lat="36.22335288042822" lon="138.1240509202335"><ele>1961</ele><time>2025-03-30T00:17:38Z</time></trkpt>
<trkpt lat="36.22309227780213" lon="138.1238991115609"><ele>1960</ele><time>2025-03-30T00:18:11Z</time></trkpt>
<trkpt lat="36.222848897167516" lon="138.12373499287912"><ele>1962</ele><time>2025-03-30T00:18:37Z</time></trkpt>
<trkpt lat="36.22271916207007" lon="138.123655455852"><ele>1961</ele><time>2025-03-30T00:19:10Z</time></trkpt>
<trkpt lat="36.22240153268568" lon="138.1234418551483"><ele>1961</ele><time>2025-03-30T00:19:36Z</time></trkpt>
<trkpt lat="36.22209122277207" lon="138.1232508196302"><ele>1963</ele><time>2025-03-30T00:20:02Z</time></trkpt>
<trkpt lat="36.22185657222661" lon="138.1231042506053"><ele>1963</ele><time>2025-03-30T00:20:33Z</time></trkpt>
<trkpt lat="36.221574001415554" lon="138.1229173987828"><ele>1964</ele><time>2025-03-30T00:21:46Z</time></trkpt>
<trkpt lat="36.22125719509364" lon="138.12272012789103"><ele>1965</ele><time>2025-03-30T00:22:15Z</time></trkpt>
<trkpt lat="36.22107764142465" lon="138.1226387082181"><ele>1966</ele><time>2025-03-30T00:22:58Z</time></trkpt>
<trkpt lat="36.22084470470591" lon="138.12248209257612"><ele>1967</ele><time>2025-03-30T00:25:32Z</time></trkpt>
<trkpt lat="36.22061686275689" lon="138.12223799274255"><ele>1968</ele><time>2025-03-30T00:26:00Z</time></trkpt>
<trkpt lat="36.22051459813252" lon="138.12208638505555"><ele>1968</ele><time>2025-03-30T00:26:32Z</time></trkpt>
<trkpt lat="36.220046650154664" lon="138.1220908807481"><ele>1968</ele><time>2025-03-30T00:26:56Z</time></trkpt>
<trkpt lat="36.21974826431233" lon="138.12195528806555"><ele>1968</ele><time>2025-03-30T00:27:25Z</time></trkpt>
<trkpt lat="36.219492567893525" lon="138.121854310559"><ele>1969</ele><time>2025-03-30T00:27:53Z</time></trkpt>
<trkpt lat="36.2193845343814" lon="138.12198265421407"><ele>1972</ele><time>2025-03-30T00:29:19Z</time></trkpt>
<trkpt lat="36.21946835550081" lon="138.12183504140654"><ele>1970</ele><time>2025-03-30T00:29:55Z</time></trkpt>
<trkpt lat="36.21979217878024" lon="138.1219934650936"><ele>1968</ele><time>2025-03-30T00:31:06Z</time></trkpt>
<trkpt lat="36.22018043270173" lon="138.1221411441421"><ele>1969</ele><time>2025-03-30T00:31:32Z</time></trkpt>
<trkpt lat="36.220493956129665" lon="138.12209701378373"><ele>1969</ele><time>2025-03-30T00:31:58Z</time></trkpt>
<trkpt lat="36.22067316501028" lon="138.1219331175336"><ele>1968</ele><time>2025-03-30T00:32:27Z</time></trkpt>
<trkpt lat="36.22070600185322" lon="138.12165457619813"><ele>1967</ele><time>2025-03-30T00:32:55Z</time></trkpt>
<trkpt lat="36.22072804181074" lon="138.12130379257712"><ele>1967</ele><time>2025-03-30T00:33:21Z</time></trkpt>
<trkpt lat="36.22060248854273" lon="138.12097921320142"><ele>1970</ele><time>2025-03-30T00:33:50Z</time></trkpt>
<trkpt lat="36.220457832501594" lon="138.1206824554385"><ele>1968</ele><time>2025-03-30T00:34:19Z</time></trkpt>
<trkpt lat="36.22039740857105" lon="138.1203576734175"><ele>1968</ele><time>2025-03-30T00:34:51Z</time></trkpt>
<trkpt lat="36.22037362597832" lon="138.1200049480943"><ele>1968</ele><time>2025-03-30T00:35:20Z</time></trkpt>
<trkpt lat="36.220345934799276" lon="138.11969356903154"><ele>1968</ele><time>2025-03-30T00:35:47Z</time></trkpt>
<trkpt lat="36.22032050760617" lon="138.11935594981142"><ele>1966</ele><time>2025-03-30T00:36:16Z</time></trkpt>
<trkpt lat="36.220283885600224" lon="138.11899278447146"><ele>1967</ele><time>2025-03-30T00:36:44Z</time></trkpt>
<trkpt lat="36.22025247747834" lon="138.1186417053087"><ele>1967</ele><time>2025-03-30T00:37:13Z</time></trkpt>
<trkpt lat="36.22020995817331" lon="138.11827948480158"><ele>1967</ele><time>2025-03-30T00:37:42Z</time></trkpt>
<trkpt lat="36.220143528243725" lon="138.11794259953982"><ele>1968</ele><time>2025-03-30T00:38:12Z</time></trkpt>
<trkpt lat="36.22005316690647" lon="138.1176219201751"><ele>1970</ele><time>2025-03-30T00:38:42Z</time></trkpt>
<trkpt lat="36.220028952583014" lon="138.11733422789194"><ele>1972</ele><time>2025-03-30T00:39:09Z</time></trkpt>
<trkpt lat="36.22010447726276" lon="138.11701909627163"><ele>1973</ele><time>2025-03-30T00:39:38Z</time></trkpt>
<trkpt lat="36.220259126270676" lon="138.11671218054127"><ele>1975</ele><time>2025-03-30T00:40:07Z</time></trkpt>
<trkpt lat="36.220410207565166" lon="138.1164356685047"><ele>1974</ele><time>2025-03-30T00:40:33Z</time></trkpt>
<trkpt lat="36.22051629546066" lon="138.11619702057126"><ele>1974</ele><time>2025-03-30T00:41:02Z</time></trkpt>
<trkpt lat="36.22060605856098" lon="138.11594823186027"><ele>1974</ele><time>2025-03-30T00:41:34Z</time></trkpt>
<trkpt lat="36.22072726012258" lon="138.11569426122213"><ele>1975</ele><time>2025-03-30T00:42:09Z</time></trkpt>
<trkpt lat="36.220910353334716" lon="138.11551668795192"><ele>1978</ele><time>2025-03-30T00:42:39Z</time></trkpt>
<trkpt lat="36.22115433949981" lon="138.11541934468994"><ele>1980</ele><time>2025-03-30T00:43:14Z</time></trkpt>
<trkpt lat="36.221413870229725" lon="138.1153857131309"><ele>1982</ele><time>2025-03-30T00:43:42Z</time></trkpt>
<trkpt lat="36.221717398328686" lon="138.1153399333448"><ele>1981</ele><time>2025-03-30T00:44:10Z</time></trkpt>
<trkpt lat="36.222023561557684" lon="138.1152968549013"><ele>1983</ele><time>2025-03-30T00:44:36Z</time></trkpt>
<trkpt lat="36.22234126755458" lon="138.1152428211245"><ele>1985</ele><time>2025-03-30T00:45:07Z</time></trkpt>
<trkpt lat="36.222666145972894" lon="138.11516816788435"><ele>1986</ele><time>2025-03-30T00:45:35Z</time></trkpt>
<trkpt lat="36.22296926051788" lon="138.11510820342832"><ele>1988</ele><time>2025-03-30T00:46:04Z</time></trkpt>
<trkpt lat="36.22321117252658" lon="138.11506461633692"><ele>1990</ele><time>2025-03-30T00:46:43Z</time></trkpt>
<trkpt lat="36.2234700892328" lon="138.1149449384074"><ele>1989</ele><time>2025-03-30T00:47:13Z</time></trkpt>
<trkpt lat="36.22360009144141" lon="138.11464905799306"><ele>1990</ele><time>2025-03-30T00:47:47Z</time></trkpt>
<trkpt lat="36.223678306264766" lon="138.11423839733263"><ele>1990</ele><time>2025-03-30T00:49:42Z</time></trkpt>
<trkpt lat="36.22385116045819" lon="138.11388516864054"><ele>1994</ele><time>2025-03-30T00:50:08Z</time></trkpt>
<trkpt lat="36.22414151843926" lon="138.11370741811052"><ele>1995</ele><time>2025-03-30T00:50:35Z</time></trkpt>
<trkpt lat="36.22440189520399" lon="138.11356481768644"><ele>1995</ele><time>2025-03-30T00:51:04Z</time></trkpt>
<trkpt lat="36.22467220597568" lon="138.11341530608453"><ele>1997</ele><time>2025-03-30T00:51:33Z</time></trkpt>
<trkpt lat="36.22485673955996" lon="138.1132427725645"><ele>1995</ele><time>2025-03-30T00:52:02Z</time></trkpt>
<trkpt lat="36.22492745103674" lon="138.11294917323974"><ele>1997</ele><time>2025-03-30T00:52:38Z</time></trkpt>
<trkpt lat="36.22495437028061" lon="138.11257700648554"><ele>1999</ele><time>2025-03-30T00:53:04Z</time></trkpt>
<trkpt lat="36.2251269431853" lon="138.11251116722337"><ele>2003</ele><time>2025-03-30T00:53:35Z</time></trkpt>
<trkpt lat="36.22538311517393" lon="138.11224279628908"><ele>2003</ele><time>2025-03-30T00:54:12Z</time></trkpt>
<trkpt lat="36.22553094364265" lon="138.1120069724806"><ele>2007</ele><time>2025-03-30T00:54:40Z</time></trkpt>
<trkpt lat="36.22562445034541" lon="138.111650723161"><ele>2012</ele><time>2025-03-30T00:55:06Z</time></trkpt>
<trkpt lat="36.225742659161845" lon="138.11133901050272"><ele>2019</ele><time>2025-03-30T00:55:34Z</time></trkpt>
<trkpt lat="36.22570040959286" lon="138.11106862088275"><ele>2020</ele><time>2025-03-30T00:56:12Z</time></trkpt>
<trkpt lat="36.225707635045865" lon="138.11078203270313"><ele>2023</ele><time>2025-03-30T00:56:46Z</time></trkpt>
<trkpt lat="36.22584472855953" lon="138.11055872993788"><ele>2026</ele><time>2025-03-30T00:58:21Z</time></trkpt>
<trkpt lat="36.22588328015037" lon="138.1101786533778"><ele>2029</ele><time>2025-03-30T00:58:51Z</time></trkpt>
<trkpt lat="36.225867837963214" lon="138.10984588258415"><ele>2030</ele><time>2025-03-30T00:59:19Z</time></trkpt>
<trkpt lat="36.225953145275085" lon="138.10949695989277"><ele>2035</ele><time>2025-03-30T00:59:50Z</time></trkpt>
<trkpt lat="36.225960983650424" lon="138.1091848076579"><ele>2040</ele><time>2025-03-30T01:00:17Z</time></trkpt>
<trkpt lat="36.22589545536606" lon="138.10895636143016"><ele>2038</ele><time>2025-03-30T01:00:53Z</time></trkpt>
<trkpt lat="36.226002418649564" lon="138.10876546478735"><ele>2039</ele><time>2025-03-30T01:02:57Z</time></trkpt>
<trkpt lat="36.22602798187239" lon="138.10839850456256"><ele>2041</ele><time>2025-03-30T01:07:52Z</time></trkpt>
<trkpt lat="36.22598531146313" lon="138.10821400533297"><ele>2042</ele><time>2025-03-30T01:08:21Z</time></trkpt>
<trkpt lat="36.22584232921879" lon="138.1080030973766"><ele>2039</ele><time>2025-03-30T01:08:49Z</time></trkpt>
<trkpt lat="36.22582582622437" lon="138.10758678632894"><ele>2042</ele><time>2025-03-30T01:09:22Z</time></trkpt>
<trkpt lat="36.22587117701416" lon="138.10740701902205"><ele>2041</ele><time>2025-03-30T01:10:02Z</time></trkpt>
<trkpt lat="36.225767701898974" lon="138.10737278557409"><ele>2041</ele><time>2025-03-30T01:11:15Z</time></trkpt>
<trkpt lat="36.22591116225594" lon="138.10741340825086"><ele>2045</ele><time>2025-03-30T01:13:27Z</time></trkpt>
<trkpt lat="36.225807645044675" lon="138.10771114247933"><ele>2036</ele><time>2025-03-30T01:18:48Z</time></trkpt>
<trkpt lat="36.22581932025645" lon="138.108057517058"><ele>2036</ele><time>2025-03-30T01:19:20Z</time></trkpt>
<trkpt lat="36.22595901150695" lon="138.10832741002284"><ele>2034</ele><time>2025-03-30T01:19:50Z</time></trkpt>
<trkpt lat="36.22598177221124" lon="138.10866465512598"><ele>2035</ele><time>2025-03-30T01:20:19Z</time></trkpt>
<trkpt lat="36.225898502615216" lon="138.10876069528322"><ele>2032</ele><time>2025-03-30T01:21:10Z</time></trkpt>
<trkpt lat="36.225684204287326" lon="138.1088589616519"><ele>2032</ele><time>2025-03-30T01:24:01Z</time></trkpt>
<trkpt lat="36.225871326027445" lon="138.10889566801185"><ele>2029</ele><time>2025-03-30T01:24:53Z</time></trkpt>
<trkpt lat="36.22567565342633" lon="138.10920499730244"><ele>2031</ele><time>2025-03-30T01:25:26Z</time></trkpt>
<trkpt lat="36.225806315202995" lon="138.10888040621793"><ele>2029</ele><time>2025-03-30T01:26:02Z</time></trkpt>
<trkpt lat="36.225887682783814" lon="138.10881049874055"><ele>2029</ele><time>2025-03-30T01:26:27Z</time></trkpt>
<trkpt lat="36.22569302390062" lon="138.10859382854008"><ele>2029</ele><time>2025-03-30T01:30:11Z</time></trkpt>
<trkpt lat="36.22559409955293" lon="138.1085301575665"><ele>2029</ele><time>2025-03-30T01:31:19Z</time></trkpt>
<trkpt lat="36.22573844963619" lon="138.10863806030068"><ele>2029</ele><time>2025-03-30T01:35:48Z</time></trkpt>
<trkpt lat="36.22587144473117" lon="138.1087941772138"><ele>2029</ele><time>2025-03-30T01:36:57Z</time></trkpt>
<trkpt lat="36.225771251389716" lon="138.10864518481418"><ele>2032</ele><time>2025-03-30T01:41:45Z</time></trkpt>
<trkpt lat="36.22583282717628" lon="138.1088329210943"><ele>2032</ele><time>2025-03-30T01:42:16Z</time></trkpt>
<trkpt lat="36.22590300958531" lon="138.10883516691035"><ele>2032</ele><time>2025-03-30T01:48:50Z</time></trkpt>
</trkseg>
</trk>
<trk><name>track</name><number>2</number><trkseg>
<trkpt lat="36.22591627205329" lon="138.10884419260086"><ele>2033</ele><time>2025-03-30T02:31:14Z</time></trkpt>
<trkpt lat="36.225830944609434" lon="138.10890858564318"><ele>2033</ele><time>2025-03-30T02:33:24Z</time></trkpt>
<trkpt lat="36.225937643752694" lon="138.10882173356597"><ele>2033</ele><time>2025-03-30T02:33:54Z</time></trkpt>
<trkpt lat="36.22583960702553" lon="138.1088866683459"><ele>2033</ele><time>2025-03-30T02:34:29Z</time></trkpt>
<trkpt lat="36.22593283919897" lon="138.10883414466383"><ele>2033</ele><time>2025-03-30T02:35:41Z</time></trkpt>
<trkpt lat="36.226064678461874" lon="138.10882726147702"><ele>2038</ele><time>2025-03-30T02:38:52Z</time></trkpt>
<trkpt lat="36.22599418000367" lon="138.1091147609715"><ele>2031</ele><time>2025-03-30T02:40:29Z</time></trkpt>
<trkpt lat="36.22580323019227" lon="138.10910239586698"><ele>2028</ele><time>2025-03-30T02:41:30Z</time></trkpt>
<trkpt lat="36.225746807259675" lon="138.10896949084153"><ele>2038</ele><time>2025-03-30T02:44:17Z</time></trkpt>
<trkpt lat="36.225841623279464" lon="138.10907806892783"><ele>2035</ele><time>2025-03-30T02:51:01Z</time></trkpt>
<trkpt lat="36.2259640520153" lon="138.10942035206426"><ele>2032</ele><time>2025-03-30T03:23:42Z</time></trkpt>
<trkpt lat="36.22593341064191" lon="138.1097544130491"><ele>2028</ele><time>2025-03-30T03:25:22Z</time></trkpt>
<trkpt lat="36.22588384197867" lon="138.11006428715342"><ele>2027</ele><time>2025-03-30T03:25:52Z</time></trkpt>
<trkpt lat="36.22592241119833" lon="138.11026653329174"><ele>2023</ele><time>2025-03-30T03:26:34Z</time></trkpt>
<trkpt lat="36.22590383735213" lon="138.11063258520497"><ele>2024</ele><time>2025-03-30T03:27:25Z</time></trkpt>
<trkpt lat="36.22582315206613" lon="138.11087356048418"><ele>2022</ele><time>2025-03-30T03:27:55Z</time></trkpt>
<trkpt lat="36.22579351279442" lon="138.11101924312058"><ele>2020</ele><time>2025-03-30T03:29:16Z</time></trkpt>
<trkpt lat="36.22580633792925" lon="138.11119021833596"><ele>2019</ele><time>2025-03-30T03:30:25Z</time></trkpt>
<trkpt lat="36.22565423446533" lon="138.11179816010284"><ele>2008</ele><time>2025-03-30T03:32:10Z</time></trkpt>
<trkpt lat="36.22552723602343" lon="138.11214073247615"><ele>2004</ele><time>2025-03-30T03:32:36Z</time></trkpt>
<trkpt lat="36.22539037572998" lon="138.11226627089775"><ele>2002</ele><time>2025-03-30T03:33:26Z</time></trkpt>
<trkpt lat="36.22527541187036" lon="138.11256075281725"><ele>2001</ele><time>2025-03-30T03:34:10Z</time></trkpt>
<trkpt lat="36.22514769178837" lon="138.11275216350563"><ele>2001</ele><time>2025-03-30T03:35:00Z</time></trkpt>
<trkpt lat="36.22524876250453" lon="138.11278358588444"><ele>2001</ele><time>2025-03-30T03:36:33Z</time></trkpt>
<trkpt lat="36.22501305341182" lon="138.11269481649254"><ele>2001</ele><time>2025-03-30T03:37:28Z</time></trkpt>
<trkpt lat="36.22476128175027" lon="138.1131145225152"><ele>1996</ele><time>2025-03-30T03:38:12Z</time></trkpt>
<trkpt lat="36.22472737365352" lon="138.11335024797617"><ele>1994</ele><time>2025-03-30T03:38:41Z</time></trkpt>
<trkpt lat="36.22453568476117" lon="138.11344750460617"><ele>1994</ele><time>2025-03-30T03:39:14Z</time></trkpt>
<trkpt lat="36.224329809608506" lon="138.11357679716653"><ele>1993</ele><time>2025-03-30T03:39:48Z</time></trkpt>
<trkpt lat="36.22405059850404" lon="138.11378466802535"><ele>1994</ele><time>2025-03-30T03:40:18Z</time></trkpt>
<trkpt lat="36.22377467208736" lon="138.11412354658012"><ele>1992</ele><time>2025-03-30T03:40:42Z</time></trkpt>
<trkpt lat="36.22372685054517" lon="138.1144879044307"><ele>1992</ele><time>2025-03-30T03:41:22Z</time></trkpt>
<trkpt lat="36.223614597132" lon="138.1148381244198"><ele>1989</ele><time>2025-03-30T03:41:51Z</time></trkpt>
<trkpt lat="36.22332548103694" lon="138.11501171663392"><ele>1988</ele><time>2025-03-30T03:42:20Z</time></trkpt>
<trkpt lat="36.223030510611416" lon="138.11505824288946"><ele>1986</ele><time>2025-03-30T03:42:49Z</time></trkpt>
<trkpt lat="36.222803711077155" lon="138.11511579806395"><ele>1984</ele><time>2025-03-30T03:43:16Z</time></trkpt>
<trkpt lat="36.22253414478575" lon="138.11519170433084"><ele>1983</ele><time>2025-03-30T03:43:44Z</time></trkpt>
<trkpt lat="36.222291202003035" lon="138.11521967102095"><ele>1984</ele><time>2025-03-30T03:44:14Z</time></trkpt>
<trkpt lat="36.22188687305517" lon="138.11529809053368"><ele>1981</ele><time>2025-03-30T03:44:48Z</time></trkpt>
<trkpt lat="36.2215168775421" lon="138.11534742458127"><ele>1979</ele><time>2025-03-30T03:45:14Z</time></trkpt>
<trkpt lat="36.22123160254408" lon="138.1153750593649"><ele>1976</ele><time>2025-03-30T03:45:43Z</time></trkpt>
<trkpt lat="36.22101782574619" lon="138.11544328738535"><ele>1975</ele><time>2025-03-30T03:46:13Z</time></trkpt>
<trkpt lat="36.2207842431043" lon="138.11568923892813"><ele>1973</ele><time>2025-03-30T03:46:47Z</time></trkpt>
<trkpt lat="36.22062943893363" lon="138.11601959732687"><ele>1975</ele><time>2025-03-30T03:47:14Z</time></trkpt>
<trkpt lat="36.22049131465707" lon="138.11633524963216"><ele>1973</ele><time>2025-03-30T03:47:48Z</time></trkpt>
<trkpt lat="36.22029297485976" lon="138.1167282617449"><ele>1972</ele><time>2025-03-30T03:48:33Z</time></trkpt>
<trkpt lat="36.220071511799155" lon="138.11716629221817"><ele>1971</ele><time>2025-03-30T03:48:59Z</time></trkpt>
<trkpt lat="36.22008453735576" lon="138.11766323606466"><ele>1970</ele><time>2025-03-30T03:49:25Z</time></trkpt>
<trkpt lat="36.220196172540625" lon="138.11810163978117"><ele>1968</ele><time>2025-03-30T03:49:51Z</time></trkpt>
<trkpt lat="36.22025472819464" lon="138.1184723102197"><ele>1967</ele><time>2025-03-30T03:50:18Z</time></trkpt>
<trkpt lat="36.22028336091167" lon="138.11879267935564"><ele>1967</ele><time>2025-03-30T03:50:45Z</time></trkpt>
<trkpt lat="36.220306573534685" lon="138.11905116107266"><ele>1968</ele><time>2025-03-30T03:51:13Z</time></trkpt>
<trkpt lat="36.22035749376868" lon="138.1195016066653"><ele>1967</ele><time>2025-03-30T03:52:33Z</time></trkpt>
<trkpt lat="36.22038012775442" lon="138.11994513741456"><ele>1969</ele><time>2025-03-30T03:53:00Z</time></trkpt>
<trkpt lat="36.22040502392926" lon="138.12031454685473"><ele>1968</ele><time>2025-03-30T03:53:26Z</time></trkpt>
<trkpt lat="36.22044888628469" lon="138.12061198318833"><ele>1969</ele><time>2025-03-30T03:53:55Z</time></trkpt>
<trkpt lat="36.22059394780298" lon="138.12093837616604"><ele>1969</ele><time>2025-03-30T03:54:37Z</time></trkpt>
<trkpt lat="36.22072024776057" lon="138.12120112220558"><ele>1970</ele><time>2025-03-30T03:55:28Z</time></trkpt>
<trkpt lat="36.22072868324019" lon="138.12170273113537"><ele>1969</ele><time>2025-03-30T03:55:57Z</time></trkpt>
<trkpt lat="36.22069246129246" lon="138.12213287544247"><ele>1968</ele><time>2025-03-30T03:56:22Z</time></trkpt>
<trkpt lat="36.22069653349465" lon="138.12226758529292"><ele>1971</ele><time>2025-03-30T03:58:00Z</time></trkpt>
<trkpt lat="36.2207835477687" lon="138.12234990023822"><ele>1972</ele><time>2025-03-30T03:59:39Z</time></trkpt>
<trkpt lat="36.22097495342063" lon="138.12251741039918"><ele>1969</ele><time>2025-03-30T04:00:06Z</time></trkpt>
<trkpt lat="36.22129479381979" lon="138.122718153268"><ele>1968</ele><time>2025-03-30T04:00:32Z</time></trkpt>
<trkpt lat="36.22168341993248" lon="138.12295800945273"><ele>1966</ele><time>2025-03-30T04:00:58Z</time></trkpt>
<trkpt lat="36.22206570452522" lon="138.12320701924983"><ele>1965</ele><time>2025-03-30T04:01:24Z</time></trkpt>
<trkpt lat="36.22230673124436" lon="138.1233666283225"><ele>1966</ele><time>2025-03-30T04:01:56Z</time></trkpt>
<trkpt lat="36.22256417229124" lon="138.12350776064213"><ele>1963</ele><time>2025-03-30T04:02:25Z</time></trkpt>
<trkpt lat="36.22282279241136" lon="138.1236818078351"><ele>1964</ele><time>2025-03-30T04:02:56Z</time></trkpt>
<trkpt lat="36.22307723689655" lon="138.12383991915542"><ele>1964</ele><time>2025-03-30T04:03:24Z</time></trkpt>
<trkpt lat="36.22333417081683" lon="138.12400656183425"><ele>1966</ele><time>2025-03-30T04:03:51Z</time></trkpt>
<trkpt lat="36.22353336931946" lon="138.12424896538334"><ele>1966</ele><time>2025-03-30T04:04:20Z</time></trkpt>
<trkpt lat="36.223709577035315" lon="138.12452553066296"><ele>1967</ele><time>2025-03-30T04:04:47Z</time></trkpt>
<trkpt lat="36.22392319942545" lon="138.12478031730979"><ele>1967</ele><time>2025-03-30T04:05:16Z</time></trkpt>
<trkpt lat="36.22415795685018" lon="138.1250169062433"><ele>1967</ele><time>2025-03-30T04:05:44Z</time></trkpt>
<trkpt lat="36.224255456242865" lon="138.12510161174401"><ele>1968</ele><time>2025-03-30T04:06:16Z</time></trkpt>
<trkpt lat="36.22455654498486" lon="138.12545434533456"><ele>1966</ele><time>2025-03-30T04:06:40Z</time></trkpt>
<trkpt lat="36.224810028445276" lon="138.12572410119012"><ele>1967</ele><time>2025-03-30T04:07:09Z</time></trkpt>
<trkpt lat="36.22505698852036" lon="138.1259668728312"><ele>1966</ele><time>2025-03-30T04:07:39Z</time></trkpt>
<trkpt lat="36.22528789421231" lon="138.12622794261415"><ele>1968</ele><time>2025-03-30T04:08:14Z</time></trkpt>
<trkpt lat="36.22554628166109" lon="138.126504437711"><ele>1965</ele><time>2025-03-30T04:08:42Z</time></trkpt>
<trkpt lat="36.22572527053849" lon="138.12673288586356"><ele>1966</ele><time>2025-03-30T04:09:08Z</time></trkpt>
<trkpt lat="36.22592981817137" lon="138.1269608378201"><ele>1964</ele><time>2025-03-30T04:09:34Z</time></trkpt>
<trkpt lat="36.22615711741418" lon="138.1272061492418"><ele>1964</ele><time>2025-03-30T04:10:06Z</time></trkpt>
<trkpt lat="36.22637112200402" lon="138.12754927071506"><ele>1959</ele><time>2025-03-30T04:10:32Z</time></trkpt>
<trkpt lat="36.22656507770638" lon="138.12782732841887"><ele>1960</ele><time>2025-03-30T04:10:57Z</time></trkpt>
<trkpt lat="36.22670798659095" lon="138.12799432613937"><ele>1958</ele><time>2025-03-30T04:11:22Z</time></trkpt>
<trkpt lat="36.22696681608908" lon="138.12843408200206"><ele>1957</ele><time>2025-03-30T04:11:46Z</time></trkpt>
<trkpt lat="36.22709281364946" lon="138.12867596586602"><ele>1955</ele><time>2025-03-30T04:12:12Z</time></trkpt>
<trkpt lat="36.22725265929085" lon="138.12899044426717"><ele>1954</ele><time>2025-03-30T04:12:46Z</time></trkpt>
<trkpt lat="36.22734998753701" lon="138.12920428207377"><ele>1953</ele><time>2025-03-30T04:13:50Z</time></trkpt>
<trkpt lat="36.22752100325901" lon="138.1295485828325"><ele>1951</ele><time>2025-03-30T04:14:16Z</time></trkpt>
<trkpt lat="36.22770617732177" lon="138.12983242273614"><ele>1948</ele><time>2025-03-30T04:14:42Z</time></trkpt>
<trkpt lat="36.227852545145055" lon="138.13012566477454"><ele>1949</ele><time>2025-03-30T04:15:08Z</time></trkpt>
<trkpt lat="36.2279757190178" lon="138.1304495963011"><ele>1947</ele><time>2025-03-30T04:15:38Z</time></trkpt>
<trkpt lat="36.228078155757075" lon="138.13079279790043"><ele>1948</ele><time>2025-03-30T04:16:04Z</time></trkpt>
<trkpt lat="36.228196333756095" lon="138.13111823923637"><ele>1948</ele><time>2025-03-30T04:16:32Z</time></trkpt>
<trkpt lat="36.22826253695721" lon="138.1314886938408"><ele>1945</ele><time>2025-03-30T04:17:01Z</time></trkpt>
<trkpt lat="36.22825943050167" lon="138.13183372324247"><ele>1943</ele><time>2025-03-30T04:17:30Z</time></trkpt>
<trkpt lat="36.22824404631769" lon="138.13210133887938"><ele>1949</ele><time>2025-03-30T04:17:59Z</time></trkpt>
<trkpt lat="36.22843669384825" lon="138.13223718246365"><ele>1948</ele><time>2025-03-30T04:18:35Z</time></trkpt>
<trkpt lat="36.22855559116482" lon="138.1322366331587"><ele>1948</ele><time>2025-03-30T04:28:56Z</time></trkpt>
<trkpt lat="36.22846865971641" lon="138.13227221339034"><ele>1945</ele><time>2025-03-30T04:44:27Z</time></trkpt>
</trkseg>
</trk>
</gpx>