<?xml version="1.0" encoding="UTF-8"?>
<gpx xmlns:xsi="http://www.w3.org/2001/XMLSchema-instance" xmlns="http://www.topografix.com/GPX/1/1" xsi:schemaLocation="http://www.topografix.com/GPX/1/1 http://www.topografix.com/GPX/1/1/gpx.xsd" creator="Yamareco iOS 7.25 - www.yamareco.com">
<trk><name>track</name><number>1</number><trkseg>
<trkpt lat="36.806539697606866" lon="139.3554919493751"><ele>1998</ele><time>2025-02-16T00:05:16Z</time></trkpt>
<trkpt lat="36.8065155229658" lon="139.35576795902557"><ele>1996</ele><time>2025-02-16T00:07:05Z</time></trkpt>
<trkpt lat="36.80671840055247" lon="139.3559618705661"><ele>1996</ele><time>2025-02-16T00:07:34Z</time></trkpt>
<trkpt lat="36.80685251501619" lon="139.3561561484455"><ele>1998</ele><time>2025-02-16T00:08:35Z</time></trkpt>
<trkpt lat="36.807031355015575" lon="139.35623916354268"><ele>1997</ele><time>2025-02-16T00:09:08Z</time></trkpt>
<trkpt lat="36.8072417645434" lon="139.35622031760366"><ele>1998</ele><time>2025-02-16T00:09:39Z</time></trkpt>
<trkpt lat="36.807342383671966" lon="139.35632316308784"><ele>2001</ele><time>2025-02-16T00:10:18Z</time></trkpt>
<trkpt lat="36.80717790674637" lon="139.35643474538705"><ele>2003</ele><time>2025-02-16T00:10:51Z</time></trkpt>
<trkpt lat="36.807265726695455" lon="139.3567056433878"><ele>2009</ele><time>2025-02-16T00:11:40Z</time></trkpt>
<trkpt lat="36.8072574909148" lon="139.35697031800984"><ele>2010</ele><time>2025-02-16T00:12:07Z</time></trkpt>
<trkpt lat="36.80719989357905" lon="139.35717119956897"><ele>2010</ele><time>2025-02-16T00:12:43Z</time></trkpt>
<trkpt lat="36.80720795167805" lon="139.35745932219848"><ele>2008</ele><time>2025-02-16T00:13:15Z</time></trkpt>
<trkpt lat="36.80731617599674" lon="139.35772207484266"><ele>2008</ele><time>2025-02-16T00:13:43Z</time></trkpt>
<trkpt lat="36.807359097551675" lon="139.35801462357793"><ele>2006</ele><time>2025-02-16T00:14:18Z</time></trkpt>
<trkpt lat="36.80723806235586" lon="139.35824584269008"><ele>2011</ele><time>2025-02-16T00:14:53Z</time></trkpt>
<trkpt lat="36.80705390120206" lon="139.35840675022982"><ele>2010</ele><time>2025-02-16T00:15:20Z</time></trkpt>
<trkpt lat="36.806947753793" lon="139.35845024798454"><ele>2015</ele><time>2025-02-16T00:15:56Z</time></trkpt>
<trkpt lat="36.80677507642955" lon="139.3586387180699"><ele>2016</ele><time>2025-02-16T00:16:33Z</time></trkpt>
<trkpt lat="36.80683622378934" lon="139.35894145764266"><ele>2018</ele><time>2025-02-16T00:17:02Z</time></trkpt>
<trkpt lat="36.80687548367436" lon="139.35913599448278"><ele>2019</ele><time>2025-02-16T00:17:32Z</time></trkpt>
<trkpt lat="36.80688774197808" lon="139.35945729500136"><ele>2022</ele><time>2025-02-16T00:18:10Z</time></trkpt>
<trkpt lat="36.80685507903255" lon="139.35956573828386"><ele>2026</ele><time>2025-02-16T00:18:56Z</time></trkpt>
<trkpt lat="36.80687897533282" lon="139.3598030688689"><ele>2027</ele><time>2025-02-16T00:19:31Z</time></trkpt>
<trkpt lat="36.80686261049011" lon="139.3599915136973"><ele>2031</ele><time>2025-02-16T00:20:08Z</time></trkpt>
<trkpt lat="36.80670564969289" lon="139.36017683759079"><ele>2032</ele><time>2025-02-16T00:20:47Z</time></trkpt>
<trkpt lat="36.806553542520014" lon="139.3603591322319"><ele>2033</ele><time>2025-02-16T00:21:16Z</time></trkpt>
<trkpt lat="36.80637969956644" lon="139.36056895144833"><ele>2033</ele><time>2025-02-16T00:21:54Z</time></trkpt>
<trkpt lat="36.806172158533286" lon="139.36075501226557"><ele>2036</ele><time>2025-02-16T00:22:24Z</time></trkpt>
<trkpt lat="36.80606695215577" lon="139.36097492193454"><ele>2038</ele><time>2025-02-16T00:22:54Z</time></trkpt>
<trkpt lat="36.80600481046633" lon="139.36122823492758"><ele>2037</ele><time>2025-02-16T00:23:30Z</time></trkpt>
<trkpt lat="36.80604325270477" lon="139.36143558091555"><ele>2041</ele><time>2025-02-16T00:23:57Z</time></trkpt>
<trkpt lat="36.80605163698919" lon="139.361679064408"><ele>2044</ele><time>2025-02-16T00:25:08Z</time></trkpt>
<trkpt lat="36.80599837199493" lon="139.36192259710427"><ele>2046</ele><time>2025-02-16T00:25:48Z</time></trkpt>
<trkpt lat="36.805923221545356" lon="139.36200131498845"><ele>2044</ele><time>2025-02-16T00:26:29Z</time></trkpt>
<trkpt lat="36.805808614886494" lon="139.3621967276567"><ele>2042</ele><time>2025-02-16T00:27:17Z</time></trkpt>
<trkpt lat="36.80561723384226" lon="139.36231480684629"><ele>2042</ele><time>2025-02-16T00:27:52Z</time></trkpt>
<trkpt lat="36.80540130028707" lon="139.36252360774188"><ele>2040</ele><time>2025-02-16T00:28:18Z</time></trkpt>
<trkpt lat="36.80531578638336" lon="139.36277377333712"><ele>2045</ele><time>2025-02-16T00:28:50Z</time></trkpt>
<trkpt lat="36.80525326000253" lon="139.36297583137332"><ele>2046</ele><time>2025-02-16T00:29:26Z</time></trkpt>
<trkpt lat="36.80515512837795" lon="139.36322015223757"><ele>2053</ele><time>2025-02-16T00:29:59Z</time></trkpt>
<trkpt lat="36.805129962181496" lon="139.3633540872179"><ele>2056</ele><time>2025-02-16T00:30:35Z</time></trkpt>
<trkpt lat="36.80510094914324" lon="139.3636059889887"><ele>2063</ele><time>2025-02-16T00:31:13Z</time></trkpt>
<trkpt lat="36.80509530051797" lon="139.36379142298892"><ele>2063</ele><time>2025-02-16T00:32:04Z</time></trkpt>
<trkpt lat="36.805054467088084" lon="139.36410258462936"><ele>2065</ele><time>2025-02-16T00:32:35Z</time></trkpt>
<trkpt lat="36.80505860314737" lon="139.36428425201342"><ele>2067</ele><time>2025-02-16T00:33:12Z</time></trkpt>
<trkpt lat="36.805035520062816" lon="139.3644043551779"><ele>2067</ele><time>2025-02-16T00:38:59Z</time></trkpt>
<trkpt lat="36.80487741605743" lon="139.3644637855458"><ele>2074</ele><time>2025-02-16T00:39:58Z</time></trkpt>
<trkpt lat="36.80479827813051" lon="139.36457133821975"><ele>2080</ele><time>2025-02-16T00:41:10Z</time></trkpt>
<trkpt lat="36.80470697505435" lon="139.36445229393172"><ele>2080</ele><time>2025-02-16T00:42:36Z</time></trkpt>
<trkpt lat="36.80458441397345" lon="139.36457534944725"><ele>2093</ele><time>2025-02-16T00:43:15Z</time></trkpt>
<trkpt lat="36.804431925144044" lon="139.36466996945853"><ele>2096</ele><time>2025-02-16T00:44:59Z</time></trkpt>
<trkpt lat="36.804420763990336" lon="139.36484752728617"><ele>2101</ele><time>2025-02-16T00:45:52Z</time></trkpt>
<trkpt lat="36.80442895512915" lon="139.36497213367986"><ele>2101</ele><time>2025-02-16T00:46:37Z</time></trkpt>
<trkpt lat="36.80433944578334" lon="139.36511240996612"><ele>2106</ele><time>2025-02-16T00:48:21Z</time></trkpt>
<trkpt lat="36.80425738472852" lon="139.36534794313735"><ele>2109</ele><time>2025-02-16T00:49:35Z</time></trkpt>
<trkpt lat="36.804185147488106" lon="139.36560093390307"><ele>2112</ele><time>2025-02-16T00:50:11Z</time></trkpt>
<trkpt lat="36.80422482315362" lon="139.36585062533766"><ele>2107</ele><time>2025-02-16T00:50:44Z</time></trkpt>
<trkpt lat="36.80407117984214" lon="139.36586387311013"><ele>2113</ele><time>2025-02-16T00:51:24Z</time></trkpt>
<trkpt lat="36.80396095603854" lon="139.3660328289189"><ele>2118</ele><time>2025-02-16T00:52:05Z</time></trkpt>
<trkpt lat="36.803876526333994" lon="139.36623988841754"><ele>2120</ele><time>2025-02-16T00:52:36Z</time></trkpt>
<trkpt lat="36.8038017696761" lon="139.36650430672398"><ele>2119</ele><time>2025-02-16T00:53:14Z</time></trkpt>
<trkpt lat="36.80367578684117" lon="139.36669554548502"><ele>2118</ele><time>2025-02-16T00:53:51Z</time></trkpt>
<trkpt lat="36.803595832949334" lon="139.3668719078439"><ele>2121</ele><time>2025-02-16T00:54:32Z</time></trkpt>
<trkpt lat="36.80343745844988" lon="139.3670810809583"><ele>2121</ele><time>2025-02-16T00:56:01Z</time></trkpt>
<trkpt lat="36.803313535391354" lon="139.36726151062834"><ele>2122</ele><time>2025-02-16T00:56:41Z</time></trkpt>
<trkpt lat="36.8032044229486" lon="139.3673882234405"><ele>2123</ele><time>2025-02-16T00:57:21Z</time></trkpt>
<trkpt lat="36.803047305176186" lon="139.3674421197674"><ele>2125</ele><time>2025-02-16T00:58:05Z</time></trkpt>
<trkpt lat="36.8028778286794" lon="139.3675316201123"><ele>2124</ele><time>2025-02-16T00:59:02Z</time></trkpt>
<trkpt lat="36.802760476410846" lon="139.36766287004062"><ele>2127</ele><time>2025-02-16T00:59:40Z</time></trkpt>
<trkpt lat="36.80263543557352" lon="139.36782781755565"><ele>2133</ele><time>2025-02-16T01:00:21Z</time></trkpt>
<trkpt lat="36.802445800740095" lon="139.3679612147349"><ele>2142</ele><time>2025-02-16T01:01:02Z</time></trkpt>
<trkpt lat="36.80231264601558" lon="139.36805200995923"><ele>2142</ele><time>2025-02-16T01:01:58Z</time></trkpt>
<trkpt lat="36.80216223104218" lon="139.36814951318152"><ele>2145</ele><time>2025-02-16T01:02:30Z</time></trkpt>
<trkpt lat="36.80202317214973" lon="139.36824119973372"><ele>2145</ele><time>2025-02-16T01:03:09Z</time></trkpt>
<trkpt lat="36.801900547594485" lon="139.36816838172183"><ele>2146</ele><time>2025-02-16T01:03:40Z</time></trkpt>
<trkpt lat="36.801748450182124" lon="139.36830347613858"><ele>2150</ele><time>2025-02-16T01:04:27Z</time></trkpt>
<trkpt lat="36.80158376634467" lon="139.3682573418147"><ele>2151</ele><time>2025-02-16T01:05:48Z</time></trkpt>
<trkpt lat="36.801388889579535" lon="139.36824657794511"><ele>2154</ele><time>2025-02-16T01:06:54Z</time></trkpt>
<trkpt lat="36.801305229361326" lon="139.36835610277717"><ele>2157</ele><time>2025-02-16T01:07:33Z</time></trkpt>
<trkpt lat="36.801150798712726" lon="139.36832302840685"><ele>2158</ele><time>2025-02-16T01:08:48Z</time></trkpt>
<trkpt lat="36.80096796542659" lon="139.36822704013943"><ele>2159</ele><time>2025-02-16T01:10:01Z</time></trkpt>
<trkpt lat="36.800824251091235" lon="139.36826206487"><ele>2159</ele><time>2025-02-16T01:10:49Z</time></trkpt>
<trkpt lat="36.80060393021423" lon="139.36834014194378"><ele>2156</ele><time>2025-02-16T01:11:55Z</time></trkpt>
<trkpt lat="36.80044473886603" lon="139.36824743901715"><ele>2160</ele><time>2025-02-16T01:12:27Z</time></trkpt>
<trkpt lat="36.80032763662906" lon="139.36812250009996"><ele>2162</ele><time>2025-02-16T01:13:24Z</time></trkpt>
<trkpt lat="36.800129758852044" lon="139.36802433919183"><ele>2166</ele><time>2025-02-16T01:14:01Z</time></trkpt>
<trkpt lat="36.80015642637023" lon="139.36822772378704"><ele>2171</ele><time>2025-02-16T01:14:44Z</time></trkpt>
<trkpt lat="36.80000377132011" lon="139.36831671010452"><ele>2179</ele><time>2025-02-16T01:16:03Z</time></trkpt>
<trkpt lat="36.79988546987531" lon="139.36837906190502"><ele>2182</ele><time>2025-02-16T01:16:50Z</time></trkpt>
<trkpt lat="36.799708249358225" lon="139.36840026261837"><ele>2189</ele><time>2025-02-16T01:17:26Z</time></trkpt>
<trkpt lat="36.79956885978382" lon="139.36841737288262"><ele>2192</ele><time>2025-02-16T01:17:59Z</time></trkpt>
<trkpt lat="36.7994489542346" lon="139.36849544756188"><ele>2195</ele><time>2025-02-16T01:18:34Z</time></trkpt>
<trkpt lat="36.79925773446969" lon="139.3685320920936"><ele>2200</ele><time>2025-02-16T01:19:28Z</time></trkpt>
<trkpt lat="36.799054379977974" lon="139.36859834495507"><ele>2203</ele><time>2025-02-16T01:20:37Z</time></trkpt>
<trkpt lat="36.79890199220164" lon="139.3686417540946"><ele>2205</ele><time>2025-02-16T01:21:39Z</time></trkpt>
<trkpt lat="36.798725968207094" lon="139.36872104169035"><ele>2207</ele><time>2025-02-16T01:22:12Z</time></trkpt>
<trkpt lat="36.79868108734919" lon="139.3688502693248"><ele>2215</ele><time>2025-02-16T01:23:13Z</time></trkpt>
<trkpt lat="36.79869300865773" lon="139.36898885346528"><ele>2221</ele><time>2025-02-16T01:25:13Z</time></trkpt>
<trkpt lat="36.79854059263841" lon="139.36901333058975"><ele>2223</ele><time>2025-02-16T01:27:02Z</time></trkpt>
<trkpt lat="36.79839527549083" lon="139.3690692110829"><ele>2227</ele><time>2025-02-16T01:27:40Z</time></trkpt>
<trkpt lat="36.798292313398505" lon="139.36926263396333"><ele>2234</ele><time>2025-02-16T01:29:16Z</time></trkpt>
<trkpt lat="36.79815344463377" lon="139.36934516745015"><ele>2238</ele><time>2025-02-16T01:29:50Z</time></trkpt>
<trkpt lat="36.798009437067655" lon="139.36946752536664"><ele>2242</ele><time>2025-02-16T01:31:14Z</time></trkpt>
<trkpt lat="36.7978413113073" lon="139.36943095863865"><ele>2246</ele><time>2025-02-16T01:32:46Z</time></trkpt>
<trkpt lat="36.79771397480962" lon="139.36952738214873"><ele>2245</ele><time>2025-02-16T01:34:53Z</time></trkpt>
<trkpt lat="36.79753319431281" lon="139.36955166352035"><ele>2246</ele><time>2025-02-16T01:36:14Z</time></trkpt>
<trkpt lat="36.797390302035026" lon="139.36963260407262"><ele>2251</ele><time>2025-02-16T01:36:54Z</time></trkpt>
<trkpt lat="36.79723924669614" lon="139.36974142835228"><ele>2255</ele><time>2025-02-16T01:37:31Z</time></trkpt>
<trkpt lat="36.797072465577635" lon="139.36980431958108"><ele>2258</ele><time>2025-02-16T01:38:41Z</time></trkpt>
<trkpt lat="36.79693013775012" lon="139.3699236181088"><ele>2263</ele><time>2025-02-16T01:39:47Z</time></trkpt>
<trkpt lat="36.79682009869837" lon="139.37004704787861"><ele>2267</ele><time>2025-02-16T01:41:00Z</time></trkpt>
<trkpt lat="36.79683627750174" lon="139.37019664796057"><ele>2278</ele><time>2025-02-16T01:45:11Z</time></trkpt>
<trkpt lat="36.796915052523055" lon="139.37026585624054"><ele>2285</ele><time>2025-02-16T01:49:26Z</time></trkpt>
<trkpt lat="36.79682077310328" lon="139.37027316355199"><ele>2284</ele><time>2025-02-16T01:53:12Z</time></trkpt>
<trkpt lat="36.79669096096194" lon="139.37028677740247"><ele>2289</ele><time>2025-02-16T01:54:33Z</time></trkpt>
<trkpt lat="36.79654841036888" lon="139.37028750800482"><ele>2287</ele><time>2025-02-16T01:55:12Z</time></trkpt>
<trkpt lat="36.79641139329246" lon="139.37031052696375"><ele>2287</ele><time>2025-02-16T01:56:48Z</time></trkpt>
<trkpt lat="36.7962721814478" lon="139.37033920028333"><ele>2300</ele><time>2025-02-16T02:17:38Z</time></trkpt>
<trkpt lat="36.79615656986375" lon="139.37044344433116"><ele>2306</ele><time>2025-02-16T02:18:33Z</time></trkpt>
<trkpt lat="36.796118206259145" lon="139.37058790597"><ele>2308</ele><time>2025-02-16T02:19:16Z</time></trkpt>
<trkpt lat="36.79599001930686" lon="139.37065772067857"><ele>2308</ele><time>2025-02-16T02:20:40Z</time></trkpt>
<trkpt lat="36.79585985503684" lon="139.37076659592182"><ele>2313</ele><time>2025-02-16T02:21:22Z</time></trkpt>
<trkpt lat="36.79580485117223" lon="139.3709179212082"><ele>2320</ele><time>2025-02-16T02:22:17Z</time></trkpt>
<trkpt lat="36.79588383876093" lon="139.37108066199704"><ele>2329</ele><time>2025-02-16T02:23:10Z</time></trkpt>
<trkpt lat="36.795955174906936" lon="139.37121642017516"><ele>2337</ele><time>2025-02-16T02:25:45Z</time></trkpt>
<trkpt lat="36.795770338896816" lon="139.3713140897765"><ele>2343</ele><time>2025-02-16T02:26:53Z</time></trkpt>
<trkpt lat="36.79561825249423" lon="139.3713494528673"><ele>2344</ele><time>2025-02-16T02:27:34Z</time></trkpt>
<trkpt lat="36.79544287189539" lon="139.37134523706712"><ele>2343</ele><time>2025-02-16T02:28:22Z</time></trkpt>
<trkpt lat="36.79530511871309" lon="139.371431595713"><ele>2352</ele><time>2025-02-16T02:29:01Z</time></trkpt>
<trkpt lat="36.79524994866816" lon="139.37152913062806"><ele>2357</ele><time>2025-02-16T02:30:14Z</time></trkpt>
<trkpt lat="36.79507044952296" lon="139.37153300867269"><ele>2357</ele><time>2025-02-16T02:30:55Z</time></trkpt>
<trkpt lat="36.79496192772892" lon="139.37162976799044"><ele>2359</ele><time>2025-02-16T02:31:52Z</time></trkpt>
<trkpt lat="36.794921820846554" lon="139.37179316119384"><ele>2365</ele><time>2025-02-16T02:33:18Z</time></trkpt>
<trkpt lat="36.79492246214711" lon="139.37193150460408"><ele>2374</ele><time>2025-02-16T02:34:31Z</time></trkpt>
<trkpt lat="36.794898198417975" lon="139.37206750156653"><ele>2380</ele><time>2025-02-16T02:35:42Z</time></trkpt>
<trkpt lat="36.794811773998774" lon="139.3722131049966"><ele>2393</ele><time>2025-02-16T02:37:09Z</time></trkpt>
<trkpt lat="36.79477328245305" lon="139.37233904153285"><ele>2398</ele><time>2025-02-16T02:38:10Z</time></trkpt>
<trkpt lat="36.79477618666519" lon="139.3725030592672"><ele>2403</ele><time>2025-02-16T02:39:07Z</time></trkpt>
<trkpt lat="36.7947834823093" lon="139.37267091420063"><ele>2407</ele><time>2025-02-16T02:40:09Z</time></trkpt>
<trkpt lat="36.79478232607307" lon="139.3729017871959"><ele>2409</ele><time>2025-02-16T02:53:54Z</time></trkpt>
<trkpt lat="36.79480024509545" lon="139.37312190588847"><ele>2414</ele><time>2025-02-16T02:54:31Z</time></trkpt>
<trkpt lat="36.794941161475734" lon="139.37320853889162"><ele>2420</ele><time>2025-02-16T02:55:09Z</time></trkpt>
<trkpt lat="36.79507605485127" lon="139.3733407983495"><ele>2427</ele><time>2025-02-16T02:56:00Z</time></trkpt>
<trkpt lat="36.79526844770069" lon="139.3733632045631"><ele>2425</ele><time>2025-02-16T02:56:35Z</time></trkpt>
<trkpt lat="36.79546234766612" lon="139.37333660946356"><ele>2428</ele><time>2025-02-16T02:57:14Z</time></trkpt>
<trkpt lat="36.79564146682863" lon="139.3733740371947"><ele>2432</ele><time>2025-02-16T02:57:52Z</time></trkpt>
<trkpt lat="36.79575395250367" lon="139.37348571034948"><ele>2442</ele><time>2025-02-16T02:58:38Z</time></trkpt>
<trkpt lat="36.79593892202473" lon="139.37350819147392"><ele>2444</ele><time>2025-02-16T03:00:13Z</time></trkpt>
<trkpt lat="36.79604264857391" lon="139.3735976339646"><ele>2455</ele><time>2025-02-16T03:00:57Z</time></trkpt>
<trkpt lat="36.79610699171668" lon="139.37372884005717"><ele>2460</ele><time>2025-02-16T03:02:14Z</time></trkpt>
<trkpt lat="36.796228788566914" lon="139.3738017344225"><ele>2463</ele><time>2025-02-16T03:05:37Z</time></trkpt>
<trkpt lat="36.7962151106384" lon="139.3739673330135"><ele>2477</ele><time>2025-02-16T03:08:36Z</time></trkpt>
<trkpt lat="36.79636066966077" lon="139.37395676045318"><ele>2473</ele><time>2025-02-16T03:09:49Z</time></trkpt>
<trkpt lat="36.796336984698506" lon="139.3740912841288"><ele>2481</ele><time>2025-02-16T03:11:12Z</time></trkpt>
<trkpt lat="36.796448481588456" lon="139.3741799788501"><ele>2484</ele><time>2025-02-16T03:12:47Z</time></trkpt>
<trkpt lat="36.7965627597222" lon="139.37418427582324"><ele>2487</ele><time>2025-02-16T03:13:41Z</time></trkpt>
<trkpt lat="36.79655517028386" lon="139.37436217731917"><ele>2504</ele><time>2025-02-16T03:15:04Z</time></trkpt>
<trkpt lat="36.796661881714996" lon="139.3743634834988"><ele>2505</ele><time>2025-02-16T03:15:59Z</time></trkpt>
<trkpt lat="36.79662945243148" lon="139.37448282316703"><ele>2515</ele><time>2025-02-16T03:16:57Z</time></trkpt>
<trkpt lat="36.79678704796588" lon="139.37446551136105"><ele>2509</ele><time>2025-02-16T03:17:59Z</time></trkpt>
<trkpt lat="36.79683958808308" lon="139.3746121803673"><ele>2521</ele><time>2025-02-16T03:19:06Z</time></trkpt>
<trkpt lat="36.796880601881774" lon="139.3747746832033"><ele>2522</ele><time>2025-02-16T03:20:45Z</time></trkpt>
<trkpt lat="36.79705568543364" lon="139.37476881013342"><ele>2524</ele><time>2025-02-16T03:21:28Z</time></trkpt>
<trkpt lat="36.79715005929177" lon="139.37474487106326"><ele>2526</ele><time>2025-02-16T03:22:04Z</time></trkpt>
<trkpt lat="36.79726984677292" lon="139.37467026098"><ele>2528</ele><time>2025-02-16T03:22:43Z</time></trkpt>
<trkpt lat="36.797302755298595" lon="139.37489450776818"><ele>2540</ele><time>2025-02-16T03:23:18Z</time></trkpt>
<trkpt lat="36.797521152534024" lon="139.37498335866013"><ele>2541</ele><time>2025-02-16T03:25:24Z</time></trkpt>
<trkpt lat="36.79759310514624" lon="139.37506849586148"><ele>2548</ele><time>2025-02-16T03:35:37Z</time></trkpt>
<trkpt lat="36.79768745471563" lon="139.37521899622226"><ele>2547</ele><time>2025-02-16T03:36:37Z</time></trkpt>
<trkpt lat="36.797801365044975" lon="139.37542027561105"><ele>2557</ele><time>2025-02-16T03:37:43Z</time></trkpt>
<trkpt lat="36.79791013669945" lon="139.3755233902287"><ele>2560</ele><time>2025-02-16T03:38:26Z</time></trkpt>
<trkpt lat="36.7980187980174" lon="139.37569088205606"><ele>2567</ele><time>2025-02-16T03:39:10Z</time></trkpt>
<trkpt lat="36.79811023585077" lon="139.3756935835935"><ele>2562</ele><time>2025-02-16T03:40:11Z</time></trkpt>
<trkpt lat="36.79819184861877" lon="139.37588940217438"><ele>2559</ele><time>2025-02-16T03:41:13Z</time></trkpt>
<trkpt lat="36.79831675808993" lon="139.37594270085378"><ele>2564</ele><time>2025-02-16T03:42:02Z</time></trkpt>
<trkpt lat="36.79842552501852" lon="139.37607242058482"><ele>2578</ele><time>2025-02-16T03:43:13Z</time></trkpt>
<trkpt lat="36.79849902089624" lon="139.3759126351445"><ele>2575</ele><time>2025-02-16T03:44:25Z</time></trkpt>
<trkpt lat="36.7985942111888" lon="139.37590394173336"><ele>2578</ele><time>2025-02-16T03:52:05Z</time></trkpt>
<trkpt lat="36.798465938205474" lon="139.3759180016948"><ele>2575</ele><time>2025-02-16T04:27:59Z</time></trkpt>
<trkpt lat="36.79837666505249" lon="139.37594282590945"><ele>2568</ele><time>2025-02-16T04:28:49Z</time></trkpt>
<trkpt lat="36.79824758870009" lon="139.37593389147236"><ele>2565</ele><time>2025-02-16T04:29:52Z</time></trkpt>
<trkpt lat="36.79811124883624" lon="139.3757560419394"><ele>2557</ele><time>2025-02-16T04:30:38Z</time></trkpt>
<trkpt lat="36.79792958842001" lon="139.37560467122537"><ele>2559</ele><time>2025-02-16T04:31:14Z</time></trkpt>
<trkpt lat="36.79774601047236" lon="139.37584397307123"><ele>2557</ele><time>2025-02-16T04:31:49Z</time></trkpt>
<trkpt lat="36.797498826393486" lon="139.37588360822852"><ele>2549</ele><time>2025-02-16T04:32:14Z</time></trkpt>
<trkpt lat="36.79732902767468" lon="139.37603731437457"><ele>2545</ele><time>2025-02-16T04:32:44Z</time></trkpt>
<trkpt lat="36.79723596931734" lon="139.3762636809563"><ele>2540</ele><time>2025-02-16T04:33:16Z</time></trkpt>
<trkpt lat="36.79714877866095" lon="139.37656404396438"><ele>2540</ele><time>2025-02-16T04:33:44Z</time></trkpt>
<trkpt lat="36.797069766673346" lon="139.37676306979233"><ele>2544</ele><time>2025-02-16T04:34:17Z</time></trkpt>
<trkpt lat="36.79700861337191" lon="139.37703700036286"><ele>2543</ele><time>2025-02-16T04:34:52Z</time></trkpt>
<trkpt lat="36.79702484256911" lon="139.37720856192772"><ele>2543</ele><time>2025-02-16T04:35:21Z</time></trkpt>
<trkpt lat="36.79697100298872" lon="139.37738360577626"><ele>2542</ele><time>2025-02-16T04:35:56Z</time></trkpt>
<trkpt lat="36.79683242594813" lon="139.37758787532852"><ele>2534</ele><time>2025-02-16T04:36:40Z</time></trkpt>
<trkpt lat="36.79669368342769" lon="139.37748519638004"><ele>2527</ele><time>2025-02-16T04:37:19Z</time></trkpt>
<trkpt lat="36.79656506161046" lon="139.3774155478155"><ele>2526</ele><time>2025-02-16T04:57:04Z</time></trkpt>
<trkpt lat="36.79623525079845" lon="139.37693728187006"><ele>2504</ele><time>2025-02-16T05:00:15Z</time></trkpt>
<trkpt lat="36.795826201260724" lon="139.3771859174327"><ele>2475</ele><time>2025-02-16T05:00:36Z</time></trkpt>
<trkpt lat="36.79530540532467" lon="139.3771985319769"><ele>2448</ele><time>2025-02-16T05:00:57Z</time></trkpt>
<trkpt lat="36.795115279453405" lon="139.3775825653649"><ele>2434</ele><time>2025-02-16T05:01:41Z</time></trkpt>
<trkpt lat="36.79453564572639" lon="139.37773672399274"><ele>2389</ele><time>2025-02-16T05:02:44Z</time></trkpt>
<trkpt lat="36.79453122420824" lon="139.37800646749378"><ele>2387</ele><time>2025-02-16T05:03:12Z</time></trkpt>
<trkpt lat="36.79447145929348" lon="139.37855262618154"><ele>2372</ele><time>2025-02-16T05:04:16Z</time></trkpt>
<trkpt lat="36.794360999704466" lon="139.37909461315854"><ele>2349</ele><time>2025-02-16T05:04:47Z</time></trkpt>
<trkpt lat="36.79442040463184" lon="139.37931112611165"><ele>2342</ele><time>2025-02-16T05:05:14Z</time></trkpt>
<trkpt lat="36.794451294980796" lon="139.37951305157168"><ele>2339</ele><time>2025-02-16T05:06:02Z</time></trkpt>
<trkpt lat="36.79486336149268" lon="139.38062612560373"><ele>2316</ele><time>2025-02-16T05:08:27Z</time></trkpt>
<trkpt lat="36.7952290203592" lon="139.38176894276606"><ele>2287</ele><time>2025-02-16T05:08:48Z</time></trkpt>
<trkpt lat="36.795368148707475" lon="139.38282863295802"><ele>2272</ele><time>2025-02-16T05:09:10Z</time></trkpt>
<trkpt lat="36.79531874092014" lon="139.38308768000164"><ele>2265</ele><time>2025-02-16T05:09:50Z</time></trkpt>
<trkpt lat="36.795629750967386" lon="139.38423346901683"><ele>2246</ele><time>2025-02-16T05:10:14Z</time></trkpt>
<trkpt lat="36.79626971305591" lon="139.3849050525364"><ele>2240</ele><time>2025-02-16T05:10:36Z</time></trkpt>
<trkpt lat="36.79683850292806" lon="139.38529357786575"><ele>2235</ele><time>2025-02-16T05:11:55Z</time></trkpt>
<trkpt lat="36.797657127960115" lon="139.38553601037836"><ele>2222</ele><time>2025-02-16T05:12:37Z</time></trkpt>
<trkpt lat="36.79770020991338" lon="139.38574085068095"><ele>2214</ele><time>2025-02-16T05:13:33Z</time></trkpt>
<trkpt lat="36.79869958454477" lon="139.385436445425"><ele>2192</ele><time>2025-02-16T05:13:59Z</time></trkpt>
<trkpt lat="36.7993034420111" lon="139.3847906805887"><ele>2179</ele><time>2025-02-16T05:14:34Z</time></trkpt>
<trkpt lat="36.7993674653013" lon="139.38460620761245"><ele>2173</ele><time>2025-02-16T05:16:03Z</time></trkpt>
<trkpt lat="36.79968147028154" lon="139.3845261295669"><ele>2172</ele><time>2025-02-16T05:23:11Z</time></trkpt>
<trkpt lat="36.7999307612585" lon="139.38430569334983"><ele>2172</ele><time>2025-02-16T05:23:59Z</time></trkpt>
<trkpt lat="36.80019098162053" lon="139.3841559106713"><ele>2171</ele><time>2025-02-16T05:24:28Z</time></trkpt>
<trkpt lat="36.80036540422799" lon="139.38407254259312"><ele>2169</ele><time>2025-02-16T05:25:13Z</time></trkpt>
<trkpt lat="36.80066934619663" lon="139.3839579809582"><ele>2169</ele><time>2025-02-16T05:25:39Z</time></trkpt>
<trkpt lat="36.80091463862129" lon="139.38386968361303"><ele>2169</ele><time>2025-02-16T05:26:07Z</time></trkpt>
<trkpt lat="36.801198395007816" lon="139.38379367676308"><ele>2169</ele><time>2025-02-16T05:26:37Z</time></trkpt>
<trkpt lat="36.80147588565903" lon="139.38373459807934"><ele>2170</ele><time>2025-02-16T05:27:06Z</time></trkpt>
<trkpt lat="36.801708241400505" lon="139.38361346853188"><ele>2168</ele><time>2025-02-16T05:27:33Z</time></trkpt>
<trkpt lat="36.80195634685954" lon="139.38342485905775"><ele>2168</ele><time>2025-02-16T05:28:03Z</time></trkpt>
<trkpt lat="36.8021216798055" lon="139.38324816954741"><ele>2170</ele><time>2025-02-16T05:28:33Z</time></trkpt>
<trkpt lat="36.802300081146285" lon="139.3830162410783"><ele>2172</ele><time>2025-02-16T05:29:42Z</time></trkpt>
<trkpt lat="36.802435307941195" lon="139.3827511183922"><ele>2174</ele><time>2025-02-16T05:30:12Z</time></trkpt>
<trkpt lat="36.802557405626835" lon="139.38250250107703"><ele>2175</ele><time>2025-02-16T05:30:41Z</time></trkpt>
<trkpt lat="36.80264461346565" lon="139.38220756407438"><ele>2178</ele><time>2025-02-16T05:31:15Z</time></trkpt>
<trkpt lat="36.802735421898525" lon="139.38193314304746"><ele>2179</ele><time>2025-02-16T05:31:47Z</time></trkpt>
<trkpt lat="36.80269777008001" lon="139.38168531154972"><ele>2182</ele><time>2025-02-16T05:32:18Z</time></trkpt>
<trkpt lat="36.80258900646147" lon="139.38146743853238"><ele>2186</ele><time>2025-02-16T05:32:51Z</time></trkpt>
<trkpt lat="36.80240966099892" lon="139.38135988390698"><ele>2192</ele><time>2025-02-16T05:33:25Z</time></trkpt>
<trkpt lat="36.802320471801195" lon="139.38122110081173"><ele>2198</ele><time>2025-02-16T05:34:32Z</time></trkpt>
<trkpt lat="36.80226714490696" lon="139.3810869114864"><ele>2203</ele><time>2025-02-16T05:35:32Z</time></trkpt>
<trkpt lat="36.80222923847646" lon="139.38096032877823"><ele>2206</ele><time>2025-02-16T05:36:07Z</time></trkpt>
<trkpt lat="36.80225320375108" lon="139.38082961482783"><ele>2212</ele><time>2025-02-16T05:36:47Z</time></trkpt>
<trkpt lat="36.802250852277446" lon="139.3806477660095"><ele>2214</ele><time>2025-02-16T05:37:39Z</time></trkpt>
<trkpt lat="36.80233577646544" lon="139.38046487508376"><ele>2219</ele><time>2025-02-16T05:38:34Z</time></trkpt>
<trkpt lat="36.80241188526092" lon="139.3803987940335"><ele>2221</ele><time>2025-02-16T05:39:57Z</time></trkpt>
<trkpt lat="36.80247586918081" lon="139.38027255025057"><ele>2226</ele><time>2025-02-16T05:41:17Z</time></trkpt>
<trkpt lat="36.80239680108203" lon="139.38011930982864"><ele>2229</ele><time>2025-02-16T05:42:26Z</time></trkpt>
<trkpt lat="36.80252178324409" lon="139.38006216561848"><ele>2233</ele><time>2025-02-16T05:43:38Z</time></trkpt>
<trkpt lat="36.8025728438135" lon="139.37992096451475"><ele>2239</ele><time>2025-02-16T05:44:42Z</time></trkpt>
<trkpt lat="36.80250999309022" lon="139.37974870680728"><ele>2242</ele><time>2025-02-16T05:45:44Z</time></trkpt>
<trkpt lat="36.80259427167597" lon="139.37959013621807"><ele>2253</ele><time>2025-02-16T05:47:19Z</time></trkpt>
<trkpt lat="36.80264278426463" lon="139.37942829181432"><ele>2259</ele><time>2025-02-16T05:48:14Z</time></trkpt>
<trkpt lat="36.80260859190601" lon="139.37922076453208"><ele>2261</ele><time>2025-02-16T05:49:03Z</time></trkpt>
<trkpt lat="36.80257938870213" lon="139.3790700548038"><ele>2262</ele><time>2025-02-16T05:49:37Z</time></trkpt>
<trkpt lat="36.80260505064153" lon="139.3788410812357"><ele>2269</ele><time>2025-02-16T05:50:22Z</time></trkpt>
<trkpt lat="36.802672336317244" lon="139.37858977134835"><ele>2271</ele><time>2025-02-16T05:50:59Z</time></trkpt>
<trkpt lat="36.802746393921865" lon="139.3783189596649"><ele>2275</ele><time>2025-02-16T05:51:32Z</time></trkpt>
<trkpt lat="36.80288462080862" lon="139.3780589802347"><ele>2279</ele><time>2025-02-16T05:52:02Z</time></trkpt>
<trkpt lat="36.802999702115024" lon="139.37770499365269"><ele>2278</ele><time>2025-02-16T05:52:31Z</time></trkpt>
<trkpt lat="36.803170744878834" lon="139.377341149736"><ele>2274</ele><time>2025-02-16T05:53:10Z</time></trkpt>
<trkpt lat="36.803208979854276" lon="139.37717742310016"><ele>2273</ele><time>2025-02-16T05:53:41Z</time></trkpt>
<trkpt lat="36.80325710941938" lon="139.3768334489663"><ele>2270</ele><time>2025-02-16T05:54:28Z</time></trkpt>
<trkpt lat="36.80323328419141" lon="139.3765677556852"><ele>2268</ele><time>2025-02-16T05:55:04Z</time></trkpt>
<trkpt lat="36.80326170019909" lon="139.376409386236"><ele>2269</ele><time>2025-02-16T05:55:46Z</time></trkpt>
<trkpt lat="36.80345549283897" lon="139.3763189341733"><ele>2264</ele><time>2025-02-16T05:56:42Z</time></trkpt>
<trkpt lat="36.803551967821726" lon="139.37609525996356"><ele>2260</ele><time>2025-02-16T05:57:17Z</time></trkpt>
<trkpt lat="36.80369070074229" lon="139.37582722607164"><ele>2253</ele><time>2025-02-16T05:57:49Z</time></trkpt>
<trkpt lat="36.803817701924" lon="139.37556252591716"><ele>2260</ele><time>2025-02-16T05:58:22Z</time></trkpt>
<trkpt lat="36.803904098827026" lon="139.37538586871165"><ele>2262</ele><time>2025-02-16T05:58:59Z</time></trkpt>
<trkpt lat="36.80401750489348" lon="139.375238207918"><ele>2266</ele><time>2025-02-16T05:59:43Z</time></trkpt>
<trkpt lat="36.80397286741967" lon="139.37504041848604"><ele>2269</ele><time>2025-02-16T06:00:24Z</time></trkpt>
<trkpt lat="36.80392981229585" lon="139.37482731287693"><ele>2272</ele><time>2025-02-16T06:01:04Z</time></trkpt>
<trkpt lat="36.803880197183794" lon="139.37461255035228"><ele>2277</ele><time>2025-02-16T06:01:52Z</time></trkpt>
<trkpt lat="36.803864036957215" lon="139.37439051021528"><ele>2281</ele><time>2025-02-16T06:02:31Z</time></trkpt>
<trkpt lat="36.80390790575503" lon="139.37418019823087"><ele>2288</ele><time>2025-02-16T06:03:19Z</time></trkpt>
<trkpt lat="36.80391092640009" lon="139.37390443072925"><ele>2289</ele><time>2025-02-16T06:03:51Z</time></trkpt>
<trkpt lat="36.803920110316355" lon="139.3736275315946"><ele>2289</ele><time>2025-02-16T06:04:22Z</time></trkpt>
<trkpt lat="36.80392363043775" lon="139.37339942996726"><ele>2289</ele><time>2025-02-16T06:05:17Z</time></trkpt>
<trkpt lat="36.80385215061867" lon="139.37285229204997"><ele>2285</ele><time>2025-02-16T06:18:13Z</time></trkpt>
<trkpt lat="36.80390646555041" lon="139.37263017797207"><ele>2280</ele><time>2025-02-16T06:19:11Z</time></trkpt>
<trkpt lat="36.803944057183244" lon="139.37248675819592"><ele>2271</ele><time>2025-02-16T06:19:47Z</time></trkpt>
<trkpt lat="36.80409411321076" lon="139.37220880850353"><ele>2267</ele><time>2025-02-16T06:21:28Z</time></trkpt>
<trkpt lat="36.80411948993924" lon="139.3718118517049"><ele>2253</ele><time>2025-02-16T06:21:54Z</time></trkpt>
<trkpt lat="36.804253071878264" lon="139.37156477941977"><ele>2244</ele><time>2025-02-16T06:22:54Z</time></trkpt>
<trkpt lat="36.8043758183538" lon="139.37121108017524"><ele>2231</ele><time>2025-02-16T06:24:39Z</time></trkpt>
<trkpt lat="36.804588931399415" lon="139.3711936826742"><ele>2222</ele><time>2025-02-16T06:25:18Z</time></trkpt>
<trkpt lat="36.80461436997394" lon="139.37100032314987"><ele>2218</ele><time>2025-02-16T06:25:40Z</time></trkpt>
<trkpt lat="36.80479856005053" lon="139.37081178707567"><ele>2205</ele><time>2025-02-16T06:26:06Z</time></trkpt>
<trkpt lat="36.805016381644975" lon="139.37046037050024"><ele>2185</ele><time>2025-02-16T06:26:36Z</time></trkpt>
<trkpt lat="36.805075394560966" lon="139.3702420860361"><ele>2177</ele><time>2025-02-16T06:27:07Z</time></trkpt>
<trkpt lat="36.8052788362116" lon="139.36999176465508"><ele>2157</ele><time>2025-02-16T06:27:38Z</time></trkpt>
<trkpt lat="36.805333664689826" lon="139.3694417312051"><ele>2138</ele><time>2025-02-16T06:28:21Z</time></trkpt>
<trkpt lat="36.805315149837135" lon="139.36904573800038"><ele>2126</ele><time>2025-02-16T06:28:50Z</time></trkpt>
<trkpt lat="36.805071963252" lon="139.36820974291714"><ele>2119</ele><time>2025-02-16T06:29:11Z</time></trkpt>
<trkpt lat="36.80513832676826" lon="139.3678489180855"><ele>2116</ele><time>2025-02-16T06:29:34Z</time></trkpt>
<trkpt lat="36.80498248394689" lon="139.3676876482218"><ele>2111</ele><time>2025-02-16T06:30:08Z</time></trkpt>
<trkpt lat="36.804845219994796" lon="139.36756089896716"><ele>2108</ele><time>2025-02-16T06:30:58Z</time></trkpt>
<trkpt lat="36.80475167134492" lon="139.3675405826608"><ele>2110</ele><time>2025-02-16T06:32:32Z</time></trkpt>
<trkpt lat="36.805038776388365" lon="139.36776320095336"><ele>2108</ele><time>2025-02-16T06:37:25Z</time></trkpt>
<trkpt lat="36.8052507724278" lon="139.36792000654984"><ele>2112</ele><time>2025-02-16T06:37:55Z</time></trkpt>
<trkpt lat="36.805486316744854" lon="139.36803357712955"><ele>2111</ele><time>2025-02-16T06:38:26Z</time></trkpt>
<trkpt lat="36.805717219052546" lon="139.3679194397124"><ele>2113</ele><time>2025-02-16T06:39:19Z</time></trkpt>
<trkpt lat="36.805902632530554" lon="139.36807756848353"><ele>2116</ele><time>2025-02-16T06:40:05Z</time></trkpt>
<trkpt lat="36.80618032232054" lon="139.36816905041212"><ele>2114</ele><time>2025-02-16T06:40:53Z</time></trkpt>
<trkpt lat="36.80635606981833" lon="139.368297638312"><ele>2111</ele><time>2025-02-16T06:41:25Z</time></trkpt>
<trkpt lat="36.80665454833969" lon="139.36831868776326"><ele>2110</ele><time>2025-02-16T06:41:52Z</time></trkpt>
<trkpt lat="36.80705952603173" lon="139.3683329210522"><ele>2107</ele><time>2025-02-16T06:42:22Z</time></trkpt>
<trkpt lat="36.807188624700224" lon="139.36822680547053"><ele>2106</ele><time>2025-02-16T06:42:48Z</time></trkpt>
<trkpt lat="36.80767417459308" lon="139.36804290014783"><ele>2096</ele><time>2025-02-16T06:43:16Z</time></trkpt>
<trkpt lat="36.80800152635201" lon="139.36761326223203"><ele>2084</ele><time>2025-02-16T06:43:39Z</time></trkpt>
<trkpt lat="36.80802957145798" lon="139.36747702367848"><ele>2081</ele><time>2025-02-16T06:44:43Z</time></trkpt>
<trkpt lat="36.80773903021826" lon="139.36694889906155"><ele>2064</ele><time>2025-02-16T06:46:22Z</time></trkpt>
<trkpt lat="36.80759586291885" lon="139.36677496025317"><ele>2061</ele><time>2025-02-16T06:46:54Z</time></trkpt>
<trkpt lat="36.80710384471067" lon="139.36632789882944"><ele>2053</ele><time>2025-02-16T06:47:18Z</time></trkpt>
<trkpt lat="36.80704876948187" lon="139.36623546757326"><ele>2056</ele><time>2025-02-16T06:47:51Z</time></trkpt>
<trkpt lat="36.8068068279228" lon="139.3660783865496"><ele>2054</ele><time>2025-02-16T06:50:33Z</time></trkpt>
<trkpt lat="36.8066206034021" lon="139.36595207753606"><ele>2046</ele><time>2025-02-16T06:51:06Z</time></trkpt>
<trkpt lat="36.80646163808792" lon="139.3657750160893"><ele>2049</ele><time>2025-02-16T06:52:43Z</time></trkpt>
<trkpt lat="36.806285687381525" lon="139.3656239034604"><ele>2053</ele><time>2025-02-16T06:53:14Z</time></trkpt>
<trkpt lat="36.80610972314878" lon="139.36538753674435"><ele>2050</ele><time>2025-02-16T06:54:23Z</time></trkpt>
<trkpt lat="36.80592978075412" lon="139.3654268356471"><ele>2053</ele><time>2025-02-16T06:55:03Z</time></trkpt>
<trkpt lat="36.80595616306401" lon="139.3652332846518"><ele>2052</ele><time>2025-02-16T06:55:34Z</time></trkpt>
<trkpt lat="36.806006068441285" lon="139.36533079437245"><ele>2055</ele><time>2025-02-16T06:57:34Z</time></trkpt>
<trkpt lat="36.805803826582135" lon="139.36509488346562"><ele>2057</ele><time>2025-02-16T07:01:28Z</time></trkpt>
<trkpt lat="36.805677517892995" lon="139.3649648374507"><ele>2053</ele><time>2025-02-16T07:02:02Z</time></trkpt>
<trkpt lat="36.80549476108792" lon="139.36481341172933"><ele>2057</ele><time>2025-02-16T07:02:37Z</time></trkpt>
<trkpt lat="36.80537123880532" lon="139.3645421025744"><ele>2057</ele><time>2025-02-16T07:03:06Z</time></trkpt>
<trkpt lat="36.80525872250147" lon="139.36433631164203"><ele>2057</ele><time>2025-02-16T07:03:35Z</time></trkpt>
<trkpt lat="36.805097945685844" lon="139.36410794968464"><ele>2056</ele><time>2025-02-16T07:04:02Z</time></trkpt>
<trkpt lat="36.80517151678689" lon="139.36374212113313"><ele>2056</ele><time>2025-02-16T07:04:44Z</time></trkpt>
<trkpt lat="36.80524596634481" lon="139.3631388076293"><ele>2047</ele><time>2025-02-16T07:05:06Z</time></trkpt>
<trkpt lat="36.80522841097063" lon="139.3629725404692"><ele>2050</ele><time>2025-02-16T07:05:36Z</time></trkpt>
<trkpt lat="36.805402924216565" lon="139.3625907453397"><ele>2041</ele><time>2025-02-16T07:06:51Z</time></trkpt>
<trkpt lat="36.80556448574443" lon="139.36240445440086"><ele>2043</ele><time>2025-02-16T07:07:19Z</time></trkpt>
<trkpt lat="36.80583655048212" lon="139.36212585451221"><ele>2044</ele><time>2025-02-16T07:07:56Z</time></trkpt>
<trkpt lat="36.805978707658475" lon="139.3619982613954"><ele>2045</ele><time>2025-02-16T07:08:25Z</time></trkpt>
<trkpt lat="36.80607042152999" lon="139.36144382042184"><ele>2039</ele><time>2025-02-16T07:08:52Z</time></trkpt>
<trkpt lat="36.80616143734713" lon="139.36092280242326"><ele>2036</ele><time>2025-02-16T07:09:15Z</time></trkpt>
<trkpt lat="36.80638649174378" lon="139.3606561367058"><ele>2037</ele><time>2025-02-16T07:09:55Z</time></trkpt>
<trkpt lat="36.806576503901994" lon="139.36037200332385"><ele>2034</ele><time>2025-02-16T07:10:23Z</time></trkpt>
<trkpt lat="36.80687415528908" lon="139.3600736063622"><ele>2032</ele><time>2025-02-16T07:10:48Z</time></trkpt>
<trkpt lat="36.80691157206846" lon="139.35982108823436"><ele>2023</ele><time>2025-02-16T07:11:14Z</time></trkpt>
<trkpt lat="36.806953175390156" lon="139.35924632018052"><ele>2017</ele><time>2025-02-16T07:11:38Z</time></trkpt>
<trkpt lat="36.80687403405701" lon="139.35887234442325"><ele>2016</ele><time>2025-02-16T07:12:04Z</time></trkpt>
<trkpt lat="36.806941629220105" lon="139.3585559652753"><ele>2013</ele><time>2025-02-16T07:12:29Z</time></trkpt>
<trkpt lat="36.80730834370499" lon="139.35826301966316"><ele>2017</ele><time>2025-02-16T07:12:52Z</time></trkpt>
<trkpt lat="36.80741116666686" lon="139.35801798988032"><ele>2011</ele><time>2025-02-16T07:13:28Z</time></trkpt>
<trkpt lat="36.807312655068564" lon="139.35757082049847"><ele>2007</ele><time>2025-02-16T07:13:55Z</time></trkpt>
<trkpt lat="36.80725307713689" lon="139.35722857532406"><ele>2004</ele><time>2025-02-16T07:14:19Z</time></trkpt>
<trkpt lat="36.807398633964404" lon="139.3568185271598"><ele>2010</ele><time>2025-02-16T07:14:46Z</time></trkpt>
<trkpt lat="36.80739616876089" lon="139.35633704438658"><ele>2005</ele><time>2025-02-16T07:15:16Z</time></trkpt>
<trkpt lat="36.8070597461912" lon="139.35622466623454"><ele>1996</ele><time>2025-02-16T07:15:43Z</time></trkpt>
<trkpt lat="36.80671361042168" lon="139.35595045665397"><ele>1996</ele><time>2025-02-16T07:16:07Z</time></trkpt>
<trkpt lat="36.806473193566426" lon="139.35574862593236"><ele>1995</ele><time>2025-02-16T07:16:52Z</time></trkpt>
<trkpt lat="36.80661246676329" lon="139.3552996602337"><ele>1996</ele><time>2025-02-16T07:18:41Z</time></trkpt>
<trkpt lat="36.80671666991561" lon="139.3550224724214"><ele>1998</ele><time>2025-02-16T07:19:10Z</time></trkpt>
<trkpt lat="36.80656683035759" lon="139.354985074514"><ele>1995</ele><time>2025-02-16T07:20:32Z</time></trkpt>
<trkpt lat="36.80664920997766" lon="139.35487828503008"><ele>1995</ele><time>2025-02-16T07:21:18Z</time></trkpt>
<trkpt lat="36.80672966433327" lon="139.35479733673182"><ele>1994</ele><time>2025-02-16T07:29:10Z</time></trkpt>
<trkpt lat="36.80660420431431" lon="139.3551380175047"><ele>1997</ele><time>2025-02-16T07:35:51Z</time></trkpt>
<trkpt lat="36.806708081454744" lon="139.35500546942106"><ele>2001</ele><time>2025-02-16T07:36:39Z</time></trkpt>
<trkpt lat="36.80673433296161" lon="139.35481914525542"><ele>1996</ele><time>2025-02-16T07:39:53Z</time></trkpt>
<trkpt lat="36.807258106018686" lon="139.35404920170228"><ele>1972</ele><time>2025-02-16T07:43:48Z</time></trkpt>
<trkpt lat="36.807832423010794" lon="139.35292290606"><ele>1947</ele><time>2025-02-16T07:44:09Z</time></trkpt>
<trkpt lat="36.807652281784094" lon="139.35114072957649"><ele>1923</ele><time>2025-02-16T07:44:30Z</time></trkpt>
<trkpt lat="36.80737090254827" lon="139.34968287746116"><ele>1901</ele><time>2025-02-16T07:44:51Z</time></trkpt>
<trkpt lat="36.80688211566711" lon="139.3487386419709"><ele>1875</ele><time>2025-02-16T07:45:12Z</time></trkpt>
<trkpt lat="36.80668953083561" lon="139.34690180997805"><ele>1846</ele><time>2025-02-16T07:45:33Z</time></trkpt>
<trkpt lat="36.80790124663888" lon="139.34556250085757"><ele>1836</ele><time>2025-02-16T07:45:54Z</time></trkpt>
<trkpt lat="36.80849736341932" lon="139.34424064261214"><ele>1826</ele><time>2025-02-16T07:46:15Z</time></trkpt>
<trkpt lat="36.80784521616673" lon="139.34327535007475"><ele>1810</ele><time>2025-02-16T07:46:36Z</time></trkpt>
<trkpt lat="36.80686640099634" lon="139.34270444584072"><ele>1787</ele><time>2025-02-16T07:46:57Z</time></trkpt>
<trkpt lat="36.807796652338084" lon="139.34248472109604"><ele>1772</ele><time>2025-02-16T07:47:18Z</time></trkpt>
<trkpt lat="36.8087603026199" lon="139.34201565104578"><ele>1757</ele><time>2025-02-16T07:47:40Z</time></trkpt>
<trkpt lat="36.80952451075112" lon="139.34216843810935"><ele>1732</ele><time>2025-02-16T07:48:02Z</time></trkpt>
<trkpt lat="36.81028567106959" lon="139.34239461243098"><ele>1698</ele><time>2025-02-16T07:48:23Z</time></trkpt>
<trkpt lat="36.811183446855324" lon="139.3435231650864"><ele>1666</ele><time>2025-02-16T07:48:44Z</time></trkpt>
<trkpt lat="36.81211424093972" lon="139.3448167908261"><ele>1633</ele><time>2025-02-16T07:49:05Z</time></trkpt>
<trkpt lat="36.81354120447857" lon="139.34371946316406"><ele>1597</ele><time>2025-02-16T07:49:25Z</time></trkpt>
<trkpt lat="36.81423023611763" lon="139.34201672933798"><ele>1568</ele><time>2025-02-16T07:49:46Z</time></trkpt>
<trkpt lat="36.81436224291839" lon="139.34159478416038"><ele>1554</ele><time>2025-02-16T07:50:07Z</time></trkpt>
<trkpt lat="36.8145511168618" lon="139.34034082017382"><ele>1526</ele><time>2025-02-16T07:50:28Z</time></trkpt>
<trkpt lat="36.81425209773343" lon="139.33853490791375"><ele>1499</ele><time>2025-02-16T07:50:49Z</time></trkpt>
<trkpt lat="36.81394095745712" lon="139.33630819326643"><ele>1481</ele><time>2025-02-16T07:51:10Z</time></trkpt>
<trkpt lat="36.81370921906058" lon="139.3344672367186"><ele>1470</ele><time>2025-02-16T07:51:30Z</time></trkpt>
<trkpt lat="36.813816722530476" lon="139.33270237777955"><ele>1439</ele><time>2025-02-16T07:51:52Z</time></trkpt>
<trkpt lat="36.814620899694624" lon="139.33100388512764"><ele>1398</ele><time>2025-02-16T07:52:13Z</time></trkpt>
<trkpt lat="36.814800737410025" lon="139.33066415379201"><ele>1392</ele><time>2025-02-16T07:52:34Z</time></trkpt>
<trkpt lat="36.8148583503844" lon="139.33054154739568"><ele>1387</ele><time>2025-02-16T07:53:08Z</time></trkpt>
</trkseg>
</trk>
</gpx>