<?xml version="1.0" encoding="UTF-8"?>
<gpx xmlns:xsi="http://www.w3.org/2001/XMLSchema-instance" xmlns="http://www.topografix.com/GPX/1/1" xsi:schemaLocation="http://www.topografix.com/GPX/1/1 http://www.topografix.com/GPX/1/1/gpx.xsd" creator="Yamareco iOS 7.26 - www.yamareco.com">
<trk><name>track</name><number>1</number><trkseg>
<trkpt lat="40.67485925001127" lon="140.93929476931538"><ele>613</ele><time>2025-03-18T02:52:14Z</time></trkpt>
<trkpt lat="40.674738298222664" lon="140.93928940127302"><ele>617</ele><time>2025-03-18T02:52:48Z</time></trkpt>
<trkpt lat="40.674629626072104" lon="140.93903251171704"><ele>610</ele><time>2025-03-18T02:55:38Z</time></trkpt>
<trkpt lat="40.674583828182335" lon="140.93862119561697"><ele>614</ele><time>2025-03-18T02:56:30Z</time></trkpt>
<trkpt lat="40.67450567276724" lon="140.93830165360376"><ele>623</ele><time>2025-03-18T02:57:03Z</time></trkpt>
<trkpt lat="40.67441379610757" lon="140.9379449396818"><ele>626</ele><time>2025-03-18T02:58:06Z</time></trkpt>
<trkpt lat="40.67423074367792" lon="140.93758177064254"><ele>630</ele><time>2025-03-18T02:59:07Z</time></trkpt>
<trkpt lat="40.674061839806406" lon="140.93721721159883"><ele>625</ele><time>2025-03-18T02:59:39Z</time></trkpt>
<trkpt lat="40.67391892638201" lon="140.93688996880866"><ele>623</ele><time>2025-03-18T03:00:07Z</time></trkpt>
<trkpt lat="40.6737761561775" lon="140.93654270964495"><ele>624</ele><time>2025-03-18T03:00:35Z</time></trkpt>
<trkpt lat="40.67362823961011" lon="140.9362098813577"><ele>622</ele><time>2025-03-18T03:01:04Z</time></trkpt>
<trkpt lat="40.673646740420466" lon="140.93590308311803"><ele>626</ele><time>2025-03-18T03:01:37Z</time></trkpt>
<trkpt lat="40.673557656190425" lon="140.93564998430807"><ele>621</ele><time>2025-03-18T03:02:06Z</time></trkpt>
<trkpt lat="40.67342513250035" lon="140.93546800431392"><ele>635</ele><time>2025-03-18T03:02:36Z</time></trkpt>
<trkpt lat="40.67328354855022" lon="140.9352785460118"><ele>632</ele><time>2025-03-18T03:03:04Z</time></trkpt>
<trkpt lat="40.67308261724261" lon="140.93512720806214"><ele>635</ele><time>2025-03-18T03:03:37Z</time></trkpt>
<trkpt lat="40.67286448822436" lon="140.9350743508613"><ele>634</ele><time>2025-03-18T03:04:08Z</time></trkpt>
<trkpt lat="40.67265052669167" lon="140.9349942797766"><ele>641</ele><time>2025-03-18T03:04:42Z</time></trkpt>
<trkpt lat="40.67243613748175" lon="140.93489092560404"><ele>647</ele><time>2025-03-18T03:05:13Z</time></trkpt>
<trkpt lat="40.67223261180636" lon="140.9347894712435"><ele>646</ele><time>2025-03-18T03:05:47Z</time></trkpt>
<trkpt lat="40.67200538351064" lon="140.93469679130115"><ele>649</ele><time>2025-03-18T03:06:23Z</time></trkpt>
<trkpt lat="40.67177712033965" lon="140.93468414502254"><ele>653</ele><time>2025-03-18T03:06:58Z</time></trkpt>
<trkpt lat="40.671585428600736" lon="140.93461496702977"><ele>659</ele><time>2025-03-18T03:07:27Z</time></trkpt>
<trkpt lat="40.671414304806135" lon="140.9343624069619"><ele>658</ele><time>2025-03-18T03:07:59Z</time></trkpt>
<trkpt lat="40.671267772662674" lon="140.93415916518117"><ele>670</ele><time>2025-03-18T03:08:34Z</time></trkpt>
<trkpt lat="40.6711238892213" lon="140.93396974072343"><ele>661</ele><time>2025-03-18T03:09:04Z</time></trkpt>
<trkpt lat="40.67093686065762" lon="140.93384556854366"><ele>672</ele><time>2025-03-18T03:09:32Z</time></trkpt>
<trkpt lat="40.67067816522485" lon="140.93377912445587"><ele>676</ele><time>2025-03-18T03:10:13Z</time></trkpt>
<trkpt lat="40.67050534126716" lon="140.93369925074822"><ele>675</ele><time>2025-03-18T03:10:43Z</time></trkpt>
<trkpt lat="40.67027735169423" lon="140.93359516798088"><ele>687</ele><time>2025-03-18T03:11:20Z</time></trkpt>
<trkpt lat="40.67006271306637" lon="140.93360245899686"><ele>684</ele><time>2025-03-18T03:11:55Z</time></trkpt>
<trkpt lat="40.669849780766924" lon="140.9335453183443"><ele>690</ele><time>2025-03-18T03:12:30Z</time></trkpt>
<trkpt lat="40.66972885139749" lon="140.9334687586366"><ele>699</ele><time>2025-03-18T03:13:05Z</time></trkpt>
<trkpt lat="40.66958965786027" lon="140.93331043121566"><ele>701</ele><time>2025-03-18T03:14:31Z</time></trkpt>
<trkpt lat="40.66942113519869" lon="140.93310428704288"><ele>697</ele><time>2025-03-18T03:15:04Z</time></trkpt>
<trkpt lat="40.66923002441195" lon="140.9330057026029"><ele>708</ele><time>2025-03-18T03:15:51Z</time></trkpt>
<trkpt lat="40.66910119926022" lon="140.93292845456858"><ele>717</ele><time>2025-03-18T03:16:33Z</time></trkpt>
<trkpt lat="40.66901231432417" lon="140.93279358280287"><ele>721</ele><time>2025-03-18T03:17:07Z</time></trkpt>
<trkpt lat="40.66904228170507" lon="140.93256905357612"><ele>731</ele><time>2025-03-18T03:17:40Z</time></trkpt>
<trkpt lat="40.66885102927371" lon="140.93245836027873"><ele>734</ele><time>2025-03-18T03:18:17Z</time></trkpt>
<trkpt lat="40.66874956333192" lon="140.93226234984988"><ele>739</ele><time>2025-03-18T03:19:12Z</time></trkpt>
<trkpt lat="40.668665146694615" lon="140.9321346772729"><ele>744</ele><time>2025-03-18T03:19:51Z</time></trkpt>
<trkpt lat="40.66853679052104" lon="140.93198959814168"><ele>753</ele><time>2025-03-18T03:20:37Z</time></trkpt>
<trkpt lat="40.66840239531551" lon="140.93177073402163"><ele>763</ele><time>2025-03-18T03:21:25Z</time></trkpt>
<trkpt lat="40.668243934584076" lon="140.9316912491803"><ele>770</ele><time>2025-03-18T03:22:14Z</time></trkpt>
<trkpt lat="40.668145469454885" lon="140.9315646967888"><ele>772</ele><time>2025-03-18T03:23:10Z</time></trkpt>
<trkpt lat="40.66803418384331" lon="140.93161011305344"><ele>774</ele><time>2025-03-18T03:23:54Z</time></trkpt>
<trkpt lat="40.667881991884194" lon="140.93170479831502"><ele>778</ele><time>2025-03-18T03:24:36Z</time></trkpt>
<trkpt lat="40.66773221166313" lon="140.9316925359387"><ele>790</ele><time>2025-03-18T03:25:16Z</time></trkpt>
<trkpt lat="40.66777325788174" lon="140.93146764419572"><ele>797</ele><time>2025-03-18T03:26:03Z</time></trkpt>
<trkpt lat="40.66775098168323" lon="140.93122487521532"><ele>803</ele><time>2025-03-18T03:26:37Z</time></trkpt>
<trkpt lat="40.66755637597508" lon="140.93119402291003"><ele>808</ele><time>2025-03-18T03:27:23Z</time></trkpt>
<trkpt lat="40.66743286446234" lon="140.93110600920042"><ele>818</ele><time>2025-03-18T03:28:19Z</time></trkpt>
<trkpt lat="40.66737919796832" lon="140.93089917934202"><ele>824</ele><time>2025-03-18T03:29:21Z</time></trkpt>
<trkpt lat="40.6672841550099" lon="140.93073073284413"><ele>828</ele><time>2025-03-18T03:30:01Z</time></trkpt>
<trkpt lat="40.66730128852834" lon="140.930479160582"><ele>840</ele><time>2025-03-18T03:30:50Z</time></trkpt>
<trkpt lat="40.667138468410094" lon="140.93044600685937"><ele>839</ele><time>2025-03-18T03:31:27Z</time></trkpt>
<trkpt lat="40.66703336958327" lon="140.93035097619492"><ele>853</ele><time>2025-03-18T03:32:31Z</time></trkpt>
<trkpt lat="40.66687339783429" lon="140.93041132040773"><ele>856</ele><time>2025-03-18T03:33:14Z</time></trkpt>
<trkpt lat="40.66673724366163" lon="140.93036739478057"><ele>858</ele><time>2025-03-18T03:34:00Z</time></trkpt>
<trkpt lat="40.666532476761205" lon="140.93036695789732"><ele>867</ele><time>2025-03-18T03:34:59Z</time></trkpt>
<trkpt lat="40.66638764932996" lon="140.93040505468994"><ele>872</ele><time>2025-03-18T03:35:32Z</time></trkpt>
<trkpt lat="40.666244805304856" lon="140.93033614429027"><ele>879</ele><time>2025-03-18T03:36:23Z</time></trkpt>
<trkpt lat="40.66607929077453" lon="140.93036304249418"><ele>883</ele><time>2025-03-18T03:37:17Z</time></trkpt>
<trkpt lat="40.665930493323074" lon="140.93025862323506"><ele>891</ele><time>2025-03-18T03:38:06Z</time></trkpt>
<trkpt lat="40.66580512222534" lon="140.9303111751507"><ele>898</ele><time>2025-03-18T03:39:05Z</time></trkpt>
<trkpt lat="40.6656882003109" lon="140.93010381397391"><ele>909</ele><time>2025-03-18T03:42:20Z</time></trkpt>
<trkpt lat="40.66553679411776" lon="140.93024656544748"><ele>909</ele><time>2025-03-18T03:42:57Z</time></trkpt>
<trkpt lat="40.66543971300193" lon="140.93027339950646"><ele>920</ele><time>2025-03-18T03:43:31Z</time></trkpt>
<trkpt lat="40.66526700784959" lon="140.93015561615633"><ele>923</ele><time>2025-03-18T03:44:15Z</time></trkpt>
<trkpt lat="40.665133953206556" lon="140.93015099858656"><ele>932</ele><time>2025-03-18T03:44:58Z</time></trkpt>
<trkpt lat="40.66500585996891" lon="140.9300923283044"><ele>940</ele><time>2025-03-18T03:45:45Z</time></trkpt>
<trkpt lat="40.66484336871072" lon="140.9300153311652"><ele>948</ele><time>2025-03-18T03:46:28Z</time></trkpt>
<trkpt lat="40.66469670474179" lon="140.92999676649458"><ele>947</ele><time>2025-03-18T03:47:28Z</time></trkpt>
<trkpt lat="40.66454816419244" lon="140.92997717949382"><ele>959</ele><time>2025-03-18T03:48:22Z</time></trkpt>
<trkpt lat="40.66439594846063" lon="140.9298748590443"><ele>962</ele><time>2025-03-18T03:49:03Z</time></trkpt>
<trkpt lat="40.66428054696346" lon="140.92984970333197"><ele>973</ele><time>2025-03-18T03:49:45Z</time></trkpt>
<trkpt lat="40.66411505009459" lon="140.92981051552067"><ele>972</ele><time>2025-03-18T03:50:23Z</time></trkpt>
<trkpt lat="40.663925574481176" lon="140.92978640182594"><ele>980</ele><time>2025-03-18T03:51:10Z</time></trkpt>
<trkpt lat="40.66383376467535" lon="140.92966214404882"><ele>988</ele><time>2025-03-18T03:52:02Z</time></trkpt>
<trkpt lat="40.663681970934036" lon="140.92951993986892"><ele>991</ele><time>2025-03-18T03:52:47Z</time></trkpt>
<trkpt lat="40.66355392039732" lon="140.92937230455806"><ele>1003</ele><time>2025-03-18T03:53:33Z</time></trkpt>
<trkpt lat="40.66356384851506" lon="140.92915884239898"><ele>1009</ele><time>2025-03-18T03:54:10Z</time></trkpt>
<trkpt lat="40.66351648557969" lon="140.92894181381413"><ele>1019</ele><time>2025-03-18T03:54:53Z</time></trkpt>
<trkpt lat="40.66342204034621" lon="140.92884412898"><ele>1023</ele><time>2025-03-18T03:55:33Z</time></trkpt>
<trkpt lat="40.66329653041445" lon="140.9288391245088"><ele>1030</ele><time>2025-03-18T03:56:18Z</time></trkpt>
<trkpt lat="40.66320598818509" lon="140.92867417238492"><ele>1037</ele><time>2025-03-18T03:57:06Z</time></trkpt>
<trkpt lat="40.6631103252032" lon="140.92846420852925"><ele>1047</ele><time>2025-03-18T03:58:25Z</time></trkpt>
<trkpt lat="40.662944872390206" lon="140.9284712328778"><ele>1050</ele><time>2025-03-18T03:59:05Z</time></trkpt>
<trkpt lat="40.66286620118571" lon="140.92856993170184"><ele>1055</ele><time>2025-03-18T03:59:53Z</time></trkpt>
<trkpt lat="40.66282080668543" lon="140.928423160897"><ele>1061</ele><time>2025-03-18T04:00:54Z</time></trkpt>
<trkpt lat="40.662728076846804" lon="140.92837685630386"><ele>1068</ele><time>2025-03-18T04:01:33Z</time></trkpt>
<trkpt lat="40.66258567147981" lon="140.92837125338346"><ele>1074</ele><time>2025-03-18T04:02:24Z</time></trkpt>
<trkpt lat="40.66247045012959" lon="140.92846496051692"><ele>1072</ele><time>2025-03-18T04:03:16Z</time></trkpt>
<trkpt lat="40.66239947866594" lon="140.928331649153"><ele>1084</ele><time>2025-03-18T04:04:21Z</time></trkpt>
<trkpt lat="40.662277569927554" lon="140.92823386390853"><ele>1092</ele><time>2025-03-18T04:06:05Z</time></trkpt>
<trkpt lat="40.66215958344451" lon="140.9280935246485"><ele>1100</ele><time>2025-03-18T04:06:51Z</time></trkpt>
<trkpt lat="40.66202921995183" lon="140.92797719892332"><ele>1107</ele><time>2025-03-18T04:08:03Z</time></trkpt>
<trkpt lat="40.66197132225251" lon="140.92780684441843"><ele>1118</ele><time>2025-03-18T04:09:37Z</time></trkpt>
<trkpt lat="40.661764036505225" lon="140.92780059624403"><ele>1124</ele><time>2025-03-18T04:10:13Z</time></trkpt>
<trkpt lat="40.661785912684664" lon="140.92756574010832"><ele>1133</ele><time>2025-03-18T04:11:28Z</time></trkpt>
<trkpt lat="40.66170546691023" lon="140.92746331653322"><ele>1137</ele><time>2025-03-18T04:14:07Z</time></trkpt>
<trkpt lat="40.661580373208814" lon="140.92754188666714"><ele>1137</ele><time>2025-03-18T04:15:08Z</time></trkpt>
<trkpt lat="40.661408107708226" lon="140.92757844814153"><ele>1142</ele><time>2025-03-18T04:15:46Z</time></trkpt>
<trkpt lat="40.66142473010075" lon="140.9274495516964"><ele>1149</ele><time>2025-03-18T04:17:52Z</time></trkpt>
<trkpt lat="40.661448437318676" lon="140.927284771465"><ele>1153</ele><time>2025-03-18T04:18:50Z</time></trkpt>
<trkpt lat="40.66135242440512" lon="140.92730995238432"><ele>1159</ele><time>2025-03-18T04:20:04Z</time></trkpt>
<trkpt lat="40.66139427921522" lon="140.9271607241602"><ele>1161</ele><time>2025-03-18T04:21:42Z</time></trkpt>
<trkpt lat="40.66124935970054" lon="140.92708833842298"><ele>1165</ele><time>2025-03-18T04:22:31Z</time></trkpt>
<trkpt lat="40.66112352474478" lon="140.92715951062988"><ele>1170</ele><time>2025-03-18T04:23:12Z</time></trkpt>
<trkpt lat="40.661131292042676" lon="140.92690057233145"><ele>1175</ele><time>2025-03-18T04:24:20Z</time></trkpt>
<trkpt lat="40.66110816512853" lon="140.92671488452228"><ele>1181</ele><time>2025-03-18T04:25:03Z</time></trkpt>
<trkpt lat="40.660951945472554" lon="140.9267953699094"><ele>1188</ele><time>2025-03-18T04:25:40Z</time></trkpt>
<trkpt lat="40.66077769721087" lon="140.9268854602503"><ele>1192</ele><time>2025-03-18T04:26:38Z</time></trkpt>
<trkpt lat="40.660649860559836" lon="140.92671422566082"><ele>1201</ele><time>2025-03-18T04:27:18Z</time></trkpt>
<trkpt lat="40.66057718942201" lon="140.92649329300863"><ele>1209</ele><time>2025-03-18T04:27:53Z</time></trkpt>
<trkpt lat="40.6605501149309" lon="140.92625828985908"><ele>1216</ele><time>2025-03-18T04:28:30Z</time></trkpt>
<trkpt lat="40.66054682002859" lon="140.92606717796295"><ele>1221</ele><time>2025-03-18T04:29:21Z</time></trkpt>
<trkpt lat="40.660578598507605" lon="140.92580256457018"><ele>1219</ele><time>2025-03-18T04:29:54Z</time></trkpt>
<trkpt lat="40.660588511369184" lon="140.9255270231331"><ele>1223</ele><time>2025-03-18T04:30:41Z</time></trkpt>
<trkpt lat="40.66056238919804" lon="140.92528771048046"><ele>1224</ele><time>2025-03-18T04:31:19Z</time></trkpt>
<trkpt lat="40.660575510403326" lon="140.92499439714828"><ele>1228</ele><time>2025-03-18T04:31:59Z</time></trkpt>
<trkpt lat="40.660604427927495" lon="140.9247422344414"><ele>1233</ele><time>2025-03-18T04:32:31Z</time></trkpt>
<trkpt lat="40.66061555645265" lon="140.9245985460569"><ele>1237</ele><time>2025-03-18T04:33:14Z</time></trkpt>
<trkpt lat="40.66062733871133" lon="140.92491335464916"><ele>1242</ele><time>2025-03-18T04:50:01Z</time></trkpt>
<trkpt lat="40.6607172397085" lon="140.92547501539656"><ele>1234</ele><time>2025-03-18T04:50:31Z</time></trkpt>
<trkpt lat="40.66077048250577" lon="140.92592073593332"><ele>1224</ele><time>2025-03-18T04:50:53Z</time></trkpt>
<trkpt lat="40.66078739850073" lon="140.92627549909727"><ele>1212</ele><time>2025-03-18T04:51:18Z</time></trkpt>
<trkpt lat="40.660779529580154" lon="140.92671060305244"><ele>1204</ele><time>2025-03-18T04:52:05Z</time></trkpt>
<trkpt lat="40.66110841647262" lon="140.92692592282475"><ele>1182</ele><time>2025-03-18T04:52:27Z</time></trkpt>
<trkpt lat="40.66133488661138" lon="140.92715994784098"><ele>1166</ele><time>2025-03-18T04:53:08Z</time></trkpt>
<trkpt lat="40.66169934407134" lon="140.92743326697612"><ele>1134</ele><time>2025-03-18T04:54:18Z</time></trkpt>
<trkpt lat="40.66191224848993" lon="140.92762634232915"><ele>1120</ele><time>2025-03-18T04:54:57Z</time></trkpt>
<trkpt lat="40.6621494371305" lon="140.9279275476664"><ele>1103</ele><time>2025-03-18T04:55:19Z</time></trkpt>
<trkpt lat="40.66238010850264" lon="140.92789381597814"><ele>1087</ele><time>2025-03-18T04:55:55Z</time></trkpt>
<trkpt lat="40.66259956791174" lon="140.92784912748638"><ele>1073</ele><time>2025-03-18T04:56:29Z</time></trkpt>
<trkpt lat="40.663300351265384" lon="140.92810108311"><ele>1019</ele><time>2025-03-18T05:00:37Z</time></trkpt>
<trkpt lat="40.663668022144954" lon="140.92855235358354"><ele>997</ele><time>2025-03-18T05:01:13Z</time></trkpt>
<trkpt lat="40.66422695007539" lon="140.92910913808288"><ele>969</ele><time>2025-03-18T05:01:35Z</time></trkpt>
<trkpt lat="40.66491583713232" lon="140.92972279929393"><ele>928</ele><time>2025-03-18T05:02:04Z</time></trkpt>
<trkpt lat="40.66529181543452" lon="140.92969532102393"><ele>916</ele><time>2025-03-18T05:02:27Z</time></trkpt>
<trkpt lat="40.665972712356805" lon="140.92997453988764"><ele>882</ele><time>2025-03-18T05:02:48Z</time></trkpt>
<trkpt lat="40.66660619258503" lon="140.9303524959667"><ele>857</ele><time>2025-03-18T05:03:10Z</time></trkpt>
<trkpt lat="40.66677485102877" lon="140.93063112038905"><ele>844</ele><time>2025-03-18T05:03:45Z</time></trkpt>
<trkpt lat="40.66709938939472" lon="140.93094395881667"><ele>830</ele><time>2025-03-18T05:04:06Z</time></trkpt>
<trkpt lat="40.667662569903385" lon="140.93128153178554"><ele>794</ele><time>2025-03-18T05:04:34Z</time></trkpt>
<trkpt lat="40.66834386822096" lon="140.93213341793216"><ele>754</ele><time>2025-03-18T05:07:46Z</time></trkpt>
<trkpt lat="40.66836200405056" lon="140.93225664238045"><ele>753</ele><time>2025-03-18T05:08:12Z</time></trkpt>
<trkpt lat="40.66885721571057" lon="140.93344443095492"><ele>705</ele><time>2025-03-18T05:08:43Z</time></trkpt>
<trkpt lat="40.669469118175556" lon="140.9343953767207"><ele>687</ele><time>2025-03-18T05:09:05Z</time></trkpt>
<trkpt lat="40.66994755738602" lon="140.9345103278879"><ele>678</ele><time>2025-03-18T05:09:28Z</time></trkpt>
<trkpt lat="40.67021681711805" lon="140.9344835109089"><ele>674</ele><time>2025-03-18T05:09:58Z</time></trkpt>
<trkpt lat="40.670431074061554" lon="140.93436329676618"><ele>676</ele><time>2025-03-18T05:11:02Z</time></trkpt>
<trkpt lat="40.67063093838319" lon="140.9341615209072"><ele>670</ele><time>2025-03-18T05:11:32Z</time></trkpt>
<trkpt lat="40.670754237020034" lon="140.93403141570377"><ele>672</ele><time>2025-03-18T05:12:33Z</time></trkpt>
<trkpt lat="40.67090472912467" lon="140.93397141574113"><ele>671</ele><time>2025-03-18T05:13:17Z</time></trkpt>
<trkpt lat="40.670986818490235" lon="140.93391076969436"><ele>670</ele><time>2025-03-18T05:13:55Z</time></trkpt>
<trkpt lat="40.67132815623186" lon="140.9343563281138"><ele>664</ele><time>2025-03-18T05:14:25Z</time></trkpt>
<trkpt lat="40.67175742808593" lon="140.9347735330718"><ele>655</ele><time>2025-03-18T05:14:47Z</time></trkpt>
<trkpt lat="40.67253175788811" lon="140.93503889933797"><ele>640</ele><time>2025-03-18T05:15:10Z</time></trkpt>
<trkpt lat="40.67293440882808" lon="140.93513434898264"><ele>633</ele><time>2025-03-18T05:15:33Z</time></trkpt>
<trkpt lat="40.67317744423806" lon="140.93526036495388"><ele>634</ele><time>2025-03-18T05:16:01Z</time></trkpt>
<trkpt lat="40.67344824356739" lon="140.9356312733574"><ele>623</ele><time>2025-03-18T05:16:24Z</time></trkpt>
<trkpt lat="40.67358364428006" lon="140.93593068417314"><ele>625</ele><time>2025-03-18T05:16:53Z</time></trkpt>
<trkpt lat="40.67367635204379" lon="140.93633663215252"><ele>619</ele><time>2025-03-18T05:17:22Z</time></trkpt>
<trkpt lat="40.67373545002421" lon="140.93656045817195"><ele>622</ele><time>2025-03-18T05:18:27Z</time></trkpt>
<trkpt lat="40.67381811801929" lon="140.9367970343103"><ele>622</ele><time>2025-03-18T05:18:58Z</time></trkpt>
<trkpt lat="40.67389540860307" lon="140.93700935813263"><ele>625</ele><time>2025-03-18T05:19:27Z</time></trkpt>
<trkpt lat="40.67403141714167" lon="140.93723207864477"><ele>624</ele><time>2025-03-18T05:20:45Z</time></trkpt>
<trkpt lat="40.67407325737231" lon="140.937365302393"><ele>628</ele><time>2025-03-18T05:21:40Z</time></trkpt>
<trkpt lat="40.674211663287934" lon="140.9376094130586"><ele>624</ele><time>2025-03-18T05:22:10Z</time></trkpt>
<trkpt lat="40.67436300336602" lon="140.93798940997434"><ele>625</ele><time>2025-03-18T05:22:38Z</time></trkpt>
<trkpt lat="40.674480506447175" lon="140.93834924085283"><ele>619</ele><time>2025-03-18T05:23:08Z</time></trkpt>
<trkpt lat="40.67457785450827" lon="140.93866150924515"><ele>617</ele><time>2025-03-18T05:23:37Z</time></trkpt>
<trkpt lat="40.67464547753882" lon="140.9389772018489"><ele>615</ele><time>2025-03-18T05:24:04Z</time></trkpt>
<trkpt lat="40.67475058154764" lon="140.9393384424586"><ele>613</ele><time>2025-03-18T05:24:46Z</time></trkpt>
<trkpt lat="40.67485807341352" lon="140.93929105525086"><ele>611</ele><time>2025-03-18T05:26:11Z</time></trkpt>
</trkseg>
</trk>
</gpx>