<?xml version="1.0" encoding="UTF-8"?>
<gpx xmlns:xsi="http://www.w3.org/2001/XMLSchema-instance" xmlns="http://www.topografix.com/GPX/1/1" xsi:schemaLocation="http://www.topografix.com/GPX/1/1 http://www.topografix.com/GPX/1/1/gpx.xsd" creator="Yamareco iOS 7.27 - www.yamareco.com">
<trk><name></name>
<number>1</number>
<trkseg>
<trkpt lat="35.777797373045026" lon="137.8139272706004"><ele>2632</ele><time>2025-03-29T00:18:46Z</time></trkpt>
<trkpt lat="35.777825720276375" lon="137.8140367345718"><ele>2629</ele><time>2025-03-29T00:19:41Z</time></trkpt>
<trkpt lat="35.777974940926434" lon="137.81412446149497"><ele>2625</ele><time>2025-03-29T00:27:07Z</time></trkpt>
<trkpt lat="35.77801779829638" lon="137.81441676271015"><ele>2619</ele><time>2025-03-29T00:27:29Z</time></trkpt>
<trkpt lat="35.77823926708715" lon="137.81422944220316"><ele>2621</ele><time>2025-03-29T00:28:03Z</time></trkpt>
<trkpt lat="35.77842918876429" lon="137.8140116271465"><ele>2623</ele><time>2025-03-29T00:28:52Z</time></trkpt>
<trkpt lat="35.77865103142222" lon="137.81385581592863"><ele>2625</ele><time>2025-03-29T00:29:18Z</time></trkpt>
<trkpt lat="35.77883373525841" lon="137.81367045584452"><ele>2628</ele><time>2025-03-29T00:29:50Z</time></trkpt>
<trkpt lat="35.779038784860006" lon="137.81350850963764"><ele>2631</ele><time>2025-03-29T00:30:22Z</time></trkpt>
<trkpt lat="35.7792460995519" lon="137.81337068390587"><ele>2633</ele><time>2025-03-29T00:30:53Z</time></trkpt>
<trkpt lat="35.77947463582783" lon="137.81319206959685"><ele>2639</ele><time>2025-03-29T00:31:24Z</time></trkpt>
<trkpt lat="35.779702458843836" lon="137.8130935761619"><ele>2642</ele><time>2025-03-29T00:31:59Z</time></trkpt>
<trkpt lat="35.77995242051503" lon="137.8129922745381"><ele>2644</ele><time>2025-03-29T00:32:29Z</time></trkpt>
<trkpt lat="35.78012198614933" lon="137.8129382507498"><ele>2650</ele><time>2025-03-29T00:33:00Z</time></trkpt>
<trkpt lat="35.7802899143549" lon="137.8127759200786"><ele>2658</ele><time>2025-03-29T00:33:34Z</time></trkpt>
<trkpt lat="35.78042841352601" lon="137.81263523007595"><ele>2664</ele><time>2025-03-29T00:34:07Z</time></trkpt>
<trkpt lat="35.780637416575345" lon="137.81257173700214"><ele>2671</ele><time>2025-03-29T00:34:43Z</time></trkpt>
<trkpt lat="35.78072595120808" lon="137.81240861657676"><ele>2677</ele><time>2025-03-29T00:35:29Z</time></trkpt>
<trkpt lat="35.780688684326684" lon="137.81219207693044"><ele>2684</ele><time>2025-03-29T00:39:38Z</time></trkpt>
<trkpt lat="35.78061252712677" lon="137.81196745371707"><ele>2691</ele><time>2025-03-29T00:40:14Z</time></trkpt>
<trkpt lat="35.7807209082128" lon="137.81189436458706"><ele>2695</ele><time>2025-03-29T00:41:12Z</time></trkpt>
<trkpt lat="35.78087725312927" lon="137.81189687530068"><ele>2699</ele><time>2025-03-29T00:41:58Z</time></trkpt>
<trkpt lat="35.781078432512274" lon="137.81190485879296"><ele>2709</ele><time>2025-03-29T00:42:42Z</time></trkpt>
<trkpt lat="35.78119918857851" lon="137.81190249257062"><ele>2715</ele><time>2025-03-29T00:43:35Z</time></trkpt>
<trkpt lat="35.781156703240214" lon="137.8117219911816"><ele>2718</ele><time>2025-03-29T00:44:32Z</time></trkpt>
<trkpt lat="35.78111877359989" lon="137.81159955739284"><ele>2721</ele><time>2025-03-29T00:45:41Z</time></trkpt>
<trkpt lat="35.78124839831614" lon="137.8116130985857"><ele>2726</ele><time>2025-03-29T00:46:38Z</time></trkpt>
<trkpt lat="35.78144971421444" lon="137.8116853365031"><ele>2732</ele><time>2025-03-29T00:47:30Z</time></trkpt>
<trkpt lat="35.78157763864584" lon="137.81171648399854"><ele>2737</ele><time>2025-03-29T00:48:48Z</time></trkpt>
<trkpt lat="35.781656850715144" lon="137.8117940675192"><ele>2739</ele><time>2025-03-29T00:49:35Z</time></trkpt>
<trkpt lat="35.78166083649414" lon="137.81165028854957"><ele>2743</ele><time>2025-03-29T01:11:32Z</time></trkpt>
<trkpt lat="35.78175751523" lon="137.8115706670773"><ele>2754</ele><time>2025-03-29T01:22:02Z</time></trkpt>
<trkpt lat="35.781818191844266" lon="137.81145392937674"><ele>2764</ele><time>2025-03-29T01:27:45Z</time></trkpt>
<trkpt lat="35.78187225109568" lon="137.81131181211484"><ele>2775</ele><time>2025-03-29T01:29:36Z</time></trkpt>
<trkpt lat="35.781934491089466" lon="137.81117646740665"><ele>2786</ele><time>2025-03-29T01:31:23Z</time></trkpt>
<trkpt lat="35.78201683750365" lon="137.81107694742505"><ele>2797</ele><time>2025-03-29T01:33:42Z</time></trkpt>
<trkpt lat="35.78212986512151" lon="137.8109840736344"><ele>2809</ele><time>2025-03-29T01:36:28Z</time></trkpt>
<trkpt lat="35.7822426454784" lon="137.81096181131235"><ele>2817</ele><time>2025-03-29T01:38:33Z</time></trkpt>
<trkpt lat="35.782328271170044" lon="137.81087968982646"><ele>2827</ele><time>2025-03-29T01:39:33Z</time></trkpt>
<trkpt lat="35.78244495134085" lon="137.8108380422964"><ele>2836</ele><time>2025-03-29T01:42:21Z</time></trkpt>
<trkpt lat="35.78257387971649" lon="137.81076467912393"><ele>2844</ele><time>2025-03-29T01:45:06Z</time></trkpt>
<trkpt lat="35.78267956219834" lon="137.8107645501954"><ele>2846</ele><time>2025-03-29T01:47:09Z</time></trkpt>
<trkpt lat="35.78278000681766" lon="137.8107254868874"><ele>2849</ele><time>2025-03-29T01:50:04Z</time></trkpt>
<trkpt lat="35.78281951577477" lon="137.810586521798"><ele>2852</ele><time>2025-03-29T01:53:38Z</time></trkpt>
<trkpt lat="35.782874702248726" lon="137.81073008066528"><ele>2850</ele><time>2025-03-29T02:30:05Z</time></trkpt>
<trkpt lat="35.78286156901803" lon="137.81056281299763"><ele>2853</ele><time>2025-03-29T02:30:27Z</time></trkpt>
<trkpt lat="35.78290345739902" lon="137.81040746752697"><ele>2856</ele><time>2025-03-29T02:41:57Z</time></trkpt>
<trkpt lat="35.78298417561231" lon="137.81030175887017"><ele>2858</ele><time>2025-03-29T02:44:11Z</time></trkpt>
<trkpt lat="35.7830748071645" lon="137.8101946753227"><ele>2859</ele><time>2025-03-29T02:46:09Z</time></trkpt>
<trkpt lat="35.78305829192041" lon="137.81002246204704"><ele>2861</ele><time>2025-03-29T02:47:16Z</time></trkpt>
<trkpt lat="35.78309682378844" lon="137.80973158363471"><ele>2864</ele><time>2025-03-29T02:47:49Z</time></trkpt>
<trkpt lat="35.78314830894937" lon="137.8096303349307"><ele>2864</ele><time>2025-03-29T02:50:49Z</time></trkpt>
<trkpt lat="35.78308376430903" lon="137.80954846263538"><ele>2866</ele><time>2025-03-29T03:05:09Z</time></trkpt>
<trkpt lat="35.783138905848" lon="137.8091803777032"><ele>2869</ele><time>2025-03-29T03:08:27Z</time></trkpt>
<trkpt lat="35.782973555859314" lon="137.80896421629356"><ele>2865</ele><time>2025-03-29T03:09:03Z</time></trkpt>
<trkpt lat="35.78303494067563" lon="137.80886589008819"><ele>2863</ele><time>2025-03-29T03:09:34Z</time></trkpt>
<trkpt lat="35.783077741892825" lon="137.80916005099098"><ele>2870</ele><time>2025-03-29T03:09:59Z</time></trkpt>
<trkpt lat="35.7833016186441" lon="137.809061980447"><ele>2867</ele><time>2025-03-29T03:10:36Z</time></trkpt>
<trkpt lat="35.783165227594786" lon="137.809258960631"><ele>2868</ele><time>2025-03-29T03:12:34Z</time></trkpt>
<trkpt lat="35.78314305515887" lon="137.80942250694903"><ele>2866</ele><time>2025-03-29T03:13:25Z</time></trkpt>
<trkpt lat="35.78315910232139" lon="137.80982030968002"><ele>2862</ele><time>2025-03-29T03:14:57Z</time></trkpt>
<trkpt lat="35.783214982991126" lon="137.81019806477465"><ele>2858</ele><time>2025-03-29T03:15:25Z</time></trkpt>
<trkpt lat="35.783251863470745" lon="137.81056702254995"><ele>2857</ele><time>2025-03-29T03:15:52Z</time></trkpt>
<trkpt lat="35.78321679524763" lon="137.81091034714166"><ele>2855</ele><time>2025-03-29T03:16:23Z</time></trkpt>
<trkpt lat="35.78315222022075" lon="137.8111578131897"><ele>2852</ele><time>2025-03-29T03:16:52Z</time></trkpt>
<trkpt lat="35.783166882873594" lon="137.81134255713118"><ele>2852</ele><time>2025-03-29T03:17:34Z</time></trkpt>
<trkpt lat="35.78321269445256" lon="137.8114792780962"><ele>2853</ele><time>2025-03-29T03:19:18Z</time></trkpt>
<trkpt lat="35.78318432414106" lon="137.81164124958048"><ele>2851</ele><time>2025-03-29T03:20:48Z</time></trkpt>
<trkpt lat="35.783293671822705" lon="137.81184799337214"><ele>2859</ele><time>2025-03-29T03:21:36Z</time></trkpt>
<trkpt lat="35.78338855880533" lon="137.81207580032486"><ele>2862</ele><time>2025-03-29T03:22:07Z</time></trkpt>
<trkpt lat="35.78351342146162" lon="137.8122827341119"><ele>2862</ele><time>2025-03-29T03:22:39Z</time></trkpt>
<trkpt lat="35.783588801655306" lon="137.81250117602937"><ele>2863</ele><time>2025-03-29T03:23:16Z</time></trkpt>
<trkpt lat="35.78364532416041" lon="137.81279385309247"><ele>2866</ele><time>2025-03-29T03:24:09Z</time></trkpt>
<trkpt lat="35.78369683985154" lon="137.8130591527526"><ele>2869</ele><time>2025-03-29T03:24:54Z</time></trkpt>
<trkpt lat="35.78377466073539" lon="137.81316082466756"><ele>2870</ele><time>2025-03-29T03:55:28Z</time></trkpt>
<trkpt lat="35.783833573137535" lon="137.81364298487432"><ele>2875</ele><time>2025-03-29T03:56:44Z</time></trkpt>
<trkpt lat="35.78380289978699" lon="137.81398697084748"><ele>2875</ele><time>2025-03-29T03:57:19Z</time></trkpt>
<trkpt lat="35.78370646231175" lon="137.81416260398683"><ele>2872</ele><time>2025-03-29T03:57:49Z</time></trkpt>
<trkpt lat="35.783337526753556" lon="137.8137532248673"><ele>2861</ele><time>2025-03-29T03:58:42Z</time></trkpt>
<trkpt lat="35.78305059379456" lon="137.81362940753422"><ele>2840</ele><time>2025-03-29T03:59:22Z</time></trkpt>
<trkpt lat="35.782960029499236" lon="137.81376965366135"><ele>2831</ele><time>2025-03-29T04:00:05Z</time></trkpt>
<trkpt lat="35.78272689374422" lon="137.8138200955332"><ele>2813</ele><time>2025-03-29T04:01:05Z</time></trkpt>
<trkpt lat="35.78253053301843" lon="137.8135877056151"><ele>2798</ele><time>2025-03-29T04:03:07Z</time></trkpt>
<trkpt lat="35.7822624857316" lon="137.81357414339678"><ele>2776</ele><time>2025-03-29T04:03:29Z</time></trkpt>
<trkpt lat="35.78226980354891" lon="137.81377468928355"><ele>2777</ele><time>2025-03-29T04:03:51Z</time></trkpt>
<trkpt lat="35.78202528722349" lon="137.81383112684222"><ele>2758</ele><time>2025-03-29T04:10:12Z</time></trkpt>
<trkpt lat="35.78182981546214" lon="137.8144267920171"><ele>2739</ele><time>2025-03-29T04:10:41Z</time></trkpt>
<trkpt lat="35.78156728642952" lon="137.81424342973463"><ele>2722</ele><time>2025-03-29T04:11:06Z</time></trkpt>
<trkpt lat="35.781399565802076" lon="137.81444264467927"><ele>2707</ele><time>2025-03-29T04:11:28Z</time></trkpt>
<trkpt lat="35.7810758548323" lon="137.8136380097777"><ele>2688</ele><time>2025-03-29T04:11:50Z</time></trkpt>
<trkpt lat="35.78099488441682" lon="137.81339991126194"><ele>2683</ele><time>2025-03-29T04:12:25Z</time></trkpt>
<trkpt lat="35.7807917488078" lon="137.8139283688926"><ele>2667</ele><time>2025-03-29T04:12:54Z</time></trkpt>
<trkpt lat="35.77951478578868" lon="137.81382419322978"><ele>2627</ele><time>2025-03-29T04:13:17Z</time></trkpt>
<trkpt lat="35.77880507940181" lon="137.81469744768842"><ele>2612</ele><time>2025-03-29T04:13:38Z</time></trkpt>
<trkpt lat="35.77857662918462" lon="137.81474650999309"><ele>2613</ele><time>2025-03-29T04:14:05Z</time></trkpt>
<trkpt lat="35.778379108137905" lon="137.8146576999783"><ele>2615</ele><time>2025-03-29T04:16:46Z</time></trkpt>
<trkpt lat="35.77825084498313" lon="137.81456247761042"><ele>2617</ele><time>2025-03-29T04:18:14Z</time></trkpt>
<trkpt lat="35.778045824942595" lon="137.81442400966597"><ele>2619</ele><time>2025-03-29T04:18:53Z</time></trkpt>
<trkpt lat="35.77797246494129" lon="137.8142344691253"><ele>2623</ele><time>2025-03-29T04:19:42Z</time></trkpt>
<trkpt lat="35.777826750043864" lon="137.81410741461835"><ele>2627</ele><time>2025-03-29T04:20:22Z</time></trkpt>
<trkpt lat="35.77787606238766" lon="137.8139949300732"><ele>2629</ele><time>2025-03-29T04:21:50Z</time></trkpt>
<trkpt lat="35.777753804164306" lon="137.81357410146052"><ele>2641</ele><time>2025-03-29T04:27:07Z</time></trkpt>
<trkpt lat="35.777925591223344" lon="137.813614232247"><ele>2637</ele><time>2025-03-29T04:38:34Z</time></trkpt>
<trkpt lat="35.77806035525717" lon="137.81390162197673"><ele>2629</ele><time>2025-03-29T04:44:58Z</time></trkpt>
<trkpt lat="35.77791676216092" lon="137.81368405279062"><ele>2636</ele><time>2025-03-29T04:45:19Z</time></trkpt>
<trkpt lat="35.77791087733128" lon="137.81361893102348"><ele>2637</ele><time>2025-03-29T04:47:20Z</time></trkpt>
</trkseg></trk>
</gpx>
