<?xml version="1.0" encoding="UTF-8"?>
<gpx xmlns:xsi="http://www.w3.org/2001/XMLSchema-instance" xmlns="http://www.topografix.com/GPX/1/1" xsi:schemaLocation="http://www.topografix.com/GPX/1/1 http://www.topografix.com/GPX/1/1/gpx.xsd" creator="Yamareco iOS 7.25 - www.yamareco.com">
<trk><name>track</name><number>1</number><trkseg>
<trkpt lat="37.028405299080525" lon="139.39159210717065"><ele>937</ele><time>2025-03-08T22:26:43Z</time></trkpt>
<trkpt lat="37.02848301681195" lon="139.39152199807953"><ele>937</ele><time>2025-03-08T22:27:17Z</time></trkpt>
<trkpt lat="37.02849915298968" lon="139.39126818601667"><ele>936</ele><time>2025-03-08T22:33:39Z</time></trkpt>
<trkpt lat="37.02853289718409" lon="139.39094719650683"><ele>943</ele><time>2025-03-08T22:34:08Z</time></trkpt>
<trkpt lat="37.02847872112654" lon="139.39069801630487"><ele>950</ele><time>2025-03-08T22:34:40Z</time></trkpt>
<trkpt lat="37.02844303350968" lon="139.39041912339476"><ele>952</ele><time>2025-03-08T22:35:08Z</time></trkpt>
<trkpt lat="37.02839816865037" lon="139.39015023845707"><ele>955</ele><time>2025-03-08T22:35:39Z</time></trkpt>
<trkpt lat="37.0283414901339" lon="139.38986639002786"><ele>961</ele><time>2025-03-08T22:36:11Z</time></trkpt>
<trkpt lat="37.02826140798494" lon="139.3895941546211"><ele>961</ele><time>2025-03-08T22:36:42Z</time></trkpt>
<trkpt lat="37.0281681366921" lon="139.38936675183257"><ele>966</ele><time>2025-03-08T22:37:10Z</time></trkpt>
<trkpt lat="37.02821074167132" lon="139.38909018530322"><ele>963</ele><time>2025-03-08T22:37:43Z</time></trkpt>
<trkpt lat="37.02830443214261" lon="139.38883425724572"><ele>967</ele><time>2025-03-08T22:38:15Z</time></trkpt>
<trkpt lat="37.02835886241596" lon="139.38864838957105"><ele>974</ele><time>2025-03-08T22:38:49Z</time></trkpt>
<trkpt lat="37.02825544984465" lon="139.3886700316746"><ele>977</ele><time>2025-03-08T22:42:37Z</time></trkpt>
<trkpt lat="37.028395493509805" lon="139.38831402814887"><ele>979</ele><time>2025-03-08T22:43:12Z</time></trkpt>
<trkpt lat="37.028467057906475" lon="139.38800421393424"><ele>979</ele><time>2025-03-08T22:43:40Z</time></trkpt>
<trkpt lat="37.028501499349986" lon="139.3876180536267"><ele>979</ele><time>2025-03-08T22:44:09Z</time></trkpt>
<trkpt lat="37.028479032148724" lon="139.3872850557792"><ele>982</ele><time>2025-03-08T22:44:39Z</time></trkpt>
<trkpt lat="37.028475861720935" lon="139.38698019367712"><ele>985</ele><time>2025-03-08T22:45:10Z</time></trkpt>
<trkpt lat="37.02853957063432" lon="139.38666467090258"><ele>996</ele><time>2025-03-08T22:45:42Z</time></trkpt>
<trkpt lat="37.028441813561045" lon="139.38642168067318"><ele>997</ele><time>2025-03-08T22:46:10Z</time></trkpt>
<trkpt lat="37.02835925134386" lon="139.38618085243036"><ele>1002</ele><time>2025-03-08T22:46:48Z</time></trkpt>
<trkpt lat="37.02857021322254" lon="139.38591207678917"><ele>1010</ele><time>2025-03-08T22:47:30Z</time></trkpt>
<trkpt lat="37.028402229159326" lon="139.385667526251"><ele>1005</ele><time>2025-03-08T22:48:04Z</time></trkpt>
<trkpt lat="37.0284465154235" lon="139.38540007757732"><ele>1012</ele><time>2025-03-08T22:48:37Z</time></trkpt>
<trkpt lat="37.02849236721703" lon="139.38517849837194"><ele>1021</ele><time>2025-03-08T22:49:09Z</time></trkpt>
<trkpt lat="37.028449258784434" lon="139.38495185286473"><ele>1024</ele><time>2025-03-08T22:49:37Z</time></trkpt>
<trkpt lat="37.02855828006092" lon="139.38473446340942"><ele>1023</ele><time>2025-03-08T22:50:09Z</time></trkpt>
<trkpt lat="37.028719073015466" lon="139.38455838691314"><ele>1035</ele><time>2025-03-08T22:50:38Z</time></trkpt>
<trkpt lat="37.02878496988518" lon="139.38428605138034"><ele>1052</ele><time>2025-03-08T22:51:08Z</time></trkpt>
<trkpt lat="37.02877267667" lon="139.38414788097515"><ele>1052</ele><time>2025-03-08T22:51:52Z</time></trkpt>
<trkpt lat="37.028896947825174" lon="139.38402855308314"><ele>1058</ele><time>2025-03-08T22:53:31Z</time></trkpt>
<trkpt lat="37.02899207128419" lon="139.383868663757"><ele>1058</ele><time>2025-03-08T22:54:17Z</time></trkpt>
<trkpt lat="37.029125414450725" lon="139.38366778451658"><ele>1068</ele><time>2025-03-08T22:54:49Z</time></trkpt>
<trkpt lat="37.02930796126758" lon="139.38366343939293"><ele>1071</ele><time>2025-03-08T22:55:42Z</time></trkpt>
<trkpt lat="37.02911671881643" lon="139.38372789152027"><ele>1073</ele><time>2025-03-08T22:56:11Z</time></trkpt>
<trkpt lat="37.02925727227565" lon="139.38358399980163"><ele>1077</ele><time>2025-03-08T22:56:56Z</time></trkpt>
<trkpt lat="37.02933140140362" lon="139.38338375079593"><ele>1076</ele><time>2025-03-08T22:57:29Z</time></trkpt>
<trkpt lat="37.02945952551896" lon="139.38315663776203"><ele>1082</ele><time>2025-03-08T22:58:14Z</time></trkpt>
<trkpt lat="37.029474129209554" lon="139.38295691308437"><ele>1092</ele><time>2025-03-08T22:58:50Z</time></trkpt>
<trkpt lat="37.02934985375857" lon="139.38292959412382"><ele>1101</ele><time>2025-03-08T22:59:16Z</time></trkpt>
<trkpt lat="37.02947176577842" lon="139.3827447417763"><ele>1092</ele><time>2025-03-08T22:59:50Z</time></trkpt>
<trkpt lat="37.0296509203941" lon="139.38270287217176"><ele>1094</ele><time>2025-03-08T23:00:47Z</time></trkpt>
<trkpt lat="37.029524003588506" lon="139.382419507467"><ele>1100</ele><time>2025-03-08T23:01:19Z</time></trkpt>
<trkpt lat="37.02970178053424" lon="139.38240741196634"><ele>1103</ele><time>2025-03-08T23:02:05Z</time></trkpt>
<trkpt lat="37.02958855392263" lon="139.38227371077198"><ele>1106</ele><time>2025-03-08T23:02:38Z</time></trkpt>
<trkpt lat="37.029640337071505" lon="139.38216554912213"><ele>1108</ele><time>2025-03-08T23:04:31Z</time></trkpt>
<trkpt lat="37.02957404793982" lon="139.38207654256837"><ele>1123</ele><time>2025-03-08T23:05:34Z</time></trkpt>
<trkpt lat="37.029739358967625" lon="139.3819633994414"><ele>1123</ele><time>2025-03-08T23:06:47Z</time></trkpt>
<trkpt lat="37.029779360665124" lon="139.38177223146985"><ele>1141</ele><time>2025-03-08T23:07:27Z</time></trkpt>
<trkpt lat="37.02974494337067" lon="139.38162775191313"><ele>1139</ele><time>2025-03-08T23:08:09Z</time></trkpt>
<trkpt lat="37.02968369605991" lon="139.38137387552757"><ele>1158</ele><time>2025-03-08T23:09:17Z</time></trkpt>
<trkpt lat="37.02950139702679" lon="139.38126822226224"><ele>1164</ele><time>2025-03-08T23:10:04Z</time></trkpt>
<trkpt lat="37.02960482392179" lon="139.38131538041213"><ele>1162</ele><time>2025-03-08T23:11:46Z</time></trkpt>
<trkpt lat="37.029646204661134" lon="139.3811617805914"><ele>1165</ele><time>2025-03-08T23:13:44Z</time></trkpt>
<trkpt lat="37.02952756530514" lon="139.3809424488443"><ele>1185</ele><time>2025-03-08T23:14:58Z</time></trkpt>
<trkpt lat="37.02937506229115" lon="139.38071945488323"><ele>1193</ele><time>2025-03-08T23:16:18Z</time></trkpt>
<trkpt lat="37.02935903093439" lon="139.38056818079474"><ele>1201</ele><time>2025-03-08T23:17:50Z</time></trkpt>
<trkpt lat="37.02913854691284" lon="139.3808282187168"><ele>1221</ele><time>2025-03-08T23:18:20Z</time></trkpt>
<trkpt lat="37.02907433593162" lon="139.38103683820668"><ele>1195</ele><time>2025-03-08T23:18:59Z</time></trkpt>
<trkpt lat="37.02896690005467" lon="139.38113167227317"><ele>1186</ele><time>2025-03-08T23:19:31Z</time></trkpt>
<trkpt lat="37.02901259226679" lon="139.3809047344718"><ele>1200</ele><time>2025-03-08T23:21:00Z</time></trkpt>
<trkpt lat="37.02906103672102" lon="139.38070587864348"><ele>1214</ele><time>2025-03-08T23:21:54Z</time></trkpt>
<trkpt lat="37.02902335555808" lon="139.38050756533002"><ele>1217</ele><time>2025-03-08T23:22:34Z</time></trkpt>
<trkpt lat="37.02894888050609" lon="139.38037155929055"><ele>1223</ele><time>2025-03-08T23:27:08Z</time></trkpt>
<trkpt lat="37.02878673098937" lon="139.38022845273824"><ele>1229</ele><time>2025-03-08T23:27:45Z</time></trkpt>
<trkpt lat="37.02860679581481" lon="139.38005267449745"><ele>1237</ele><time>2025-03-08T23:28:20Z</time></trkpt>
<trkpt lat="37.02856805528738" lon="139.37993495244484"><ele>1237</ele><time>2025-03-08T23:28:51Z</time></trkpt>
<trkpt lat="37.02860334436018" lon="139.3797176570307"><ele>1245</ele><time>2025-03-08T23:29:37Z</time></trkpt>
<trkpt lat="37.02869286441511" lon="139.37950501196056"><ele>1255</ele><time>2025-03-08T23:30:09Z</time></trkpt>
<trkpt lat="37.028840535919095" lon="139.37947393430855"><ele>1258</ele><time>2025-03-08T23:31:04Z</time></trkpt>
<trkpt lat="37.02901102397585" lon="139.3793440385284"><ele>1264</ele><time>2025-03-08T23:31:41Z</time></trkpt>
<trkpt lat="37.02907144300975" lon="139.3791865518211"><ele>1268</ele><time>2025-03-08T23:32:27Z</time></trkpt>
<trkpt lat="37.02920312796188" lon="139.37909782907565"><ele>1279</ele><time>2025-03-08T23:33:10Z</time></trkpt>
<trkpt lat="37.029342857732274" lon="139.37892546515016"><ele>1285</ele><time>2025-03-08T23:33:48Z</time></trkpt>
<trkpt lat="37.029515816288466" lon="139.37888859696088"><ele>1290</ele><time>2025-03-08T23:34:28Z</time></trkpt>
<trkpt lat="37.029693858534756" lon="139.37874649351508"><ele>1295</ele><time>2025-03-08T23:35:07Z</time></trkpt>
<trkpt lat="37.02981039425353" lon="139.3786356577251"><ele>1304</ele><time>2025-03-08T23:35:42Z</time></trkpt>
<trkpt lat="37.02995087318644" lon="139.37851334656932"><ele>1309</ele><time>2025-03-08T23:36:23Z</time></trkpt>
<trkpt lat="37.03005782379346" lon="139.37844100769092"><ele>1318</ele><time>2025-03-08T23:37:08Z</time></trkpt>
<trkpt lat="37.030172778364076" lon="139.37844684893065"><ele>1320</ele><time>2025-03-08T23:37:53Z</time></trkpt>
<trkpt lat="37.03026709082037" lon="139.37826737750095"><ele>1326</ele><time>2025-03-08T23:38:33Z</time></trkpt>
<trkpt lat="37.03036842909356" lon="139.3783846578392"><ele>1332</ele><time>2025-03-08T23:39:41Z</time></trkpt>
<trkpt lat="37.03049263233703" lon="139.37823807016517"><ele>1340</ele><time>2025-03-08T23:40:30Z</time></trkpt>
<trkpt lat="37.030594064777915" lon="139.37831254192494"><ele>1343</ele><time>2025-03-08T23:41:27Z</time></trkpt>
<trkpt lat="37.03071412403993" lon="139.37818600394047"><ele>1350</ele><time>2025-03-08T23:42:17Z</time></trkpt>
<trkpt lat="37.03083890797881" lon="139.37819370147153"><ele>1356</ele><time>2025-03-08T23:43:06Z</time></trkpt>
<trkpt lat="37.03106298911221" lon="139.37809735024103"><ele>1355</ele><time>2025-03-08T23:43:58Z</time></trkpt>
<trkpt lat="37.03122613387931" lon="139.37804361654779"><ele>1364</ele><time>2025-03-08T23:44:39Z</time></trkpt>
<trkpt lat="37.03137855187812" lon="139.37789259298881"><ele>1369</ele><time>2025-03-08T23:45:09Z</time></trkpt>
<trkpt lat="37.031517730699946" lon="139.37776121954357"><ele>1375</ele><time>2025-03-08T23:45:48Z</time></trkpt>
<trkpt lat="37.03162220353312" lon="139.37767739401403"><ele>1381</ele><time>2025-03-08T23:46:24Z</time></trkpt>
<trkpt lat="37.031741532308814" lon="139.37752920404463"><ele>1391</ele><time>2025-03-08T23:47:08Z</time></trkpt>
<trkpt lat="37.03188041319432" lon="139.37742927754954"><ele>1397</ele><time>2025-03-08T23:48:20Z</time></trkpt>
<trkpt lat="37.032008157138684" lon="139.37736067338952"><ele>1405</ele><time>2025-03-08T23:51:17Z</time></trkpt>
<trkpt lat="37.032122433961355" lon="139.37724839466725"><ele>1414</ele><time>2025-03-08T23:51:53Z</time></trkpt>
<trkpt lat="37.03224851023508" lon="139.37720612586233"><ele>1415</ele><time>2025-03-08T23:52:43Z</time></trkpt>
<trkpt lat="37.032333989696" lon="139.37704122088354"><ele>1422</ele><time>2025-03-08T23:53:21Z</time></trkpt>
<trkpt lat="37.032424694995974" lon="139.37692257363182"><ele>1430</ele><time>2025-03-08T23:54:08Z</time></trkpt>
<trkpt lat="37.03252964461143" lon="139.37677967579006"><ele>1433</ele><time>2025-03-08T23:54:48Z</time></trkpt>
<trkpt lat="37.032584211316745" lon="139.3766270117822"><ele>1439</ele><time>2025-03-08T23:55:45Z</time></trkpt>
<trkpt lat="37.03274059496889" lon="139.37655100747475"><ele>1443</ele><time>2025-03-08T23:59:26Z</time></trkpt>
<trkpt lat="37.032829034569374" lon="139.37634724423862"><ele>1457</ele><time>2025-03-09T00:00:20Z</time></trkpt>
<trkpt lat="37.03281163566703" lon="139.37616447583994"><ele>1460</ele><time>2025-03-09T00:01:00Z</time></trkpt>
<trkpt lat="37.032818990151505" lon="139.37601203840194"><ele>1466</ele><time>2025-03-09T00:01:45Z</time></trkpt>
<trkpt lat="37.03293260961392" lon="139.37614654977938"><ele>1473</ele><time>2025-03-09T00:02:32Z</time></trkpt>
<trkpt lat="37.03307383278473" lon="139.3761630118478"><ele>1476</ele><time>2025-03-09T00:03:30Z</time></trkpt>
<trkpt lat="37.03319768814645" lon="139.37596718117896"><ele>1484</ele><time>2025-03-09T00:04:18Z</time></trkpt>
<trkpt lat="37.03320186539947" lon="139.37574177698778"><ele>1493</ele><time>2025-03-09T00:05:06Z</time></trkpt>
<trkpt lat="37.033237831891896" lon="139.37554802155822"><ele>1500</ele><time>2025-03-09T00:05:59Z</time></trkpt>
<trkpt lat="37.03320276243458" lon="139.37532413700123"><ele>1506</ele><time>2025-03-09T00:06:49Z</time></trkpt>
<trkpt lat="37.033295423147486" lon="139.3751501511522"><ele>1510</ele><time>2025-03-09T00:07:29Z</time></trkpt>
<trkpt lat="37.03329372350919" lon="139.37492303374927"><ele>1516</ele><time>2025-03-09T00:09:54Z</time></trkpt>
<trkpt lat="37.03335329137248" lon="139.37468800043882"><ele>1527</ele><time>2025-03-09T00:10:38Z</time></trkpt>
<trkpt lat="37.033460700059486" lon="139.3744912157667"><ele>1530</ele><time>2025-03-09T00:11:18Z</time></trkpt>
<trkpt lat="37.0335541542386" lon="139.37432673254935"><ele>1534</ele><time>2025-03-09T00:11:51Z</time></trkpt>
<trkpt lat="37.033667996174074" lon="139.37415547643877"><ele>1542</ele><time>2025-03-09T00:12:33Z</time></trkpt>
<trkpt lat="37.033751268808025" lon="139.37403848276745"><ele>1546</ele><time>2025-03-09T00:13:27Z</time></trkpt>
<trkpt lat="37.0336675219416" lon="139.37398545755912"><ele>1540</ele><time>2025-03-09T00:13:59Z</time></trkpt>
<trkpt lat="37.03375812983387" lon="139.37378611008205"><ele>1553</ele><time>2025-03-09T00:15:08Z</time></trkpt>
<trkpt lat="37.033758161435486" lon="139.37353316150396"><ele>1553</ele><time>2025-03-09T00:15:44Z</time></trkpt>
<trkpt lat="37.03379691153179" lon="139.37331706551748"><ele>1561</ele><time>2025-03-09T00:16:19Z</time></trkpt>
<trkpt lat="37.03389470087943" lon="139.37320460675227"><ele>1564</ele><time>2025-03-09T00:16:55Z</time></trkpt>
<trkpt lat="37.034026627563584" lon="139.37317528600047"><ele>1569</ele><time>2025-03-09T00:17:42Z</time></trkpt>
<trkpt lat="37.034211495273766" lon="139.3729874976691"><ele>1573</ele><time>2025-03-09T00:18:20Z</time></trkpt>
<trkpt lat="37.034349248464004" lon="139.37279389098836"><ele>1577</ele><time>2025-03-09T00:18:56Z</time></trkpt>
<trkpt lat="37.034515662125656" lon="139.37275401968236"><ele>1587</ele><time>2025-03-09T00:19:51Z</time></trkpt>
<trkpt lat="37.034664850972966" lon="139.37267259778332"><ele>1589</ele><time>2025-03-09T00:20:28Z</time></trkpt>
<trkpt lat="37.03486278968195" lon="139.3726226802087"><ele>1596</ele><time>2025-03-09T00:21:10Z</time></trkpt>
<trkpt lat="37.03502716575356" lon="139.37248040438664"><ele>1600</ele><time>2025-03-09T00:21:46Z</time></trkpt>
<trkpt lat="37.03518605806075" lon="139.37241363378405"><ele>1607</ele><time>2025-03-09T00:22:20Z</time></trkpt>
<trkpt lat="37.03537284209175" lon="139.3723448090036"><ele>1614</ele><time>2025-03-09T00:23:03Z</time></trkpt>
<trkpt lat="37.03551894487379" lon="139.3723820069845"><ele>1620</ele><time>2025-03-09T00:23:50Z</time></trkpt>
<trkpt lat="37.035662331448584" lon="139.37225400481987"><ele>1625</ele><time>2025-03-09T00:24:29Z</time></trkpt>
<trkpt lat="37.03575769069747" lon="139.37213722861873"><ele>1629</ele><time>2025-03-09T00:25:09Z</time></trkpt>
<trkpt lat="37.03587959214815" lon="139.37204745921207"><ele>1634</ele><time>2025-03-09T00:25:45Z</time></trkpt>
<trkpt lat="37.03604415742855" lon="139.37195536373943"><ele>1639</ele><time>2025-03-09T00:26:25Z</time></trkpt>
<trkpt lat="37.03623443663168" lon="139.37191396124155"><ele>1645</ele><time>2025-03-09T00:27:08Z</time></trkpt>
<trkpt lat="37.036300305399585" lon="139.37182473844632"><ele>1644</ele><time>2025-03-09T00:32:03Z</time></trkpt>
<trkpt lat="37.0365242343987" lon="139.37180400947682"><ele>1650</ele><time>2025-03-09T00:35:02Z</time></trkpt>
<trkpt lat="37.03659832288187" lon="139.3717368360564"><ele>1653</ele><time>2025-03-09T00:36:00Z</time></trkpt>
<trkpt lat="37.036732519701566" lon="139.37162969558617"><ele>1656</ele><time>2025-03-09T00:36:47Z</time></trkpt>
<trkpt lat="37.03691870443111" lon="139.37153925406312"><ele>1663</ele><time>2025-03-09T00:37:20Z</time></trkpt>
<trkpt lat="37.037048020751" lon="139.3713997254648"><ele>1666</ele><time>2025-03-09T00:37:51Z</time></trkpt>
<trkpt lat="37.03716164307721" lon="139.3712018961218"><ele>1670</ele><time>2025-03-09T00:38:21Z</time></trkpt>
<trkpt lat="37.03726532397154" lon="139.37097828555528"><ele>1678</ele><time>2025-03-09T00:38:56Z</time></trkpt>
<trkpt lat="37.03740792463293" lon="139.3707431917617"><ele>1682</ele><time>2025-03-09T00:39:31Z</time></trkpt>
<trkpt lat="37.03746956672984" lon="139.37051664244765"><ele>1682</ele><time>2025-03-09T00:40:02Z</time></trkpt>
<trkpt lat="37.03755072377119" lon="139.3703869272135"><ele>1688</ele><time>2025-03-09T00:41:17Z</time></trkpt>
<trkpt lat="37.03755605896914" lon="139.37017518043183"><ele>1688</ele><time>2025-03-09T00:41:51Z</time></trkpt>
<trkpt lat="37.037598824291706" lon="139.36995304485026"><ele>1694</ele><time>2025-03-09T00:42:25Z</time></trkpt>
<trkpt lat="37.037590405081254" lon="139.36974716691915"><ele>1700</ele><time>2025-03-09T00:43:12Z</time></trkpt>
<trkpt lat="37.037506384207994" lon="139.36960583332856"><ele>1709</ele><time>2025-03-09T00:44:14Z</time></trkpt>
<trkpt lat="37.037378124471424" lon="139.36957536145528"><ele>1707</ele><time>2025-03-09T00:48:32Z</time></trkpt>
<trkpt lat="37.037466488061504" lon="139.3693074458366"><ele>1710</ele><time>2025-03-09T00:51:40Z</time></trkpt>
<trkpt lat="37.03740562212269" lon="139.368997079423"><ele>1714</ele><time>2025-03-09T00:52:12Z</time></trkpt>
<trkpt lat="37.03733619541434" lon="139.3687270879271"><ele>1717</ele><time>2025-03-09T00:52:44Z</time></trkpt>
<trkpt lat="37.03739303894608" lon="139.36837285625978"><ele>1718</ele><time>2025-03-09T00:53:16Z</time></trkpt>
<trkpt lat="37.03741659417708" lon="139.36814671137518"><ele>1722</ele><time>2025-03-09T00:53:50Z</time></trkpt>
<trkpt lat="37.03748263263819" lon="139.36784475853807"><ele>1728</ele><time>2025-03-09T00:54:19Z</time></trkpt>
<trkpt lat="37.03755527522129" lon="139.367618655902"><ele>1730</ele><time>2025-03-09T00:54:57Z</time></trkpt>
<trkpt lat="37.03758756385452" lon="139.36738134203108"><ele>1733</ele><time>2025-03-09T00:55:32Z</time></trkpt>
<trkpt lat="37.03771334485167" lon="139.3672830820728"><ele>1745</ele><time>2025-03-09T00:56:22Z</time></trkpt>
<trkpt lat="37.037817646492634" lon="139.36714212309664"><ele>1750</ele><time>2025-03-09T00:57:11Z</time></trkpt>
<trkpt lat="37.03784315322491" lon="139.36695683175486"><ele>1754</ele><time>2025-03-09T00:57:50Z</time></trkpt>
<trkpt lat="37.03793652871829" lon="139.36680401148763"><ele>1761</ele><time>2025-03-09T00:58:28Z</time></trkpt>
<trkpt lat="37.03795078784153" lon="139.3665982804278"><ele>1768</ele><time>2025-03-09T00:59:12Z</time></trkpt>
<trkpt lat="37.0379915308318" lon="139.3664216357041"><ele>1773</ele><time>2025-03-09T00:59:51Z</time></trkpt>
<trkpt lat="37.0380521009383" lon="139.36621956544388"><ele>1780</ele><time>2025-03-09T01:00:50Z</time></trkpt>
<trkpt lat="37.03795173677177" lon="139.36604068801913"><ele>1780</ele><time>2025-03-09T01:01:28Z</time></trkpt>
<trkpt lat="37.037901194343696" lon="139.36583523510836"><ele>1788</ele><time>2025-03-09T01:02:07Z</time></trkpt>
<trkpt lat="37.03796659071962" lon="139.3656668867694"><ele>1793</ele><time>2025-03-09T01:02:49Z</time></trkpt>
<trkpt lat="37.03809818580856" lon="139.36547333850487"><ele>1798</ele><time>2025-03-09T01:03:35Z</time></trkpt>
<trkpt lat="37.038092096107235" lon="139.3652223911831"><ele>1803</ele><time>2025-03-09T01:04:08Z</time></trkpt>
<trkpt lat="37.03805557344651" lon="139.3649243290353"><ele>1810</ele><time>2025-03-09T01:04:46Z</time></trkpt>
<trkpt lat="37.03815247039957" lon="139.3647400789881"><ele>1812</ele><time>2025-03-09T01:05:23Z</time></trkpt>
<trkpt lat="37.03812987074389" lon="139.3644434058402"><ele>1817</ele><time>2025-03-09T01:05:57Z</time></trkpt>
<trkpt lat="37.03814016916118" lon="139.36423556535865"><ele>1821</ele><time>2025-03-09T01:06:25Z</time></trkpt>
<trkpt lat="37.0381598696517" lon="139.36394605190807"><ele>1828</ele><time>2025-03-09T01:07:04Z</time></trkpt>
<trkpt lat="37.038257559658895" lon="139.36374290188473"><ele>1830</ele><time>2025-03-09T01:07:45Z</time></trkpt>
<trkpt lat="37.0382453923991" lon="139.36348312552832"><ele>1835</ele><time>2025-03-09T01:08:24Z</time></trkpt>
<trkpt lat="37.03817032402907" lon="139.3631883679421"><ele>1839</ele><time>2025-03-09T01:09:01Z</time></trkpt>
<trkpt lat="37.03826629689388" lon="139.36300279419623"><ele>1846</ele><time>2025-03-09T01:09:53Z</time></trkpt>
<trkpt lat="37.03825781761182" lon="139.36272071871593"><ele>1850</ele><time>2025-03-09T01:10:34Z</time></trkpt>
<trkpt lat="37.03828347128525" lon="139.36247413735862"><ele>1852</ele><time>2025-03-09T01:11:12Z</time></trkpt>
<trkpt lat="37.03835682953227" lon="139.36227049276098"><ele>1856</ele><time>2025-03-09T01:11:47Z</time></trkpt>
<trkpt lat="37.03845546563168" lon="139.36208835584083"><ele>1861</ele><time>2025-03-09T01:12:24Z</time></trkpt>
<trkpt lat="37.03855077210464" lon="139.3619588431146"><ele>1867</ele><time>2025-03-09T01:13:17Z</time></trkpt>
<trkpt lat="37.03859538065347" lon="139.36169695580438"><ele>1869</ele><time>2025-03-09T01:18:58Z</time></trkpt>
<trkpt lat="37.03866982450975" lon="139.3614274687537"><ele>1875</ele><time>2025-03-09T01:20:09Z</time></trkpt>
<trkpt lat="37.03874583078904" lon="139.3612212248467"><ele>1881</ele><time>2025-03-09T01:20:42Z</time></trkpt>
<trkpt lat="37.03878210097129" lon="139.36104367025126"><ele>1885</ele><time>2025-03-09T01:21:16Z</time></trkpt>
<trkpt lat="37.03880313234451" lon="139.3608694997187"><ele>1890</ele><time>2025-03-09T01:21:57Z</time></trkpt>
<trkpt lat="37.03895142403182" lon="139.36067620875252"><ele>1896</ele><time>2025-03-09T01:22:55Z</time></trkpt>
<trkpt lat="37.03888705898924" lon="139.36048622688574"><ele>1901</ele><time>2025-03-09T01:23:33Z</time></trkpt>
<trkpt lat="37.03892991213341" lon="139.36029272977743"><ele>1906</ele><time>2025-03-09T01:24:23Z</time></trkpt>
<trkpt lat="37.03901744619715" lon="139.36012430088664"><ele>1909</ele><time>2025-03-09T01:25:01Z</time></trkpt>
<trkpt lat="37.03909322068639" lon="139.35990088395155"><ele>1910</ele><time>2025-03-09T01:25:35Z</time></trkpt>
<trkpt lat="37.0390906599652" lon="139.35962815444046"><ele>1916</ele><time>2025-03-09T01:26:19Z</time></trkpt>
<trkpt lat="37.03919123263153" lon="139.3594177151679"><ele>1921</ele><time>2025-03-09T01:26:55Z</time></trkpt>
<trkpt lat="37.03924558776567" lon="139.35916307037346"><ele>1926</ele><time>2025-03-09T01:27:42Z</time></trkpt>
<trkpt lat="37.039411785297936" lon="139.35908092907857"><ele>1933</ele><time>2025-03-09T01:28:18Z</time></trkpt>
<trkpt lat="37.039598819680094" lon="139.35899617225255"><ele>1938</ele><time>2025-03-09T01:28:55Z</time></trkpt>
<trkpt lat="37.03974004477091" lon="139.35886191119087"><ele>1941</ele><time>2025-03-09T01:29:33Z</time></trkpt>
<trkpt lat="37.039867953195454" lon="139.35868177932298"><ele>1945</ele><time>2025-03-09T01:30:10Z</time></trkpt>
<trkpt lat="37.03980704458741" lon="139.35848878176182"><ele>1952</ele><time>2025-03-09T01:30:51Z</time></trkpt>
<trkpt lat="37.039839091921344" lon="139.3583303183508"><ele>1955</ele><time>2025-03-09T01:31:39Z</time></trkpt>
<trkpt lat="37.03989794442411" lon="139.358147718761"><ele>1963</ele><time>2025-03-09T01:33:27Z</time></trkpt>
<trkpt lat="37.039912340646296" lon="139.3579229952393"><ele>1967</ele><time>2025-03-09T01:34:11Z</time></trkpt>
<trkpt lat="37.03998306434191" lon="139.35770120990156"><ele>1973</ele><time>2025-03-09T01:34:54Z</time></trkpt>
<trkpt lat="37.04003504901148" lon="139.35744086852276"><ele>1977</ele><time>2025-03-09T01:35:36Z</time></trkpt>
<trkpt lat="37.04008973278595" lon="139.3571913915103"><ele>1981</ele><time>2025-03-09T01:36:13Z</time></trkpt>
<trkpt lat="37.0401435553721" lon="139.35692850683154"><ele>1984</ele><time>2025-03-09T01:36:50Z</time></trkpt>
<trkpt lat="37.04019529085724" lon="139.35667190163537"><ele>1988</ele><time>2025-03-09T01:37:31Z</time></trkpt>
<trkpt lat="37.040231901690724" lon="139.35645600544188"><ele>1989</ele><time>2025-03-09T01:38:09Z</time></trkpt>
<trkpt lat="37.040326876122386" lon="139.35607766846522"><ele>1991</ele><time>2025-03-09T01:38:41Z</time></trkpt>
<trkpt lat="37.040436824464685" lon="139.35573015134477"><ele>1991</ele><time>2025-03-09T01:39:23Z</time></trkpt>
<trkpt lat="37.04054303394821" lon="139.35547874869255"><ele>1991</ele><time>2025-03-09T01:39:52Z</time></trkpt>
<trkpt lat="37.04062657648768" lon="139.3552280512697"><ele>1996</ele><time>2025-03-09T01:40:29Z</time></trkpt>
<trkpt lat="37.040705187856766" lon="139.35503720704503"><ele>2003</ele><time>2025-03-09T01:41:20Z</time></trkpt>
<trkpt lat="37.04082995450534" lon="139.35497021910487"><ele>2006</ele><time>2025-03-09T01:41:57Z</time></trkpt>
<trkpt lat="37.04096019699408" lon="139.35487962159254"><ele>2013</ele><time>2025-03-09T01:42:47Z</time></trkpt>
<trkpt lat="37.04108613261026" lon="139.354700101655"><ele>2015</ele><time>2025-03-09T01:43:36Z</time></trkpt>
<trkpt lat="37.041118488268964" lon="139.35451629458447"><ele>2022</ele><time>2025-03-09T01:44:16Z</time></trkpt>
<trkpt lat="37.04140858115866" lon="139.3543708048855"><ele>2024</ele><time>2025-03-09T01:45:30Z</time></trkpt>
<trkpt lat="37.04167554903907" lon="139.35435340228258"><ele>2021</ele><time>2025-03-09T01:45:54Z</time></trkpt>
<trkpt lat="37.041852605028126" lon="139.354172972373"><ele>2019</ele><time>2025-03-09T01:46:22Z</time></trkpt>
<trkpt lat="37.04202958636935" lon="139.3539958987135"><ele>2022</ele><time>2025-03-09T01:46:54Z</time></trkpt>
<trkpt lat="37.04220820560631" lon="139.35386234838742"><ele>2028</ele><time>2025-03-09T01:47:30Z</time></trkpt>
<trkpt lat="37.04232999769635" lon="139.35374638047753"><ele>2031</ele><time>2025-03-09T01:48:09Z</time></trkpt>
<trkpt lat="37.042521207322814" lon="139.3537170973852"><ele>2037</ele><time>2025-03-09T01:48:46Z</time></trkpt>
<trkpt lat="37.042618162690715" lon="139.3535970475632"><ele>2041</ele><time>2025-03-09T01:49:29Z</time></trkpt>
<trkpt lat="37.042818007219815" lon="139.35351976323207"><ele>2045</ele><time>2025-03-09T01:50:27Z</time></trkpt>
<trkpt lat="37.042795342778255" lon="139.35339176951237"><ele>2045</ele><time>2025-03-09T01:51:19Z</time></trkpt>
<trkpt lat="37.04284262575424" lon="139.35320535396698"><ele>2049</ele><time>2025-03-09T01:52:02Z</time></trkpt>
<trkpt lat="37.04296573599851" lon="139.35306136119507"><ele>2052</ele><time>2025-03-09T01:52:41Z</time></trkpt>
<trkpt lat="37.04302197458772" lon="139.35285980181868"><ele>2058</ele><time>2025-03-09T01:53:26Z</time></trkpt>
<trkpt lat="37.043086655203105" lon="139.3526256309646"><ele>2059</ele><time>2025-03-09T01:54:22Z</time></trkpt>
<trkpt lat="37.04319668029903" lon="139.35256380372348"><ele>2062</ele><time>2025-03-09T01:55:18Z</time></trkpt>
<trkpt lat="37.04305659047949" lon="139.35252379537434"><ele>2064</ele><time>2025-03-09T01:56:02Z</time></trkpt>
<trkpt lat="37.043384394457654" lon="139.35265857140115"><ele>2066</ele><time>2025-03-09T02:00:16Z</time></trkpt>
<trkpt lat="37.04364713018356" lon="139.35273712918988"><ele>2066</ele><time>2025-03-09T02:00:46Z</time></trkpt>
<trkpt lat="37.043883427004275" lon="139.35280860628166"><ele>2068</ele><time>2025-03-09T02:01:17Z</time></trkpt>
<trkpt lat="37.04413673974709" lon="139.3529253554755"><ele>2066</ele><time>2025-03-09T02:01:48Z</time></trkpt>
<trkpt lat="37.04442513001125" lon="139.35305390075055"><ele>2064</ele><time>2025-03-09T02:02:21Z</time></trkpt>
<trkpt lat="37.044724889285305" lon="139.3533326754218"><ele>2063</ele><time>2025-03-09T02:02:51Z</time></trkpt>
<trkpt lat="37.0449622817886" lon="139.35352143799426"><ele>2063</ele><time>2025-03-09T02:03:18Z</time></trkpt>
<trkpt lat="37.04520035982094" lon="139.35366042091977"><ele>2064</ele><time>2025-03-09T02:03:49Z</time></trkpt>
<trkpt lat="37.045399460274275" lon="139.35375169334796"><ele>2067</ele><time>2025-03-09T02:04:19Z</time></trkpt>
<trkpt lat="37.04556969699453" lon="139.35379226316834"><ele>2073</ele><time>2025-03-09T02:04:56Z</time></trkpt>
<trkpt lat="37.04573015161816" lon="139.35387927013713"><ele>2076</ele><time>2025-03-09T02:05:33Z</time></trkpt>
<trkpt lat="37.045894478451046" lon="139.35393692736758"><ele>2080</ele><time>2025-03-09T02:06:09Z</time></trkpt>
<trkpt lat="37.046045677089445" lon="139.35388643216643"><ele>2085</ele><time>2025-03-09T02:06:49Z</time></trkpt>
<trkpt lat="37.046196940629265" lon="139.35386080789874"><ele>2087</ele><time>2025-03-09T02:07:41Z</time></trkpt>
<trkpt lat="37.046344414307484" lon="139.35379773534078"><ele>2093</ele><time>2025-03-09T02:08:20Z</time></trkpt>
<trkpt lat="37.04644234070534" lon="139.35370804315178"><ele>2097</ele><time>2025-03-09T02:09:00Z</time></trkpt>
<trkpt lat="37.04658787412708" lon="139.35359677797908"><ele>2103</ele><time>2025-03-09T02:09:55Z</time></trkpt>
<trkpt lat="37.04674076429569" lon="139.35356093139086"><ele>2110</ele><time>2025-03-09T02:16:30Z</time></trkpt>
<trkpt lat="37.046911920609595" lon="139.35366193403814"><ele>2116</ele><time>2025-03-09T02:17:13Z</time></trkpt>
<trkpt lat="37.04705838153424" lon="139.35375569847764"><ele>2125</ele><time>2025-03-09T02:18:05Z</time></trkpt>
<trkpt lat="37.04722445115334" lon="139.3537746065778"><ele>2130</ele><time>2025-03-09T02:18:49Z</time></trkpt>
<trkpt lat="37.047427241859296" lon="139.3537871129786"><ele>2136</ele><time>2025-03-09T02:19:40Z</time></trkpt>
<trkpt lat="37.04755481543363" lon="139.35377152882708"><ele>2139</ele><time>2025-03-09T02:20:26Z</time></trkpt>
<trkpt lat="37.047697514620616" lon="139.35385762913916"><ele>2132</ele><time>2025-03-09T02:21:02Z</time></trkpt>
<trkpt lat="37.047518650042385" lon="139.35390986702222"><ele>2139</ele><time>2025-03-09T02:43:45Z</time></trkpt>
<trkpt lat="37.047448297242425" lon="139.3539814748626"><ele>2136</ele><time>2025-03-09T02:46:16Z</time></trkpt>
<trkpt lat="37.047051202315956" lon="139.35391529687737"><ele>2126</ele><time>2025-03-09T02:48:05Z</time></trkpt>
<trkpt lat="37.04677480079873" lon="139.3540828472542"><ele>2114</ele><time>2025-03-09T02:48:29Z</time></trkpt>
<trkpt lat="37.04667043782704" lon="139.3543735925882"><ele>2105</ele><time>2025-03-09T02:48:55Z</time></trkpt>
<trkpt lat="37.04614799885939" lon="139.3548290707819"><ele>2075</ele><time>2025-03-09T02:49:17Z</time></trkpt>
<trkpt lat="37.04585607475879" lon="139.35479556923582"><ele>2063</ele><time>2025-03-09T02:49:48Z</time></trkpt>
<trkpt lat="37.04480320215782" lon="139.3550365883992"><ele>2024</ele><time>2025-03-09T02:50:13Z</time></trkpt>
<trkpt lat="37.04441825042792" lon="139.3552889844726"><ele>2013</ele><time>2025-03-09T02:50:43Z</time></trkpt>
<trkpt lat="37.04385040576228" lon="139.3556235136618"><ele>1990</ele><time>2025-03-09T02:51:16Z</time></trkpt>
<trkpt lat="37.04327899781609" lon="139.35603938483075"><ele>1959</ele><time>2025-03-09T02:53:04Z</time></trkpt>
<trkpt lat="37.04324830861758" lon="139.3568443768563"><ele>1938</ele><time>2025-03-09T02:55:24Z</time></trkpt>
<trkpt lat="37.043016370624024" lon="139.35775099015953"><ele>1904</ele><time>2025-03-09T02:55:45Z</time></trkpt>
<trkpt lat="37.042829568623226" lon="139.358792877955"><ele>1861</ele><time>2025-03-09T02:56:12Z</time></trkpt>
<trkpt lat="37.04219231645189" lon="139.36013315756227"><ele>1804</ele><time>2025-03-09T02:56:58Z</time></trkpt>
<trkpt lat="37.042088202348474" lon="139.36024046608281"><ele>1797</ele><time>2025-03-09T02:57:19Z</time></trkpt>
<trkpt lat="37.04174325764448" lon="139.361781302309"><ele>1762</ele><time>2025-03-09T02:58:08Z</time></trkpt>
<trkpt lat="37.04099177176478" lon="139.36262215724463"><ele>1730</ele><time>2025-03-09T02:58:29Z</time></trkpt>
<trkpt lat="37.0408998942618" lon="139.3628450320532"><ele>1728</ele><time>2025-03-09T02:59:08Z</time></trkpt>
<trkpt lat="37.0405117028489" lon="139.36463391006745"><ele>1686</ele><time>2025-03-09T02:59:30Z</time></trkpt>
<trkpt lat="37.040391694613035" lon="139.36577873163958"><ele>1654</ele><time>2025-03-09T02:59:52Z</time></trkpt>
<trkpt lat="37.04041731756755" lon="139.3659679480148"><ele>1654</ele><time>2025-03-09T03:00:15Z</time></trkpt>
<trkpt lat="37.040375881443765" lon="139.3658157842137"><ele>1650</ele><time>2025-03-09T03:05:48Z</time></trkpt>
<trkpt lat="37.04042414441101" lon="139.3656912843777"><ele>1652</ele><time>2025-03-09T03:07:43Z</time></trkpt>
<trkpt lat="37.040481543356016" lon="139.3659555195167"><ele>1651</ele><time>2025-03-09T03:08:23Z</time></trkpt>
<trkpt lat="37.04031313656827" lon="139.36595159336497"><ele>1653</ele><time>2025-03-09T03:15:37Z</time></trkpt>
<trkpt lat="37.04045955578944" lon="139.36595564166592"><ele>1649</ele><time>2025-03-09T03:16:21Z</time></trkpt>
<trkpt lat="37.04038988850396" lon="139.3658730172408"><ele>1651</ele><time>2025-03-09T03:20:54Z</time></trkpt>
<trkpt lat="37.040215297526814" lon="139.3662485208835"><ele>1657</ele><time>2025-03-09T03:23:15Z</time></trkpt>
<trkpt lat="37.040191037432635" lon="139.36651292510606"><ele>1663</ele><time>2025-03-09T03:23:45Z</time></trkpt>
<trkpt lat="37.04024069782449" lon="139.36668391248628"><ele>1668</ele><time>2025-03-09T03:24:42Z</time></trkpt>
<trkpt lat="37.04009302903231" lon="139.36692336392878"><ele>1679</ele><time>2025-03-09T03:25:11Z</time></trkpt>
<trkpt lat="37.03991551103869" lon="139.36701967513622"><ele>1683</ele><time>2025-03-09T03:25:56Z</time></trkpt>
<trkpt lat="37.03973780065948" lon="139.3670695691548"><ele>1685</ele><time>2025-03-09T03:26:28Z</time></trkpt>
<trkpt lat="37.03968284823576" lon="139.3668993322894"><ele>1697</ele><time>2025-03-09T03:27:42Z</time></trkpt>
<trkpt lat="37.039470811173395" lon="139.36693602037397"><ele>1703</ele><time>2025-03-09T03:28:27Z</time></trkpt>
<trkpt lat="37.039346520376945" lon="139.36696073432765"><ele>1705</ele><time>2025-03-09T03:29:16Z</time></trkpt>
<trkpt lat="37.039354210470464" lon="139.36683117282848"><ele>1708</ele><time>2025-03-09T03:30:13Z</time></trkpt>
<trkpt lat="37.03919869021432" lon="139.36682957248615"><ele>1716</ele><time>2025-03-09T03:30:45Z</time></trkpt>
<trkpt lat="37.03900130577483" lon="139.36689093994482"><ele>1720</ele><time>2025-03-09T03:32:01Z</time></trkpt>
<trkpt lat="37.038855442553945" lon="139.36705257311073"><ele>1726</ele><time>2025-03-09T03:32:44Z</time></trkpt>
<trkpt lat="37.03863232389069" lon="139.36720207998735"><ele>1728</ele><time>2025-03-09T03:33:26Z</time></trkpt>
<trkpt lat="37.03844030421398" lon="139.36737285430667"><ele>1729</ele><time>2025-03-09T03:33:56Z</time></trkpt>
<trkpt lat="37.03827184496327" lon="139.36741878817384"><ele>1726</ele><time>2025-03-09T03:34:32Z</time></trkpt>
<trkpt lat="37.03800816333143" lon="139.3675571368987"><ele>1734</ele><time>2025-03-09T03:35:13Z</time></trkpt>
<trkpt lat="37.03791945299262" lon="139.36746868224876"><ele>1736</ele><time>2025-03-09T03:35:46Z</time></trkpt>
<trkpt lat="37.03784003339508" lon="139.3672557035165"><ele>1740</ele><time>2025-03-09T03:36:24Z</time></trkpt>
<trkpt lat="37.037799057972286" lon="139.3671535420317"><ele>1744</ele><time>2025-03-09T03:53:35Z</time></trkpt>
<trkpt lat="37.0378853070783" lon="139.36721286556974"><ele>1746</ele><time>2025-03-09T04:00:12Z</time></trkpt>
<trkpt lat="37.03779499322254" lon="139.3671770316417"><ele>1746</ele><time>2025-03-09T04:27:47Z</time></trkpt>
<trkpt lat="37.03740081931746" lon="139.36818747379579"><ele>1723</ele><time>2025-03-09T04:28:18Z</time></trkpt>
<trkpt lat="37.03744905938297" lon="139.36888840153574"><ele>1713</ele><time>2025-03-09T04:28:44Z</time></trkpt>
<trkpt lat="37.03747509547679" lon="139.36957182059663"><ele>1708</ele><time>2025-03-09T04:29:11Z</time></trkpt>
<trkpt lat="37.03766779782013" lon="139.37025503090175"><ele>1683</ele><time>2025-03-09T04:30:00Z</time></trkpt>
<trkpt lat="37.03748945690382" lon="139.37079206302602"><ele>1681</ele><time>2025-03-09T04:30:22Z</time></trkpt>
<trkpt lat="37.03753290594354" lon="139.37135507053952"><ele>1676</ele><time>2025-03-09T04:30:58Z</time></trkpt>
<trkpt lat="37.037259029968034" lon="139.37198491483548"><ele>1662</ele><time>2025-03-09T04:31:54Z</time></trkpt>
<trkpt lat="37.036572996854964" lon="139.37236446042422"><ele>1638</ele><time>2025-03-09T04:32:54Z</time></trkpt>
<trkpt lat="37.03571403563849" lon="139.37271176267154"><ele>1613</ele><time>2025-03-09T04:33:16Z</time></trkpt>
<trkpt lat="37.035595319446315" lon="139.37302221493005"><ele>1598</ele><time>2025-03-09T04:33:37Z</time></trkpt>
<trkpt lat="37.03506258938926" lon="139.37362438795188"><ele>1563</ele><time>2025-03-09T04:33:58Z</time></trkpt>
<trkpt lat="37.03506645005839" lon="139.37397299938795"><ele>1560</ele><time>2025-03-09T04:34:22Z</time></trkpt>
<trkpt lat="37.034603883944186" lon="139.37454685276725"><ele>1523</ele><time>2025-03-09T04:35:10Z</time></trkpt>
<trkpt lat="37.0342414973343" lon="139.37525294867478"><ele>1505</ele><time>2025-03-09T04:35:31Z</time></trkpt>
<trkpt lat="37.03342509165851" lon="139.37622642714308"><ele>1473</ele><time>2025-03-09T04:36:07Z</time></trkpt>
<trkpt lat="37.03343328209494" lon="139.37640471357693"><ele>1471</ele><time>2025-03-09T04:36:53Z</time></trkpt>
<trkpt lat="37.03383560533178" lon="139.37680419393942"><ele>1440</ele><time>2025-03-09T04:37:27Z</time></trkpt>
<trkpt lat="37.03388711956152" lon="139.37770946231294"><ele>1404</ele><time>2025-03-09T04:37:49Z</time></trkpt>
<trkpt lat="37.03379316918201" lon="139.37784213023556"><ele>1402</ele><time>2025-03-09T04:38:16Z</time></trkpt>
<trkpt lat="37.03327834506083" lon="139.37776904976923"><ele>1385</ele><time>2025-03-09T04:38:57Z</time></trkpt>
<trkpt lat="37.03292632224004" lon="139.37789030784177"><ele>1368</ele><time>2025-03-09T04:39:19Z</time></trkpt>
<trkpt lat="37.03291021662811" lon="139.3782415131795"><ele>1351</ele><time>2025-03-09T04:39:42Z</time></trkpt>
<trkpt lat="37.03232736127919" lon="139.3785915335614"><ele>1334</ele><time>2025-03-09T04:40:25Z</time></trkpt>
<trkpt lat="37.03194603003185" lon="139.37888476718314"><ele>1324</ele><time>2025-03-09T04:40:56Z</time></trkpt>
<trkpt lat="37.032281435429674" lon="139.3793513962977"><ele>1287</ele><time>2025-03-09T04:41:25Z</time></trkpt>
<trkpt lat="37.0320272956083" lon="139.37955247173127"><ele>1269</ele><time>2025-03-09T04:41:57Z</time></trkpt>
<trkpt lat="37.0318649686158" lon="139.38023912756114"><ele>1247</ele><time>2025-03-09T04:42:22Z</time></trkpt>
<trkpt lat="37.031728883289375" lon="139.38031168458"><ele>1243</ele><time>2025-03-09T04:42:46Z</time></trkpt>
<trkpt lat="37.031759075200206" lon="139.38049178052603"><ele>1240</ele><time>2025-03-09T04:43:29Z</time></trkpt>
<trkpt lat="37.03215266484382" lon="139.3810118125828"><ele>1196</ele><time>2025-03-09T04:44:22Z</time></trkpt>
<trkpt lat="37.03244033209686" lon="139.38157273691198"><ele>1166</ele><time>2025-03-09T04:44:48Z</time></trkpt>
<trkpt lat="37.03243276716775" lon="139.38172872654528"><ele>1160</ele><time>2025-03-09T04:45:17Z</time></trkpt>
<trkpt lat="37.03230334749425" lon="139.38220543206597"><ele>1149</ele><time>2025-03-09T04:45:40Z</time></trkpt>
<trkpt lat="37.0315460810856" lon="139.3825115071088"><ele>1135</ele><time>2025-03-09T04:46:01Z</time></trkpt>
<trkpt lat="37.03117372938176" lon="139.38298282332764"><ele>1132</ele><time>2025-03-09T04:46:24Z</time></trkpt>
<trkpt lat="37.03059137647642" lon="139.38357301596582"><ele>1120</ele><time>2025-03-09T04:46:47Z</time></trkpt>
<trkpt lat="37.03035321895977" lon="139.38360252506763"><ele>1114</ele><time>2025-03-09T04:47:09Z</time></trkpt>
<trkpt lat="37.030244873337644" lon="139.38370810496275"><ele>1109</ele><time>2025-03-09T04:48:37Z</time></trkpt>
<trkpt lat="37.03031008034028" lon="139.38362966056403"><ele>1112</ele><time>2025-03-09T04:49:11Z</time></trkpt>
<trkpt lat="37.03014603476166" lon="139.38358439483568"><ele>1113</ele><time>2025-03-09T04:50:09Z</time></trkpt>
<trkpt lat="37.03009213365079" lon="139.38386299947126"><ele>1094</ele><time>2025-03-09T04:53:27Z</time></trkpt>
<trkpt lat="37.029821441238425" lon="139.3841939691425"><ele>1077</ele><time>2025-03-09T04:54:43Z</time></trkpt>
<trkpt lat="37.03001299912466" lon="139.38442530272945"><ele>1066</ele><time>2025-03-09T04:55:07Z</time></trkpt>
<trkpt lat="37.02991032416137" lon="139.3847575765552"><ele>1046</ele><time>2025-03-09T04:55:36Z</time></trkpt>
<trkpt lat="37.02974922593055" lon="139.38496691572087"><ele>1036</ele><time>2025-03-09T04:56:10Z</time></trkpt>
<trkpt lat="37.02981762849711" lon="139.38540894815668"><ele>1025</ele><time>2025-03-09T04:56:33Z</time></trkpt>
<trkpt lat="37.02898824830333" lon="139.38629328830274"><ele>1008</ele><time>2025-03-09T04:56:57Z</time></trkpt>
<trkpt lat="37.02855155826572" lon="139.38672621889995"><ele>1001</ele><time>2025-03-09T04:57:22Z</time></trkpt>
<trkpt lat="37.02832682789972" lon="139.3871018939691"><ele>994</ele><time>2025-03-09T04:57:46Z</time></trkpt>
<trkpt lat="37.02837114082124" lon="139.38808561739248"><ele>984</ele><time>2025-03-09T04:58:07Z</time></trkpt>
<trkpt lat="37.02809978701981" lon="139.38932263101657"><ele>966</ele><time>2025-03-09T04:58:28Z</time></trkpt>
<trkpt lat="37.028432987325225" lon="139.3906659014384"><ele>948</ele><time>2025-03-09T04:58:49Z</time></trkpt>
<trkpt lat="37.02843295780901" lon="139.39148482697016"><ele>937</ele><time>2025-03-09T04:59:10Z</time></trkpt>
<trkpt lat="37.02839179541118" lon="139.39164900661848"><ele>937</ele><time>2025-03-09T04:59:44Z</time></trkpt>
<trkpt lat="37.02853804746582" lon="139.3919408693689"><ele>934</ele><time>2025-03-09T05:01:06Z</time></trkpt>
<trkpt lat="37.028686515126076" lon="139.3921690067056"><ele>934</ele><time>2025-03-09T05:01:34Z</time></trkpt>
<trkpt lat="37.02885656952647" lon="139.39242268698612"><ele>935</ele><time>2025-03-09T05:02:04Z</time></trkpt>
<trkpt lat="37.029014712812724" lon="139.39270079507924"><ele>934</ele><time>2025-03-09T05:02:33Z</time></trkpt>
<trkpt lat="37.0291397412223" lon="139.39303665598348"><ele>932</ele><time>2025-03-09T05:03:04Z</time></trkpt>
<trkpt lat="37.02929756817486" lon="139.39330647759402"><ele>930</ele><time>2025-03-09T05:03:35Z</time></trkpt>
<trkpt lat="37.02945460746314" lon="139.39360920367483"><ele>928</ele><time>2025-03-09T05:04:05Z</time></trkpt>
<trkpt lat="37.0295792069161" lon="139.39390836164614"><ele>926</ele><time>2025-03-09T05:04:36Z</time></trkpt>
<trkpt lat="37.02988507444087" lon="139.3938549562553"><ele>928</ele><time>2025-03-09T05:05:03Z</time></trkpt>
<trkpt lat="37.03009202092163" lon="139.39411763925295"><ele>924</ele><time>2025-03-09T05:05:32Z</time></trkpt>
<trkpt lat="37.03019136762854" lon="139.39411971483645"><ele>925</ele><time>2025-03-09T05:06:17Z</time></trkpt>
<trkpt lat="37.03014099297738" lon="139.39419262223998"><ele>921</ele><time>2025-03-09T05:07:45Z</time></trkpt>
</trkseg>
</trk>
</gpx>