<?xml version="1.0" encoding="UTF-8"?>
<gpx xmlns:xsi="http://www.w3.org/2001/XMLSchema-instance" xmlns="http://www.topografix.com/GPX/1/1" xsi:schemaLocation="http://www.topografix.com/GPX/1/1 http://www.topografix.com/GPX/1/1/gpx.xsd" creator="Yamareco iOS 7.28 - www.yamareco.com">
<trk><name>track</name><number>1</number><trkseg>
<trkpt lat="35.863051290967256" lon="138.75471767991382"><ele>1104</ele><time>2025-05-03T21:38:55Z</time></trkpt>
<trkpt lat="35.86289204806053" lon="138.75493361910785"><ele>1103</ele><time>2025-05-03T21:39:28Z</time></trkpt>
<trkpt lat="35.86264072715517" lon="138.7549872459177"><ele>1106</ele><time>2025-05-03T21:40:02Z</time></trkpt>
<trkpt lat="35.8623624077183" lon="138.75513655109967"><ele>1108</ele><time>2025-05-03T21:40:33Z</time></trkpt>
<trkpt lat="35.86236674649642" lon="138.75540281212807"><ele>1107</ele><time>2025-05-03T21:41:02Z</time></trkpt>
<trkpt lat="35.86263291921123" lon="138.75547292814093"><ele>1110</ele><time>2025-05-03T21:41:29Z</time></trkpt>
<trkpt lat="35.86292488983732" lon="138.75544656901934"><ele>1109</ele><time>2025-05-03T21:41:59Z</time></trkpt>
<trkpt lat="35.86321476933303" lon="138.75529322138013"><ele>1116</ele><time>2025-05-03T21:42:25Z</time></trkpt>
<trkpt lat="35.86343633723245" lon="138.7550519631161"><ele>1119</ele><time>2025-05-03T21:42:52Z</time></trkpt>
<trkpt lat="35.86362003581323" lon="138.75480608416058"><ele>1122</ele><time>2025-05-03T21:43:26Z</time></trkpt>
<trkpt lat="35.863902452506984" lon="138.7547005679327"><ele>1125</ele><time>2025-05-03T21:43:51Z</time></trkpt>
<trkpt lat="35.864134451974955" lon="138.7545423292113"><ele>1128</ele><time>2025-05-03T21:44:20Z</time></trkpt>
<trkpt lat="35.86431648568572" lon="138.75433634203546"><ele>1129</ele><time>2025-05-03T21:44:45Z</time></trkpt>
<trkpt lat="35.864543642723795" lon="138.75422147796417"><ele>1128</ele><time>2025-05-03T21:45:12Z</time></trkpt>
<trkpt lat="35.8648595524213" lon="138.75421183863273"><ele>1137</ele><time>2025-05-03T21:45:40Z</time></trkpt>
<trkpt lat="35.8649240024809" lon="138.75395605571444"><ele>1144</ele><time>2025-05-03T21:46:09Z</time></trkpt>
<trkpt lat="35.8648713976269" lon="138.75359973621568"><ele>1137</ele><time>2025-05-03T21:46:38Z</time></trkpt>
<trkpt lat="35.86510305161648" lon="138.7533825813508"><ele>1136</ele><time>2025-05-03T21:47:04Z</time></trkpt>
<trkpt lat="35.86527185040371" lon="138.75307140080074"><ele>1139</ele><time>2025-05-03T21:47:29Z</time></trkpt>
<trkpt lat="35.86536822275382" lon="138.75273202900487"><ele>1134</ele><time>2025-05-03T21:48:02Z</time></trkpt>
<trkpt lat="35.86549691271779" lon="138.752435718018"><ele>1132</ele><time>2025-05-03T21:48:36Z</time></trkpt>
<trkpt lat="35.86565617651162" lon="138.75205558635702"><ele>1137</ele><time>2025-05-03T21:49:06Z</time></trkpt>
<trkpt lat="35.865883655455896" lon="138.75176288971645"><ele>1141</ele><time>2025-05-03T21:49:40Z</time></trkpt>
<trkpt lat="35.86612028215694" lon="138.75157818647702"><ele>1145</ele><time>2025-05-03T21:50:16Z</time></trkpt>
<trkpt lat="35.866333427910234" lon="138.75133001347257"><ele>1149</ele><time>2025-05-03T21:50:40Z</time></trkpt>
<trkpt lat="35.866436579824956" lon="138.75100407238918"><ele>1148</ele><time>2025-05-03T21:51:08Z</time></trkpt>
<trkpt lat="35.86666903248546" lon="138.7507510569831"><ele>1146</ele><time>2025-05-03T21:51:38Z</time></trkpt>
<trkpt lat="35.86688519422126" lon="138.75058560921428"><ele>1151</ele><time>2025-05-03T21:52:06Z</time></trkpt>
<trkpt lat="35.867164576873094" lon="138.75033283513423"><ele>1151</ele><time>2025-05-03T21:52:35Z</time></trkpt>
<trkpt lat="35.867257247744824" lon="138.75001383525483"><ele>1153</ele><time>2025-05-03T21:53:01Z</time></trkpt>
<trkpt lat="35.867440953170295" lon="138.7496590065502"><ele>1147</ele><time>2025-05-03T21:53:29Z</time></trkpt>
<trkpt lat="35.86756692297812" lon="138.74943373931796"><ele>1141</ele><time>2025-05-03T21:53:58Z</time></trkpt>
<trkpt lat="35.86788435745602" lon="138.74947819889258"><ele>1142</ele><time>2025-05-03T21:54:24Z</time></trkpt>
<trkpt lat="35.86812413898562" lon="138.74966417190583"><ele>1150</ele><time>2025-05-03T21:54:53Z</time></trkpt>
<trkpt lat="35.868395878838925" lon="138.7496968132083"><ele>1156</ele><time>2025-05-03T21:55:21Z</time></trkpt>
<trkpt lat="35.868273067775924" lon="138.74932645846678"><ele>1155</ele><time>2025-05-03T21:55:45Z</time></trkpt>
<trkpt lat="35.868170265440206" lon="138.7489985288523"><ele>1154</ele><time>2025-05-03T21:56:13Z</time></trkpt>
<trkpt lat="35.867928921064504" lon="138.7487038637385"><ele>1150</ele><time>2025-05-03T21:56:42Z</time></trkpt>
<trkpt lat="35.867877840315245" lon="138.74840240636985"><ele>1147</ele><time>2025-05-03T21:57:11Z</time></trkpt>
<trkpt lat="35.86768376934309" lon="138.7482388538525"><ele>1144</ele><time>2025-05-03T21:58:34Z</time></trkpt>
<trkpt lat="35.8678964578801" lon="138.74841200577094"><ele>1146</ele><time>2025-05-03T21:59:07Z</time></trkpt>
<trkpt lat="35.86787275398766" lon="138.74812407764577"><ele>1148</ele><time>2025-05-03T22:00:39Z</time></trkpt>
<trkpt lat="35.868037441097854" lon="138.7478861395745"><ele>1150</ele><time>2025-05-03T22:01:42Z</time></trkpt>
<trkpt lat="35.86803945105889" lon="138.74756087320037"><ele>1149</ele><time>2025-05-03T22:02:09Z</time></trkpt>
<trkpt lat="35.86809118634727" lon="138.74718747094366"><ele>1147</ele><time>2025-05-03T22:02:41Z</time></trkpt>
<trkpt lat="35.8681386391561" lon="138.74682498480087"><ele>1149</ele><time>2025-05-03T22:03:09Z</time></trkpt>
<trkpt lat="35.868115888529694" lon="138.74645755912448"><ele>1149</ele><time>2025-05-03T22:03:39Z</time></trkpt>
<trkpt lat="35.86809987994479" lon="138.74613907805193"><ele>1148</ele><time>2025-05-03T22:04:05Z</time></trkpt>
<trkpt lat="35.868132232266596" lon="138.74579670344897"><ele>1146</ele><time>2025-05-03T22:04:37Z</time></trkpt>
<trkpt lat="35.86839841537438" lon="138.74584706262843"><ele>1148</ele><time>2025-05-03T22:05:02Z</time></trkpt>
<trkpt lat="35.86869737649589" lon="138.74576491503635"><ele>1156</ele><time>2025-05-03T22:05:29Z</time></trkpt>
<trkpt lat="35.869004107172536" lon="138.7458530209296"><ele>1162</ele><time>2025-05-03T22:05:55Z</time></trkpt>
<trkpt lat="35.869289823262044" lon="138.7458583333232"><ele>1171</ele><time>2025-05-03T22:06:26Z</time></trkpt>
<trkpt lat="35.86932932951698" lon="138.74552016241353"><ele>1174</ele><time>2025-05-03T22:06:49Z</time></trkpt>
<trkpt lat="35.86898540120687" lon="138.74547138632275"><ele>1174</ele><time>2025-05-03T22:07:15Z</time></trkpt>
<trkpt lat="35.868798483452814" lon="138.7452295053578"><ele>1167</ele><time>2025-05-03T22:07:45Z</time></trkpt>
<trkpt lat="35.86873868350051" lon="138.74498270794473"><ele>1163</ele><time>2025-05-03T22:08:21Z</time></trkpt>
<trkpt lat="35.8687411860465" lon="138.7446090157724"><ele>1161</ele><time>2025-05-03T22:08:51Z</time></trkpt>
<trkpt lat="35.86886421404914" lon="138.7447487908986"><ele>1164</ele><time>2025-05-03T22:09:41Z</time></trkpt>
<trkpt lat="35.86892629775957" lon="138.74507645570188"><ele>1166</ele><time>2025-05-03T22:10:13Z</time></trkpt>
<trkpt lat="35.86903568680469" lon="138.7453008301217"><ele>1169</ele><time>2025-05-03T22:10:52Z</time></trkpt>
<trkpt lat="35.86913311590335" lon="138.74516978893504"><ele>1172</ele><time>2025-05-03T22:11:28Z</time></trkpt>
<trkpt lat="35.869300791662205" lon="138.7452123992433"><ele>1176</ele><time>2025-05-03T22:11:53Z</time></trkpt>
<trkpt lat="35.86953933417871" lon="138.74512475773034"><ele>1181</ele><time>2025-05-03T22:12:31Z</time></trkpt>
<trkpt lat="35.86976727623048" lon="138.7450765903222"><ele>1187</ele><time>2025-05-03T22:13:04Z</time></trkpt>
<trkpt lat="35.870038175423865" lon="138.74496366600962"><ele>1196</ele><time>2025-05-03T22:13:42Z</time></trkpt>
<trkpt lat="35.87022791112312" lon="138.7450757763947"><ele>1203</ele><time>2025-05-03T22:14:29Z</time></trkpt>
<trkpt lat="35.87025859853661" lon="138.74490708288872"><ele>1211</ele><time>2025-05-03T22:16:16Z</time></trkpt>
<trkpt lat="35.870334299089244" lon="138.74510463644873"><ele>1211</ele><time>2025-05-03T22:17:03Z</time></trkpt>
<trkpt lat="35.870579994531" lon="138.7451819548892"><ele>1212</ele><time>2025-05-03T22:18:34Z</time></trkpt>
<trkpt lat="35.87089711560251" lon="138.74521833009123"><ele>1220</ele><time>2025-05-03T22:19:13Z</time></trkpt>
<trkpt lat="35.871135447287436" lon="138.74514726948155"><ele>1228</ele><time>2025-05-03T22:19:52Z</time></trkpt>
<trkpt lat="35.87105423051139" lon="138.74488558060364"><ele>1231</ele><time>2025-05-03T22:20:20Z</time></trkpt>
<trkpt lat="35.8709099493276" lon="138.74474329530582"><ele>1238</ele><time>2025-05-03T22:21:06Z</time></trkpt>
<trkpt lat="35.87109575719051" lon="138.74469658222708"><ele>1239</ele><time>2025-05-03T22:21:51Z</time></trkpt>
<trkpt lat="35.870993817516855" lon="138.74454634858938"><ele>1239</ele><time>2025-05-03T22:22:34Z</time></trkpt>
<trkpt lat="35.870876933835994" lon="138.7443685579986"><ele>1249</ele><time>2025-05-03T22:23:42Z</time></trkpt>
<trkpt lat="35.87096946299274" lon="138.74419282037954"><ele>1253</ele><time>2025-05-03T22:24:51Z</time></trkpt>
<trkpt lat="35.870967081761876" lon="138.7443537578055"><ele>1251</ele><time>2025-05-03T22:25:35Z</time></trkpt>
<trkpt lat="35.87116526424495" lon="138.74424629932156"><ele>1260</ele><time>2025-05-03T22:26:27Z</time></trkpt>
<trkpt lat="35.87134321048316" lon="138.7441166350326"><ele>1270</ele><time>2025-05-03T22:27:29Z</time></trkpt>
<trkpt lat="35.871417968289464" lon="138.74405050848094"><ele>1274</ele><time>2025-05-03T22:28:44Z</time></trkpt>
<trkpt lat="35.87162603819058" lon="138.74395082144684"><ele>1281</ele><time>2025-05-03T22:29:25Z</time></trkpt>
<trkpt lat="35.871715800740354" lon="138.7437689075982"><ele>1287</ele><time>2025-05-03T22:29:59Z</time></trkpt>
<trkpt lat="35.87188491534792" lon="138.74375888467947"><ele>1292</ele><time>2025-05-03T22:31:08Z</time></trkpt>
<trkpt lat="35.87202048738113" lon="138.7436814740655"><ele>1296</ele><time>2025-05-03T22:31:53Z</time></trkpt>
<trkpt lat="35.87214408929298" lon="138.74350415470522"><ele>1302</ele><time>2025-05-03T22:32:25Z</time></trkpt>
<trkpt lat="35.87221571957834" lon="138.7432822247724"><ele>1303</ele><time>2025-05-03T22:32:59Z</time></trkpt>
<trkpt lat="35.87234403914142" lon="138.74316377983467"><ele>1302</ele><time>2025-05-03T22:33:45Z</time></trkpt>
<trkpt lat="35.87260016104343" lon="138.74313665100738"><ele>1299</ele><time>2025-05-03T22:34:27Z</time></trkpt>
<trkpt lat="35.872797693994265" lon="138.74301603276805"><ele>1296</ele><time>2025-05-03T22:35:06Z</time></trkpt>
<trkpt lat="35.872959308918475" lon="138.74295054967297"><ele>1299</ele><time>2025-05-03T22:35:50Z</time></trkpt>
<trkpt lat="35.87323172726118" lon="138.74288466249263"><ele>1303</ele><time>2025-05-03T22:36:27Z</time></trkpt>
<trkpt lat="35.87337648974937" lon="138.74277246484468"><ele>1306</ele><time>2025-05-03T22:36:58Z</time></trkpt>
<trkpt lat="35.87356058864048" lon="138.7426208709509"><ele>1308</ele><time>2025-05-03T22:37:30Z</time></trkpt>
<trkpt lat="35.873733392503695" lon="138.7425532760529"><ele>1314</ele><time>2025-05-03T22:38:10Z</time></trkpt>
<trkpt lat="35.87391918946353" lon="138.74245805926665"><ele>1317</ele><time>2025-05-03T22:38:48Z</time></trkpt>
<trkpt lat="35.87403073861243" lon="138.74236017286867"><ele>1321</ele><time>2025-05-03T22:39:28Z</time></trkpt>
<trkpt lat="35.87420379815476" lon="138.74228407801044"><ele>1328</ele><time>2025-05-03T22:40:11Z</time></trkpt>
<trkpt lat="35.8743625326162" lon="138.74216319064735"><ele>1335</ele><time>2025-05-03T22:40:48Z</time></trkpt>
<trkpt lat="35.87453505553715" lon="138.74208924160394"><ele>1344</ele><time>2025-05-03T22:41:58Z</time></trkpt>
<trkpt lat="35.87471901203238" lon="138.74204284262544"><ele>1354</ele><time>2025-05-03T22:45:49Z</time></trkpt>
<trkpt lat="35.874850033310686" lon="138.74194627244265"><ele>1365</ele><time>2025-05-03T22:46:35Z</time></trkpt>
<trkpt lat="35.874991501820425" lon="138.7418550094973"><ele>1372</ele><time>2025-05-03T22:47:44Z</time></trkpt>
<trkpt lat="35.8751037058902" lon="138.74163230472388"><ele>1378</ele><time>2025-05-03T22:48:59Z</time></trkpt>
<trkpt lat="35.875214579855886" lon="138.7416833537584"><ele>1385</ele><time>2025-05-03T22:50:36Z</time></trkpt>
<trkpt lat="35.875231150344256" lon="138.7414914298014"><ele>1394</ele><time>2025-05-03T22:52:14Z</time></trkpt>
<trkpt lat="35.87534377633375" lon="138.7413969716489"><ele>1408</ele><time>2025-05-03T22:54:23Z</time></trkpt>
<trkpt lat="35.87542959612718" lon="138.74115076952452"><ele>1416</ele><time>2025-05-03T22:55:14Z</time></trkpt>
<trkpt lat="35.87537059143937" lon="138.74093736501325"><ele>1420</ele><time>2025-05-03T22:55:50Z</time></trkpt>
<trkpt lat="35.87548725444576" lon="138.74084549362905"><ele>1428</ele><time>2025-05-03T22:56:47Z</time></trkpt>
<trkpt lat="35.87552004466322" lon="138.74065231419078"><ele>1435</ele><time>2025-05-03T22:58:04Z</time></trkpt>
<trkpt lat="35.8755979945762" lon="138.74056348179099"><ele>1442</ele><time>2025-05-03T22:59:36Z</time></trkpt>
<trkpt lat="35.87561049030737" lon="138.7404304063998"><ele>1448</ele><time>2025-05-03T23:00:37Z</time></trkpt>
<trkpt lat="35.87569030696946" lon="138.74031654512996"><ele>1455</ele><time>2025-05-03T23:02:24Z</time></trkpt>
<trkpt lat="35.87567010667275" lon="138.74019683867036"><ele>1455</ele><time>2025-05-03T23:03:19Z</time></trkpt>
<trkpt lat="35.87586521919396" lon="138.7402558479283"><ele>1463</ele><time>2025-05-03T23:04:10Z</time></trkpt>
<trkpt lat="35.876087058952585" lon="138.74031135567026"><ele>1470</ele><time>2025-05-03T23:05:01Z</time></trkpt>
<trkpt lat="35.876194158386284" lon="138.7402663839937"><ele>1473</ele><time>2025-05-03T23:05:36Z</time></trkpt>
<trkpt lat="35.87638341007496" lon="138.7402585362313"><ele>1479</ele><time>2025-05-03T23:06:08Z</time></trkpt>
<trkpt lat="35.876597636354646" lon="138.74021098593863"><ele>1486</ele><time>2025-05-03T23:06:38Z</time></trkpt>
<trkpt lat="35.87681334086105" lon="138.74013560015035"><ele>1491</ele><time>2025-05-03T23:07:19Z</time></trkpt>
<trkpt lat="35.87698080568231" lon="138.7400341892526"><ele>1498</ele><time>2025-05-03T23:08:02Z</time></trkpt>
<trkpt lat="35.877170020094496" lon="138.74002973297382"><ele>1503</ele><time>2025-05-03T23:08:52Z</time></trkpt>
<trkpt lat="35.877317330478704" lon="138.73990822260495"><ele>1505</ele><time>2025-05-03T23:09:24Z</time></trkpt>
<trkpt lat="35.87751560265578" lon="138.7398072485376"><ele>1512</ele><time>2025-05-03T23:10:16Z</time></trkpt>
<trkpt lat="35.87766870892112" lon="138.7396535366289"><ele>1517</ele><time>2025-05-03T23:10:58Z</time></trkpt>
<trkpt lat="35.8778437128534" lon="138.73966820207545"><ele>1523</ele><time>2025-05-03T23:11:31Z</time></trkpt>
<trkpt lat="35.878048245944996" lon="138.73963249942378"><ele>1528</ele><time>2025-05-03T23:12:15Z</time></trkpt>
<trkpt lat="35.87824670348772" lon="138.73951665837959"><ele>1526</ele><time>2025-05-03T23:12:58Z</time></trkpt>
<trkpt lat="35.87844470096183" lon="138.73949109996772"><ele>1524</ele><time>2025-05-03T23:13:35Z</time></trkpt>
<trkpt lat="35.878576259193984" lon="138.73966077592516"><ele>1525</ele><time>2025-05-03T23:14:24Z</time></trkpt>
<trkpt lat="35.8787873683334" lon="138.73973637555028"><ele>1524</ele><time>2025-05-03T23:14:55Z</time></trkpt>
<trkpt lat="35.878982321510826" lon="138.73985103227608"><ele>1526</ele><time>2025-05-03T23:15:29Z</time></trkpt>
<trkpt lat="35.87916177142215" lon="138.73990237031396"><ele>1527</ele><time>2025-05-03T23:16:28Z</time></trkpt>
<trkpt lat="35.87936051341087" lon="138.73996329915036"><ele>1532</ele><time>2025-05-03T23:17:09Z</time></trkpt>
<trkpt lat="35.879543380357596" lon="138.74002162883522"><ele>1534</ele><time>2025-05-03T23:17:52Z</time></trkpt>
<trkpt lat="35.87973606879732" lon="138.74005685969908"><ele>1536</ele><time>2025-05-03T23:18:24Z</time></trkpt>
<trkpt lat="35.87991544541108" lon="138.74005899751998"><ele>1541</ele><time>2025-05-03T23:19:00Z</time></trkpt>
<trkpt lat="35.88006951874907" lon="138.74015112104382"><ele>1546</ele><time>2025-05-03T23:19:43Z</time></trkpt>
<trkpt lat="35.8801870111261" lon="138.74017480785224"><ele>1553</ele><time>2025-05-03T23:20:24Z</time></trkpt>
<trkpt lat="35.88037507699371" lon="138.74017238044692"><ele>1558</ele><time>2025-05-03T23:21:32Z</time></trkpt>
<trkpt lat="35.88048661042481" lon="138.74024396146123"><ele>1562</ele><time>2025-05-03T23:22:14Z</time></trkpt>
<trkpt lat="35.88059278583774" lon="138.7401553674365"><ele>1566</ele><time>2025-05-03T23:23:06Z</time></trkpt>
<trkpt lat="35.88052414461693" lon="138.7402882671268"><ele>1566</ele><time>2025-05-03T23:23:37Z</time></trkpt>
<trkpt lat="35.88064729435311" lon="138.74032492390688"><ele>1570</ele><time>2025-05-03T23:24:21Z</time></trkpt>
<trkpt lat="35.880811339208655" lon="138.74033239757085"><ele>1580</ele><time>2025-05-03T23:25:34Z</time></trkpt>
<trkpt lat="35.88096104949526" lon="138.74030042890243"><ele>1584</ele><time>2025-05-03T23:26:26Z</time></trkpt>
<trkpt lat="35.880864775861006" lon="138.7402639123269"><ele>1586</ele><time>2025-05-03T23:27:11Z</time></trkpt>
<trkpt lat="35.881002359919336" lon="138.74034501734013"><ele>1588</ele><time>2025-05-03T23:27:43Z</time></trkpt>
<trkpt lat="35.88116280133451" lon="138.74035675506948"><ele>1594</ele><time>2025-05-03T23:28:59Z</time></trkpt>
<trkpt lat="35.881332301273396" lon="138.74038392996215"><ele>1601</ele><time>2025-05-03T23:29:58Z</time></trkpt>
<trkpt lat="35.88149735458155" lon="138.74039267796493"><ele>1609</ele><time>2025-05-03T23:31:06Z</time></trkpt>
<trkpt lat="35.881622232177826" lon="138.7404244114519"><ele>1620</ele><time>2025-05-03T23:32:32Z</time></trkpt>
<trkpt lat="35.88185297618348" lon="138.74050412569437"><ele>1622</ele><time>2025-05-03T23:33:05Z</time></trkpt>
<trkpt lat="35.8819993557683" lon="138.7405127260238"><ele>1628</ele><time>2025-05-03T23:33:42Z</time></trkpt>
<trkpt lat="35.8821487094337" lon="138.74051299232107"><ele>1632</ele><time>2025-05-03T23:34:28Z</time></trkpt>
<trkpt lat="35.882306593564145" lon="138.7405019888781"><ele>1633</ele><time>2025-05-03T23:35:05Z</time></trkpt>
<trkpt lat="35.882493515627" lon="138.74045442265117"><ele>1634</ele><time>2025-05-03T23:35:33Z</time></trkpt>
<trkpt lat="35.88274252320143" lon="138.74043473170238"><ele>1633</ele><time>2025-05-03T23:36:06Z</time></trkpt>
<trkpt lat="35.88294224996188" lon="138.74043385469457"><ele>1635</ele><time>2025-05-03T23:36:52Z</time></trkpt>
<trkpt lat="35.883077712348936" lon="138.74037925360324"><ele>1639</ele><time>2025-05-03T23:37:34Z</time></trkpt>
<trkpt lat="35.8832640070586" lon="138.74036883950302"><ele>1645</ele><time>2025-05-03T23:38:10Z</time></trkpt>
<trkpt lat="35.88346604389448" lon="138.7403917067704"><ele>1650</ele><time>2025-05-03T23:38:50Z</time></trkpt>
<trkpt lat="35.88358792476526" lon="138.74018023787605"><ele>1655</ele><time>2025-05-03T23:39:24Z</time></trkpt>
<trkpt lat="35.88372474155687" lon="138.74025267373577"><ele>1659</ele><time>2025-05-03T23:40:02Z</time></trkpt>
<trkpt lat="35.88385740930812" lon="138.74022254745296"><ele>1662</ele><time>2025-05-03T23:40:54Z</time></trkpt>
<trkpt lat="35.8839946707694" lon="138.74014534459835"><ele>1667</ele><time>2025-05-03T23:41:39Z</time></trkpt>
<trkpt lat="35.88410818661772" lon="138.74010464112473"><ele>1672</ele><time>2025-05-03T23:43:08Z</time></trkpt>
<trkpt lat="35.88431313597285" lon="138.74000288233626"><ele>1675</ele><time>2025-05-03T23:44:03Z</time></trkpt>
<trkpt lat="35.884452211855674" lon="138.73992284248467"><ele>1683</ele><time>2025-05-03T23:44:38Z</time></trkpt>
<trkpt lat="35.884630920538385" lon="138.73978147792891"><ele>1686</ele><time>2025-05-03T23:45:26Z</time></trkpt>
<trkpt lat="35.884837552783715" lon="138.73977544972882"><ele>1688</ele><time>2025-05-03T23:46:03Z</time></trkpt>
<trkpt lat="35.88501735779508" lon="138.7397789957303"><ele>1688</ele><time>2025-05-03T23:46:32Z</time></trkpt>
<trkpt lat="35.885239534223075" lon="138.73981363395922"><ele>1689</ele><time>2025-05-03T23:47:15Z</time></trkpt>
<trkpt lat="35.885420099224234" lon="138.7398566788857"><ele>1695</ele><time>2025-05-03T23:47:56Z</time></trkpt>
<trkpt lat="35.885599288123146" lon="138.73984418999737"><ele>1698</ele><time>2025-05-03T23:48:54Z</time></trkpt>
<trkpt lat="35.88576637615518" lon="138.7398236460073"><ele>1699</ele><time>2025-05-03T23:50:04Z</time></trkpt>
<trkpt lat="35.88591928045099" lon="138.73984411526374"><ele>1705</ele><time>2025-05-03T23:50:40Z</time></trkpt>
<trkpt lat="35.886107907629466" lon="138.73978507874148"><ele>1710</ele><time>2025-05-03T23:51:10Z</time></trkpt>
<trkpt lat="35.88626593323512" lon="138.73973000909214"><ele>1712</ele><time>2025-05-03T23:51:50Z</time></trkpt>
<trkpt lat="35.88646352925713" lon="138.7397371471405"><ele>1721</ele><time>2025-05-03T23:52:43Z</time></trkpt>
<trkpt lat="35.886685577635085" lon="138.73976972710489"><ele>1720</ele><time>2025-05-03T23:53:16Z</time></trkpt>
<trkpt lat="35.886840984262896" lon="138.73979832917058"><ele>1726</ele><time>2025-05-03T23:54:02Z</time></trkpt>
<trkpt lat="35.887005534725965" lon="138.73990085533603"><ele>1731</ele><time>2025-05-03T23:54:40Z</time></trkpt>
<trkpt lat="35.887087100071234" lon="138.73978521499956"><ele>1736</ele><time>2025-05-03T23:55:56Z</time></trkpt>
<trkpt lat="35.887188505907915" lon="138.73982244796403"><ele>1739</ele><time>2025-05-03T23:56:47Z</time></trkpt>
<trkpt lat="35.88732600987814" lon="138.7398263601839"><ele>1747</ele><time>2025-05-03T23:57:52Z</time></trkpt>
<trkpt lat="35.887426666616726" lon="138.73987443405804"><ele>1751</ele><time>2025-05-03T23:58:40Z</time></trkpt>
<trkpt lat="35.887538761857094" lon="138.73990683420655"><ele>1758</ele><time>2025-05-03T23:59:28Z</time></trkpt>
<trkpt lat="35.88767631537171" lon="138.73996748226375"><ele>1764</ele><time>2025-05-04T00:00:25Z</time></trkpt>
<trkpt lat="35.887808015971224" lon="138.74000568364636"><ele>1763</ele><time>2025-05-04T00:01:51Z</time></trkpt>
<trkpt lat="35.88790522483112" lon="138.74006105785156"><ele>1772</ele><time>2025-05-04T00:03:43Z</time></trkpt>
<trkpt lat="35.88803113913336" lon="138.740105360418"><ele>1779</ele><time>2025-05-04T00:04:48Z</time></trkpt>
<trkpt lat="35.88813667517098" lon="138.74015284565724"><ele>1785</ele><time>2025-05-04T00:06:11Z</time></trkpt>
<trkpt lat="35.88829301409241" lon="138.74017460648764"><ele>1790</ele><time>2025-05-04T00:07:24Z</time></trkpt>
<trkpt lat="35.88847108561442" lon="138.74014577330817"><ele>1802</ele><time>2025-05-04T00:08:18Z</time></trkpt>
<trkpt lat="35.888640982521636" lon="138.74016126240085"><ele>1807</ele><time>2025-05-04T00:09:14Z</time></trkpt>
<trkpt lat="35.88876280576396" lon="138.740196630719"><ele>1817</ele><time>2025-05-04T00:10:21Z</time></trkpt>
<trkpt lat="35.888865992758994" lon="138.74021480996788"><ele>1814</ele><time>2025-05-04T00:11:50Z</time></trkpt>
<trkpt lat="35.88898471397143" lon="138.74020807225466"><ele>1827</ele><time>2025-05-04T00:12:46Z</time></trkpt>
<trkpt lat="35.889089037942554" lon="138.74026326094065"><ele>1837</ele><time>2025-05-04T00:14:05Z</time></trkpt>
<trkpt lat="35.88922008783848" lon="138.74038829186995"><ele>1848</ele><time>2025-05-04T00:15:03Z</time></trkpt>
<trkpt lat="35.88935170281152" lon="138.74045946145765"><ele>1851</ele><time>2025-05-04T00:16:06Z</time></trkpt>
<trkpt lat="35.889458398563946" lon="138.74057466669638"><ele>1859</ele><time>2025-05-04T00:17:17Z</time></trkpt>
<trkpt lat="35.889645086446464" lon="138.74049990390174"><ele>1850</ele><time>2025-05-04T00:34:10Z</time></trkpt>
<trkpt lat="35.889751016496284" lon="138.74042711797856"><ele>1849</ele><time>2025-05-04T00:34:47Z</time></trkpt>
<trkpt lat="35.889930359279404" lon="138.74041666209723"><ele>1854</ele><time>2025-05-04T00:35:35Z</time></trkpt>
<trkpt lat="35.890104840605005" lon="138.74042215064526"><ele>1853</ele><time>2025-05-04T00:36:23Z</time></trkpt>
<trkpt lat="35.89032256703645" lon="138.74038073444197"><ele>1854</ele><time>2025-05-04T00:36:56Z</time></trkpt>
<trkpt lat="35.890470590272045" lon="138.74037870749137"><ele>1856</ele><time>2025-05-04T00:37:49Z</time></trkpt>
<trkpt lat="35.890644357361516" lon="138.74036536990576"><ele>1857</ele><time>2025-05-04T00:39:06Z</time></trkpt>
<trkpt lat="35.89080273503592" lon="138.7403157709531"><ele>1863</ele><time>2025-05-04T00:39:50Z</time></trkpt>
<trkpt lat="35.89094110841046" lon="138.74038675369073"><ele>1865</ele><time>2025-05-04T00:40:29Z</time></trkpt>
<trkpt lat="35.89110982387098" lon="138.740479384089"><ele>1875</ele><time>2025-05-04T00:41:01Z</time></trkpt>
<trkpt lat="35.89131670723195" lon="138.74053985207692"><ele>1882</ele><time>2025-05-04T00:41:46Z</time></trkpt>
<trkpt lat="35.89142957948007" lon="138.740588901924"><ele>1892</ele><time>2025-05-04T00:42:48Z</time></trkpt>
<trkpt lat="35.891585025172056" lon="138.7405186143229"><ele>1902</ele><time>2025-05-04T00:44:05Z</time></trkpt>
<trkpt lat="35.891689520886004" lon="138.74045603150643"><ele>1905</ele><time>2025-05-04T00:52:21Z</time></trkpt>
<trkpt lat="35.89170535504783" lon="138.7405766790691"><ele>1902</ele><time>2025-05-04T00:53:25Z</time></trkpt>
<trkpt lat="35.89183031167932" lon="138.74055475689386"><ele>1909</ele><time>2025-05-04T00:55:19Z</time></trkpt>
<trkpt lat="35.892013129156666" lon="138.74053796761325"><ele>1917</ele><time>2025-05-04T00:55:57Z</time></trkpt>
<trkpt lat="35.8921993227531" lon="138.74054933068842"><ele>1924</ele><time>2025-05-04T00:56:45Z</time></trkpt>
<trkpt lat="35.89233174834643" lon="138.74051824992858"><ele>1931</ele><time>2025-05-04T00:57:28Z</time></trkpt>
<trkpt lat="35.892435063798615" lon="138.74059453314962"><ele>1936</ele><time>2025-05-04T00:58:07Z</time></trkpt>
<trkpt lat="35.89253260922648" lon="138.7406264328322"><ele>1940</ele><time>2025-05-04T00:59:01Z</time></trkpt>
<trkpt lat="35.89267340055735" lon="138.74057981363552"><ele>1947</ele><time>2025-05-04T01:01:06Z</time></trkpt>
<trkpt lat="35.892790390872705" lon="138.74054554528425"><ele>1951</ele><time>2025-05-04T01:02:13Z</time></trkpt>
<trkpt lat="35.89296850674345" lon="138.74054976874314"><ele>1959</ele><time>2025-05-04T01:03:24Z</time></trkpt>
<trkpt lat="35.893160132211904" lon="138.74064467154733"><ele>1963</ele><time>2025-05-04T01:04:13Z</time></trkpt>
<trkpt lat="35.89325558624979" lon="138.7406486361575"><ele>1972</ele><time>2025-05-04T01:05:13Z</time></trkpt>
<trkpt lat="35.89336778773556" lon="138.74075328601592"><ele>1978</ele><time>2025-05-04T01:06:06Z</time></trkpt>
<trkpt lat="35.89353430519474" lon="138.74070107654015"><ele>1984</ele><time>2025-05-04T01:06:58Z</time></trkpt>
<trkpt lat="35.89370951503058" lon="138.7406676029404"><ele>1988</ele><time>2025-05-04T01:08:03Z</time></trkpt>
<trkpt lat="35.89394138151766" lon="138.74070928299102"><ele>1991</ele><time>2025-05-04T01:08:47Z</time></trkpt>
<trkpt lat="35.89415364095931" lon="138.7407595650145"><ele>2002</ele><time>2025-05-04T01:09:23Z</time></trkpt>
<trkpt lat="35.89431165482245" lon="138.74081425795276"><ele>2004</ele><time>2025-05-04T01:09:52Z</time></trkpt>
<trkpt lat="35.89451794390193" lon="138.7408805338128"><ele>2005</ele><time>2025-05-04T01:10:39Z</time></trkpt>
<trkpt lat="35.89462918539995" lon="138.74090800703587"><ele>2012</ele><time>2025-05-04T01:11:31Z</time></trkpt>
<trkpt lat="35.894783224626565" lon="138.74091711273445"><ele>2016</ele><time>2025-05-04T01:12:36Z</time></trkpt>
<trkpt lat="35.894928176377775" lon="138.74093742562658"><ele>2024</ele><time>2025-05-04T01:13:27Z</time></trkpt>
<trkpt lat="35.895070313457964" lon="138.74094452098086"><ele>2030</ele><time>2025-05-04T01:14:23Z</time></trkpt>
<trkpt lat="35.89518339750495" lon="138.74102846159354"><ele>2032</ele><time>2025-05-04T01:15:18Z</time></trkpt>
<trkpt lat="35.89541318000959" lon="138.74113546287447"><ele>2038</ele><time>2025-05-04T01:15:48Z</time></trkpt>
<trkpt lat="35.895571251149036" lon="138.74118268811696"><ele>2040</ele><time>2025-05-04T01:16:41Z</time></trkpt>
<trkpt lat="35.89567682031139" lon="138.74118693050147"><ele>2045</ele><time>2025-05-04T01:17:31Z</time></trkpt>
<trkpt lat="35.89578353185334" lon="138.74132496209555"><ele>2051</ele><time>2025-05-04T01:18:39Z</time></trkpt>
<trkpt lat="35.895911890099505" lon="138.74139527596526"><ele>2059</ele><time>2025-05-04T01:19:47Z</time></trkpt>
<trkpt lat="35.89603847836862" lon="138.74147481102005"><ele>2065</ele><time>2025-05-04T01:21:20Z</time></trkpt>
<trkpt lat="35.89604990419405" lon="138.74160532129042"><ele>2064</ele><time>2025-05-04T01:22:40Z</time></trkpt>
<trkpt lat="35.89620219132576" lon="138.74160158561045"><ele>2074</ele><time>2025-05-04T01:26:23Z</time></trkpt>
<trkpt lat="35.8963669754944" lon="138.74157143066446"><ele>2080</ele><time>2025-05-04T01:27:31Z</time></trkpt>
<trkpt lat="35.896432388082005" lon="138.74166523788077"><ele>2086</ele><time>2025-05-04T01:28:49Z</time></trkpt>
<trkpt lat="35.89657990570356" lon="138.74172927891672"><ele>2093</ele><time>2025-05-04T01:31:07Z</time></trkpt>
<trkpt lat="35.89671842926077" lon="138.74171895787507"><ele>2097</ele><time>2025-05-04T01:32:07Z</time></trkpt>
<trkpt lat="35.89681563613391" lon="138.74180702140495"><ele>2100</ele><time>2025-05-04T01:32:46Z</time></trkpt>
<trkpt lat="35.89702638406333" lon="138.74175830834685"><ele>2108</ele><time>2025-05-04T01:33:47Z</time></trkpt>
<trkpt lat="35.89714367868914" lon="138.74165723395691"><ele>2109</ele><time>2025-05-04T01:34:24Z</time></trkpt>
<trkpt lat="35.897282769252215" lon="138.74153802906204"><ele>2113</ele><time>2025-05-04T01:35:15Z</time></trkpt>
<trkpt lat="35.897449914244525" lon="138.74138478294708"><ele>2116</ele><time>2025-05-04T01:36:04Z</time></trkpt>
<trkpt lat="35.89760097476809" lon="138.74142744337064"><ele>2123</ele><time>2025-05-04T01:36:51Z</time></trkpt>
<trkpt lat="35.89774663309188" lon="138.74130057005652"><ele>2129</ele><time>2025-05-04T01:37:42Z</time></trkpt>
<trkpt lat="35.89787835813077" lon="138.74123754984208"><ele>2136</ele><time>2025-05-04T01:39:21Z</time></trkpt>
<trkpt lat="35.89797812335177" lon="138.74126339417086"><ele>2141</ele><time>2025-05-04T01:41:08Z</time></trkpt>
<trkpt lat="35.89809391668942" lon="138.74130241076944"><ele>2153</ele><time>2025-05-04T01:42:24Z</time></trkpt>
<trkpt lat="35.89818692374092" lon="138.74122951172345"><ele>2160</ele><time>2025-05-04T01:43:34Z</time></trkpt>
<trkpt lat="35.89831637609201" lon="138.74126943626555"><ele>2168</ele><time>2025-05-04T01:45:18Z</time></trkpt>
<trkpt lat="35.898453272218795" lon="138.74123595649726"><ele>2175</ele><time>2025-05-04T01:46:34Z</time></trkpt>
<trkpt lat="35.89856727444515" lon="138.74128182380827"><ele>2182</ele><time>2025-05-04T01:47:45Z</time></trkpt>
<trkpt lat="35.89870163295124" lon="138.74121162870222"><ele>2186</ele><time>2025-05-04T01:49:18Z</time></trkpt>
<trkpt lat="35.89879673280229" lon="138.74120873736237"><ele>2190</ele><time>2025-05-04T01:50:42Z</time></trkpt>
<trkpt lat="35.89888571432307" lon="138.74115373251755"><ele>2196</ele><time>2025-05-04T01:51:59Z</time></trkpt>
<trkpt lat="35.89897715297816" lon="138.74108642985811"><ele>2204</ele><time>2025-05-04T01:52:43Z</time></trkpt>
<trkpt lat="35.899066704653855" lon="138.74107456064073"><ele>2214</ele><time>2025-05-04T01:55:23Z</time></trkpt>
<trkpt lat="35.89901333232732" lon="138.74118448206548"><ele>2217</ele><time>2025-05-04T02:08:21Z</time></trkpt>
<trkpt lat="35.899051733315424" lon="138.74104845670155"><ele>2209</ele><time>2025-05-04T02:09:32Z</time></trkpt>
<trkpt lat="35.89923832872707" lon="138.7410639410372"><ele>2217</ele><time>2025-05-04T02:10:42Z</time></trkpt>
<trkpt lat="35.899356371303185" lon="138.74109082793098"><ele>2223</ele><time>2025-05-04T02:11:47Z</time></trkpt>
<trkpt lat="35.89947438155525" lon="138.74106427816864"><ele>2231</ele><time>2025-05-04T02:13:02Z</time></trkpt>
<trkpt lat="35.8996215921577" lon="138.7410715682734"><ele>2233</ele><time>2025-05-04T02:13:46Z</time></trkpt>
<trkpt lat="35.89975180083517" lon="138.74112618032552"><ele>2239</ele><time>2025-05-04T02:14:42Z</time></trkpt>
<trkpt lat="35.899894748459204" lon="138.74100826327745"><ele>2243</ele><time>2025-05-04T02:15:28Z</time></trkpt>
<trkpt lat="35.900012643954014" lon="138.74087071462841"><ele>2247</ele><time>2025-05-04T02:16:09Z</time></trkpt>
<trkpt lat="35.90013928106365" lon="138.7407489616226"><ele>2251</ele><time>2025-05-04T02:17:21Z</time></trkpt>
<trkpt lat="35.900266455122676" lon="138.74065662003468"><ele>2257</ele><time>2025-05-04T02:18:07Z</time></trkpt>
<trkpt lat="35.90036496108434" lon="138.74055353776214"><ele>2260</ele><time>2025-05-04T02:18:55Z</time></trkpt>
<trkpt lat="35.900472400231195" lon="138.74044194040764"><ele>2268</ele><time>2025-05-04T02:19:46Z</time></trkpt>
<trkpt lat="35.90056645387514" lon="138.74032362514836"><ele>2270</ele><time>2025-05-04T02:20:46Z</time></trkpt>
<trkpt lat="35.900661335310815" lon="138.74019283326575"><ele>2275</ele><time>2025-05-04T02:22:04Z</time></trkpt>
<trkpt lat="35.900779743064334" lon="138.74009029659635"><ele>2282</ele><time>2025-05-04T02:23:25Z</time></trkpt>
<trkpt lat="35.90091098279936" lon="138.73998173711223"><ele>2288</ele><time>2025-05-04T02:25:18Z</time></trkpt>
<trkpt lat="35.90102174223659" lon="138.7398577905592"><ele>2299</ele><time>2025-05-04T02:26:44Z</time></trkpt>
<trkpt lat="35.90110094007615" lon="138.7397494993654"><ele>2302</ele><time>2025-05-04T02:27:41Z</time></trkpt>
<trkpt lat="35.90122344285476" lon="138.739685522962"><ele>2305</ele><time>2025-05-04T02:29:10Z</time></trkpt>
<trkpt lat="35.90119465214154" lon="138.7395550643163"><ele>2321</ele><time>2025-05-04T02:31:18Z</time></trkpt>
<trkpt lat="35.901243735260564" lon="138.73938613898883"><ele>2326</ele><time>2025-05-04T02:32:17Z</time></trkpt>
<trkpt lat="35.90133719991708" lon="138.73929612156232"><ele>2333</ele><time>2025-05-04T02:33:22Z</time></trkpt>
<trkpt lat="35.90147909377045" lon="138.73922116027967"><ele>2335</ele><time>2025-05-04T02:34:24Z</time></trkpt>
<trkpt lat="35.901554408082696" lon="138.73913477393663"><ele>2338</ele><time>2025-05-04T02:36:14Z</time></trkpt>
<trkpt lat="35.90161245039234" lon="138.73893636654677"><ele>2343</ele><time>2025-05-04T02:37:09Z</time></trkpt>
<trkpt lat="35.901614673631535" lon="138.73881944053474"><ele>2354</ele><time>2025-05-04T02:38:48Z</time></trkpt>
<trkpt lat="35.90171256154791" lon="138.73867050749402"><ele>2360</ele><time>2025-05-04T02:40:15Z</time></trkpt>
<trkpt lat="35.90178086318815" lon="138.7385500734636"><ele>2365</ele><time>2025-05-04T02:41:00Z</time></trkpt>
<trkpt lat="35.90193266486057" lon="138.73836969824217"><ele>2367</ele><time>2025-05-04T02:59:44Z</time></trkpt>
<trkpt lat="35.902056130531456" lon="138.73824412557875"><ele>2368</ele><time>2025-05-04T03:00:24Z</time></trkpt>
<trkpt lat="35.902213103271166" lon="138.73807052843932"><ele>2374</ele><time>2025-05-04T03:00:52Z</time></trkpt>
<trkpt lat="35.90228256452603" lon="138.73786097046008"><ele>2384</ele><time>2025-05-04T03:01:58Z</time></trkpt>
<trkpt lat="35.90238142427775" lon="138.73784488470088"><ele>2385</ele><time>2025-05-04T03:02:54Z</time></trkpt>
<trkpt lat="35.90253257425379" lon="138.7377705211933"><ele>2393</ele><time>2025-05-04T03:04:52Z</time></trkpt>
<trkpt lat="35.90266869909319" lon="138.73773014152775"><ele>2401</ele><time>2025-05-04T03:06:12Z</time></trkpt>
<trkpt lat="35.902775288986184" lon="138.73770620992318"><ele>2405</ele><time>2025-05-04T03:06:56Z</time></trkpt>
<trkpt lat="35.902849359804975" lon="138.73761342293483"><ele>2410</ele><time>2025-05-04T03:08:36Z</time></trkpt>
<trkpt lat="35.902936311291725" lon="138.73752878694273"><ele>2414</ele><time>2025-05-04T03:09:57Z</time></trkpt>
<trkpt lat="35.903093713846644" lon="138.73750839513193"><ele>2421</ele><time>2025-05-04T03:11:18Z</time></trkpt>
<trkpt lat="35.90324234961791" lon="138.73747487331204"><ele>2424</ele><time>2025-05-04T03:12:04Z</time></trkpt>
<trkpt lat="35.90334165580943" lon="138.73727733073682"><ele>2427</ele><time>2025-05-04T03:12:39Z</time></trkpt>
<trkpt lat="35.90355795444371" lon="138.7371647457958"><ele>2437</ele><time>2025-05-04T03:13:53Z</time></trkpt>
<trkpt lat="35.903631548467125" lon="138.73698405029683"><ele>2440</ele><time>2025-05-04T03:14:44Z</time></trkpt>
<trkpt lat="35.90374492805935" lon="138.73685224523098"><ele>2445</ele><time>2025-05-04T03:15:25Z</time></trkpt>
<trkpt lat="35.90389114759181" lon="138.73674144428446"><ele>2449</ele><time>2025-05-04T03:16:12Z</time></trkpt>
<trkpt lat="35.90403882861145" lon="138.736598966732"><ele>2448</ele><time>2025-05-04T03:16:46Z</time></trkpt>
<trkpt lat="35.90415749870202" lon="138.73665341857435"><ele>2447</ele><time>2025-05-04T03:17:40Z</time></trkpt>
<trkpt lat="35.90428683187987" lon="138.73649411091213"><ele>2446</ele><time>2025-05-04T03:18:15Z</time></trkpt>
<trkpt lat="35.9042385449721" lon="138.73635593479557"><ele>2448</ele><time>2025-05-04T03:18:48Z</time></trkpt>
<trkpt lat="35.90414551301911" lon="138.73619700130305"><ele>2453</ele><time>2025-05-04T03:22:33Z</time></trkpt>
<trkpt lat="35.90411241014757" lon="138.73596871890248"><ele>2454</ele><time>2025-05-04T03:23:16Z</time></trkpt>
<trkpt lat="35.90405199448188" lon="138.7357264717314"><ele>2455</ele><time>2025-05-04T03:23:56Z</time></trkpt>
<trkpt lat="35.90397977121997" lon="138.73544996938756"><ele>2456</ele><time>2025-05-04T03:24:34Z</time></trkpt>
<trkpt lat="35.9039233898773" lon="138.7351710260035"><ele>2461</ele><time>2025-05-04T03:25:13Z</time></trkpt>
<trkpt lat="35.90386796761505" lon="138.73499108582655"><ele>2465</ele><time>2025-05-04T03:25:56Z</time></trkpt>
<trkpt lat="35.90380287921855" lon="138.73475636766216"><ele>2468</ele><time>2025-05-04T03:26:52Z</time></trkpt>
<trkpt lat="35.903767457826966" lon="138.73446407253053"><ele>2468</ele><time>2025-05-04T03:27:27Z</time></trkpt>
<trkpt lat="35.90390541057601" lon="138.7342734901659"><ele>2469</ele><time>2025-05-04T03:27:58Z</time></trkpt>
<trkpt lat="35.90399328508067" lon="138.73405377011767"><ele>2467</ele><time>2025-05-04T03:28:34Z</time></trkpt>
<trkpt lat="35.90406904355377" lon="138.73391474780428"><ele>2469</ele><time>2025-05-04T03:29:03Z</time></trkpt>
<trkpt lat="35.90419047787643" lon="138.73395217022755"><ele>2468</ele><time>2025-05-04T03:33:34Z</time></trkpt>
<trkpt lat="35.90408718164425" lon="138.7339683357321"><ele>2467</ele><time>2025-05-04T03:34:35Z</time></trkpt>
<trkpt lat="35.90409984493713" lon="138.7338183027992"><ele>2466</ele><time>2025-05-04T03:54:14Z</time></trkpt>
<trkpt lat="35.90413996546869" lon="138.733617192619"><ele>2461</ele><time>2025-05-04T03:54:50Z</time></trkpt>
<trkpt lat="35.90424365612899" lon="138.73346156525042"><ele>2455</ele><time>2025-05-04T03:56:19Z</time></trkpt>
<trkpt lat="35.90435026566429" lon="138.73332176405899"><ele>2447</ele><time>2025-05-04T03:57:43Z</time></trkpt>
<trkpt lat="35.90441432577667" lon="138.73318113705818"><ele>2441</ele><time>2025-05-04T03:58:36Z</time></trkpt>
<trkpt lat="35.9045377627442" lon="138.73306592292886"><ele>2432</ele><time>2025-05-04T03:59:39Z</time></trkpt>
<trkpt lat="35.90464882341649" lon="138.7329715487332"><ele>2426</ele><time>2025-05-04T04:01:32Z</time></trkpt>
<trkpt lat="35.90470059144858" lon="138.73277558861628"><ele>2420</ele><time>2025-05-04T04:02:26Z</time></trkpt>
<trkpt lat="35.904855599637315" lon="138.73266843169813"><ele>2411</ele><time>2025-05-04T04:03:15Z</time></trkpt>
<trkpt lat="35.904998291498664" lon="138.73250676375537"><ele>2402</ele><time>2025-05-04T04:03:53Z</time></trkpt>
<trkpt lat="35.905150016385946" lon="138.73238539397306"><ele>2397</ele><time>2025-05-04T04:04:26Z</time></trkpt>
<trkpt lat="35.90540037343129" lon="138.73222402779066"><ele>2393</ele><time>2025-05-04T04:04:56Z</time></trkpt>
<trkpt lat="35.905617964679294" lon="138.73205214870404"><ele>2391</ele><time>2025-05-04T04:05:30Z</time></trkpt>
<trkpt lat="35.905837921594646" lon="138.73197370278905"><ele>2391</ele><time>2025-05-04T04:06:02Z</time></trkpt>
<trkpt lat="35.905943359397924" lon="138.7319066630247"><ele>2392</ele><time>2025-05-04T04:07:12Z</time></trkpt>
<trkpt lat="35.90607700944585" lon="138.7317892285418"><ele>2392</ele><time>2025-05-04T04:07:52Z</time></trkpt>
<trkpt lat="35.90624210926094" lon="138.73163667219822"><ele>2393</ele><time>2025-05-04T04:08:33Z</time></trkpt>
<trkpt lat="35.906398233973796" lon="138.73146827225952"><ele>2390</ele><time>2025-05-04T04:09:14Z</time></trkpt>
<trkpt lat="35.906463192328026" lon="138.73132078336417"><ele>2382</ele><time>2025-05-04T04:10:34Z</time></trkpt>
<trkpt lat="35.906557157034335" lon="138.73119477171102"><ele>2381</ele><time>2025-05-04T04:11:08Z</time></trkpt>
<trkpt lat="35.90670265009412" lon="138.73098492004158"><ele>2377</ele><time>2025-05-04T04:11:52Z</time></trkpt>
<trkpt lat="35.90684459260168" lon="138.73087071718095"><ele>2370</ele><time>2025-05-04T04:13:00Z</time></trkpt>
<trkpt lat="35.90698866951372" lon="138.73078466632123"><ele>2363</ele><time>2025-05-04T04:13:35Z</time></trkpt>
<trkpt lat="35.907158651568686" lon="138.73087168751613"><ele>2364</ele><time>2025-05-04T04:14:06Z</time></trkpt>
<trkpt lat="35.90702552452248" lon="138.7309264468525"><ele>2366</ele><time>2025-05-04T04:16:20Z</time></trkpt>
<trkpt lat="35.907140575456424" lon="138.7308504964712"><ele>2366</ele><time>2025-05-04T04:17:19Z</time></trkpt>
<trkpt lat="35.907119617391935" lon="138.7309811691615"><ele>2363</ele><time>2025-05-04T04:23:46Z</time></trkpt>
<trkpt lat="35.90724468766883" lon="138.73099098946273"><ele>2361</ele><time>2025-05-04T04:24:39Z</time></trkpt>
<trkpt lat="35.90737701355994" lon="138.73100502277777"><ele>2361</ele><time>2025-05-04T04:25:35Z</time></trkpt>
<trkpt lat="35.9073882428489" lon="138.7311197706087"><ele>2357</ele><time>2025-05-04T04:27:16Z</time></trkpt>
<trkpt lat="35.907399870102466" lon="138.73095336366742"><ele>2363</ele><time>2025-05-04T04:36:36Z</time></trkpt>
<trkpt lat="35.90736620389497" lon="138.73110106148357"><ele>2363</ele><time>2025-05-04T04:38:17Z</time></trkpt>
<trkpt lat="35.90741936798123" lon="138.7312083872546"><ele>2359</ele><time>2025-05-04T04:46:26Z</time></trkpt>
<trkpt lat="35.907314066435305" lon="138.73107837145128"><ele>2362</ele><time>2025-05-04T04:47:15Z</time></trkpt>
<trkpt lat="35.90742053168398" lon="138.73110109425608"><ele>2357</ele><time>2025-05-04T04:58:46Z</time></trkpt>
<trkpt lat="35.907299331305204" lon="138.73111896283268"><ele>2362</ele><time>2025-05-04T05:01:25Z</time></trkpt>
<trkpt lat="35.90738230697638" lon="138.73118530019133"><ele>2360</ele><time>2025-05-04T05:02:04Z</time></trkpt>
<trkpt lat="35.907308473951616" lon="138.73104695612926"><ele>2361</ele><time>2025-05-04T05:08:13Z</time></trkpt>
<trkpt lat="35.90734964084846" lon="138.73114572083958"><ele>2362</ele><time>2025-05-04T05:10:24Z</time></trkpt>
<trkpt lat="35.907394812568505" lon="138.73100026638076"><ele>2363</ele><time>2025-05-04T05:22:07Z</time></trkpt>
<trkpt lat="35.90723702923052" lon="138.73096488571045"><ele>2363</ele><time>2025-05-04T05:22:35Z</time></trkpt>
<trkpt lat="35.90704857415525" lon="138.73096131951826"><ele>2366</ele><time>2025-05-04T05:23:13Z</time></trkpt>
<trkpt lat="35.907003619185446" lon="138.73081945155116"><ele>2366</ele><time>2025-05-04T05:23:48Z</time></trkpt>
<trkpt lat="35.90704765845895" lon="138.73059884541416"><ele>2366</ele><time>2025-05-04T05:24:21Z</time></trkpt>
<trkpt lat="35.907170189922645" lon="138.73042434627902"><ele>2372</ele><time>2025-05-04T05:25:07Z</time></trkpt>
<trkpt lat="35.907307830946664" lon="138.73029021094703"><ele>2377</ele><time>2025-05-04T05:25:56Z</time></trkpt>
<trkpt lat="35.90748636141462" lon="138.73031222453181"><ele>2385</ele><time>2025-05-04T05:27:06Z</time></trkpt>
<trkpt lat="35.90765185264146" lon="138.73020762738693"><ele>2394</ele><time>2025-05-04T05:27:42Z</time></trkpt>
<trkpt lat="35.907756817468446" lon="138.73010222098807"><ele>2398</ele><time>2025-05-04T05:28:49Z</time></trkpt>
<trkpt lat="35.90784629239188" lon="138.7299734891343"><ele>2404</ele><time>2025-05-04T05:30:06Z</time></trkpt>
<trkpt lat="35.90794293463079" lon="138.72988923577768"><ele>2413</ele><time>2025-05-04T05:31:18Z</time></trkpt>
<trkpt lat="35.90796878672806" lon="138.72970415831028"><ele>2420</ele><time>2025-05-04T05:32:14Z</time></trkpt>
<trkpt lat="35.908071389853426" lon="138.72960592384004"><ele>2433</ele><time>2025-05-04T05:33:29Z</time></trkpt>
<trkpt lat="35.90818087134295" lon="138.72956401167568"><ele>2437</ele><time>2025-05-04T05:34:46Z</time></trkpt>
<trkpt lat="35.90832966309148" lon="138.72964785538488"><ele>2442</ele><time>2025-05-04T05:35:33Z</time></trkpt>
<trkpt lat="35.90849993928904" lon="138.7296283267052"><ele>2448</ele><time>2025-05-04T05:36:20Z</time></trkpt>
<trkpt lat="35.908657378121084" lon="138.72956932874317"><ele>2460</ele><time>2025-05-04T05:37:08Z</time></trkpt>
<trkpt lat="35.90853450890178" lon="138.72944766724834"><ele>2458</ele><time>2025-05-04T05:37:43Z</time></trkpt>
<trkpt lat="35.908430000368405" lon="138.729306823897"><ele>2458</ele><time>2025-05-04T05:38:29Z</time></trkpt>
<trkpt lat="35.90850197393187" lon="138.72923935040464"><ele>2460</ele><time>2025-05-04T05:41:24Z</time></trkpt>
<trkpt lat="35.90864565876499" lon="138.72925747655125"><ele>2465</ele><time>2025-05-04T05:42:31Z</time></trkpt>
<trkpt lat="35.908834017247834" lon="138.7291668212519"><ele>2468</ele><time>2025-05-04T05:43:13Z</time></trkpt>
<trkpt lat="35.909032303541885" lon="138.72900176392338"><ele>2469</ele><time>2025-05-04T05:43:40Z</time></trkpt>
<trkpt lat="35.90915743508275" lon="138.7289294031172"><ele>2471</ele><time>2025-05-04T05:44:16Z</time></trkpt>
<trkpt lat="35.909253646850566" lon="138.72877220883296"><ele>2472</ele><time>2025-05-04T05:45:12Z</time></trkpt>
<trkpt lat="35.90919321756192" lon="138.7288672103124"><ele>2469</ele><time>2025-05-04T06:06:27Z</time></trkpt>
<trkpt lat="35.909019256301754" lon="138.72902799064514"><ele>2474</ele><time>2025-05-04T06:09:10Z</time></trkpt>
<trkpt lat="35.908740704512475" lon="138.7291996588744"><ele>2473</ele><time>2025-05-04T06:09:40Z</time></trkpt>
<trkpt lat="35.90861481879109" lon="138.72925225097183"><ele>2463</ele><time>2025-05-04T06:17:43Z</time></trkpt>
<trkpt lat="35.908455175568804" lon="138.729242921942"><ele>2458</ele><time>2025-05-04T06:19:34Z</time></trkpt>
<trkpt lat="35.908518886789935" lon="138.72942528021397"><ele>2458</ele><time>2025-05-04T06:20:41Z</time></trkpt>
<trkpt lat="35.908620194629094" lon="138.72956460225012"><ele>2457</ele><time>2025-05-04T06:21:34Z</time></trkpt>
<trkpt lat="35.908472156302324" lon="138.7296167280241"><ele>2448</ele><time>2025-05-04T06:22:23Z</time></trkpt>
<trkpt lat="35.90826213148783" lon="138.7295777126314"><ele>2441</ele><time>2025-05-04T06:24:01Z</time></trkpt>
<trkpt lat="35.90811602303122" lon="138.7295906496363"><ele>2432</ele><time>2025-05-04T06:24:48Z</time></trkpt>
<trkpt lat="35.908044088357016" lon="138.729840534202"><ele>2430</ele><time>2025-05-04T06:25:51Z</time></trkpt>
<trkpt lat="35.90793063017238" lon="138.72986372984192"><ele>2420</ele><time>2025-05-04T06:27:27Z</time></trkpt>
<trkpt lat="35.90780211535469" lon="138.7299118332376"><ele>2421</ele><time>2025-05-04T06:27:56Z</time></trkpt>
<trkpt lat="35.90783328990986" lon="138.7301161163012"><ele>2407</ele><time>2025-05-04T06:28:42Z</time></trkpt>
<trkpt lat="35.90768250637689" lon="138.73016379383935"><ele>2399</ele><time>2025-05-04T06:29:25Z</time></trkpt>
<trkpt lat="35.90760605025819" lon="138.73030570194783"><ele>2391</ele><time>2025-05-04T06:30:09Z</time></trkpt>
<trkpt lat="35.90737363595578" lon="138.7303327366445"><ele>2386</ele><time>2025-05-04T06:30:42Z</time></trkpt>
<trkpt lat="35.907260004054216" lon="138.73040579081135"><ele>2382</ele><time>2025-05-04T06:31:09Z</time></trkpt>
<trkpt lat="35.90708172252999" lon="138.7305802472416"><ele>2372</ele><time>2025-05-04T06:31:50Z</time></trkpt>
<trkpt lat="35.90702063863153" lon="138.73080902031515"><ele>2364</ele><time>2025-05-04T06:32:18Z</time></trkpt>
<trkpt lat="35.90708690124852" lon="138.73094944721186"><ele>2367</ele><time>2025-05-04T06:33:18Z</time></trkpt>
<trkpt lat="35.907219581096456" lon="138.73086332739584"><ele>2365</ele><time>2025-05-04T06:34:09Z</time></trkpt>
<trkpt lat="35.907049128644424" lon="138.73085801463074"><ele>2357</ele><time>2025-05-04T06:37:25Z</time></trkpt>
<trkpt lat="35.90717653495797" lon="138.73100865669576"><ele>2365</ele><time>2025-05-04T06:38:08Z</time></trkpt>
<trkpt lat="35.907277736701865" lon="138.73101623717147"><ele>2363</ele><time>2025-05-04T06:39:22Z</time></trkpt>
<trkpt lat="35.90744354471414" lon="138.73104615882406"><ele>2363</ele><time>2025-05-04T06:40:17Z</time></trkpt>
<trkpt lat="35.907327457991975" lon="138.7310901480768"><ele>2361</ele><time>2025-05-04T06:40:53Z</time></trkpt>
</trkseg>
</trk>
<trk><name>track</name><number>2</number><trkseg>
<trkpt lat="35.90669516011704" lon="138.73149345641838"><ele>2372</ele><time>2025-05-04T23:42:04Z</time></trkpt>
<trkpt lat="35.9065591258995" lon="138.73172468944378"><ele>2386</ele><time>2025-05-04T23:42:48Z</time></trkpt>
<trkpt lat="35.906434236350755" lon="138.7318611988927"><ele>2388</ele><time>2025-05-04T23:43:25Z</time></trkpt>
<trkpt lat="35.90626713584841" lon="138.73198686799748"><ele>2391</ele><time>2025-05-04T23:44:34Z</time></trkpt>
<trkpt lat="35.906122907112795" lon="138.73219958297784"><ele>2388</ele><time>2025-05-04T23:45:23Z</time></trkpt>
<trkpt lat="35.90600690363047" lon="138.73226517773216"><ele>2389</ele><time>2025-05-04T23:46:03Z</time></trkpt>
<trkpt lat="35.90578607450499" lon="138.7324538118825"><ele>2391</ele><time>2025-05-04T23:46:39Z</time></trkpt>
<trkpt lat="35.90560273991523" lon="138.73271931166903"><ele>2391</ele><time>2025-05-04T23:47:18Z</time></trkpt>
<trkpt lat="35.90553061199941" lon="138.7329336050849"><ele>2389</ele><time>2025-05-04T23:47:51Z</time></trkpt>
<trkpt lat="35.9055054530722" lon="138.73309959630927"><ele>2384</ele><time>2025-05-04T23:48:26Z</time></trkpt>
<trkpt lat="35.90542811278892" lon="138.73335807396975"><ele>2389</ele><time>2025-05-04T23:49:02Z</time></trkpt>
<trkpt lat="35.90550798097546" lon="138.73352938148037"><ele>2389</ele><time>2025-05-04T23:49:34Z</time></trkpt>
<trkpt lat="35.90558723074295" lon="138.73373544102563"><ele>2385</ele><time>2025-05-04T23:50:16Z</time></trkpt>
<trkpt lat="35.90555940026172" lon="138.73348426257058"><ele>2385</ele><time>2025-05-04T23:51:04Z</time></trkpt>
<trkpt lat="35.90557167846492" lon="138.73359567076855"><ele>2384</ele><time>2025-05-04T23:51:39Z</time></trkpt>
<trkpt lat="35.905583453989635" lon="138.73376983019034"><ele>2388</ele><time>2025-05-04T23:52:25Z</time></trkpt>
<trkpt lat="35.90555776706862" lon="138.73391832119046"><ele>2382</ele><time>2025-05-04T23:53:16Z</time></trkpt>
<trkpt lat="35.90555927359909" lon="138.73411705831077"><ele>2388</ele><time>2025-05-04T23:54:08Z</time></trkpt>
<trkpt lat="35.90552983695302" lon="138.7343354278437"><ele>2394</ele><time>2025-05-04T23:54:46Z</time></trkpt>
<trkpt lat="35.905535718751544" lon="138.7344870086045"><ele>2389</ele><time>2025-05-04T23:55:47Z</time></trkpt>
<trkpt lat="35.90546832636014" lon="138.73463933779556"><ele>2397</ele><time>2025-05-04T23:56:14Z</time></trkpt>
<trkpt lat="35.90541971824677" lon="138.73487162750544"><ele>2400</ele><time>2025-05-04T23:56:54Z</time></trkpt>
<trkpt lat="35.90527758282722" lon="138.73501750695442"><ele>2406</ele><time>2025-05-04T23:57:33Z</time></trkpt>
<trkpt lat="35.90512569055343" lon="138.73528790185918"><ele>2408</ele><time>2025-05-04T23:58:38Z</time></trkpt>
<trkpt lat="35.90507104608853" lon="138.7355853838114"><ele>2410</ele><time>2025-05-04T23:59:10Z</time></trkpt>
<trkpt lat="35.905001445742926" lon="138.73581591159373"><ele>2409</ele><time>2025-05-04T23:59:55Z</time></trkpt>
<trkpt lat="35.90505706640545" lon="138.73603792001313"><ele>2410</ele><time>2025-05-05T00:00:28Z</time></trkpt>
<trkpt lat="35.905120336677555" lon="138.736240662383"><ele>2407</ele><time>2025-05-05T00:01:03Z</time></trkpt>
<trkpt lat="35.905117551840085" lon="138.73638750354252"><ele>2407</ele><time>2025-05-05T00:01:42Z</time></trkpt>
<trkpt lat="35.90511508165775" lon="138.73662391571867"><ele>2409</ele><time>2025-05-05T00:02:49Z</time></trkpt>
<trkpt lat="35.90519874933979" lon="138.7368742780037"><ele>2410</ele><time>2025-05-05T00:03:55Z</time></trkpt>
<trkpt lat="35.905195483939536" lon="138.7370854874187"><ele>2408</ele><time>2025-05-05T00:04:35Z</time></trkpt>
<trkpt lat="35.905005654243155" lon="138.73701073882515"><ele>2413</ele><time>2025-05-05T00:05:29Z</time></trkpt>
<trkpt lat="35.90485621659572" lon="138.73695424710746"><ele>2421</ele><time>2025-05-05T00:06:31Z</time></trkpt>
<trkpt lat="35.904697570913235" lon="138.73683594114956"><ele>2429</ele><time>2025-05-05T00:13:34Z</time></trkpt>
<trkpt lat="35.904533783399444" lon="138.7367555953631"><ele>2432</ele><time>2025-05-05T00:14:13Z</time></trkpt>
<trkpt lat="35.904497079476606" lon="138.73657256152256"><ele>2438</ele><time>2025-05-05T00:15:02Z</time></trkpt>
<trkpt lat="35.904289729217886" lon="138.73647628188104"><ele>2445</ele><time>2025-05-05T00:15:57Z</time></trkpt>
<trkpt lat="35.90418678729379" lon="138.73667746856634"><ele>2447</ele><time>2025-05-05T00:17:29Z</time></trkpt>
<trkpt lat="35.9040598304013" lon="138.73659632846162"><ele>2441</ele><time>2025-05-05T00:17:55Z</time></trkpt>
<trkpt lat="35.903910840739364" lon="138.7367126168696"><ele>2447</ele><time>2025-05-05T00:18:40Z</time></trkpt>
<trkpt lat="35.90374410358088" lon="138.73689345022996"><ele>2442</ele><time>2025-05-05T00:19:30Z</time></trkpt>
<trkpt lat="35.90362944818203" lon="138.7370864717701"><ele>2437</ele><time>2025-05-05T00:20:12Z</time></trkpt>
<trkpt lat="35.903495667825894" lon="138.73719591361782"><ele>2434</ele><time>2025-05-05T00:20:54Z</time></trkpt>
<trkpt lat="35.90334147724648" lon="138.73728845131245"><ele>2426</ele><time>2025-05-05T00:21:38Z</time></trkpt>
<trkpt lat="35.903242861324856" lon="138.73747157537073"><ele>2426</ele><time>2025-05-05T00:22:16Z</time></trkpt>
<trkpt lat="35.903087870691714" lon="138.73749806764553"><ele>2420</ele><time>2025-05-05T00:23:14Z</time></trkpt>
<trkpt lat="35.90292805840863" lon="138.73751576372885"><ele>2414</ele><time>2025-05-05T00:24:16Z</time></trkpt>
<trkpt lat="35.90283919420238" lon="138.7375868686568"><ele>2408</ele><time>2025-05-05T00:25:50Z</time></trkpt>
<trkpt lat="35.90278438938422" lon="138.7377198943524"><ele>2405</ele><time>2025-05-05T00:27:50Z</time></trkpt>
<trkpt lat="35.90260300171588" lon="138.73774633592723"><ele>2399</ele><time>2025-05-05T00:28:32Z</time></trkpt>
<trkpt lat="35.90240949104972" lon="138.73774436612962"><ele>2389</ele><time>2025-05-05T00:29:34Z</time></trkpt>
<trkpt lat="35.902317729665356" lon="138.7379161551162"><ele>2384</ele><time>2025-05-05T00:30:38Z</time></trkpt>
<trkpt lat="35.90220370854171" lon="138.73806676285477"><ele>2378</ele><time>2025-05-05T00:31:29Z</time></trkpt>
<trkpt lat="35.90202020729671" lon="138.7382620084749"><ele>2373</ele><time>2025-05-05T00:32:05Z</time></trkpt>
<trkpt lat="35.90190076516229" lon="138.73842989561837"><ele>2366</ele><time>2025-05-05T00:32:27Z</time></trkpt>
<trkpt lat="35.90182275578333" lon="138.73852356124746"><ele>2367</ele><time>2025-05-05T00:33:06Z</time></trkpt>
<trkpt lat="35.901763517794784" lon="138.73862183864003"><ele>2355</ele><time>2025-05-05T00:55:23Z</time></trkpt>
<trkpt lat="35.90184523137644" lon="138.7385381935186"><ele>2360</ele><time>2025-05-05T00:56:46Z</time></trkpt>
<trkpt lat="35.901697578755794" lon="138.73868189377467"><ele>2359</ele><time>2025-05-05T01:11:37Z</time></trkpt>
<trkpt lat="35.90162717757713" lon="138.73886620255232"><ele>2352</ele><time>2025-05-05T01:12:11Z</time></trkpt>
<trkpt lat="35.901559128503756" lon="138.739058753627"><ele>2348</ele><time>2025-05-05T01:12:51Z</time></trkpt>
<trkpt lat="35.90149781209878" lon="138.73927098835307"><ele>2349</ele><time>2025-05-05T01:13:24Z</time></trkpt>
<trkpt lat="35.90135033476334" lon="138.7393123169248"><ele>2334</ele><time>2025-05-05T01:14:06Z</time></trkpt>
<trkpt lat="35.90123575934749" lon="138.73950593800032"><ele>2327</ele><time>2025-05-05T01:14:55Z</time></trkpt>
<trkpt lat="35.901151990285214" lon="138.73959412616927"><ele>2318</ele><time>2025-05-05T01:15:59Z</time></trkpt>
<trkpt lat="35.90109646693444" lon="138.73976844865163"><ele>2302</ele><time>2025-05-05T01:16:55Z</time></trkpt>
<trkpt lat="35.90100455415383" lon="138.73990648268781"><ele>2293</ele><time>2025-05-05T01:17:42Z</time></trkpt>
<trkpt lat="35.90086942735333" lon="138.74005617955356"><ele>2286</ele><time>2025-05-05T01:18:35Z</time></trkpt>
<trkpt lat="35.90074318946243" lon="138.7402270385216"><ele>2282</ele><time>2025-05-05T01:19:06Z</time></trkpt>
<trkpt lat="35.90064181972628" lon="138.7403271695743"><ele>2275</ele><time>2025-05-05T01:20:08Z</time></trkpt>
<trkpt lat="35.900576694737666" lon="138.74047186137275"><ele>2269</ele><time>2025-05-05T01:20:59Z</time></trkpt>
<trkpt lat="35.90041275219615" lon="138.7405532062099"><ele>2262</ele><time>2025-05-05T01:21:40Z</time></trkpt>
<trkpt lat="35.90025186209026" lon="138.74073788789687"><ele>2254</ele><time>2025-05-05T01:22:27Z</time></trkpt>
<trkpt lat="35.90009653182786" lon="138.74090541367812"><ele>2250</ele><time>2025-05-05T01:22:58Z</time></trkpt>
<trkpt lat="35.89991609390254" lon="138.7410345327906"><ele>2242</ele><time>2025-05-05T01:23:35Z</time></trkpt>
<trkpt lat="35.89972195467444" lon="138.74118570282604"><ele>2241</ele><time>2025-05-05T01:24:12Z</time></trkpt>
<trkpt lat="35.89957449995583" lon="138.7411717973553"><ele>2236</ele><time>2025-05-05T01:24:47Z</time></trkpt>
<trkpt lat="35.89942790696667" lon="138.74107591204435"><ele>2237</ele><time>2025-05-05T01:25:15Z</time></trkpt>
<trkpt lat="35.89923967711272" lon="138.74111340148906"><ele>2227</ele><time>2025-05-05T01:26:10Z</time></trkpt>
<trkpt lat="35.899054292368085" lon="138.74106249107572"><ele>2222</ele><time>2025-05-05T01:26:51Z</time></trkpt>
<trkpt lat="35.89896996825298" lon="138.7411367306228"><ele>2210</ele><time>2025-05-05T01:27:38Z</time></trkpt>
<trkpt lat="35.898821896541506" lon="138.74123302293236"><ele>2193</ele><time>2025-05-05T01:29:02Z</time></trkpt>
<trkpt lat="35.898693844313215" lon="138.74123814043668"><ele>2187</ele><time>2025-05-05T01:29:48Z</time></trkpt>
<trkpt lat="35.8985346202786" lon="138.74125758070713"><ele>2179</ele><time>2025-05-05T01:30:48Z</time></trkpt>
<trkpt lat="35.89836551946841" lon="138.74123848237383"><ele>2174</ele><time>2025-05-05T01:32:05Z</time></trkpt>
<trkpt lat="35.8982261226809" lon="138.74123502186598"><ele>2157</ele><time>2025-05-05T01:33:10Z</time></trkpt>
<trkpt lat="35.89813801064662" lon="138.74126796797844"><ele>2151</ele><time>2025-05-05T01:33:58Z</time></trkpt>
<trkpt lat="35.897966810638316" lon="138.7412694139455"><ele>2142</ele><time>2025-05-05T01:34:52Z</time></trkpt>
<trkpt lat="35.89781423878031" lon="138.74135169096215"><ele>2134</ele><time>2025-05-05T01:36:16Z</time></trkpt>
<trkpt lat="35.89764895129939" lon="138.74130660665753"><ele>2128</ele><time>2025-05-05T01:37:10Z</time></trkpt>
<trkpt lat="35.89748130567376" lon="138.74136568374357"><ele>2120</ele><time>2025-05-05T01:38:01Z</time></trkpt>
<trkpt lat="35.89735938706832" lon="138.74152858723988"><ele>2116</ele><time>2025-05-05T01:38:33Z</time></trkpt>
<trkpt lat="35.897525793667874" lon="138.74155498934567"><ele>2117</ele><time>2025-05-05T01:39:56Z</time></trkpt>
<trkpt lat="35.897377138499856" lon="138.74153379189897"><ele>2111</ele><time>2025-05-05T01:40:31Z</time></trkpt>
<trkpt lat="35.89720504469942" lon="138.74159405356144"><ele>2121</ele><time>2025-05-05T01:49:10Z</time></trkpt>
<trkpt lat="35.89703256049297" lon="138.74172838412744"><ele>2116</ele><time>2025-05-05T01:49:51Z</time></trkpt>
<trkpt lat="35.896874048215366" lon="138.74181056219257"><ele>2110</ele><time>2025-05-05T01:50:22Z</time></trkpt>
<trkpt lat="35.89670332825698" lon="138.74178213686116"><ele>2105</ele><time>2025-05-05T01:51:06Z</time></trkpt>
<trkpt lat="35.89656037065732" lon="138.7416633913401"><ele>2102</ele><time>2025-05-05T01:51:50Z</time></trkpt>
<trkpt lat="35.89640346205357" lon="138.7416095301207"><ele>2094</ele><time>2025-05-05T01:52:38Z</time></trkpt>
<trkpt lat="35.89625951578551" lon="138.74155597277232"><ele>2087</ele><time>2025-05-05T01:53:26Z</time></trkpt>
<trkpt lat="35.8960852003397" lon="138.74153651061366"><ele>2081</ele><time>2025-05-05T01:54:15Z</time></trkpt>
<trkpt lat="35.89598153988356" lon="138.74135533516267"><ele>2075</ele><time>2025-05-05T01:54:49Z</time></trkpt>
<trkpt lat="35.89580250034875" lon="138.74130463485167"><ele>2068</ele><time>2025-05-05T01:55:48Z</time></trkpt>
<trkpt lat="35.895721460637326" lon="138.74120620589247"><ele>2060</ele><time>2025-05-05T01:56:26Z</time></trkpt>
<trkpt lat="35.895613899287284" lon="138.74109813468013"><ele>2056</ele><time>2025-05-05T01:57:01Z</time></trkpt>
<trkpt lat="35.89546223108483" lon="138.74113905221978"><ele>2052</ele><time>2025-05-05T01:57:39Z</time></trkpt>
<trkpt lat="35.89526350431376" lon="138.74102879485477"><ele>2046</ele><time>2025-05-05T01:58:17Z</time></trkpt>
<trkpt lat="35.89516940266412" lon="138.74088552177025"><ele>2045</ele><time>2025-05-05T01:58:46Z</time></trkpt>
<trkpt lat="35.89498039308398" lon="138.74094294505247"><ele>2040</ele><time>2025-05-05T01:59:23Z</time></trkpt>
<trkpt lat="35.8948768109307" lon="138.74085433341358"><ele>2033</ele><time>2025-05-05T02:00:45Z</time></trkpt>
<trkpt lat="35.894743287286616" lon="138.74085852730897"><ele>2030</ele><time>2025-05-05T02:01:30Z</time></trkpt>
<trkpt lat="35.89459178469555" lon="138.74085047081087"><ele>2026</ele><time>2025-05-05T02:02:11Z</time></trkpt>
<trkpt lat="35.89437977247863" lon="138.7407756362882"><ele>2017</ele><time>2025-05-05T02:03:00Z</time></trkpt>
<trkpt lat="35.89420171985422" lon="138.74074749549874"><ele>2011</ele><time>2025-05-05T02:03:40Z</time></trkpt>
<trkpt lat="35.893914766272125" lon="138.74071053440449"><ele>2005</ele><time>2025-05-05T02:04:08Z</time></trkpt>
<trkpt lat="35.893664697667724" lon="138.7406860064459"><ele>2005</ele><time>2025-05-05T02:04:39Z</time></trkpt>
<trkpt lat="35.89349344587685" lon="138.740705758383"><ele>2000</ele><time>2025-05-05T02:05:17Z</time></trkpt>
<trkpt lat="35.893345883527346" lon="138.7406761830721"><ele>1995</ele><time>2025-05-05T02:05:52Z</time></trkpt>
<trkpt lat="35.89322191994568" lon="138.74059639748012"><ele>1985</ele><time>2025-05-05T02:06:33Z</time></trkpt>
<trkpt lat="35.89302938389124" lon="138.74056104295002"><ele>1978</ele><time>2025-05-05T02:07:25Z</time></trkpt>
<trkpt lat="35.89284983501328" lon="138.74050590299453"><ele>1970</ele><time>2025-05-05T02:08:05Z</time></trkpt>
<trkpt lat="35.89270249589689" lon="138.74053533206214"><ele>1966</ele><time>2025-05-05T02:08:53Z</time></trkpt>
<trkpt lat="35.89253798086667" lon="138.74056935536507"><ele>1957</ele><time>2025-05-05T02:09:51Z</time></trkpt>
<trkpt lat="35.89239447757473" lon="138.74057664436444"><ele>1951</ele><time>2025-05-05T02:10:31Z</time></trkpt>
<trkpt lat="35.892237923397204" lon="138.74054527301254"><ele>1943</ele><time>2025-05-05T02:11:19Z</time></trkpt>
<trkpt lat="35.89205024220529" lon="138.74049542895114"><ele>1938</ele><time>2025-05-05T02:11:55Z</time></trkpt>
<trkpt lat="35.89187141243901" lon="138.74054365762282"><ele>1925</ele><time>2025-05-05T02:12:41Z</time></trkpt>
<trkpt lat="35.891704691009274" lon="138.74058014197684"><ele>1911</ele><time>2025-05-05T02:13:42Z</time></trkpt>
<trkpt lat="35.89154837540565" lon="138.74051972871658"><ele>1902</ele><time>2025-05-05T02:14:33Z</time></trkpt>
<trkpt lat="35.89141386969149" lon="138.74056209955737"><ele>1895</ele><time>2025-05-05T02:15:15Z</time></trkpt>
<trkpt lat="35.89119260851709" lon="138.74054208695605"><ele>1885</ele><time>2025-05-05T02:16:01Z</time></trkpt>
<trkpt lat="35.89099900883224" lon="138.74042749753897"><ele>1875</ele><time>2025-05-05T02:16:55Z</time></trkpt>
<trkpt lat="35.89080155023911" lon="138.74034562547186"><ele>1871</ele><time>2025-05-05T02:18:24Z</time></trkpt>
<trkpt lat="35.89064178505256" lon="138.74037925191783"><ele>1864</ele><time>2025-05-05T02:19:05Z</time></trkpt>
<trkpt lat="35.89046200238714" lon="138.74039483577266"><ele>1857</ele><time>2025-05-05T02:19:53Z</time></trkpt>
<trkpt lat="35.89029561426164" lon="138.74038108728965"><ele>1856</ele><time>2025-05-05T02:20:39Z</time></trkpt>
<trkpt lat="35.89012543509796" lon="138.74043925472054"><ele>1856</ele><time>2025-05-05T02:21:13Z</time></trkpt>
<trkpt lat="35.88994236450488" lon="138.74041362924996"><ele>1855</ele><time>2025-05-05T02:21:49Z</time></trkpt>
<trkpt lat="35.8897567556046" lon="138.74044856223276"><ele>1854</ele><time>2025-05-05T02:22:31Z</time></trkpt>
<trkpt lat="35.88953744707673" lon="138.7405744372156"><ele>1862</ele><time>2025-05-05T02:23:10Z</time></trkpt>
<trkpt lat="35.889436999195716" lon="138.74060876744093"><ele>1862</ele><time>2025-05-05T02:23:40Z</time></trkpt>
<trkpt lat="35.8893068902939" lon="138.7404608993793"><ele>1856</ele><time>2025-05-05T02:24:58Z</time></trkpt>
<trkpt lat="35.88917393315365" lon="138.74032200370436"><ele>1850</ele><time>2025-05-05T02:25:34Z</time></trkpt>
<trkpt lat="35.88904805515963" lon="138.7402671679602"><ele>1846</ele><time>2025-05-05T02:26:09Z</time></trkpt>
<trkpt lat="35.88889492947436" lon="138.74024953580576"><ele>1838</ele><time>2025-05-05T02:27:08Z</time></trkpt>
<trkpt lat="35.8888046311425" lon="138.7402519967224"><ele>1818</ele><time>2025-05-05T02:28:41Z</time></trkpt>
<trkpt lat="35.88867817894794" lon="138.7402082204925"><ele>1812</ele><time>2025-05-05T02:29:27Z</time></trkpt>
<trkpt lat="35.888552733481795" lon="138.74021715355897"><ele>1801</ele><time>2025-05-05T02:31:17Z</time></trkpt>
<trkpt lat="35.88838474727706" lon="138.7401972040868"><ele>1810</ele><time>2025-05-05T02:32:11Z</time></trkpt>
<trkpt lat="35.888226115506725" lon="138.7402412749619"><ele>1800</ele><time>2025-05-05T02:32:52Z</time></trkpt>
<trkpt lat="35.88808731356898" lon="138.74020102683156"><ele>1792</ele><time>2025-05-05T02:34:01Z</time></trkpt>
<trkpt lat="35.88795565141109" lon="138.74014442724055"><ele>1781</ele><time>2025-05-05T02:35:28Z</time></trkpt>
<trkpt lat="35.88786295395132" lon="138.74012142722938"><ele>1770</ele><time>2025-05-05T02:36:32Z</time></trkpt>
<trkpt lat="35.88771813565829" lon="138.74003415937167"><ele>1764</ele><time>2025-05-05T02:37:34Z</time></trkpt>
<trkpt lat="35.8876109136529" lon="138.73992589419151"><ele>1759</ele><time>2025-05-05T02:38:16Z</time></trkpt>
<trkpt lat="35.88750979433598" lon="138.73989028736187"><ele>1764</ele><time>2025-05-05T02:44:00Z</time></trkpt>
<trkpt lat="35.88758536347309" lon="138.73997575050532"><ele>1757</ele><time>2025-05-05T02:51:16Z</time></trkpt>
<trkpt lat="35.887465891207185" lon="138.73990128774292"><ele>1755</ele><time>2025-05-05T02:52:06Z</time></trkpt>
<trkpt lat="35.88730990815662" lon="138.73984434303097"><ele>1750</ele><time>2025-05-05T02:52:43Z</time></trkpt>
<trkpt lat="35.887190535188054" lon="138.73983787725342"><ele>1740</ele><time>2025-05-05T02:53:49Z</time></trkpt>
<trkpt lat="35.887034334436606" lon="138.7398022663432"><ele>1733</ele><time>2025-05-05T02:54:29Z</time></trkpt>
<trkpt lat="35.88690645028791" lon="138.7398651434599"><ele>1730</ele><time>2025-05-05T02:55:05Z</time></trkpt>
<trkpt lat="35.886792730335934" lon="138.7397944761381"><ele>1726</ele><time>2025-05-05T02:55:44Z</time></trkpt>
<trkpt lat="35.88665042452576" lon="138.73975611172304"><ele>1723</ele><time>2025-05-05T02:56:29Z</time></trkpt>
<trkpt lat="35.88640435741395" lon="138.73976806828603"><ele>1722</ele><time>2025-05-05T02:56:57Z</time></trkpt>
<trkpt lat="35.88624599657411" lon="138.73976330129128"><ele>1717</ele><time>2025-05-05T02:57:48Z</time></trkpt>
<trkpt lat="35.886101593976456" lon="138.73979082627895"><ele>1710</ele><time>2025-05-05T02:58:34Z</time></trkpt>
<trkpt lat="35.88590145207051" lon="138.73988335729968"><ele>1706</ele><time>2025-05-05T02:59:08Z</time></trkpt>
<trkpt lat="35.88568045556003" lon="138.73985271521775"><ele>1701</ele><time>2025-05-05T02:59:38Z</time></trkpt>
<trkpt lat="35.88548931924615" lon="138.73988707412911"><ele>1697</ele><time>2025-05-05T03:00:10Z</time></trkpt>
<trkpt lat="35.88535361451341" lon="138.73985686175632"><ele>1693</ele><time>2025-05-05T03:00:53Z</time></trkpt>
<trkpt lat="35.885143816196845" lon="138.7398301716369"><ele>1691</ele><time>2025-05-05T03:01:49Z</time></trkpt>
<trkpt lat="35.88492865140752" lon="138.7397830366048"><ele>1689</ele><time>2025-05-05T03:02:24Z</time></trkpt>
<trkpt lat="35.88467396660143" lon="138.73978630302693"><ele>1687</ele><time>2025-05-05T03:02:57Z</time></trkpt>
<trkpt lat="35.88448834353294" lon="138.73988597427712"><ele>1684</ele><time>2025-05-05T03:03:37Z</time></trkpt>
<trkpt lat="35.88434899096035" lon="138.7399747747601"><ele>1681</ele><time>2025-05-05T03:04:14Z</time></trkpt>
<trkpt lat="35.884141759277696" lon="138.7401188544733"><ele>1674</ele><time>2025-05-05T03:04:43Z</time></trkpt>
<trkpt lat="35.884036143335805" lon="138.73996066159748"><ele>1666</ele><time>2025-05-05T03:05:37Z</time></trkpt>
<trkpt lat="35.88392490946156" lon="138.74019527384456"><ele>1666</ele><time>2025-05-05T03:06:16Z</time></trkpt>
<trkpt lat="35.88376794855142" lon="138.74021468759773"><ele>1660</ele><time>2025-05-05T03:06:47Z</time></trkpt>
<trkpt lat="35.883579302948675" lon="138.74023378553838"><ele>1656</ele><time>2025-05-05T03:07:25Z</time></trkpt>
<trkpt lat="35.8834357598552" lon="138.74034498535232"><ele>1652</ele><time>2025-05-05T03:08:02Z</time></trkpt>
<trkpt lat="35.883197603534946" lon="138.74036679728843"><ele>1644</ele><time>2025-05-05T03:08:41Z</time></trkpt>
<trkpt lat="35.88297809739093" lon="138.74033724995004"><ele>1637</ele><time>2025-05-05T03:09:14Z</time></trkpt>
<trkpt lat="35.88273895573225" lon="138.7404797340584"><ele>1636</ele><time>2025-05-05T03:09:44Z</time></trkpt>
<trkpt lat="35.88249151747489" lon="138.7404661457741"><ele>1636</ele><time>2025-05-05T03:10:13Z</time></trkpt>
<trkpt lat="35.88227329419517" lon="138.74050220369904"><ele>1635</ele><time>2025-05-05T03:10:44Z</time></trkpt>
<trkpt lat="35.88206242778432" lon="138.74048183879242"><ele>1632</ele><time>2025-05-05T03:11:17Z</time></trkpt>
<trkpt lat="35.882011725806414" lon="138.740627557961"><ele>1629</ele><time>2025-05-05T03:12:27Z</time></trkpt>
<trkpt lat="35.88171689266565" lon="138.74045193747986"><ele>1627</ele><time>2025-05-05T03:13:09Z</time></trkpt>
<trkpt lat="35.881585084098504" lon="138.74035273314806"><ele>1617</ele><time>2025-05-05T03:13:34Z</time></trkpt>
<trkpt lat="35.88139433748895" lon="138.74042908099935"><ele>1608</ele><time>2025-05-05T03:14:10Z</time></trkpt>
<trkpt lat="35.88128062564094" lon="138.74039397651416"><ele>1602</ele><time>2025-05-05T03:14:40Z</time></trkpt>
<trkpt lat="35.88113476440694" lon="138.7402801093997"><ele>1596</ele><time>2025-05-05T03:15:16Z</time></trkpt>
<trkpt lat="35.8809749295452" lon="138.74027405536933"><ele>1588</ele><time>2025-05-05T03:16:25Z</time></trkpt>
<trkpt lat="35.88096780606499" lon="138.7403855217781"><ele>1587</ele><time>2025-05-05T03:16:55Z</time></trkpt>
<trkpt lat="35.88085447758325" lon="138.74036007701437"><ele>1582</ele><time>2025-05-05T03:17:55Z</time></trkpt>
<trkpt lat="35.88068315547792" lon="138.74020522225103"><ele>1573</ele><time>2025-05-05T03:18:43Z</time></trkpt>
<trkpt lat="35.8804539314573" lon="138.7401856079068"><ele>1566</ele><time>2025-05-05T03:19:22Z</time></trkpt>
<trkpt lat="35.88027015206265" lon="138.740166980398"><ele>1555</ele><time>2025-05-05T03:20:03Z</time></trkpt>
<trkpt lat="35.88013835618072" lon="138.74005239000795"><ele>1548</ele><time>2025-05-05T03:21:03Z</time></trkpt>
<trkpt lat="35.879917236033975" lon="138.73997095491458"><ele>1545</ele><time>2025-05-05T03:21:36Z</time></trkpt>
<trkpt lat="35.87968458237223" lon="138.73996277005338"><ele>1540</ele><time>2025-05-05T03:22:06Z</time></trkpt>
<trkpt lat="35.8794925071237" lon="138.7399380175904"><ele>1533</ele><time>2025-05-05T03:22:40Z</time></trkpt>
<trkpt lat="35.87929158312158" lon="138.7398967175522"><ele>1533</ele><time>2025-05-05T03:23:09Z</time></trkpt>
<trkpt lat="35.87905964130619" lon="138.73974902087437"><ele>1526</ele><time>2025-05-05T03:23:40Z</time></trkpt>
<trkpt lat="35.87891459904897" lon="138.7396992622686"><ele>1526</ele><time>2025-05-05T03:24:09Z</time></trkpt>
<trkpt lat="35.87869988362821" lon="138.73965993542035"><ele>1526</ele><time>2025-05-05T03:24:38Z</time></trkpt>
<trkpt lat="35.87853361594917" lon="138.73958528565106"><ele>1526</ele><time>2025-05-05T03:25:41Z</time></trkpt>
<trkpt lat="35.87842579536264" lon="138.7394374524358"><ele>1525</ele><time>2025-05-05T03:26:09Z</time></trkpt>
<trkpt lat="35.87826114184098" lon="138.73946385754138"><ele>1527</ele><time>2025-05-05T03:26:54Z</time></trkpt>
<trkpt lat="35.878076686665636" lon="138.73948205966335"><ele>1527</ele><time>2025-05-05T03:27:22Z</time></trkpt>
<trkpt lat="35.87791695204155" lon="138.73961203416818"><ele>1524</ele><time>2025-05-05T03:27:50Z</time></trkpt>
<trkpt lat="35.877722439654754" lon="138.73963059627647"><ele>1523</ele><time>2025-05-05T03:28:23Z</time></trkpt>
<trkpt lat="35.877559279594095" lon="138.73969898302838"><ele>1516</ele><time>2025-05-05T03:29:06Z</time></trkpt>
<trkpt lat="35.87739212510262" lon="138.7398107134913"><ele>1512</ele><time>2025-05-05T03:29:46Z</time></trkpt>
<trkpt lat="35.87726830951367" lon="138.73988662093035"><ele>1509</ele><time>2025-05-05T03:30:19Z</time></trkpt>
<trkpt lat="35.877093574297234" lon="138.73993690061548"><ele>1504</ele><time>2025-05-05T03:30:52Z</time></trkpt>
<trkpt lat="35.87693359054256" lon="138.740013159065"><ele>1502</ele><time>2025-05-05T03:31:20Z</time></trkpt>
<trkpt lat="35.876770909903485" lon="138.74004785840575"><ele>1494</ele><time>2025-05-05T03:32:00Z</time></trkpt>
<trkpt lat="35.876545506862676" lon="138.74017101723092"><ele>1489</ele><time>2025-05-05T03:32:39Z</time></trkpt>
<trkpt lat="35.87630737234174" lon="138.7402488477007"><ele>1482</ele><time>2025-05-05T03:33:24Z</time></trkpt>
<trkpt lat="35.87615246183308" lon="138.74023334830792"><ele>1479</ele><time>2025-05-05T03:34:36Z</time></trkpt>
<trkpt lat="35.87594442096793" lon="138.7402111577257"><ele>1470</ele><time>2025-05-05T03:35:15Z</time></trkpt>
<trkpt lat="35.875763329615864" lon="138.7402268066285"><ele>1462</ele><time>2025-05-05T03:36:18Z</time></trkpt>
<trkpt lat="35.87564580292784" lon="138.7401947605126"><ele>1459</ele><time>2025-05-05T03:37:07Z</time></trkpt>
<trkpt lat="35.875667953540564" lon="138.74036317613013"><ele>1456</ele><time>2025-05-05T03:38:48Z</time></trkpt>
<trkpt lat="35.875543749614245" lon="138.740339788427"><ele>1448</ele><time>2025-05-05T03:39:18Z</time></trkpt>
<trkpt lat="35.87558474044975" lon="138.74053472625874"><ele>1445</ele><time>2025-05-05T03:40:26Z</time></trkpt>
<trkpt lat="35.875548517568724" lon="138.7406805844722"><ele>1438</ele><time>2025-05-05T03:42:25Z</time></trkpt>
<trkpt lat="35.875439183761365" lon="138.7408376074153"><ele>1430</ele><time>2025-05-05T03:44:12Z</time></trkpt>
<trkpt lat="35.875361860853204" lon="138.74107170105268"><ele>1418</ele><time>2025-05-05T03:46:06Z</time></trkpt>
<trkpt lat="35.87531026754883" lon="138.7413606297069"><ele>1414</ele><time>2025-05-05T03:46:42Z</time></trkpt>
<trkpt lat="35.875149505159634" lon="138.74148334226876"><ele>1409</ele><time>2025-05-05T03:47:40Z</time></trkpt>
<trkpt lat="35.87520482367458" lon="138.74128506328836"><ele>1416</ele><time>2025-05-05T03:48:24Z</time></trkpt>
<trkpt lat="35.875275100423764" lon="138.74151654984954"><ele>1406</ele><time>2025-05-05T03:49:00Z</time></trkpt>
<trkpt lat="35.87513026894909" lon="138.74149268325561"><ele>1405</ele><time>2025-05-05T03:49:54Z</time></trkpt>
<trkpt lat="35.87508949034118" lon="138.74164743209298"><ele>1384</ele><time>2025-05-05T03:52:36Z</time></trkpt>
<trkpt lat="35.87499972539965" lon="138.7416308206048"><ele>1385</ele><time>2025-05-05T03:53:09Z</time></trkpt>
<trkpt lat="35.87487065502296" lon="138.74172713419287"><ele>1374</ele><time>2025-05-05T03:54:08Z</time></trkpt>
<trkpt lat="35.8747315038464" lon="138.74191769039243"><ele>1366</ele><time>2025-05-05T03:55:42Z</time></trkpt>
<trkpt lat="35.87461022989771" lon="138.7420241909431"><ele>1354</ele><time>2025-05-05T03:56:28Z</time></trkpt>
<trkpt lat="35.874407565610355" lon="138.7420888070621"><ele>1347</ele><time>2025-05-05T03:59:17Z</time></trkpt>
<trkpt lat="35.87428075522422" lon="138.74221124290912"><ele>1341</ele><time>2025-05-05T04:00:23Z</time></trkpt>
<trkpt lat="35.87409976023001" lon="138.7422904431506"><ele>1334</ele><time>2025-05-05T04:00:59Z</time></trkpt>
<trkpt lat="35.87394914292595" lon="138.74238132224434"><ele>1325</ele><time>2025-05-05T04:01:39Z</time></trkpt>
<trkpt lat="35.873753114739614" lon="138.74247941612236"><ele>1318</ele><time>2025-05-05T04:02:20Z</time></trkpt>
<trkpt lat="35.87352014955462" lon="138.7425731330828"><ele>1311</ele><time>2025-05-05T04:02:50Z</time></trkpt>
<trkpt lat="35.87344282626724" lon="138.74269890758404"><ele>1314</ele><time>2025-05-05T04:04:09Z</time></trkpt>
<trkpt lat="35.87327311811035" lon="138.74280671073956"><ele>1310</ele><time>2025-05-05T04:04:46Z</time></trkpt>
<trkpt lat="35.87301106481696" lon="138.74290174410748"><ele>1307</ele><time>2025-05-05T04:05:14Z</time></trkpt>
<trkpt lat="35.872756559064335" lon="138.74300789082903"><ele>1303</ele><time>2025-05-05T04:06:00Z</time></trkpt>
<trkpt lat="35.87261055557857" lon="138.7430762760071"><ele>1303</ele><time>2025-05-05T04:06:29Z</time></trkpt>
<trkpt lat="35.872333498778524" lon="138.7431648662453"><ele>1305</ele><time>2025-05-05T04:07:17Z</time></trkpt>
<trkpt lat="35.872159315162854" lon="138.74328184266872"><ele>1302</ele><time>2025-05-05T04:07:45Z</time></trkpt>
<trkpt lat="35.8720999423177" lon="138.74347358795114"><ele>1300</ele><time>2025-05-05T04:08:53Z</time></trkpt>
<trkpt lat="35.871922091259876" lon="138.74364584892967"><ele>1299</ele><time>2025-05-05T04:09:58Z</time></trkpt>
<trkpt lat="35.87180350715785" lon="138.74371557167552"><ele>1292</ele><time>2025-05-05T04:11:15Z</time></trkpt>
<trkpt lat="35.87167767762029" lon="138.74376335383712"><ele>1290</ele><time>2025-05-05T04:12:01Z</time></trkpt>
<trkpt lat="35.871663845217704" lon="138.74387368551285"><ele>1291</ele><time>2025-05-05T04:12:56Z</time></trkpt>
<trkpt lat="35.871452646944" lon="138.7439615118063"><ele>1276</ele><time>2025-05-05T04:33:07Z</time></trkpt>
<trkpt lat="35.87130486956192" lon="138.74404721261791"><ele>1269</ele><time>2025-05-05T04:33:46Z</time></trkpt>
<trkpt lat="35.87117895182026" lon="138.74407744031993"><ele>1268</ele><time>2025-05-05T04:34:32Z</time></trkpt>
<trkpt lat="35.87099390613665" lon="138.7441897973607"><ele>1261</ele><time>2025-05-05T04:35:10Z</time></trkpt>
<trkpt lat="35.87082857454615" lon="138.74423756090542"><ele>1252</ele><time>2025-05-05T04:35:49Z</time></trkpt>
<trkpt lat="35.87082625028632" lon="138.74444467865487"><ele>1241</ele><time>2025-05-05T04:36:22Z</time></trkpt>
<trkpt lat="35.8709331210424" lon="138.74458559310912"><ele>1241</ele><time>2025-05-05T04:36:58Z</time></trkpt>
<trkpt lat="35.870993228725105" lon="138.7447180254306"><ele>1238</ele><time>2025-05-05T04:37:53Z</time></trkpt>
<trkpt lat="35.870903742663074" lon="138.7448071579602"><ele>1236</ele><time>2025-05-05T04:38:37Z</time></trkpt>
<trkpt lat="35.87097773306188" lon="138.74491240891837"><ele>1231</ele><time>2025-05-05T04:39:14Z</time></trkpt>
<trkpt lat="35.87100141716669" lon="138.74503303579283"><ele>1225</ele><time>2025-05-05T04:40:01Z</time></trkpt>
<trkpt lat="35.870781715449326" lon="138.74500124478868"><ele>1225</ele><time>2025-05-05T04:40:51Z</time></trkpt>
<trkpt lat="35.87054744181085" lon="138.74496946379435"><ele>1221</ele><time>2025-05-05T04:41:25Z</time></trkpt>
<trkpt lat="35.870377662607474" lon="138.74494497584453"><ele>1216</ele><time>2025-05-05T04:41:53Z</time></trkpt>
<trkpt lat="35.87020990465989" lon="138.74485457192733"><ele>1210</ele><time>2025-05-05T04:42:32Z</time></trkpt>
<trkpt lat="35.87002603205696" lon="138.7447877393797"><ele>1202</ele><time>2025-05-05T04:43:03Z</time></trkpt>
<trkpt lat="35.86981553163291" lon="138.7448215708605"><ele>1198</ele><time>2025-05-05T04:43:32Z</time></trkpt>
<trkpt lat="35.86959950596252" lon="138.74490671570697"><ele>1191</ele><time>2025-05-05T04:44:00Z</time></trkpt>
<trkpt lat="35.869335833019306" lon="138.74499943403978"><ele>1182</ele><time>2025-05-05T04:44:41Z</time></trkpt>
<trkpt lat="35.86915650138401" lon="138.745062508721"><ele>1171</ele><time>2025-05-05T04:45:12Z</time></trkpt>
<trkpt lat="35.86904380835272" lon="138.74518805960506"><ele>1166</ele><time>2025-05-05T04:46:07Z</time></trkpt>
<trkpt lat="35.869009136543255" lon="138.7448376281452"><ele>1168</ele><time>2025-05-05T04:47:03Z</time></trkpt>
<trkpt lat="35.86891662914054" lon="138.7445775503888"><ele>1165</ele><time>2025-05-05T04:47:33Z</time></trkpt>
<trkpt lat="35.86869103882848" lon="138.74447852510386"><ele>1159</ele><time>2025-05-05T04:48:17Z</time></trkpt>
<trkpt lat="35.868559800231765" lon="138.7448282626664"><ele>1158</ele><time>2025-05-05T04:48:46Z</time></trkpt>
<trkpt lat="35.86858618178763" lon="138.74518238385605"><ele>1159</ele><time>2025-05-05T04:49:13Z</time></trkpt>
<trkpt lat="35.86882826692444" lon="138.74541299871896"><ele>1156</ele><time>2025-05-05T04:49:41Z</time></trkpt>
<trkpt lat="35.86914411490411" lon="138.74555657698107"><ele>1166</ele><time>2025-05-05T04:50:07Z</time></trkpt>
<trkpt lat="35.86927972281966" lon="138.7457451687449"><ele>1168</ele><time>2025-05-05T04:50:42Z</time></trkpt>
<trkpt lat="35.86923154980832" lon="138.74552675534207"><ele>1172</ele><time>2025-05-05T04:51:20Z</time></trkpt>
<trkpt lat="35.8691951280758" lon="138.7457409312913"><ele>1171</ele><time>2025-05-05T04:51:56Z</time></trkpt>
<trkpt lat="35.86906949336959" lon="138.7456019944141"><ele>1164</ele><time>2025-05-05T04:52:46Z</time></trkpt>
<trkpt lat="35.8689675865218" lon="138.74575572313822"><ele>1169</ele><time>2025-05-05T04:55:07Z</time></trkpt>
<trkpt lat="35.868780558437" lon="138.74568959423692"><ele>1163</ele><time>2025-05-05T04:55:40Z</time></trkpt>
<trkpt lat="35.868558835515906" lon="138.7456169126321"><ele>1158</ele><time>2025-05-05T04:56:08Z</time></trkpt>
<trkpt lat="35.86837643105773" lon="138.74566911301278"><ele>1155</ele><time>2025-05-05T04:56:38Z</time></trkpt>
<trkpt lat="35.86814245830518" lon="138.7456675916382"><ele>1149</ele><time>2025-05-05T04:57:11Z</time></trkpt>
<trkpt lat="35.86798691151544" lon="138.74596956151308"><ele>1145</ele><time>2025-05-05T04:57:37Z</time></trkpt>
<trkpt lat="35.86798577230799" lon="138.74631053012092"><ele>1143</ele><time>2025-05-05T04:58:40Z</time></trkpt>
<trkpt lat="35.86795456189631" lon="138.74658028042592"><ele>1142</ele><time>2025-05-05T04:59:11Z</time></trkpt>
<trkpt lat="35.86794605741658" lon="138.74687742578206"><ele>1142</ele><time>2025-05-05T04:59:43Z</time></trkpt>
<trkpt lat="35.86796588256557" lon="138.7472042491181"><ele>1142</ele><time>2025-05-05T05:00:12Z</time></trkpt>
<trkpt lat="35.86790725920117" lon="138.7474842604995"><ele>1142</ele><time>2025-05-05T05:00:41Z</time></trkpt>
<trkpt lat="35.867927148758575" lon="138.747633872756"><ele>1144</ele><time>2025-05-05T05:01:11Z</time></trkpt>
<trkpt lat="35.867912941050356" lon="138.74775210799896"><ele>1146</ele><time>2025-05-05T05:03:16Z</time></trkpt>
<trkpt lat="35.867817614735706" lon="138.74797677743314"><ele>1144</ele><time>2025-05-05T05:03:59Z</time></trkpt>
<trkpt lat="35.86780480047606" lon="138.7482087643718"><ele>1143</ele><time>2025-05-05T05:04:28Z</time></trkpt>
<trkpt lat="35.86780299440502" lon="138.74837989299814"><ele>1145</ele><time>2025-05-05T05:04:55Z</time></trkpt>
<trkpt lat="35.867800631840446" lon="138.74858515214805"><ele>1141</ele><time>2025-05-05T05:05:27Z</time></trkpt>
<trkpt lat="35.86788117645133" lon="138.74882330933204"><ele>1146</ele><time>2025-05-05T05:06:00Z</time></trkpt>
<trkpt lat="35.86803579873913" lon="138.74899012343525"><ele>1146</ele><time>2025-05-05T05:06:31Z</time></trkpt>
<trkpt lat="35.868155506294926" lon="138.74924858639125"><ele>1145</ele><time>2025-05-05T05:07:03Z</time></trkpt>
<trkpt lat="35.86832863392598" lon="138.74947792766963"><ele>1148</ele><time>2025-05-05T05:07:33Z</time></trkpt>
<trkpt lat="35.868159907390066" lon="138.7495603359269"><ele>1152</ele><time>2025-05-05T05:08:06Z</time></trkpt>
<trkpt lat="35.86795365002686" lon="138.74945534008967"><ele>1147</ele><time>2025-05-05T05:09:46Z</time></trkpt>
<trkpt lat="35.86774484037168" lon="138.7493021508021"><ele>1143</ele><time>2025-05-05T05:10:16Z</time></trkpt>
<trkpt lat="35.8674600631048" lon="138.7494011914794"><ele>1140</ele><time>2025-05-05T05:10:45Z</time></trkpt>
<trkpt lat="35.86729788307671" lon="138.7496670143393"><ele>1138</ele><time>2025-05-05T05:11:22Z</time></trkpt>
<trkpt lat="35.86715281933517" lon="138.74999811772014"><ele>1142</ele><time>2025-05-05T05:11:52Z</time></trkpt>
<trkpt lat="35.867099116555195" lon="138.7501720316656"><ele>1145</ele><time>2025-05-05T05:12:41Z</time></trkpt>
<trkpt lat="35.866824568966685" lon="138.75038202232022"><ele>1144</ele><time>2025-05-05T05:13:18Z</time></trkpt>
<trkpt lat="35.866640331675804" lon="138.750569753557"><ele>1141</ele><time>2025-05-05T05:13:44Z</time></trkpt>
<trkpt lat="35.86639465263801" lon="138.75086268022102"><ele>1140</ele><time>2025-05-05T05:14:24Z</time></trkpt>
<trkpt lat="35.86634156978582" lon="138.7510618453524"><ele>1139</ele><time>2025-05-05T05:14:54Z</time></trkpt>
<trkpt lat="35.866235856412715" lon="138.75130869751283"><ele>1142</ele><time>2025-05-05T05:15:31Z</time></trkpt>
<trkpt lat="35.86602585953462" lon="138.75145367472538"><ele>1138</ele><time>2025-05-05T05:16:00Z</time></trkpt>
<trkpt lat="35.865857451065025" lon="138.75155341402035"><ele>1136</ele><time>2025-05-05T05:16:31Z</time></trkpt>
<trkpt lat="35.86567974735079" lon="138.751778966289"><ele>1136</ele><time>2025-05-05T05:17:00Z</time></trkpt>
<trkpt lat="35.86558336420295" lon="138.75200813171244"><ele>1132</ele><time>2025-05-05T05:17:33Z</time></trkpt>
<trkpt lat="35.86546828809751" lon="138.75232418209163"><ele>1130</ele><time>2025-05-05T05:18:02Z</time></trkpt>
<trkpt lat="35.865314919630165" lon="138.75263642312487"><ele>1128</ele><time>2025-05-05T05:18:31Z</time></trkpt>
<trkpt lat="35.865286961836155" lon="138.75275176987682"><ele>1130</ele><time>2025-05-05T05:18:59Z</time></trkpt>
<trkpt lat="35.86516415020042" lon="138.75300848566252"><ele>1129</ele><time>2025-05-05T05:19:39Z</time></trkpt>
<trkpt lat="35.86506493491677" lon="138.75328946595675"><ele>1132</ele><time>2025-05-05T05:20:14Z</time></trkpt>
<trkpt lat="35.86487611410686" lon="138.7534525092967"><ele>1133</ele><time>2025-05-05T05:20:46Z</time></trkpt>
<trkpt lat="35.864802163623004" lon="138.7537092008944"><ele>1134</ele><time>2025-05-05T05:21:25Z</time></trkpt>
<trkpt lat="35.864844735263816" lon="138.7541009276034"><ele>1137</ele><time>2025-05-05T05:21:55Z</time></trkpt>
<trkpt lat="35.864730280809184" lon="138.75407446538534"><ele>1139</ele><time>2025-05-05T05:22:28Z</time></trkpt>
<trkpt lat="35.86450522056344" lon="138.75405036066"><ele>1130</ele><time>2025-05-05T05:23:00Z</time></trkpt>
<trkpt lat="35.86424153107761" lon="138.75419589198427"><ele>1123</ele><time>2025-05-05T05:23:35Z</time></trkpt>
<trkpt lat="35.864070637502756" lon="138.754411171105"><ele>1123</ele><time>2025-05-05T05:24:02Z</time></trkpt>
<trkpt lat="35.86388670693246" lon="138.75449745907036"><ele>1121</ele><time>2025-05-05T05:24:48Z</time></trkpt>
<trkpt lat="35.86367376654463" lon="138.75459365356235"><ele>1121</ele><time>2025-05-05T05:25:16Z</time></trkpt>
<trkpt lat="35.863449308911335" lon="138.75471552123807"><ele>1120</ele><time>2025-05-05T05:25:46Z</time></trkpt>
<trkpt lat="35.86331319141697" lon="138.75497547312895"><ele>1121</ele><time>2025-05-05T05:26:14Z</time></trkpt>
<trkpt lat="35.8633271547546" lon="138.75514062572685"><ele>1121</ele><time>2025-05-05T05:27:10Z</time></trkpt>
<trkpt lat="35.8631229690114" lon="138.75527304051602"><ele>1121</ele><time>2025-05-05T05:28:52Z</time></trkpt>
<trkpt lat="35.862968396701376" lon="138.75533655970312"><ele>1118</ele><time>2025-05-05T05:29:23Z</time></trkpt>
<trkpt lat="35.86270825973176" lon="138.75530930690664"><ele>1117</ele><time>2025-05-05T05:29:52Z</time></trkpt>
<trkpt lat="35.86244431293103" lon="138.7552829660575"><ele>1113</ele><time>2025-05-05T05:30:20Z</time></trkpt>
<trkpt lat="35.862310990495835" lon="138.75528355054763"><ele>1110</ele><time>2025-05-05T05:30:52Z</time></trkpt>
<trkpt lat="35.86243729117024" lon="138.75518022469174"><ele>1111</ele><time>2025-05-05T05:31:21Z</time></trkpt>
<trkpt lat="35.86269496728634" lon="138.7551071684139"><ele>1109</ele><time>2025-05-05T05:31:57Z</time></trkpt>
<trkpt lat="35.86296437994218" lon="138.75503520656204"><ele>1107</ele><time>2025-05-05T05:32:25Z</time></trkpt>
<trkpt lat="35.86309689399943" lon="138.75480995251942"><ele>1105</ele><time>2025-05-05T05:32:48Z</time></trkpt>
</trkseg>
</trk>
</gpx>