<?xml version="1.0" encoding="UTF-8"?>
<gpx xmlns:xsi="http://www.w3.org/2001/XMLSchema-instance" xmlns="http://www.topografix.com/GPX/1/1" xsi:schemaLocation="http://www.topografix.com/GPX/1/1 http://www.topografix.com/GPX/1/1/gpx.xsd" creator="Yamareco iOS 7.33 - www.yamareco.com">
<trk><name>track</name><number>1</number><trkseg>
<trkpt lat="36.16445653609586" lon="140.16003127222896"><ele>52</ele><time>2025-11-29T00:57:48Z</time></trkpt>
<trkpt lat="36.164639205212374" lon="140.15983538272755"><ele>42</ele><time>2025-11-29T00:58:26Z</time></trkpt>
<trkpt lat="36.16463615382806" lon="140.15971106255506"><ele>44</ele><time>2025-11-29T00:58:53Z</time></trkpt>
<trkpt lat="36.164881649432814" lon="140.15965266038427"><ele>42</ele><time>2025-11-29T00:59:32Z</time></trkpt>
<trkpt lat="36.165112002970915" lon="140.15951517071582"><ele>43</ele><time>2025-11-29T00:59:58Z</time></trkpt>
<trkpt lat="36.16538945635597" lon="140.15971312233555"><ele>42</ele><time>2025-11-29T01:00:25Z</time></trkpt>
<trkpt lat="36.165677729477196" lon="140.15982413530966"><ele>46</ele><time>2025-11-29T01:00:51Z</time></trkpt>
<trkpt lat="36.165987842249095" lon="140.15978825632627"><ele>49</ele><time>2025-11-29T01:01:19Z</time></trkpt>
<trkpt lat="36.16625212155041" lon="140.15980741844973"><ele>51</ele><time>2025-11-29T01:01:45Z</time></trkpt>
<trkpt lat="36.16634384665127" lon="140.16004161100554"><ele>56</ele><time>2025-11-29T01:02:12Z</time></trkpt>
<trkpt lat="36.16650948050455" lon="140.1603512176214"><ele>59</ele><time>2025-11-29T01:02:39Z</time></trkpt>
<trkpt lat="36.166740167602434" lon="140.16052036074254"><ele>61</ele><time>2025-11-29T01:03:06Z</time></trkpt>
<trkpt lat="36.16702670764171" lon="140.16058827505992"><ele>67</ele><time>2025-11-29T01:03:35Z</time></trkpt>
<trkpt lat="36.167293305127835" lon="140.16065071643766"><ele>74</ele><time>2025-11-29T01:04:01Z</time></trkpt>
<trkpt lat="36.1675604655291" lon="140.16062150875655"><ele>79</ele><time>2025-11-29T01:04:27Z</time></trkpt>
<trkpt lat="36.167827911355126" lon="140.1606230244194"><ele>83</ele><time>2025-11-29T01:04:55Z</time></trkpt>
<trkpt lat="36.16804987197282" lon="140.16069632127625"><ele>83</ele><time>2025-11-29T01:05:25Z</time></trkpt>
<trkpt lat="36.168307097235434" lon="140.1605768814808"><ele>92</ele><time>2025-11-29T01:05:59Z</time></trkpt>
<trkpt lat="36.16821564423306" lon="140.16083972412983"><ele>100</ele><time>2025-11-29T01:06:38Z</time></trkpt>
<trkpt lat="36.16839456916781" lon="140.1609223068649"><ele>105</ele><time>2025-11-29T01:07:14Z</time></trkpt>
<trkpt lat="36.16854900822958" lon="140.16102523267804"><ele>117</ele><time>2025-11-29T01:07:47Z</time></trkpt>
<trkpt lat="36.16869857937395" lon="140.16084011452097"><ele>121</ele><time>2025-11-29T01:08:12Z</time></trkpt>
<trkpt lat="36.1688502329983" lon="140.16065014754298"><ele>118</ele><time>2025-11-29T01:08:42Z</time></trkpt>
<trkpt lat="36.16909357889397" lon="140.16058724714637"><ele>124</ele><time>2025-11-29T01:09:06Z</time></trkpt>
<trkpt lat="36.169396814573204" lon="140.16048699694164"><ele>131</ele><time>2025-11-29T01:09:41Z</time></trkpt>
<trkpt lat="36.16965623183356" lon="140.16036007171232"><ele>132</ele><time>2025-11-29T01:10:07Z</time></trkpt>
<trkpt lat="36.16990840161054" lon="140.16036220088233"><ele>139</ele><time>2025-11-29T01:10:35Z</time></trkpt>
<trkpt lat="36.17017209259351" lon="140.1603672856018"><ele>142</ele><time>2025-11-29T01:11:03Z</time></trkpt>
<trkpt lat="36.17035675918458" lon="140.16021610632384"><ele>145</ele><time>2025-11-29T01:11:29Z</time></trkpt>
<trkpt lat="36.17044420546692" lon="140.15995081645542"><ele>155</ele><time>2025-11-29T01:11:58Z</time></trkpt>
<trkpt lat="36.17059849901109" lon="140.15984983767453"><ele>163</ele><time>2025-11-29T01:12:25Z</time></trkpt>
<trkpt lat="36.17073622860418" lon="140.15976897182705"><ele>170</ele><time>2025-11-29T01:12:59Z</time></trkpt>
<trkpt lat="36.170903115128006" lon="140.15985913324374"><ele>170</ele><time>2025-11-29T01:14:47Z</time></trkpt>
<trkpt lat="36.17103597119457" lon="140.15986859855988"><ele>175</ele><time>2025-11-29T01:15:19Z</time></trkpt>
<trkpt lat="36.17118193675244" lon="140.16003731746395"><ele>178</ele><time>2025-11-29T01:15:52Z</time></trkpt>
<trkpt lat="36.171412742561415" lon="140.1601235480957"><ele>188</ele><time>2025-11-29T01:16:29Z</time></trkpt>
<trkpt lat="36.17155925918614" lon="140.1599646632761"><ele>193</ele><time>2025-11-29T01:17:04Z</time></trkpt>
<trkpt lat="36.17149999636073" lon="140.15981006897343"><ele>190</ele><time>2025-11-29T01:17:38Z</time></trkpt>
<trkpt lat="36.17170485715941" lon="140.1598964897342"><ele>197</ele><time>2025-11-29T01:18:17Z</time></trkpt>
<trkpt lat="36.17191727003609" lon="140.1598911589625"><ele>204</ele><time>2025-11-29T01:18:46Z</time></trkpt>
<trkpt lat="36.172149411476774" lon="140.15986004473075"><ele>210</ele><time>2025-11-29T01:19:16Z</time></trkpt>
<trkpt lat="36.17206533153027" lon="140.15996953268203"><ele>210</ele><time>2025-11-29T01:20:08Z</time></trkpt>
<trkpt lat="36.17194346043671" lon="140.16025673563047"><ele>205</ele><time>2025-11-29T01:21:40Z</time></trkpt>
<trkpt lat="36.171917438721366" lon="140.1605555673204"><ele>205</ele><time>2025-11-29T01:23:51Z</time></trkpt>
<trkpt lat="36.17173729299383" lon="140.16074351065166"><ele>207</ele><time>2025-11-29T01:26:10Z</time></trkpt>
<trkpt lat="36.171708062523486" lon="140.16095746800357"><ele>209</ele><time>2025-11-29T01:26:44Z</time></trkpt>
<trkpt lat="36.171712238111766" lon="140.16132880586537"><ele>209</ele><time>2025-11-29T01:27:10Z</time></trkpt>
<trkpt lat="36.171768224735104" lon="140.16165187394517"><ele>212</ele><time>2025-11-29T01:27:38Z</time></trkpt>
<trkpt lat="36.171531689334834" lon="140.1617270535261"><ele>213</ele><time>2025-11-29T01:29:45Z</time></trkpt>
<trkpt lat="36.17130592107655" lon="140.16167911234604"><ele>217</ele><time>2025-11-29T01:30:12Z</time></trkpt>
<trkpt lat="36.171058340195714" lon="140.1616662670856"><ele>216</ele><time>2025-11-29T01:30:42Z</time></trkpt>
<trkpt lat="36.17119864778448" lon="140.1618049473716"><ele>221</ele><time>2025-11-29T01:31:11Z</time></trkpt>
<trkpt lat="36.17131445023914" lon="140.16192603010305"><ele>222</ele><time>2025-11-29T01:31:40Z</time></trkpt>
<trkpt lat="36.17130792917912" lon="140.1621112493637"><ele>227</ele><time>2025-11-29T01:32:10Z</time></trkpt>
<trkpt lat="36.17147973536708" lon="140.16229588064667"><ele>230</ele><time>2025-11-29T01:32:38Z</time></trkpt>
<trkpt lat="36.17173504744613" lon="140.16220447281705"><ele>233</ele><time>2025-11-29T01:33:49Z</time></trkpt>
<trkpt lat="36.17197531423383" lon="140.16223256766366"><ele>233</ele><time>2025-11-29T01:34:19Z</time></trkpt>
<trkpt lat="36.1721679418892" lon="140.1621605696948"><ele>237</ele><time>2025-11-29T01:34:53Z</time></trkpt>
<trkpt lat="36.172051585826594" lon="140.16227755043576"><ele>238</ele><time>2025-11-29T01:35:22Z</time></trkpt>
<trkpt lat="36.17180440141856" lon="140.16240198822615"><ele>240</ele><time>2025-11-29T01:35:55Z</time></trkpt>
<trkpt lat="36.17203930035666" lon="140.16246960418343"><ele>246</ele><time>2025-11-29T01:36:39Z</time></trkpt>
<trkpt lat="36.172273136945" lon="140.16238904559796"><ele>247</ele><time>2025-11-29T01:37:11Z</time></trkpt>
<trkpt lat="36.17245884432054" lon="140.16219631822602"><ele>250</ele><time>2025-11-29T01:37:40Z</time></trkpt>
<trkpt lat="36.17265105379566" lon="140.16205562697678"><ele>248</ele><time>2025-11-29T01:38:11Z</time></trkpt>
<trkpt lat="36.17280840838323" lon="140.16210178767838"><ele>251</ele><time>2025-11-29T01:38:51Z</time></trkpt>
<trkpt lat="36.1727554001479" lon="140.1622710437854"><ele>257</ele><time>2025-11-29T01:39:20Z</time></trkpt>
<trkpt lat="36.17288082306158" lon="140.1624679622424"><ele>261</ele><time>2025-11-29T01:40:25Z</time></trkpt>
<trkpt lat="36.1728054199621" lon="140.1627889578529"><ele>264</ele><time>2025-11-29T01:40:55Z</time></trkpt>
<trkpt lat="36.17278323102509" lon="140.16311914580405"><ele>269</ele><time>2025-11-29T01:41:25Z</time></trkpt>
<trkpt lat="36.17276241449622" lon="140.16343660873125"><ele>273</ele><time>2025-11-29T01:41:52Z</time></trkpt>
<trkpt lat="36.172707168770835" lon="140.1637751788044"><ele>278</ele><time>2025-11-29T01:42:18Z</time></trkpt>
<trkpt lat="36.172646052260646" lon="140.16412204624052"><ele>281</ele><time>2025-11-29T01:42:46Z</time></trkpt>
<trkpt lat="36.17249617161111" lon="140.16440569665528"><ele>286</ele><time>2025-11-29T01:43:13Z</time></trkpt>
<trkpt lat="36.17228455206091" lon="140.16465854517125"><ele>290</ele><time>2025-11-29T01:43:46Z</time></trkpt>
<trkpt lat="36.17200806312339" lon="140.16482188331437"><ele>292</ele><time>2025-11-29T01:44:14Z</time></trkpt>
<trkpt lat="36.171827300507246" lon="140.16507220561735"><ele>297</ele><time>2025-11-29T01:44:41Z</time></trkpt>
<trkpt lat="36.17174425968152" lon="140.165312882316"><ele>299</ele><time>2025-11-29T01:45:08Z</time></trkpt>
<trkpt lat="36.17163125225026" lon="140.16543673930786"><ele>298</ele><time>2025-11-29T01:45:41Z</time></trkpt>
<trkpt lat="36.17180499678645" lon="140.16523394342244"><ele>301</ele><time>2025-11-29T01:55:36Z</time></trkpt>
<trkpt lat="36.17186923545168" lon="140.16495374471552"><ele>298</ele><time>2025-11-29T01:56:23Z</time></trkpt>
<trkpt lat="36.17213747561795" lon="140.16474593932767"><ele>293</ele><time>2025-11-29T01:56:53Z</time></trkpt>
<trkpt lat="36.17244901495072" lon="140.16457897763075"><ele>290</ele><time>2025-11-29T01:57:19Z</time></trkpt>
<trkpt lat="36.172624976847075" lon="140.16432800041682"><ele>285</ele><time>2025-11-29T01:57:47Z</time></trkpt>
<trkpt lat="36.17273770547176" lon="140.1639890390428"><ele>283</ele><time>2025-11-29T01:58:13Z</time></trkpt>
<trkpt lat="36.17275911424582" lon="140.16360540899643"><ele>276</ele><time>2025-11-29T01:58:38Z</time></trkpt>
<trkpt lat="36.17278690132857" lon="140.16317433093906"><ele>270</ele><time>2025-11-29T01:59:08Z</time></trkpt>
<trkpt lat="36.1728306232095" lon="140.16277092499664"><ele>265</ele><time>2025-11-29T01:59:36Z</time></trkpt>
<trkpt lat="36.17295283316487" lon="140.16246708940045"><ele>262</ele><time>2025-11-29T02:00:08Z</time></trkpt>
<trkpt lat="36.17310265728791" lon="140.16216109768544"><ele>262</ele><time>2025-11-29T02:01:33Z</time></trkpt>
<trkpt lat="36.17322800030369" lon="140.16180987012962"><ele>261</ele><time>2025-11-29T02:02:02Z</time></trkpt>
<trkpt lat="36.173350057218855" lon="140.16146405966592"><ele>261</ele><time>2025-11-29T02:02:31Z</time></trkpt>
<trkpt lat="36.173455477197614" lon="140.16115633851058"><ele>261</ele><time>2025-11-29T02:02:58Z</time></trkpt>
<trkpt lat="36.17351138409201" lon="140.16081442645267"><ele>266</ele><time>2025-11-29T02:03:27Z</time></trkpt>
<trkpt lat="36.17363402148338" lon="140.16051444944384"><ele>262</ele><time>2025-11-29T02:03:54Z</time></trkpt>
<trkpt lat="36.17364238470555" lon="140.1601600852617"><ele>259</ele><time>2025-11-29T02:04:20Z</time></trkpt>
<trkpt lat="36.173593422064776" lon="140.15981065115787"><ele>257</ele><time>2025-11-29T02:04:45Z</time></trkpt>
<trkpt lat="36.173479690453036" lon="140.15946791315557"><ele>254</ele><time>2025-11-29T02:05:11Z</time></trkpt>
<trkpt lat="36.17348338504921" lon="140.15914452366056"><ele>254</ele><time>2025-11-29T02:05:39Z</time></trkpt>
<trkpt lat="36.17371400091839" lon="140.1590567637014"><ele>259</ele><time>2025-11-29T02:06:09Z</time></trkpt>
<trkpt lat="36.17377027948751" lon="140.15873729252274"><ele>262</ele><time>2025-11-29T02:06:34Z</time></trkpt>
<trkpt lat="36.17396391508258" lon="140.15846419349674"><ele>264</ele><time>2025-11-29T02:07:03Z</time></trkpt>
<trkpt lat="36.17413924064538" lon="140.1582179504494"><ele>266</ele><time>2025-11-29T02:07:33Z</time></trkpt>
<trkpt lat="36.17435530184442" lon="140.15794970667696"><ele>269</ele><time>2025-11-29T02:08:02Z</time></trkpt>
<trkpt lat="36.17453812434578" lon="140.15771371861698"><ele>270</ele><time>2025-11-29T02:08:27Z</time></trkpt>
<trkpt lat="36.17456304460478" lon="140.15731658590377"><ele>271</ele><time>2025-11-29T02:08:56Z</time></trkpt>
<trkpt lat="36.17427196329107" lon="140.15733324342446"><ele>264</ele><time>2025-11-29T02:09:24Z</time></trkpt>
<trkpt lat="36.1740050093111" lon="140.15740156753833"><ele>261</ele><time>2025-11-29T02:09:50Z</time></trkpt>
<trkpt lat="36.173670734460956" lon="140.15744038118925"><ele>256</ele><time>2025-11-29T02:10:19Z</time></trkpt>
<trkpt lat="36.17342690425808" lon="140.15733970956563"><ele>252</ele><time>2025-11-29T02:10:45Z</time></trkpt>
<trkpt lat="36.173192614500365" lon="140.15720443340211"><ele>245</ele><time>2025-11-29T02:11:14Z</time></trkpt>
<trkpt lat="36.172979293440186" lon="140.15735274392986"><ele>241</ele><time>2025-11-29T02:11:45Z</time></trkpt>
<trkpt lat="36.1727977971376" lon="140.1575735930933"><ele>236</ele><time>2025-11-29T02:12:14Z</time></trkpt>
<trkpt lat="36.172575857165256" lon="140.15778158979685"><ele>228</ele><time>2025-11-29T02:12:45Z</time></trkpt>
<trkpt lat="36.17236092587983" lon="140.1578873208948"><ele>223</ele><time>2025-11-29T02:13:17Z</time></trkpt>
<trkpt lat="36.17219381036202" lon="140.15767242867048"><ele>230</ele><time>2025-11-29T02:14:12Z</time></trkpt>
<trkpt lat="36.1720709349906" lon="140.15745807664052"><ele>237</ele><time>2025-11-29T02:14:48Z</time></trkpt>
<trkpt lat="36.17192896094431" lon="140.15724687459243"><ele>246</ele><time>2025-11-29T02:15:26Z</time></trkpt>
<trkpt lat="36.17172807377458" lon="140.15732630632007"><ele>244</ele><time>2025-11-29T02:15:56Z</time></trkpt>
<trkpt lat="36.1716718091907" lon="140.15707904375913"><ele>251</ele><time>2025-11-29T02:16:39Z</time></trkpt>
<trkpt lat="36.17169137681649" lon="140.15683480052286"><ele>262</ele><time>2025-11-29T02:17:17Z</time></trkpt>
<trkpt lat="36.17166637153254" lon="140.15659299800294"><ele>273</ele><time>2025-11-29T02:17:50Z</time></trkpt>
<trkpt lat="36.17162178621242" lon="140.1564002392719"><ele>279</ele><time>2025-11-29T02:18:19Z</time></trkpt>
<trkpt lat="36.17156024167654" lon="140.1561330520971"><ele>285</ele><time>2025-11-29T02:18:54Z</time></trkpt>
<trkpt lat="36.171542279168776" lon="140.15582342056027"><ele>288</ele><time>2025-11-29T02:19:28Z</time></trkpt>
<trkpt lat="36.171740771362856" lon="140.15570845653127"><ele>295</ele><time>2025-11-29T02:20:04Z</time></trkpt>
<trkpt lat="36.17194509058772" lon="140.15561783461197"><ele>305</ele><time>2025-11-29T02:20:33Z</time></trkpt>
<trkpt lat="36.171992346370814" lon="140.15543940025947"><ele>309</ele><time>2025-11-29T02:21:03Z</time></trkpt>
<trkpt lat="36.172137387195384" lon="140.15529045581584"><ele>316</ele><time>2025-11-29T02:21:31Z</time></trkpt>
<trkpt lat="36.17224081874494" lon="140.15511030266728"><ele>324</ele><time>2025-11-29T02:22:01Z</time></trkpt>
<trkpt lat="36.17233268798682" lon="140.15497201357076"><ele>330</ele><time>2025-11-29T02:22:35Z</time></trkpt>
<trkpt lat="36.172411713244635" lon="140.15476957812044"><ele>335</ele><time>2025-11-29T02:23:06Z</time></trkpt>
<trkpt lat="36.17235888711565" lon="140.15441691676025"><ele>341</ele><time>2025-11-29T02:23:35Z</time></trkpt>
<trkpt lat="36.17236752551565" lon="140.15414859039277"><ele>342</ele><time>2025-11-29T02:24:03Z</time></trkpt>
<trkpt lat="36.172549864803926" lon="140.15403537952147"><ele>351</ele><time>2025-11-29T02:24:32Z</time></trkpt>
<trkpt lat="36.17277360750989" lon="140.15382800073377"><ele>359</ele><time>2025-11-29T02:25:02Z</time></trkpt>
<trkpt lat="36.17292898814389" lon="140.1538101581177"><ele>359</ele><time>2025-11-29T02:25:30Z</time></trkpt>
<trkpt lat="36.17300795941306" lon="140.1541379968415"><ele>360</ele><time>2025-11-29T02:25:54Z</time></trkpt>
<trkpt lat="36.17309275942753" lon="140.15419212304133"><ele>356</ele><time>2025-11-29T02:26:23Z</time></trkpt>
<trkpt lat="36.17310389331675" lon="140.15405324087908"><ele>364</ele><time>2025-11-29T02:28:06Z</time></trkpt>
<trkpt lat="36.17312403827419" lon="140.15419618335068"><ele>358</ele><time>2025-11-29T02:32:30Z</time></trkpt>
<trkpt lat="36.17306386261144" lon="140.1543492397082"><ele>367</ele><time>2025-11-29T03:21:48Z</time></trkpt>
<trkpt lat="36.17299630458209" lon="140.15409912377098"><ele>363</ele><time>2025-11-29T03:25:42Z</time></trkpt>
<trkpt lat="36.17286453931514" lon="140.15377284765157"><ele>363</ele><time>2025-11-29T03:27:17Z</time></trkpt>
<trkpt lat="36.17273738566935" lon="140.15374697983538"><ele>361</ele><time>2025-11-29T03:28:13Z</time></trkpt>
<trkpt lat="36.172488411254335" lon="140.15382788937174"><ele>355</ele><time>2025-11-29T03:29:31Z</time></trkpt>
<trkpt lat="36.17223958512514" lon="140.15390272899603"><ele>348</ele><time>2025-11-29T03:30:01Z</time></trkpt>
<trkpt lat="36.17202318430119" lon="140.1538108976423"><ele>336</ele><time>2025-11-29T03:30:32Z</time></trkpt>
<trkpt lat="36.171776923534125" lon="140.15379733083765"><ele>326</ele><time>2025-11-29T03:31:03Z</time></trkpt>
<trkpt lat="36.17151276240708" lon="140.15390800597328"><ele>316</ele><time>2025-11-29T03:31:31Z</time></trkpt>
<trkpt lat="36.1712951727048" lon="140.15379340717655"><ele>309</ele><time>2025-11-29T03:32:00Z</time></trkpt>
<trkpt lat="36.1713052220475" lon="140.15362264069543"><ele>301</ele><time>2025-11-29T03:32:31Z</time></trkpt>
<trkpt lat="36.171132121198184" lon="140.15355325934647"><ele>294</ele><time>2025-11-29T03:33:31Z</time></trkpt>
<trkpt lat="36.17087310012186" lon="140.1537939998502"><ele>282</ele><time>2025-11-29T03:34:40Z</time></trkpt>
<trkpt lat="36.170651434861284" lon="140.15380563497536"><ele>275</ele><time>2025-11-29T03:35:10Z</time></trkpt>
<trkpt lat="36.17055051124172" lon="140.15359197378135"><ele>267</ele><time>2025-11-29T03:35:43Z</time></trkpt>
<trkpt lat="36.17051277196203" lon="140.1531716511905"><ele>253</ele><time>2025-11-29T03:36:21Z</time></trkpt>
<trkpt lat="36.17044234112419" lon="140.15302134650284"><ele>250</ele><time>2025-11-29T03:36:45Z</time></trkpt>
<trkpt lat="36.170182374505586" lon="140.15298172772054"><ele>240</ele><time>2025-11-29T03:37:11Z</time></trkpt>
<trkpt lat="36.16991322419954" lon="140.15279368742435"><ele>226</ele><time>2025-11-29T03:37:42Z</time></trkpt>
<trkpt lat="36.1699371697965" lon="140.15255661580147"><ele>218</ele><time>2025-11-29T03:38:40Z</time></trkpt>
<trkpt lat="36.16978900458097" lon="140.15227777576166"><ele>212</ele><time>2025-11-29T03:39:10Z</time></trkpt>
<trkpt lat="36.1698046385571" lon="140.15189531215432"><ele>216</ele><time>2025-11-29T03:39:37Z</time></trkpt>
<trkpt lat="36.169494189912214" lon="140.15185116188852"><ele>210</ele><time>2025-11-29T03:40:06Z</time></trkpt>
<trkpt lat="36.16922936003128" lon="140.1520924881791"><ele>204</ele><time>2025-11-29T03:40:31Z</time></trkpt>
<trkpt lat="36.16898818631775" lon="140.15231235096442"><ele>191</ele><time>2025-11-29T03:41:01Z</time></trkpt>
<trkpt lat="36.1687071839593" lon="140.1522881877827"><ele>187</ele><time>2025-11-29T03:41:28Z</time></trkpt>
<trkpt lat="36.16841726643477" lon="140.1524637767278"><ele>174</ele><time>2025-11-29T03:43:01Z</time></trkpt>
<trkpt lat="36.168209384897764" lon="140.15255819368863"><ele>172</ele><time>2025-11-29T03:43:24Z</time></trkpt>
<trkpt lat="36.16815485188742" lon="140.15271231461148"><ele>163</ele><time>2025-11-29T03:44:04Z</time></trkpt>
<trkpt lat="36.16791341739507" lon="140.15269918646297"><ele>161</ele><time>2025-11-29T03:44:30Z</time></trkpt>
<trkpt lat="36.16770498931941" lon="140.15270844625735"><ele>156</ele><time>2025-11-29T03:44:54Z</time></trkpt>
<trkpt lat="36.167459015214185" lon="140.15302816853492"><ele>152</ele><time>2025-11-29T03:45:23Z</time></trkpt>
<trkpt lat="36.16715248700881" lon="140.15305481080134"><ele>146</ele><time>2025-11-29T03:45:50Z</time></trkpt>
<trkpt lat="36.166903190870265" lon="140.15329646836648"><ele>140</ele><time>2025-11-29T03:46:16Z</time></trkpt>
<trkpt lat="36.16659036494013" lon="140.15350959233453"><ele>134</ele><time>2025-11-29T03:46:45Z</time></trkpt>
<trkpt lat="36.16636892078545" lon="140.15359906458826"><ele>125</ele><time>2025-11-29T03:47:10Z</time></trkpt>
<trkpt lat="36.166095562015684" lon="140.1538779913439"><ele>128</ele><time>2025-11-29T03:47:36Z</time></trkpt>
<trkpt lat="36.16601475627002" lon="140.1540841998317"><ele>122</ele><time>2025-11-29T03:48:09Z</time></trkpt>
<trkpt lat="36.16586014406138" lon="140.1542396523398"><ele>115</ele><time>2025-11-29T03:48:36Z</time></trkpt>
<trkpt lat="36.16573665127704" lon="140.15456375498422"><ele>106</ele><time>2025-11-29T03:49:05Z</time></trkpt>
<trkpt lat="36.16556973944328" lon="140.1549366167401"><ele>100</ele><time>2025-11-29T03:49:30Z</time></trkpt>
<trkpt lat="36.16543493939879" lon="140.15537972842716"><ele>91</ele><time>2025-11-29T03:49:59Z</time></trkpt>
<trkpt lat="36.16520567932342" lon="140.15552186805812"><ele>87</ele><time>2025-11-29T03:50:23Z</time></trkpt>
<trkpt lat="36.16495846663489" lon="140.15555067384386"><ele>85</ele><time>2025-11-29T03:50:48Z</time></trkpt>
<trkpt lat="36.164743533884234" lon="140.15584648849662"><ele>87</ele><time>2025-11-29T03:51:16Z</time></trkpt>
<trkpt lat="36.164519519880336" lon="140.15610464220427"><ele>86</ele><time>2025-11-29T03:51:43Z</time></trkpt>
<trkpt lat="36.16455256619162" lon="140.15643145749377"><ele>85</ele><time>2025-11-29T03:52:11Z</time></trkpt>
<trkpt lat="36.164759613006815" lon="140.15669088645265"><ele>95</ele><time>2025-11-29T03:52:39Z</time></trkpt>
<trkpt lat="36.165011929821105" lon="140.1569778715084"><ele>97</ele><time>2025-11-29T03:53:08Z</time></trkpt>
<trkpt lat="36.16523690698425" lon="140.1572132961302"><ele>100</ele><time>2025-11-29T03:53:34Z</time></trkpt>
<trkpt lat="36.165191921567576" lon="140.15760325363553"><ele>92</ele><time>2025-11-29T03:53:58Z</time></trkpt>
<trkpt lat="36.165076519121605" lon="140.15791670044865"><ele>79</ele><time>2025-11-29T03:54:32Z</time></trkpt>
<trkpt lat="36.165104586029955" lon="140.15823800553872"><ele>73</ele><time>2025-11-29T03:54:58Z</time></trkpt>
<trkpt lat="36.165027847771505" lon="140.15860885758343"><ele>58</ele><time>2025-11-29T03:55:29Z</time></trkpt>
<trkpt lat="36.16468717534487" lon="140.1587123562364"><ele>57</ele><time>2025-11-29T03:56:12Z</time></trkpt>
<trkpt lat="36.164324928342594" lon="140.1587956084797"><ele>51</ele><time>2025-11-29T03:56:38Z</time></trkpt>
<trkpt lat="36.16400772472686" lon="140.15864053599725"><ele>49</ele><time>2025-11-29T03:57:10Z</time></trkpt>
<trkpt lat="36.16371174029733" lon="140.15841624048394"><ele>42</ele><time>2025-11-29T03:57:37Z</time></trkpt>
<trkpt lat="36.16333768608882" lon="140.1583801504187"><ele>43</ele><time>2025-11-29T03:58:01Z</time></trkpt>
<trkpt lat="36.16328689610309" lon="140.15882697118084"><ele>45</ele><time>2025-11-29T03:58:28Z</time></trkpt>
<trkpt lat="36.16349398845946" lon="140.1591633940948"><ele>44</ele><time>2025-11-29T03:58:55Z</time></trkpt>
<trkpt lat="36.16361185378953" lon="140.15933105657044"><ele>42</ele><time>2025-11-29T03:59:21Z</time></trkpt>
<trkpt lat="36.163874416178565" lon="140.15950720961655"><ele>41</ele><time>2025-11-29T03:59:47Z</time></trkpt>
<trkpt lat="36.16415681920279" lon="140.15964035365744"><ele>40</ele><time>2025-11-29T04:00:12Z</time></trkpt>
<trkpt lat="36.164414695662195" lon="140.15984053803155"><ele>42</ele><time>2025-11-29T04:00:39Z</time></trkpt>
<trkpt lat="36.164473606509496" lon="140.15994696121638"><ele>44</ele><time>2025-11-29T04:01:08Z</time></trkpt>
<trkpt lat="36.16463387378591" lon="140.15969335272482"><ele>43</ele><time>2025-11-29T04:02:27Z</time></trkpt>
<trkpt lat="36.16508647802872" lon="140.1595350635612"><ele>61</ele><time>2025-11-29T04:07:01Z</time></trkpt>
<trkpt lat="36.164629389201195" lon="140.1597684361004"><ele>46</ele><time>2025-11-29T04:07:25Z</time></trkpt>
<trkpt lat="36.16474753372114" lon="140.15997296399954"><ele>44</ele><time>2025-11-29T04:10:03Z</time></trkpt>
<trkpt lat="36.164649958189145" lon="140.15980579025643"><ele>47</ele><time>2025-11-29T04:10:38Z</time></trkpt>
<trkpt lat="36.16473792524737" lon="140.15997975858895"><ele>47</ele><time>2025-11-29T04:14:22Z</time></trkpt>
<trkpt lat="36.16458598594207" lon="140.15966133220365"><ele>45</ele><time>2025-11-29T04:54:01Z</time></trkpt>
<trkpt lat="36.164575829487205" lon="140.15982269693515"><ele>42</ele><time>2025-11-29T04:55:45Z</time></trkpt>
<trkpt lat="36.164349332992394" lon="140.15984983164662"><ele>47</ele><time>2025-11-29T04:56:17Z</time></trkpt>
<trkpt lat="36.16407940396523" lon="140.15985149168839"><ele>43</ele><time>2025-11-29T04:56:45Z</time></trkpt>
<trkpt lat="36.16394727410642" lon="140.15988272774433"><ele>42</ele><time>2025-11-29T04:57:32Z</time></trkpt>
<trkpt lat="36.164209029202404" lon="140.1598970973031"><ele>40</ele><time>2025-11-29T04:58:09Z</time></trkpt>
<trkpt lat="36.16410668062308" lon="140.16031295426387"><ele>38</ele><time>2025-11-29T04:58:52Z</time></trkpt>
<trkpt lat="36.16397974812952" lon="140.16063522380696"><ele>37</ele><time>2025-11-29T04:59:18Z</time></trkpt>
</trkseg>
</trk>
</gpx>